85586,2008,01,01,00,00,AAXX 01004 85586 32960 00406 10172 20120 40125 53010 333 10218=
85586,2008,01,01,12,00,AAXX 01124 85586 32960 00000 10168 20120 40131 52/// 333 20101 30/// 50270 55127=
85586,2008,01,01,15,00,AAXX 01154 85586 42960 03104 10201 20139 40132 54002=
85586,2008,01,01,18,00,AAXX 01184 85586 32960 03112 10197 20138 40138 53006=
85586,2008,01,01,21,00,AAXX 01214 85586 42560 13108 10191 20136 40132 58007 81100 333 56600 81820=
85586,2008,01,02,00,00,AAXX 02004 85586 32460 53105 10157 20137 40148 52016 85500 333 10211 56600 85615=
85586,2008,01,02,12,00,AAXX 02124 85586 31458 83406 10154 20123 40155 52/// 7052/ 885// 333 20141 30/// 50310 55121 56799 88610=
85586,2008,01,02,15,00,AAXX 02154 85586 42460 52804 10168 20116 40159 51005 85500 333 56600 85612=
85586,2008,01,02,18,00,AAXX 02184 85586 32460 42607 10196 20125 40153 58005 84500 333 56700 74615=
85586,2008,01,02,21,00,AAXX 02214 85586 42460 82905 10179 20126 40147 57007 885// 333 56799 88615=
85586,2008,01,03,00,00,AAXX 03004 85586 32560 53604 10161 20130 40152 53004 85500 333 10198 56700 85620=
85586,2008,01,03,12,00,AAXX 03124 85586 32960 02704 10171 20134 40163 52/// 333 20102 30/// 50330 55063=
85586,2008,01,03,15,00,AAXX 03154 85586 42960 03311 10194 20141 40179 52016=
85586,2008,01,03,18,00,AAXX 03184 85586 32360 23112 10204 20142 40182 51004=
85586,2008,01,03,21,00,AAXX 03214 85586 42460 12706 10193 20127 40171 57012=
85586,2008,01,04,00,00,AAXX 04004 85586 32960 03503 10163 20120 40170 55001 333 10205=
85586,2008,01,04,12,00,AAXX 04124 85586 32960 00000 10157 20133 40162 52/// 333 20085 30/// 50400 55128=
85586,2008,01,04,15,00,AAXX 04154 85586 41258 23207 10182 20163 40158 58004 70500 82600 333 56700 82704=
85586,2008,01,04,18,00,AAXX 04184 85586 32960 02808 10194 20137 40162 53004=
85586,2008,01,04,21,00,AAXX 04214 85586 42960 03106 10185 20116 40150 57012=
85586,2008,01,05,00,00,AAXX 05004 85586 32960 00000 10160 20126 40144 57006 333 10196=
85586,2008,01,05,12,00,AAXX 05124 85586 31357 60000 10148 20134 40150 52/// 7052/ 86600 333 20090 30/// 50340 55128 56700 86707=
85586,2008,01,05,15,00,AAXX 05154 85586 41458 63209 10176 20147 40151 54002 70522 86600 333 56700 86710=
85586,2008,01,05,18,00,AAXX 05184 85586 31459 53010 10187 20154 40142 57009 70522 85500 333 56700 85613=
85586,2008,01,05,21,00,AAXX 05214 85586 42460 53107 10177 20132 40123 52019 85500 333 56700 85615=
85586,2008,01,06,00,00,AAXX 06004 85586 32460 80000 10158 20145 40118 57005 886// 333 10192 56799 88710=
85586,2008,01,06,12,00,AAXX 06124 85586 31450 83304 10158 20136 40147 52/// 7052/ 885// 333 20148 30/// 50210 55043 56099 88613=
85586,2008,01,06,15,00,AAXX 06154 85586 41450 83110 10168 20139 40161 52014 70522 885// 333 56799 88615=
85586,2008,01,06,18,00,AAXX 06184 85586 31456 73306 10190 20140 40158 58003 70522 85501 333 56606 85615 83075=
85586,2008,01,06,21,00,AAXX 06214 85586 41558 72604 10188 20138 40149 57009 70522 87500 333 56600 87620=
85586,2008,01,07,00,00,AAXX 07004 85586 31458 80000 10164 20130 40142 56007 70522 885// 333 10196 56099 88618=
85586,2008,01,07,12,00,AAXX 07124 85586 31330 83304 10152 20138 40164 52/// 7052/ 886// 333 20144 30/// 50190 55046 56799 88708=
85586,2008,01,07,15,00,AAXX 07154 85586 41440 83108 10166 20144 40178 52015 70522 885// 333 5679 88610=
85586,2008,01,07,18,00,AAXX 07184 85586 32460 72807 10190 20141 40175 57003 87500 333 56700 87617=
85586,2008,01,07,21,00,AAXX 07214 85586 42560 22808 10192 20132 40157 57018 81501 333 56606 81620=
85586,2008,01,08,00,00,AAXX 08004 85586 32560 40000 10160 20138 40150 56007 82501 333 10201 56606 82620 83075=
85586,2008,01,08,12,00,AAXX 08124 85586 31340 83603 10169 20126 40173 52/// 7052/ 886// 333 20147 30/// 50310 55053 56799 88709=
85586,2008,01,08,15,00,AAXX 08154 85586 42458 13107 10193 20128 40176 51003 70522 81500 333 56700 81615=
85586,2008,01,08,18,00,AAXX 08184 85586 32460 12508 10211 20136 40160 58014 81500 333 56700 81615=
85586,2008,01,08,21,00,AAXX 08214 85586 41456 82909 10181 20141 40149 57013 70522 885// 333 56799 88615=
85586,2008,01,09,12,00,AAXX 09124 85586 31106 83605 10156 20148 40167 51/// 7515/ 886// 333 20146 31/// 50340 55073 56799 88703=
85586,2008,01,09,15,00,AAXX 09154 85586 41460 82809 10194 20153 40174 53008 70155 885// 333 56799 81706 88615=
85586,2008,01,09,18,00,AAXX 09184 85586 11260 82611 10207 20151 40166 58006 69901 72055 885// 333 56799 81706 88612=
85586,2008,01,09,21,00,AAXX 09214 85586 41460 82612 10171 20143 40154 57014 70355 885// 333 56799 88612=
85586,2008,01,10,00,00,AAXX 10004 85586 32960 02512 10171 20139 40149 56005 333 10208=
85586,2008,01,10,12,00,AAXX 10124 85586 32560 20000 10178 20140 40175 52/// 82500 333 20114 30/// 50330 55047 56000 82620=
85586,2008,01,10,15,00,AAXX 10154 85586 42560 02513 10200 20144 40164 54002 81501 333 56606 81623=
85586,2008,01,10,18,00,AAXX 10184 85586 32560 12420 10208 20128 40169 54002 81100 333 56000 81825=
85586,2008,01,10,21,00,AAXX 10214 85586 42960 02718 10210 20131 40159 57010=
85586,2008,01,11,00,00,AAXX 11004 85586 32960 02505 10176 20115 40168 53007 333 10217=
85586,2008,01,11,12,00,AAXX 11124 85586 32960 01805 10185 20104 40143 54/// 333 20090 30/// 50420 55121=
85586,2008,01,11,18,00,AAXX 11184 85586 32970 02612 10193 20096 40132 57004=
85586,2008,01,11,21,00,AAXX 11214 85586 42970 02513 10198 20118 40109 57022=
85586,2008,01,12,00,00,AAXX 12004 85586 32970 02504 10178 20084 40110 54000 333 10258=
85586,2008,01,12,12,00,AAXX 12124 85586 32960 00000 10148 20103 40127 52/// 333 20074 30/// 50270 55132=
85586,2008,01,12,15,00,AAXX 12154 85586 42960 02410 10184 20111 40147 52019=
85586,2008,01,12,18,00,AAXX 12184 85586 32960 02810 10186 20134 40160 51013=
85586,2008,01,12,21,00,AAXX 12214 85586 42560 12708 10186 20129 40134 57016 81500 333 56600 81626=
85586,2008,01,13,00,00,AAXX 13004 85586 32460 72705 10156 20137 40137 52003 87500 333 10191 56600 87617=
85586,2008,01,13,12,00,AAXX 13124 85586 31205 80000 10142 20132 40144 52/// 7464/ 886// 333 20138 30/// 50310 55124 56099 88706=
85586,2008,01,13,15,00,AAXX 13154 85586 41320 23006 10170 20135 40148 51005 71044 82600 333 56600 82707=
85586,2008,01,13,18,00,AAXX 13184 85586 31315 23008 10190 20128 40146 54002 71044 82600 333 56600 82707=
85586,2008,01,13,21,00,AAXX 13214 85586 41315 83106 10170 20147 57004 71022 886// 333 56699 88707=
85586,2008,01,14,00,00,AAXX 14004 85586 31220 83106 10160 20147 40140 54002 71022 886// 333 10196 56799 88706=
85586,2008,01,14,12,00,AAXX 14124 85586 31220 80304 10153 20138 40167 51/// 7104/ 886// 333 20137 30/// 50310 55050 56799 88704=
85586,2008,01,14,15,00,AAXX 14154 85586 41260 13008 10193 20158 40159 58007 70344 81600 333 56700 81704=
85586,2008,01,14,18,00,AAXX 14184 85586 31212 42909 10186 20167 40152 56007 74044 84600 333 56700 84707=
85586,2008,01,14,21,00,AAXX 14214 85586 41960 02705 10224 20174 40125 57025=
85586,2008,01,15,00,00,AAXX 15004 85586 32960 00606 10203 20161 40123 53003 333 10233=
85586,2008,01,15,12,00,AAXX 15124 85586 32960 00404 10181 20150 40142 51/// 333 20114 30/// 50340 55100=
85586,2008,01,15,15,00,AAXX 15154 85586 42960 02808 10207 20133 40141 54001=
85586,2008,01,15,18,00,AAXX 15184 85586 32960 02910 10209 20143 40130 58011=
85586,2008,01,16,00,00,AAXX 16004 85586 31958 03504 10202 20114 40098 56012 70500 333 10249=
85586,2008,01,16,12,00,AAXX 16124 85586 31950 00000 10162 20138 40091 52/// 333 20104 30/// 50310 55126=
85586,2008,01,16,15,00,AAXX 16154 85586 42960 03106 10178 20112 40120 52029=
85586,2008,01,16,18,00,AAXX 16184 85586 32970 03108 10192 20131 40137 52017=
85586,2008,01,16,21,00,AAXX 16214 85586 42970 02705 10188 20114 40122 57015=
85586,2008,01,17,00,00,AAXX 17004 85586 32960 02804 10151 20113 40117 57014 333 10247=
85586,2008,01,17,12,00,AAXX 17124 85586 31340 80304 10141 20126 40136 52/// 7102/ 886// 333 20095 30/// 50390 55128 56799 88708=
85586,2008,01,17,15,00,AAXX 17154 85586 41456 42808 10170 20122 40143 52008 70511 84500 333 56600 84615=
85586,2008,01,17,18,00,AAXX 17184 85586 31458 82605 10172 20111 40150 52007 70522 885// 333 56799 88615=
85586,2008,01,17,21,00,AAXX 17214 85586 42470 22605 10174 20113 40141 57009 82500 333 56600 82617=
85586,2008,01,18,00,00,AAXX 18004 85586 31457 62506 10151 20114 40150 52008 70522 86500 333 10184 56600 86615=
85586,2008,01,18,12,00,AAXX 18124 85586 31450 83604 10136 20106 40175 52/// 7052/ 885// 333 20134 30/// 50210 55046 56099 88612=
85586,2008,01,18,15,00,AAXX 18154 85586 41350 22808 10166 20113 40178 51004 70522 82600 333 56600 82707=
85586,2008,01,18,18,00,AAXX 18184 85586 32560 23108 10178 20108 40172 57006 82500 333 56700 82620=
85586,2008,01,18,21,00,AAXX 18214 85586 42470 22804 10173 20113 40156 57017 82500 333 56700 82615=
85586,2008,01,19,00,00,AAXX 19004 85586 32460 63105 10150 20127 40148 57008 86500 333 10183 56600 86515=
85586,2008,01,19,12,00,AAXX 19124 85586 31440 83404 10130 20108 40132 52/// 7052/ 885// 333 20114 30/// 50290 55089 56099 88612=
85586,2008,01,19,18,00,AAXX 19184 85586 31457 63106 10164 20117 40139 54000 70522 86500 333 56799 86610=
85586,2008,01,19,21,00,AAXX 19214 85586 41456 82506 10150 20124 40131 57009 70522 885// 333 56699 88610=
85586,2008,01,20,00,00,AAXX 20004 85586 31340 82804 10134 20118 40128 56003 70522 886// 333 10170 56799 88706=
85586,2008,01,20,12,00,AAXX 20124 85586 11220 83104 10129 20120 40153 52/// 69904 7505/ 886// 333 20123 30/// 50310 55038 56799 70000 88704=
85586,2008,01,20,15,00,AAXX 20154 85586 41358 83305 10154 20122 40169 52016 70555 885// 333 56799 82706 88515=
85586,2008,01,20,18,00,AAXX 20184 85586 11460 82810 10171 20121 40164 58004 70155 87500 333 56700 87620=
85586,2008,01,20,21,00,AAXX 20214 85586 41560 73204 10164 20117 40153 57011 87500 333 56700 87625=
85586,2008,01,21,00,00,AAXX 21004 85586 31556 63303 10144 20112 40154 55000 70522 86500 333 10182 56700 88625=
85586,2008,01,21,12,00,AAXX 21124 85586 12360 20000 10143 20104 40157 51/// 69904 82600 333 20092 30/// 50330 55017 56700 82708=
85586,2008,01,21,15,00,AAXX 21154 85586 42360 53107 10174 20127 40167 52011 84500 333 56700 81708 84615=
85586,2008,01,21,18,00,AAXX 21184 85586 32260 13006 10181 20117 40166 50001 81600 333 56700 81706=
85586,2008,01,21,21,00,AAXX 21214 85586 42460 12907 10185 20131 40154 57012 81500 333 56700 81615=
85586,2008,01,22,00,00,AAXX 22004 85586 32460 13104 10153 20120 40145 57010 81500 333 10187 56700 81615=
85586,2008,01,22,12,00,AAXX 22124 85586 31457 83604 10143 20126 40148 52/// 7052/ 886// 333 20134 30/// 50220 55118 56799 88710=
85586,2008,01,22,15,00,AAXX 22154 85586 41458 73106 10162 20116 40152 52005 70522 87500 333 56600 87615=
85586,2008,01,22,18,00,AAXX 22184 85586 32560 63106 10183 20121 40154 54001 86500 333 56700 86620=
85586,2008,01,22,21,00,AAXX 22214 85586 42560 33105 10183 20122 40138 57015 83500 333 56600 83620=
85586,2008,01,23,00,00,AAXX 23004 85586 31457 80000 10152 20119 40136 52003 70522 885// 333 10188 56799 88615=
85586,2008,01,23,12,00,AAXX 23124 85586 31458 80000 10141 20122 40138 53/// 7052/ 886// 333 20136 30/// 50270 55063 56799 88712=
85586,2008,01,23,15,00,AAXX 23154 85586 41558 72706 10158 20110 40141 52004 70522 87500 333 56600 87620=
85586,2008,01,23,18,00,AAXX 23184 85586 32560 22507 10181 20111 40135 57008 82500 333 56600 82625=
85586,2008,01,23,21,00,AAXX 23214 85586 42560 22706 10181 20117 40133 57012 82500 333 56600 82620=
85586,2008,01,24,12,00,AAXX 24124 85586 32460 80604 10134 20114 40161 52/// 885// 333 20082 30/// 50240 55078 56099 88617=
85586,2008,01,24,15,00,AAXX 24154 85586 42370 12704 10182 20112 40163 52003 81600 333 56600 81708=
85586,2008,01,24,18,00,AAXX 24184 85586 32970 13105 10199 20109 40159 57003 80001 333 56007 81070=
85586,2008,01,24,21,00,AAXX 24214 85586 42970 12705 10196 20125 40149 57010 80001 333 56007 81070=
85586,2008,01,25,00,00,AAXX 25004 85586 32960 10000 10172 20142 40147 56003 80001 333 10204 56006 81075=
85586,2008,01,25,12,00,AAXX 25124 85586 32960 00000 10162 20126 40167 52/// 333 20106 30/// 50310 55099=
85586,2008,01,25,15,00,AAXX 25154 85586 42960 02706 10196 20126 40171 51005=
85586,2008,01,25,18,00,AAXX 25184 85586 32960 02710 10208 20124 40171 54001=
85586,2008,01,25,21,00,AAXX 25214 85586 42560 32710 10202 20146 40166 57006 83500 333 56600 83620=
85586,2008,01,26,00,00,AAXX 26004 85586 32560 52806 10180 20144 40173 53006 85500 333 10214 56600 85620=
85586,2008,01,26,12,00,AAXX 26124 85586 32960 00000 10169 20124 40189 52/// 333 20113 30/// 50340 55109=
85586,2008,01,26,15,00,AAXX 26154 85586 42960 02611 10203 20142 40183 58005=
85586,2008,01,26,18,00,AAXX 26184 85586 32960 02614 10208 20149 40175 57007=
85586,2008,01,26,21,00,AAXX 26214 85586 42960 02515 10205 20142 40159 57016=
85586,2008,01,27,00,00,AAXX 27004 85586 32960 02507 10171 20141 40164 53003 333 10213=
85586,2008,01,27,12,00,AAXX 27124 85586 32260 10104 10161 20132 40149 51/// 81600 333 20108 30/// 50340 55125 56700 81706=
85586,2008,01,27,15,00,AAXX 27154 85586 42960 02907 10197 20142 40139 56009=
85586,2008,01,27,18,00,AAXX 27184 85586 31340 52607 10182 20148 40128 57012 70140 85600 333 56700 85709=
85586,2008,01,27,21,00,AAXX 27214 85586 41356 32807 10185 20146 40124 56004 70140 83600 333 56700 83710=
85586,2008,01,28,00,00,AAXX 28004 85586 31456 83204 10175 20153 40128 53004 70522 885// 333 10203 56799 88615=
85586,2008,01,28,12,00,AAXX 28124 85586 31340 80000 10157 20150 40157 53/// 7102/ 886// 333 20153 50330 55111 56799 88708=
85586,2008,01,28,15,00,AAXX 28154 85586 42460 83106 10178 20141 40157 52010 885// 333 56799 88617=
85586,2008,01,28,18,00,AAXX 28184 85586 32560 73106 10192 20154 40160 54003 87500 333 56700 87620=
85586,2008,01,28,21,00,AAXX 28214 85586 42460 82806 10183 20149 40150 57010 885// 333 56699 88617=
85586,2008,01,29,00,00,AAXX 29004 85586 31458 80000 10173 20151 40152 70522 885// 333 10201 56799 88615=
85586,2008,01,29,12,00,AAXX 29124 85586 31540 80000 10166 20141 40158 52/// 70522 885// 333 20162 30/// 50021 55011 56099 88620=
85586,2008,01,29,15,00,AAXX 29154 85586 41557 80000 10178 20127 40174 52016 70522 885// 333 56699 88623=
85586,2008,01,29,18,00,AAXX 29184 85586 32560 83107 10188 20136 40178 52004 885// 333 56799 88625=
85586,2008,01,29,21,00,AAXX 29214 85586 42560 82806 10191 20129 40164 57014 885// 333 56699 88627=
85586,2008,01,30,00,00,AAXX 30004 85586 32560 20000 10173 20134 40159 57005 82500 333 10193 56600 82625=
85586,2008,01,30,12,00,AAXX 30124 85586 32560 71204 10168 20123 40163 52/// 87500 333 20104 30/// 50200 55010 56000 87630=
85586,2008,01,30,15,00,AAXX 30154 85586 41558 12706 10208 20116 40169 52008 70522 81500 333 56600 81630=
85586,2008,01,30,18,00,AAXX 30184 85586 32970 02708 10211 20137 40166 57003=
85586,2008,01,30,21,00,AAXX 30214 85586 42970 02607 10208 20116 40158 57008=
85586,2008,01,31,00,00,AAXX 31004 85586 32960 02704 10180 20140 40153 57007 333 10220=
85586,2008,01,31,12,00,AAXX 31124 85586 32460 70604 10150 20133 40160 52/// 87500 333 20106 30/// 50310 55099 56000 87617=
85586,2008,01,31,15,00,AAXX 31154 85586 42560 12806 10200 20136 40164 52006 81500 333 56600 81625=
85586,2008,01,31,18,00,AAXX 31184 85586 32560 12806 10206 20139 40167 51004 81500 333 56600 81620=
85586,2008,01,31,21,00,AAXX 31214 85586 42560 22704 10206 20139 40161 57006 81501 333 56606 81623=
85586,2008,02,01,00,00,AAXX 01004 85586 32560 22606 10180 20146 40169 53006 81501 333 10216 56606 81625=
85586,2008,02,01,12,00,AAXX 01124 85586 31258 10000 10174 20143 40175 51/// 7050/ 81600 333 20136 30/// 50340 55108 56700 81706=
85586,2008,02,01,15,00,AAXX 01154 85586 41958 02807 10201 20146 40177 53003 70500=
85586,2008,02,01,18,00,AAXX 01184 85586 31458 42812 10204 20150 40175 58002 70500 84500 333 56700 84615=
85586,2008,02,02,00,00,AAXX 02004 85586 31556 82506 10174 20146 40179 53005 70522 885// 333 10217 56799 88620=
85586,2008,02,02,12,00,AAXX 02124 85586 31456 80000 10166 20146 40177 51/// 7052/ 886// 333 20139 30/// 50330 55086 56799 88710=
85586,2008,02,02,15,00,AAXX 02154 85586 42456 82905 10178 20147 40486 51009 70522 886// 333 56799 88710=
85586,2008,02,02,18,00,AAXX 02184 85586 31457 83110 10194 20150 40186 55000 70522 885// 333 56799 88615=
85586,2008,02,02,21,00,AAXX 02214 85586 41330 83105 10174 20164 40178 57008 75022 886// 333 56799 88707=
85586,2008,02,03,00,00,AAXX 03004 85586 11220 80000 10176 20161 40178 52010 69901 75022 886// 333 10195 56699 88706=
85586,2008,02,03,12,00,AAXX 03124 85586 11456 80000 10172 20145 40178 52/// 69914 7052/ 886// 333 20167 30/// 50310 55000 56799 70001 88710=
85586,2008,02,03,15,00,AAXX 03154 85586 41558 83006 10189 20149 40181 53003 70522 885// 333 56799 88620=
85586,2008,02,03,18,00,AAXX 03184 85586 32560 83206 10200 20145 40171 58010 885// 333 56799 88625=
85586,2008,02,03,21,00,AAXX 03214 85586 42560 83106 10197 20156 40159 57012 885// 333 56799 88625=
85586,2008,02,04,00,00,AAXX 04004 85586 31556 82704 10177 20143 40155 56006 70522 885// 333 10214 56799 88620=
85586,2008,02,04,12,00,AAXX 04124 85586 31340 80000 10168 20161 40171 53/// 7102/ 886// 333 20164 30/// 50230 55002 56799 88707=
85586,2008,02,04,15,00,AAXX 04154 85586 41458 83505 10188 20149 40185 52012 70522 885// 333 56699 82610 88617=
85586,2008,02,04,18,00,AAXX 04184 85586 32560 53113 10219 20142 40188 52004 82501 333 56606 82620 83070=
85586,2008,02,04,21,00,AAXX 04214 85586 42970 32805 10211 20148 40180 57007 83030 333 56070 83365=
85586,2008,02,05,00,00,AAXX 05004 85586 32560 60000 10190 20163 40176 57006 81531 333 10224 56666 81620 83365=
85586,2008,02,05,12,00,AAXX 05124 85586 32460 30000 10158 20144 40167 53/// 83500 333 20124 30/// 50300 55070 56600 83615=
85586,2008,02,05,15,00,AAXX 05154 85586 42560 12805 10212 20155 40164 54001 81100 333 56600 81820=
85586,2008,02,05,18,00,AAXX 05184 85586 32560 13210 10220 20130 40169 52005 81100 333 56600 81820=
85586,2008,02,06,00,00,AAXX 06004 85586 32960 00000 10192 20157 40162 57009 333 10225=
85586,2008,02,06,12,00,AAXX 06124 85586 32560 50000 10175 20154 40147 53/// 86500 333 20160 30/// 50350 55113 56600 85625=
85586,2008,02,06,15,00,AAXX 06154 85586 42560 23008 10218 20143 40153 52008 82500 333 56600 82625=
85586,2008,02,06,18,00,AAXX 06184 85586 32560 13010 10224 20151 40153 54000 81100 333 56000 81830=
85586,2008,02,06,21,00,AAXX 06214 85586 42960 02807 10226 20131 40159 57004=
85586,2008,02,07,00,00,AAXX 07004 85586 32260 22504 10192 20173 40155 53004 82600 333 10228 56600 82706=
85586,2008,02,07,12,00,AAXX 07124 85586 32960 00904 10181 20150 40149 52/// 333 20126 30/// 50340 55100=
85586,2008,02,07,15,00,AAXX 07154 85586 42960 02711 10221 20153 40146 50001=
85586,2008,02,07,18,00,AAXX 07184 85586 32360 22518 10221 20168 40139 57007 81601 333 56706 81709=
85586,2008,02,07,21,00,AAXX 07214 85586 42960 02616 10214 20166 40141 53002=
85586,2008,02,08,00,00,AAXX 08004 85586 31456 82905 10193 20158 40156 52013 70511 885// 333 10231 56799 88512=
85586,2008,02,08,12,00,AAXX 08124 85586 32456 82204 10183 20144 40167 52/// 7052/ 885// 333 20173 30/// 50330 55117 56799 88615=
85586,2008,02,08,15,00,AAXX 08154 85586 42558 72506 10204 20141 40168 51002 70522 87500 333 56700 87620=
85586,2008,02,08,18,00,AAXX 08184 85586 32460 12511 10211 20132 40171 53004 81500 333 56700 81615=
85586,2008,02,08,21,00,AAXX 08214 85586 42960 02516 10211 20142 40169 56002=
85586,2008,02,09,12,00,AAXX 09124 85586 32960 01104 10150 20111 40154 51/// 333 20088 30/// 50340 55085=
85586,2008,02,09,15,00,AAXX 09154 85586 42960 02511 10205 20127 40151 50000=
85586,2008,02,09,18,00,AAXX 09184 85586 32960 02516 10223 20139 40144 57007=
85586,2008,02,09,21,00,AAXX 09214 85586 42960 02615 10215 20130 40127 57017=
85586,2008,02,10,00,00,AAXX 10004 85586 32960 02504 10184 20132 40129 55000 333 10225=
85586,2008,02,10,15,00,AAXX 10154 85586 42970 02605 10236 20102 40112 57004=
85586,2008,02,10,18,00,AAXX 10184 85586 32970 02706 10205 20111 40110 57003=
85586,2008,02,10,21,00,AAXX 10214 85586 42970 03106 10204 20131 40106 57005=
85586,2008,02,11,00,00,AAXX 11004 85586 32960 13504 10178 20156 40112 52005 80001 333 10240 56007 81070=
85586,2008,02,11,12,00,AAXX 11124 85586 31240 80000 10157 20151 40127 52/// 7052/ 886// 333 20141 30/// 50380 55121 56099 88706=
85586,2008,02,11,15,00,AAXX 11154 85586 41258 53105 10188 20144 40138 52009 70522 81500 333 56600 81707 84615=
85586,2008,02,11,18,00,AAXX 11184 85586 32460 42805 10203 20143 40145 52013 84500 333 56700 84615=
85586,2008,02,11,21,00,AAXX 11214 85586 42560 23404 10203 20139 40137 57006 82500 333 56600 82620=
85586,2008,02,12,00,00,AAXX 12004 85586 32460 61204 10170 20154 40159 53/// 83530 333 20142 30/// 50200 55015 56660 83613 83365=
85586,2008,02,12,12,00,AAXX 12124 85586 31356 80000 10165 20149 40133 53/// 7052/ 886// 333 20162 30/// 50350 55080 56699 88707=
85586,2008,02,12,15,00,AAXX 12154 85586 41458 82805 10173 20133 40143 52010 70522 885// 333 56699 88615=
85586,2008,02,12,18,00,AAXX 12184 85586 32560 22908 10200 20144 40138 58004 82500 333 56600 82620=
85586,2008,02,12,21,00,AAXX 12214 85586 42560 43308 10206 20150 40133 57004 84500 333 56600 84620=
85586,2008,02,13,00,00,AAXX 13004 85586 32460 70000 10178 20149 40126 57009 87500 333 10208 56600 87617=
85586,2008,02,13,12,00,AAXX 13124 85586 32456 83204 10173 20136 40146 52/// 7052/ 886// 333 20166 30/// 50340 55052 56799 88710=
85586,2008,02,13,15,00,AAXX 13154 85586 41456 83106 10179 20141 40155 51009 70522 885// 333 56799 88612=
85586,2008,02,13,18,00,AAXX 13184 85586 32560 22705 10208 20130 40156 58003 82500 333 56700 82620=
85586,2008,02,14,00,00,AAXX 14004 85586 32960 02804 10176 20136 40146 55000 333 10213=
85586,2008,02,14,12,00,AAXX 14124 85586 32960 00000 10162 20132 40159 52/// 333 20106 30/// 50340 55068=
85586,2008,02,14,15,00,AAXX 14154 85586 42960 02805 10199 20137 40162 51004=
85586,2008,02,14,18,00,AAXX 14184 85586 32960 02514 10224 20127 40150 57012=
85586,2008,02,14,21,00,AAXX 14214 85586 42960 02512 10211 20153 40143 56007=
85586,2008,02,15,00,00,AAXX 15004 85586 31958 03603 10173 20143 40156 53011 70500 333 10227=
85586,2008,02,15,12,00,AAXX 15124 85586 32960 00000 10171 20130 40155 52/// 333 20121 30/// 50350 55120=
85586,2008,02,15,15,00,AAXX 15154 85586 42960 03005 10207 20133 40156 53003=
85586,2008,02,15,18,00,AAXX 15184 85586 32960 02511 10205 20148 40150 58006=
85586,2008,02,15,21,00,AAXX 15214 85586 42960 02707 10199 20146 40140 57011=
85586,2008,02,16,00,00,AAXX 16004 85586 31956 03504 10162 20130 40146 53005 70500 333 10215=
85586,2008,02,16,12,00,AAXX 16124 85586 31930 00000 10131 20122 40148 53/// 7100/ 333 20100 30/// 50290 55122=
85586,2008,02,16,15,00,AAXX 16154 85586 42960 02904 10186 20136 40156 52009=
85586,2008,02,16,18,00,AAXX 16184 85586 32970 02809 10188 20115 40149 57007=
85586,2008,02,16,21,00,AAXX 16214 85586 32970 02808 10178 20108 40132 57016 80001 333 56006 81070=
85586,2008,02,17,00,00,AAXX 17004 85586 32960 20000 10163 20100 40123 52010 80001 333 10198 56007 82070=
85586,2008,02,17,12,00,AAXX 17124 85586 31958 40000 10121 20096 40146 52/// 7051/ 80001 333 20093 30/// 50290 55114 56006 84070=
85586,2008,02,17,15,00,AAXX 17154 85586 42960 52805 10190 20110 40155 52008 80001 333 56006 85075=
85586,2008,02,17,18,00,AAXX 17184 85586 32960 62805 10187 20118 40155 54002 80001 333 56006 86075=
85586,2008,02,17,21,00,AAXX 17214 85586 42960 62507 10180 20133 40147 57008 80008 333 56006 86275=
85586,2008,02,18,00,00,AAXX 18004 85586 32960 50000 10156 20127 40146 54001 80001 333 10199 56006 85073=
85586,2008,02,18,12,00,AAXX 18124 85586 32960 00000 10148 20120 40165 53/// 333 20094 30/// 50250 55076=
85586,2008,02,18,15,00,AAXX 18154 85586 42960 03107 10190 20135 40175 52009=
85586,2008,02,18,18,00,AAXX 18184 85586 32960 03107 10191 20140 40175 54000=
85586,2008,02,18,21,00,AAXX 18214 85586 42960 03104 10191 20138 40164 57008=
85586,2008,02,19,00,00,AAXX 19004 85586 32960 00505 10162 20142 40162 54001 333 10195=
85586,2008,02,19,12,00,AAXX 19124 85586 31956 00000 10146 20114 40160 52/// 7050/ 333 20093 30/// 50340 55115=
85586,2008,02,19,15,00,AAXX 19154 85586 42960 03006 10193 20124 40161 51002=
85586,2008,02,19,18,00,AAXX 19184 85586 32960 02505 10196 20125 40153 58005=
85586,2008,02,19,21,00,AAXX 19214 85586 42960 03007 10194 20132 40155 54001=
85586,2008,02,20,00,00,AAXX 20004 85586 31956 03504 10164 20141 40161 53006 70500 333 10201=
85586,2008,02,20,12,00,AAXX 20124 85586 31456 83405 10156 20125 40162 51/// 7052/ 885// 333 20148 30/// 50360 55121 56799 88612=
85586,2008,02,20,15,00,AAXX 20154 85586 41458 83214 10173 20129 40176 52014 70522 885// 333 56799 81510 88515=
85586,2008,02,20,18,00,AAXX 20184 85586 32460 23012 10203 20132 40173 58002 82500 333 56700 82615=
85586,2008,02,20,21,00,AAXX 20214 85586 42460 13106 10209 20129 40165 57007 81500 333 56700 81615=
85586,2008,02,21,00,00,AAXX 21004 85586 31556 70000 10176 20127 40168 55001 70511 87500 333 10213 56700 87620=
85586,2008,02,21,12,00,AAXX 21124 85586 31456 80605 10166 20127 40162 52/// 7052/ 885// 333 20134 30/// 50330 55066 567// 88612=
85586,2008,02,21,15,00,AAXX 21154 85586 41558 83209 10184 20128 40171 53009 70522 885// 333 56799 88620=
85586,2008,02,21,18,00,AAXX 21184 85586 31560 33007 10206 20132 40160 58009 81501 333 56706 81625=
85586,2008,02,21,21,00,AAXX 21214 85586 42960 22808 10196 20118 40151 80001 333 56006 82075=
85586,2008,02,22,00,00,AAXX 22004 85586 32960 43204 10166 20126 40155 53003 80001 333 10212 56006 84075=
85586,2008,02,22,12,00,AAXX 22124 85586 32960 00904 10153 20131 40162 52/// 333 20113 30/// 50360 55068=
85586,2008,02,22,15,00,AAXX 22154 85586 42960 02704 10192 20126 40174 52008=
85586,2008,02,22,18,00,AAXX 22184 85586 32960 03105 10199 20122 40173 54001=
85586,2008,02,22,21,00,AAXX 22214 85586 42960 02605 10202 20121 40164 57009=
85586,2008,02,23,00,00,AAXX 23004 85586 32960 00000 10176 20127 40170 52006 333 10208=
85586,2008,02,23,12,00,AAXX 23124 85586 32960 00000 10161 20143 40178 53/// 333 20120 30/// 50340 55115=
85586,2008,02,23,15,00,AAXX 23154 85586 42960 02805 10206 20128 40186 52010=
85586,2008,02,23,18,00,AAXX 23184 85586 32960 02807 10207 20131 40185 54001=
85586,2008,02,23,21,00,AAXX 23214 85586 42960 02906 10206 20128 40186 54001=
85586,2008,02,24,12,00,AAXX 24124 85586 32960 00000 10155 20136 40183 53/// 333 20098 30/// 50410 55114=
85586,2008,02,24,15,00,AAXX 24154 85586 42960 12805 10211 20116 40186 52005 80001 333 56007 81075=
85586,2008,02,24,18,00,AAXX 24184 85586 32960 32512 10213 20108 40189 54002 80001 333 56006 83075=
85586,2008,02,24,21,00,AAXX 24214 85586 42960 32805 10208 20134 40176 57012 80001 333 56006 83075=
85586,2008,02,25,00,00,AAXX 25004 85586 32960 40000 10180 20149 40186 52008 80001 333 10218 56006 84075=
85586,2008,02,25,12,00,AAXX 25124 85586 32960 11204 10154 20126 40164 52/// 80001 333 20108 30/// 50330 55115 56006 81075=
85586,2008,02,25,15,00,AAXX 25154 85586 42960 12706 10194 20138 40162 54001 80001 333 56006 81075=
85586,2008,02,25,18,00,AAXX 25184 85586 32560 22808 10198 20141 40152 57009 82501 333 56606 82626=
85586,2008,02,25,21,00,AAXX 25214 85586 42560 22612 10198 20134 40147 56005 82501 333 56606 82626=
85586,2008,02,26,00,00,AAXX 26004 85586 32460 82404 10170 20140 40145 54003 885// 333 10204 56699 88613=
85586,2008,02,26,12,00,AAXX 26124 85586 31456 80000 10162 20137 40149 52/// 70522 885// 333 20150 30/// 50290 55100 56099 88613=
85586,2008,02,26,15,00,AAXX 26154 85586 41457 83106 10176 20139 40160 52011 70522 885// 333 56699 88617=
85586,2008,02,26,18,00,AAXX 26184 85586 31558 82808 10192 20147 40159 54001 70522 885// 333 56699 88620=
85586,2008,02,26,21,00,AAXX 26214 85586 41556 83106 10184 20149 40154 56005 70522 885// 333 56699 88620=
85586,2008,02,27,00,00,AAXX 27004 85586 31456 80000 10174 20139 40153 54001 70522 885// 333 10198 56699 88315=
85586,2008,02,27,12,00,AAXX 27124 85586 31440 80000 10162 20142 40160 52/// 7052/ 885// 333 20154 30/// 50220 55000 56099 88610=
85586,2008,02,27,15,00,AAXX 27154 85586 41440 82704 10178 20152 40173 52015 70522 885// 333 56699 88615=
85586,2008,02,27,18,00,AAXX 27184 85586 31457 83106 10192 20145 40174 54001 70522 885// 333 56699 82615 88620=
85586,2008,02,27,21,00,AAXX 27214 85586 42560 12806 10204 20141 40163 57010 81500 333 56600 81626=
85586,2008,02,28,00,00,AAXX 28004 85586 32560 32406 10166 20149 40166 54002 83500 333 10206 56500 83620=
85586,2008,02,28,12,00,AAXX 28124 85586 31204 80000 10138 20129 40159 53/// 7464/ 886// 333 20128 30/// 50230 55022 56099 88704=
85586,2008,02,28,15,00,AAXX 28154 85586 41440 82706 10164 20144 40169 52011 70522 885// 333 56699 88610=
85586,2008,02,28,18,00,AAXX 28184 85586 31457 62806 10184 20145 40168 54001 70522 86500 333 56600 86615=
85586,2008,02,29,00,00,AAXX 29004 85586 31356 80000 10170 20159 40159 57006 71022 886// 333 10186 56699 88709=
85586,2008,02,29,12,00,AAXX 29124 85586 31240 80000 10157 20152 40158 53/// 7102/ 886// 333 20153 30/// 50190 55015 56799 88705=
85586,2008,02,29,15,00,AAXX 29154 85586 41458 60000 10182 20155 40167 52009 70522 86500 333 56700 86613=
85586,2008,02,29,18,00,AAXX 29184 85586 32460 72710 10193 20158 40169 54002 87500 333 56700 87613=
85586,2008,02,29,21,00,AAXX 29214 85586 41108 82804 10173 20165 40162 57007 74622 886// 333 56799 88702=
85586,2008,03,01,00,00,AAXX 01004 85586 31120 80000 10179 20171 40162 54000 71022 886// 333 10196 56799 88703=
85586,2008,03,01,12,00,AAXX 01124 85586 32460 61204 10170 20154 40159 53/// 83530 333 20142 30/// 50200 55015 56660 83613 83365=
85586,2008,03,01,15,00,AAXX 01154 85586 42960 22706 10212 20162 40155 54002 82030 333 56060 82365=
85586,2008,03,01,18,00,AAXX 01184 85586 31104 72707 10200 20185 40155 54001 74442 87600 333 56600 87702=
85586,2008,03,01,21,00,AAXX 01214 85586 42960 62707 10208 20164 40145 57009 83031 333 56066 83365 83073=
85586,2008,03,02,00,00,AAXX 02004 85586 32460 82805 10193 20178 40150 53003 886// 333 10220 56699 88710=
85586,2008,03,02,12,00,AAXX 02124 85586 32960 00000 10162 20150 40129 52/// 333 20141 30/// 50300 55076=
85586,2008,03,02,15,00,AAXX 02154 85586 42960 02810 10204 20161 40136 52008=
85586,2008,03,02,18,00,AAXX 02184 85586 32560 12410 10214 20153 40126 58009 81100 333 56600 81825=
85586,2008,03,02,21,00,AAXX 02214 85586 42560 12610 10218 20134 40118 57008 81100 333 56600 81820=
85586,2008,03,03,00,00,AAXX 03004 85586 32560 20404 10168 20133 40128 53008 82100 333 10228 56600 82820=
85586,2008,03,03,12,00,AAXX 03124 85586 32960 20000 10144 20104 40150 52/// 80001 333 20100 30/// 50280 55116 56006 82075=
85586,2008,03,03,15,00,AAXX 03154 85586 42960 22806 10194 20131 40155 51006 80001 333 56006 82075=
85586,2008,03,03,18,00,AAXX 03184 85586 32960 52612 10190 20128 40158 54003 81102 333 56606 81820 85075=
85586,2008,03,04,00,00,AAXX 04004 85586 32560 00408 10154 20133 40155 54001 82500 333 10202 56600 82626=
85586,2008,03,04,12,00,AAXX 04124 85586 31430 50904 10128 20117 40166 53/// 7052/ 85500 333 20088 30/// 50290 55111 56000 85610=
85586,2008,03,04,15,00,AAXX 04154 85586 41557 12906 10173 20125 40173 52006 70511 81500 333 56600 81626=
85586,2008,03,04,18,00,AAXX 04184 85586 32960 02809 10192 20128 40175 54002=
85586,2008,03,04,21,00,AAXX 04214 85586 42460 33108 10178 20136 40172 54003 83500 333 56600 83617=
85586,2008,03,05,00,00,AAXX 05004 85586 32460 82706 10156 20132 40174 54002 885// 333 10204 56699 88615=
85586,2008,03,05,12,00,AAXX 05124 85586 31460 80000 10149 20119 40175 53/// 7052/ 885// 333 20111 30/// 50220 55091 56699 88613=
85586,2008,03,05,15,00,AAXX 05154 85586 42960 02706 10182 20121 40179 52004=
85586,2008,03,05,18,00,AAXX 05184 85586 32360 22511 10179 20130 40172 57005 82600 333 56700 82707=
85586,2008,03,05,21,00,AAXX 05214 85586 42960 02805 10185 20131 40068 57015=
85586,2008,03,06,00,00,AAXX 06004 85586 32960 50000 10163 20116 40157 54000 80001 333 10213 56006 85073=
85586,2008,03,06,12,00,AAXX 06124 85586 31458 80504 10153 20127 40148 53/// 7052/ 8753/ 333 20142 30/// 50190 55102 56669 87613=
85586,2008,03,06,15,00,AAXX 06154 85586 41458 72807 10186 20121 40147 54000 70522 82510 333 56660 82615 86465=
85586,2008,03,06,18,00,AAXX 06184 85586 31758 73108 10187 20124 40147 54000 70522 83031 333 56067 83350 85070=
85586,2008,03,06,21,00,AAXX 06214 85586 41358 83604 10173 20139 40139 57008 70522 82519 333 56669 82610 88460=
85586,2008,03,07,00,00,AAXX 07004 85586 31357 80000 10153 20131 40140 54001 70522 81519 333 10195 56669 81610 88460=
85586,2008,03,07,12,00,AAXX 07124 85586 31959 70000 10133 20111 40149 52/// 7052/ 84021 333 10123 30/// 50180 55010 56066 84464 83070=
85586,2008,03,07,15,00,AAXX 07154 85586 41557 82805 10161 20119 40168 52020 70522 8251/ 333 56669 82625 88362=
85586,2008,03,07,18,00,AAXX 07184 85586 31559 83109 10173 20133 40168 54000 70522 8381/ 333 56769 83825 88360=
85586,2008,03,07,21,00,AAXX 07214 85586 41530 80000 10142 20124 40174 52005 76322 8281/ 333 56669 82820 88358=
85586,2008,03,08,00,00,AAXX 08004 85586 11560 70905 10148 20141 40172 54002 60091 72162 82270 333 10190 56660 82820 85365=
85586,2008,03,08,12,00,AAXX 08124 85586 11302 31204 10136 20127 40200 52/// 69934 7464/ 83600 333 20126 31/// 50140 55026 56200 70003 83707=
85586,2008,03,08,15,00,AAXX 08154 85586 42560 12604 10200 20149 40199 54000 81500 333 56600 81625=
85586,2008,03,08,18,00,AAXX 08184 85586 32560 22612 10206 20148 40189 57009 81501 333 56606 81625=
85586,2008,03,08,21,00,AAXX 08214 85586 42560 22408 10200 20138 40178 57011 81500 333 56606 81625=
85586,2008,03,09,00,00,AAXX 09004 85586 32960 02704 10164 20149 40181 54002 333 10211=
85586,2008,03,09,12,00,AAXX 09124 85586 31360 60000 10124 20113 40183 52/// 7052/ 86600 333 20108 31/// 50240 55106 56000 86708=
85586,2008,03,09,15,00,AAXX 09154 85586 41356 13106 10187 20144 40185 51003 70511 81600 333 56600 81708=
85586,2008,03,09,18,00,AAXX 09184 85586 32560 12510 10190 20139 40181 57004 81100 333 56600 81820=
85586,2008,03,09,21,00,AAXX 09214 85586 42560 12608 10184 20137 40174 57007 81100 333 56600 81820=
85586,2008,03,10,00,00,AAXX 10004 85586 32560 13604 10162 20142 40173 54001 81100 333 10201 56000 81820=
85586,2008,03,10,12,00,AAXX 10124 85586 31440 82804 10150 20133 40168 52/// 7052/ 885// 333 20142 30/// 50210 55096 56099 88612=
85586,2008,03,10,15,00,AAXX 10154 85586 41450 83104 10166 20130 40175 51008 70522 885// 333 56699 88613=
85586,2008,03,10,18,00,AAXX 10184 85586 32460 42706 10190 20122 40167 57008 84500 333 56600 84618=
85586,2008,03,10,21,00,AAXX 10214 85586 42460 82606 10184 20115 40160 56007 885// 333 56699 88618=
85586,2008,03,11,00,00,AAXX 11004 85586 31458 83104 10170 20118 40160 53006 70522 885// 333 10198 56099 88618=
85586,2008,03,11,12,00,AAXX 11124 85586 31556 70000 10167 20128 40180 52/// 7052/ 87500 333 20161 30/// 50330 55035 56700 87625=
85586,2008,03,11,18,00,AAXX 11184 85586 32960 02409 10211 20114 40178=
85586,2008,03,11,21,00,AAXX 11214 85586 42960 02511 10190 20126 40166 57014=
85586,2008,03,12,00,00,AAXX 12004 85586 31958 02505 10161 20130 40165 54001 70500 333 10219=
85586,2008,03,12,12,00,AAXX 12124 85586 32960 01104 10131 20115 40169 52/// 333 20091 30/// 50340 55067=
85586,2008,03,12,15,00,AAXX 12154 85586 42960 03205 10197 20121 40180 52013=
85586,2008,03,12,18,00,AAXX 12184 85586 32960 02911 10204 20133 40177 58003=
85586,2008,03,13,00,00,AAXX 13004 85586 31956 03603 10163 20145 40181 54001 70500 333 10208=
85586,2008,03,13,12,00,AAXX 13124 85586 32960 00000 10135 20118 40179 52/// 333 20104 30/// 50330 56111=
85586,2008,03,13,15,00,AAXX 13154 85586 42960 02806 10183 20134 40182 52004=
85586,2008,03,14,00,00,AAXX 14004 85586 31440 80000 10158 20151 40166 58005 70522 885// 333 10203 56799 88612=
85586,2008,03,14,15,00,AAXX 14154 85586 41450 83104 10162 20137 40175 52020 70522 885// 333 56699 88613=
85586,2008,03,14,18,00,AAXX 14184 85586 32460 73106 10190 20137 40178 51003 87500 333 56600 87618=
85586,2008,03,14,21,00,AAXX 14214 85586 42560 22806 10184 20136 40167 57011 81501 333 56606 81623 81075=
85586,2008,03,15,00,00,AAXX 15004 85586 32460 40000 10160 20134 40172 53005 84500 333 10208 56600 84618=
85586,2008,03,15,12,00,AAXX 15124 85586 32260 10904 10112 20104 40161 52/// 81600 333 20078 30/// 50170 55048 56000 81606=
85586,2008,03,15,15,00,AAXX 15154 85586 42960 02806 10192 20133 40170 52010=
85586,2008,03,15,18,00,AAXX 15184 85586 32960 02508 10204 20127 40167 54002=
85586,2008,03,15,21,00,AAXX 15214 85586 42560 12412 10200 20161 40160 57007 81500 333 56600 81620=
85586,2008,03,16,00,00,AAXX 16004 85586 32460 42804 10172 20158 40171 52010 84500 333 10214 56600 84613=
85586,2008,03,16,12,00,AAXX 16124 85586 32960 10000 10120 20109 40189 52/// 80002 333 20100 30/// 50260 55011 56006 81075=
85586,2008,03,16,15,00,AAXX 16154 85586 42960 22806 10202 20126 40192 51005 80002 333 56006 82075=
85586,2008,03,16,18,00,AAXX 16184 85586 32960 12408 10203 20125 40173 57009 80002 333 56006 81075=
85586,2008,03,16,21,00,AAXX 16214 85586 42960 32414 10204 20129 40172 57011 80002 333 56006 83075=
85586,2008,03,17,00,00,AAXX 17004 85586 32960 30000 10172 20116 40176 54003 80002 333 10216 56006 83075=
85586,2008,03,17,12,00,AAXX 17124 85586 32960 00904 10133 20107 40176 52/// 333 20088 50340 55113=
85586,2008,03,17,15,00,AAXX 17154 85586 42960 02511 10204 20101 40164 58010=
85586,2008,03,17,18,00,AAXX 17184 85586 32960 02715 10201 20123 40147 57017=
85586,2008,03,17,21,00,AAXX 17214 85586 42960 02511 10203 20108 40126 57021=
85586,2008,03,18,00,00,AAXX 18004 85586 32960 00000 10166 20109 40130 53003 333 10241=
85586,2008,03,18,12,00,AAXX 18124 85586 31220 10000 10122 20113 40125 52/// 7102/ 81600 333 20089 30/// 50340 55114 56700 81706=
85586,2008,03,18,15,00,AAXX 18154 85586 41256 43111 10165 20142 40130 51006 70542 84600 333 56700 84706=
85586,2008,03,18,18,00,AAXX 18184 85586 31356 82605 10171 20141 4013951009 70522 886// 333 56799 88709=
85586,2008,03,18,21,00,AAXX 18214 85586 41456 82906 10172 20137 40144 53005 70522 885// 333 56799 88615=
85586,2008,03,19,12,00,AAXX 19124 85586 32960 11804 10121 20098 40180 52/// 80001 333 20062 30/// 50032 55046 56006 81075=
85586,2008,03,19,15,00,AAXX 19154 85586 42960 12907 10189 20092 40184 51005 80001 333 56006 81075=
85586,2008,03,19,18,00,AAXX 19184 85586 32960 02414 10195 20110 40179 58004=
85586,2008,03,19,21,00,AAXX 19214 85586 42960 02611 10181 20132 40183 53003=
85586,2008,03,20,00,00,AAXX 20004 85586 32960 00905 10153 20123 40182 58002 333 10197=
85586,2008,03,20,12,00,AAXX 20124 85586 32960 01806 10160 20095 40138 55/// 80001 333 20084 30/// 50260 55112 56006 83075=
85586,2008,03,20,15,00,AAXX 20154 85586 42960 32608 10208 20116 40127 57009 80001 333 56006 83075=
85586,2008,03,20,18,00,AAXX 20184 85586 32960 52812 10198 20118 40125 54003 80001 333 56006 85075=
85586,2008,03,20,21,00,AAXX 20214 85586 42960 72808 10186 20127 40121 56005 80001 333 56006 87075=
85586,2008,03,21,00,00,AAXX 21004 85586 32960 60304 10148 20117 40136 52014 80001 333 10234 56006 86075=
85586,2008,03,21,12,00,AAXX 21124 85586 31308 70000 10116 20107 40148 52/// 7464/ 87600 333 20102 30/// 50320 55110 56600 87708=
85586,2008,03,21,15,00,AAXX 21154 85586 41440 73306 10166 20123 40156 52009 70522 87500 333 56600 87613=
85586,2008,03,21,18,00,AAXX 21184 85586 31457 53112 10184 20132 40154 54002 70511 85500 333 56600 85620=
85586,2008,03,21,21,00,AAXX 21214 85586 41315 83304 10156 20136 40146 57008 71022 886// 333 56699 88707=
85586,2008,03,22,00,00,AAXX 22004 85586 31202 80000 10134 20125 40140 55007 74642 886// 333 10188 56099 88706=
85586,2008,03,22,12,00,AAXX 22124 85586 31204 80000 10128 20124 40127 53/// 7444/ 886// 333 20118 30/// 50170 55040 56799 88704=
85586,2008,03,22,15,00,AAXX 22154 85586 41220 83304 10151 20144 40137 52010 71042 886// 333 56799 88705=
85586,2008,03,22,18,00,AAXX 22184 85586 31456 83304 10170 20145 40136 54000 70542 886// 333 56799 88712=
85586,2008,03,22,21,00,AAXX 22214 85586 41457 83106 10170 20145 40122 57014 70522 885// 333 56799 88615=
85586,2008,03,23,00,00,AAXX 23004 85586 31456 80000 10163 20146 40128 52006 70522 886// 333 10174 56799 88710=
85586,2008,03,23,12,00,AAXX 23124 85586 31440 80404 10168 20136 40151 52/// 7052/ 885// 333 20161 30/// 50310 55000 56799 88612=
85586,2008,03,23,15,00,AAXX 23154 85586 41556 62907 10197 20118 40162 52012 70522 86500 333 56700 86620=
85586,2008,03,23,18,00,AAXX 23184 85586 31958 02809 10209 20130 40167 51006 70522=
85586,2008,03,23,21,00,AAXX 23214 85586 42960 02705 10204 20129 40165 58003=
85586,2008,03,24,00,00,AAXX 24004 85586 31958 00000 10154 20108 40164 58003 70500 333 10218=
85586,2008,03,24,12,00,AAXX 24124 85586 32960 50000 10114 20104 40160 52/// 80001 333 20081 30/// 50240 55078 56006 85075=
85586,2008,03,24,15,00,AAXX 24154 85586 42460 52505 10203 20115 40170 51012 81101 333 56706 81815 85075=
85586,2008,03,24,18,00,AAXX 24184 85586 32960 52609 10200 20097 40167 57003 80001 333 56006 85075=
85586,2008,03,24,21,00,AAXX 24214 85586 42960 42806 10195 20097 40162 57009 80001 333 56006 84075=
85586,2008,03,25,00,00,AAXX 25004 85586 32960 40000 10153 20106 40163 52003 80001 333 10208 56006 84075=
85586,2008,03,25,12,00,AAXX 25124 85586 32960 00000 10109 20099 40175 53/// 333 20088 30/// 50240 55106=
85586,2008,03,25,15,00,AAXX 25154 85586 42960 03006 10180 20122 40185 52011=
85586,2008,03,25,18,00,AAXX 25184 85586 32960 02613 10193 20115 40185 54000=
85586,2008,03,25,21,00,AAXX 25214 85586 42960 02613 10187 20121 40174 57011=
85586,2008,03,26,00,00,AAXX 26004 85586 32960 00000 10158 20127 40086 54001 333 10200=
85586,2008,03,26,12,00,AAXX 26124 85586 32960 00000 10100 20087 40161 52/// 333 20076 30/// 50300 55110=
85586,2008,03,26,15,00,AAXX 26154 85586 42960 02608 10192 20104 40157 54002=
85586,2008,03,26,18,00,AAXX 26184 85586 32960 02416 10194 20119 40150 57006=
85586,2008,03,26,21,00,AAXX 26214 85586 42960 02510 10206 20101 40136 56013=
85586,2008,03,27,00,00,AAXX 27004 85586 32960 00000 10154 20102 40146 52007 333 10212=
85586,2008,03,27,12,00,AAXX 27124 85586 32960 00000 10100 20084 40149 54002 333 20072 30/// 50290 55110=
85586,2008,03,27,15,00,AAXX 27154 85586 42960 02806 10170 20103 40151 52004=
85586,2008,03,27,18,00,AAXX 27184 85586 32960 02610 10180 20086 40144 57007=
85586,2008,03,27,21,00,AAXX 27214 85586 42960 02410 10168 20075 40138 55006=
85586,2008,03,28,00,00,AAXX 28004 85586 32960 00406 10126 20082 40142 53003 333 10186=
85586,2008,03,28,12,00,AAXX 28124 85586 32960 00000 10080 20063 40140 56/// 333 20052 30/// 50270 55109=
85586,2008,03,28,15,00,AAXX 28154 85586 42360 13106 10160 20112 40143 52005 81600 333 56600 81707=
85586,2008,03,28,18,00,AAXX 28184 85586 31310 32804 10154 20113 40140 54003 71011 83600 333 83707=
85586,2008,03,28,21,00,AAXX 28214 85586 42960 02706 10156 20098 40138 54002=
85586,2008,03,29,00,00,AAXX 29004 85586 32360 10000 10128 20112 40145 52006 81600 333 10162 56600 81708=
85586,2008,03,29,12,00,AAXX 29124 85586 31556 80000 10124 20108 40160 52/// 7052/ 885// 333 20072 30/// 50240 55102 56799 88620=
85586,2008,03,29,15,00,AAXX 29154 85586 42960 02205 10181 20087 40170 52001=
85586,2008,03,29,18,00,AAXX 29184 85586 32960 03007 10184 20087 40169 55001=
85586,2008,03,29,21,00,AAXX 29214 85586 42960 02810 10176 20106 40173 53006=
85586,2008,03,30,00,00,AAXX 30004 85586 32956 00000 10122 20094 40180 53006 70500 333 10193=
85586,2008,03,30,12,00,AAXX 30124 85586 32960 01304 10112 20091 40188 52/// 333 20066 50250 55096=
85586,2008,03,30,15,00,AAXX 30154 85586 42960 02710 10184 20099 40197 52010=
85586,2008,03,30,18,00,AAXX 30184 85586 32960 02615 10185 20117 40191 58006=
85586,2008,03,30,21,00,AAXX 30214 85586 42960 02609 10176 20123 40178 57013=
85586,2008,03,31,00,00,AAXX 31004 85586 31956 00000 10132 20087 40180 50001 70500 333 10187=
85586,2008,03,31,12,00,AAXX 31124 85586 32960 00000 10091 20075 40171 52/// 333 20059 30/// 50230 55110=
85586,2008,03,31,15,00,AAXX 31154 85586 42960 12806 10178 20091 40171 52002 80001 333 56006 81075=
85586,2008,03,31,18,00,AAXX 31184 85586 32960 02611 10182 20096 40169 57002=
85586,2008,03,31,21,00,AAXX 31214 85586 42960 02607 10173 20098 40169 57009=
85586,2008,04,01,00,00,AAXX 01004 85586 31956 00406 10137 20104 40166 53005 70500 333 10184=
85586,2008,04,01,12,00,AAXX 01124 85586 32960 30000 10084 20070 40169 52/// 80001 333 20058 30/// 50250 55109 56006 83075=
85586,2008,04,01,15,00,AAXX 01154 85586 42960 12406 10168 20106 40168 54001 80001 333 56006 81075=
85586,2008,04,01,21,00,AAXX 01214 85586 42960 03108 10162 20116 40146 57012=
85586,2008,04,02,00,00,AAXX 02004 85586 32960 00508 10124 20108 40151 53004 333 10180=
85586,2008,04,02,12,00,AAXX 02124 85586 31450 10000 10080 20068 40153 52/// 7051/ 81600 333 20052 30/// 50260 55106 56600 81710=
85586,2008,04,02,15,00,AAXX 02154 85586 41312 32806 10144 20117 40162 52010 71011 83600 333 56600 83708=
85586,2008,04,02,18,00,AAXX 02184 85586 31330 73005 10142 20115 40162 54000 70522 87600 333 56700 87708=
85586,2008,04,02,21,00,AAXX 02214 85586 41340 63104 10138 20111 40161 54001 70522 86600 333 56600 86708=
85586,2008,04,03,00,00,AAXX 03004 85586 31220 80000 10124 20114 40166 53005 71022 886// 333 10162 56099 88706=
85586,2008,04,03,12,00,AAXX 03124 85586 31440 80904 10120 20103 40175 52/// 7052/ 886// 333 20126 30/// 50220 55048 56099 88712=
85586,2008,04,03,15,00,AAXX 03154 85586 41450 52806 10152 20105 40186 52011 70522 85500 333 56600 85615=
85586,2008,04,03,18,00,AAXX 03184 85586 31556 13106 10170 20097 40186 54000 70511 81500 333 56600 81620=
85586,2008,04,03,21,00,AAXX 03214 85586 41958 02704 10170 20109 40178 57007 70500=
85586,2008,04,04,00,00,AAXX 04004 85586 31958 00000 10128 20094 40180 54001 70500 333 10174=
85586,2008,04,04,12,00,AAXX 04124 85586 31208 81904 10128 20115 40185 52/// 7424/ 886// 333 20091 30/// 50240 55072 56799 88706=
85586,2008,04,04,15,00,AAXX 04154 85586 41320 80000 10141 20123 40194 51009 71044 886// 333 56799 88708=
85586,2008,04,04,18,00,AAXX 04184 85586 31208 82511 10134 20122 40190 55000 74444 886// 333 56799 88706=
85586,2008,04,04,21,00,AAXX 04214 85586 41206 82905 10132 20123 40179 57011 74444 886// 333 57699 88704=
85586,2008,04,05,00,00,AAXX 05004 85586 31206 83604 10135 20123 40175 56004 74444 886// 333 10163 56799 88704=
85586,2008,04,05,12,00,AAXX 05124 85586 31103 81104 10114 20108 40175 51/// 7464/ 886// 333 20111 30/// 50180 55015 56799 88703=
85586,2008,04,05,15,00,AAXX 05154 85586 41208 82904 10133 20122 40183 51008 74244 886// 333 56799 88704=
85586,2008,04,05,18,00,AAXX 05184 85586 31320 82809 10151 20130 40166 57017 71044 886// 333 56799 88707=
85586,2008,04,05,21,00,AAXX 05214 85586 41360 13207 10171 20123 40156 56009 70144 81600 333 56799 81709=
85586,2008,04,06,00,00,AAXX 06004 85586 31956 00705 10138 20107 40164 53007 70540 333 10173=
85586,2008,04,06,12,00,AAXX 06124 85586 32960 01204 10129 20113 40162 50/// 333 20081 30/// 50180 55031=
85586,2008,04,06,15,00,AAXX 06154 85586 42960 02507 10182 20141 40162 52002=
85586,2008,04,06,18,00,AAXX 06184 85586 32960 02511 10186 20136 40152 57010=
85586,2008,04,06,21,00,AAXX 06214 85586 42960 22609 10178 20108 40142 57010 80001 333 56006 82073=
85586,2008,04,07,00,00,AAXX 07004 85586 31958 60305 10143 20103 40160 53017 70500 80001 333 10209 56006 86075=
85586,2008,04,07,12,00,AAXX 07124 85586 32960 10000 10082 20072 40189 52/// 80002 333 20060 30/// 50250 56006 81075=
85586,2008,04,07,15,00,AAXX 07154 85586 42960 13106 10166 20098 40194 52007 80002 333 56006 81075=
85586,2008,04,07,18,00,AAXX 07184 85586 32960 02711 10181 20095 40187 57008=
85586,2008,04,07,21,00,AAXX 07214 85586 42560 32510 10190 20080 40172 56014 81101 333 56606 81820=
85586,2008,04,08,00,00,AAXX 08004 85586 32960 40000 10139 20072 40184 52008 80001 333 10194 56006 84075=
85586,2008,04,08,12,00,AAXX 08124 85586 32960 40000 10102 20056 40158 56/// 80001 333 20070 30/// 50220 55103 56006 84075=
85586,2008,04,08,15,00,AAXX 08154 85586 42960 52212 10224 20057 40160 51006 80001 333 56006 85075=
85586,2008,04,08,18,00,AAXX 08184 85586 32960 02414 10196 20084 40143 57018=
85586,2008,04,08,21,00,AAXX 08214 85586 42960 02606 10180 20098 40134 57010=
85586,2008,04,09,00,00,AAXX 09004 85586 32960 00000 10130 20097 40142 53007 333 10242=
85586,2008,04,09,12,00,AAXX 09124 85586 32960 00000 10062 20052 40163 52/// 333 20050 30/// 50250 55107=
85586,2008,04,09,15,00,AAXX 09154 85586 42360 12504 10148 20092 40167 52006 81600 333 56600 81708=
85586,2008,04,09,18,00,AAXX 09184 85586 31330 12706 10150 20105 40159 58008 71011 81600 333 56600 81708=
85586,2008,04,09,21,00,AAXX 09214 85586 42960 02704 10161 20104 40150 57008=
85586,2008,04,10,00,00,AAXX 10004 85586 32960 00000 10125 20097 40149 54002 333 10170=
85586,2008,04,10,12,00,AAXX 10124 85586 32960 00000 10083 20066 40165 52/// 333 20052 30/// 50240 55104=
85586,2008,04,10,15,00,AAXX 10154 85586 42960 02907 10156 20113 40170 52007=
85586,2008,04,10,18,00,AAXX 10184 85586 32960 02705 10175 20110 40156 58014=
85586,2008,04,10,21,00,AAXX 10214 85586 42960 02505 10166 20123 40158 53002=
85586,2008,04,11,00,00,AAXX 11004 85586 31956 00000 10121 20094 40164 52005 70500 333 10183=
85586,2008,04,11,12,00,AAXX 11124 85586 32960 61004 10111 20092 40163 51/// 86030 333 20081 30/// 50220 55107 56060 86365=
85586,2008,04,11,15,00,AAXX 11154 85586 42960 73405 10188 20114 40169 51007 87030 333 56060 86362=
85586,2008,04,11,18,00,AAXX 11184 85586 32960 73205 10192 20123 40162 58007 87030 333 56060 86362=
85586,2008,04,11,21,00,AAXX 11214 85586 41758 80000 10162 20130 40171 53005 72122 8802/ 333 56069 88456=
85586,2008,04,12,00,00,AAXX 12004 85586 11956 71204 10152 20133 40177 53005 69941 70562 87030 333 10194 56060 87362=
85586,2008,04,12,12,00,AAXX 12124 85586 11558 70000 10144 20123 40163 52/// 69944 7052/ 87500 333 20139 31/// 50190 55017 56700 70004 87625=
85586,2008,04,12,15,00,AAXX 12154 85586 41558 52709 10166 20107 40170 51008 70522 333 56700 85625=
85586,2008,04,12,18,00,AAXX 12184 85586 32560 52214 10161 20068 40164 57007 85501 333 56706 85625 81073=
85586,2008,04,12,21,00,AAXX 12214 85586 42960 62612 10160 20058 40164 54000 80001 333 56006 86075=
85586,2008,04,13,00,00,AAXX 13004 85586 31958 42304 10124 20040 40185 52021 70511 80001 333 10169 56006 84075=
85586,2008,04,13,12,00,AAXX 13124 85586 32960 22404 10090 20047 40208 52/// 80002 333 20046 30/// 50210 55067 56006 82075=
85586,2008,04,13,15,00,AAXX 13154 85586 42960 01908 10172 20050 40201 58004=
85586,2008,04,13,18,00,AAXX 13184 85586 32960 12714 10152 20062 40190 57012 80001 333 56006 81075=
85586,2008,04,13,21,00,AAXX 13214 85586 42960 02511 10150 20059 40181 57009=
85586,2008,04,14,00,00,AAXX 14004 85586 32960 00000 10110 20045 40183 54002 333 10203=
85586,2008,04,14,12,00,AAXX 14124 85586 32960 00000 10050 20029 40156 56/// 333 20036 30/// 50240 55103=
85586,2008,04,14,15,00,AAXX 14154 85586 42960 03104 10136 20043 40150 57004=
85586,2008,04,14,18,00,AAXX 14184 85586 32960 02606 10144 20063 40138 57012=
85586,2008,04,14,21,00,AAXX 14214 85586 42960 22708 10134 20062 40133 56004 80001 333 56006 82075=
85586,2008,04,15,00,00,AAXX 15004 85586 32960 20000 10086 20054 40142 52007 80001 333 10154 56006 82075=
85586,2008,04,15,12,00,AAXX 15124 85586 32560 70904 10086 20063 40168 52/// 87500 333 20042 30/// 50230 55103 56000 87620=
85586,2008,04,15,15,00,AAXX 15154 85586 42560 63108 10126 20031 40181 52013 84501 333 56606 84620 83075=
85586,2008,04,15,18,00,AAXX 15184 85586 32960 12606 10144 20058 40179 54002 80001 333 56006 81075=
85586,2008,04,15,21,00,AAXX 15214 85586 42960 02506 10144 20063 40178 54001=
85586,2008,04,16,00,00,AAXX 16004 85586 32960 00000 10090 20053 40174 54002 333 10150=
85586,2008,04,16,12,00,AAXX 16124 85586 31203 81004 10072 20064 40193 52/// 7462/ 886// 333 20034 30/// 50180 55103 56799 88704=
85586,2008,04,16,15,00,AAXX 16154 85586 41958 02710 10148 20099 40195 51005 70544=
85586,2008,04,16,18,00,AAXX 16184 85586 31960 02711 10156 20084 40182 58012 70240=
85586,2008,04,16,21,00,AAXX 16214 85586 42960 02806 10158 20094 40179 56004=
85586,2008,04,17,00,00,AAXX 17004 85586 31956 00705 10108 20084 40175 56004 70500 333 10171=
85586,2008,04,17,12,00,AAXX 17124 85586 32960 01604 10118 20068 40159 53/// 333 20064 30/// 50180 55091=
85586,2008,04,17,15,00,AAXX 17154 85586 42958 00000 10201 20056 40158 54001=
85586,2008,04,17,18,00,AAXX 17184 85586 32960 02510 10187 20105 40150 58010=
85586,2008,04,17,21,00,AAXX 17214 85586 42960 03107 10168 20112 40153 53003=
85586,2008,04,18,00,00,AAXX 18004 85586 31958 00000 10126 20093 40160 58003 70500 333 10221=
85586,2008,04,18,12,00,AAXX 18124 85586 31101 82503 10080 20069 40157 52/// 7460/ 886// 333 20059 30/// 50190 55108 56799 88703=
85586,2008,04,18,15,00,AAXX 18154 85586 41940 02906 10151 20105 40151 56006 74040=
85586,2008,04,18,18,00,AAXX 18184 85586 31960 02505 10171 20119 40145 58005 70244=
85586,2008,04,18,21,00,AAXX 18214 85586 41960 00404 10174 20119 40135 56010 70240=
85586,2008,04,19,12,00,AAXX 19124 85586 32960 01204 10072 20058 40125 57/// 333 20050 30/// 50210 55088=
85586,2008,04,19,15,00,AAXX 19154 85586 32960 00000 10228 20065 40124 57006=
85586,2008,04,19,18,00,AAXX 19184 85586 32960 02509 10212 20087 40103 57015=
85586,2008,04,20,00,00,AAXX 20004 85586 32960 00000 10142 20111 40114 57004 333 10234=
85586,2008,04,20,12,00,AAXX 20124 85586 31207 80604 10104 20100 40144 53/// 7464/ 886// 333 20100 30/// 50180 55105 56199 88704=
85586,2008,04,20,15,00,AAXX 20154 85586 41207 80104 10124 20120 40150 52007 74644 886// 333 56199 88704=
85586,2008,04,20,18,00,AAXX 20184 85586 31330 83106 10128 20119 40140 58010 71022 886// 333 56799 88708=
85586,2008,04,20,21,00,AAXX 20214 85586 41205 83104 10120 20112 40136 56004 74622 886// 333 56799 88706=
85586,2008,04,21,00,00,AAXX 21004 85586 31204 80904 10112 20107 40141 53005 74642 886// 333 10131 56199 88704=
85586,2008,04,21,12,00,AAXX 21124 85586 11330 80000 10124 20117 40141 52/// 69924 7102/ 885// 333 20120 31/// 50120 55000 56099 70002 88609=
85586,2008,04,21,15,00,AAXX 21154 85586 41320 82704 10132 20125 40154 52013 71022 886// 333 56699 88707=
85586,2008,04,21,18,00,AAXX 21184 85586 31430 83104 10134 20127 40153 54001 71022 885// 333 56799 88610=
85586,2008,04,21,21,00,AAXX 21214 85586 41320 83104 10134 20127 40154 54001 71022 886// 333 56799 88707=
85586,2008,04,22,00,00,AAXX 22004 85586 11205 80000 10130 20119 40161 52007 69901 75052 886// 333 10141 56099 88706=
85586,2008,04,22,12,00,AAXX 22124 85586 11206 80000 10132 20123 40172 52/// 69964 7444/ 886// 333 20127 31/// 50170 56799 88704=
85586,2008,04,22,15,00,AAXX 22154 85586 41312 82904 10141 20129 40185 52013 71044 886// 333 56799 88607=
85586,2008,04,22,18,00,AAXX 22184 85586 31440 83104 10149 20125 40177 58008 70544 885// 333 56799 88610=
85586,2008,04,22,21,00,AAXX 22214 85586 41456 82506 10143 20119 40173 56004 70522 885// 333 56799 88512=
85586,2008,04,23,00,00,AAXX 23004 85586 31220 80000 10135 20119 40175 53002 71022 886// 333 10153 56799 88706=
85586,2008,04,23,12,00,AAXX 23124 85586 11208 80000 10124 20115 40175 52/// 69934 7504/ 886// 333 20121 31/// 50140 55000 56799 70003 88704=
85586,2008,04,23,15,00,AAXX 23154 85586 41320 80000 10132 20123 40182 51007 71055 886// 333 56799 88707=
85586,2008,04,23,18,00,AAXX 23184 85586 11320 82705 10138 20112 40177 58005 69921 70554 886// 333 56799 88708=
85586,2008,04,23,21,00,AAXX 23214 85586 41240 82504 10133 20106 40175 56002 70522 885// 333 56799 82704 88612=
85586,2008,04,24,00,00,AAXX 24004 85586 31440 80000 10128 20111 40175 55000 70522 885// 333 10141 56799 88612=
85586,2008,04,24,12,00,AAXX 24124 85586 11212 80304 10114 20102 40158 53/// 69924 71022 886// 333 20111 31/// 50160 55000 56799 70002 88706=
85586,2008,04,24,15,00,AAXX 24154 85586 41220 82004 10126 20107 40167 51009 70522 886// 333 56799 88706=
85586,2008,04,24,18,00,AAXX 24184 85586 31320 82804 10132 20109 40162 58005 70522 886// 333 56799 88708=
85586,2008,04,24,21,00,AAXX 24214 85586 41420 82606 10124 20102 40157 56005 70522 885// 333 56799 88610=
85586,2008,04,25,00,00,AAXX 25004 85586 31320 82504 10121 20099 40160 53007 70522 886// 333 10133 56799 88708=
85586,2008,04,25,12,00,AAXX 25124 85586 11315 80000 10104 20098 40153 56/// 69904 7102/ 886// 333 20100 31/// 50160 55000 56099 70000 88708=
85586,2008,04,25,18,00,AAXX 25184 85586 11215 83106 10118 20113 40185 52016 75055 886// 333 56799 88706=
85586,2008,04,25,21,00,AAXX 25214 85586 41440 83104 10116 20111 40185 54000 70522 8383/ 333 56779 81815 83620 88360=
85586,2008,04,26,00,00,AAXX 26004 85586 31440 80000 10118 20103 40184 54001 69931 70522 8853/ 333 10128 56669 83615 88360=
85586,2008,04,26,12,00,AAXX 26124 85586 11540 70000 10112 20088 40171 56/// 69964 7052/ 87500 333 20110 31/// 50140 55000 56000 70006 87620=
85586,2008,04,26,15,00,AAXX 26154 85586 41556 61204 10146 20066 40165 57006 70522 86500 333 56000 86620=
85586,2008,04,26,18,00,AAXX 26184 85586 31958 12708 10154 20068 40163 56002 70511 80001 333 56006 81075=
85586,2008,04,26,21,00,AAXX 26214 85586 42960 42710 10152 20068 40160 54003 80001 333 56006 84075=
85586,2008,04,27,00,00,AAXX 27004 85586 32960 62504 10120 20092 40171 52011 80002 333 10160 56006 86075=
85586,2008,04,27,12,00,AAXX 27124 85586 31558 70904 10086 20074 40165 56/// 7052/ 87500 333 20050 30/// 50170 55065 56000 87620=
85586,2008,04,27,15,00,AAXX 27154 85586 42560 73304 10128 20072 40162 54002 84530 333 56779 84620 87360=
85586,2008,04,27,18,00,AAXX 27184 85586 32560 73106 10148 20078 40157 57005 82530 333 56770 82630 87362=
85586,2008,04,27,21,00,AAXX 27214 85586 41560 80208 10142 20092 40156 54001 76062 8803/ 333 56079 88362=
85586,2008,04,28,00,00,AAXX 28004 85586 11958 83606 10114 20101 40155 54001 69981 76066 8803/ 333 10152 56079 88360=
85586,2008,04,28,12,00,AAXX 28124 85586 11320 80405 10128 20117 40176 52/// 60074 7535/ 882// 333 20121 32/// 50120 55004 56799 70071 84708 88220=
85586,2008,04,28,15,00,AAXX 28154 85586 41560 83305 10141 20118 40192 52016 70355 882// 333 56799 88825=
85586,2008,04,28,18,00,AAXX 28184 85586 11560 22706 10165 20124 40191 50000 69921 70155 333 56700 82820=
85586,2008,04,28,21,00,AAXX 28214 85586 42960 02412 10151 20114 40184 57008=
85586,2008,04,29,00,00,AAXX 29004 85586 31956 00000 10118 20097 40187 53005 70500 333 10173=
85586,2008,04,29,12,00,AAXX 29124 85586 12960 00000 10059 20047 40157 52/// 69924 333 20053 31/// 50160 55046 70002=
85586,2008,04,29,15,00,AAXX 29154 85586 41956 03006 10131 20086 40156 50001 70500=
85586,2008,04,29,18,00,AAXX 29184 85586 31456 83206 10126 20081 40157 54001 70500 885// 333 56799 88612=
85586,2008,04,29,21,00,AAXX 29214 85586 41556 73109 10122 20082 40166 53010 70520 87500 333 56700 87620=
85586,2008,04,30,00,00,AAXX 30004 85586 31556 70204 10116 20083 40173 52005 70522 87200 333 10136 56700 87820=
85586,2008,04,30,12,00,AAXX 30124 85586 31958 70000 10093 20073 40195 52/// 7052/ 87030 333 20088 31/// 50150 55055 56600 87362=
85586,2008,04,30,15,00,AAXX 30154 85586 41958 40000 10153 20082 40200 52008 70511 84030 333 56060 84362=
85586,2008,04,30,18,00,AAXX 30184 85586 32460 42706 10163 20079 40201 54001 82101 333 56606 82815 82073=
85586,2008,04,30,21,00,AAXX 30214 85586 42460 32805 10154 20071 40211 52010 81101 333 56607 81815 82073=
85586,2008,05,01,00,00,AAXX 01004 85586 31956 00000 10104 20075 40217 53007 70500 333 1016=
85586,2008,05,01,12,00,AAXX 01124 85586 32960 11506 10066 20060 40229 53/// 80001 333 20048 30/// 50170 55083 56006 81075=
85586,2008,05,01,15,00,AAXX 01154 85586 42960 00000 10153 20074 40237 52009=
85586,2008,05,01,18,00,AAXX 01184 85586 32960 02611 10152 20093 40231 57006=
85586,2008,05,01,21,00,AAXX 01214 85586 42960 02510 10149 20097 40225 57006=
85586,2008,05,02,00,00,AAXX 02004 85586 32960 00404 10100 20089 40226 54001 333 10168=
85586,2008,05,02,12,00,AAXX 02124 85586 31940 10000 10048 20042 40208 57/// 7101/ 80001 333 20048 31/// 50200 55110 56006 81075=
85586,2008,05,02,15,00,AAXX 02154 85586 42960 01804 10180 20075 40194 57010=
85586,2008,05,02,18,00,AAXX 02184 85586 32960 02607 10197 20087 40168 57015=
85586,2008,05,02,21,00,AAXX 02214 85586 42960 02504 10171 20117 40157 57012=
85586,2008,05,03,00,00,AAXX 03004 85586 32960 00000 10108 20090 40161 53003 333 10223=
85586,2008,05,03,12,00,AAXX 03124 85586 32960 61504 10044 20035 40165 52/// 80002 333 20040 31/// 50210 55101 56006 86075=
85586,2008,05,03,15,00,AAXX 03154 85586 41250 53104 10148 20103 40172 52010 70522 81602 333 56706 81707 84075=
85586,2008,05,03,18,00,AAXX 03184 85586 31212 83108 10120 20109 40173 54001 71022 886// 333 56799 88707=
85586,2008,05,03,21,00,AAXX 03214 85586 41220 83604 10124 20108 40165 57008 71022 886// 333 56799 88708=
85586,2008,05,04,00,00,AAXX 04004 85586 31220 80000 10108 20098 40174 52009 71022 886// 333 10154 56099 88707=
85586,2008,05,04,12,00,AAXX 04124 85586 31208 80000 10107 20096 40189 53/// 7424/ 886// 333 20104 31/// 50140 55042 56799 88706=
85586,2008,05,04,15,00,AAXX 04154 85586 41320 81703 10120 20098 40184 58005 71044 886// 333 56799 88708=
85586,2008,05,04,18,00,AAXX 04184 85586 31320 82608 10127 20107 40176 57008 71044 886// 333 56799 88708=
85586,2008,05,04,21,00,AAXX 04214 85586 41206 82404 10115 20106 40173 56003 74644 886// 333 56799 88704=
85586,2008,05,05,00,00,AAXX 05004 85586 31203 80706 10108 20100 40180 53007 74644 886// 333 10156 56799 88704=
85586,2008,05,05,12,00,AAXX 05124 85586 31206 81204 10072 20063 40184 53/// 7424/ 886// 333 20068 31/// 56799 88704=
85586,2008,05,05,18,00,AAXX 05184 85586 31206 82706 10122 20105 40169 58011 74644 886// 333 56799 88706=
85586,2008,05,05,21,00,AAXX 05214 85586 41340 33104 10136 20112 40157 56012 70544 83600 333 56700 83708=
85586,2008,05,06,00,00,AAXX 06004 85586 31220 80604 10122 20114 40159 54002 71042 886// 333 10144 56799 88706=
85586,2008,05,06,12,00,AAXX 06124 85586 31106 80000 10108 20104 40170 53/// 7444/ 886// 333 10106 30/// 50080 55026 56799 88702=
85586,2008,05,06,15,00,AAXX 06154 85586 41108 80000 10118 20107 40194 52023 74442 886// 333 56699 88703=
85586,2008,05,06,18,00,AAXX 06184 85586 31440 80000 10128 20113 40182 57009 70522 885// 333 56699 88609=
85586,2008,05,06,21,00,AAXX 06214 85586 41330 82506 10137 20119 40175 57007 70522 886// 333 56699 88607=
85586,2008,05,07,00,00,AAXX 07004 85586 31440 80000 10126 20111 40183 52008 70522 885// 333 10153 56099 88610=
85586,2008,05,07,12,00,AAXX 07124 85586 31220 80000 10083 20079 40192 53/// 7102/ 886// 333 20080 30/// 50070 55019 56799 88705=
85586,2008,05,07,15,00,AAXX 07154 85586 41320 80000 10112 20101 40200 52009 71022 886// 333 56699 88708=
85586,2008,05,07,18,00,AAXX 07184 85586 32960 02610 10147 20073 40186 57013=
85586,2008,05,07,21,00,AAXX 07214 85586 42960 02607 10133 20087 40180 57006=
85586,2008,05,08,00,00,AAXX 08004 85586 32960 00000 10098 20085 40183 54002 333 10151=
85586,2008,05,08,12,00,AAXX 08124 85586 32960 00000 10037 20030 40182 56/// 333 20032 31/// 50190 55087=
85586,2008,05,08,15,00,AAXX 08154 85586 42960 02804 10133 20082 40182 54003=
85586,2008,05,08,18,00,AAXX 08184 85586 32960 02505 10143 20075 40168 57014=
85586,2008,05,08,21,00,AAXX 08214 85586 42960 02507 10135 20074 40169 54001=
85586,2008,05,09,00,00,AAXX 09004 85586 32960 00904 10092 20078 40169 54001 333 1048=
85586,2008,05,09,12,00,AAXX 09124 85586 31330 80000 10070 20062 40181 52/// 7102/ 886// 333 20050 30/// 50180 55096 56099 88707=
85586,2008,05,09,15,00,AAXX 09154 85586 41450 70000 10106 20086 40191 52012 70522 87500 333 56000 87612=
85586,2008,05,09,18,00,AAXX 09184 85586 31450 42808 10132 20087 40190 54001 70522 84500 333 56700 84613=
85586,2008,05,09,21,00,AAXX 09214 85586 41456 50000 10130 20091 40193 54003 70511 85500 333 56700 85615=
85586,2008,05,10,00,00,AAXX 10004 85586 31456 30000 10096 20072 40201 53006 70511 83500 333 10140 56000 83615=
85586,2008,05,10,12,00,AAXX 10124 85586 31203 81304 10054 20046 40202 53/// 7444/ 886// 333 20031 31/// 50150 55047 56799 88704=
85586,2008,05,10,15,00,AAXX 10154 85586 41940 01105 10123 20086 40187 58012 70544=
85586,2008,05,10,18,00,AAXX 10184 85586 31956 82516 10147 20090 40177 57010 70544=
85586,2008,05,10,21,00,AAXX 10214 85586 42960 02806 10149 20100 40172 56005=
85586,2008,05,11,00,00,AAXX 11004 85586 31940 00805 10092 20073 40180 52008 70500 333 10153=
85586,2008,05,11,12,00,AAXX 11124 85586 31203 81204 10064 20057 40206 52/// 7464/ 886// 333 20034 31/// 56799 88704=
85586,2008,05,11,15,00,AAXX 11154 85586 41308 80000 10089 20075 40212 51007 74244 886// 333 56799 88707=
85586,2008,05,11,18,00,AAXX 11184 85586 31340 22305 10128 20096 40200 57011 70544 82600 333 56700 82708=
85586,2008,05,11,21,00,AAXX 11214 85586 41958 02505 10131 20096 40189 57010 70540=
85586,2008,05,12,00,00,AAXX 12004 85586 31940 00000 10078 20060 40191 51002 70500 333 10143=
85586,2008,05,12,12,00,AAXX 12124 85586 31930 00000 10024 20017 40187 53/// 7100/ 333 20022 30/// 50110 55062=
85586,2008,05,12,15,00,AAXX 12154 85586 41956 00000 10128 20055 40196 52012 70500=
85586,2008,05,12,18,00,AAXX 12184 85586 31958 03105 10147 20076 40190 57006 70500=
85586,2008,05,12,21,00,AAXX 12214 85586 41958 03104 10140 20073 40188 54002 70500=
85586,2008,05,13,00,00,AAXX 13004 85586 31956 00000 10085 20077 40020 52010 71000 333 10152=
85586,2008,05,13,12,00,AAXX 13124 85586 31102 80000 10073 20069 40198 53/// 7444/ 886// 333 20052 30/// 50110 55095 56699 88702=
85586,2008,05,13,15,00,AAXX 13154 85586 41107 80000 10093 20083 40206 52009 74444 886// 333 56099 88703=
85586,2008,05,13,18,00,AAXX 13184 85586 31320 82806 10116 20090 40191 57016 71022 886// 333 56699 88708=
85586,2008,05,13,21,00,AAXX 13214 85586 41330 82804 10118 20093 40200 52009 70522 885// 333 56699 88709=
85586,2008,05,14,00,00,AAXX 14004 85586 31330 80000 10112 20096 40206 52006 70522 886// 333 10123 56699 88708=
85586,2008,05,14,12,00,AAXX 14124 85586 31303 80000 10100 20092 40181 57/// 7462/ 886// 333 20100 31/// 50140 55000 56099 88707=
85586,2008,05,14,15,00,AAXX 14154 85586 41330 10000 10119 20077 40193 52012 70511 81600 333 56600 81708=
85586,2008,05,14,18,00,AAXX 14184 85586 31350 73105 10121 20102 40188 57004 70522 87600 333 56700 87709=
85586,2008,05,14,21,00,AAXX 14214 85586 41105 80404 10108 20102 40189 54001 74422 886// 333 56099 88702=
85586,2008,05,15,00,00,AAXX 15004 85586 31102 80000 10102 20097 40197 52006 74444 886// 333 10133 56099 88701=
85586,2008,05,15,12,00,AAXX 15124 85586 31202 81204 10070 20063 40185 53/// 7464/ 886// 333 20066 31/// 50120 55029 56099 88704=
85586,2008,05,15,15,00,AAXX 15154 85586 41330 73106 10123 20097 40178 58005 70544 81601 333 56706 81708 86075=
85586,2008,05,15,18,00,AAXX 15184 85586 31340 53108 10134 20095 40169 57009 70522 81601 333 56706 81708 85075=
85586,2008,05,15,21,00,AAXX 15214 85586 41956 62904 10140 20100 40161 56008 70522 80002 333 56006 86075=
85586,2008,05,16,15,00,AAXX 16154 85586 41220 73104 10132 20100 40157 51005 74044 81601 333 56706 81704 87075=
85586,2008,05,16,18,00,AAXX 16184 85586 31208 83105 10119 20104 40157 50000 74244 886// 333 56799 88706=
85586,2008,05,16,21,00,AAXX 16214 85586 41340 80000 10123 20101 40164 53007 70544 83601 333 56706 83709 85075=
85586,2008,05,17,00,00,AAXX 17004 85586 31320 80000 10099 20088 40181 52017 71044 886// 333 10135 56799 88709=
85586,2008,05,17,12,00,AAXX 17124 85586 31540 81205 10119 20095 40186 52/// 7052/ 885// 333 20099 56799 88625=
85586,2008,05,17,15,00,AAXX 17154 85586 41540 80503 10152 20102 40197 52011 70522 885// 333 56799 88625=
85586,2008,05,17,18,00,AAXX 17184 85586 31456 83205 10162 20103 40174 58023 70522 888// 333 56799 81815 88625=
85586,2008,05,17,21,00,AAXX 17214 85586 41956 83107 10139 20110 40178 53004 70522 84031 333 56066 84362 84075=
85586,2008,05,18,00,00,AAXX 18004 85586 31956 80000 10131 20101 40192 52013 70522 8803/ 333 10165 56069 88362=
85586,2008,05,18,12,00,AAXX 18124 85586 32960 80000 10146 20102 40190 52/// 8807/ 333 20125 30/// 50100 55000 56079 88362=
85586,2008,05,18,15,00,AAXX 18154 85586 42960 83604 10154 20084 40187 57003 8807/ 333 56079 88363=
85586,2008,05,18,18,00,AAXX 18184 85586 31458 83304 10166 20075 40167 57019 70522 8151/ 333 56679 81610 88460=
85586,2008,05,18,21,00,AAXX 18214 85586 41858 80000 10142 20096 40157 57011 70522 8807/ 333 56079 88358=
85586,2008,05,19,00,00,AAXX 19004 85586 11757 80905 10128 20107 40171 52014 69911 76022 8807/ 333 10121 56079 88356=
85586,2008,05,19,12,00,AAXX 19124 85586 11960 80806 10141 20103 40165 52/// 60084 7602/ 8807/ 333 20126 32/// 50080 55000 56079 70077 88360=
85586,2008,05,19,15,00,AAXX 19154 85586 42960 80407 10164 20101 40143 57021 76622 8802/ 333 56079 88462=
85586,2008,05,19,18,00,AAXX 19184 85586 11958 83505 10142 20119 40172 52028 69981 76622 8807/ 333 56069 88359=
85586,2008,05,19,21,00,AAXX 19214 85586 42560 83505 10150 20129 40167 57005 70262 8357/ 333 56779 83620 88360=
85586,2008,05,20,00,00,AAXX 20004 85586 11958 83104 10144 20120 40156 57011 60011 70222 8807/ 333 10172 56069 88359=
85586,2008,05,20,12,00,AAXX 20124 85586 11959 73104 10140 20113 40124 57/// 60054 7056/ 87030 333 20126 32/// 50100 55000 56070 70047 87361=
85586,2008,05,20,15,00,AAXX 20154 85586 41530 83609 10142 20126 40145 53019 79596 8337/ 333 56879 83920 88358=
85586,2008,05,20,18,00,AAXX 20184 85586 11520 80404 10134 20125 40138 58005 60461 76496 8423/ 333 56179 84820 88357=
85586,2008,05,20,21,00,AAXX 20214 85586 41520 80406 10134 20123 40145 52007 76266=
85586,2008,05,21,00,00,AAXX 21004 85586 11530 80406 10136 20129 40163 52018 60301 76066 8802/ 333 10150 56019 88530=
85586,2008,05,21,12,00,AAXX 21124 85586 11560 80904 10146 20136 40165 52/// 60814 7606/ 885// 333 20146 32/// 50070 55000 56099 70813 88620=
85586,2008,05,21,15,00,AAXX 21154 85586 41460 83608 10172 20156 4017352009 70262 8353/ 333 56879 83618 88357=
85586,2008,05,21,18,00,AAXX 21184 85586 11410 80000 10164 20154 40163 58010 60041 76066 8352/ 333 56079 83610 88556=
85586,2008,05,21,21,00,AAXX 21214 85586 41450 80000 10170 20160 40152 57011 71022 8163/ 333 56079 81710 88358=
85586,2008,05,22,00,00,AAXX 22004 85586 11840 80000 10164 20152 40148 56004 60041 76066 8803/ 333 10177 56079 88358=
85586,2008,05,22,12,00,AAXX 22124 85586 11560 83606 10174 20153 40121 53/// 60184 7036/ 882// 333 20156 32/// 56799 70180 88820=
85586,2008,05,22,15,00,AAXX 22154 85586 41520 83612 10175 20161 40128 51007 76066 882// 333 56799 88825=
85586,2008,05,22,18,00,AAXX 22184 85586 11540 83310 10168 20157 40129 50001 60151 78166 882// 333 56799 88825=
85586,2008,05,22,21,00,AAXX 22214 85586 41540 83616 10164 20154 40147 53018 78086 882// 333 56799 82815 88825=
85586,2008,05,23,00,00,AAXX 23004 85586 11556 83510 10163 20149 40171 52024 60031 70586 882// 333 10177 56799 88825=
85586,2008,05,23,12,00,AAXX 23124 85586 11206 40000 10147 20137 40243 52/// 60204 7464/ 84600 333 20144 32/// 50130 55000 56700 70203 84704=
85586,2008,05,23,15,00,AAXX 23154 85586 41460 11705 10189 20129 40257 52014 70144 81100 333 56700 81815=
85586,2008,05,23,18,00,AAXX 23184 85586 31460 11407 10214 20148 40236 58018 70140 81100 333 56700 81815=
85586,2008,05,23,21,00,AAXX 23214 85586 42960 12409 10176 20128 40221 57016 80001 333 56006 81075=
85586,2008,05,24,00,00,AAXX 24004 85586 31956 00000 10148 20115 40215 56007 70500 333 10216=
85586,2008,05,24,12,00,AAXX 24124 85586 32960 11204 10077 20069 40179 57/// 80001 333 20077 31/// 50100 55084 56006 81073=
85586,2008,05,24,15,00,AAXX 24154 85586 42360 70000 10126 20108 40198 52020 81610 333 56660 81708 86465=
85586,2008,05,24,18,00,AAXX 24184 85586 31959 62607 10144 20089 40192 56006 70522 83031 333 56067 83365 85073=
85586,2008,05,24,21,00,AAXX 24214 85586 42460 62504 10141 20085 40172 57020 83530 333 56660 83617 85373=
85586,2008,05,25,00,00,AAXX 25004 85586 32960 00000 10111 20091 40179 52007 333 10161=
85586,2008,05,25,12,00,AAXX 25124 85586 31230 80000 10081 20077 40174 54/// 7102/ 886// 333 20068 31/// 50070 55067 56799 88705=
85586,2008,05,25,15,00,AAXX 25154 85586 41956 80904 10106 20091 40188 52013 70522 8803/ 333 56799 88362=
85586,2008,05,25,18,00,AAXX 25184 85586 31958 82805 10122 20081 40178 57008 70522 8803/ 333 56069 88365=
85586,2008,05,26,00,00,AAXX 26004 85586 31956 30000 10097 20077 40167 57029 70511 83030 333 10131 56060 83362=
85586,2008,05,26,12,00,AAXX 26124 85586 32460 80000 10094 20085 40175 52/// 8353/ 333 20090 32/// 50110 55002 56069 83615 88359=
85586,2008,05,26,15,00,AAXX 26154 85586 41857 80905 10121 20095 40162 57008 70522 8803/ 333 56079 88358=
85586,2008,05,26,18,00,AAXX 26184 85586 11540 80406 10128 20115 40163 54001 76062 8323/ 333 56179 83820 88357=
85586,2008,05,26,21,00,AAXX 26214 85586 41956 80406 10136 20099 40149 57014 70562 8803/ 333 56079 88359=
85586,2008,05,27,00,00,AAXX 27004 85586 11956 80506 10110 20075 40159 54001 69961 76062 8093/ 333 10141 56069 88359=
85586,2008,05,27,12,00,AAXX 27124 85586 11520 82606 10102 20097 40165 52/// 60554 76362 8802/ 333 20088 32/// 50070 55000 56069 70550 88530=
85586,2008,05,27,15,00,AAXX 27154 85586 41440 82406 10104 20098 40169 51004 76066 8352/ 333 56669 83615 88530=
85586,2008,05,27,18,00,AAXX 27184 85586 11556 82210 10094 20083 40167 54001 60030 76066 8352/ 333 56559 83620 88540=
85586,2008,05,27,21,00,AAXX 27214 85586 41530 83604 10092 20080 40174 52004 76066 8802/ 333 56069 88530=
85586,2008,05,28,00,00,AAXX 28004 85586 11940 80000 10088 20076 40188 52014 69971 71062 8803/ 333 10105 56069 88359=
85586,2008,05,28,12,00,AAXX 28124 85586 11556 40905 10066 20057 40234 52/// 60074 7051/ 84200 333 20052 50110 55000 56700 70074 84825=
85586,2008,05,28,15,00,AAXX 28154 85586 41456 81203 10101 20065 40244 52011 70511 882// 333 56799 81815 88825=
85586,2008,05,28,18,00,AAXX 28184 85586 11458 42504 10119 20058 40233 58010 70521 84200 333 56700 81815 84825=
85586,2008,05,28,21,00,AAXX 28214 85586 41900 00000 10119 20051 40232 55001=
85586,2008,05,29,00,00,AAXX 29004 85586 31956 01203 10063 20040 40242 53008 70510 333 10128=
85586,2008,05,29,12,00,AAXX 29124 85586 12960 01306 10047 20021 40235 52/// 69924 333 20029 32/// 50120 55036 70002=
85586,2008,05,29,15,00,AAXX 29154 85586 42960 01305 10119 20053 40239 51003=
85586,2008,05,29,18,00,AAXX 29184 85586 32960 02507 10152 20080 40226 57018=
85586,2008,05,29,21,00,AAXX 29214 85586 42960 02308 10133 20086 40221 56006=
85586,2008,05,30,00,00,AAXX 30004 85586 31956 01805 10064 20039 40220 55000 70500 333 10161=
85586,2008,05,30,12,00,AAXX 30124 85586 32960 11704 10025 20020 40196 53/// 80001 333 20022 34/// 50090 55095 56006 81073=
85586,2008,05,30,15,00,AAXX 30154 85586 42960 20000 10106 20016 40184 58009 80001 333 56006 82073=
85586,2008,05,30,18,00,AAXX 30184 85586 32960 52805 10130 20049 40187 52004 80001 333 56006 85073=
85586,2008,05,30,21,00,AAXX 30214 85586 42960 62704 10110 20062 40197 52009 80030 333 56060 86363=
85586,2008,05,31,00,00,AAXX 31004 85586 32960 00000 10066 20047 40207 52008 333 10133=
85586,2008,05,31,12,00,AAXX 31124 85586 31950 00000 10036 20026 40228 52/// 7100/ 333 20020 31/// 50100 55063=
85586,2008,05,31,15,00,AAXX 31154 85586 42560 50000 10103 20063 40239 52015 84501 333 56506 84625 82073=
85586,2008,05,31,18,00,AAXX 31184 85586 32560 62607 10132 20066 40221 57018 81508 333 56607 81625 86270=
85586,2008,05,31,21,00,AAXX 31214 85586 41959 82605 10112 20072 40200 57022 70522 8803/ 333 56079 88365=
85586,2008,06,01,00,00,AAXX 01004 85586 31956 80000 10091 20069 40201 54000 70522 8803/ 333 10133 56069 88365=
85586,2008,06,01,12,00,AAXX 01124 85586 31915 50000 10050 20044 40154 57/// 7102/ 85030 333 20031 30/// 50280 55052 56070 85365=
85586,2008,06,01,15,00,AAXX 01154 85586 41556 81206 10097 20069 40148 57003 70522 8253/ 333 56669 82620 88362=
85586,2008,06,01,18,00,AAXX 01184 85586 31950 63106 10158 20093 40142 55006 70522 86030 333 56060 86365=
85586,2008,06,01,21,00,AAXX 01214 85586 41540 80000 10124 20098 40152 52009 70522 8353/ 333 56069 83630 88363=
85586,2008,06,02,00,00,AAXX 02004 85586 31540 80000 10111 20100 40158 51008 70522 8353/ 333 10162 56069 83620 88363=
85586,2008,06,02,12,00,AAXX 02124 85586 32960 10906 10104 20079 40200 52/// 81030 333 20096 31/// 50800 55020 56060 81363=
85586,2008,06,02,15,00,AAXX 02154 85586 41958 43606 10166 20079 40214 52016 70511 80001 333 56006 84075=
85586,2008,06,02,18,00,AAXX 02184 85586 32560 53110 10168 20094 40199 58015 81501 333 56606 81630 85075=
85586,2008,06,02,21,00,AAXX 02214 85586 42960 70000 10154 20103 40203 53003 80002 333 56006 87075=
85586,2008,06,03,00,00,AAXX 03004 85586 32960 50000 10108 20097 40200 54003 80002 333 10174 56006 85075=
85586,2008,06,03,12,00,AAXX 03124 85586 31956 80905 10114 20094 40188 52/// 7052/ 88039 333 20097 31/// 50140 55078 56069 88362=
85586,2008,06,03,15,00,AAXX 03154 85586 41558 81004 10133 20099 40195 51006 70522 8113/ 333 56769 81820 88362=
85586,2008,06,03,18,00,AAXX 03184 85586 31558 80000 10143 20105 40164 57030 70522 8113/ 333 56769 81820 88362=
85586,2008,06,03,21,00,AAXX 03214 85586 41656 80000 10131 20111 40163 55001 76022 8807/ 333 56069 84456 88359=
85586,2008,06,04,00,00,AAXX 04004 85586 11640 81006 10118 20105 40163 50000 60011 76062 8802/ 333 10144 56060 88456=
85586,2008,06,04,12,00,AAXX 04124 85586 11660 80805 10137 20108 40135 53/// 60034 7036/ 8802/ 333 20121 32/// 50140 55000 56060 70038 88456=
85586,2008,06,04,15,00,AAXX 04154 85586 41560 83504 10144 20107 40153 53018 76162 8212/ 333 56760 82820 88456=
85586,2008,06,04,18,00,AAXX 04184 85586 11540 80405 10138 20125 40151 58002 60141 76266 882// 333 56799 88825=
85586,2008,06,04,21,00,AAXX 04214 85586 41440 80208 10141 20127 40157 53006 76266 882// 333 56799 81815 88820=
85586,2008,06,05,00,00,AAXX 05004 85586 11540 80405 10137 20124 40170 53013 60231 76066 882// 333 10145 56799 88825=
85586,2008,06,05,12,00,AAXX 05124 85586 11203 80000 10130 20124 40237 52/// 60484 7444/ 886// 333 20130 32/// 50030 55000 56799 70478 88704=
85586,2008,06,05,15,00,AAXX 05154 85586 42460 40000 10150 20126 40246 84100 333 56600 84815=
85586,2008,06,05,18,00,AAXX 05184 85586 32460 32206 10182 20116 40235 57010 83100 333 56600 83815=
85586,2008,06,05,21,00,AAXX 05214 85586 42980 02607 10162 20118 40221 57015=
85586,2008,06,06,00,00,AAXX 06004 85586 32970 00000 10128 20082 40125 57006 333 10185=
85586,2008,06,06,12,00,AAXX 06124 85586 32960 00000 10040 20034 40181 54/// 333 20040 31/// 50070 55079=
85586,2008,06,06,15,00,AAXX 06154 85586 42970 00000 10130 20087 40183 52005=
85586,2008,06,06,18,00,AAXX 06184 85586 32970 02711 10138 20071 40174 57009=
85586,2008,06,06,21,00,AAXX 06214 85586 42970 02508 10131 20071 40193 52018 80001 333 56006 82073=
85586,2008,06,07,00,00,AAXX 07004 85586 32960 10000 10071 20053 40216 52021 80001 333 10181 56006 81073=
85586,2008,06,07,12,00,AAXX 07124 85586 32560 61204 10070 20056 40237 52/// 83530 333 20050 31/// 50230 56660 83630 85360=
85586,2008,06,07,18,00,AAXX 07184 85586 32570 22608 10157 20063 40232 57011 82100 333 56600 82820=
85586,2008,06,07,21,00,AAXX 07214 85586 42560 32608 10138 20087 40231 54001 81101 333 56606 81820 83075=
85586,2008,06,08,00,00,AAXX 08004 85586 32960 00000 10080 20068 40240 52007 333 10160=
85586,2008,06,08,12,00,AAXX 08124 85586 32960 10000 10048 20041 40249 52/// 80001 333 20032 31/// 50210 55066 56006 81075=
85586,2008,06,08,15,00,AAXX 08154 85586 42960 20000 10120 20090 40256 51010 80001 333 56006 82075=
85586,2008,06,08,18,00,AAXX 08184 85586 32560 22604 10150 20089 40255 54001 81501 333 56606 81625=
85586,2008,06,08,21,00,AAXX 08214 85586 42560 42408 10136 20102 40262 52007 82101 333 56606 82820=
85586,2008,06,09,00,00,AAXX 09004 85586 32960 01504 10080 20063 40286 52022 333 10152=
85586,2008,06,09,12,00,AAXX 09124 85586 32960 01504 10051 20036 40282 53/// 333 20047 31/// 50140 55088=
85586,2008,06,09,15,00,AAXX 09154 85586 42960 01806 10111 20032 40282 53002=
85586,2008,06,09,18,00,AAXX 09184 85586 32960 01916 10162 20019 40253 57028=
85586,2008,06,09,21,00,AAXX 09214 85586 42960 01805 10152 20028 40242 56011=
85586,2008,06,10,00,00,AAXX 10004 85586 31956 61806 10092 20023 40241 56003 70500 333 10169=
85586,2008,06,10,12,00,AAXX 10124 85586 32960 11304 10039 20019 40230 53/// 333 20024 31/// 50170 55094=
85586,2008,06,10,15,00,AAXX 10154 85586 42960 01605 10117 20035 40234 51007=
85586,2008,06,10,18,00,AAXX 10184 85586 32960 01812 10174 20072 40209 57023=
85586,2008,06,10,21,00,AAXX 10214 85586 42960 01806 10164 20077 40202 56008=
85586,2008,06,11,00,00,AAXX 11004 85586 31958 01404 10094 20071 40209 53007 70500 333 10176=
85586,2008,06,11,12,00,AAXX 11124 85586 32960 00000 10068 20064 40205 52/// 333 20054 31/// 50110 55092=
85586,2008,06,11,15,00,AAXX 11154 85586 42960 01808 10118 20068 40218 52009=
85586,2008,06,11,18,00,AAXX 11184 85586 32970 01908 10161 20047 40208 57011=
85586,2008,06,11,21,00,AAXX 11214 85586 42970 12508 10134 20083 40211 52003 80001 333 56006 81075=
85586,2008,06,12,00,00,AAXX 12004 85586 32960 00000 10084 20057 40220 52007 333 10163=
85586,2008,06,12,12,00,AAXX 12124 85586 31930 00000 10025 20020 40214 53/// 7100/ 333 20020 31/// 50090 55091=
85586,2008,06,12,15,00,AAXX 12154 85586 41958 11305 10100 20033 40216 52004 70500 80001 333 56006 81073=
85586,2008,06,12,18,00,AAXX 12184 85586 31959 32511 10133 20072 40202 57013 70511 80001 333 56006 83073=
85586,2008,06,12,21,00,AAXX 12214 85586 42960 22604 10128 20066 40195 57007 80001 333 56006 82073=
85586,2008,06,13,00,00,AAXX 13004 85586 32960 20000 10068 20010 40203 52006 80001 333 10163 56006 82073=
85586,2008,06,13,12,00,AAXX 13124 85586 31930 00000 10026 20016 40207 52/// 7100/ 333 20008 31/// 50160 55077=
85586,2008,06,13,15,00,AAXX 13154 85586 41956 00000 10098 20046 40220 52015 70500=
85586,2008,06,13,18,00,AAXX 13184 85586 31957 03104 10122 20076 40204 58015 70500=
85586,2008,06,13,21,00,AAXX 13214 85586 41958 30000 10124 20050 40204 54000 70511 80001 333 56007 83075=
85586,2008,06,14,00,00,AAXX 14004 85586 31960 30000 10063 20043 40222 52016 70511 80001 333 10159 56006 80375=
85586,2008,06,14,12,00,AAXX 14124 85586 32960 01504 10050 20027 40214 52/// 333 20032 31/// 50160 55084=
85586,2008,06,14,15,00,AAXX 14154 85586 42960 01910 10116 20039 40218 52006=
85586,2008,06,14,18,00,AAXX 14184 85586 32960 01810 10170 20013 40205 57009=
85586,2008,06,14,21,00,AAXX 14214 85586 42960 01808 10158 20020 40211 53005=
85586,2008,06,15,15,00,AAXX 15154 85586 42960 01705 10128 20034 40196 56004=
85586,2008,06,15,18,00,AAXX 15184 85586 32960 01205 10182 20050 40169 57025=
85586,2008,06,15,21,00,AAXX 15214 85586 42960 01604 10183 20056 40158 56011=
85586,2008,06,16,00,00,AAXX 16004 85586 31956 00000 10083 20059 40162 53002 70500 333 10196=
85586,2008,06,16,12,00,AAXX 16124 85586 32960 00000 10034 20017 40178 52/// 333 20026 31/// 50180 55093=
85586,2008,06,16,15,00,AAXX 16154 85586 41208 82605 10101 20088 40189 51013 74600 886// 333 56799 88704=
85586,2008,06,16,18,00,AAXX 16184 85586 31320 72107 10124 20100 40180 56008 71040 87600 333 56700 87708=
85586,2008,06,16,21,00,AAXX 16214 85586 41440 83204 10118 20088 40175 56005 70544 885// 333 56799 88612=
85586,2008,06,17,00,00,AAXX 17004 85586 31440 82905 10111 20090 40185 53010 70522 885// 333 10126 56799 88615=
85586,2008,06,17,12,00,AAXX 17124 85586 31430 80000 10100 20091 40187 54/// 7102/ 886// 333 20100 31/// 50070 55021 56699 88710=
85586,2008,06,17,15,00,AAXX 17154 85586 41440 81904 10097 20073 40200 52012 70522 886// 333 56699 88710=
85586,2008,06,17,18,00,AAXX 17184 85586 31350 81304 10101 20073 40179 57020 70522 886// 333 56009 88708=
85586,2008,06,17,21,00,AAXX 17214 85586 41450 80000 10106 20064 40169 57009 70522 886// 333 56099 88712=
85586,2008,06,18,00,00,AAXX 18004 85586 31456 80000 10096 20067 40091 52013 70522 885// 333 10185 56699 88610=
85586,2008,06,18,12,00,AAXX 18124 85586 31430 80000 10087 20067 40142 57/// 7052/ 886// 333 20087 31/// 50080 55000 56699 88710=
85586,2008,06,18,15,00,AAXX 18154 85586 41440 80000 10095 20057 40145 52003 70522 886// 333 56099 88710=
85586,2008,06,18,18,00,AAXX 18184 85586 31450 70205 10117 20057 40131 57013 70522 87500 333 56600 87612=
85586,2008,06,18,21,00,AAXX 18214 85586 41456 83107 10114 20071 40130 54001 70522 8253/ 333 56669 82615 88360=
85586,2008,06,19,00,00,AAXX 19004 85586 31956 83505 10112 20071 40138 52008 70522 8803/ 333 10121 56069 88360=
85586,2008,06,19,12,00,AAXX 19124 85586 11456 83608 10116 20109 40148 52/// 7606/ 8483/ 333 20102 32/// 50100 55001 56879 70114 82815 84620 87360=
85586,2008,06,19,15,00,AAXX 19154 85586 41456 63308 10126 20112 40178 52030 76062 85830 333 56770 83815 85620=
85586,2008,06,19,18,00,AAXX 19184 85586 11557 73617 10132 20103 40190 54002 60031 70262 83801 333 56707 83820 84075=
85586,2008,06,19,21,00,AAXX 19214 85586 41458 63410 10131 20098 40208 52018 70522 85801 333 56706 83815 83620=
85586,2008,06,20,00,00,AAXX 20004 85586 31458 70204 10108 20098 40218 52009 70522 84830 333 10142 56770 83815 85362=
85586,2008,06,20,12,00,AAXX 20124 85586 11201 81504 10066 20060 40222 56/// 60034 7464/ 886// 333 20066 32/// 50120 55030 56099 70026 88704=
85586,2008,06,20,15,00,AAXX 20154 85586 41358 61408 10100 20089 40216 58005 70542 81601 333 56306 81707 86075=
85586,2008,06,20,18,00,AAXX 20184 85586 32958 71806 10134 20071 40198 57017 70522 80002 333 56006 87073=
85586,2008,06,20,21,00,AAXX 20214 85586 41558 80000 10120 20090 40192 57006 70522 8803/ 333 56069 88362=
85586,2008,06,21,00,00,AAXX 21004 85586 31958 80000 10094 20083 40196 54003 70522 8803/ 333 10136 56069 88360=
85586,2008,06,21,12,00,AAXX 21124 85586 41208 80904 10062 20054 40214 52/// 7444/ 886// 333 20048 31/// 50140 56799 88704=
85586,2008,06,21,15,00,AAXX 21154 85586 41208 51304 10091 20083 40225 53012 74244 85600 333 56700 85704=
85586,2008,06,21,18,00,AAXX 21184 85586 31340 12605 10124 20100 40213 58014 71044 81600 333 56700 81707=
85586,2008,06,21,21,00,AAXX 21214 85586 41958 42506 10128 20087 40207 56006 70544 80001 333 56006 84075=
85586,2008,06,22,00,00,AAXX 22004 85586 31940 60000 10086 20068 40215 53007 70522 80001 333 10143 56006 86075=
85586,2008,06,22,12,00,AAXX 22124 85586 31908 61304 10051 20041 40195 53/// 7444/ 80001 333 20044 31/// 50140 55058 56006 86075=
85586,2008,06,22,15,00,AAXX 22154 85586 42940 71205 10096 20086 40210 52016 71044 80001 333 56006 87075=
85586,2008,06,22,18,00,AAXX 22184 85586 31556 72504 10131 20080 40193 58016 70544 81101 333 56706 81820 87075=
85586,2008,06,22,21,00,AAXX 22214 85586 41940 52505 10116 20076 40185 56007 70522 80001 333 56006 85075=
85586,2008,06,23,00,00,AAXX 23004 85586 31940 40000 10066 20050 40209 52021 70511 80001 333 10148 56006 84075=
85586,2008,06,23,12,00,AAXX 23124 85586 31930 71204 10044 20037 40212 57/// 7102/ 80001 333 20036 31/// 50130 55041 56006 87075=
85586,2008,06,23,15,00,AAXX 23154 85586 41930 61206 10094 20073 40216 52006 70522 80002 333 56006 86075=
85586,2008,06,23,18,00,AAXX 23184 85586 31950 71206 10126 20073 40200 57015 70522 80002 333 56006 87075=
85586,2008,06,23,21,00,AAXX 23214 85586 41958 22604 10142 20082 40194 57005 70521 80001 333 56006 82075=
85586,2008,06,24,00,00,AAXX 24004 85586 32960 00000 10066 20052 40205 53008 333 10152=
85586,2008,06,24,12,00,AAXX 24124 85586 31930 60000 10033 20029 40206 54/// 7102/ 86070 333 20033 31/// 50070 55036 56060 86365=
85586,2008,06,24,15,00,AAXX 24154 85586 41940 81004 10076 20062 40212 52008 70522 8803/ 333 56069 88365=
85586,2008,06,24,18,00,AAXX 24184 85586 31940 81204 10112 20067 40196 58015 70522 8803/ 333 56069 88362=
85586,2008,06,24,21,00,AAXX 24214 85586 41940 80000 10104 20081 40186 56009 70522 8803/ 333 56069 88362=
85586,2008,06,25,00,00,AAXX 25004 85586 31908 80000 10084 20074 40188 54001 74622 8803/ 333 10114 56069 88360=
85586,2008,06,25,12,00,AAXX 25124 85586 31930 71206 10046 20034 40186 52/// 7102/ 87030 333 20046 31/// 50120 55000 56060 87362=
85586,2008,06,25,15,00,AAXX 25154 85586 41950 60000 10101 20061 40195 52009 70522 85031 333 56066 85365 82073=
85586,2008,06,25,18,00,AAXX 25184 85586 31958 32708 10131 20082 40187 57006 70511 80001 333 56006 83073=
85586,2008,06,25,21,00,AAXX 25214 85586 42960 12605 10138 20078 40180 57007 80001 333 56007 81073=
85586,2008,06,26,00,00,AAXX 26004 85586 32960 00000 10075 20055 40184 52003 333 10153=
85586,2008,06,26,12,00,AAXX 26124 85586 31004 80000 10033 20029 40219 52/// 7442/ 886// 333 20031 30/// 50210 55060 88701=
85586,2008,06,26,15,00,AAXX 26154 85586 41940 03604 10088 20068 40181 52014 70544=
85586,2008,06,26,18,00,AAXX 26184 85586 31458 52607 10120 20080 40238 52008 70522 85500 333 56600 85612=
85586,2008,06,27,00,00,AAXX 27004 85586 31456 30000 10068 20048 40245 52005 70511 83500 333 10132 56600 83610=
85586,2008,06,27,12,00,AAXX 27124 85586 31208 81304 10075 20066 40229 53/// 7444/ 886// 333 20055 50140 55075 56799 88706=
85586,2008,06,27,15,00,AAXX 27154 85586 41220 22605 10098 20083 40234 52005 71044 82600 333 56700 82706=
85586,2008,06,27,18,00,AAXX 27184 85586 31956 52708 10129 20087 40213 58020 70544 80001 333 56006 85075=
85586,2008,06,27,21,00,AAXX 27214 85586 41960 12504 10134 20093 40207 56006 70241 80001 333 56006 81075=
85586,2008,06,28,00,00,AAXX 28004 85586 31940 00000 10073 20059 40212 53003 70511 333 10136=
85586,2008,06,28,12,00,AAXX 28124 85586 31908 61405 10037 20031 40189 58/// 7461/ 80001 333 20008 31/// 50140 55077 56006 86075=
85586,2008,06,28,15,00,AAXX 28154 85586 41920 40000 10085 20072 40189 58002 71041 80001 333 56006 84075=
85586,2008,06,28,18,00,AAXX 28184 85586 31956 42604 10134 20087 40178 57010 70541 80001 333 56006 84075=
85586,2008,06,28,21,00,AAXX 28214 85586 41958 72508 10122 20092 40175 56003 70511 80001 333 56006 87075=
85586,2008,06,29,00,00,AAXX 29004 85586 31956 40000 10071 20052 40181 53006 70511 80001 333 10136 56006 84075=
85586,2008,06,29,12,00,AAXX 29124 85586 31930 60000 10022 20015 40211 52/// 7102/ 80001 333 20018 31/// 50090 55071 56006 86075=
85586,2008,06,29,15,00,AAXX 29154 85586 41940 30000 10100 20080 40209 54000 70511 80001 333 56006 83075=
85586,2008,06,29,18,00,AAXX 29184 85586 31450 43105 10144 20085 40187 57020 70511 81501 333 56606 81612 83073=
85586,2008,06,29,21,00,AAXX 29214 85586 41957 62605 10123 20075 40194 52006 70522 82031 333 56076 82365 85073=
85586,2008,06,30,00,00,AAXX 30004 85586 31490 60000 10092 20070 40204 52009 70522 86031 333 10148 56066 86365 83073=
85586,2008,06,30,12,00,AAXX 30124 85586 31/02 90000 10055 20053 40504 53/// 7454/ 89/// 333 20055 31/// 50090 55059 89/00=
85586,2008,06,30,15,00,AAXX 30154 85586 41004 81305 10071 20063 40210 52004 74444 886// 333 56399 88700=
85586,2008,06,30,18,00,AAXX 30184 85586 31210 42505 10128 20086 40198 57010 71042 82601 333 56606 82708 84073=
85586,2008,06,30,21,00,AAXX 30214 85586 42960 52805 10132 20091 40175 57022 80001 333 56006 85073=
85586,2008,07,01,00,00,AAXX 01004 85586 31958 41304 10084 20066 40185 52009 70511 80001 333 10193 56006 84073=
85586,2008,07,01,12,00,AAXX 01124 85586 31908 11204 10048 20039 40198 52/// 7464/ 80002 333 20044 31/// 50100 55059 56006 81075=
85586,2008,07,01,15,00,AAXX 01154 85586 41940 11204 10120 20082 40213 52017 70511 80001 333 56006 81075=
85586,2008,07,01,18,00,AAXX 01184 85586 31950 10000 10188 20060 40193 57018 70511 80001 333 56007 81075=
85586,2008,07,01,21,00,AAXX 01214 85586 41220 80000 10141 20118 40198 52004 74622 886// 333 56699 88704=
85586,2008,07,02,00,00,AAXX 02004 85586 31001 80804 10110 20100 40209 52010 74641 886// 333 10192 56099 88701=
85586,2008,07,02,15,00,AAXX 02154 85586 41201 80000 10090 20080 40210 51007 74644 886// 333 56099 88704=
85586,2008,07,02,18,00,AAXX 02184 85586 31202 82804 10110 20098 40203 57006 74644 886// 333 56099 88704=
85586,2008,07,02,21,00,AAXX 02214 85586 41202 80000 10116 20107 40198 56005 74644 886// 333 56099 88704=
85586,2008,07,03,00,00,AAXX 03004 85586 31101 80406 10104 20095 40194 57005 74644 886// 333 10133 56099 88703=
85586,2008,07,03,12,00,AAXX 03124 85586 31220 50000 10065 20056 40172 56/// 7104/ 81601 333 20053 31/// 50120 55026 56706 81704 85075=
85586,2008,07,03,15,00,AAXX 03154 85586 41206 42804 10101 20086 40173 53002 74644 82601 333 56706 82704 84075=
85586,2008,07,03,18,00,AAXX 03184 85586 31340 73407 10119 20099 40170 58002 71044 87600 333 56700 87707=
85586,2008,07,03,21,00,AAXX 03214 85586 41440 83104 10113 20093 40167 56003 71044 885// 333 56799 88612=
85586,2008,07,04,00,00,AAXX 04004 85586 31240 83504 10114 20089 40187 52020 70522 886// 333 10126 56799 88706=
85586,2008,07,04,12,00,AAXX 04124 85586 31556 80000 10111 20092 40206 52/// 7052/ 886// 333 20108 31/// 50120 55046 56799 88620=
85586,2008,07,04,15,00,AAXX 04154 85586 41558 80405 10123 20084 40207 50001 70522 886// 333 56799 88625=
85586,2008,07,04,18,00,AAXX 04184 85586 32960 83611 10134 20079 40194 58013 886// 333 56799 88625=
85586,2008,07,04,21,00,AAXX 04214 85586 42960 83304 10124 20082 40198 53004 885// 333 56799 88630=
85586,2008,07,05,00,00,AAXX 05004 85586 31556 80504 10121 20075 40206 52008 70522 885// 333 10141 56799 88625=
85586,2008,07,05,12,00,AAXX 05124 85586 32960 70404 10104 20089 40196 54/// 87070 333 20076 31/// 50090 55000 56060 87362=
85586,2008,07,05,15,00,AAXX 05154 85586 41959 60904 10127 20061 40202 52007 70522 86070 333 56060 86360=
85586,2008,07,05,18,00,AAXX 05184 85586 31556 80000 10121 20081 40192 57010 70522 8557/ 333 56679 85620 88358=
85586,2008,07,05,21,00,AAXX 05214 85586 41320 82505 10114 20098 40185 57006 71022 886// 333 56699 88707=
85586,2008,07,06,00,00,AAXX 06004 85586 31440 80000 10108 20095 40193 52007 70522 885// 333 10130 56699 88610=
85586,2008,07,06,12,00,AAXX 06124 85586 11540 80000 10107 20103 40215 52/// 60084 7636/ 885// 333 20102 32/// 50060 55004 56799 70077 88625=
85586,2008,07,06,15,00,AAXX 06154 85586 41530 80000 10117 20105 40240 52025 76166 8357/ 333 56669 83625 88360=
85586,2008,07,06,18,00,AAXX 06184 85586 11560 53105 10142 20112 40239 54000 60061 70262 85100 333 56700 85825=
85586,2008,07,06,21,00,AAXX 06214 85586 42560 33104 10143 20101 40228 57011 83100 333 56600 83820=
85586,2008,07,07,00,00,AAXX 07004 85586 32560 50000 10115 20097 40235 52006 85500 333 10154 56600 85620=
85586,2008,07,07,12,00,AAXX 07124 85586 11450 81204 10102 20092 40242 52/// 60074 7102/ 885// 333 20092 31/// 50090 55033 56399 70067 88613=
85586,2008,07,07,15,00,AAXX 07154 85586 41440 81906 10112 20083 40250 52009 70522 885// 333 56399 88612=
85586,2008,07,07,18,00,AAXX 07184 85586 31440 81804 10130 20097 40234 58016 70522 885// 333 56499 88613=
85586,2008,07,07,21,00,AAXX 07214 85586 41450 81908 10126 20087 40237 53003 70522 885// 333 56499 88615=
85586,2008,07,08,00,00,AAXX 08004 85586 31456 60000 10112 20080 40246 52009 70522 86500 333 10130 56600 86615=
85586,2008,07,08,12,00,AAXX 08124 85586 31908 32204 10052 20046 40224 56/// 7461/ 82031 333 20052 31/// 50110 55000 56099 82365=
85586,2008,07,08,15,00,AAXX 08154 85586 41410 71904 10104 20093 40216 57007 71044 87500 333 56400 87610=
85586,2008,07,08,18,00,AAXX 08184 85586 32960 52706 10156 20102 40185 57028 80001 333 56006 85075=
85586,2008,07,08,21,00,AAXX 08214 85586 42960 42204 10160 20110 40165 57020 80001 333 56006 84075=
85586,2008,07,09,00,00,AAXX 09004 85586 32960 30000 10100 20077 40154 57013 80001 333 10164 56006 83075=
85586,2008,07,09,12,00,AAXX 09124 85586 31920 71406 10069 20059 40134 53/// 7101/ 80001 333 20064 31/// 50140 55067 56006 87075=
85586,2008,07,09,15,00,AAXX 09154 85586 41940 72904 10114 20085 40161 52029 70511 80001 333 56006 87075=
85586,2008,07,09,18,00,AAXX 09184 85586 31320 83610 10114 20103 40175 51014 71041 886// 333 56799 88708=
85586,2008,07,09,21,00,AAXX 09214 85586 41456 83105 10125 20099 40173 53002 70522 885// 333 56799 88612=
85586,2008,07,10,00,00,AAXX 10004 85586 31460 83006 10119 20100 40186 52013 70522 885// 333 10127 56799 88615=
85586,2008,07,10,12,00,AAXX 10124 85586 31556 80204 10114 20074 40193 55/// 7052/ 885// 333 20112 31/// 50160 55017 56799 88625=
85586,2008,07,10,15,00,AAXX 10154 85586 41556 80000 10126 20078 40205 52012 70522 885// 333 56799 88625=
85586,2008,07,10,18,00,AAXX 10184 85586 31556 83206 10132 20079 40200 58005 70522 885// 333 56799 88625=
85586,2008,07,10,21,00,AAXX 10214 85586 41558 33004 10131 20074 40189 57010 70522 83500 333 56700 83625=
85586,2008,07,11,00,00,AAXX 11004 85586 31556 60000 10103 20080 40193 53002 70522 86500 333 10134 56700 86625=
85586,2008,07,11,12,00,AAXX 11124 85586 31456 70000 10092 20067 40178 55/// 7052/ 87500 333 20092 31/// 50060 55005 56700 87617=
85586,2008,07,11,15,00,AAXX 11154 85586 41457 80000 10101 20050 40192 52013 70522 885// 333 56699 88617=
85586,2008,07,11,18,00,AAXX 11184 85586 31559 80106 10121 20056 40174 57017 70522 885// 333 56699 88620=
85586,2008,07,11,21,00,AAXX 11214 85586 41457 83505 10117 20057 40169 57004 70522 885// 333 56099 88617=
85586,2008,07,12,00,00,AAXX 12004 85586 31556 80408 10112 20060 40171 54002 70522 885// 333 10130 56199 88620=
85586,2008,07,12,12,00,AAXX 12124 85586 32560 80109 10126 20076 40157 53/// 8527/ 333 20117 31/// 50070 55000 56779 85825 83360=
85586,2008,07,12,15,00,AAXX 12154 85586 41540 80108 10105 20086 40201 54042 76366 8527/ 333 56779 85825 86360=
85586,2008,07,12,18,00,AAXX 12184 85586 11556 83609 10105 20086 40212 52011 60181 76166 8527/ 333 56779 85823 84360=
85586,2008,07,12,21,00,AAXX 12214 85586 41320 83405 10115 20104 40238 52027 71062 887// 333 56799 88608=
85586,2008,07,13,00,00,AAXX 13004 85586 11540 80000 10114 20110 40233 58005 60031 71065 886// 333 10127 56799 88620=
85586,2008,07,13,12,00,AAXX 13124 85586 12960 11006 10078 20068 40199 56/// 60214 81030 333 20078 32/// 50080 55000 56060 81363=
85586,2008,07,13,15,00,AAXX 13154 85586 42960 11804 10140 20082 40191 56006 80001 333 56006 81075=
85586,2008,07,13,18,00,AAXX 13184 85586 32560 22606 10148 20100 40182 57009 81501 333 56606 81620=
85586,2008,07,13,21,00,AAXX 13214 85586 42960 52506 10134 20103 40187 57005 80002 333 56006 85075=
85586,2008,07,14,00,00,AAXX 14004 85586 32960 40000 10100 20089 40185 52007 80002 333 10152 56006 84075=
85586,2008,07,14,12,00,AAXX 14124 85586 31102 81204 10076 20070 40188 52/// 7464/ 886// 333 20066 32/// 50080 55065 56099 88702=
85586,2008,07,14,15,00,AAXX 14154 85586 41204 80000 10092 20087 40194 53005 74644 886// 333 56099 88704=
85586,2008,07,14,18,00,AAXX 14184 85586 31302 82606 10104 20097 40190 54003 74644 886// 333 56099 88707=
85586,2008,07,14,21,00,AAXX 14214 85586 41201 82706 10104 20098 40181 57009 74644 886// 333 56099 88705=
85586,2008,07,15,00,00,AAXX 15004 85586 31102 80000 10100 20094 40183 54002 74644 886// 333 10114 56099 88703=
85586,2008,07,15,12,00,AAXX 15124 85586 11208 80000 10093 20084 40188 52/// 69984 7515/ 886// 333 20091 50110 55000 56799 70008 88704=
85586,2008,07,15,15,00,AAXX 15154 85586 41340 83403 10103 20092 40209 53003 71055 886// 333 56799 88708=
85586,2008,07,15,18,00,AAXX 15184 85586 11456 86007 10119 20099 40201 58007 69911 70555 885// 333 56799 88610=
85586,2008,07,15,21,00,AAXX 15214 85586 41456 80000 10121 20093 40189 57011 70522 885// 333 56799 88615=
85586,2008,07,16,00,00,AAXX 16004 85586 31440 80805 10116 20097 40212 52022 70522 885// 333 10123 56799 88615=
85586,2008,07,16,12,00,AAXX 16124 85586 11558 80910 10111 20078 40192 55/// 69924 7052/ 885// 333 20104 31/// 50013 55000 56799 70002 88625=
85586,2008,07,16,15,00,AAXX 16154 85586 42560 60712 10141 20087 40194 53003 86500 333 56700 86525=
85586,2008,07,16,18,00,AAXX 16184 85586 32560 83305 10151 20098 40184 58010 885// 333 56799 88625=
85586,2008,07,16,21,00,AAXX 16214 85586 41340 73606 10132 20103 40182 56002 78022 87800 333 56700 82610 87820=
85586,2008,07,17,00,00,AAXX 17004 85586 11540 80105 10121 20108 40210 53027 60071 76282 882// 333 10161 56799 88820=
85586,2008,07,17,12,00,AAXX 17124 85586 12460 60704 10115 20100 40239 52/// 60154 862// 333 20111 32/// 50120 55017 56700 82815 84820=
85586,2008,07,17,15,00,AAXX 17154 85586 42560 31307 10153 20114 40237 50001 83200 333 56700 83820=
85586,2008,07,17,18,00,AAXX 17184 85586 32460 52611 10153 20109 40219 57018 81201 333 56706 81815 84075=
85586,2008,07,17,21,00,AAXX 17214 85586 42960 02411 10138 20104 40209 57010=
85586,2008,07,18,00,00,AAXX 18004 85586 32960 00000 10097 20077 40214 52003 333 10163=
85586,2008,07,18,12,00,AAXX 18124 85586 31959 61304 10055 20041 40180 57/// 70522 82031 333 20051 30/// 50180 55083 56067 82466 84073=
85586,2008,07,18,15,00,AAXX 18154 85586 41958 61807 10107 20056 40186 52008 70522 84031 333 56077 84466 83073=
85586,2008,07,18,18,00,AAXX 18184 85586 32960 71906 10130 20045 40175 57011 86031 333 56067 86460 83073=
85586,2008,07,18,21,00,AAXX 18214 85586 42960 72206 10128 20041 40174 54001 86031 333 56066 86360 82073=
85586,2008,07,19,00,00,AAXX 19004 85586 32960 30000 10076 20037 40180 52005 83030 333 10137 56070 83360=
85586,2008,07,19,12,00,AAXX 19124 85586 31956 71304 10050 20036 40169 57/// 70522 83031 333 20018 31/// 50140 55017 56066 83365 86070=
85586,2008,07,19,15,00,AAXX 19154 85586 41956 81305 10069 20049 40170 54001 70522 8803/ 333 56069 88363=
85586,2008,07,19,18,00,AAXX 19184 85586 31840 80106 10096 20071 40152 57017 70522 8803/ 333 56069 88358=
85586,2008,07,19,21,00,AAXX 19214 85586 41435 80000 10100 20075 40148 57004 70522 8653/ 333 56679 86615 84360=
85586,2008,07,20,00,00,AAXX 20004 85586 31440 80904 10097 20069 40147 54001 70522 885// 333 10107 56699 88617=
85586,2008,07,20,12,00,AAXX 20124 85586 31556 80705 10112 20079 40148 53/// 7052/ 885// 333 20089 31/// 50120 55000 56799 88625=
85586,2008,07,20,15,00,AAXX 20154 85586 42560 80306 10124 20081 40163 52015 885// 333 56799 88625=
85586,2008,07,20,18,00,AAXX 20184 85586 11540 80000 10116 20098 40171 51008 60031 76262 8212/ 333 56779 82820 88456=
85586,2008,07,20,21,00,AAXX 20214 85586 41558 80904 10121 20098 40164 58007 70566 87500 333 56700 87625=
85586,2008,07,21,00,00,AAXX 21004 85586 11556 40000 10104 20094 40161 56004 60021 70562 84500 333 10131 56700 84625=
85586,2008,07,21,12,00,AAXX 21124 85586 11440 81006 10091 20077 40178 52/// 60064 7102/ 8117/ 333 20073 32/// 50110 55005 56769 81815 88357=
85586,2008,07,21,15,00,AAXX 21154 85586 41556 71104 10133 20098 40206 52028 70522 82530 333 56760 82620 87357=
85586,2008,07,21,18,00,AAXX 21184 85586 32560 82806 10154 20108 40206 50001 8427/ 333 56769 84820 88357=
85586,2008,07,21,21,00,AAXX 21214 85586 41556 70000 10142 20100 40210 53004 70522 82230 333 56760 82820 87359=
85586,2008,07,22,00,00,AAXX 22004 85586 31556 70000 10132 20099 40226 52015 70522 87500 333 10165 56700 87625=
85586,2008,07,22,12,00,AAXX 22124 85586 32960 70906 10101 20076 40168 53/// 81031 333 20092 31/// 50120 55017 56066 81360 86075=
85586,2008,07,22,15,00,AAXX 22154 85586 42460 73405 10141 20109 40180 52012 81131 333 56766 81815 87015=
85586,2008,07,22,18,00,AAXX 22184 85586 32460 73309 10154 20105 40162 58018 87800 333 56700 81815 87625=
85586,2008,07,22,21,00,AAXX 22214 85586 41540 83506 10132 20112 40163 55001 78011 882// 333 56799 88825=
85586,2008,07,23,00,00,AAXX 23004 85586 11540 83007 10106 20096 40179 52016 60101 78282 882// 333 10166 56799 88820=
85586,2008,07,23,12,00,AAXX 23124 85586 12560 20000 10078 20074 40254 52/// 60264 82100 333 20078 32/// 50050 55024 56000 70256 82820=
85586,2008,07,23,18,00,AAXX 23184 85586 32960 02104 10158 20080 40249 58013=
85586,2008,07,23,21,00,AAXX 23214 85586 42570 42509 10137 20097 40241 57008 81101 333 56606 81820 84073=
85586,2008,07,24,00,00,AAXX 24004 85586 32970 00000 10101 20063 40240 57003 333 10163=
85586,2008,07,24,12,00,AAXX 24124 85586 32960 61406 10057 20030 40177 55/// 82031 333 20057 31/// 50040 55093 56066 82365 84070=
85586,2008,07,24,15,00,AAXX 24154 85586 42960 30905 10123 20063 40178 54003 80001 333 56006 83070=
85586,2008,07,24,18,00,AAXX 24184 85586 32970 32708 10150 20050 40164 57014 81031 333 56066 81365 83073=
85586,2008,07,24,21,00,AAXX 24214 85586 42570 72604 10125 20079 40165 54001 82530 333 56670 82625 86363=
85586,2008,07,25,00,00,AAXX 25004 85586 32960 30000 10085 20073 40183 52017 83030 333 10154 56060 83363=
85586,2008,07,25,12,00,AAXX 25124 85586 32960 70000 10076 20060 40214 52/// 87030 333 20060 31/// 50090 55032 56060 87363=
85586,2008,07,25,15,00,AAXX 25154 85586 42560 60904 10118 20056 40230 52017 83531 333 56667 83630 84363 82070=
85586,2008,07,25,18,00,AAXX 25184 85586 32560 52605 10145 20028 40224 57005 81501 333 56606 81620 85070=
85586,2008,07,25,21,00,AAXX 25214 85586 42560 72604 10129 20045 40219 57005 81531 333 56677 81620 82363 87070=
85586,2008,07,26,00,00,AAXX 26004 85586 32960 70000 10091 20073 40219 54002 82031 333 10152 56066 82363 85070=
85586,2008,07,26,12,00,AAXX 26124 85586 31959 00000 10050 20041 40199 57/// 7100/ 333 20050 31/// 50110 55042=
85586,2008,07,26,15,00,AAXX 26154 85586 41959 00000 10105 20076 40204 52006 70540=
85586,2008,07,26,18,00,AAXX 26184 85586 31357 33307 10127 20095 40198 58005 70500 82601 333 56706 82707=
85586,2008,07,26,21,00,AAXX 26214 85586 42460 23004 10127 20093 40200 54002 82500 333 56600 82615=
85586,2008,07,27,00,00,AAXX 27004 85586 32960 00000 10082 20074 40218 52017 333 10139=
85586,2008,07,27,12,00,AAXX 27124 85586 32960 01206 10048 20039 40245 52/// 333 20022 31/// 50120 55079=
85586,2008,07,27,15,00,AAXX 27154 85586 42960 31506 10136 20089 40243 50000 80001 333 56006 83075=
85586,2008,07,27,18,00,AAXX 27184 85586 32960 72606 10153 20100 40127 58026 80001 333 56006 87075=
85586,2008,07,27,21,00,AAXX 27214 85586 42960 62505 10134 20083 40216 56002 80001 333 56006 86075=
85586,2008,07,28,00,00,AAXX 28004 85586 31956 02304 10082 20053 40223 53006 70511 333 10158=
85586,2008,07,28,12,00,AAXX 28124 85586 32960 31504 10034 20026 40229 52/// 81031 333 20032 31/// 50120 55058 56066 81365 82075=
85586,2008,07,28,15,00,AAXX 28154 85586 42960 31304 10130 20085 40236 51010 81031 333 56066 81365=
85586,2008,07,28,18,00,AAXX 28184 85586 32960 62307 10156 20098 40223 58012 80001 333 56006 86075=
85586,2008,07,28,21,00,AAXX 28214 85586 42960 62507 10134 20094 40223 55001 80001 333 56006 86075=
85586,2008,07,29,00,00,AAXX 29004 85586 32960 41206 10098 20084 40239 52015 80001 333 10162 56006 84075=
85586,2008,07,29,12,00,AAXX 29124 85586 32960 10000 10058 20050 40245 52/// 80001 333 20038 31/// 50100 55070 56001 81075=
85586,2008,07,29,15,00,AAXX 29154 85586 42960 12207 10117 20067 40254 52011 80001 333 56006 81075=
85586,2008,07,29,18,00,AAXX 29184 85586 32960 02610 10133 20070 40242 57012=
85586,2008,07,29,21,00,AAXX 29214 85586 42960 02406 10124 20082 40237 57005=
85586,2008,07,30,00,00,AAXX 30004 85586 32960 11704 10083 20065 40243 52007 80001 333 10159 56006 81075=
85586,2008,07,30,12,00,AAXX 30124 85586 31456 70000 10052 20043 40229 57/// 70522 81530 333 20040 30/// 50230 55107 56670 81615 87363=
85586,2008,07,30,15,00,AAXX 30154 85586 41958 72205 10092 20066 40242 52014 70522 87030 333 56050 87363=
85586,2008,07,30,18,00,AAXX 30184 85586 31959 82205 10118 20067 40226 57015 70522 8803/ 333 56059 88363=
85586,2008,07,30,21,00,AAXX 30214 85586 42460 82507 10122 20060 40222 57004 8153/ 333 56679 81615 88359=
85586,2008,07,31,00,00,AAXX 31004 85586 11560 80000 10097 20079 40231 52008 69901 76222 8183/ 333 10130 56669 81820 88358=
85586,2008,07,31,12,00,AAXX 31124 85586 11950 31205 10075 20071 40219 57/// 60024 7100/ 80001 333 20075 31/// 50060 55000 56006 70022 83073=
85586,2008,07,31,15,00,AAXX 31154 85586 41956 31104 10141 20098 40213 57004 70511 80001 333 56006 83073=
85586,2008,07,31,18,00,AAXX 31184 85586 31456 42611 10150 20124 40198 57015 70511 84101 333 56607 84817 82073=
85586,2008,07,31,21,00,AAXX 31214 85586 41215 82608 10121 20113 40199 54000 71042 886// 333 56699 88706=
85586,2008,08,01,00,00,AAXX 01004 85586 11215 82605 10112 20108 40206 54000 69901 75142 886// 333 10152 56699 88704=
85586,2008,08,01,12,00,AAXX 01124 85586 11440 80104 10114 20105 40209 53/// 60064 7608/ 882// 333 20109 32/// 50110 55063 56799 70066 81815 88220=
85586,2008,08,01,15,00,AAXX 01154 85586 41320 80404 10121 20117 40227 52019 75386 333 56799 88708=
85586,2008,08,01,18,00,AAXX 01184 85586 11308 83606 10129 20120 40227 50001 60111 75386 886// 333 56799 88708=
85586,2008,08,01,21,00,AAXX 01214 85586 41440 83504 10134 20120 40225 55001 71055 888// 333 56799 82815 88620=
85586,2008,08,02,00,00,AAXX 02004 85586 11440 83604 10131 20115 40232 53007 60011 71055 885// 333 10135 56799 88615=
85586,2008,08,02,12,00,AAXX 02124 85586 11420 80000 10132 20123 40238 52/// 60294 7628/ 882// 333 20126 33/// 50080 55000 56799 88820=
85586,2008,08,02,15,00,AAXX 02154 85586 41208 83304 10141 20134 40247 51010 75086 886// 333 56799 88706=
85586,2008,08,02,18,00,AAXX 02184 85586 11206 82705 10139 20131 40247 50000 60021 74665 886// 333 56799 88704=
85586,2008,08,02,21,00,AAXX 02214 85586 41460 42705 10156 20132 40234 58013 70154 84200 333 56700 81815 84825=
85586,2008,08,03,00,00,AAXX 03004 85586 31420 20000 10133 20119 40242 53007 71041 82100 333 10158 56700 82815=
85586,2008,08,03,12,00,AAXX 03124 85586 11440 80000 10106 20100 40216 56/// 60034 7102/ 885// 333 20078 32/// 50060 55018 56099 70030 88610=
85586,2008,08,03,18,00,AAXX 03184 85586 31456 22007 10166 20126 40193 57019 70511 82500 333 56500 82617=
85586,2008,08,03,21,00,AAXX 03214 85586 41560 12508 10136 20109 40179 57015 81500 333 56500 81625=
85586,2008,08,04,00,00,AAXX 04004 85586 31304 50904 10110 20104 40181 54002 74611 85600 333 10168 56000 85708=
85586,2008,08,04,12,00,AAXX 04124 85586 32560 80604 10111 20103 40187 53/// 885// 333 20108 31/// 50090 55071 56099 88617=
85586,2008,08,04,15,00,AAXX 04154 85586 41450 71704 10105 20090 40220 52026 81630 333 56660 81710 87359=
85586,2008,08,04,18,00,AAXX 04184 85586 12570 31906 10124 20070 40226 52012 60041 83100 333 56600 83825=
85586,2008,08,04,21,00,AAXX 04214 85586 42570 11404 10152 20062 40223 54002 81100 333 56400 81825=
85586,2008,08,05,00,00,AAXX 05004 85586 32960 01805 10096 20090 40234 52009 333 10153=
85586,2008,08,05,12,00,AAXX 05124 85586 12960 01305 10046 20038 40208 53/// 60044 333 20036 31/// 50070 55060 70041=
85586,2008,08,05,15,00,AAXX 05154 85586 42960 02508 10103 20076 40218 52011=
85586,2008,08,05,18,00,AAXX 05184 85586 32960 02510 10130 20085 40210 57007=
85586,2008,08,05,21,00,AAXX 05214 85586 42970 02517 10127 20092 40202 57008=
85586,2008,08,06,00,00,AAXX 06004 85586 32960 02504 10083 20077 40214 52011 333 10138=
85586,2008,08,06,12,00,AAXX 06124 85586 32960 11504 10018 20014 40227 52/// 80001 333 20014 31/// 50110 55100 56006 81073=
85586,2008,08,06,15,00,AAXX 06154 85586 42970 11308 10123 20073 40235 52011 80001 333 56007 81075=
85586,2008,08,06,18,00,AAXX 06184 85586 32970 12607 10153 20094 40228 57014 80001 333 56006 81075=
85586,2008,08,06,21,00,AAXX 06214 85586 42970 12209 10151 20092 40222 54002 80001 333 56006 81075=
85586,2008,08,07,00,00,AAXX 07004 85586 32960 01904 10097 20073 40237 52013 333 10171=
85586,2008,08,07,15,00,AAXX 07154 85586 42960 01609 10132 20076 40226 58012=
85586,2008,08,07,18,00,AAXX 07184 85586 32960 71809 10175 20070 40215 57009 80001 333 56006 87075=
85586,2008,08,07,21,00,AAXX 07214 85586 42960 71707 10165 20046 40202 57013 80001 333 56006 87075=
85586,2008,08,08,00,00,AAXX 08004 85586 31958 41804 10084 20053 40212 53007 70511 80001 333 10178 56006 84075=
85586,2008,08,08,12,00,AAXX 08124 85586 32960 01305 10061 20034 40195 53/// 333 20051 31/// 50140 55096=
85586,2008,08,08,15,00,AAXX 08154 85586 42960 72604 10142 20084 40190 58002 80001 333 56006 87075=
85586,2008,08,08,18,00,AAXX 08184 85586 32960 62207 10194 20087 40167 57022 80001 333 56006 86075=
85586,2008,08,08,21,00,AAXX 08214 85586 42960 42506 10165 20093 40167 50000 80001 333 56001 74075=
85586,2008,08,09,00,00,AAXX 09004 85586 32960 40000 10096 20071 40179 52011 80001 333 10195 56006 84075=
85586,2008,08,09,12,00,AAXX 09124 85586 32960 61504 10062 20054 40177 52/// 80002 333 20038 31/// 50120 55095 56006 86075=
85586,2008,08,09,15,00,AAXX 09154 85586 42960 80000 10124 20092 40183 52008 83032 333 56066 83361 86073=
85586,2008,08,09,18,00,AAXX 09184 85586 32960 82706 10168 20103 40171 58011 83032 333 56006 83060 86073=
85586,2008,08,09,21,00,AAXX 09214 85586 42960 83104 10144 20113 40168 56004 83032 333 56066 83360 86073=
85586,2008,08,10,00,00,AAXX 10004 85586 32960 80404 10102 20089 40182 52013 80002 333 10172 56006 88073=
85586,2008,08,10,12,00,AAXX 10124 85586 31556 70000 10074 20067 40203 52/// 7102/ 81531 333 20064 31/// 50110 55011 56066 81625 84365=
85586,2008,08,10,15,00,AAXX 10154 85586 41958 70904 10105 20091 40206 52004 70522 86031 333 56066 86365 82075=
85586,2008,08,10,18,00,AAXX 10184 85586 32570 62506 10153 20096 40197 57008 81531 333 56667 81620 84365 82075=
85586,2008,08,10,21,00,AAXX 10214 85586 42570 82608 10136 20099 40191 56006 82132 333 56666 82825 84365 85075=
85586,2008,08,11,00,00,AAXX 11004 85586 32970 80000 10126 20114 40202 52010 8213/ 333 10158 56669 82825 87363=
85586,2008,08,11,12,00,AAXX 11124 85586 32460 70000 10095 20070 40205 52/// 83570 333 20095 31/// 50100 55030 85617=
85586,2008,08,11,15,00,AAXX 11154 85586 42570 42206 10123 20073 40230 52025 83501 333 56606 83620 81075=
85586,2008,08,11,18,00,AAXX 11184 85586 32570 11807 10161 20035 40229 54000 81500 333 56600 81625=
85586,2008,08,11,21,00,AAXX 11214 85586 42970 02209 10137 20072 40232 52003=
85586,2008,08,12,00,00,AAXX 12004 85586 32960 01904 10094 20070 40242 52008 333 10165=
85586,2008,08,12,12,00,AAXX 12124 85586 32960 01204 10057 20036 40212 52/// 333 20054 31/// 50110 55084=
85586,2008,08,12,15,00,AAXX 12154 85586 42970 01904 10141 20055 40205 57004=
85586,2008,08,12,18,00,AAXX 12184 85586 32970 02508 10150 20088 40178 57027=
85586,2008,08,12,21,00,AAXX 12214 85586 42970 02607 10137 20097 40171 57007=
85586,2008,08,13,00,00,AAXX 13004 85586 32960 00000 10085 20071 40173 54001 333 10180=
85586,2008,08,13,12,00,AAXX 13124 85586 32960 81204 10069 20055 40163 53/// 8803/ 333 20051 31/// 50140 55103 56069 88365=
85586,2008,08,13,15,00,AAXX 13154 85586 41958 80000 10104 20079 40176 52014 8003/ 333 56069 88365=
85586,2008,08,13,18,00,AAXX 13184 85586 31558 82707 10128 20093 40201 52025 70522 8353/ 333 56769 83625 88365=
85586,2008,08,13,21,00,AAXX 13214 85586 41558 80000 10120 20090 40187 56013 70522 8255/ 333 56769 82625 88359=
85586,2008,08,14,00,00,AAXX 14004 85586 31556 80906 10112 20098 40206 52018 70522 882// 333 10131 56799 88825=
85586,2008,08,14,12,00,AAXX 14124 85586 31556 80705 10108 20091 40221 53/// 7052/ 885// 333 20084 31/// 50130 55003 56799 88620=
85586,2008,08,14,15,00,AAXX 14154 85586 41556 80504 10131 20096 40233 51008 70522 8353/ 333 56769 83625 88362=
85586,2008,08,14,18,00,AAXX 14184 85586 31558 83007 10136 20123 40217 58015 70522 8453/ 333 56769 84620 88362=
85586,2008,08,14,21,00,AAXX 14214 85586 41958 81007 10124 20102 40206 58006 72522 8805/ 333 56069 88362=
85586,2008,08,15,00,00,AAXX 15004 85586 11956 80000 10114 20098 40196 57010 69901 70582 88039 333 10148 56069 88361=
85586,2008,08,15,12,00,AAXX 15124 85586 11956 80408 10110 20086 40168 57/// 60034 7026/ 87032 333 20092 32/// 50080 55000 56066 70034 87363 86075=
85586,2008,08,15,18,00,AAXX 15184 85586 11830 83614 10106 20100 40145 57024 60231 76366 8803/ 333 56079 88358=
85586,2008,08,15,21,00,AAXX 15214 85586 41820 80406 10108 20100 40135 56010 76366 8803/ 333 56079 88758=
85586,2008,08,16,00,00,AAXX 16004 85586 11720 83604 10112 20106 40130 56005 60381 76366 8802/ 333 10112 56089 88456=
85586,2008,08,16,12,00,AAXX 16124 85586 11960 70000 10094 20087 40157 52/// 60964 7016/ 87030 333 20094 32/// 50060 55000 56060 70959 87362=
85586,2008,08,16,15,00,AAXX 16154 85586 42460 52408 10132 20110 40180 52024 84130 333 56560 84815=
85586,2008,08,16,18,00,AAXX 16184 85586 32460 32608 10140 20092 40186 51006 83100 333 56500 83815=
85586,2008,08,16,21,00,AAXX 16214 85586 42560 22414 10131 20082 40186 54001 82500 333 56500 82620=
85586,2008,08,17,00,00,AAXX 17004 85586 32360 10000 10096 20081 40203 52016 81500 333 10166 56000 81625=
85586,2008,08,17,18,00,AAXX 17184 85586 32460 22512 10125 20074 40200 58005 82100 333 56000 82817=
85586,2008,08,17,21,00,AAXX 17214 85586 42560 22509 10121 20081 40199 54001 82100 333 56000 82823=
85586,2008,08,18,00,00,AAXX 18004 85586 32560 20000 10090 20071 40208 52008 82100 333 10150 56000 82825=
85586,2008,08,18,12,00,AAXX 18124 85586 32660 70000 10080 20070 40229 52/// 87500 333 20048 31/// 50130 55101 56600 87633=
85586,2008,08,18,15,00,AAXX 18154 85586 42560 73004 10105 20084 40236 52007 87500 333 56600 87630=
85586,2008,08,18,18,00,AAXX 18184 85586 32560 70000 10111 20072 40225 58010 87800 333 56600 82817 87630=
85586,2008,08,18,21,00,AAXX 18214 85586 42560 72804 10112 20076 40218 57007 87800 333 56600 81817 86627=
85586,2008,08,19,00,00,AAXX 19004 85586 32560 60000 10102 20083 40221 54002 86500 333 10118 56600 86627=
85586,2008,08,19,12,00,AAXX 19124 85586 32560 20000 10064 20052 40245 52/// 82100 333 20044 31/// 50130 55000 56700 82820=
85586,2008,08,19,15,00,AAXX 19154 85586 42560 43205 10128 20072 40252 51009 82130 333 56760 82820=
85586,2008,08,19,18,00,AAXX 19184 85586 11540 80307 10114 20091 40252 55000 69941 78011 882// 333 56799 88825=
85586,2008,08,19,21,00,AAXX 19214 85586 41456 80205 10113 20092 40258 53006 78081 882// 333 56799 81215 88825=
85586,2008,08,20,00,00,AAXX 20004 85586 11556 80704 10102 20091 40272 52013 60021 78088 882// 333 10132 56799 88825=
85586,2008,08,20,12,00,AAXX 20124 85586 12960 01204 10043 20032 40176 53/// 60024 333 20031 50090 55035 70027=
85586,2008,08,20,15,00,AAXX 20154 85586 42960 01909 10127 20080 40275 55001=
85586,2008,08,20,18,00,AAXX 20184 85586 32460 22707 10149 20088 40262 58012 82100 333 56700 82815=
85586,2008,08,20,21,00,AAXX 20214 85586 42960 02414 10126 20081 40261 56002=
85586,2008,08,21,00,00,AAXX 21004 85586 32960 02306 10091 20061 40275 52013 333 10151=
85586,2008,08,21,12,00,AAXX 21124 85586 32920 01204 10046 20036 40273 53/// 333 20010 31/// 50120 55107=
85586,2008,08,21,15,00,AAXX 21154 85586 42960 01805 10121 20064 40272 54001=
85586,2008,08,21,18,00,AAXX 21184 85586 32960 02208 10158 20043 40244 57027=
85586,2008,08,21,21,00,AAXX 21214 85586 42960 11910 10159 20048 40231 57013 80001 333 56006 81075=
85586,2008,08,22,00,00,AAXX 22004 85586 32960 01904 10082 20058 40235 54002 333 10170=
85586,2008,08,22,12,00,AAXX 22124 85586 32960 11804 10050 20035 40184 56/// 80001 333 20022 31/// 50100 55106 56006 81075=
85586,2008,08,22,15,00,AAXX 22154 85586 42970 41706 10119 20046 40185 52003 80001 333 56006 84075=
85586,2008,08,22,18,00,AAXX 22184 85586 12970 52406 10133 20056 40173 57013 60001 80002 333 56006 85075=
85586,2008,08,22,21,00,AAXX 22214 85586 42970 52509 10117 20066 40177 52005 80001 333 56006 85075=
85586,2008,08,23,00,00,AAXX 23004 85586 12960 30000 10084 20066 40192 52013 60001 80001 333 10135 56006 83075=
85586,2008,08,23,12,00,AAXX 23124 85586 12560 21204 10045 20034 40216 52/// 81501 333 20039 31/// 50120 55095 56606 81620=
85586,2008,08,23,15,00,AAXX 23154 85586 42560 43504 10134 20054 40235 52021 84501 333 56606 84620 81075=
85586,2008,08,23,18,00,AAXX 23184 85586 12570 32805 10141 20030 40222 57012 60001 83500 333 56600 83625=
85586,2008,08,23,21,00,AAXX 23214 85586 42570 12808 10125 20075 40210 57013 81500 333 56600 81625=
85586,2008,08,24,00,00,AAXX 24004 85586 12960 00000 10095 20075 40223 52012 60001 333 10147=
85586,2008,08,24,12,00,AAXX 24124 85586 11940 01205 10033 20026 40167 53005 60004 7100/ 333 20030 31/// 50120 55112=
85586,2008,08,24,15,00,AAXX 24154 85586 41956 03004 10116 20079 40172 52008 70500=
85586,2008,08,24,18,00,AAXX 24184 85586 11956 02905 10133 20092 40159 58013 70500=
85586,2008,08,24,21,00,AAXX 24214 85586 42360 12704 10129 20094 40173 53014 81600 333 56600 81708=
85586,2008,08,25,00,00,AAXX 25004 85586 12460 50000 10107 20094 40194 52020 85500 333 10137 56600 85618=
85586,2008,08,25,12,00,AAXX 25124 85586 31940 01105 10052 20041 40185 53/// 7040/ 333 20043 31/// 50140 55093=
85586,2008,08,25,15,00,AAXX 25154 85586 42960 00000 10136 20091 40180 58003=
85586,2008,08,25,18,00,AAXX 25184 85586 12960 02909 10149 20100 40169 57011 60001=
85586,2008,08,25,21,00,AAXX 25214 85586 42560 20104 10144 20103 40169 50000 82100 333 56700 82820=
85586,2008,08,26,00,00,AAXX 26004 85586 11956 00000 10112 20095 40182 53013 70500 333 10152=
85586,2008,08,26,12,00,AAXX 26124 85586 12560 70407 10119 20092 40189 52/// 87500 333 20084 31/// 50140 55108 56700 87625=
85586,2008,08,26,15,00,AAXX 26154 85586 41340 83605 10127 20111 40209 52019 75085 887// 333 56799 83709 88825=
85586,2008,08,26,18,00,AAXX 26184 85586 11556 83308 10134 20118 40218 53009 60031 78085 882// 333 56799 88820=
85586,2008,08,26,21,00,AAXX 26214 85586 41440 80304 10128 20115 40216 56002 78085 882// 333 56799 81815 88820=
85586,2008,08,27,00,00,AAXX 27004 85586 11556 80000 10123 20110 4021655000 60021 70588 882// 333 10136 56799 88825=
85586,2008,08,27,12,00,AAXX 27124 85586 11101 81004 10088 20084 40220 52014 60054 7464/ 886// 333 20076 31/// 50080 55012 56099 70047 88701=
85586,2008,08,27,15,00,AAXX 27154 85586 41440 33604 10126 20104 40232 52013 70544 83501 333 56006 83613=
85586,2008,08,27,18,00,AAXX 27184 85586 32960 33308 10146 20085 40233 54002 81502 333 56706 81618 83073=
85586,2008,08,27,21,00,AAXX 27214 85586 42560 83306 10132 20050 40235 54001 81532 333 56766 81620 84363 86075=
85586,2008,08,28,00,00,AAXX 28004 85586 11558 83608 10120 20072 40236 54001 69921 81832 333 10146 56776 81820 85360 87073=
85586,2008,08,28,12,00,AAXX 28124 85586 11970 01206 10080 20056 40291 52007 60054 7026/ 333 20068 32/// 50110 55057 70048=
85586,2008,08,28,15,00,AAXX 28154 85586 42970 40906 10148 20063 40288 54001 80002 333 56006 84073=
85586,2008,08,28,18,00,AAXX 28184 85586 12970 22605 10172 20084 40259 57028 60001 80001 333 56006 82075=
85586,2008,08,28,21,00,AAXX 28214 85586 42965 82510 10136 20084 40246 57014 83032 333 56066 83365 87075=
85586,2008,08,29,00,00,AAXX 29004 85586 12960 30000 10113 20097 40244 57003 60001 83071 333 10176 56076 83365=
85586,2008,08,29,12,00,AAXX 29124 85586 12970 51204 10076 20070 40215 53005 60004 85030 333 20054 31/// 50100 55084 56060 85365=
85586,2008,08,29,15,00,AAXX 29154 85586 42970 41305 10166 20094 40206 57006 84030 333 56060 84365=
85586,2008,08,29,18,00,AAXX 29184 85586 12970 12607 10178 20113 40193 57013 60001 80001 333 56006 81073=
85586,2008,08,29,21,00,AAXX 29214 85586 42970 22607 10176 20115 40173 57020 80001 333 56007 82073=
85586,2008,08,30,00,00,AAXX 30004 85586 12960 10000 10117 20106 40171 57003 60001 80001 333 10207 56007 81073=
85586,2008,08,30,12,00,AAXX 30124 85586 12960 00000 10064 20058 40156 54001 60004 333 20050 31/// 50110 55054=
85586,2008,08,30,15,00,AAXX 30154 85586 42960 20000 10158 20098 40152 54001 80001 333 56006 82075=
85586,2008,08,30,18,00,AAXX 30184 85586 12970 32805 10162 20114 40136 57016 60001 80001 333 56006 83075=
85586,2008,08,30,21,00,AAXX 30214 85586 41230 62507 10131 20119 40139 52002 70522 85601 333 56606 85705 83075=
85586,2008,08,31,00,00,AAXX 31004 85586 11250 20000 10111 20103 40147 52008 60001 70511 82600 333 10204 56700 82707=
85586,2008,08,31,12,00,AAXX 31124 85586 12960 71204 10064 20054 40182 52014 80001 333 20054 31/// 50140 55094 56006 87075=
85586,2008,08,31,15,00,AAXX 31154 85586 42460 72904 10145 20108 40175 53005 81101 333 56706 81815 87075=
85586,2008,08,31,18,00,AAXX 31184 85586 12960 72806 10161 20105 40170 58004 80001 333 56006 87075=
85586,2008,08,31,21,00,AAXX 31214 85586 42960 72905 10149 20104 40162 57009 80001 333 56006 87075=
85586,2008,09,01,00,00,AAXX 01004 85586 12956 40000 10103 20086 40171 53008 60001 70511 80001 333 10163 56006 84075=
85586,2008,09,01,12,00,AAXX 01124 85586 12960 50905 10072 20060 40167 52008 60004 80001 333 20061 31/// 56006 85075=
85586,2008,09,01,15,00,AAXX 01154 85586 42460 73306 10156 20101 40171 51007 81101 333 56706 81815 87075=
85586,2008,09,01,18,00,AAXX 01184 85586 12960 73309 10171 20102 40158 58013 60001 80001 333 56006 87075=
85586,2008,09,01,21,00,AAXX 01214 85586 42960 73306 10142 20110 40160 55001 80030 333 56060 87365=
85586,2008,09,02,00,00,AAXX 02004 85586 11956 63505 10129 20103 40167 53007 70511 86030 333 10173 56060 86365=
85586,2008,09,02,12,00,AAXX 02124 85586 11450 80000 10086 20078 40187 52013 69974 7506/ 885// 333 20080 31/// 50130 55086 56099 70007 88615=
85586,2008,09,02,15,00,AAXX 02154 85586 41450 81004 10098 20091 40194 51006 75055 885// 333 56099 88618=
85586,2008,09,02,18,00,AAXX 02184 85586 11558 81206 10112 20092 40193 54000 60021 70565 885// 333 56099 88620=
85586,2008,09,02,21,00,AAXX 02214 85586 41456 80906 10110 20093 40185 57007 76066 8383/ 333 56279 81815 83626 88359=
85586,2008,09,03,00,00,AAXX 03004 85586 11560 80000 10098 20084 40197 52010 60021 70266 8353/ 333 10114 56079 83625 88359=
85586,2008,09,03,12,00,AAXX 03124 85586 12960 21204 10070 20062 40194 52007 60044 81031 333 20058 32/// 50110 55000 56066 70041 81360=
85586,2008,09,03,15,00,AAXX 03154 85586 42560 22606 10142 20087 40200 52009 82500 333 56600 82620=
85586,2008,09,03,18,00,AAXX 03184 85586 12460 32510 10136 20086 40194 57006 83500 333 56600 83615=
85586,2008,09,03,21,00,AAXX 03214 85586 42460 22410 10136 20087 40185 56009 82100 333 56600 82817=
85586,2008,09,04,00,00,AAXX 04004 85586 12460 20000 10094 20077 40192 53006 60001 82100 333 10148 56000 81817=
85586,2008,09,04,12,00,AAXX 04124 85586 11558 50000 10040 20035 40183 52011 60004 7102/ 82530 333 20030 31/// 50130 55101 50060 82623 83363=
85586,2008,09,04,15,00,AAXX 04154 85586 42560 32804 10121 20087 40193 52012 81530 333 56660 81625 83363=
85586,2008,09,04,18,00,AAXX 04184 85586 12570 43105 10138 20073 40192 54000 83131 333 56677 83820 82358 81073=
85586,2008,09,04,21,00,AAXX 04214 85586 42570 42806 10134 20075 40182 57010 82130 333 56060 82820=
85586,2008,09,05,00,00,AAXX 05004 85586 12560 40000 10101 20083 40200 52016 60001 82130 333 10138 56660 82820 83358=
85586,2008,09,05,12,00,AAXX 05124 85586 12560 50000 10082 20074 40239 52025 60004 81230 333 20082 31/// 50100 55098 56060 81820 84363=
85586,2008,09,05,15,00,AAXX 05154 85586 42560 50000 10126 20095 40250 52012 83230 333 56660 83820 82363=
85586,2008,09,05,18,00,AAXX 05184 85586 12570 52708 10139 20091 40252 52003 60001 82230 333 56660 82820 83363=
85586,2008,09,05,21,00,AAXX 05214 85586 42570 42705 10131 20078 40255 54002 84500 333 56600 84625=
85586,2008,09,06,00,00,AAXX 06004 85586 12960 00000 10088 20072 40262 52006 60001 333 10153=
85586,2008,09,06,12,00,AAXX 06124 85586 11908 01204 10058 20050 40243 53003 60004 7460/ 333 20033 31/// 50140 55047=
85586,2008,09,06,15,00,AAXX 06154 85586 41460 12504 10148 20095 40242 55001 70240 81100 333 56700 81815=
85586,2008,09,06,18,00,AAXX 06184 85586 11960 02714 10146 20085 40225 57017 70240=
85586,2008,09,06,21,00,AAXX 06214 85586 42960 02507 10138 20088 40222 56003=
85586,2008,09,07,00,00,AAXX 07004 85586 11958 40000 10091 20072 40234 53010 60001 70500 80001 333 10153 56006 84075=
85586,2008,09,07,12,00,AAXX 07124 85586 12960 81204 10071 20061 40214 58004 60004 83031 333 20044 31/// 50140 55110 56066 83065 87075=
85586,2008,09,07,15,00,AAXX 07154 85586 42560 70000 10124 20100 40213 58002 83530 333 56760 83625 87365=
85586,2008,09,07,18,00,AAXX 07184 85586 12960 32809 10155 20092 40192 57020 60001 80001 333 56006 83075=
85586,2008,09,07,21,00,AAXX 07214 85586 42960 32610 10148 20085 40187 56005 80131 333 56066 81365 82075=
85586,2008,09,08,00,00,AAXX 08004 85586 11956 70000 10115 20094 40189 53002 60001 70500 80001 333 10158 56006 87075=
85586,2008,09,08,12,00,AAXX 08124 85586 12960 51204 10040 20030 40206 52013 60004 80001 333 20032 31/// 50140 55067 56006 85075=
85586,2008,09,08,15,00,AAXX 08154 85586 42960 52904 10138 20082 40210 52008 80001 333 56006 85075=
85586,2008,09,08,18,00,AAXX 08184 85586 11558 72708 10150 20084 40202 56006 70522 81506 333 56606 81620 87275=
85586,2008,09,08,21,00,AAXX 08214 85586 41958 72408 10128 20080 40201 54002 70522 80006 333 56006 87275=
85586,2008,09,09,00,00,AAXX 09004 85586 12960 70000 10106 20077 40210 52009 60001 80006 333 10152 56006 87275=
85586,2008,09,09,12,00,AAXX 09124 85586 11908 71204 10070 20062 40200 54002 60004 7464/ 80002 333 20058 31/// 50140 55072 56006 87075=
85586,2008,09,09,15,00,AAXX 09154 85586 41550 72205 10131 20080 40203 52005 70542 81501 333 56606 81633 87070=
85586,2008,09,09,18,00,AAXX 09184 85586 11956 72604 10140 20084 40198 58004 70522 80002 333 56006 87070=
85586,2008,09,09,21,00,AAXX 09214 85586 41956 72607 10132 20085 40201 54002 70522 80004 333 56006 87070=
85586,2008,09,10,00,00,AAXX 10004 85586 11957 30000 10104 20076 40220 52018 60001 70511 80008 333 10151 56006 83270=
85586,2008,09,10,12,00,AAXX 10124 85586 11250 30000 10038 20021 40224 52/// 60004 7051/ 81601 333 20034 30/// 50170 55034 56606 81706=
85586,2008,09,10,15,00,AAXX 10154 85586 42560 42605 10141 20086 40235 52018 81101 333 56607 81820 83073=
85586,2008,09,10,18,00,AAXX 10184 85586 12570 62207 10140 20067 40239 57004 60001 82150 333 56660 82825 85363=
85586,2008,09,10,21,00,AAXX 10214 85586 42570 62608 10141 20101 40252 52013 83530 333 56660 83620 85363=
85586,2008,09,11,00,00,AAXX 11004 85586 12560 40000 10113 20089 40257 52004 60001 84500 333 10162 56600 84620=
85586,2008,09,11,12,00,AAXX 11124 85586 11130 51807 10076 20070 40247 54000 60004 7101/ 85600 333 10042 31/// 50130 55077 56000 85703=
85586,2008,09,11,15,00,AAXX 11154 85586 42260 22207 10152 20066 40243 54002 82600 333 56700 82704=
85586,2008,09,11,18,00,AAXX 11184 85586 12570 12514 10152 20084 40224 57019 60001 81100 333 56600 81820=
85586,2008,09,11,21,00,AAXX 11214 85586 42570 12508 10146 20076 40220 57004 81100 333 56600 81820=
85586,2008,09,12,00,00,AAXX 12004 85586 12960 00000 10106 20087 40230 52009 60001 333 10163=
85586,2008,09,12,15,00,AAXX 12154 85586 41960 12404 10176 20106 40198 56015 80001 333 56006 81075=
85586,2008,09,12,18,00,AAXX 12184 85586 12960 02511 10182 20090 40177 57021 60001=
85586,2008,09,12,21,00,AAXX 12214 85586 42960 00000 10202 20114 40158 57018=
85586,2008,09,13,00,00,AAXX 13004 85586 11956 00000 10114 20089 40163 53003 60001 70500 333 10203=
85586,2008,09,13,12,00,AAXX 13124 85586 12960 61304 10084 20074 40164 52/// 60004 7051/ 80001 333 20031 31/// 50160 55111 56006 86075=
85586,2008,09,13,15,00,AAXX 13154 85586 41958 42606 10164 20085 40162 55000 70511 80005 333 56006 82073=
85586,2008,09,13,18,00,AAXX 13184 85586 11958 72514 10156 20104 40157 57005 60001 70511 80004 333 56006 87075=
85586,2008,09,13,21,00,AAXX 13214 85586 41958 80000 10148 20101 40160 53002 70511 84031 333 56066 84365 84075=
85586,2008,09,14,00,00,AAXX 14004 85586 11956 40504 10119 20095 40168 53008 60001 70511 80006 333 10173 56006 84075=
85586,2008,09,14,12,00,AAXX 14124 85586 11215 81004 10082 20074 40202 52014 60004 7102/ 886// 333 20068 31/// 50150 55083 56299 88706=
85586,2008,09,14,15,00,AAXX 14154 85586 41440 72704 10118 20098 4020852007 70522 87500 333 56600 87610=
85586,2008,09,14,18,00,AAXX 14184 85586 11440 82706 10128 20093 40204 57004 60001 70522 885// 333 56699 88612=
85586,2008,09,14,21,00,AAXX 14214 85586 41456 13106 10146 20100 40189 57014 70511 81500 333 56600 81617=
85586,2008,09,15,00,00,AAXX 15004 85586 11956 10506 10110 20093 40195 52005 60001 70511 80001 333 10152 56006 81073=
85586,2008,09,15,12,00,AAXX 15124 85586 11930 00000 10078 20072 40180 52005 60004 7100/ 333 20043 30/// 50150 55051=
85586,2008,09,15,15,00,AAXX 15154 85586 42960 02805 10184 20121 40179 54000=
85586,2008,09,15,18,00,AAXX 15184 85586 12970 02509 10171 20104 40170 57008=
85586,2008,09,15,21,00,AAXX 15214 85586 42970 03104 10191 20107 40156 57014=
85586,2008,09,16,00,00,AAXX 16004 85586 12960 00000 10129 20097 40167 52010 60001 333 10200=
85586,2008,09,16,12,00,AAXX 16124 85586 11002 80000 10091 20089 40172 52015 60004 7444/ 886// 333 20052 30/// 50190 55110 56099 88701=
85586,2008,09,16,15,00,AAXX 16154 85586 41330 73505 10133 20115 40185 52015 70544 87500 333 56600 87608=
85586,2008,09,16,18,00,AAXX 16184 85586 11457 82805 10141 20116 40182 57003 60001 70522 885// 333 56699 88617=
85586,2008,09,16,21,00,AAXX 16214 85586 41440 82708 10122 20110 40193 52010 70522 885// 333 56699 88610=
85586,2008,09,17,00,00,AAXX 17004 85586 11220 80000 10110 20104 40206 52013 60001 71022 886// 333 10150 56699 88704=
85586,2008,09,17,12,00,AAXX 17124 85586 11458 70000 10109 20097 40222 52004 69934 7052/ 87500 333 20101 31/// 50110 55027 56600 70003 87618=
85586,2008,09,17,15,00,AAXX 17154 85586 41458 81806 10139 20114 40226 52005 70522 885// 333 56699 88615=
85586,2008,09,17,18,00,AAXX 17184 85586 12460 52611 10138 20098 40216 57010 85500 333 56700 85617=
85586,2008,09,17,21,00,AAXX 17214 85586 42470 52605 10153 20107 40203 57013 82501 333 56606 82617 84073=
85586,2008,09,18,00,00,AAXX 18004 85586 12970 22513 10161 20081 40209 57014 60001 80001 333 56007 81073=
85586,2008,09,18,12,00,AAXX 18124 85586 11558 60504 10103 20092 40215 52/// 60004 7052/ 86500 333 20074 31/// 50160 55046 56060 86625=
85586,2008,09,18,15,00,AAXX 18154 85586 42460 50000 10139 20093 40222 52006 81101 333 56706 81815 84075=
85586,2008,09,18,18,00,AAXX 18184 85586 12460 22608 10143 20090 40225 53003 60001 81001 333 56706 81815=
85586,2008,09,18,21,00,AAXX 18214 85586 41960 22805 10137 20109 40231 53006 80001 333 56006 82075=
85586,2008,09,19,00,00,AAXX 19004 85586 11956 00000 10092 20076 40238 53006 60001 70500 333 10154=
85586,2008,09,19,12,00,AAXX 19124 85586 12958 01206 10086 20072 40247 52/// 60004 7050/ 333 20041 50180 55079=
85586,2008,09,19,15,00,AAXX 19154 85586 42960 02806 10153 20094 40249 51003=
85586,2008,09,19,18,00,AAXX 19184 85586 12960 02614 10159 20099 40233 57016 60001=
85586,2008,09,19,21,00,AAXX 19214 85586 42960 02710 10154 20103 40220 56013=
85586,2008,09,20,00,00,AAXX 20004 85586 12956 00000 10114 20085 40230 53008 60001 70500 333 10174=
85586,2008,09,20,12,00,AAXX 20124 85586 12960 31204 10110 20098 40196 54002 60004 80001 333 20048 31/// 50160 55111 56006 83075=
85586,2008,09,20,15,00,AAXX 20154 85586 42960 42805 10175 20112 40185 57009 80001 333 56006 84075=
85586,2008,09,20,18,00,AAXX 20184 85586 12960 12607 10183 20107 40172 57013 60001 80001 333 56007 81075=
85586,2008,09,20,21,00,AAXX 20214 85586 42960 13104 10181 20110 40158 57014 80001 333 56006 81075=
85586,2008,09,21,00,00,AAXX 21004 85586 12960 00000 10123 20101 40154 57005 60001 333 10184=
85586,2008,09,21,12,00,AAXX 21124 85586 12960 00000 10116 20105 40150 53010 60004 333 20060 30/// 50190 55110=
85586,2008,09,21,15,00,AAXX 21154 85586 42960 03104 10170 20123 40148 52009=
85586,2008,09,21,18,00,AAXX 21184 85586 11310 83111 10134 20124 40166 52017 60001 71022 886// 333 56799 88707=
85586,2008,09,21,21,00,AAXX 21214 85586 42460 53608 10154 20124 40171 51005 81601 333 56806 81712 85075=
85586,2008,09,22,00,00,AAXX 22004 85586 11457 83109 10134 20114 40188 52017 60001 70522 885// 333 10193 56799 88615=
85586,2008,09,22,12,00,AAXX 22124 85586 11558 80104 10128 20113 40202 53007 60004 7052/ 885// 333 20126 30/// 50160 55083 56799 88620=
85586,2008,09,22,15,00,AAXX 22154 85586 41558 83104 10137 20105 40205 51004 70522 885// 333 56699 88620=
85586,2008,09,22,18,00,AAXX 22184 85586 11558 83107 10144 20104 40202 56003 60001 70522 885// 333 56799 88625=
85586,2008,09,22,21,00,AAXX 22214 85586 41558 83507 10134 20100 40202 54000 70522 885// 333 56699 88625=
85586,2008,09,23,00,00,AAXX 23004 85586 11557 80000 10131 20087 40220 52017 60001 70522 885// 333 10151 56699 88628=
85586,2008,09,23,12,00,AAXX 23124 85586 12560 70000 10126 20102 40215 52008 60004 87500 333 20110 30/// 50200 55000 56600 87627=
85586,2008,09,23,15,00,AAXX 23154 85586 42560 22410 10160 20106 40213 54001 82500 333 56600 82627=
85586,2008,09,23,18,00,AAXX 23184 85586 12960 02414 10161 20104 40209 58004 60001=
85586,2008,09,23,21,00,AAXX 23214 85586 42960 02514 10152 20113 40202 57007=
85586,2008,09,24,00,00,AAXX 24004 85586 12960 00000 10120 20102 40208 53005 60001 333 10163=
85586,2008,09,24,12,00,AAXX 24124 85586 11940 01205 10113 20103 40174 52/// 60001 333 20054 31/// 50180 55088=
85586,2008,09,24,15,00,AAXX 24154 85586 41958 02806 10181 20116 40165 58009=
85586,2008,09,24,18,00,AAXX 24184 85586 12960 02511 10176 20115 40155 57009 60001=
85586,2008,09,24,21,00,AAXX 24214 85586 42960 02612 10157 20115 40158 53003=
85586,2008,09,25,12,00,AAXX 25124 85586 11208 80000 10116 20107 40179 52/// 69904 7504/ 886// 333 20113 50160 55110 56799 88704=
85586,2008,09,25,15,00,AAXX 25154 85586 41220 82906 10119 20110 40186 53007 75355 886// 333 56799 88706=
85586,2008,09,25,18,00,AAXX 25184 85586 11340 82906 10125 20111 40196 51009 69981 71055 885// 333 56799 88610=
85586,2008,09,25,21,00,AAXX 25214 85586 41456 83004 10126 20094 40185 58011 70552 885// 333 56799 88615=
85586,2008,09,26,15,00,AAXX 26154 85586 42960 73307 10153 20085 40217 52009 83530 333 56760 83625 87360=
85586,2008,09,26,21,00,AAXX 26214 85586 42560 62706 10156 20093 40211 56003 81602 333 56606 81625 86075=
85586,2008,09,27,12,00,AAXX 27124 85586 12960 30000 10106 20084 40193 53005 83030 333 20064 30/// 50130 55062 56060 83365=
85586,2008,09,27,15,00,AAXX 27154 85586 42560 42508 10148 20088 40191 54001 83101 333 56606 83820=
85586,2008,09,27,18,00,AAXX 27184 85586 12560 32611 10153 20100 40184 57007 60001 83100 333 56600 83820=
85586,2008,09,27,21,00,AAXX 27214 85586 42560 52611 10140 20100 40185 55001 81130 333 56660 81820 85362=
85586,2008,09,28,15,00,AAXX 28154 85586 42560 42704 10152 20092 40190 52005 81101 333 56606 81825 83073=
85586,2008,09,28,18,00,AAXX 28184 85586 12560 22610 10151 20100 40186 57004 60001 82100 333 56600 84825=
85586,2008,09,28,21,00,AAXX 28214 85586 42960 02406 10152 20112 40178 57008=
85586,2008,09,29,00,00,AAXX 29004 85586 11957 00000 10113 20103 40185 52007 60001 333 10165=
85586,2008,09,29,12,00,AAXX 29124 85586 12460 70000 10117 20104 40211 52010 60004 87500 333 20090 30/// 50220 55111 56600 87617=
85586,2008,09,29,15,00,AAXX 29154 85586 42560 12706 10141 20101 40202 57008 81500 333 56600 81625=
85586,2008,09,29,18,00,AAXX 29184 85586 12960 02507 10160 20118 40184 57018 60001=
85586,2008,09,29,21,00,AAXX 29214 85586 42570 32611 10142 20100 40171 57013 82501 333 56606 82620 81073=
85586,2008,09,30,00,00,AAXX 30004 85586 NIL=
85586,2008,10,01,18,00,AAXX 01184 85586 12515 12515 10166 20105 40241 58010 60001 81100 333 56700 81815=
85586,2008,10,03,00,00,AAXX 03004 85586 12960 72406 10124 20102 40202 52013 60001 80002 333 10166 56006 87073=
85586,2008,10,05,12,00,AAXX 05124 85586 1200 NIL=
85586,2008,10,05,18,00,AAXX 05184 85586 12970 22513 10161 20081 40209 57014 60001 80001 333 56007 81073=
85586,2008,10,06,00,00,AAXX 06004 85586 12960 00000 10116 20091 40213 52012 60001 333 10163=
85586,2008,10,06,18,00,AAXX 06184 85586 12960 02707 10183 20104 40175 57015 60001=
85586,2008,10,07,09,00,AAXX 07094 85586 0900 NIL=
85586,2008,10,07,12,00,AAXX 07124 85586 11103 80000 10107 20095 40198 52016 60001 7444/ 886// 333 20091 30/// 50190 55117 56799 88703=
85586,2008,10,07,18,00,AAXX 07184 85586 11456 82605 10139 20107 40200 56004 60001 70542 885// 333 56799 88612=
85586,2008,10,08,00,00,AAXX 08004 85586 11340 82904 10126 20103 40211 53007 60001 70522 886// 333 10141 56799 88708=
85586,2008,10,08,12,00,AAXX 08124 85586 11430 80000 10114 20104 40212 52017 60004 7102/ 886// 333 20114 30/// 50130 55000 56099 88710=
85586,2008,10,08,15,00,AAXX 08154 85586 41435 82706 10126 20111 40220 52008 70522 886// 333 56099 88712=
85586,2008,10,08,18,00,AAXX 08184 85586 11456 82806 10140 20100 40211 58008 60001 70522 885// 333 56699 88618=
85586,2008,10,08,21,00,AAXX 08214 85586 41558 72506 10138 20094 40195 57016 70522 87500 333 56600 87620=
85586,2008,10,09,00,00,AAXX 09004 85586 11558 82406 10120 20103 40195 54001 60001 70522 885// 333 10146 56699 88620=
85586,2008,10,09,12,00,AAXX 09124 85586 11005 82404 10106 20100 40171 54002 60004 7464/ 886// 333 20086 30/// 50120 55001 56699 88701=
85586,2008,10,09,15,00,AAXX 09154 85586 41330 82604 10119 20111 40166 57004 71044 886// 333 56699 88708=
85586,2008,10,09,18,00,AAXX 09184 85586 11456 82705 10137 20113 40164 54002 60001 70522 333 56699 88613=
85586,2008,10,09,21,00,AAXX 09214 85586 41456 82406 10124 20108 40161 54003 70522 885// 333 56699 88613=
85586,2008,10,10,00,00,AAXX 10004 85586 11430 80000 10113 20095 40170 52009 60001 70522 885// 333 10146 56099 88610=
85586,2008,10,10,12,00,AAXX 10124 85586 12460 80000 10113 20105 40172 52014 60004 886// 333 20111 30/// 50180 55003 56699 88710=
85586,2008,10,10,15,00,AAXX 10154 85586 41450 83104 10122 20110 40181 52009 70522 886// 333 56799 88710=
85586,2008,10,10,18,00,AAXX 10184 85586 11430 83104 10130 20115 40186 52005 60001 70522 886// 333 56799 88712=
85586,2008,10,10,21,00,AAXX 10214 85586 41556 82704 10146 20098 40195 52009 70522 8353/ 333 56669 83617 87362=
85586,2008,10,11,00,00,AAXX 11004 85586 12460 70000 10125 20107 40205 52009 60001 81530 333 10148 56660 81617 87362=
85586,2008,10,11,12,00,AAXX 11124 85586 11958 30000 10097 20091 40149 52010 60004 7051/ 80001 333 20051 30/// 50210 55000 56007 83073=
85586,2008,10,11,15,00,AAXX 11154 85586 42570 42805 10163 20111 40197 54002 82101 333 56606 82820 83075=
85586,2008,10,11,18,00,AAXX 11184 85586 12570 62505 10151 20108 40193 57004 82130 333 56660 82820 86365=
85586,2008,10,11,21,00,AAXX 11214 85586 42570 62704 10147 20119 40186 57007 82130 333 56660 82825 85365=
85586,2008,10,12,00,00,AAXX 12004 85586 12360 80000 10126 20115 40191 52004 60001 886// 333 10186 56699 88709=
85586,2008,10,12,12,00,AAXX 12124 85586 11958 70000 10114 20095 40176 52016 60004 87030 333 20063 30/// 50190 55066 56060 87362=
85586,2008,10,12,15,00,AAXX 12154 85586 41458 83009 10142 20100 52016 70522 8113/ 333 56769 81815 88362=
85586,2008,10,12,18,00,AAXX 12184 85586 12460 33106 10157 20086 40206 51011 60001 83100 333 56700 83815=
85586,2008,10,12,21,00,AAXX 12214 85586 42460 52805 10144 20084 40205 50001 81130 333 56760 81815 85358=
85586,2008,10,13,12,00,AAXX 13124 85586 12560 41204 10113 20081 40200 52018 60004 81501 333 20032 30/// 50170 55047 56706 81625 84075=
85586,2008,10,13,15,00,AAXX 13154 85586 42460 82504 10141 20097 50001 8213/ 333 56769 82815 88362=
85586,2008,10,13,18,00,AAXX 13184 85586 12460 82415 10146 20091 40197 54001 60001 8213/ 333 5676/ 82815 88358=
85586,2008,10,13,21,00,AAXX 13214 85586 42960 32412 10159 20082 58007 80001 333 56006 83075=
85586,2008,10,14,00,00,AAXX 14004 85586 11958 00000 10104 20074 40189 58002 60001 70511 333 10168=
85586,2008,10,14,12,00,AAXX 14124 85586 12960 00000 10098 20082 40190 52020 333 20030 30/// 50300 55067=
85586,2008,10,14,15,00,AAXX 14154 85586 42960 03007 10153 20108 40204 52012=
85586,2008,10,14,18,00,AAXX 14184 85586 12960 02512 10156 20110 40204 54000 60001=
85586,2008,10,14,21,00,AAXX 14214 85586 42960 02412 10153 20108 40205 54001=
85586,2008,10,15,00,00,AAXX 15004 85586 12960 00000 10118 20095 40216 52010 60001 333 20159=
85586,2008,10,15,12,00,AAXX 15124 85586 12960 00000 10096 20090 40216 54002 60004 333 20030 30/// 51360 55115=
85586,2008,10,15,15,00,AAXX 15154 85586 42960 02710 10172 20107 40213 54000=
85586,2008,10,15,18,00,AAXX 15184 85586 12970 02513 10162 20113 40208 57006 60001=
85586,2008,10,15,21,00,AAXX 15214 85586 42960 02511 10174 20115 40200 57007=
85586,2008,10,16,00,00,AAXX 16004 85586 12960 00404 10126 20109 40201 54001 60001 333 10184=
85586,2008,10,16,12,00,AAXX 16124 85586 11002 80000 10098 20094 40204 52015 60004 7444/ 886// 333 20086 30/// 50230 55115 56799 88701=
85586,2008,10,16,15,00,AAXX 16154 85586 41230 82604 10121 20111 40220 52017 70544 886// 333 56699 88706=
85586,2008,10,16,18,00,AAXX 16184 85586 11450 82804 10134 20111 40219 54000 60001 70522 885// 333 56699 88613=
85586,2008,10,16,21,00,AAXX 16214 85586 41457 62604 10132 20105 40217 57003 70522 86500 333 56600 86615=
85586,2008,10,17,12,00,AAXX 17124 85586 11108 80000 10092 20088 40213 52008 60004 7442/ 886// 333 20088 30/// 50120 55002 56699 88702=
85586,2008,10,17,15,00,AAXX 17154 85586 41210 82506 10123 20107 40210 54001 71044 886// 333 56699 88704=
85586,2008,10,17,18,00,AAXX 17184 85586 12360 22807 10151 20113 40196 57014 60001 82600 333 56600 82708=
85586,2008,10,17,21,00,AAXX 17214 85586 42960 13106 10155 20095 40182 57013 80001 333 56006 81075=
85586,2008,10,18,00,00,AAXX 18004 85586 12960 00000 10124 20108 40183 54000 60001 333 10164=
85586,2008,10,18,12,00,AAXX 18124 85586 11208 70000 10106 20097 40177 51012 60004 7460/ 87600 333 20043 30/// 50140 55077 56700 87704=
85586,2008,10,18,15,00,AAXX 18154 85586 41220 12610 10141 20101 40176 55001 74040 81600 333 56700 81704=
85586,2008,10,18,18,00,AAXX 18184 85586 11960 02609 10177 20115 40163 58012 60001=
85586,2008,10,18,21,00,AAXX 18214 85586 42960 02605 10183 20116 40156 56007=
85586,2008,10,19,00,00,AAXX 19004 85586 11956 00705 10133 20098 40170 53013 60001 70500 333 10191=
85586,2008,10,19,12,00,AAXX 19124 85586 11103 82505 10113 20103 40172 53012 7464/ 886// 333 20062 30/// 50180 55106 56799 88703=
85586,2008,10,19,15,00,AAXX 19154 85586 42958 73107 10161 20112 40176 51005 70544 80001 333 56006 87075=
85586,2008,10,19,18,00,AAXX 19184 85586 12960 63009 10173 20112 40174 56002 60001 333 56006 86075=
85586,2008,10,19,21,00,AAXX 19214 85586 42960 62705 10181 20118 40173 55001 80001 333 56006 86075=
85586,2008,10,20,00,00,AAXX 20004 85586 11956 70804 10132 20101 40187 52013 60001 70511 80001 333 10189 56006 87075=
85586,2008,10,20,12,00,AAXX 20124 85586 12960 70000 10096 20097 40194 52008 60004 80001 333 20076 30/// 50160 55094 56006 87073=
85586,2008,10,20,15,00,AAXX 20154 85586 41957 72806 10166 20130 40197 51005 70522 80002 333 56006 87073=
85586,2008,10,20,18,00,AAXX 20184 85586 11330 62708 10158 20127 40199 54001 60001 70522 82602 333 56606 82707 86073=
85586,2008,10,20,21,00,AAXX 20214 85586 41557 62808 10156 20116 40197 54002 70522 81502 333 56606 81620 86073=
85586,2008,10,21,00,00,AAXX 21004 85586 11557 43104 10122 20109 40213 52015 60001 70522 81502 333 10168 56606 81626 83073=
85586,2008,10,21,12,00,AAXX 21124 85586 12960 11204 10112 20089 40217 52007 60004 80001 333 56006 81075=
85586,2008,10,21,15,00,AAXX 21154 85586 42960 02606 10178 20104 40205 57010=
85586,2008,10,21,18,00,AAXX 21184 85586 12560 12416 10186 20113 40182 57023 60001 81820 333 56600 81820=
85586,2008,10,21,21,00,AAXX 21214 85586 42560 12416 10180 20098 40167 57015 81500 333 56600 81620=
85586,2008,10,22,00,00,AAXX 22004 85586 12960 00000 10144 20108 40176 52010 60001 333 10196=
85586,2008,10,22,12,00,AAXX 22124 85586 12960 02106 10120 20049 40177 52018 60004 333 20042 30/// 50190 55119=
85586,2008,10,22,15,00,AAXX 22154 85586 42960 02512 10155 20061 40180 52004=
85586,2008,10,22,18,00,AAXX 22184 85586 12960 02412 10150 20086 40180 54001 60001=
85586,2008,10,23,00,00,AAXX 23004 85586 12960 00000 10113 20089 40183 53009 60001 333 10160=
85586,2008,10,23,12,00,AAXX 23124 85586 12960 00000 10103 20084 40188 52013 60004 333 20038 30/// 50230 55114=
85586,2008,10,23,15,00,AAXX 23154 85586 42960 02705 10156 20102 40184 54002=
85586,2008,10,23,18,00,AAXX 23184 85586 12960 02612 10159 20104 40174 57010 60001=
85586,2008,10,23,21,00,AAXX 23214 85586 42960 03203 10165 20104 40167 57007=
85586,2008,10,24,00,00,AAXX 24004 85586 12960 00000 10126 20096 40158 57010 60001 333 10170=
85586,2008,10,24,12,00,AAXX 24124 85586 11220 83604 10117 20100 40182 52020 60004 7102/ 886// 333 20069 30/// 20150 55119 56799 88706=
85586,2008,10,24,15,00,AAXX 24154 85586 41440 83108 10130 20108 40203 52020 70522 885// 333 56799 88612=
85586,2008,10,24,18,00,AAXX 24184 85586 11456 82910 10146 20107 40200 58002 60001 70522 885// 333 56799 88615=
85586,2008,10,24,21,00,AAXX 24214 85586 41556 82606 10136 20109 40184 57016 70522 885// 333 56799 88620=
85586,2008,10,25,00,00,AAXX 25004 85586 11220 82704 10121 20102 40183 55001 60001 71022 886// 333 10156 56799 88706=
85586,2008,10,25,12,00,AAXX 25124 85586 11458 80000 10129 20102 40214 52013 60004 7052/ 888// 333 20106 30/// 56799 81815 88625=
85586,2008,10,25,15,00,AAXX 25154 85586 42460 82807 10151 20106 40228 52015 888// 333 56799 82815 88625=
85586,2008,10,25,18,00,AAXX 25184 85586 12460 72305 10153 20110 40227 50001 60001 87800 333 56700 81815 87025=
85586,2008,10,25,21,00,AAXX 25214 85586 42560 82505 10139 20093 40224 58003 8163/ 333 56769 81625 88390=
85586,2008,10,26,12,00,AAXX 26124 85586 12960 00000 10131 20117 40181 53004 60004 333 20064 30/// 50190 55000=
85586,2008,10,26,18,00,AAXX 26184 85586 12960 52615 10172 20114 40162 57011 60001 80001 333 56006 85075=
85586,2008,10,26,21,00,AAXX 26214 85586 42960 52606 10160 20110 40152 57010 85030 333 56060 85368=
85586,2008,10,27,00,00,AAXX 27004 85586 12960 60204 10124 20111 40158 52005 60001 86030 333 10188 56060 86368=
85586,2008,10,27,12,00,AAXX 27124 85586 11557 83404 10126 20100 40214 52023 60004 7052/ 885// 333 20120 30/// 50170 55092 56799 88623=
85586,2008,10,27,15,00,AAXX 27154 85586 41557 83104 10136 20098 40201 52008 70522 885// 333 56799 88623=
85586,2008,10,27,18,00,AAXX 27184 85586 12560 83308 10150 20098 40209 52008 60001 885// 333 56799 88630=
85586,2008,10,27,21,00,AAXX 27214 85586 42560 82806 10148 20093 40204 58005 885// 333 56799 88630=
85586,2008,10,28,00,00,AAXX 28004 85586 12560 82704 10130 20095 40211 52006 60001 81531 333 10156 56766 81626 85365=
85586,2008,10,28,12,00,AAXX 28124 85586 12560 70904 10132 20095 40224 52017 60004 83530 333 20090 30/// 50140 55005 56060 83623 85363=
85586,2008,10,28,15,00,AAXX 28154 85586 42560 32806 10168 20094 40229 52006 83800 333 56600 81820 83630=
85586,2008,10,28,18,00,AAXX 28184 85586 12560 12712 10168 20106 40220 57009 60001 81100 333 56600 81623=
85586,2008,10,28,21,00,AAXX 28214 85586 42560 12510 10163 20107 40206 57015 81100 333 56600 81825=
85586,2008,10,29,12,00,AAXX 29124 85586 12960 02404 10145 20108 40179 54000 333 20060 30/// 50950=
85586,2008,10,29,15,00,AAXX 29154 85586 42960 02416 10167 20105 40172 57006=
85586,2008,10,29,18,00,AAXX 29184 85586 12960 02507 10165 20112 40165 57007 60011=
85586,2008,10,29,21,00,AAXX 29214 85586 42960 02708 10170 20114 40155 57010=
85586,2008,10,30,00,00,AAXX 30004 85586 12960 00000 10126 20108 40156 54000 60001 333 10173=
85586,2008,10,30,12,00,AAXX 30124 85586 11340 83605 10126 20110 40193 52020 60004 7102/ 886// 333 20111 30/// 55/// 56799 88709=
85586,2008,10,30,15,00,AAXX 30154 85586 41340 82906 10135 20111 40204 51012 70522 886// 333 56799 88708=
85586,2008,10,30,18,00,AAXX 30184 85586 11456 82907 10151 20112 40200 58004 70522 885// 333 56799 88615=
85586,2008,10,30,21,00,AAXX 30214 85586 41456 82507 10133 20098 40201 55000 70522 888// 333 56799 82815 88620=
85586,2008,10,31,00,00,AAXX 31004 85586 11456 82604 10124 20096 40198 58003 60001 70522 885// 333 10153 56799 88615=
85586,2008,10,31,12,00,AAXX 31124 85586 11220 83405 10112 20095 40200 52018 60001 7102/ 886// 333 20106 30/// 55/// 56799 88706=
85586,2008,10,31,15,00,AAXX 31154 85586 41440 82906 10129 20097 40205 51005 70522 885// 333 56799 88612=
85586,2008,11,01,00,00,AAXX 01004 85586 11340 80000 10129 20105 40178 57009 60001 70522 886// 333 10155 86799 88709=
85586,2008,11,01,12,00,AAXX 01124 85586 11430 83104 10122 20117 40211 52008 60004 7105/ 885// 333 20114 31/// 56799 70000 88610=
85586,2008,11,01,15,00,AAXX 01154 85586 41440 83104 10136 20114 40201 54001 70522 885// 333 56799 88615=
85586,2008,11,01,18,00,AAXX 01184 85586 12560 63108 10162 20117 40197 57004 60001 86500 333 56600 86620=
85586,2008,11,01,21,00,AAXX 01214 85586 41456 83104 10150 20117 40191 56006 70522 885// 333 56799 88613=
85586,2008,11,02,12,00,AAXX 02124 85586 11320 80000 10116 20107 40176 54000 60004 7102/ 886// 333 20106 30/// 56099 88707=
85586,2008,11,02,15,00,AAXX 02154 85586 41440 82804 10134 20110 40179 54003 70522 885// 333 56699 88610=
85586,2008,11,02,18,00,AAXX 02184 85586 11450 82706 10148 20112 40176 54003 60001 70522 885// 333 56699 88615=
85586,2008,11,02,21,00,AAXX 02214 85586 41450 82704 10134 20122 40174 54002 70522 885// 333 56699 88610=
85586,2008,11,03,12,00,AAXX 03124 85586 11450 83004 10126 20110 40208 52013 60001 70522 885// 333 20104 30/// 56099 88615=
85586,2008,11,03,15,00,AAXX 03154 85586 41458 73106 10150 20109 40226 52018 70522 87500 333 56700 87615=
85586,2008,11,03,18,00,AAXX 03184 85586 12560 13106 10166 20110 40221 58004 60001 81500 333 56600 81620=
85586,2008,11,04,12,00,AAXX 04124 85586 11240 30000 10129 20111 40179 54000 60004 7050/ 83600 333 20070 30/// 50220 55050 56600 83704=
85586,2008,11,04,15,00,AAXX 04154 85586 41158 13010 10158 20118 40183 53005 70500 81600 333 56600 81705=
85586,2008,11,04,18,00,AAXX 04184 85586 11359 13107 10164 20123 40184 54001 60001 70511 81600 333 56600 81707=
85586,2008,11,04,21,00,AAXX 04214 85586 42360 33406 10161 20125 40177 57007 83600 333 56600 83708=
85586,2008,11,05,00,00,AAXX 05004 85586 12960 00000 10131 20111 40172 57006 333 10168=
85586,2008,11,05,15,00,AAXX 05154 85586 42460 22707 10164 20108 40190 51005 82500 333 56700 82615=
85586,2008,11,05,18,00,AAXX 05184 85586 11460 22507 10166 20104 40202 52013 60001 82100 333 56700 82815=
85586,2008,11,06,12,00,AAXX 06124 85586 11456 80000 10114 20095 40178 52018 60004 7052/ 885// 333 20056 30/// 50150 55087 56799 88612=
85586,2008,11,06,15,00,AAXX 06154 85586 41458 83205 10143 20103 40181 51003 70522 888// 333 56799 82815 88620=
85586,2008,11,06,18,00,AAXX 06184 85586 12460 62910 10163 20111 40171 58009 86800 333 56700 81815 86625=
85586,2008,11,06,21,00,AAXX 06214 85586 42560 12807 10162 20107 40156 57015 81100 333 56700 81820=
85586,2008,11,07,00,00,AAXX 07004 85586 11356 82705 10132 20117 40183 52026 69901 75011 886// 333 10168 56799 88708=
85586,2008,11,07,12,00,AAXX 07124 85586 11457 80000 10138 20117 40193 52008 60004 7052/ 885// 333 10120 30/// 50160 55061 56099 88618=
85586,2008,11,07,15,00,AAXX 07154 85586 41457 82505 10150 20121 40201 52008 70522 885// 333 56699 88617=
85586,2008,11,07,18,00,AAXX 07184 85586 12560 72507 10160 20124 40197 58004 60001 87500 333 56600 84620 87630=
85586,2008,11,07,21,00,AAXX 07214 85586 42560 32607 10174 20122 40194 56002 81501 333 81623 83075=
85586,2008,11,08,00,00,AAXX 08004 85586 12560 30000 10142 20119 40208 52013 60001 83500 333 10178 56600 83620=
85586,2008,11,08,12,00,AAXX 08124 85586 11457 22104 10134 20118 40213 52007 60004 7051/ 82500 333 20076 30/// 50150 55033 56500 82615=
85586,2008,11,08,15,00,AAXX 08154 85586 42560 12409 10176 20115 40212 54001 81500 333 56600 81625=
85586,2008,11,08,18,00,AAXX 08184 85586 12960 02415 10190 20097 40212 54000=
85586,2008,11,08,21,00,AAXX 08214 85586 42960 02412 10177 20108 40199 57013=
85586,2008,11,09,00,00,AAXX 09004 85586 12960 00000 10143 20104 40198 54002 60001 333 10196=
85586,2008,11,09,12,00,AAXX 09124 85586 12960 00000 10132 20097 40189 51003 333 20054 30/// 50280 55124=
85586,2008,11,09,15,00,AAXX 09154 85586 42960 02508 10172 20118 40193 52005=
85586,2008,11,09,18,00,AAXX 09184 85586 12960 02412 10173 20124 40188 57005 60001=
85586,2008,11,09,21,00,AAXX 09214 85586 42960 02410 10175 20122 40176 52013=
85586,2008,11,10,00,00,AAXX 10004 85586 12960 00000 10137 20110 40182 55006 333 10182=
85586,2008,11,10,12,00,AAXX 10124 85586 11110 70000 10120 20114 40189 52008 60004 7102/ 87600 333 20068 30/// 50130 55121 56600 87702=
85586,2008,11,10,15,00,AAXX 10154 85586 41109 22506 10153 20132 40180 57009 74141 82600 333 56600 82703=
85586,2008,11,10,18,00,AAXX 10184 85586 12960 02411 10178 20123 40168 57011 60001=
85586,2008,11,10,21,00,AAXX 10214 85586 42960 02604 10187 20132 40149 57019=
85586,2008,11,11,00,00,AAXX 11004 85586 12960 00000 10145 20115 40159 57009 333 10191=
85586,2008,11,11,12,00,AAXX 11124 85586 11256 10000 10144 20112 40157 51006 60004 7400/ 81600 333 20072 30/// 50170 55115 56700 81704=
85586,2008,11,11,15,00,AAXX 11154 85586 42960 02309 10183 20116 58003=
85586,2008,11,11,18,00,AAXX 11184 85586 12960 02310 10174 20118 40163 53006 60001=
85586,2008,11,11,21,00,AAXX 11214 85586 42960 02509 10165 20118 58008=
85586,2008,11,12,00,00,AAXX 12004 85586 11356 73204 10136 20112 40162 51006 60001 70500 87600 333 10185 56700 87709=
85586,2008,11,12,12,00,AAXX 12124 85586 11110 80000 10117 20112 40141 57004 60004 7104/ 886// 333 20109 30/// 50180 55117 56699 88702=
85586,2008,11,12,15,00,AAXX 12154 85586 41240 82604 10135 20123 40139 54002 71022 886// 333 56699 88704=
85586,2008,11,12,18,00,AAXX 12184 85586 11240 82507 10142 20124 40136 57003 60001 70522 886// 333 56699 88706=
85586,2008,11,12,21,00,AAXX 12214 85586 41240 82705 10133 20117 40135 54001 70522 886// 333 56699 88706=
85586,2008,11,13,00,00,AAXX 13004 85586 11350 80000 10126 20117 40138 53003 60001 71022 886// 333 10143 56699 88707=
85586,2008,11,13,12,00,AAXX 13124 85586 11340 80000 10120 20113 40132 54000 60004 7105/ 886// 333 20102 31/// 50120 55000 56099 70000 88708=
85586,2008,11,13,15,00,AAXX 13154 85586 41450 82705 10136 20111 40137 52005 70522 885// 333 56699 88615=
85586,2008,11,13,18,00,AAXX 13184 85586 11450 83106 10144 20118 40147 52010 60001 70522 885// 333 56699 88618=
85586,2008,11,13,21,00,AAXX 13214 85586 41457 83104 10144 20118 40143 58004 70522 885// 333 56699 81617 88626=
85586,2008,11,14,00,00,AAXX 14004 85586 12560 80000 10136 20112 40148 53005 60001 885// 333 10150 56099 88630=
85586,2008,11,14,12,00,AAXX 14124 85586 11330 80000 10132 20120 40159 52013 60004 7052/ 885// 333 20132 30/// 50130 55000 56099 85708 88612=
85586,2008,11,14,15,00,AAXX 14154 85586 42560 83105 10170 20105 40169 52011 885// 333 56699 88626=
85586,2008,11,14,18,00,AAXX 14184 85586 12460 82204 10162 20102 40178 52007 885// 333 56699 82615 88626=
85586,2008,11,14,21,00,AAXX 14214 85586 42560 82405 10174 20103 40165 57012 885// 333 56699 88630=
85586,2008,11,15,00,00,AAXX 15004 85586 12560 80000 10154 20103 40168 55003 885// 333 10183 56099 88630=
85586,2008,11,15,12,00,AAXX 15124 85586 12560 80000 10147 20130 40200 52017 60004 885// 333 20141 30/// 50200 55003 56699 82625 86640=
85586,2008,11,15,15,00,AAXX 15154 85586 42560 62605 10173 20132 40206 52007 81530 333 56660 81625 85363=
85586,2008,11,15,18,00,AAXX 15184 85586 12560 22608 10185 20132 40199 57007 60001 81501 333 56606 81625=
85586,2008,11,15,21,00,AAXX 15214 85586 42960 02307 10182 20135 40187 57012=
85586,2008,11,16,00,00,AAXX 16004 85586 12960 00000 10158 20128 40182 57005 60001 333 10193=
85586,2008,11,16,12,00,AAXX 16124 85586 12960 00000 10158 20129 40168 57010 60004 333 20078 30/// 50240 55081=
85586,2008,11,16,15,00,AAXX 16154 85586 42960 02806 10176 20127 40175 52007=
85586,2008,11,16,18,00,AAXX 16184 85586 12960 02407 10188 20124 40174 54001 60001=
85586,2008,11,16,21,00,AAXX 16214 85586 42960 02705 10181 20121 40170 57004=
85586,2008,11,17,00,00,AAXX 17004 85586 12360 40000 10151 20129 40168 54001 60001 84600 333 10192 56600 84707=
85586,2008,11,17,12,00,AAXX 17124 85586 11320 70000 10144 20131 40164 52012 60004 7104/ 87600 333 20109 30/// 50180 55123 56700 87707=
85586,2008,11,17,15,00,AAXX 17154 85586 41456 72806 10169 20123 40169 51006 70542 87600 333 56700 87710=
85586,2008,11,17,18,00,AAXX 17184 85586 11456 62807 10181 20125 40171 52002 60001 70522 86700 333 56799 86710=
85586,2008,11,17,21,00,AAXX 17214 85586 41458 52905 10169 20124 40168 58003 70522 85500 333 56700 85612=
85586,2008,11,18,00,00,AAXX 18004 85586 12460 10000 10143 20116 40168 55001 60001 81500 333 10183 56700 81614=
85586,2008,11,18,12,00,AAXX 18124 85586 11356 82804 10139 20108 40167 54000 60001 7052/ 886// 333 20119 30/// 50170 55087 56799 88709=
85586,2008,11,18,15,00,AAXX 18154 85586 41458 42807 10164 20109 40166 54001 70522 84600 333 56700 84710=
85586,2008,11,18,18,00,AAXX 18184 85586 12460 22506 10173 20113 40166 54000 60001 82500 333 56700 82612=
85586,2008,11,18,21,00,AAXX 18214 85586 41358 82806 10156 20122 40156 56010 70522 886// 333 56799 88709=
85586,2008,11,19,00,00,AAXX 19004 85586 11458 83304 10145 20120 40164 53007 60001 70522 885// 333 10175 56799 88612=
85586,2008,11,19,12,00,AAXX 19124 85586 11440 80000 10138 20120 40161 54002 7052/ 885// 333 20129 30/// 50150 55052 56099 88612=
85586,2008,11,19,15,00,AAXX 19154 85586 41357 52507 10166 20127 40163 54003 70522 85500 333 56600 82707 83615=
85586,2008,11,19,18,00,AAXX 19184 85586 11457 72807 10154 20119 40173 52011 60001 70522 87500 333 56600 87613=
85586,2008,11,19,21,00,AAXX 19214 85586 41457 72707 10142 20108 40176 51003 70522 87500 333 56600 87617=
85586,2008,11,20,00,00,AAXX 20004 85586 12460 80000 10130 20108 40174 54002 60001 885// 333 10170 56099 88615=
85586,2008,11,20,12,00,AAXX 20124 85586 11458 73304 10126 20104 40176 54002 60004 7052/ 87500 333 20110 30/// 50160 55030 56000 87615=
85586,2008,11,20,15,00,AAXX 20154 85586 42560 12408 10150 20111 40174 54002 81500 333 56600 81620=
85586,2008,11,20,18,00,AAXX 20184 85586 12560 12410 10158 20112 40174 54000 60001 81500 333 56600 81620=
85586,2008,11,20,21,00,AAXX 20214 85586 42560 72608 10150 20111 40174 54000 87500 333 56600 87620=
85586,2008,11,21,00,00,AAXX 21004 85586 12460 60000 10138 20110 40178 52004 86500 333 10181 56600 86517=
85586,2008,11,21,12,00,AAXX 21124 85586 12460 61303 10143 20114 40180 53004 60004 86500 333 20085 30/// 50230 55077 56600 86613=
85586,2008,11,21,15,00,AAXX 21154 85586 42960 12506 10169 20107 40182 51003 80001 333 56006 81073=
85586,2008,11,21,18,00,AAXX 21184 85586 12960 12410 10177 20116 40176 57006 80001 333 56007 81073=
85586,2008,11,22,00,00,AAXX 22004 85586 12960 02407 10150 20103 40174 52009 333 10186=
85586,2008,11,22,12,00,AAXX 22124 85586 12960 00000 10147 20123 40170 53003 60004 333 20072 30/// 50290 55116=
85586,2008,11,22,15,00,AAXX 22154 85586 42960 02410 10162 20121 40178 52009=
85586,2008,11,22,18,00,AAXX 22184 85586 12960 02414 10173 20088 40184 52006 60001=
85586,2008,11,22,21,00,AAXX 22214 85586 42960 02411 10174 20088 40182 54002=
85586,2008,11,23,00,00,AAXX 23004 85586 12960 02206 10136 20102 40191 52008 60001 333 10178=
85586,2008,11,23,12,00,AAXX 23124 85586 12960 01206 10161 20061 40182 52014 60004 333 20052 30/// 50170 55127=
85586,2008,11,23,15,00,AAXX 23154 85586 42960 02311 10176 20107 40176 58006=
85586,2008,11,23,18,00,AAXX 23184 85586 12960 02311 10185 20117 40173 56003 60001=
85586,2008,11,23,21,00,AAXX 23214 85586 42960 02312 10179 20117 40161 56012=
85586,2008,11,24,00,00,AAXX 24004 85586 12960 02104 10151 20103 40172 53010 60001 333 10198=
85586,2008,11,24,12,00,AAXX 24124 85586 12960 00000 10153 20105 40161 54000 60004 333 20076 30/// 50180 55128=
85586,2008,11,24,15,00,AAXX 24154 85586 42960 02407 10176 20110 40155 58005=
85586,2008,11,24,18,00,AAXX 24184 85586 12960 02511 10183 20116 40147 57007 60001=
85586,2008,11,24,21,00,AAXX 24214 85586 42960 02409 10174 20104 40140 52007=
85586,2008,11,25,00,00,AAXX 25004 85586 12960 00305 10141 20103 40146 53005 60001 333 10185=
85586,2008,11,25,12,00,AAXX 25124 85586 11440 83104 10136 20122 40151 52012 60004 7052/ 885// 333 20120 30/// 50180 55127 56099 88613=
85586,2008,11,25,15,00,AAXX 25154 85586 41450 83104 10156 20128 40162 52012 70522 885// 333 56699 88615=
85586,2008,11,25,18,00,AAXX 25184 85586 12460 52807 10180 20131 40158 58004 60001 85500 333 56600 85618=
85586,2008,11,25,21,00,AAXX 25214 85586 41457 82905 10158 20136 40163 53005 70522 885// 333 56699 88615=
85586,2008,11,26,00,00,AAXX 26004 85586 11330 82205 10140 20131 40168 51004 60001 75022 886// 333 10183 56599 88708=
85586,2008,11,26,12,00,AAXX 26124 85586 11320 82804 10122 20116 40165 53007 69914 7505/ 886// 333 20114 31/// 50120 55015 56699 70000 88707=
85586,2008,11,26,15,00,AAXX 26154 85586 41430 83205 10141 20125 40185 52017 71055 885// 333 56699 88610=
85586,2008,11,26,18,00,AAXX 26184 85586 11458 72807 10190 20123 40183 54001 69901 70522 85501 333 56606 81615 85620=
85586,2008,11,26,21,00,AAXX 26214 85586 42460 72806 10153 20127 40180 57003 81500 333 56600 81615 87625=
85586,2008,11,27,00,00,AAXX 27004 85586 12460 80000 10147 20127 40189 52009 60001 885// 333 10191 56699 88615=
85586,2008,11,27,12,00,AAXX 27124 85586 12560 70000 10155 20141 40188 53011 60004 87500 333 20146 30/// 50210 55025 56600 87625=
85586,2008,11,27,15,00,AAXX 27154 85586 42460 62706 10184 20141 40192 52004 82500 333 56600 82617 85628=
85586,2008,11,27,18,00,AAXX 27184 85586 12460 52709 10196 20135 40204 52012 60001 81500 333 56606 81617 85075=
85586,2008,11,27,21,00,AAXX 27214 85586 42960 52607 10187 20125 40192 52012 80001 333 56006 85075=
85586,2008,11,28,00,00,AAXX 28004 85586 12960 52603 10161 20139 40196 52003 60001 80001 333 10203 56006 85075=
85586,2008,11,28,12,00,AAXX 28124 85586 12560 30000 10166 20139 40186 53006 60004 83500 333 20110 30/// 50250 55079 56600 83620=
85586,2008,11,28,15,00,AAXX 28154 85586 42960 02807 10189 20138 40190 52004=
85586,2008,11,28,18,00,AAXX 28184 85586 12460 12410 10200 20152 40198 52008 60001 81500 333 56600 81617=
85586,2008,11,28,21,00,AAXX 28214 85586 42560 22508 10196 20137 40199 54001 81501 333 56606 81620=
85586,2008,11,29,00,00,AAXX 29004 85586 12960 12603 10169 20153 40206 52007 60001 80001 333 10202 56006 81073=
85586,2008,11,29,12,00,AAXX 29124 85586 12960 00000 10181 20132 40198 54001 60004 333 20122 30/// 50190 55120=
85586,2008,11,29,15,00,AAXX 29154 85586 42960 02509 10209 20147 40196 58004=
85586,2008,11,29,18,00,AAXX 29184 85586 12960 02313 10204 20144 40179 57017 60001=
85586,2008,11,29,21,00,AAXX 29214 85586 42960 02312 10193 20142 40162 57018=
85586,2008,11,30,15,00,AAXX 30154 85586 42960 02806 10196 20116 40164 53007=
85586,2008,11,30,18,00,AAXX 30184 85586 12260 12508 10192 20128 40168 51004 60001 81600 333 56700 81704=
85586,2008,11,30,21,00,AAXX 30214 85586 42360 32807 10183 20129 40171 53003 83600 333 56700 83708=
85586,2008,12,01,00,00,AAXX 01004 85586 11358 82804 10156 20125 53003 60001 886// 333 10198 56799 88708=
85586,2008,12,01,12,00,AAXX 01124 85586 11456 83104 10146 20116 40181 54002 7052/ 885// 333 20136 30/// 50190 55124 56099 88617=
85586,2008,12,01,15,00,AAXX 01154 85586 41457 82907 10162 20123 40196 52015 70522 885// 333 56699 88617=
85586,2008,12,01,18,00,AAXX 01184 85586 11457 72808 10180 20133 40196 54001 60001 70522 87500 333 56600 82615 87623=
85586,2008,12,01,21,00,AAXX 01214 85586 41557 52807 10180 20133 40188 57008 70522 84501 333 56606 84623=
85586,2008,12,02,00,00,AAXX 02004 85586 11557 72704 10160 20134 40193 53004 60001 70522 87500 333 10186 56600 87620=
85586,2008,12,02,12,00,AAXX 02124 85586 11557 82405 10158 20131 40188 54000 60004 7052/ 885// 333 20148 30/// 50170 55026 56699 88620=
85586,2008,12,02,15,00,AAXX 02154 85586 41456 82705 10164 20128 40203 52014 70522 885// 333 56699 88618=
85586,2008,12,02,18,00,AAXX 02184 85586 11557 82506 10178 20131 40212 52010 60001 70522 885// 333 56699 88620=
85586,2008,12,02,21,00,AAXX 02214 85586 41557 82804 10170 20127 40205 58007 70522 885// 333 56699 88620=
85586,2008,12,03,00,00,AAXX 03004 85586 11457 80000 10160 20138 40200 56006 60001 70522 885// 333 10186 56699 81615 88623=
85586,2008,12,03,12,00,AAXX 03124 85586 12560 80000 10162 20142 40198 54001 60004 885// 333 20156 30/// 50280 55000 56699 88620=
85586,2008,12,03,15,00,AAXX 03154 85586 42560 82605 10188 20129 40197 54000 885// 333 56699 88625=
85586,2008,12,03,18,00,AAXX 03184 85586 12960 62608 10200 20100 40190 57007 80001 333 56006 86073=
85586,2008,12,03,21,00,AAXX 03214 85586 42960 62506 10187 20132 40182 57008 83031 333 56066 83358 85073=
85586,2008,12,04,00,00,AAXX 04004 85586 12960 32504 10163 20136 40171 57005 80001 333 10203 56006 83073=
85586,2008,12,04,12,00,AAXX 04124 85586 11357 40000 10155 20139 40160 54000 60004 7050/ 84600 333 10109 30/// 50220 55032 56600 84708=
85586,2008,12,04,15,00,AAXX 04154 85586 42460 12605 10187 20142 40156 54001 81600 333 56600 81612=
85586,2008,12,04,18,00,AAXX 04184 85586 32960 02607 10198 20150 40147 57011 60001=
85586,2008,12,04,21,00,AAXX 04214 85586 42960 12706 10202 20147 40142 57005 80001 333 56006 81075=
85586,2008,12,05,00,00,AAXX 05004 85586 12960 02705 10163 20139 40150 52006 60001 333 10202=
85586,2008,12,05,12,00,AAXX 05124 85586 11440 82504 10162 20126 40170 52014 60004 7052/ 885// 333 20144 30/// 50190 55117 56799 88612=
85586,2008,12,05,15,00,AAXX 05154 85586 41558 82406 10184 20130 40179 51007 70522 885// 333 56799 88620=
85586,2008,12,05,18,00,AAXX 05184 85586 12560 52409 10201 20119 40179 54001 85500 333 56700 85625=
85586,2008,12,05,21,00,AAXX 05214 85586 42460 12508 10193 20122 40174 58006 81100 333 56700 81815=
85586,2008,12,06,00,00,AAXX 06004 85586 12560 32304 10164 20124 40180 53006 83500 333 10211 56700 83620=
85586,2008,12,06,12,00,AAXX 06124 85586 11456 82704 10161 20125 40188 54000 60004 7052/ 885// 333 20134 30/// 50190 55066 56799 88612=
85586,2008,12,06,15,00,AAXX 06154 85586 41456 82404 10169 20132 40196 51008 70522 885// 333 56799 88612=
85586,2008,12,06,18,00,AAXX 06184 85586 11460 82606 10193 20124 40193 58004 885// 333 56799 81612 88617=
85586,2008,12,06,21,00,AAXX 06214 85586 42460 82407 10189 20127 40186 57007 885// 333 56799 81815 88625=
85586,2008,12,07,00,00,AAXX 07004 85586 11558 82340 10168 20122 40179 57007 60001 70522 885// 333 10198 56799 88625=
85586,2008,12,07,12,00,AAXX 07124 85586 11558 73104 10164 20119 40173 54002 60004 7052/ 87500 333 10142 30/// 50180 55000 56000 87623=
85586,2008,12,07,15,00,AAXX 07154 85586 41558 72505 10196 20124 40172 54000 70522 87500 333 56600 87626=
85586,2008,12,07,18,00,AAXX 07184 85586 12560 12709 10206 20128 40177 51005 60001 81500 333 56600 81626=
85586,2008,12,07,21,00,AAXX 07214 85586 42960 02408 10202 20124 40166 57011=
85586,2008,12,08,00,00,AAXX 08004 85586 12960 02410 10172 20126 40169 54002 333 10210=
85586,2008,12,08,12,00,AAXX 08124 85586 12860 30804 10154 20120 40185 53005 60004 83030 333 20084 30/// 50230 55081 56060 83358=
85586,2008,12,08,15,00,AAXX 08154 85586 42560 12508 10198 20133 40186 54003 81500 333 56600 81623=
85586,2008,12,08,18,00,AAXX 08184 85586 12560 12410 10204 20146 40185 54001 60001 81500 333 56600 81623=
85586,2008,12,08,21,00,AAXX 08214 85586 42560 12411 10198 20127 40184 54001 81500 333 56600 81623=
85586,2008,12,09,00,00,AAXX 09004 85586 12960 02406 10164 20143 40185 54000 60001 333 10208=
85586,2008,12,09,12,00,AAXX 09124 85586 12960 00000 10165 20136 40179 53011 60004 333 20104 30/// 50330 55119=
85586,2008,12,09,15,00,AAXX 09154 85586 42960 02408 10199 20135 40180 54002=
85586,2008,12,09,18,00,AAXX 09184 85586 12960 02413 10201 20147 40175 57005 60001=
85586,2008,12,09,21,00,AAXX 09214 85586 42960 02511 10191 20149 40166 57010=
85586,2008,12,10,00,00,AAXX 10004 85586 12340 80000 10160 20150 40165 54001 70522 886// 333 10204 56699 88708=
85586,2008,12,10,12,00,AAXX 10124 85586 11103 80000 10135 20130 40130 54001 60004 7444/ 886// 333 20115 30/// 50240 55116 56699 88702=
85586,2008,12,10,15,00,AAXX 10154 85586 41450 82805 10162 20144 40136 52007 70544 886// 333 56099 88705=
85586,2008,12,10,18,00,AAXX 10184 85586 11460 32807 10193 20149 40131 57005 60001 70142 83500 333 56600 83612=
85586,2008,12,10,21,00,AAXX 10214 85586 42460 22810 10195 20151 40116 57015 82600 333 56600 82708=
85586,2008,12,11,00,00,AAXX 11004 85586 12360 52804 10165 20143 40113 57004 60001 85600 333 10202 56700 85709=
85586,2008,12,11,12,00,AAXX 11124 85586 11456 83104 10156 20141 40105 51008 60004 7052/ 885// 333 20134 30/// 50180 55063 56799 88612=
85586,2008,12,11,15,00,AAXX 11154 85586 41558 82907 10171 20124 40130 52025 70522 885// 333 56799 88618=
85586,2008,12,11,18,00,AAXX 11184 85586 12560 53008 10201 20133 40138 51008 60001 82501 333 56706 82525 85075=
85586,2008,12,11,21,00,AAXX 11214 85586 42960 53007 10203 20116 40136 58002 80001 333 56006 85075=
85586,2008,12,12,00,00,AAXX 12004 85586 12960 50000 10174 20130 40138 55001 80001 333 10214 56006 85075=
85586,2008,12,12,12,00,AAXX 12124 85586 11556 40000 10178 20120 40163 52018 60004 7052/ 84500 333 20134 30/// 50200 55047 56700 84620=
85586,2008,12,12,15,00,AAXX 12154 85586 42560 12808 10216 20126 40159 58002 81500 333 56700 81625=
85586,2008,12,12,18,00,AAXX 12184 85586 12960 02809 10217 20143 40161 53002 60001=
85586,2008,12,12,21,00,AAXX 12214 85586 42460 22608 10211 20145 40157 58004 82100 333 56700 82815=
85586,2008,12,13,00,00,AAXX 13004 85586 11958 02404 10176 20136 40161 53002 70500 333 10219=
85586,2008,12,13,12,00,AAXX 13124 85586 11456 82404 10168 20140 40182 53012 60004 7052/ 885// 333 20126 30/// 50240 55107 56699 88618=
85586,2008,12,13,15,00,AAXX 13154 85586 41557 82605 10183 20142 40187 52004 70522 885// 333 56699 88620=
85586,2008,12,13,18,00,AAXX 13184 85586 11558 22509 10204 20144 40178 57007 60001 82500 333 56600 82623=
85586,2008,12,13,21,00,AAXX 13214 85586 42560 32408 10200 20143 40167 57011 83500 333 56600 83623=
85586,2008,12,14,00,00,AAXX 14004 85586 11456 82407 10172 20149 40166 54000 60001 885// 333 10205 56699 88615=
85586,2008,12,14,12,00,AAXX 14124 85586 11440 80000 10160 20150 40153 56002 60004 7102/ 886// 333 20150 30/// 50210 55063 56099 88710=
85586,2008,12,14,15,00,AAXX 14154 85586 41440 82904 10170 20154 40154 54001 70522 886// 333 56699 88712=
85586,2008,12,14,18,00,AAXX 14184 85586 11450 82607 10182 20156 40164 52010 60001 70522 885// 333 56699 88613=
85586,2008,12,14,21,00,AAXX 14214 85586 41457 82505 10176 20145 40162 54002 70522 885// 333 56699 88617=
85586,2008,12,15,00,00,AAXX 15004 85586 11450 82405 10160 20142 40165 53003 60001 70522 885// 333 10188 56699 88615=
85586,2008,12,15,12,00,AAXX 15124 85586 12560 80000 10152 20136 40174 53010 60004 885// 333 20148 30/// 50230 55000 56699 88618=
85586,2008,12,15,15,00,AAXX 15154 85586 42560 82605 10169 20122 40181 52008 885// 333 56699 88630=
85586,2008,12,15,18,00,AAXX 15184 85586 12560 72608 10191 20131 40179 54002 60001 87500 333 56600 87627=
85586,2008,12,15,21,00,AAXX 15214 85586 42560 62609 10187 20126 40171 57008 86500 333 56600 86627=
85586,2008,12,16,00,00,AAXX 16004 85586 12560 12406 10162 20120 40171 54000 60001 81500 333 10198 56600 81630=
85586,2008,12,16,12,00,AAXX 16124 85586 12560 50703 10161 20134 40176 52006 60004 85500 333 20109 30/// 50280 55039 56600 85620=
85586,2008,12,16,15,00,AAXX 16154 85586 42560 22706 10201 20131 40184 52009 82500 333 56600 82627=
85586,2008,12,16,18,00,AAXX 16184 85586 12560 22608 10205 20125 40173 57010 82500 333 56600 82627=
85586,2008,12,16,21,00,AAXX 16214 85586 42560 52507 10193 20146 40176 54001 83509 333 56606 83625=
85586,2008,12,17,00,00,AAXX 17004 85586 12560 42704 10164 20120 40169 57007 81501 333 10211 56606 81620 83075=
85586,2008,12,17,12,00,AAXX 17124 85586 12960 00205 10189 20151 40176 52018 60004 333 20124 30/// 50210 55096=
85586,2008,12,17,15,00,AAXX 17154 85586 42960 02807 10196 20123 40184 53008=
85586,2008,12,17,18,00,AAXX 17184 85586 12460 12607 10208 20132 40182 54001 60001 81100 333 56700 81815=
85586,2008,12,17,21,00,AAXX 17214 85586 42560 12508 10195 20139 40175 58007 81100 333 56700 81820=
85586,2008,12,18,00,00,AAXX 18004 85586 12960 03204 10171 20127 40166 58010 60001 333 10209=
85586,2008,12,18,12,00,AAXX 18124 85586 12460 60105 10174 20128 40184 52022 60004 82530 333 20123 30/// 50210 55127 56760 82615 86365=
85586,2008,12,18,15,00,AAXX 18154 85586 42560 42709 10195 20156 40193 52011 84100 333 56700 84820=
85586,2008,12,18,18,00,AAXX 18184 85586 12560 12707 10200 20118 40189 58004 60001 81500 333 56700 81620=
85586,2008,12,18,21,00,AAXX 18214 85586 42560 12806 10201 20139 40167 57022 81500 333 56700 81620=
85586,2008,12,19,12,00,AAXX 19124 85586 12560 10604 10176 20132 40169 54001 60004 81500 333 20154 30/// 50320 55111 56600 81620=
85586,2008,12,19,15,00,AAXX 19154 85586 42960 02407 10193 20133 40166 57003=
85586,2008,12,19,18,00,AAXX 19184 85586 12960 02412 10192 20139 40161 57005 60001=
85586,2008,12,19,21,00,AAXX 19214 85586 42960 02410 10192 20139 40147 57014=
85586,2008,12,20,00,00,AAXX 20004 85586 12960 02404 10168 20134 40139 57008 60001 333 10200=
85586,2008,12,20,12,00,AAXX 20124 85586 12460 33604 10156 20139 40159 52018 60004 83500 333 20110 30/// 50300 55124 56700 83615=
85586,2008,12,20,15,00,AAXX 20154 85586 42560 12607 10193 20130 40182 52023 81500 333 56600 81620=
85586,2008,12,20,18,00,AAXX 20184 85586 12960 32606 10208 20133 40183 51004 60001 80002 333 5006 83075=
85586,2008,12,20,21,00,AAXX 20214 85586 42960 32508 10206 20145 40174 57009 80002 333 56006 83075=
85586,2008,12,21,00,00,AAXX 21004 85586 12960 12406 10178 20151 40178 54002 60001 80002 333 10212 56006 81075=
85586,2008,12,21,12,00,AAXX 21124 85586 12960 01904 10188 20142 40173 54000 60004 333 20106 30/// 50340 55120=
85586,2008,12,21,18,00,AAXX 21184 85586 12960 02417 10190 20112 40170 57005 60001=
85586,2008,12,21,21,00,AAXX 21214 85586 42960 02414 10186 20107 40161 57009=
85586,2008,12,22,00,00,AAXX 22004 85586 12960 02406 10154 20102 40163 54001 60001 333 10202=
85586,2008,12,22,12,00,AAXX 22124 85586 12960 02603 10150 20112 40162 53006 60004 333 20078 30/// 50310 55124=
85586,2008,12,22,15,00,AAXX 22154 85586 42960 02409 10178 20103 40153 57007=
85586,2008,12,22,18,00,AAXX 22184 85586 12960 02311 10180 20133 40164 53010 60001=
85586,2008,12,22,21,00,AAXX 22214 85586 42960 02608 10179 20105 40156 57008=
85586,2008,12,23,00,00,AAXX 23004 85586 12960 00405 10145 20115 40157 54000 60001 333 10185=
85586,2008,12,23,12,00,AAXX 23124 85586 12260 12504 10149 20117 40165 52021 60004 81600 333 20078 50018 55123 56700 81706=
85586,2008,12,23,15,00,AAXX 23154 85586 41220 12607 10174 20123 40165 54001 74000 81600 333 56700 81706=
85586,2008,12,23,18,00,AAXX 23184 85586 12360 32609 10182 20129 40168 53003 60001 83600 333 56700 83708=
85586,2008,12,23,21,00,AAXX 23214 85586 42560 82709 10173 20125 40161 58007 885// 333 56799 88620=
85586,2008,12,24,12,00,AAXX 24124 85586 12360 80104 10149 20117 40175 51024 60004 886// 333 20129 30/// 50190 55099 56799 88708=
85586,2008,12,24,15,00,AAXX 24154 85586 42360 63306 10160 20131 40181 52007 86600 333 56700 86709=
85586,2008,12,24,18,00,AAXX 24184 85586 12360 82806 10161 20123 40182 50001 60001 886// 333 56799 88710=
85586,2008,12,24,21,00,AAXX 24214 85586 42560 32907 10173 20136 40169 57013 83500 333 56600 83620=
85586,2008,12,25,00,00,AAXX 25004 85586 12460 23109 10148 20127 40168 54002 60001 82500 333 10183 56600 82617=
85586,2008,12,25,12,00,AAXX 25124 85586 11330 83104 10129 20120 40163 52009 60004 7102/ 886// 333 20114 30/// 50260 55039 56799 88708=
85586,2008,12,25,15,00,AAXX 25154 85586 41457 63107 10166 20132 40160 54002 70522 86500 333 56700 86615=
85586,2008,12,25,18,00,AAXX 25184 85586 11456 73109 10174 20139 40159 54001 60001 70522 87500 333 56700 87613=
85586,2008,12,25,21,00,AAXX 25214 85586 41457 72505 10166 20121 40148 57011 70522 87500 333 56600 87615=
85586,2008,12,26,00,00,AAXX 26004 85586 11458 72904 10150 20126 40147 54002 60001 70522 87500 333 10184 56600 87617=
85586,2008,12,26,12,00,AAXX 26124 85586 11450 83104 10136 20124 40144 53005 60004 7102/ 886// 333 20134 30/// 50260 55041 56799 88710=
85586,2008,12,26,15,00,AAXX 26154 85586 41450 82907 10154 20133 40152 52008 70522 885// 333 56699 88613=
85586,2008,12,26,18,00,AAXX 26184 85586 11457 82907 10176 20143 40156 51005 60001 70522 885// 333 56699 88617=
85586,2008,12,26,21,00,AAXX 26214 85586 41558 82707 10176 20136 40152 56004 70522 885// 333 56699 88620=
85586,2008,12,27,00,00,AAXX 27004 85586 12560 73104 10162 20131 40146 57006 60001 84501 333 10180 56606 84623 83075=
85586,2008,12,27,12,00,AAXX 27124 85586 12460 80000 10156 20146 40172 53020 60004 885// 333 20118 30/// 50240 56699 88617=
85586,2008,12,27,15,00,AAXX 27154 85586 42560 82806 10169 20097 40182 52010 885// 333 56699 88620=
85586,2008,12,27,18,00,AAXX 27184 85586 12560 32609 10195 20143 40177 57004 83500 333 56600 83625=
85586,2008,12,27,21,00,AAXX 27214 85586 42560 22708 10193 20141 40173 57003 82500 333 56600 82625=
85586,2008,12,28,00,00,AAXX 28004 85586 12560 30000 10161 20143 40162 57012 60001 82501 333 10199 56606 82620=
85586,2008,12,28,12,00,AAXX 28124 85586 12960 00000 10168 20127 40169 53005 60004 333 20102 30/// 50030 55048=
85586,2008,12,28,15,00,AAXX 28154 85586 42260 22707 10178 20136 40178 52009 82600 333 56600 82705=
85586,2008,12,28,18,00,AAXX 28184 85586 11250 22408 10184 20148 40177 54001 60001 70511 82600 333 56600 82705=
85586,2008,12,28,21,00,AAXX 28214 85586 42260 12707 10185 20140 40166 57011 81600 333 56600 81705=
85586,2008,12,29,00,00,AAXX 29004 85586 12960 00105 10155 20131 40162 57004 60001 333 10189=
85586,2008,12,29,12,00,AAXX 29124 85586 12960 00000 10186 20159 40156 52011 60004 333 20100 30/// 50310 55128=
85586,2008,12,29,15,00,AAXX 29154 85586 42960 02907 10192 20150 40166 52010=
85586,2008,12,29,18,00,AAXX 29184 85586 11440 73108 10186 20165 40161 56004 60001 70522 87500 333 56700 87612=
85586,2008,12,29,21,00,AAXX 29214 85586 41557 73106 10188 20156 40153 57008 70522 87500 333 56700 87615=
85586,2008,12,30,00,00,AAXX 30004 85586 11460 13104 10172 20149 40146 57007 60001 81500 333 10200 56600 81617=
85586,2008,12,30,12,00,AAXX 30124 85586 11450 83104 10158 20136 40149 52007 60004 7052/ 885// 333 20100 30/// 50250 55079 56799 88613=
85586,2008,12,30,15,00,AAXX 30154 85586 41457 32907 10178 20136 40158 52009 70522 83500 333 56700 83618=
85586,2008,12,30,18,00,AAXX 30184 85586 12560 12808 10198 20145 40154 54003 60001 81500 333 56600 81620=
85586,2008,12,30,21,00,AAXX 30214 85586 42960 02607 10200 20143 40144 57008=
85586,2008,12,31,00,00,AAXX 31004 85586 12560 22404 10176 20150 40136 57009 60001 81501 333 10204 56606 81620=
85586,2008,12,31,12,00,AAXX 31124 85586 11240 80000 10161 20139 40140 51008 60004 7052/ 886// 333 20151 30/// 50220 55091 56799 88706=
85586,2008,12,31,15,00,AAXX 31154 85586 41340 82906 10180 20140 40144 51004 70522 886// 333 56799 88709=
85586,2008,12,31,18,00,AAXX 31184 85586 11340 82907 10183 20140 53006 60001 70522 886// 333 56799 88709=
85586,2008,12,31,21,00,AAXX 31214 85586 41460 82607 10174 20135 40141 58009 70522 885// 333 56799 88612=
