85586,2017,01,01,00,00,AAXX 01004 85586 12960 02309 10165 20131 30083 40173 53003 60001 333 10212 56//6 81075==
85586,2017,01,01,03,00,AAXX 01034 85586 NIL=
85586,2017,01,01,06,00,AAXX 01064 85586 NIL=
85586,2017,01,01,09,00,AAXX 01094 85586 NIL=
85586,2017,01,01,15,00,AAXX 01154 85586 42960 02412 10205 20147 30081 40170 53004 333 56//6 81073==
85586,2017,01,02,00,00,AAXX 02004 85586 12960 02205 10172 20113 30061 40151 55006 60001 333 10216==
85586,2017,01,02,03,00,AAXX 02034 85586 NIL=
85586,2017,01,02,09,00,AAXX 02094 85586 NIL=
85586,2017,01,02,15,00,AAXX 02154 85586 42960 02807 10193 20131 30065 40154 50005==
85586,2017,01,03,00,00,AAXX 03004 85586 11956 02308 10161 20115 30068 40158 53005 60001 70500 333 10213==
85586,2017,01,03,03,00,AAXX 03034 85586 NIL=
85586,2017,01,03,09,00,AAXX 03094 85586 NIL=
85586,2017,01,03,15,00,AAXX 03154 85586 42/60 22412 10205 20115 30063 40152 57008 333 56//6 82075==
85586,2017,01,03,21,00,AAXX 03214 85586 NIL=
85586,2017,01,04,00,00,AAXX 04004 85586 NIL=
85586,2017,01,04,03,00,AAXX 04034 85586 NIL=
85586,2017,01,04,06,00,AAXX 04064 85586 NIL=
85586,2017,01,04,09,00,AAXX 04094 85586 NIL=
85586,2017,01,04,15,00,AAXX 04154 85586 42960 02515 10189 20103 30037 40126 58008==
85586,2017,01,05,00,00,AAXX 0500/ 85586 12960 0//// 10164 20103 30020 40110 53004 60001 333 10226==
85586,2017,01,05,03,00,AAXX 05034 85586 NIL=
85586,2017,01,05,06,00,AAXX 05064 85586 NIL=
85586,2017,01,05,09,00,AAXX 05094 85586 NIL=
85586,2017,01,05,15,00,AAXX 05154 85586 42960 02510 10182 20102 30023 40112 53006==
85586,2017,01,06,00,00,AAXX 06004 85586 NIL=
85586,2017,01,06,03,00,AAXX 06034 85586 NIL=
85586,2017,01,06,06,00,AAXX 06064 85586 NIL=
85586,2017,01,06,09,00,AAXX 06094 85586 NIL=
85586,2017,01,06,15,00,AAXX 06154 85586 42460 23009 10174 20126 30074 40164 51016 82500 333 566// 82611==
85586,2017,01,07,00,00,AAXX 07004 85586 NIL=
85586,2017,01,07,03,00,AAXX 07034 85586 NIL=
85586,2017,01,07,06,00,AAXX 07064 85586 NIL=
85586,2017,01,07,09,00,AAXX 07094 85586 NIL=
85586,2017,01,07,12,00,AAXX 07124 85586 NIL=
85586,2017,01,07,15,00,AAXX 07154 85586 41258 43406 10179 20135 30087 40177 50007 70522 84500 333 566// 84606==
85586,2017,01,08,00,00,AAXX 08004 85586 12360 40106 10163 20143 30055 40145 55004 60001 84500 333 10200 566// 84607==
85586,2017,01,08,03,00,AAXX 08034 85586 NIL=
85586,2017,01,08,09,00,AAXX 08094 85586 NIL=
85586,2017,01,08,15,00,AAXX 08154 85586 41210 42607 10162 20132 30067 40157 51008 71011=
85586,2017,01,09,00,00,AAXX 09004 85586 12460 63004 10163 20147 30060 40150 53007 60001 85501 333 10198 566/6 85610 83075==
85586,2017,01,09,03,00,AAXX 09034 85586 NIL=
85586,2017,01,09,09,00,AAXX 09094 85586 NIL=
85586,2017,01,09,15,00,AAXX 09154 85586 42460 02512 10210 20161 30084 40173 50010 81500 333 566// 81615==
85586,2017,01,09,21,00,AAXX 09214 85586 42/60 22415 10225 20117 30049 40137 57017 333 56//6 83075==
85586,2017,01,10,00,00,AAXX 10004 85586 14960 62410 10175 20112 30050 40140 54000 60001 70211 80002 333 10240 56//6 86074=
85586,2017,01,10,03,00,AAXX 10034 85586 NIL=
85586,2017,01,10,06,00,AAXX 10064 85586 NIL=
85586,2017,01,10,09,00,AAXX 10094 85586 NIL=
85586,2017,01,10,12,00,AAXX 10124 85586 14960 12506 10159 20125 30057 40147 53017 60001 70200 80002 333 20124 30/// 55077 56//6 70000 81070=
85586,2017,01,10,15,00,AAXX 10154 85586 NIL=
85586,2017,01,10,18,00,AAXX 10184 85586 14960 02609 10186 20124 30069 40159 50008 60001 70200 80000=
85586,2017,01,10,21,00,AAXX 10214 85586 42960 02809 10171 20114 30064 40154 58004==
85586,2017,01,11,00,00,AAXX 11004 85586 14960 00106 10156 20110 30063 40153 55001 60001 70200 80000 333 10206=
85586,2017,01,11,03,00,AAXX 11034 85586 NIL=
85586,2017,01,11,06,00,AAXX 11064 85586 NIL=
85586,2017,01,11,09,00,AAXX 11094 85586 NIL=
85586,2017,01,11,15,00,AAXX 11154 85586 42960 02707 10183 20130 30063 40153 52005==
85586,2017,01,12,00,00,AAXX 12004 85586 12960 00309 10168 20122 30026 40116 55003 60001 333 10203==
85586,2017,01,12,03,00,AAXX 12034 85586 NIL=
85586,2017,01,12,06,00,AAXX 12064 85586 NIL=
85586,2017,01,12,09,00,AAXX 12094 85586 NIL=
85586,2017,01,12,15,00,AAXX 12154 85586 42960 03210 10190 20137 30056 40145 52014 333 56//6 81075==
85586,2017,01,12,18,00,AAXX 12184 85586 14960 23206 10205 20131 30054 40143 58002 60001 70000 80001 333 56//6 82073=
85586,2017,01,13,00,00,AAXX 13004 85586 NIL=
85586,2017,01,13,03,00,AAXX 13034 85586 NIL=
85586,2017,01,13,06,00,AAXX 13064 85586 NIL=
85586,2017,01,13,09,00,AAXX 13094 85586 NIL=
85586,2017,01,13,12,00,AAXX 13124 85586 14960 02503 10168 20139 30049 40139 51010 60001 70000 80000 333 20119 30/// 55120 70000=
85586,2017,01,13,15,00,AAXX 13154 85586 42960 02606 10202 20142 30052 40141 53003==
85586,2017,01,13,18,00,AAXX 13184 85586 14960 02413 10211 20131 30045 40134 58007 60001 70000 80000=
85586,2017,01,13,21,00,AAXX 13214 85586 42960 02607 10220 20132 30028 40116 58017==
85586,2017,01,14,00,00,AAXX 14004 85586 14960 10406 10171 20131 30025 40115 55002 60001 70000 80001 333 10222 56//6 81072=
85586,2017,01,14,03,00,AAXX 14034 85586 NIL=
85586,2017,01,14,06,00,AAXX 14064 85586 NIL=
85586,2017,01,14,09,00,AAXX 14094 85586 NIL=
85586,2017,01,14,12,00,AAXX 14124 85586 14156 83605 10142 20131 30035 40127 52030 60001 71022 886// 333 20103 30/// 55120 566// 70000 88703=
85586,2017,01,14,15,00,AAXX 14154 85586 42360 03411 10178 20130 30042 40132 53007 81600 333 566// 81709==
85586,2017,01,14,18,00,AAXX 14184 85586 14360 42710 10177 20129 30046 40136 50004 60001 70100 84600 333 566// 84707=
85586,2017,01,14,21,00,AAXX 14214 85586 NIL=
85586,2017,01,15,00,00,AAXX 15004 85586 14960 02203 10162 20106 30030 40120 55002 60001 70200 80000 333 10199=
85586,2017,01,15,03,00,AAXX 15034 85586 NIL=
85586,2017,01,15,06,00,AAXX 15064 85586 NIL=
85586,2017,01,15,09,00,AAXX 15094 85586 NIL=
85586,2017,01,15,12,00,AAXX 15124 85586 14260 80604 10126 20105 30048 40139 53020 60001 70222 886// 333 20082 30/// 55094 70000 88706=
85586,2017,01,15,15,00,AAXX 15154 85586 NIL=
85586,2017,01,15,18,00,AAXX 15184 85586 14460 42708 10153 20111 30064 40154 51006 60001 70300 84600 333 566// 84710=
85586,2017,01,15,21,00,AAXX 15214 85586 NIL=
85586,2017,01,16,00,00,AAXX 16004 85586 14460 32903 10144 20125 30052 40143 55003 60001 70122 83500 333 10169 566// 83610=
85586,2017,01,16,03,00,AAXX 16034 85586 NIL=
85586,2017,01,16,06,00,AAXX 16064 85586 NIL=
85586,2017,01,16,09,00,AAXX 16094 85586 NIL=
85586,2017,01,16,12,00,AAXX 16124 85586 14230 80203 10133 20117 30065 40156 53024 60001 71022 886// 333 20108 30/// 55072 70000 88705=
85586,2017,01,16,15,00,AAXX 16154 85586 42260 83208 10151 20123 30081 40172 53016 886// 333 88705==
85586,2017,01,16,18,00,AAXX 16184 85586 14360 42809 10170 20126 30089 40179 50009 60001 70122 84500 333 566// 84609=
85586,2017,01,16,21,00,AAXX 16214 85586 NIL=
85586,2017,01,17,00,00,AAXX 17004 85586 14960 02704 10155 20128 30071 40162 56009 60001 70000 80000 333 10187=
85586,2017,01,17,03,00,AAXX 17034 85586 NIL=
85586,2017,01,17,06,00,AAXX 17064 85586 NIL=
85586,2017,01,17,09,00,AAXX 17094 85586 NIL=
85586,2017,01,17,12,00,AAXX 17124 85586 14960 00000 10194 20132 30047 40136 52009 60001 70000 80000 333 20098 30/// 55061 70000=
85586,2017,01,17,15,00,AAXX 17154 85586 42960 02510 10230 20147 30037 40125 57009==
85586,2017,01,17,21,00,AAXX 17214 85586 NIL=
85586,2017,01,18,00,00,AAXX 18004 85586 14960 0//// 10201 20119 30018 40107 53010 60001 70000 80000 333 10260=
85586,2017,01,18,03,00,AAXX 18034 85586 NIL=
85586,2017,01,18,06,00,AAXX 18064 85586 NIL=
85586,2017,01,18,09,00,AAXX 18094 85586 NIL=
85586,2017,01,18,12,00,AAXX 18124 85586 14960 12803 10172 20120 30030 40120 52011 60001 70300 80001 333 20103 30/// 55115 56//6 70000 81075=
85586,2017,01,18,15,00,AAXX 18154 85586 41957 02706 10192 20121 30031 40120 53001 70500 333 56//6 81075==
85586,2017,01,18,18,00,AAXX 18184 85586 14960 02709 10182 20114 30043 40132 51012 60001 70000 80000=
85586,2017,01,18,21,00,AAXX 18214 85586 NIL=
85586,2017,01,19,00,00,AAXX 19004 85586 14960 13606 10148 20116 30046 40137 53002 60001 70100 80001 333 10218 56//6 81073=
85586,2017,01,19,06,00,AAXX 19064 85586 NIL=
85586,2017,01,19,09,00,AAXX 19094 85586 NIL=
85586,2017,01,19,12,00,AAXX 19124 85586 14960 0//// 10146 20118 30052 40143 51013 60001 70000 80000 333 20089 30/// 55087 70000=
85586,2017,01,19,15,00,AAXX 19154 85586 42960 03105 10203 20116 30059 40148 50008==
85586,2017,01,19,18,00,AAXX 19184 85586 14960 02908 10199 20132 30057 40146 57003 60001 70000 80000=
85586,2017,01,19,21,00,AAXX 19214 85586 42960 03206 10189 20127 30044 40133 58013==
85586,2017,01,20,00,00,AAXX 20004 85586 14960 00104 10173 20118 30038 40128 55005 60001 70000 80000 333 10217=
85586,2017,01,20,03,00,AAXX 20034 85586 NIL=
85586,2017,01,20,06,00,AAXX 20064 85586 NIL=
85586,2017,01,20,09,00,AAXX 20094 85586 NIL=
85586,2017,01,20,12,00,AAXX 20124 85586 14960 0//// 10170 20120 30038 40128 51013 60001 70000 80000 333 20099 30/// 55087 70000=
85586,2017,01,20,15,00,AAXX 20154 85586 42/60 22906 10196 20141 30040 40129 52002 333 56//6 83073==
85586,2017,01,20,18,00,AAXX 20184 85586 14940 13109 10187 20132 30036 40125 56004 60001 70500 80001 333 56//6 81073=
85586,2017,01,20,21,00,AAXX 20214 85586 41650 83509 10193 20136 30026 40115 57010 70422 885// 333 88640==
85586,2017,01,21,00,00,AAXX 21004 85586 14950 03607 10165 20127 30031 40121 53005 60001 70422 80000 333 10209=
85586,2017,01,21,03,00,AAXX 21034 85586 NIL=
85586,2017,01,21,06,00,AAXX 21064 85586 NIL=
85586,2017,01,21,09,00,AAXX 21094 85586 NIL=
85586,2017,01,21,12,00,AAXX 21124 85586 14107 83203 10154 20148 30039 40129 53008 60001 74644 886// 333 20129 30/// 55088 70000 88702=
85586,2017,01,21,15,00,AAXX 21154 85586 41150 83407 10175 20148 30049 40139 52009 70522 886// 333 88703==
85586,2017,01,21,18,00,AAXX 21184 85586 14357 83208 10192 20137 30059 40148 51012 60001 70522 885// 333 566// 83707 88625=
85586,2017,01,21,21,00,AAXX 21214 85586 42360 83107 10180 20123 30058 40148 57002=
85586,2017,01,22,00,00,AAXX 22004 85586 14660 83004 10168 20139 30059 40149 53001 60001 70222 885// 333 10194 88640=
85586,2017,01,22,12,00,AAXX 22124 85586 14230 82003 10156 20145 30071 40162 52016 60001 71022 886// 333 20142 30/// 55011 70000 88704=
85586,2017,01,22,15,00,AAXX 22154 85586 41150 62704 10177 20152 30077 40167 53006 70522 86600 333 566// 86703==
85586,2017,01,22,18,00,AAXX 22184 85586 14350 82706 10185 20156 30085 40175 50008 60001 70544 885// 333 566// 88607=
85586,2017,01,22,21,00,AAXX 22214 85586 41358 62807 10184 20149 30074 40164 57011 70522 87500 333 566// 87609==
85586,2017,01,23,00,00,AAXX 23004 85586 14560 5//// 10155 20132 30074 40165 51000 60001 70122 85500 333 10203 566// 85625=
85586,2017,01,23,12,00,AAXX 23124 85586 14115 8//// 10146 20140 30086 40171 53011 60001 71044 886// 333 20135 30/// 55010 566// 70000 88702=
85586,2017,01,23,15,00,AAXX 23154 85586 41105 82608 10169 20138 30080 40170 58006 72800 886// 333 566// 88702==
85586,2017,01,23,18,00,AAXX 23184 85586 14160 72808 10172 20140 30081 40171 50001 60001 70344 87500 333 566// 87603=
85586,2017,01,23,21,00,AAXX 23214 85586 42360 42706 10182 20140 30074 40164 58007 84500 333 566// 84609==
85586,2017,01,24,00,00,AAXX 24004 85586 14660 63606 10166 20137 30068 40158 55006 60001 70311 86500 333 10193 566// 86640=
85586,2017,01,24,03,00,AAXX 24034 85586 NIL=
85586,2017,01,24,06,00,AAXX 24064 85586 NIL=
85586,2017,01,24,09,00,AAXX 24094 85586 NIL=
85586,2017,01,24,12,00,AAXX 24124 85586 14960 0//// 10163 20136 30071 40161 51012 60001 70000 80000 333 20115 30/// 55053 70000=
85586,2017,01,24,15,00,AAXX 24154 85586 41/58 22706 10206 20141 30056 40145 56015 70500 333 56//6 82075==
85586,2017,01,24,18,00,AAXX 24184 85586 14950 22414 10233 20125 30037 40125 56019 60001 70544 80001 333 56//6 82075=
85586,2017,01,24,21,00,AAXX 24214 85586 41956 02415 10243 20134 30019 40106 56018 70400==
85586,2017,01,25,00,00,AAXX 25004 85586 14956 03103 10206 20134 30028 40117 53009 60001 70400 80000 333 10270=
85586,2017,01,25,03,00,AAXX 25034 85586 NIL=
85586,2017,01,25,06,00,AAXX 25064 85586 NIL=
85586,2017,01,25,09,00,AAXX 25094 85586 NIL=
85586,2017,01,25,12,00,AAXX 25124 85586 14957 12903 10182 20140 30022 40111 53011 60001 70511 80001 333 20122 30/// 55090 56//6 70000 81073=
85586,2017,01,25,15,00,AAXX 25154 85586 41/56 22905 10212 20135 30027 40115 52005 70500 333 56//6 83073==
85586,2017,01,25,18,00,AAXX 25184 85586 14957 42908 10206 20134 30027 40116 50001 60001 70500 80002 333 56//6 84075=
85586,2017,01,25,21,00,AAXX 25214 85586 41/40 23507 10194 20136 30028 40117 53001 70400 333 56//6 83073==
85586,2017,01,26,00,00,AAXX 26004 85586 44950 22904 10174 20141 30027 40117 53001 70400 80002 333 10225 56//6 82073=
85586,2017,01,26,03,00,AAXX 26034 85586 NIL=
85586,2017,01,26,06,00,AAXX 26064 85586 NIL=
85586,2017,01,26,09,00,AAXX 26094 85586 NIL=
85586,2017,01,26,12,00,AAXX 26124 85586 14958 0//// 10183 20146 30036 40125 53023 60001 70500 80000 333 20129 30/// 55080 70000=
85586,2017,01,26,15,00,AAXX 26154 85586 41958 03310 10210 20165 30055 40144 51019 70500==
85586,2017,01,26,18,00,AAXX 26184 85586 14960 03114 10232 20171 30055 40143 52001 60001 70244 80000=
85586,2017,01,26,21,00,AAXX 26214 85586 42960 03114 10211 20166 30050 40139 55004==
85586,2017,01,27,00,00,AAXX 27004 85586 14960 02809 10190 20161 30053 40142 53002 60001 70200 80000 333 10234=
85586,2017,01,27,03,00,AAXX 27034 85586 NIL=
85586,2017,01,27,12,00,AAXX 27124 85586 14960 0//// 10202 20165 30068 40157 53018 60001 70200 80000 333 20149 30/// 55103 70000=
85586,2017,01,27,15,00,AAXX 27154 85586 42960 02508 10225 20164 30078 40166 50009==
85586,2017,01,27,18,00,AAXX 27184 85586 14960 02509 10230 20166 30068 40156 58009 60001 70200 80000=
85586,2017,01,27,21,00,AAXX 27214 85586 42960 02508 10218 20166 30053 40141 58015==
85586,2017,01,28,00,00,AAXX 28004 85586 14960 02603 10191 20167 30049 40138 55004 60001 70200 80000 333 10234=
85586,2017,01,28,03,00,AAXX 28034 85586 NIL=
85586,2017,01,28,06,00,AAXX 28064 85586 NIL=
85586,2017,01,28,09,00,AAXX 28094 85586 NIL=
85586,2017,01,28,12,00,AAXX 28124 85586 14120 8//// 10166 20160 30044 40134 51011 60001 71022 886// 333 20165 30/// 55107 566// 70000 88703=
85586,2017,01,28,15,00,AAXX 28154 85586 41250 83103 10180 20162 30051 40141 53007 70544 886// 333 566// 88705==
85586,2017,01,28,18,00,AAXX 28184 85586 14356 82806 10195 20162 30048 40137 58003 60001 70544 886// 333 566// 88708=
85586,2017,01,28,21,00,AAXX 28214 85586 41356 82806 10183 20154 30036 40125 58011 70522 886// 333 88709==
85586,2017,01,29,00,00,AAXX 29004 85586 14356 83005 10175 20153 30034 40124 55003 60001 70522 886// 333 10202 88709=
85586,2017,01,29,12,00,AAXX 29124 85586 14230 80603 10164 20151 30023 40113 55017 60001 71022 886// 333 20162 30/// 55000 70000 88705=
85586,2017,01,29,15,00,AAXX 29154 85586 41256 82705 10175 20153 30037 40127 51014 70522 886// 333 88706==
85586,2017,01,29,18,00,AAXX 29184 85586 14240 72909 10190 20155 30038 40127 53002 60001 70522 87600 333 566// 87706=
85586,2017,01,29,21,00,AAXX 29214 85586 41357 83106 10183 20152 30035 40124 58004 70522 886// 333 88709==
85586,2017,01,30,00,00,AAXX 30004 85586 14340 83003 10171 20153 30039 40129 53003 60001 70522 886// 333 10206 88707=
85586,2017,01,30,06,00,AAXX 30064 85586 NIL=
85586,2017,01,30,09,00,AAXX 30094 85586 NIL=
85586,2017,01,30,12,00,AAXX 30124 85586 14457 81103 10164 20137 30054 40144 51015 60001 70522 886// 333 20153 30/// 55016 70000 88710=
85586,2017,01,30,15,00,AAXX 30154 85586 42960 02907 10195 20146 30059 40148 52006==
85586,2017,01,30,18,00,AAXX 30184 85586 14960 02611 10203 20145 30054 40143 58005 60001 70000 80000=
85586,2017,01,30,21,00,AAXX 30214 85586 42960 02805 10252 20133 30035 40122 58018==
85586,2017,01,31,00,00,AAXX 31004 85586 14358 32405 10189 20132 30039 40128 53004 60001 70500 81604 333 10258 566/6 81709 82073=
85586,2017,01,31,03,00,AAXX 31034 85586 NIL=
85586,2017,01,31,12,00,AAXX 31124 85586 14958 00603 10155 20125 30047 40137 52014 60001 70500 80000 333 20127 30/// 55085 70000=
85586,2017,01,31,15,00,AAXX 31154 85586 42960 03008 10191 20138 30051 40140 52004==
85586,2017,01,31,18,00,AAXX 31184 85586 14960 02710 10192 20130 30053 40142 52002 60001 70000 80000=
85586,2017,01,31,21,00,AAXX 31214 85586 42960 02708 10185 20123 30051 40140 58002==
85586,2017,02,01,00,00,AAXX 01004 85586 14960 33006 10158 20110 30054 40144 53003 60001 70000 80001 333 10202 56//6 83073=
85586,2017,02,01,12,00,AAXX 01124 85586 14558 20903 10143 20118 30044 40135 52006 60001 70500 82600 333 20100 30/// 55109 566// 70000 82724=
85586,2017,02,01,15,00,AAXX 01154 85586 41957 02706 10175 20134 30047 40137 52004 70500==
85586,2017,02,01,18,00,AAXX 01184 85586 14958 03008 10193 20138 30043 40132 58005 60001 70400 80000=
85586,2017,02,01,21,00,AAXX 01214 85586 41458 23108 10183 20139 30038 40127 58005 70400 83600 333 567// 83711==
85586,2017,02,02,00,00,AAXX 02004 85586 14358 62705 10161 20140 30042 40132 53003 60001 70411 86600 333 10196 567// 86707=
85586,2017,02,02,03,00,AAXX 02034 85586 NIL=
85586,2017,02,02,06,00,AAXX 02064 85586 NIL=
85586,2017,02,02,09,00,AAXX 02094 85586 NIL=
85586,2017,02,02,12,00,AAXX 02124 85586 14458 82203 10140 20110 30046 40137 52012 60001 70522 885// 333 20116 30/// 55109 567// 70000 88612=
85586,2017,02,02,15,00,AAXX 02154 85586 NIL=
85586,2017,02,02,18,00,AAXX 02184 85586 14960 32513 10187 20121 30049 40138 58002 60001 70110 80001 333 56//6 83075=
85586,2017,02,02,21,00,AAXX 02214 85586 NIL=
85586,2017,02,03,00,00,AAXX 03004 85586 14960 22707 10155 20115 30051 40141 53005 60001 70111 81011 333 10195 56/66 81462 81075=
85586,2017,02,03,03,00,AAXX 03034 85586 NIL=
85586,2017,02,03,06,00,AAXX 03064 85586 NIL=
85586,2017,02,03,09,00,AAXX 03094 85586 NIL=
85586,2017,02,03,12,00,AAXX 03124 85586 14960 4//// 10129 20108 30052 40143 51011 60001 70200 80001 333 20086 30/// 55059 56//6 70000 84075=
85586,2017,02,03,15,00,AAXX 03154 85586 42/60 42707 10182 20116 30047 40136 57006=
85586,2017,02,03,18,00,AAXX 03184 85586 14960 72608 10177 20129 30051 40141 53005 60001 70211 87010 333 56/6/ 87467=
85586,2017,02,03,21,00,AAXX 03214 85586 42460 82708 10175 20133 30055 40145 53004=
85586,2017,02,04,00,00,AAXX 04004 85586 14460 82905 10168 20143 30068 40158 52013 60001 70222 8553/ 333 10191 5663/ 82611 85620 88368=
85586,2017,02,04,03,00,AAXX 04034 85586 NIL=
85586,2017,02,04,06,00,AAXX 04064 85586 NIL=
85586,2017,02,04,09,00,AAXX 04094 85586 NIL=
85586,2017,02,04,12,00,AAXX 04124 85586 14760 61603 10161 20141 30076 40166 52008 60001 70222 82530 333 20144 30/// 55028 5666/ 70000 82650 86357=
85586,2017,02,04,15,00,AAXX 04154 85586 42560 22708 10200 20138 30083 40172 53006 81502 333 566/6 81620 83074==
85586,2017,02,04,18,00,AAXX 04184 85586 14960 22512 10204 20155 30087 40176 50005 60001 70000 80002 333 56//6 82073=
85586,2017,02,04,21,00,AAXX 04214 85586 42960 02414 10204 20163 30077 40166 57010==
85586,2017,02,05,00,00,AAXX 05004 85586 14960 02506 10179 20154 30073 40163 55003 60001 70000 80000 333 10218=
85586,2017,02,05,03,00,AAXX 05034 85586 NIL=
85586,2017,02,05,06,00,AAXX 05064 85586 NIL=
85586,2017,02,05,09,00,AAXX 05094 85586 NIL=
85586,2017,02,05,12,00,AAXX 05124 85586 14960 1//// 10173 20137 30049 40139 53005 60001 70000 80001 333 20118 30/// 55105 56//6 70000 81073=
85586,2017,02,05,15,00,AAXX 05154 85586 42960 02412 10199 20136 30042 40131 57007==
85586,2017,02,05,18,00,AAXX 05184 85586 14960 02414 10207 20140 30030 40119 58012 60001 70000 80000=
85586,2017,02,05,21,00,AAXX 05214 85586 41958 02514 10210 20125 30018 40106 56012 70400==
85586,2017,02,06,00,00,AAXX 06004 85586 14958 00505 10170 20120 30019 40109 53001 60001 70400 80000 333 10222=
85586,2017,02,06,03,00,AAXX 06034 85586 NIL=
85586,2017,02,06,06,00,AAXX 06064 85586 NIL=
85586,2017,02,06,09,00,AAXX 06094 85586 NIL=
85586,2017,02,06,12,00,AAXX 06124 85586 14958 00804 10147 20124 30029 40119 52013 60001 70500 80000 333 20120 30/// 55116 70000=
85586,2017,02,06,15,00,AAXX 06154 85586 41958 02807 10191 20138 30034 40123 51005 70500==
85586,2017,02,06,18,00,AAXX 06184 85586 14960 02708 10198 20129 30035 40124 50001 60001 70300 80000=
85586,2017,02,06,21,00,AAXX 06214 85586 42960 02810 10189 20129 30030 40119 56005==
85586,2017,02,07,00,00,AAXX 07004 85586 14960 03106 10159 20129 30028 40118 55002 60001 70200 80000 333 10202=
85586,2017,02,07,03,00,AAXX 07034 85586 NIL=
85586,2017,02,07,06,00,AAXX 07064 85586 NIL=
85586,2017,02,07,09,00,AAXX 07094 85586 NIL=
85586,2017,02,07,12,00,AAXX 07124 85586 14358 83208 10141 20120 30041 40132 52022 60001 70511 886// 333 20141 30/// 55111 566// 70000 88708=
85586,2017,02,07,15,00,AAXX 07154 85586 NIL=
85586,2017,02,07,18,00,AAXX 07184 85586 14460 62809 10182 20127 30054 40144 54000 60001 70222 86500 333 566// 86617=
85586,2017,02,07,21,00,AAXX 07214 85586 NIL=
85586,2017,02,08,00,00,AAXX 08004 85586 14460 82605 10162 20122 30054 40144 53003 60001 70222 885// 333 10195 88616=
85586,2017,02,08,03,00,AAXX 08034 85586 NIL=
85586,2017,02,08,06,00,AAXX 08064 85586 NIL=
85586,2017,02,08,09,00,AAXX 08094 85586 NIL=
85586,2017,02,08,12,00,AAXX 08124 85586 14460 11603 10158 20108 30067 40157 50010 60001 70200 81500 333 20119 30/// 55013 566// 70000 81610=
85586,2017,02,08,15,00,AAXX 08154 85586 42960 02515 10176 20110 30068 40158 53002==
85586,2017,02,08,18,00,AAXX 08184 85586 14960 02519 10192 20128 30065 40154 55003 60001 70000 80000=
85586,2017,02,08,21,00,AAXX 08214 85586 42960 02318 10184 20120 30064 40154 50001==
85586,2017,02,09,00,00,AAXX 09004 85586 14960 02407 10159 20115 30068 40158 53004 60001 70000 80000 333 10202=
85586,2017,02,09,03,00,AAXX 09034 85586 NIL=
85586,2017,02,09,06,00,AAXX 09064 85586 NIL=
85586,2017,02,09,09,00,AAXX 09094 85586 NIL=
85586,2017,02,09,12,00,AAXX 09124 85586 14960 3//// 10122 20111 30070 40162 53001 60001 70000 80009 333 20075 30/// 55110 56//6 70000 83173=
85586,2017,02,09,15,00,AAXX 09154 85586 42/60 22510 10179 20122 30069 40159 58001 333 56//6 83073==
85586,2017,02,09,18,00,AAXX 09184 85586 14960 52412 10180 20119 30062 40152 55006 60001 70300 85030 333 56/6/ 85365=
85586,2017,02,09,21,00,AAXX 09214 85586 42/60 62308 10194 20102 30045 40134 57019 86030 333 56/6/ 86365==
85586,2017,02,10,00,00,AAXX 10004 85586 14960 62309 10158 20108 30048 40138 53005 60001 70111 83031 333 10204 56/6/ 83365 83075=
85586,2017,02,10,03,00,AAXX 10034 85586 NIL=
85586,2017,02,10,06,00,AAXX 10064 85586 NIL=
85586,2017,02,10,09,00,AAXX 10094 85586 NIL=
85586,2017,02,10,12,00,AAXX 10124 85586 14960 60403 10144 20101 30046 40137 53018 60001 70111 83031 333 20117 30/// 55036 56/66 70000 83365 83075=
85586,2017,02,10,15,00,AAXX 10154 85586 NIL=
85586,2017,02,10,18,00,AAXX 10184 85586 14960 22610 10177 20131 30058 40148 53005 60001 70144 80001 333 56//6 82075=
85586,2017,02,10,21,00,AAXX 10214 85586 NIL=
85586,2017,02,11,00,00,AAXX 11004 85586 14960 03006 10152 20122 30063 40154 53007 60001 70000 80000 333 10203=
85586,2017,02,11,03,00,AAXX 11034 85586 NIL=
85586,2017,02,11,06,00,AAXX 11064 85586 NIL=
85586,2017,02,11,09,00,AAXX 11094 85586 NIL=
85586,2017,02,11,12,00,AAXX 11124 85586 14460 82906 10137 20116 30073 40164 52013 60001 70222 885// 333 20137 30/// 55085 566// 70000 88610=
85586,2017,02,11,15,00,AAXX 11154 85586 42460 22805 10176 20126 30079 40169 50007 82500 333 566// 82615==
85586,2017,02,11,18,00,AAXX 11184 85586 14960 02808 10184 20129 30075 40165 57005 60001 70011 80000=
85586,2017,02,11,21,00,AAXX 11214 85586 42960 03108 10184 20139 30066 40156 57009==
85586,2017,02,12,00,00,AAXX 12004 85586 14960 03204 10155 20134 30067 40158 54000 60001 70200 80000 333 10198=
85586,2017,02,12,03,00,AAXX 12034 85586 NIL=
85586,2017,02,12,06,00,AAXX 12064 85586 NIL=
85586,2017,02,12,09,00,AAXX 12094 85586 NIL=
85586,2017,02,12,12,00,AAXX 12124 85586 14130 80403 10137 20129 30051 40142 53006 60001 71022 886// 333 20113 30/// 55083 70000 88703=
85586,2017,02,12,15,00,AAXX 12154 85586 NIL=
85586,2017,02,12,18,00,AAXX 12184 85586 14960 02809 10194 20143 30048 40137 58006 60001 70000 80000=
85586,2017,02,12,21,00,AAXX 12214 85586 NIL=
85586,2017,02,13,00,00,AAXX 13004 85586 14460 52905 10164 20141 30034 40124 55004 60001 70222 85600 333 10199 566// 85710=
85586,2017,02,13,03,00,AAXX 13034 85586 NIL=
85586,2017,02,13,06,00,AAXX 13064 85586 NIL=
85586,2017,02,13,09,00,AAXX 13094 85586 NIL=
85586,2017,02,13,12,00,AAXX 13124 85586 14360 80205 10157 20134 30037 40127 53014 60001 70222 886// 333 20143 30/// 55080 566// 70000 88709=
85586,2017,02,13,15,00,AAXX 13154 85586 42460 43011 10183 20136 30046 40135 51010=
85586,2017,02,13,18,00,AAXX 13184 85586 14460 73112 10185 20140 30051 40140 53005 60001 70222 87500 333 566// 87613=
85586,2017,02,13,21,00,AAXX 13214 85586 42460 43009 10190 20143 30040 40129 57011 84500 333 567// 84616==
85586,2017,02,14,00,00,AAXX 14004 85586 14458 82804 10171 20142 30037 40127 55003 60001 70522 885// 333 10201 567// 88612=
85586,2017,02,14,03,00,AAXX 14034 85586 NIL=
85586,2017,02,14,06,00,AAXX 14064 85586 NIL=
85586,2017,02,14,09,00,AAXX 14094 85586 NIL=
85586,2017,02,14,12,00,AAXX 14124 85586 14456 83104 10162 20141 30054 40144 53017 60001 70522 885// 333 20159 30/// 55062 567// 70000 88610=
85586,2017,02,14,15,00,AAXX 14154 85586 41456 83108 10173 20139 30073 40163 51018 70522 885// 333 567// 88615==
85586,2017,02,14,18,00,AAXX 14184 85586 14460 12910 10202 20142 30069 40158 58002 60001 70311 81500 333 566// 81615=
85586,2017,02,14,21,00,AAXX 14214 85586 NIL=
85586,2017,02,15,00,00,AAXX 15004 85586 14960 03103 10173 20141 30064 40154 53005 60001 70000 80000 333 10206=
85586,2017,02,15,03,00,AAXX 15034 85586 NIL=
85586,2017,02,15,06,00,AAXX 15064 85586 NIL=
85586,2017,02,15,09,00,AAXX 15094 85586 NIL=
85586,2017,02,15,12,00,AAXX 15124 85586 14460 70000 10144 20130 30090 40181 53021 60001 70122 87500 333 20101 30/// 55064 566// 70000 87613=
85586,2017,02,15,15,00,AAXX 15154 85586 42460 62708 10195 20140 30100 40190 53011 87500 333 566// 87618==
85586,2017,02,15,18,00,AAXX 15184 85586 14960 02608 10205 20128 30095 40184 57005 60001 70000 80000=
85586,2017,02,15,21,00,AAXX 15214 85586 42960 02707 10202 20135 30083 40172 58011==
85586,2017,02,16,00,00,AAXX 16004 85586 14960 12603 10174 20141 30085 40175 53001 60001 70200 80001 333 10215 56//6 81270=
85586,2017,02,16,03,00,AAXX 16034 85586 NIL=
85586,2017,02,16,06,00,AAXX 16064 85586 NIL=
85586,2017,02,16,09,00,AAXX 16094 85586 NIL=
85586,2017,02,16,12,00,AAXX 16124 85586 14360 10903 10159 20131 30088 40179 53015 60001 70200 81600 333 20111 30/// 55080 566// 70000 81707=
85586,2017,02,16,15,00,AAXX 16154 85586 42560 22609 10195 20128 30093 40182 50005 83500 333 566// 83621==
85586,2017,02,16,18,00,AAXX 16184 85586 14960 32514 10200 20142 30097 40186 53004 60001 70100 80002 333 56//6 83074=
85586,2017,02,16,21,00,AAXX 16214 85586 42/60 42707 10200 20140 30089 40178 58008 333 56//6 84074==
85586,2017,02,17,00,00,AAXX 17004 85586 14960 32604 10172 20147 30083 40173 55006 60001 70200 80002 333 10210 56//6 83074=
85586,2017,02,17,03,00,AAXX 17034 85586 NIL=
85586,2017,02,17,06,00,AAXX 17064 85586 NIL=
85586,2017,02,17,09,00,AAXX 17094 85586 NIL=
85586,2017,02,17,12,00,AAXX 17124 85586 14256 60903 10150 20142 30066 40157 53017 60001 71022 86600 333 20117 30/// 55092 566// 70000 86706=
85586,2017,02,17,15,00,AAXX 17154 85586 42460 42408 10201 20152 30085 40174 51018 84500 333 566// 84613==
85586,2017,02,17,18,00,AAXX 17184 85586 14360 22411 10206 20155 30090 40179 50006 60001 7//11 82500 333 567// 82609=
85586,2017,02,17,21,00,AAXX 17214 85586 42/60 42512 10201 20119 30086 40175 58004 333 56//6 84075==
85586,2017,02,18,00,00,AAXX 18004 85586 14958 42306 10169 20106 30091 40181 53005 60001 70500 84030 333 10213 56/6/ 84365=
85586,2017,02,18,03,00,AAXX 18034 85586 NIL=
85586,2017,02,18,12,00,AAXX 18124 85586 14960 01403 10152 20058 30100 40191 53008 60001 70200 80000 333 20071 30/// 55088 70000=
85586,2017,02,18,15,00,AAXX 18154 85586 42960 02609 10190 20085 30101 40191 53001==
85586,2017,02,18,18,00,AAXX 18184 85586 14960 12415 10212 20114 30093 40182 58008 60001 70200 80001 333 56//6 81075=
85586,2017,02,18,21,00,AAXX 18214 85586 42960 02316 10199 20137 30083 40172 56010==
85586,2017,02,19,00,00,AAXX 19004 85586 14960 02305 10173 20127 30081 40171 55002 60001 70200 80000 333 10222=
85586,2017,02,19,12,00,AAXX 19124 85586 14960 0//// 10152 20102 30071 40162 53017 60001 70200 80000 333 20094 30/// 55116 70000=
85586,2017,02,19,15,00,AAXX 19154 85586 42960 02508 10208 20116 30076 40165 52005==
85586,2017,02,19,18,00,AAXX 19184 85586 14960 02415 10218 20141 30071 40160 58004 60001 70200 80000=
85586,2017,02,19,21,00,AAXX 19214 85586 42960 02515 10206 20148 30055 40144 58017==
85586,2017,02,20,00,00,AAXX 20004 85586 14960 00504 10173 20142 30055 40145 55001 60001 70200 80000 333 10228=
85586,2017,02,20,12,00,AAXX 20124 85586 14960 00000 10166 20137 30052 40142 53016 60001 70200 80000 333 20104 30/// 55111 70000=
85586,2017,02,20,15,00,AAXX 20154 85586 42960 02807 10203 20147 30063 40152 52012==
85586,2017,02,20,18,00,AAXX 20184 85586 14960 02610 10210 20161 30062 40151 57001 60001 70000 80000=
85586,2017,02,20,21,00,AAXX 20214 85586 42160 42413 10188 20164 30052 40141 58010=
85586,2017,02,21,00,00,AAXX 21004 85586 14960 00707 10182 20166 30052 40142 55001 60001 70000 80000 333 10221=
85586,2017,02,21,12,00,AAXX 21124 85586 14156 2//// 10148 20145 30056 40147 51015 60001 71022 82600 333 20130 30/// 55099 566// 70000 82701=
85586,2017,02,21,15,00,AAXX 21154 85586 41125 62908 10172 20150 30068 40158 53012 71000 87600 333 566// 87702==
85586,2017,02,21,18,00,AAXX 21184 85586 14260 12609 10194 20151 30062 40151 57006 60001 70100 81600 333 566// 81705=
85586,2017,02,21,21,00,AAXX 21214 85586 42360 22909 10200 20161 30042 40131 57020 82600 333 567// 82709==
85586,2017,02,22,00,00,AAXX 22004 85586 14958 00309 10181 20156 30034 40123 55008 60001 70500 80000 333 10209=
85586,2017,02,22,12,00,AAXX 22124 85586 14106 83607 10143 20140 30031 40122 53020 60001 74244 886// 333 20131 30/// 55111 567// 70000 88701=
85586,2017,02,22,15,00,AAXX 22154 85586 41108 83408 10159 20149 30043 40133 52012 74244 886// 333 567// 88702==
85586,2017,02,22,18,00,AAXX 22184 85586 14220 83007 10176 20158 30041 40131 56002 60001 71022 886// 333 566// 88704=
85586,2017,02,22,21,00,AAXX 22214 85586 41220 82706 10173 20157 30029 40119 57012 71022 886// 333 566// 88705==
85586,2017,02,23,00,00,AAXX 23004 85586 14115 82606 10161 20156 30032 40122 53003 69901 71055 885// 333 10185 566// 88602=
85586,2017,02,23,12,00,AAXX 23124 85586 14457 80203 10166 20161 30033 40123 52017 69961 70522 886// 333 20156 30/// 55000 566// 70006 88710=
85586,2017,02,23,15,00,AAXX 23154 85586 42360 22908 10196 20164 30045 40134 52014 82500 333 566// 82607==
85586,2017,02,23,18,00,AAXX 23184 85586 14256 82910 10186 20164 30044 40133 52001 60001 70500 885// 333 566// 88604=
85586,2017,02,23,21,00,AAXX 23214 85586 42260 82806 10182 20160 30036 40125 57008 886// 333 88706==
85586,2017,02,24,00,00,AAXX 24004 85586 141// 83303 10173 20162 30045 40135 53009 60001 71022 886// 333 10206 88703=
85586,2017,02,24,12,00,AAXX 24124 85586 14120 80000 10163 20158 30044 40134 53012 69941 75052 886// 333 20156 31/// 55027 70004 88703=
85586,2017,02,24,15,00,AAXX 24154 85586 41250 82905 10183 20163 30055 40145 51011 71022 886// 333 88705==
85586,2017,02,24,18,00,AAXX 24184 85586 14360 52908 10204 20169 30048 40137 58006 60001 70111 85500 333 566// 85609=
85586,2017,02,24,21,00,AAXX 24214 85586 42360 82705 10189 20164 30046 40135 56004 885// 333 566// 88608==
85586,2017,02,25,00,00,AAXX 25004 85586 14257 8//// 10175 20165 30037 40127 58008 60001 71022 886// 333 10205 566// 88704=
85586,2017,02,25,12,00,AAXX 25124 85586 14104 83103 10160 20158 30043 40133 52016 60001 72822 886// 333 20159 30/// 55016 566// 70000 88702=
85586,2017,02,25,15,00,AAXX 25154 85586 42360 83105 10189 20165 30046 40135 53003 886// 333 566// 88707==
85586,2017,02,25,18,00,AAXX 25184 85586 14120 83106 10191 20171 30043 40132 55002 69901 71022 886// 333 567// 88703=
85586,2017,02,25,21,00,AAXX 25214 85586 41258 83206 10185 20169 30039 40128 58005 70522 886// 333 567// 88704==
85586,2017,02,26,00,00,AAXX 26004 85586 14958 40000 10177 20164 30036 40126 57003 60001 70522 80001 333 10204 56//6 84075=
85586,2017,02,26,12,00,AAXX 26124 85586 14256 80000 10174 20164 30050 40140 53022 60001 70522 886// 333 20163 30/// 55011 567// 79999 88705=
85586,2017,02,26,15,00,AAXX 26154 85586 41458 83403 10202 20169 30061 40150 51011 70522 886// 333 567// 88710==
85586,2017,02,26,18,00,AAXX 26184 85586 14960 32808 10221 20171 30054 40142 58007 60001 70111 80001 333 56//6 83075=
85586,2017,02,26,21,00,AAXX 26214 85586 42960 02507 10223 20164 30048 40136 56006 333 56//6 81075==
85586,2017,02,27,00,00,AAXX 27004 85586 14960 12503 10194 20167 30050 40139 52002 60001 70100 80001 333 10232 56//6 81075=
85586,2017,02,27,12,00,AAXX 27124 85586 14460 50000 10183 20167 30063 40153 51014 60001 70300 85501 333 20141 30/// 55065 566/6 70000 85617 81075=
85586,2017,02,27,15,00,AAXX 27154 85586 42960 02708 10220 20166 30073 40162 53010 333 56//6 81075==
85586,2017,02,27,18,00,AAXX 27184 85586 14960 12808 10228 20165 30075 40163 50002 60001 70100 80001 333 56//6 81075=
85586,2017,02,27,21,00,AAXX 27214 85586 42960 02705 10224 20161 30067 40155 56008 333 56//6 81075==
85586,2017,02,28,00,00,AAXX 28004 85586 14960 12804 10198 20172 30074 40163 53005 60001 70200 80001 333 10246 56//6 81075=
85586,2017,02,28,12,00,AAXX 28124 85586 14960 10903 10178 20153 30071 40161 51012 60001 70100 80001 333 20138 30/// 55095 56//6 70000 81075=
85586,2017,02,28,15,00,AAXX 28154 85586 42460 02808 10221 20167 30073 40162 52001 81500 333 566// 81615==
85586,2017,02,28,18,00,AAXX 28184 85586 14460 22808 10228 20176 30062 40150 58010 60001 70300 82500 333 566// 82616=
85586,2017,02,28,21,00,AAXX 28214 85586 42460 02609 10223 20173 30046 40134 58016 81500 333 566// 81614==
85586,2017,03,01,00,00,AAXX 01004 85586 14360 52405 10194 20181 30046 40135 53001 60001 70100 85600 333 10238 566// 85708=
85586,2017,03,01,12,00,AAXX 01124 85586 14356 7//// 10170 20160 30033 40123 53011 60001 71022 87600 333 20151 30/// 55083 566// 70000 87707=
85586,2017,03,01,15,00,AAXX 01154 85586 42960 02708 10205 20158 30034 40123 55001 333 56//6 81073==
85586,2017,03,01,18,00,AAXX 01184 85586 14960 12709 10209 20168 30031 40120 57003 60001 70100 80001 333 56//6 81075=
85586,2017,03,01,21,00,AAXX 01214 85586 42460 02709 10211 20168 30024 40112 55007 81500 333 566// 81613==
85586,2017,03,02,00,00,AAXX 02004 85586 14460 82308 10200 20174 30031 40120 52006 60001 70222 885// 333 10228 566// 88611=
85586,2017,03,02,12,00,AAXX 02124 85586 14457 52603 10193 20173 30048 40137 53020 60001 70511 85500 333 20168 30/// 55081 566// 70000 85618=
85586,2017,03,02,15,00,AAXX 02154 85586 41558 42407 10214 20173 30055 40144 52007 70511=
85586,2017,03,02,18,00,AAXX 02184 85586 14860 22414 10235 20154 30047 40135 58007 60001 70111 82500 333 567// 82656=
85586,2017,03,02,21,00,AAXX 02214 85586 42960 02415 10234 20137 30033 40121 56015==
85586,2017,03,03,00,00,AAXX 03004 85586 14958 02103 10186 20124 30042 40131 53009 60001 70500 80000 333 10249=
85586,2017,03,03,12,00,AAXX 03124 85586 14860 4//// 10154 20118 30044 40134 53009 60001 70122 84030 333 20131 30/// 55057 56/6/ 70000 84356=
85586,2017,03,03,15,00,AAXX 03154 85586 41958 02909 10192 20139 30055 40144 53011 70500==
85586,2017,03,03,18,00,AAXX 03184 85586 14960 52415 10196 20122 30050 40139 56005 60001 70200 85030 333 56/6/ 85365=
85586,2017,03,03,21,00,AAXX 03214 85586 42/60 42416 10186 20122 30047 40136 57004 84030 333 56/6/ 84368==
85586,2017,03,04,00,00,AAXX 04004 85586 14958 02607 10154 20122 30063 40153 53017 60001 70500 80000 333 10213=
85586,2017,03,04,12,00,AAXX 04124 85586 14458 2//// 10147 20115 30065 40156 53006 60001 70511 82500 333 20097 30/// 55088 567// 70000 82614=
85586,2017,03,04,15,00,AAXX 04154 85586 42960 02708 10175 20122 30067 40157 53002==
85586,2017,03,04,18,00,AAXX 04184 85586 14960 02611 10196 20132 30062 40150 58005 60001 70200 80000=
85586,2017,03,04,21,00,AAXX 04214 85586 42960 02414 10198 20122 30045 40134 56016==
85586,2017,03,05,00,00,AAXX 05004 85586 14960 0//// 10157 20101 30047 40137 53001 60001 70200 80000 333 10206=
85586,2017,03,05,12,00,AAXX 05124 85586 14960 30000 10128 20079 30026 40117 53006 60001 70200 80001 333 20075 30/// 55114 56//6 70000 83175=
85586,2017,03,05,15,00,AAXX 05154 85586 42960 02509 10202 20099 30034 40123 51008==
85586,2017,03,05,18,00,AAXX 05184 85586 14960 12415 10196 20117 30034 40123 55000 60001 70200 80001 333 56//6 81075=
85586,2017,03,05,21,00,AAXX 05214 85586 42/60 42413 10178 20110 30033 40123 50001 333 56//6 84071==
85586,2017,03,06,00,00,AAXX 06004 85586 14960 30407 10159 20113 30036 40126 53003 60001 70311 80001 333 10216 56//6 83171=
85586,2017,03,06,12,00,AAXX 06124 85586 14960 0//// 10136 20089 30041 40132 51010 60001 70200 80000 333 20072 30/// 55095 70000=
85586,2017,03,06,15,00,AAXX 06154 85586 42/60 22507 10215 20095 30040 40128 57001 333 56//6 82075==
85586,2017,03,06,18,00,AAXX 06184 85586 14960 12610 10204 20117 30028 40117 58011 69901 70100 80001 333 56//6 81074=
85586,2017,03,06,21,00,AAXX 06214 85586 42960 02411 10201 20112 30014 40103 56014==
85586,2017,03,07,00,00,AAXX 07004 85586 14960 00306 10164 20108 30014 40104 53001 60001 70000 80000 333 10227=
85586,2017,03,07,12,00,AAXX 07124 85586 14960 50000 10116 20097 30018 40109 52015 60001 70100 80002 333 20091 30/// 55107 56//6 79999 85074=
85586,2017,03,07,15,00,AAXX 07154 85586 42/60 62906 10187 20128 30033 40122 51015 333 56//6 87074==
85586,2017,03,07,18,00,AAXX 07184 85586 14960 82906 10172 20130 30037 40127 53004 60001 70222 8803/ 333 56/6/ 88364=
85586,2017,03,07,21,00,AAXX 07214 85586 42/60 42807 10180 20144 30037 40126 50001 333 56//6 84075==
85586,2017,03,08,00,00,AAXX 08004 85586 14360 22704 10152 20132 30039 40129 50002 60001 70100 82600 333 10194 566// 82708=
85586,2017,03,08,12,00,AAXX 08124 85586 14105 8//// 10106 20105 30049 40141 53017 60001 72822 886// 333 20084 30/// 55032 566// 70000 88702=
85586,2017,03,08,15,00,AAXX 08154 85586 42260 42506 10146 20118 30061 40152 53013=
85586,2017,03,08,18,00,AAXX 08184 85586 14260 32409 10162 20130 30057 40147 55004 60001 70200 83600 333 566// 83704=
85586,2017,03,08,21,00,AAXX 08214 85586 42/60 22607 10185 20132 30051 40140 56005 83030 333 56/6/ 83366==
85586,2017,03,09,00,00,AAXX 09004 85586 14960 60602 10158 20137 30060 40150 53008 60001 70322 86030 333 10191 56/6/ 86363=
85586,2017,03,09,03,00,AAXX 09034 85586 NIL=
85586,2017,03,09,12,00,AAXX 09124 85586 14960 02005 10150 20145 30089 40180 53019 69981 70200 80000 333 20131 31/// 55076 70008=
85586,2017,03,09,15,00,AAXX 09154 85586 42960 02410 10198 20138 30103 40192 53014==
85586,2017,03,09,18,00,AAXX 09184 85586 14960 02420 10209 20116 30094 40183 58009 60001 70200 80000=
85586,2017,03,09,21,00,AAXX 09214 85586 42960 02315 10215 20091 30076 40165 58017==
85586,2017,03,10,00,00,AAXX 10004 85586 14960 02110 10193 20072 30078 40167 53001 60001 70200 80000 333 10222=
85586,2017,03,10,12,00,AAXX 10124 85586 14960 00803 10155 20086 30068 40158 51014 60001 70200 80000 333 20112 30/// 55111 70000=
85586,2017,03,10,15,00,AAXX 10154 85586 42960 02511 10189 20100 30075 40164 53007==
85586,2017,03,10,18,00,AAXX 10184 85586 14960 02415 10188 20099 30077 40167 51002 60001 70200 80000=
85586,2017,03,10,21,00,AAXX 10214 85586 42960 02413 10199 20096 30066 40155 57011==
85586,2017,03,11,00,00,AAXX 11004 85586 14960 0//// 10158 20076 30073 40163 53004 60001 70200 80000 333 10216=
85586,2017,03,11,12,00,AAXX 11124 85586 14960 0//// 10146 20086 30092 40183 53014 60001 70200 80000 333 20065 30/// 55115 70000=
85586,2017,03,11,15,00,AAXX 11154 85586 42960 02307 10214 20101 30097 40186 51006==
85586,2017,03,11,18,00,AAXX 11184 85586 14960 02418 10195 20119 30091 40180 56007 60001 70000 80000=
85586,2017,03,11,21,00,AAXX 11214 85586 42960 02316 10203 20108 30080 40169 56011==
85586,2017,03,12,00,00,AAXX 12004 85586 14960 02404 10164 20094 30086 40176 53006 60001 70000 80000 333 10222=
85586,2017,03,12,12,00,AAXX 12124 85586 14960 01407 10169 20053 30045 40135 57008 60001 70000 80000 333 20126 30/// 55118 70000=
85586,2017,03,12,15,00,AAXX 12154 85586 42960 02408 10216 20086 30037 40125 58008==
85586,2017,03,12,18,00,AAXX 12184 85586 14960 02513 10193 20107 30023 40112 58014 60001 70200 80000=
85586,2017,03,12,21,00,AAXX 12214 85586 42960 02307 10191 20107 30010 40099 56013==
85586,2017,03,13,00,00,AAXX 13004 85586 14960 00505 10143 20100 30008 40098 55002 60001 70200 80000 333 10251=
85586,2017,03,13,12,00,AAXX 13124 85586 14256 80203 10117 20100 30024 40115 53020 60001 70500 886// 333 20067 30/// 55116 567// 70000 88705=
85586,2017,03,13,15,00,AAXX 13154 85586 41256 62709 10152 20124 30041 40131 52017 70522 87600 333 567// 87705==
85586,2017,03,13,18,00,AAXX 13184 85586 14360 33113 10167 20129 30035 40125 57006 60001 70200 81602 333 566/6 81708 82073=
85586,2017,03,13,21,00,AAXX 13214 85586 42/60 63108 10163 20129 30032 40122 57003 333 56//6 86073==
85586,2017,03,14,00,00,AAXX 14004 85586 14460 83403 10152 20129 30031 40121 55001 60001 70222 886// 333 10181 88710=
85586,2017,03,14,12,00,AAXX 14124 85586 14560 80104 10159 20123 30057 40147 53013 60001 70222 885// 333 20139 30/// 55049 70000 88622=
85586,2017,03,14,15,00,AAXX 14154 85586 42560 63407 10191 20122 30065 40154 50008 87500 333 566// 87632==
85586,2017,03,14,18,00,AAXX 14184 85586 14660 23013 10192 20141 30063 40152 57002 60001 70111 82500 333 566// 82640=
85586,2017,03,14,21,00,AAXX 14214 85586 42960 03009 10187 20140 30058 40147 55005==
85586,2017,03,15,00,00,AAXX 15004 85586 14260 82205 10160 20147 30073 40163 53015 60001 70300 885// 333 10206 566// 88604=
85586,2017,03,15,12,00,AAXX 15124 85586 14960 2//// 10129 20124 30068 40159 53006 60001 70100 80001 333 20097 30/// 55076 56//6 70000 82075=
85586,2017,03,15,15,00,AAXX 15154 85586 42/60 22508 10182 20131 30070 40160 52002 333 56//6 82072==
85586,2017,03,15,18,00,AAXX 15184 85586 14960 12413 10182 20136 30066 40156 58004 60001 70100 80001 333 56//6 81075=
85586,2017,03,15,21,00,AAXX 15214 85586 42960 02611 10169 20129 30063 40153 55002 333 56//6 81075==
85586,2017,03,16,00,00,AAXX 16004 85586 14460 43505 10145 20126 30072 40163 53009 60001 70300 84500 333 10201 566// 84611=
85586,2017,03,16,12,00,AAXX 16124 85586 14357 20803 10121 20113 30065 40157 53013 60001 70500 82500 333 20101 30/// 55103 566// 70000 82608=
85586,2017,03,16,15,00,AAXX 16154 85586 41256 83007 10150 20125 30076 40167 51011 70522 885// 333 566// 88606==
85586,2017,03,16,18,00,AAXX 16184 85586 14358 83207 10168 20134 30082 40172 52006 60001 70522 885// 333 566// 88609=
85586,2017,03,16,21,00,AAXX 16214 85586 41458 83307 10159 20129 30075 40165 56007 70522 885// 333 566// 88610==
85586,2017,03,17,00,00,AAXX 17004 85586 14360 83604 10145 20124 30081 40173 51006 60001 70222 886// 333 10169 566// 88708=
85586,2017,03,17,12,00,AAXX 17124 85586 14225 83203 10128 20119 30091 40183 53014 60001 71022 886// 333 20127 30/// 55007 566// 70000 88705=
85586,2017,03,17,15,00,AAXX 17154 85586 41257 82904 10137 20119 30094 40185 50003 70522 886// 333 566// 88706==
85586,2017,03,17,18,00,AAXX 17184 85586 14460 52607 10161 20117 30089 40179 58005 60001 70122 85500 333 566// 85612=
85586,2017,03,17,21,00,AAXX 17214 85586 42460 42707 10164 20122 30077 40167 56012 84500 333 566// 84613==
85586,2017,03,18,00,00,AAXX 18004 85586 14460 20000 10132 20116 30075 40166 58002 60001 70100 82500 333 10179 566// 82613=
85586,2017,03,18,12,00,AAXX 18124 85586 14120 8//// 10124 20118 30061 40152 53011 60001 71022 886// 333 20124 30/// 55033 566// 70000 88703=
85586,2017,03,18,15,00,AAXX 18154 85586 41358 22706 10157 20121 30067 40157 51007 70522 82500 333 566// 82609==
85586,2017,03,18,18,00,AAXX 18184 85586 14360 52609 10162 20128 30071 40161 50005 60001 70222 85600 333 566// 85707=
85586,2017,03,18,21,00,AAXX 18214 85586 42260 83006 10146 20123 30067 40158 57005 886// 333 88706==
85586,2017,03,19,00,00,AAXX 19004 85586 14360 83103 10140 20121 30066 40157 55001 60001 70222 886// 333 10172 88708=
85586,2017,03,19,12,00,AAXX 19124 85586 14360 83603 10148 20132 30084 40175 53017 60001 70522 886// 333 20140 30/// 55030 70000 88709=
85586,2017,03,19,15,00,AAXX 19154 85586 42360 82806 10161 20136 30089 40180 50005 886// 333 88708==
85586,2017,03,19,18,00,AAXX 19184 85586 14360 83007 10161 20129 30085 40175 55004 60001 70222 886// 333 88709=
85586,2017,03,19,21,00,AAXX 19214 85586 42260 82608 10151 20130 30086 40177 53001 886// 333 88706==
85586,2017,03,20,00,00,AAXX 20004 85586 14460 73404 10148 20130 30089 40180 53003 60001 70222 87600 333 10179 566// 87710=
85586,2017,03,20,12,00,AAXX 20124 85586 14130 80904 10120 20115 30088 40180 53010 60001 71022 886// 333 20118 30/// 55018 70000 88702=
85586,2017,03,20,15,00,AAXX 20154 85586 42960 02707 10160 20126 30090 40181 53003 333 56//6 81075==
85586,2017,03,20,18,00,AAXX 20184 85586 14260 22808 10168 20130 30079 40169 58012 60001 70100 82500 333 566// 82606=
85586,2017,03,20,21,00,AAXX 20214 85586 42/60 22708 10174 20128 30076 40166 55003 333 56//6 82075==
85586,2017,03,21,00,00,AAXX 21004 85586 14960 13204 10145 20124 30073 40164 55003 60001 70100 80001 333 10182 56//6 81075=
85586,2017,03,21,12,00,AAXX 21124 85586 14960 00000 10111 20106 30064 40156 53017 60001 70200 80000 333 20081 30/// 55103 70000=
85586,2017,03,21,15,00,AAXX 21154 85586 41358 83406 10155 20128 30078 40169 52013 70522 885// 333 566// 88607==
85586,2017,03,21,18,00,AAXX 21184 85586 14460 63210 10182 20138 30075 40165 57002 60001 70300 86500 333 566// 86610=
85586,2017,03,21,21,00,AAXX 21214 85586 42460 63108 10169 20135 30070 40160 57005 87500 333 566// 87612==
85586,2017,03,22,00,00,AAXX 22004 85586 14460 73403 10157 20134 30072 40162 53001 60001 70222 87500 333 10190 566// 87612=
85586,2017,03,22,03,00,AAXX 22034 85586 NIL=
85586,2017,03,22,12,00,AAXX 22124 85586 14350 83004 10143 20124 30070 40161 52011 60001 70522 885// 333 20143 30/// 55032 566// 70000 88609=
85586,2017,03,22,15,00,AAXX 22154 85586 41358 82805 10149 20126 30085 40176 52015 70522 885// 333 566// 88609==
85586,2017,03,22,18,00,AAXX 22184 85586 14360 83006 10165 20135 30082 40172 57003 60001 70222 885// 333 566// 88609=
85586,2017,03,22,21,00,AAXX 22214 85586 42460 82706 10162 20135 30074 40164 56008 885// 333 566// 88610==
85586,2017,03,23,00,00,AAXX 23004 85586 14460 8//// 10153 20126 30068 40159 56006 60001 70222 885// 333 10170 566// 88613=
85586,2017,03,23,12,00,AAXX 23124 85586 14220 8//// 10137 20129 30062 40153 53012 60001 71022 886// 333 20137 30/// 55000 566// 70000 88704=
85586,2017,03,23,15,00,AAXX 23154 85586 41220 83205 10148 20134 30085 40176 51022 71022 886// 333 566// 88705==
85586,2017,03,23,18,00,AAXX 23184 85586 14456 83007 10170 20137 30084 40174 50002 60001 70522 885// 333 566// 88617=
85586,2017,03,23,21,00,AAXX 23214 85586 41557 82708 10160 20139 30075 40165 56011 70522 885// 333 566// 88620==
85586,2017,03,24,00,00,AAXX 24004 85586 14260 83203 10154 20141 30075 40166 52001 60001 70222 888// 333 10174 566// 82806 88618=
85586,2017,03,24,12,00,AAXX 24124 85586 14560 80000 10160 20137 30076 40166 53011 60001 70222 885// 333 20153 30/// 55000 566// 70000 88626=
85586,2017,03,24,15,00,AAXX 24154 85586 42560 83304 10181 20119 30083 40173 52008 885// 333 566// 88626==
85586,2017,03,24,18,00,AAXX 24184 85586 14560 83204 10177 20124 30082 40172 50002 60001 70222 885// 333 566// 88629=
85586,2017,03,24,21,00,AAXX 24214 85586 NIL=
85586,2017,03,25,00,00,AAXX 25004 85586 14760 72603 10167 20119 30067 40157 58005 60001 70222 87500 333 10209 566// 87650=
85586,2017,03,25,12,00,AAXX 25124 85586 14660 30000 10117 20108 30060 40152 52016 60001 70211 83500 333 20095 30/// 55001 566// 70000 83644=
85586,2017,03,25,15,00,AAXX 25154 85586 42660 02808 10184 20118 30070 40160 52010 81500 333 566// 81633==
85586,2017,03,25,18,00,AAXX 25184 85586 14960 12708 10199 20118 30079 40168 51010 60001 70200 80002 333 56//6 81073=
85586,2017,03,25,21,00,AAXX 25214 85586 42660 22806 10187 20128 30075 40165 56003 81501 333 566/6 81633 83075==
85586,2017,03,26,00,00,AAXX 26004 85586 14960 10000 10156 20128 30077 40168 54000 60001 70200 80001 333 10209 56//6 81075=
85586,2017,03,26,03,00,AAXX 26034 85586 NIL=
85586,2017,03,26,12,00,AAXX 26124 85586 14960 51003 10128 20109 30076 40167 52005 60001 70222 80002 333 20103 30/// 55090 56//6 70000 85075=
85586,2017,03,26,15,00,AAXX 26154 85586 NIL=
85586,2017,03,26,18,00,AAXX 26184 85586 14960 22412 10223 20103 30073 40161 56012 60001 70122 80001 333 56//6 82074=
85586,2017,03,26,21,00,AAXX 26214 85586 42/60 22413 10197 20118 30063 40152 57010 333 56//6 82075==
85586,2017,03,27,00,00,AAXX 27004 85586 14960 12704 10158 20137 30067 40157 53004 60001 70200 80001 333 10224 56//6 81075=
85586,2017,03,27,12,00,AAXX 27124 85586 14158 20903 10110 20107 30071 40163 52015 60001 71011 82501 333 20082 30/// 55084 566/6 70000 82602 82075=
85586,2017,03,27,15,00,AAXX 27154 85586 42960 02806 10168 20130 30073 40163 50003 333 56//6 81075==
85586,2017,03,27,18,00,AAXX 27184 85586 14260 62511 10177 20150 30070 40160 57002 60001 70222 86600 333 566// 86704=
85586,2017,03,27,21,00,AAXX 27214 85586 42960 02512 10185 20140 30061 40151 56010==
85586,2017,03,28,00,00,AAXX 28004 85586 14960 03404 10145 20106 30059 40150 57003 60001 70000 80000 333 10196=
85586,2017,03,28,12,00,AAXX 28124 85586 14960 0//// 10107 20099 30061 40153 52009 60001 70000 80000 333 20079 30/// 55089 70000=
85586,2017,03,28,15,00,AAXX 28154 85586 42960 02807 10184 20108 30071 40161 51011==
85586,2017,03,28,18,00,AAXX 28184 85586 14960 02509 10191 20134 30070 40159 58001 60001 70200 80000=
85586,2017,03,28,21,00,AAXX 28214 85586 42460 02809 10181 20146 30067 40157 55003 81500 333 567// 81610==
85586,2017,03,29,00,00,AAXX 29004 85586 14356 52904 10161 20145 30073 40163 53007 60001 70511 85600 333 10195 567// 85709=
85586,2017,03,29,12,00,AAXX 29124 85586 14260 51103 10109 20106 30082 40174 53019 60001 70311 85600 333 20094 30/// 55104 567// 70000 85706=
85586,2017,03,29,15,00,AAXX 29154 85586 NIL=
85586,2017,03,29,18,00,AAXX 29184 85586 14960 32609 10185 20138 30097 40187 52001 60001 70111 83030 333 56/6/ 83361=
85586,2017,03,29,21,00,AAXX 29214 85586 42/60 42707 10171 20137 30093 40183 58005 84030 333 56/6/ 84365==
85586,2017,03,30,00,00,AAXX 30004 85586 14460 30000 10153 20140 30097 40188 53005 60001 70211 83500 333 10192 566// 83610=
85586,2017,03,30,12,00,AAXX 30124 85586 14960 01103 10104 20099 30066 40156 52003 60001 70200 80000 333 20078 30/// 55071 70000=
85586,2017,03,30,15,00,AAXX 30154 85586 42960 02610 10184 20116 30068 40158 50002==
85586,2017,03,30,18,00,AAXX 30184 85586 14960 02514 10191 20125 30057 40147 58010 60001 70200 80000=
85586,2017,03,30,21,00,AAXX 30214 85586 42960 02414 10183 20130 30046 40135 56012==
85586,2017,03,31,00,00,AAXX 31004 85586 14960 00000 10148 20114 30048 40139 53002 60001 70200 80000 333 10200=
85586,2017,03,31,12,00,AAXX 31124 85586 14960 01202 10092 20086 30065 40158 52012 60001 70200 80000 333 20067 30/// 55106 70000=
85586,2017,03,31,15,00,AAXX 31154 85586 42960 02906 10170 20124 30077 40167 51013==
85586,2017,03,31,18,00,AAXX 31184 85586 14360 12510 10165 20127 30078 40168 50001 60001 70100 81600 333 566// 81707=
85586,2017,03,31,21,00,AAXX 31214 85586 42360 42607 10158 20131 30080 40171 53002 84600 333 566// 84708==
85586,2017,04,01,00,00,AAXX 01004 85586 14360 82904 10148 20134 30087 40178 52006 60001 70222 886// 333 10176 566// 88707=
85586,2017,04,01,12,00,AAXX 01124 85586 14460 70000 10128 20109 30102 40194 52018 60001 70222 87500 333 20119 30/// 55092 566// 70000 87610=
85586,2017,04,01,15,00,AAXX 01154 85586 42560 22405 10166 20112 30116 40207 51015 83500 333 566// 83621==
85586,2017,04,01,18,00,AAXX 01184 85586 14860 32607 10186 20115 30119 40209 50003 60001 70100 83030 333 56/6/ 83357=
85586,2017,04,01,21,00,AAXX 01214 85586 42960 02806 10180 20127 30127 40217 50008 81030 333 56/6/ 81365==
85586,2017,04,02,00,00,AAXX 02004 85586 14960 02403 10126 20109 30129 40221 50001 60001 70000 80000 333 10196=
85586,2017,04,02,12,00,AAXX 02124 85586 14960 01103 10094 20092 30123 40216 51013 60001 70000 80000 333 20063 30/// 55083 70000=
85586,2017,04,02,15,00,AAXX 02154 85586 42960 01707 10203 20097 30123 40213 50001==
85586,2017,04,02,18,00,AAXX 02184 85586 14960 02415 10203 20108 30095 40184 57027 60001 70200 80000=
85586,2017,04,02,21,00,AAXX 02214 85586 NIL=
85586,2017,04,03,00,00,AAXX 03004 85586 14960 00903 10151 20101 30068 40159 56009 60001 70200 80000 333 10213=
85586,2017,04,03,12,00,AAXX 03124 85586 14960 41003 10098 20081 30046 40138 53008 60001 70211 80001 333 20078 30/// 55105 56//6 70000 84075=
85586,2017,04,03,15,00,AAXX 03154 85586 42/60 42609 10184 20111 30045 40134 58001 333 56//6=
85586,2017,04,03,18,00,AAXX 03184 85586 14960 72513 10177 20127 30036 40126 58009 60001 70222 80002 333 56//6 87072=
85586,2017,04,03,21,00,AAXX 03214 85586 42/60 62703 10191 20125 30034 40123 56003 333 56//6 87073==
85586,2017,04,04,00,00,AAXX 04004 85586 14960 70303 10152 20116 30049 40139 53014 60001 70222 80002 333 10196 56//6 87073=
85586,2017,04,04,12,00,AAXX 04124 85586 14260 80903 10116 20111 30073 40165 52017 60001 70222 85602 333 20089 30/// 55045 566/6 70000 85706 87071=
85586,2017,04,04,15,00,AAXX 04154 85586 42/60 43006 10175 20129 30087 40177 51014 333 56//6=
85586,2017,04,04,18,00,AAXX 04184 85586 14960 12808 10174 20124 30086 40176 58001 60001 70200 80001 333 56//6 81075=
85586,2017,04,04,21,00,AAXX 04214 85586 42/60 22707 10168 20126 30092 40182 53005 333 56//6 82075==
85586,2017,04,05,00,00,AAXX 05004 85586 14960 10304 10139 20114 30098 40189 53007 60001 70200 80001 333 10183 56//6 81075=
85586,2017,04,05,12,00,AAXX 05124 85586 14960 00000 10108 20102 30090 40182 52002 60001 70200 80000 333 20081 30/// 55093 70000=
85586,2017,04,05,15,00,AAXX 0515/ 85586 42960 0//// 10219 20115 30079 40168 58010==
85586,2017,04,05,18,00,AAXX 05184 85586 14960 02416 10190 20128 30066 40155 58013 60001 70200 80000=
85586,2017,04,05,21,00,AAXX 05214 85586 42960 02412 10199 20125 30054 40143 56012 333 56//6 81075==
85586,2017,04,06,00,00,AAXX 06004 85586 14960 10304 10146 20116 30066 40157 53011 60001 70200 80001 333 10233 56//6 81075=
85586,2017,04,06,12,00,AAXX 06124 85586 14960 1//// 10094 20086 30043 40135 50004 60001 70200 80001 333 20073 30/// 55101 56//6 70000 81075=
85586,2017,04,06,15,00,AAXX 06154 85586 42/60 22605 10181 20113 30044 40134 53001 333 56//6 82075==
85586,2017,04,06,18,00,AAXX 06184 85586 14960 42511 10176 20136 30043 40133 58001 60001 70300 80001 333 56//6 84075=
85586,2017,04,06,21,00,AAXX 06214 85586 42460 62512 10161 20136 30046 40136 53004 82602 333 566/6 82710 86074==
85586,2017,04,07,00,00,AAXX 07004 85586 14260 83203 10155 20142 30058 40148 53010 60001 70222 886// 333 10186 566// 88706=
85586,2017,04,07,12,00,AAXX 07124 85586 14560 4//// 10131 20125 30095 40187 53015 60081 70122 84500 333 20127 32/// 55083 566// 70083 84620=
85586,2017,04,07,15,00,AAXX 07154 85586 42460 22607 10164 20137 30103 40194 51009 83500 333 566// 83613==
85586,2017,04,07,18,00,AAXX 07184 85586 14960 02610 10170 20118 30098 40188 58005 60001 70000 80000=
85586,2017,04,07,21,00,AAXX 07214 85586 42960 02508 10165 20109 30092 40182 55006==
85586,2017,04,08,00,00,AAXX 08004 85586 14960 0//// 10132 20113 30093 40184 53001 60001 70000 80000 333 10182=
85586,2017,04,08,12,00,AAXX 08124 85586 14960 11303 10099 20080 30079 40171 53011 60001 70000 80001 333 20067 31/// 55082 56//6 70000 81075=
85586,2017,04,08,15,00,AAXX 08154 85586 42960 02807 10160 20110 30083 40173 50005==
85586,2017,04,08,18,00,AAXX 08184 85586 14460 22709 10175 20082 30085 40175 50001 60001 70200 82500 333 566// 82617=
85586,2017,04,08,21,00,AAXX 08214 85586 42960 02413 10167 20115 30091 40181 53005==
85586,2017,04,09,00,00,AAXX 09004 85586 14960 00000 10122 20091 30100 40192 52009 60001 70200 80000 333 10187=
85586,2017,04,09,12,00,AAXX 09124 85586 14960 01003 10089 20080 30073 40166 51005 60001 70200 80000 333 20058 30/// 55105 70000=
85586,2017,04,09,15,00,AAXX 09154 85586 42960 02605 10173 20095 30072 40162 54000==
85586,2017,04,09,18,00,AAXX 09184 85586 14960 02413 10171 20112 30066 40156 58006 60001 70200 80000=
85586,2017,04,09,21,00,AAXX 09214 85586 42960 02509 10168 20120 30067 40157 54000==
85586,2017,04,10,00,00,AAXX 10004 85586 14960 00703 10116 20104 30079 40171 51013 60001 70200 80000 333 10178=
85586,2017,04,10,12,00,AAXX 10124 85586 14960 00000 10084 20077 30081 40174 53001 60001 70200 80000 333 20066 30/// 55101 70000=
85586,2017,04,10,15,00,AAXX 10154 85586 42960 02504 10183 20110 30082 40172 50002==
85586,2017,04,10,18,00,AAXX 10184 85586 14960 02411 10189 20108 30065 40154 58018 60001 70200 80000=
85586,2017,04,11,12,00,AAXX 11124 85586 14357 40000 10083 20079 30041 40134 53003 60001 70500 84500 333 20068 30/// 55103 566// 70000 84607=
85586,2017,04,11,15,00,AAXX 11154 85586 NIL=
85586,2017,04,11,18,00,AAXX 11184 85586 14220 83007 10142 20123 30031 40122 58013 60001 71044 885// 333 566// 88604=
85586,2017,04,11,21,00,AAXX 11214 85586 NIL=
85586,2017,04,12,00,00,AAXX 12004 85586 14360 83405 10146 20128 30043 40134 52014 60001 70222 885// 333 10158 566// 88608=
85586,2017,04,12,03,00,AAXX 12034 85586 NIL=
85586,2017,04,12,06,00,AAXX 12064 85586 NIL=
85586,2017,04,12,09,00,AAXX 12094 85586 NIL=
85586,2017,04,12,12,00,AAXX 12124 85586 14220 81103 10118 20110 30050 40142 52007 60001 71022 886// 333 20116 30/// 55021 566// 70000 88705=
85586,2017,04,12,15,00,AAXX 12154 85586 41458 43506 10173 20123 30064 40154 50014 70522 84500 333 566// 84615==
85586,2017,04,12,18,00,AAXX 12184 85586 14960 12807 10193 20126 30054 40143 58010 60001 70100 80001 333 56//6 81074=
85586,2017,04,12,21,00,AAXX 12214 85586 42960 23006 10183 20126 40137 55006 80002 333 56006 82074=
85586,2017,04,13,00,00,AAXX 13004 85586 14960 00000 10137 20118 30048 40139 53001 60001 70000 80000 333 10197=
85586,2017,04,13,12,00,AAXX 13124 85586 14460 31203 10099 20096 30053 40145 52015 60001 70111 83500 333 20081 31/// 55062 566// 70000 83615=
85586,2017,04,13,15,00,AAXX 1315/ 85586 42560 2//// 10186 20117 30067 40157 51014 83500 333 566// 83630==
85586,2017,04,13,18,00,AAXX 13184 85586 14960 02507 10197 20111 30054 40143 58012 60001 70000 80000=
85586,2017,04,13,21,00,AAXX 13214 85586 42960 02908 10177 20137 30049 40139 55004==
85586,2017,04,14,00,00,AAXX 14004 85586 14960 02502 10142 20131 30051 40142 52003 60001 70000 80000 333 10205=
85586,2017,04,14,12,00,AAXX 14124 85586 14105 8//// 10116 20114 30067 40159 53014 60001 72822 886// 333 20107 31/// 55100 566// 70000 88703=
85586,2017,04,14,15,00,AAXX 14154 85586 42960 01304 10189 20123 30075 40165 51009==
85586,2017,04,14,18,00,AAXX 14184 85586 14960 02413 10194 20143 30072 40161 58002 60001 70000 80000=
85586,2017,04,14,21,00,AAXX 14214 85586 42960 02413 10182 20145 30071 40161 55003==
85586,2017,04,15,00,00,AAXX 15004 85586 14958 02203 10154 20094 30072 40163 53001 60001 70500 80000 333 10199=
85586,2017,04,15,03,00,AAXX 15034 85586 NIL=
85586,2017,04,15,12,00,AAXX 15124 85586 14960 01103 10093 20084 30064 40156 53007 60001 70200 80000 333 20079 30/// 55065 70000=
85586,2017,04,15,15,00,AAXX 15154 85586 42960 02705 10188 20124 30070 40159 52007==
85586,2017,04,15,18,00,AAXX 15184 85586 14960 62510 10170 20130 30067 40157 58004 60001 70300 80001 333 56//6 86075=
85586,2017,04,15,21,00,AAXX 15214 85586 41/58 62507 10173 20135 30066 40156 55000 70511 86030 333 56/6/ 86365==
85586,2017,04,16,00,00,AAXX 16004 85586 14956 40704 10147 20128 30066 40157 55001 60001 70511 84030 333 10195 56/6/ 84365=
85586,2017,04,16,12,00,AAXX 16124 85586 14956 7//// 10102 20096 30041 40133 53002 60001 70511 80001 333 20096 30/// 55074 56//6 70000 87075=
85586,2017,04,16,15,00,AAXX 1615/ 85586 41/58 6//// 10167 20127 30038 40128 58001 70511 333 56//6 87075==
85586,2017,04,16,18,00,AAXX 16184 85586 14960 72607 10168 20134 30041 40131 50001 60001 70222 80002 333 56//6 87071=
85586,2017,04,16,21,00,AAXX 16214 85586 42460 62708 10146 20128 30042 40133 50001=
85586,2017,04,17,00,00,AAXX 17004 85586 14260 83604 10140 20127 30052 40143 53005 60001 70222 886// 333 10181 88705=
85586,2017,04,17,12,00,AAXX 17124 85586 14460 71203 10125 20111 30047 40138 52007 60001 70222 87500 333 20125 30/// 55005 566// 70000 87610=
85586,2017,04,17,15,00,AAXX 17154 85586 42460 22605 10155 20111 30048 40138 52001 81501 333 566/6 81616 82075==
85586,2017,04,17,18,00,AAXX 17184 85586 14960 42610 10172 20126 30044 40134 56003 60001 70311 80002 333 56//6 84075=
85586,2017,04,17,21,00,AAXX 17214 85586 42360 62609 10159 20136 30039 40129 55004 87600 333 566// 87708==
85586,2017,04,18,00,00,AAXX 18004 85586 14360 82804 10151 20132 30044 40134 53002 60001 70222 886// 333 10177 88708=
85586,2017,04,18,12,00,AAXX 18124 85586 14460 31203 10118 20112 30058 40150 53010 60001 70211 81602 333 20117 30/// 55069 566/6 70000 81710 83070=
85586,2017,04,18,15,00,AAXX 18154 85586 42/60 43607 10181 20126 30069 40159 50014 333 56//6 84075==
85586,2017,04,18,18,00,AAXX 18184 85586 14460 52610 10172 20130 30071 40162 50004 60001 70300 85500 333 566// 85613=
85586,2017,04,18,21,00,AAXX 18214 85586 42460 42511 10168 20132 30083 40173 53010 84500 333 566// 84618==
85586,2017,04,19,00,00,AAXX 19004 85586 14960 00804 10137 20124 30080 40171 56002 60001 70011 80000 333 10186=
85586,2017,04,19,12,00,AAXX 19124 85586 14960 7//// 10118 20112 30098 40190 53015 60001 70222 80002 333 20100 30/// 55070 56//6 70000 87070=
85586,2017,04,19,15,00,AAXX 1915/ 85586 42/60 6//// 10179 20137 30107 40197 50007 87030 333 56/6/ 87368==
85586,2017,04,19,18,00,AAXX 19184 85586 14960 82606 10176 20138 30112 40202 51008 60001 70222 8803/ 333 56/6/ 88366=
85586,2017,04,19,21,00,AAXX 19214 85586 NIL=
85586,2017,04,20,00,00,AAXX 20004 85586 14960 8//// 10160 20140 30116 40207 50008 60001 70222 8803/ 333 10190 56/6/ 88360=
85586,2017,04,20,12,00,AAXX 20124 85586 14520 80903 10145 20140 30119 40210 50005 60011 75255 881// 333 20144 30/// 55009 566// 70010 88825=
85586,2017,04,20,15,00,AAXX 20154 85586 41460 80505 10163 20148 30128 40219 50010 70255 885// 333 566// 88618==
85586,2017,04,20,18,00,AAXX 20184 85586 14560 82903 10196 20141 30112 40202 58015 69921 70222 885// 333 566// 88626=
85586,2017,04,20,21,00,AAXX 20214 85586 42560 62506 10186 20131 30105 40195 58008 87500 333 566// 87628==
85586,2017,04,21,00,00,AAXX 21004 85586 14960 02003 10156 20142 30105 40196 53001 60001 70000 80000 333 10199=
85586,2017,04,21,12,00,AAXX 21124 85586 14360 4//// 10132 20126 30099 40191 53001 60001 70100 81602 333 20123 31/// 55000 566/6 70002 81708 84073=
85586,2017,04,21,15,00,AAXX 21154 85586 42/60 21607 10200 20142 30098 40187 50001 333 56//6 82074==
85586,2017,04,21,18,00,AAXX 21184 85586 14960 22512 10210 20135 30082 40171 58016 60001 70100 80002 333 56//6 82073=
85586,2017,04,21,21,00,AAXX 21214 85586 42/60 22413 10185 20138 30070 40160 55014 333 56//6 82074==
85586,2017,04,22,00,00,AAXX 22004 85586 14960 0//// 10139 20118 30081 40172 53011 60001 70000 80000 333 10240=
85586,2017,04,22,12,00,AAXX 22124 85586 14960 41503 10113 20101 30097 40189 53007 60001 70100 80002 333 20088 31/// 55094 56//6 70000 84074=
85586,2017,04,22,15,00,AAXX 22154 85586 42960 01706 10199 20112 30096 40185 50001 333 56//6 81074==
85586,2017,04,22,18,00,AAXX 22184 85586 14960 32413 10206 20111 30069 40158 57026 60001 70100 80001 333 56//6 83075=
85586,2017,04,22,21,00,AAXX 22214 85586 42960 02411 10182 20109 30056 40146 56015==
85586,2017,04,23,00,00,AAXX 23004 85586 14956 0//// 10127 20097 30069 40160 53012 60001 70500 80000 333 10230=
85586,2017,04,23,12,00,AAXX 23124 85586 14960 4//// 10083 20059 30083 40176 53010 60001 70200 80001 333 20074 30/// 55091 56//6 70000 84075=
85586,2017,04,23,15,00,AAXX 23154 85586 42/60 42506 10182 20094 30093 40183 50011 84030 333 56/6/ 84365==
85586,2017,04,23,18,00,AAXX 23184 85586 14960 32414 10185 20107 30081 40171 58012 60001 70200 83030 333 56/6/ 83365=
85586,2017,04,23,21,00,AAXX 23214 85586 NIL=
85586,2017,04,24,00,00,AAXX 24004 85586 14956 01905 10140 20069 30096 40187 52014 60001 70500 80000 333 10199=
85586,2017,04,24,03,00,AAXX 24034 85586 NIL=
85586,2017,04,24,12,00,AAXX 24124 85586 14960 4//// 10067 20058 30084 40178 56001 60001 70300 84030 333 20052 30/// 55085 56/6/ 70000 84365=
85586,2017,04,24,15,00,AAXX 24154 85586 42/60 62506 10152 20087 30086 40177 50003 333 56//6 86075==
85586,2017,04,24,18,00,AAXX 24184 85586 14960 72411 10163 20091 30071 40161 58014 60001 70222 87030 333 56/6/ 87367=
85586,2017,04,24,21,00,AAXX 24214 85586 42560 82306 10153 20088 30070 40161 55005 81532 333 56666 81633=
85586,2017,04,25,00,00,AAXX 25004 85586 14960 31003 10112 20084 30079 40171 53009 60001 70111 80001 333 10172 56//6 83075=
85586,2017,04,25,03,00,AAXX 25034 85586 NIL=
85586,2017,04,25,12,00,AAXX 25124 85586 14960 10000 10077 20071 30120 40213 53023 60001 70200 80001 333 20074 30/// 55022 56//6 70000 81075=
85586,2017,04,25,15,00,AAXX 25154 85586 42560 21605 10169 20101 30140 40231 51021 83500 333 566// 83624==
85586,2017,04,25,18,00,AAXX 25184 85586 14760 52412 10173 20093 30128 40218 58012 60001 70311 81602 333 566/6 81656 85073=
85586,2017,04,25,21,00,AAXX 25214 85586 42960 02311 10165 20090 30124 40215 55005==
85586,2017,04,26,00,00,AAXX 26004 85586 14960 02205 10130 20066 30137 40229 53013 60001 70200 80000 333 10189=
85586,2017,04,26,03,00,AAXX 26034 85586 NIL=
85586,2017,04,26,12,00,AAXX 26124 85586 14960 01403 10089 20045 30128 40221 53001 60001 70200 80000 333 20069 30/// 55076 70000=
85586,2017,04,26,15,00,AAXX 26154 85586 42960 01607 10170 20063 30123 40214 58004==
85586,2017,04,26,18,00,AAXX 26184 85586 14960 02410 10205 20086 30096 40185 57028 60001 70200 80000=
85586,2017,04,26,21,00,AAXX 26214 85586 42960 01707 10232 20011 30080 40168 56016==
85586,2017,04,27,00,00,AAXX 27004 85586 14960 01404 10172 20025 30081 40171 53001 60001 70200 80000 333 10234=
85586,2017,04,27,12,00,AAXX 27124 85586 14960 01203 10088 20046 30076 40169 52002 60001 70200 80000 333 20074 30/// 55092 70000=
85586,2017,04,27,15,00,AAXX 27154 85586 42960 01404 10202 20048 30083 40172 52006==
85586,2017,04,27,18,00,AAXX 27184 85586 14960 02412 10179 20096 30077 40167 57005 60001 70200 80000=
85586,2017,04,27,21,00,AAXX 27214 85586 42960 03303 10195 20109 30071 40160 58007==
85586,2017,04,28,00,00,AAXX 28004 85586 14960 01602 10119 20098 30083 40175 53013 60001 70200 80000 333 10231=
85586,2017,04,28,03,00,AAXX 28034 85586 NIL=
85586,2017,04,28,06,00,AAXX 28064 85586 NIL=
85586,2017,04,28,09,00,AAXX 28094 85586 NIL=
85586,2017,04,28,12,00,AAXX 28124 85586 14960 0//// 10074 20049 30086 40179 51004 60001 70200 80000 333 20066 30/// 55088 70000=
85586,2017,04,28,15,00,AAXX 28154 85586 NIL=
85586,2017,04,28,18,00,AAXX 28184 85586 14960 02412 10197 20108 30066 40155 58020 60001 70000 80000=
85586,2017,04,28,21,00,AAXX 28214 85586 NIL=
85586,2017,04,29,00,00,AAXX 29004 85586 14960 01302 10125 20101 30066 40157 53009 60001 70000 80000 333 10243=
85586,2017,04,29,03,00,AAXX 29034 85586 NIL=
85586,2017,04,29,06,00,AAXX 29064 85586 NIL=
85586,2017,04,29,09,00,AAXX 29094 85586 NIL=
85586,2017,04,29,12,00,AAXX 29124 85586 14960 01804 10129 20088 30061 40152 53008 60001 70000 80000 333 20084 30/// 55086 70000=
85586,2017,04,29,15,00,AAXX 29154 85586 42960 01606 10211 20098 30059 40148 58003==
85586,2017,04,29,18,00,AAXX 29184 85586 14960 02412 10184 20118 30046 40135 58013 60001 70000 80000=
85586,2017,04,29,21,00,AAXX 29214 85586 42960 02705 10171 20103 30049 40139 53003==
85586,2017,04,30,00,00,AAXX 30004 85586 14960 00303 10126 20093 30055 40146 52006 60001 70000 80000 333 10220=
85586,2017,04,30,03,00,AAXX 30034 85586 NIL=
85586,2017,04,30,06,00,AAXX 30064 85586 NIL=
85586,2017,04,30,09,00,AAXX 30094 85586 NIL=
85586,2017,04,30,12,00,AAXX 30124 85586 14960 01402 10059 20053 30053 40146 52010 60001 70000 80000 333 20050 30/// 55092 70000=
85586,2017,04,30,15,00,AAXX 30154 85586 41105 83005 10119 20113 30065 40157 51011 72822 886// 333 566// 88701==
85586,2017,04,30,18,00,AAXX 30184 85586 14215 83406 10130 20117 30055 40146 58010 60001 71044 886// 333 567// 88703=
85586,2017,04,30,21,00,AAXX 30214 85586 41356 23205 10148 20122 30048 40139 56008 70522 83600 333 567// 83707==
85586,2017,05,01,00,00,AAXX 01004 85586 14240 83503 10127 20119 30064 40155 52015 60001 71022 886// 333 10153 567// 88704=
85586,2017,05,01,03,00,AAXX 01034 85586 NIL=
85586,2017,05,01,06,00,AAXX 01064 85586 NIL=
85586,2017,05,01,09,00,AAXX 01094 85586 NIL=
85586,2017,05,01,12,00,AAXX 01124 85586 14340 80304 10126 20110 30076 40168 53010 60001 70522 886// 333 20124 30/// 55031 567// 70000 88709=
85586,2017,05,01,15,00,AAXX 01154 85586 NIL=
85586,2017,05,01,18,00,AAXX 01184 85586 14556 82808 10148 20110 30083 40174 55003 69901 70522 885// 333 567// 88621=
85586,2017,05,01,21,00,AAXX 01214 85586 NIL=
85586,2017,05,02,00,00,AAXX 02004 85586 14540 80902 10143 20111 30106 40197 53010 60001 70522 885// 333 10156 567// 88632=
85586,2017,05,02,03,00,AAXX 02034 85586 NIL=
85586,2017,05,02,06,00,AAXX 02064 85586 NIL=
85586,2017,05,02,09,00,AAXX 02094 85586 NIL=
85586,2017,05,02,12,00,AAXX 02124 85586 14958 61102 10096 20081 30108 40201 53005 69901 70511 80001 333 20088 30/// 55000 56//6 79999 86075=
85586,2017,05,02,15,00,AAXX 02154 85586 NIL=
85586,2017,05,02,18,00,AAXX 02184 85586 14960 42607 10183 20097 30114 40204 58003 60001 70211 80001 333 56//6 84070=
85586,2017,05,02,21,00,AAXX 02214 85586 NIL=
85586,2017,05,03,00,00,AAXX 03004 85586 14960 00000 10118 20097 30111 40203 53001 60001 70200 80000 333 10196=
85586,2017,05,03,03,00,AAXX 03034 85586 NIL=
85586,2017,05,03,06,00,AAXX 03064 85586 NIL=
85586,2017,05,03,09,00,AAXX 03094 85586 NIL=
85586,2017,05,03,12,00,AAXX 03124 85586 14960 31604 10118 20109 30087 40178 58002 60001 70211 80002 333 20081 30/// 55056 56//6 70000 83070=
85586,2017,05,03,15,00,AAXX 03154 85586 NIL=
85586,2017,05,03,18,00,AAXX 03184 85586 14960 02511 10191 20125 30056 40145 58020 60001 70200 80000=
85586,2017,05,03,21,00,AAXX 03214 85586 42960 02606 10164 20118 30049 40139 55008==
85586,2017,05,04,00,00,AAXX 04004 85586 14960 00000 10115 20099 30057 40149 53007 60001 70200 80000 333 10211=
85586,2017,05,04,03,00,AAXX 04034 85586 NIL=
85586,2017,05,04,06,00,AAXX 04064 85586 NIL=
85586,2017,05,04,09,00,AAXX 04094 85586 NIL=
85586,2017,05,04,12,00,AAXX 04124 85586 14940 11203 10062 20059 30050 40143 53005 60001 71000 80001 333 20047 32/// 55076 56//6 70000 81075=
85586,2017,05,04,15,00,AAXX 04154 85586 NIL=
85586,2017,05,04,18,00,AAXX 04184 85586 14958 63007 10152 20098 30053 40143 50000 60001 70511 80002 333 56//6 86275=
85586,2017,05,05,00,00,AAXX 05004 85586 14360 83504 10135 20119 30066 40157 51010 60001 70222 885// 333 10177 566// 88608=
85586,2017,05,05,12,00,AAXX 05124 85586 14240 8//// 10108 20099 30045 40137 52004 60001 71022 885// 333 20107 30/// 55072 566// 70000 88606=
85586,2017,05,05,15,00,AAXX 05154 85586 41457 80503 10132 20109 30050 40141 51005 70522 885// 333 566// 88612==
85586,2017,05,05,18,00,AAXX 05184 85586 14460 83204 10155 20113 30046 40136 55003 60001 70222 885// 333 566// 88617=
85586,2017,05,06,00,00,AAXX 06004 85586 14560 83104 10136 20120 30046 40137 53005 60001 70222 885// 333 10158 566// 88622=
85586,2017,05,06,03,00,AAXX 06034 85586 NIL=
85586,2017,05,06,06,00,AAXX 06064 85586 NIL=
85586,2017,05,06,09,00,AAXX 06094 85586 NIL=
85586,2017,05,06,12,00,AAXX 06124 85586 14557 80408 10134 20093 30044 40135 51011 60001 70522 885// 333 20132 30/// 55000 566// 70000 88622=
85586,2017,05,06,15,00,AAXX 06154 85586 NIL=
85586,2017,05,06,18,00,AAXX 06184 85586 14660 83507 10173 20090 30056 40146 50001 60001 70222 885// 333 566// 88641=
85586,2017,05,06,21,00,AAXX 06214 85586 NIL=
85586,2017,05,07,00,00,AAXX 07004 85586 14760 50206 10162 20095 30054 40144 52003 60001 70222 85500 333 10186 566// 85650=
85586,2017,05,07,03,00,AAXX 07034 85586 NIL=
85586,2017,05,07,06,00,AAXX 07064 85586 NIL=
85586,2017,05,07,09,00,AAXX 07094 85586 NIL=
85586,2017,05,07,12,00,AAXX 07124 85586 14560 8//// 10133 20125 30086 40177 52011 60181 72166 888// 333 20130 32/// 55001 566// 70182 84827 88633=
85586,2017,05,07,15,00,AAXX 07154 85586 NIL=
85586,2017,05,07,18,00,AAXX 07184 85586 14250 83605 10143 20135 30101 40192 58002 60081 76166 888// 333 566// 83805 88638=
85586,2017,05,07,21,00,AAXX 07214 85586 NIL=
85586,2017,05,08,00,00,AAXX 08004 85586 14560 50803 10141 20133 30109 40200 53013 60111 70188 85500 333 10147 566// 85621=
85586,2017,05,08,03,00,AAXX 08034 85586 NIL=
85586,2017,05,08,06,00,AAXX 08064 85586 NIL=
85586,2017,05,08,09,00,AAXX 08094 85586 NIL=
85586,2017,05,08,12,00,AAXX 08124 85586 14560 5//// 10129 20124 30109 40201 51002 60001 70111 85500 333 20128 32/// 55000 566// 70182 85624=
85586,2017,05,08,15,00,AAXX 08154 85586 42960 01604 10179 20135 30100 40190 58009==
85586,2017,05,08,18,00,AAXX 08184 85586 14960 32411 10190 20145 30065 40154 58034 60001 70100 80001 333 56//6 83074=
85586,2017,05,08,21,00,AAXX 08214 85586 42/60 62411 10159 20129 30054 40144 55013 333 56//6 86075==
85586,2017,05,09,00,00,AAXX 09004 85586 14956 70103 10141 20128 30056 40147 52003 60001 70511 80001 333 10208 56//6 87075=
85586,2017,05,09,03,00,AAXX 09034 85586 NIL=
85586,2017,05,09,06,00,AAXX 09064 85586 NIL=
85586,2017,05,09,09,00,AAXX 09094 85586 NIL=
85586,2017,05,09,12,00,AAXX 09124 85586 14956 01202 10091 20088 30044 40136 53002 60001 70500 80000 333 20085 31/// 55055 70000=
85586,2017,05,09,15,00,AAXX 09154 85586 41356 02704 10149 20133 30047 40138 50003 70500 81600 333 567// 81708==
85586,2017,05,09,18,00,AAXX 09184 85586 14106 83003 10131 20126 30035 40126 56014 60001 74444 886// 333 567// 88702=
85586,2017,05,09,21,00,AAXX 09214 85586 41220 82903 10133 20125 30036 40127 50001 71022=
85586,2017,05,10,00,00,AAXX 10004 85586 14256 8//// 10130 20122 30034 40125 56003 60001 70522 886// 333 10159 567// 88704=
85586,2017,05,10,03,00,AAXX 10034 85586 NIL=
85586,2017,05,10,06,00,AAXX 10064 85586 NIL=
85586,2017,05,10,09,00,AAXX 10094 85586 NIL=
85586,2017,05,10,12,00,AAXX 10124 85586 14756 60705 10138 20117 30039 40130 52009 60001 70522 86500 333 20123 31/// 55010 567// 70000 86650=
85586,2017,05,10,15,00,AAXX 10154 85586 41758 80408 10169 20119 30051 40141 51012 70522 8753/ 333 5676/ 82650 87365==
85586,2017,05,10,18,00,AAXX 10184 85586 14560 43112 10166 20128 30041 40131 57009 60001 70222 81501 333 566/6 81620 84072=
85586,2017,05,10,21,00,AAXX 10214 85586 42460 63208 10161 20111 30046 40136 53003 81530 333 5667/ 81615 86368==
85586,2017,05,11,00,00,AAXX 11004 85586 14560 81203 10145 20115 30045 40135 54000 60001 70222 8253/ 333 10182 567// 82620 88357=
85586,2017,05,11,03,00,AAXX 11034 85586 NIL=
85586,2017,05,11,06,00,AAXX 11064 85586 NIL=
85586,2017,05,11,09,00,AAXX 11094 85586 NIL=
85586,2017,05,11,12,00,AAXX 11124 85586 14560 81604 10132 20124 30030 40121 53001 60051 76066 885// 333 20129 32/// 55020 567// 70050 83627 88633=
85586,2017,05,11,15,00,AAXX 11154 85586 NIL=
85586,2017,05,11,18,00,AAXX 11184 85586 14857 80209 10139 20123 30025 40116 54000 60141 76122 8803/ 333 88357=
85586,2017,05,11,21,00,AAXX 11214 85586 NIL=
85586,2017,05,12,00,00,AAXX 12004 85586 14660 80808 10139 20118 30033 40124 53007 60241 76166 885// 333 10151 88640=
85586,2017,05,12,03,00,AAXX 12034 85586 NIL=
85586,2017,05,12,06,00,AAXX 12064 85586 NIL=
85586,2017,05,12,09,00,AAXX 12094 85586 NIL=
85586,2017,05,12,12,00,AAXX 12124 85586 14860 40803 10113 20102 30045 40137 51007 60021 70222 84030 333 20111 31/// 55000 56/6/ 70396 84357=
85586,2017,05,12,15,00,AAXX 12154 85586 42/60 41003 10163 20117 30047 40137 53002=
85586,2017,05,12,18,00,AAXX 12184 85586 14560 62504 10193 20122 30031 40120 58014 60001 70122 81502 333 566/6 81620 86271=
85586,2017,05,12,21,00,AAXX 12214 85586 42760 62305 10177 20120 30035 40125 53003 82504 333 566/6 82650 86270==
85586,2017,05,13,00,00,AAXX 13004 85586 14960 4//// 10155 20130 30046 40136 51010 60001 70122 84030 333 10199 56/6/ 84359 84362=
85586,2017,05,13,12,00,AAXX 13124 85586 14960 31202 10123 20114 30091 40183 51026 60001 70111 83010 333 20123 31/// 55029 56/6/ 70000 83458=
85586,2017,05,13,15,00,AAXX 13154 85586 42760 63404 10185 20121 30101 40191 53011 86500 333 566// 86650==
85586,2017,05,13,18,00,AAXX 13184 85586 14660 43212 10183 20136 30095 40185 58006 60001 70200 82501 333 566/6 82645 82073=
85586,2017,05,13,21,00,AAXX 13214 85586 42/60 43109 10173 20135 30101 40191 53002 333 56//6 84075==
85586,2017,05,14,00,00,AAXX 14004 85586 14960 40404 10152 20131 30102 40193 50004 60001 70100 80001 333 10203 56//6 84074=
85586,2017,05,14,03,00,AAXX 14034 85586 NIL=
85586,2017,05,14,06,00,AAXX 14064 85586 NIL=
85586,2017,05,14,09,00,AAXX 14094 85586 NIL=
85586,2017,05,14,12,00,AAXX 14124 85586 14460 70000 10123 20115 30093 40185 53004 60001 70300 82500 333 20112 30/// 55039 566// 70000 82615 87640=
85586,2017,05,14,15,00,AAXX 14154 85586 41357 82203 10142 20136 30120 40211 51028 76366 885// 333 566// 88609==
85586,2017,05,14,18,00,AAXX 14184 85586 14460 6//// 10175 20139 30116 40206 58004 60021 70166 86530 333 5666/ 82612 86358=
85586,2017,05,14,21,00,AAXX 14214 85586 42560 22409 10160 20128 30117 40208 53002 83500 333 566// 83630==
85586,2017,05,15,00,00,AAXX 15004 85586 14960 0//// 10122 20114 30128 40220 53009 60001 70000 80000 333 10186=
85586,2017,05,15,12,00,AAXX 15124 85586 14357 1//// 10094 20091 30102 40195 55007 60001 71000 81600 333 20075 31/// 55042 566// 70024 81708=
85586,2017,05,15,15,00,AAXX 15154 85586 42460 22006 10143 20118 30105 40196 53003 81502 333 566/6 81611 83073==
85586,2017,05,15,18,00,AAXX 15184 85586 14960 51304 10172 20115 30085 40175 58021 60001 70211 80002 333 56//6 85075=
85586,2017,05,15,21,00,AAXX 15214 85586 NIL=
85586,2017,05,16,00,00,AAXX 16004 85586 14960 30703 10128 20119 30081 40172 50005 60001 70100 80002 333 10187 56//6 83074=
85586,2017,05,16,12,00,AAXX 16124 85586 14660 41201 10107 20104 30103 40195 52009 60001 70100 84500 333 20081 31/// 55031 566// 70000 84638=
85586,2017,05,16,15,00,AAXX 1615/ 85586 42660 8//// 10144 20110 30109 40200 51005 885// 333 566// 88638==
85586,2017,05,16,18,00,AAXX 16184 85586 14658 83206 10153 20088 30106 40197 58002 60001 70522 885// 333 567// 88648=
85586,2017,05,16,21,00,AAXX 16214 85586 42/60 22805 10156 20091 30098 40189 57007 333 56//6 82075==
85586,2017,05,17,00,00,AAXX 17004 85586 14656 80403 10137 20100 30102 40193 52005 60001 70522 885// 333 10173 567// 83644 88650=
85586,2017,05,17,03,00,AAXX 17034 85586 NIL=
85586,2017,05,17,06,00,AAXX 17064 85586 NIL=
85586,2017,05,17,09,00,AAXX 17094 85586 NIL=
85586,2017,05,17,12,00,AAXX 17124 85586 14960 61003 10097 20077 30078 40170 53001 60001 70222 86030 333 20089 31/// 55029 56/6/ 70000 86365=
85586,2017,05,17,15,00,AAXX 17154 85586 42/60 60309 10160 20093 30080 40171 52004 87030 333 56/6/ 87362==
85586,2017,05,17,18,00,AAXX 17184 85586 14660 83306 10159 20101 30068 40158 57013 60001 70322 885// 333 567// 88633=
85586,2017,05,17,21,00,AAXX 17214 85586 41656 83204 10135 20122 30068 40159 53001 76322 8252/ 333 5676/ 82641 88457==
85586,2017,05,18,00,00,AAXX 18004 85586 14556 8//// 10120 20115 30071 40163 51003 60071 76166 882// 333 10174 567// 83622 85627 88835=
85586,2017,05,18,03,00,AAXX 18034 85586 NIL=
85586,2017,05,18,06,00,AAXX 18064 85586 NIL=
85586,2017,05,18,09,00,AAXX 18094 85586 NIL=
85586,2017,05,18,12,00,AAXX 18121 85586 14960 8//// 10087 20075 30093 40186 53014 60091 70122 8803/ 333 20086 32/// 55000 56/6/ 70216 88362=
85586,2017,05,18,15,00,AAXX 18154 85586 42/60 60804 10117 20084 30103 40195 51012 87030 333 56/6/ 87357==
85586,2017,05,18,18,00,AAXX 18184 85586 14460 63507 10147 20080 30108 40199 50004 60001 70222 83501 333 566/6 83615 85075=
85586,2017,05,18,21,00,AAXX 18214 85586 42460 43005 10131 20082 30122 40214 53014 84802 333 566/6 82810 83620 82070==
85586,2017,05,19,00,00,AAXX 19004 85586 14560 52704 10107 20078 30143 40236 51019 60001 70222 85500 333 10149 566// 83624 85656=
85586,2017,05,19,03,00,AAXX 19034 85586 NIL=
85586,2017,05,19,12,00,AAXX 19124 85586 14960 01203 10055 20046 30125 40219 55001 60001 70200 80000 333 20055 31/// 55027 70000=
85586,2017,05,19,15,00,AAXX 19154 85586 42960 01204 10124 20067 30121 40213 56003==
85586,2017,05,19,18,00,AAXX 19184 85586 14960 01708 10162 20059 30103 40194 58019 60001 70200 80000=
85586,2017,05,19,21,00,AAXX 19214 85586 42960 02308 10148 20101 30100 40191 55003==
85586,2017,05,20,00,00,AAXX 20004 85586 14960 01906 10112 20083 30115 40207 53013 60001 70200 80000 333 10169=
85586,2017,05,20,03,00,AAXX 20034 85586 NIL=
85586,2017,05,20,06,00,AAXX 20064 85586 NIL=
85586,2017,05,20,12,00,AAXX 20124 85586 14960 01203 10045 20036 30118 40213 53006 60001 70200 80000 333 20037 31/// 55075 70000=
85586,2017,05,20,15,00,AAXX 20154 85586 42960 00903 10127 20072 30119 40211 50001==
85586,2017,05,20,18,00,AAXX 20184 85586 14960 0//// 10177 20060 30096 40186 58022 60001 70200 80000=
85586,2017,05,20,21,00,AAXX 20214 85586 42960 02309 10145 20104 30093 40184 55003 333 56//6 81075==
85586,2017,05,21,00,00,AAXX 21004 85586 14960 00903 10102 20090 30097 40189 53003 60001 70200 80000 333 10182=
85586,2017,05,21,03,00,AAXX 21034 85586 NIL=
85586,2017,05,21,06,00,AAXX 21064 85586 NIL=
85586,2017,05,21,09,00,AAXX 21094 85586 NIL=
85586,2017,05,21,12,00,AAXX 21124 85586 14960 41403 10065 20058 30093 40187 53003 60001 70200 80001 333 20045 31/// 55071 56//6 70000 84075=
85586,2017,05,21,15,00,AAXX 2115/ 85586 42/60 4//// 10141 20090 30102 40193 50011 333 56//6=
85586,2017,05,21,18,00,AAXX 21184 85586 14960 72508 10157 20103 30085 40176 56018 60001 70222 80004 333 56//6 87070=
85586,2017,05,21,21,00,AAXX 21214 85586 42/60 62204 10154 20098 30075 40166 56009 333 56//6 87075==
85586,2017,05,22,00,00,AAXX 22004 85586 14960 71803 10118 20081 30073 40165 58003 60001 70222 80004 333 10176 56//6 87075=
85586,2017,05,22,12,00,AAXX 22124 85586 14960 71604 10105 20084 30065 40157 53011 60001 70222 80004 333 20085 31/// 55030 56//6 70000 87075=
85586,2017,05,22,15,00,AAXX 22154 85586 42/60 61805 10123 20086 30082 40174 51017 333 56//6 87075==
85586,2017,05,22,18,00,AAXX 22184 85586 14960 72106 10140 20082 30079 40170 56002 60001 70222 80004 333 56//6 87070=
85586,2017,05,22,21,00,AAXX 22214 85586 42/60 61803 10125 20074 30080 40172 52001 333 56//6 87074==
85586,2017,05,23,00,00,AAXX 23004 85586 14960 62002 10105 20076 30089 40181 53010 60001 70222 80002 333 10154 56//6 86074=
85586,2017,05,23,03,00,AAXX 23034 85586 NIL=
85586,2017,05,23,06,00,AAXX 23064 85586 NIL=
85586,2017,05,23,09,00,AAXX 23094 85586 NIL=
85586,2017,05,23,12,00,AAXX 23124 85586 14960 7//// 10076 20069 30081 40174 51001 60001 70222 80004 333 20073 31/// 55008 56//6 70000 87074=
85586,2017,05,23,15,00,AAXX 23154 85586 NIL=
85586,2017,05,23,18,00,AAXX 23184 85586 14960 82803 10118 20087 30072 40164 58011 60001 70222 8803/ 333 56/6/ 88362=
85586,2017,05,23,21,00,AAXX 23214 85586 41/57 82604 10119 20093 30070 40162 56005 70522 8807/ 333 56/6/ 88362==
85586,2017,05,24,00,00,AAXX 24004 85586 14960 6//// 10100 20088 30077 40169 51010 60001 70111 80002 333 10127 56//6 86072=
85586,2017,05,24,03,00,AAXX 24034 85586 NIL=
85586,2017,05,24,06,00,AAXX 24064 85586 NIL=
85586,2017,05,24,09,00,AAXX 24094 85586 NIL=
85586,2017,05,24,12,00,AAXX 24124 85586 14104 81103 10059 20058 30068 40162 53001 60001 72822 886// 333 20045 31/// 55000 566// 70000 88701=
85586,2017,05,24,15,00,AAXX 2415/ 85586 41/40 8//// 10106 20103 30073 40165 52006 71022 8803/ 333 56/6/ 88363==
85586,2017,05,24,18,00,AAXX 24184 85586 14950 81603 10137 20098 30053 40144 58020 60001 70522 8803/ 333 56/6/ 88361=
85586,2017,05,24,21,00,AAXX 2421/ 85586 41/40 8//// 10121 20093 30052 40143 53001 70522 8803/ 333 56/6/ 88363==
85586,2017,05,25,00,00,AAXX 25004 85586 14940 81005 10108 20091 30052 40144 54001 60001 70522 8803/ 333 10139 56/6/ 88362=
85586,2017,05,25,03,00,AAXX 25034 85586 NIL=
85586,2017,05,25,06,00,AAXX 25064 85586 NIL=
85586,2017,05,25,09,00,AAXX 25094 85586 NIL=
85586,2017,05,25,12,00,AAXX 25124 85586 14556 80404 10117 20096 30114 40206 53027 69901 70522 8353/ 333 20093 31/// 55006 5676/ 79999 83621 88363=
85586,2017,05,25,18,00,AAXX 25184 85586 14960 10606 10174 20073 30115 40205 58015 60001 70211 81030 333 56/6/ 81360=
85586,2017,05,25,21,00,AAXX 25214 85586 42960 02306 10162 20083 30109 40200 55007==
85586,2017,05,26,00,00,AAXX 26004 85586 14956 0//// 10102 20078 30107 40200 57002 60001 70500 333 10183=
85586,2017,05,26,12,00,AAXX 26124 85586 14960 01303 10066 20056 30118 40212 53014 60001 70200 80000 333 20066 31/// 55053 70000=
85586,2017,05,26,15,00,AAXX 26154 85586 41956 01104 10147 20089 30132 40223 52015 70400==
85586,2017,05,26,18,00,AAXX 26184 85586 14960 02411 10151 20105 30125 40216 58006 60001 70200 80000=
85586,2017,05,26,21,00,AAXX 26214 85586 41958 02507 10147 20106 30119 40210 56007 70500==
85586,2017,05,27,00,00,AAXX 27004 85586 14956 00803 10100 20086 30119 40212 50000 60001 70500 80000 333 10178=
85586,2017,05,27,15,00,AAXX 2715/ 85586 41958 0//// 10134 20087 30132 40224 51003 70500==
85586,2017,05,27,18,00,AAXX 27184 85586 14958 02607 10147 20095 30119 40210 58013 60001 70500 80000=
85586,2017,05,27,21,00,AAXX 27214 85586 42960 02508 10137 20092 30123 40215 53004==
85586,2017,05,28,00,00,AAXX 28004 85586 14960 00503 10085 20073 30125 40218 50002 60001 70200 80000 333 10151=
85586,2017,05,28,12,00,AAXX 28124 85586 14960 6//// 10051 20048 30103 40197 53005 60001 70200 80001 333 20046 30/// 55062 56//6 70000 86072=
85586,2017,05,28,15,00,AAXX 28154 85586 42/60 60605 10117 20095 30117 40209 51014 333 56//6 86071==
85586,2017,05,28,18,00,AAXX 28184 85586 14960 62706 10134 20093 30108 40200 58007 60001 70222 86030 333 56/6/ 86367=
85586,2017,05,28,21,00,AAXX 28214 85586 NIL=
85586,2017,05,29,00,00,AAXX 29004 85586 14960 10701 10078 20066 30101 40194 52001 60001 70100 80001 333 10147 56//6 81074=
85586,2017,05,29,12,00,AAXX 29124 85586 14960 40000 10065 20061 30099 40193 53007 60001 70100 80004 333 20061 31/// 55044 56//6 70000 84074=
85586,2017,05,29,15,00,AAXX 2915/ 85586 42/60 2//// 10143 20081 30117 40208 51019 333 56//6 82075==
85586,2017,05,29,18,00,AAXX 29184 85586 14960 32708 10139 20092 30110 40201 58007 60001 70100 80002 333 56//6 83074=
85586,2017,05,29,21,00,AAXX 29214 85586 42/60 42507 10131 20094 30113 40205 53003 333 56//6 84074==
85586,2017,05,30,00,00,AAXX 30004 85586 14938 00000 10079 20072 30123 40216 53010 60001 71000 80000 333 10154=
85586,2017,05,30,03,00,AAXX 30034 85586 NIL=
85586,2017,05,30,06,00,AAXX 30064 85586 NIL=
85586,2017,05,30,09,00,AAXX 30094 85586 NIL=
85586,2017,05,30,12,00,AAXX 30124 85586 14460 71103 10084 20080 30161 40255 52013 60001 70222 87500 333 20052 31/// 55034 566// 70000 87613=
85586,2017,05,30,15,00,AAXX 30154 85586 41958 01005 10110 20089 30168 40260 51007 70500==
85586,2017,05,30,18,00,AAXX 30184 85586 14958 02412 10141 20107 30153 40245 56014 60001 70500 80000=
85586,2017,05,30,21,00,AAXX 30214 85586 41/58 41905 10152 20094 30156 40247 53001 70500 333 56//6=
85586,2017,05,31,00,00,AAXX 31004 85586 14940 21102 10095 20087 30157 40250 50003 60001 71000 80001 333 10156 56//6 82075=
85586,2017,05,31,12,00,AAXX 31124 85586 14940 01203 10065 20058 30128 40222 55011 60001 71000 80000 333 20042 31/// 55061 70000=
85586,2017,05,31,15,00,AAXX 31154 85586 41956 01404 10133 20086 30131 40223 50004 70500==
85586,2017,05,31,18,00,AAXX 31184 85586 14956 02410 10148 20098 30119 40210 58012 60001 70500 80000=
85586,2017,05,31,21,00,AAXX 31214 85586 41958 02305 10145 20104 30111 40202 55008 70500==
85586,2017,06,01,00,00,AAXX 01004 85586 14940 0//// 10087 20079 30117 40210 53005 60001 71000 80000 333 10160=
85586,2017,06,01,03,00,AAXX 01034 85586 NIL=
85586,2017,06,01,06,00,AAXX 01064 85586 NIL=
85586,2017,06,01,09,00,AAXX 01094 85586 NIL=
85586,2017,06,01,12,00,AAXX 01124 85586 14958 01303 10043 20033 30117 40212 53001 60001 70500 80000 333 20030 31/// 55061 70000=
85586,2017,06,01,15,00,AAXX 01154 85586 NIL=
85586,2017,06,01,18,00,AAXX 01184 85586 14960 31908 10169 20087 30100 40190 56021 60001 70211 80001 333 56//6 83075=
85586,2017,06,01,21,00,AAXX 01214 85586 NIL=
85586,2017,06,02,00,00,AAXX 02004 85586 14960 31604 10124 20093 30094 40186 52003 60001 70111 80001 333 10178 56//6 83075=
85586,2017,06,02,03,00,AAXX 02034 85586 NIL=
85586,2017,06,02,06,00,AAXX 02064 85586 NIL=
85586,2017,06,02,09,00,AAXX 02094 85586 NIL=
85586,2017,06,02,12,00,AAXX 02124 85586 14940 41203 10038 20035 30078 40172 53005 60001 71000 80001 333 20028 31/// 55052 56//6 70000 84075=
85586,2017,06,02,15,00,AAXX 02154 85586 41/57 62604 10107 20081 30090 40182 51011 70522 333 56//6 86074==
85586,2017,06,02,18,00,AAXX 02184 85586 14460 82508 10125 20082 30086 40178 58002 60001 70222 83502 333 566/6 83619 87070=
85586,2017,06,02,21,00,AAXX 02214 85586 NIL=
85586,2017,06,03,00,00,AAXX 03004 85586 14960 81803 10104 20073 30099 40191 53014 60001 70222 8803/ 333 10133 88367=
85586,2017,06,03,03,00,AAXX 03034 85586 NIL=
85586,2017,06,03,06,00,AAXX 03064 85586 NIL=
85586,2017,06,03,09,00,AAXX 03094 85586 NIL=
85586,2017,06,03,12,00,AAXX 03124 85586 14960 01203 10058 20052 30113 40207 53010 60001 70200 80000 333 20055 31/// 55007 70000=
85586,2017,06,03,15,00,AAXX 03154 85586 NIL=
85586,2017,06,03,18,00,AAXX 03184 85586 14560 22510 10151 20097 30114 40205 56013 60001 70300 82100 333 566// 82827=
85586,2017,06,03,21,00,AAXX 03214 85586 NIL=
85586,2017,06,04,00,00,AAXX 04004 85586 14960 0//// 10089 20065 30125 40218 53011 60001 70000 80000 333 10162=
85586,2017,06,04,03,00,AAXX 04034 85586 NIL=
85586,2017,06,04,12,00,AAXX 04124 85586 14960 0//// 10026 20016 30109 40204 55004 60001 70000 80000 333 20024 30/// 55065 70000=
85586,2017,06,04,15,00,AAXX 0415/ 85586 42960 0//// 10129 20074 30112 40204 52003 333 56//6 81075==
85586,2017,06,04,18,00,AAXX 04184 85586 14960 02509 10151 20082 30093 40184 58018 60001 70200 80000=
85586,2017,06,04,21,00,AAXX 04214 85586 NIL=
85586,2017,06,05,00,00,AAXX 05004 85586 14960 3//// 10088 20074 30097 40190 52008 60001 70100 80001 333 10167 56//6 83073=
85586,2017,06,05,12,00,AAXX 05124 85586 14960 31604 10054 20047 30099 40193 53011 60001 70100 80002 333 20043 31/// 55069 56//6 70000 83074=
85586,2017,06,05,15,00,AAXX 05154 85586 42/60 22004 10098 20072 30109 40202 51010 333 56//6 83073==
85586,2017,06,05,18,00,AAXX 05184 85586 14960 32510 10128 20064 30098 40190 56010 60001 70100 80002 333 56//6 83075=
85586,2017,06,05,21,00,AAXX 05214 85586 42/60 22307 10129 20074 30097 40189 55003 333 56//6 82074==
85586,2017,06,06,00,00,AAXX 06004 85586 14956 11805 10086 20033 30106 40199 52010 60001 70500 80001 333 10146 56//6 81074=
85586,2017,06,06,03,00,AAXX 06034 85586 NIL=
85586,2017,06,06,06,00,AAXX 06064 85586 NIL=
85586,2017,06,06,09,00,AAXX 06094 85586 NIL=
85586,2017,06,06,12,00,AAXX 06124 85586 14960 00000 10021 20008 30106 40201 53007 60001 70000 80000 333 20003 31/// 55059 70000=
85586,2017,06,06,15,00,AAXX 06154 85586 42960 01104 10104 20044 30110 40203 53004==
85586,2017,06,06,18,00,AAXX 06184 85586 14960 0//// 10161 20034 30088 40179 58021 60001 70000 80000=
85586,2017,06,06,21,00,AAXX 06214 85586 42960 02207 10132 20075 30081 40172 57008==
85586,2017,06,07,00,00,AAXX 07004 85586 14956 0//// 10059 20045 30084 40178 52003 60001 70500 80000 333 10170=
85586,2017,06,07,09,00,AAXX 07094 85586 NIL=
85586,2017,06,07,12,00,AAXX 07124 85586 14960 81103 10041 20016 30092 40186 53024 60001 70222 8803/ 333 20009 30/// 55061 56/6/ 70000 88364=
85586,2017,06,07,15,00,AAXX 07154 85586 NIL=
85586,2017,06,07,18,00,AAXX 07184 85586 14640 81006 10074 20065 30122 40216 50003 60031 76362 885// 333 88640=
85586,2017,06,07,21,00,AAXX 07214 85586 NIL=
85586,2017,06,08,00,00,AAXX 08004 85586 14457 80506 10094 20080 30156 40249 52026 60081 76066 885// 333 10107 561// 83618 88627=
85586,2017,06,08,03,00,AAXX 08034 85586 NIL=
85586,2017,06,08,06,00,AAXX 08064 85586 NIL=
85586,2017,06,08,09,00,AAXX 08094 85586 NIL=
85586,2017,06,08,12,00,AAXX 08124 85586 14960 41203 10075 20068 30216 40310 53015 60041 70200 80001 333 20074 32/// 55000 56//6 70146 84075=
85586,2017,06,08,15,00,AAXX 08154 85586 NIL=
85586,2017,06,08,18,00,AAXX 08184 85586 14960 71505 10128 20091 30214 40307 58014 60001 70222 87030 333 56/6/ 87365=
85586,2017,06,08,21,00,AAXX 08214 85586 42/60 21707 10131 20074 30205 40298 56010 82030 333 56/6/ 82363==
85586,2017,06,09,00,00,AAXX 09004 85586 14960 10000 10076 20059 30211 40305 52007 60001 70200 81030 333 10141 56/6/ 81363=
85586,2017,06,09,03,00,AAXX 09034 85586 NIL=
85586,2017,06,09,06,00,AAXX 09064 85586 NIL=
85586,2017,06,09,09,00,AAXX 09094 85586 NIL=
85586,2017,06,09,12,00,AAXX 09124 85586 14960 01505 10065 20053 30194 40289 52005 60001 72000 80000 333 20057 31/// 55028 70000=
85586,2017,06,09,15,00,AAXX 09154 85586 NIL=
85586,2017,06,09,18,00,AAXX 09184 85586 14960 0//// 10164 20089 30151 40242 58029 60001 70200 80000=
85586,2017,06,09,21,00,AAXX 09214 85586 NIL=
85586,2017,06,10,00,00,AAXX 10004 85586 14960 0//// 10101 20057 30137 40230 53000 60001 70200 80000 333 10179=
85586,2017,06,10,03,00,AAXX 10034 85586 NIL=
85586,2017,06,10,06,00,AAXX 10064 85586 NIL=
85586,2017,06,10,09,00,AAXX 10094 85586 NIL=
85586,2017,06,10,12,00,AAXX 10124 85586 14960 01605 10073 20053 30101 40195 55001 60001 70200 80000 333 20064 30/// 55065 70000=
85586,2017,06,10,15,00,AAXX 10154 85586 42960 01508 10130 20068 30096 40188 55004==
85586,2017,06,10,18,00,AAXX 10184 85586 14960 11510 10176 20069 30074 40164 58022 60001 70300 80001 333 56//6 81075=
85586,2017,06,10,21,00,AAXX 10214 85586 42/60 61706 10173 20083 30067 40157 55008 333 56//6 86075==
85586,2017,06,11,00,00,AAXX 11004 85586 14960 11805 10125 20080 30079 40171 52012 60001 70100 80001 333 10186 56//6 81075=
85586,2017,06,11,03,00,AAXX 11034 85586 NIL=
85586,2017,06,11,06,00,AAXX 11064 85586 NIL=
85586,2017,06,11,12,00,AAXX 11124 85586 14960 1//// 10062 20053 30084 40178 53008 60001 70200 80001 333 20053 31/// 55062 56//6 70000 81075=
85586,2017,06,11,15,00,AAXX 11154 85586 42960 01404 10124 20073 30090 40182 50006==
85586,2017,06,11,18,00,AAXX 11184 85586 14960 02507 10132 20087 30081 40172 58008 60001 70200 80000=
85586,2017,06,11,21,00,AAXX 11214 85586 42960 02507 10128 20091 30086 40178 53004==
85586,2017,06,12,00,00,AAXX 12004 85586 14960 00804 10085 20076 30099 40192 51014 60001 70000 80000 333 10159=
85586,2017,06,12,03,00,AAXX 12034 85586 NIL=
85586,2017,06,12,06,00,AAXX 12064 85586 NIL=
85586,2017,06,12,09,00,AAXX 12094 85586 NIL=
85586,2017,06,12,12,00,AAXX 12124 85586 14103 8//// 10039 20036 30069 40163 56005 60001 72800 886// 333 20039 31/// 55068 566// 70000 88702=
85586,2017,06,12,15,00,AAXX 12154 85586 NIL=
85586,2017,06,12,18,00,AAXX 12184 85586 14958 63105 10127 20094 30068 40159 58010 60001 70522 80004 333 56//6 86074=
85586,2017,06,12,21,00,AAXX 12214 85586 42/60 23103 10118 20079 30072 40164 53004 333 56//6 82074==
85586,2017,06,13,00,00,AAXX 13004 85586 14460 50103 10094 20083 30095 40188 51023 60001 70100 85500 333 10127 566// 85611=
85586,2017,06,13,03,00,AAXX 13034 85586 NIL=
85586,2017,06,13,12,00,AAXX 13124 85586 14550 8//// 10091 20077 30103 40196 58002 60001 71022 885// 333 20081 31/// 55070 566// 70000 88625=
85586,2017,06,13,15,00,AAXX 13154 85586 41558 80804 10124 20089 30100 40192 56005 70522 885// 333 566// 88624==
85586,2017,06,13,18,00,AAXX 13184 85586 14560 8//// 10145 20094 30085 40176 58013 60001 70222 885// 333 566// 88626=
85586,2017,06,13,21,00,AAXX 13214 85586 42560 83003 10136 20095 30077 40168 55009=
85586,2017,06,14,00,00,AAXX 14004 85586 14560 80000 10118 20101 30084 40176 52006 60001 70222 885// 333 10150 88623=
85586,2017,06,14,03,00,AAXX 14034 85586 NIL=
85586,2017,06,14,06,00,AAXX 14064 85586 NIL=
85586,2017,06,14,09,00,AAXX 14094 85586 NIL=
85586,2017,06,14,12,00,AAXX 14124 85586 14560 80403 10119 20093 30081 40173 53006 60001 70222 885// 333 20113 31/// 55000 70000 88621=
85586,2017,06,14,15,00,AAXX 14154 85586 NIL=
85586,2017,06,14,18,00,AAXX 14184 85586 14660 80107 10156 20091 30083 40174 58011 60001 70222 885// 333 88635=
85586,2017,06,14,21,00,AAXX 14214 85586 NIL=
85586,2017,06,15,00,00,AAXX 15004 85586 14960 00605 10121 20074 30089 40181 54000 60001 70111 80000 333 10160=
85586,2017,06,15,03,00,AAXX 15034 85586 NIL=
85586,2017,06,15,06,00,AAXX 15064 85586 NIL=
85586,2017,06,15,09,00,AAXX 15094 85586 NIL=
85586,2017,06,15,12,00,AAXX 15124 85586 14960 11005 10073 20061 30058 40151 55006 60001 70200 80002 333 20061 31/// 55007 56//6 70000 81075=
85586,2017,06,15,15,00,AAXX 15154 85586 NIL=
85586,2017,06,15,18,00,AAXX 15184 85586 14960 43407 10174 20091 30046 40136 58017 60001 70211 80001 333 56//6 84075=
85586,2017,06,15,21,00,AAXX 15214 85586 NIL=
85586,2017,06,16,00,00,AAXX 16004 85586 14960 00206 10147 20078 30049 40140 53011 60001 70000 80000 333 10179=
85586,2017,06,16,12,00,AAXX 16124 85586 14440 80607 10124 20118 30035 40126 53002 60161 72166 884// 333 20123 32/// 55047 566// 70214 88616=
85586,2017,06,16,15,00,AAXX 16154 85586 41560 80309 10152 20125 30023 40113 58011 70266 885// 333 566// 88621==
85586,2017,06,16,18,00,AAXX 16184 85586 14460 83614 10152 20132 30010 40100 56012 69921 72122 884// 333 566// 88617=
85586,2017,06,16,21,00,AAXX 16214 85586 41460 83418 10157 20137 30006 40096 56005 70266 884// 333 566//=
85586,2017,06,17,00,00,AAXX 17004 85586 14560 82816 10134 20108 30049 40140 53042 60141 70266 884// 333 10161 566// 82621 88636=
85586,2017,06,17,03,00,AAXX 17034 85586 NIL=
85586,2017,06,17,06,00,AAXX 17064 85586 NIL=
85586,2017,06,17,12,00,AAXX 17124 85586 14960 01102 10055 20052 30143 40237 52014 69921 70200 80000 333 20048 31/// 55000 70174=
85586,2017,06,17,15,00,AAXX 17154 85586 42460 01605 10119 20065 30158 40250 53016 81500 333 566// 81615==
85586,2017,06,17,18,00,AAXX 17184 85586 14660 52310 10135 20080 30164 40256 50005 60001 70300 85500 333 566// 85635=
85586,2017,06,17,21,00,AAXX 17214 85586 42560 02006 10127 20037 30162 40254 55002 81500 333 566// 81623==
85586,2017,06,18,00,00,AAXX 18004 85586 14960 01605 10079 20034 30176 40270 51013 60001 70000 80000 333 10141=
85586,2017,06,18,03,00,AAXX 18034 85586 NIL=
85586,2017,06,18,12,00,AAXX 18124 85586 14960 0//// 10030 20014 30170 40266 57004 60001 70000 80000 333 20028 31/// 55056 70000=
85586,2017,06,18,15,00,AAXX 18154 85586 42960 01506 10089 20031 30168 40262 57002==
85586,2017,06,18,18,00,AAXX 18184 85586 14960 01807 10131 20024 30153 40245 58015 60001 70000 80000=
85586,2017,06,18,21,00,AAXX 18214 85586 42960 01507 10127 21005 30138 40230 58014==
85586,2017,06,19,00,00,AAXX 19004 85586 14960 01605 10080 20010 30138 40232 50001 60001 70000 80000 333 10139=
85586,2017,06,19,12,00,AAXX 19124 85586 14960 21204 10036 20008 30101 40196 58002 60001 70100 80002 333 20016 31/// 55062 56//6 70000 82074=
85586,2017,06,19,15,00,AAXX 19154 85586 42/60 41204 10096 20027 30101 40194 55001 333 56//6=
85586,2017,06,19,18,00,AAXX 19184 85586 14960 6//// 10120 20059 30087 40179 58014 60001 70222 80004 333 56//6 86074=
85586,2017,06,19,21,00,AAXX 19214 85586 42/60 81203 10104 20054 30072 40164 56014 8803/ 333 56/6/ 88365==
85586,2017,06,20,00,00,AAXX 20004 85586 14956 8//// 10083 20056 30077 40170 53004 60001 70522 8803/ 333 10124 56/6/ 88365=
85586,2017,06,20,12,00,AAXX 20124 85586 14960 8//// 10062 20040 30044 40137 55001 60001 70222 8801/ 333 20062 31/// 55000 56/6/ 70000 88466=
85586,2017,06,20,15,00,AAXX 2015/ 85586 42/60 8//// 10099 20053 30060 40152 53017 8803/ 333 56/6/ 88366==
85586,2017,06,20,18,00,AAXX 20184 85586 14960 73306 10113 20073 30074 40166 53012 60001 70222 87030 333 56/6/ 87368=
85586,2017,06,20,21,00,AAXX 20214 85586 42460 80903 10113 20084 30071 40163 53005=
85586,2017,06,21,00,00,AAXX 21004 85586 14960 81203 10096 20075 30076 40168 50001 60001 70222 8803/ 333 10116 56/6/ 84363 88367=
85586,2017,06,21,03,00,AAXX 21034 85586 NIL=
85586,2017,06,21,06,00,AAXX 21064 85586 NIL=
85586,2017,06,21,09,00,AAXX 21094 85586 NIL=
85586,2017,06,21,12,00,AAXX 21124 85586 14560 80904 10102 20067 30048 40140 56014 60001 70222 8453/ 333 20082 31/// 55000 566// 70000 84622 88368=
85586,2017,06,21,15,00,AAXX 21154 85586 41558 80306 10132 20093 30059 40150 53012 70522 885// 333 567// 88625==
85586,2017,06,21,18,00,AAXX 21184 85586 14558 83409 10143 20104 30052 40143 58008 60001 70522 885// 333 567// 88631=
85586,2017,06,21,21,00,AAXX 21214 85586 42560 83410 10145 20091 30044 40135 58009 885// 333 567// 88629==
85586,2017,06,22,00,00,AAXX 22004 85586 14560 83410 10137 20109 30040 40131 58003 60001 70222 885// 333 10149 566// 88624=
85586,2017,06,22,12,00,AAXX 22124 85586 14350 83607 10119 20111 30051 40143 53008 60021 72166 885// 333 20119 32/// 55000 566// 70056 81607 88612=
85586,2017,06,22,15,00,AAXX 22154 85586 41340 80206 10117 20112 30072 40164 53021 72166 885// 333 566//=
85586,2017,06,22,18,00,AAXX 22184 85586 14460 80504 10125 20117 30066 40157 58007 60121 72066 885// 333 566// 86616 88622=
85586,2017,06,22,21,00,AAXX 2221/ 85586 41440 8//// 10128 20122 30071 40162 53005 72566 885// 333 566// 88610==
85586,2017,06,23,00,00,AAXX 23004 85586 14356 80306 10121 20118 30073 40165 50003 60101 72166 885// 333 10130 566// 88609=
85586,2017,06,23,03,00,AAXX 23034 85586 NIL=
85586,2017,06,23,06,00,AAXX 23064 85586 NIL=
85586,2017,06,23,09,00,AAXX 23094 85586 NIL=
85586,2017,06,23,12,00,AAXX 23124 85586 14757 7//// 10115 20112 30061 40153 56007 60021 70555 87500 333 20114 31/// 55000 566// 70306 87656=
85586,2017,06,23,15,00,AAXX 2315/ 85586 42/60 6//// 10139 20130 30057 40148 58003 83034 333 56/66 83364 87071==
85586,2017,06,23,18,00,AAXX 23184 85586 14960 71405 10154 20124 30037 40128 56021 60001 70222 80004 333 56//6 87071=
85586,2017,06,23,21,00,AAXX 23214 85586 42/60 61703 10152 20125 30030 40120 55007 87030 333 56/6/ 87363==
85586,2017,06,24,00,00,AAXX 24004 85586 14957 50000 10120 20114 30026 40117 54001 60001 71022 85030 333 10159 56/6/ 85364=
85586,2017,06,24,03,00,AAXX 24034 85586 NIL=
85586,2017,06,24,12,00,AAXX 24124 85586 14330 80404 10123 20118 30001 40092 53001 60001 71022 886// 333 20104 31/// 55000 566// 70000 88707=
85586,2017,06,24,15,00,AAXX 24154 85586 42460 80108 10143 20111 30006 40096 52006 885// 333 566// 88617==
85586,2017,06,24,18,00,AAXX 24184 85586 14560 80112 10152 20108 30003 40093 57003 60001 70222 885// 333 566// 88625=
85586,2017,06,24,21,00,AAXX 24214 85586 42560 83609 10147 20109 30013 40103 53010 885// 333 566// 88620==
85586,2017,06,25,00,00,AAXX 25004 85586 14660 50214 10151 20103 30014 40104 53001 60001 70122 85500 333 10153 566// 85638=
85586,2017,06,25,03,00,AAXX 25034 85586 NIL=
85586,2017,06,25,12,00,AAXX 25124 85586 14456 80106 10130 20117 30030 40121 53009 60031 78022 888// 333 20129 32/// 55000 566// 70030 85817 88625=
85586,2017,06,25,15,00,AAXX 25154 85586 41230 83505 10130 20125 30045 40136 51017 72188 888// 333 566// 84804 88606==
85586,2017,06,25,18,00,AAXX 25184 85586 14240 83515 10131 20126 30038 40129 58006 60191 76366 886// 333 88705=
85586,2017,06,25,21,00,AAXX 25214 85586 41450 80310 10137 20126 30033 40124 55004 76366 885// 333 566//=
85586,2017,06,26,00,00,AAXX 26004 85586 14560 80105 10142 20124 30044 40134 51011 60101 76066 8553/ 333 10144 561// 82623 85656 88358=
85586,2017,06,26,12,00,AAXX 26124 85586 14557 80804 10128 20117 30035 40126 53010 60061 76066 885// 333 20126 32/// 55000 70346 88630=
85586,2017,06,26,15,00,AAXX 26154 85586 41/60 81203 10127 20114 30052 40143 53010 76066 8803/ 333 88357==
85586,2017,06,26,18,00,AAXX 26184 85586 14960 80704 10136 20120 30049 40140 58002 60021 70266 8803/ 333 88364=
85586,2017,06,26,21,00,AAXX 26214 85586 42/60 80703 10135 20114 30061 40152 53011 8803/ 333 56/1/ 82357 88365==
85586,2017,06,27,00,00,AAXX 27004 85586 14860 80603 10123 20102 30083 40175 53020 60001 70222 8803/ 333 10139 88358=
85586,2017,06,27,12,00,AAXX 27124 85586 14860 81203 10116 20100 30132 40224 53012 69921 70266 8803/ 333 20110 31/// 55000 70022 88357=
85586,2017,06,27,15,00,AAXX 27154 85586 42760 41104 10159 20119 30133 40224 50002=
85586,2017,06,27,18,00,AAXX 27184 85586 14960 00603 10186 20100 30112 40202 58021 60001 70000 80000=
85586,2017,06,27,21,00,AAXX 27214 85586 42960 02410 10153 20130 30113 40204 53000==
85586,2017,06,28,00,00,AAXX 28004 85586 14960 00000 10110 20099 30118 40210 52005 60001 70200 80000 333 10194=
85586,2017,06,28,03,00,AAXX 28034 85586 NIL=
85586,2017,06,28,12,00,AAXX 28124 85586 14920 01103 10071 20070 30115 40209 53006 60001 70400 80000 333 20060 30/// 55067 70000=
85586,2017,06,28,15,00,AAXX 2815/ 85586 41960 0//// 10139 20113 30126 40218 52011 70044==
85586,2017,06,28,18,00,AAXX 28184 85586 14960 02507 10149 20115 30123 40214 58004 60001 70200 80000=
85586,2017,06,28,21,00,AAXX 28214 85586 42960 02308 10140 20112 30129 40221 51007==
85586,2017,06,29,00,00,AAXX 29004 85586 14960 0//// 10099 20093 30138 40231 51009 60001 70200 80000 333 10157=
85586,2017,06,29,12,00,AAXX 29124 85586 14102 81103 10061 20060 30156 40250 52004 60001 72822 886// 333 20041 31/// 55061 566// 70000 88702=
85586,2017,06,29,15,00,AAXX 2915/ 85586 41140 2//// 10096 20094 30159 40252 50002 71044 82501 333 566// 82601 81075==
85586,2017,06,29,18,00,AAXX 29184 85586 14960 02306 10153 20113 30140 40231 58018 60001 70011 80000=
85586,2017,06,29,21,00,AAXX 29214 85586 42960 01803 10163 20081 30131 40222 55007==
85586,2017,06,30,00,00,AAXX 30004 85586 14960 12104 10098 20081 30136 40229 53002 60001 70100 80001 333 10174 56//6 81074=
85586,2017,06,30,12,00,AAXX 30124 85586 14960 21304 10085 20070 30125 40218 55003 60001 70100 80002 333 20076 31/// 55058 56//6 70000 82074=
85586,2017,06,30,15,00,AAXX 3015/ 85586 42960 0//// 10151 20089 30111 40202 58014 333 56//6 81075==
85586,2017,06,30,18,00,AAXX 30184 85586 14960 01607 10194 20100 30099 40189 58008 60001 70000 80000=
85586,2017,06,30,21,00,AAXX 30214 85586 42960 01506 10203 20105 30082 40171 56022==
85586,2017,07,01,00,00,AAXX 01004 85586 14960 01705 10145 20094 30080 40171 55001 60001 70000 80000 333 10207=
85586,2017,07,01,12,00,AAXX 01124 85586 14960 3//// 10067 20057 30043 40136 53006 60001 70000 80002 333 20065 31/// 55060 56//6 79999 83073=
85586,2017,07,01,15,00,AAXX 0115/ 85586 42960 0//// 10148 20093 30046 40137 52004==
85586,2017,07,01,18,00,AAXX 01184 85586 14960 03006 10166 20089 30040 40129 55006 60001 70200 80000=
85586,2017,07,01,21,00,AAXX 01214 85586 41257 43208 10143 20127 30049 40140 53008 70500=
85586,2017,07,02,00,00,AAXX 02004 85586 14360 83005 10131 20115 30062 40153 51015 60001 70222 886// 333 10185 88708=
85586,2017,07,02,03,00,AAXX 02034 85586 NIL=
85586,2017,07,02,06,00,AAXX 02064 85586 NIL=
85586,2017,07,02,09,00,AAXX 02094 85586 NIL=
85586,2017,07,02,12,00,AAXX 02124 85586 14450 80503 10116 20105 30075 40167 53003 60001 71022 886// 333 20116 31/// 55061 70000 88711=
85586,2017,07,02,15,00,AAXX 02154 85586 41450 80404 10120 20101 30076 40168 50001 70522 886// 333 88710==
85586,2017,07,02,18,00,AAXX 02184 85586 14457 80705 10133 20103 30061 40152 58014 60001 70522 885// 333 88615=
85586,2017,07,02,21,00,AAXX 02214 85586 42460 80804 10124 20098 30039 40130 56023 885// 333 88613==
85586,2017,07,03,00,00,AAXX 03004 85586 14460 81003 10118 20101 30059 40151 53019 60001 70222 885// 333 10134 88614=
85586,2017,07,03,03,00,AAXX 03034 85586 NIL=
85586,2017,07,03,06,00,AAXX 03064 85586 NIL=
85586,2017,07,03,09,00,AAXX 03094 85586 NIL=
85586,2017,07,03,12,00,AAXX 03124 85586 14560 80404 10127 20099 30086 40178 53004 60001 70222 885// 333 20115 31/// 55000 70000 88621=
85586,2017,07,03,15,00,AAXX 03154 85586 42460 80705 10129 20105 30110 40197 51019 885// 333 566// 83615 88622==
85586,2017,07,03,18,00,AAXX 03184 85586 14560 83505 10145 20106 30096 40187 58009 60001 70200 885// 333 566// 88620=
85586,2017,07,03,21,00,AAXX 03214 85586 42560 83305 10141 20109 30092 40179 55007 885// 333 566//=
85586,2017,07,04,00,00,AAXX 04004 85586 14660 70504 10133 20103 30086 40177 55003 60001 70211 87500 333 10147 566// 87644=
85586,2017,07,04,12,00,AAXX 04124 85586 14458 8//// 10098 20095 30121 40214 52024 60191 72122 885// 333 20096 32/// 55000 566// 70192 84612 88624=
85586,2017,07,04,15,00,AAXX 04154 85586 41560 80604 10097 20088 30144 40232 52017 76166 888// 333 567// 83620 88640==
85586,2017,07,04,18,00,AAXX 04184 85586 14760 70805 10111 20097 30142 40230 58002 60061 72366 87500 333 567// 87656=
85586,2017,07,04,21,00,AAXX 04214 85586 42465 42505 10117 20084 30153 40240 52010 83831 333 567// 83818 81358 81075==
85586,2017,07,05,00,00,AAXX 05004 85586 14960 01304 10092 20078 30160 40253 52013 60001 70000 80000 333 10136=
85586,2017,07,05,12,00,AAXX 05124 85586 14960 81003 10066 20051 30129 40223 55000 60001 70222 8803/ 333 20052 31/// 55020 56/6/ 70064 88367=
85586,2017,07,05,15,00,AAXX 05154 85586 42/60 83202 10087 20065 30142 40230 53009 8803/ 333 56/7/ 88364==
85586,2017,07,05,18,00,AAXX 05184 85586 14960 80903 10096 20072 30120 40208 56018 60001 70222 8805/ 333 56/7/ 88361=
85586,2017,07,05,21,00,AAXX 05214 85586 42/60 62006 10101 20070 30126 40219 53004 87030 333 56/7/ 87363==
85586,2017,07,06,00,00,AAXX 06004 85586 14960 81404 10089 20064 30146 40234 51017 60001 70222 8805/ 333 10106 56/7/ 83360 87364=
85586,2017,07,06,12,00,AAXX 06124 85586 14960 11404 10054 20042 30139 40234 53005 60001 70200 81030 333 20042 31/// 55000 56/6/ 70000 81365=
85586,2017,07,06,15,00,AAXX 06154 85586 42/60 21303 10126 20062 30147 40235 50002 81031 333 81368 81075==
85586,2017,07,06,18,00,AAXX 06184 85586 14960 31904 10168 20067 30121 40208 58026 60001 70200 80009 333 83175=
85586,2017,07,06,21,00,AAXX 06214 85586 42/60 42308 10136 20093 30114 40206 55003=
85586,2017,07,07,00,00,AAXX 07004 85586 14960 71803 10118 20096 30120 40212 51050 60001 70222 87030 333 10179 56/6/ 87364=
85586,2017,07,07,03,00,AAXX 07034 85586 NIL=
85586,2017,07,07,06,00,AAXX 07064 85586 NIL=
85586,2017,07,07,09,00,AAXX 07094 85586 NIL=
85586,2017,07,07,12,00,AAXX 07124 85586 14960 10000 10077 20066 30115 40208 53007 60001 70200 81030 333 20077 31/// 55038 56/6/ 70000 81363=
85586,2017,07,07,15,00,AAXX 07154 85586 42960 00203 10149 20099 30129 40216 51009==
85586,2017,07,07,18,00,AAXX 07184 85586 14960 02704 10156 20102 30112 40199 58015 60001 70000 80000=
85586,2017,07,07,21,00,AAXX 07214 85586 42/60 22505 10138 20115 30106 40197 55001 333 82075==
85586,2017,07,08,00,00,AAXX 08004 85586 14960 51003 10104 20099 30105 40197 54000 60001 70311 80001 333 10163 56//6 85075=
85586,2017,07,08,03,00,AAXX 08034 85586 NIL=
85586,2017,07,08,06,00,AAXX 08064 85586 NIL=
85586,2017,07,08,09,00,AAXX 08094 85586 NIL=
85586,2017,07,08,12,00,AAXX 08124 85586 14330 80904 10090 20089 30114 40207 53005 60001 71022 886// 333 20069 31/// 55052 566// 70000 88708=
85586,2017,07,08,15,00,AAXX 08154 85586 41458 80404 10116 20114 30134 40226 51021 71022 885// 333 566// 88610==
85586,2017,07,08,18,00,AAXX 08184 85586 14360 82406 10132 20111 30128 40220 57005 60001 70222 888// 333 566// 82809 88612=
85586,2017,07,08,21,00,AAXX 08214 85586 42460 22603 10138 20112 30120 40212 55009 83500 333 566// 83615==
85586,2017,07,09,00,00,AAXX 09004 85586 14960 21903 10115 20104 30135 40227 53015 60001 70000 80002 333 10139 56//6 82073=
85586,2017,07,09,03,00,AAXX 09034 85586 NIL=
85586,2017,07,09,06,00,AAXX 09064 85586 NIL=
85586,2017,07,09,09,00,AAXX 09094 85586 NIL=
85586,2017,07,09,12,00,AAXX 09124 85586 14220 6//// 10074 20073 30140 40234 53010 60001 71022 82602 333 20065 31/// 55000 566/6 70000 82704 85073=
85586,2017,07,09,15,00,AAXX 09154 85586 41240 61607 10110 20109 30140 40233 50001 71022 87600 333 566// 82704 87710==
85586,2017,07,09,18,00,AAXX 09184 85586 14460 51806 10147 20109 30122 40213 58018 60001 70122 85504 333 566/6 85615 85073=
85586,2017,07,09,21,00,AAXX 09214 85586 42560 62409 10143 20122 30116 40207 56008 87500 333 566// 87624==
85586,2017,07,10,00,00,AAXX 10004 85586 14960 21603 10112 20095 30120 40212 53005 60001 70111 80001 333 10154 56//6 82075=
85586,2017,07,10,03,00,AAXX 10034 85586 NIL=
85586,2017,07,10,06,00,AAXX 10064 85586 NIL=
85586,2017,07,10,09,00,AAXX 10094 85586 NIL=
85586,2017,07,10,12,00,AAXX 10124 85586 14960 71705 10077 20066 30102 40195 55002 60001 70211 80001 333 20064 30/// 55010 56//6 70000 87075=
85586,2017,07,10,15,00,AAXX 10154 85586 42/60 61504 10111 20083 30113 40200 51006 333 87073==
85586,2017,07,10,18,00,AAXX 10184 85586 14960 41806 10151 20084 30093 40180 58019 60001 70111 80001 333 84075=
85586,2017,07,10,21,00,AAXX 10214 85586 42/60 41807 10141 20055 30086 40173 55008 333=
85586,2017,07,11,00,00,AAXX 11004 85586 14960 01603 10093 20045 30094 40187 52012 60001 70100 80000 333 10159=
85586,2017,07,11,03,00,AAXX 11034 85586 NIL=
85586,2017,07,11,06,00,AAXX 11064 85586 NIL=
85586,2017,07,11,09,00,AAXX 11094 85586 NIL=
85586,2017,07,11,12,00,AAXX 11124 85586 14960 21104 10047 20037 30055 40149 53002 60001 70200 80001 333 20032 30/// 55056 56//6 70000 82075=
85586,2017,07,11,15,00,AAXX 11154 85586 41950 00802 10112 20070 30065 40153 52004 70500==
85586,2017,07,11,18,00,AAXX 11184 85586 14950 02705 10136 20083 30056 40143 58007 60001 71500 80000=
85586,2017,07,11,21,00,AAXX 11214 85586 41/58 22505 10126 20081 30060 40147 53002 70500 333 83075==
85586,2017,07,12,00,00,AAXX 12004 85586 14960 41203 10071 20065 30067 40160 51011 60001 70211 80001 333 10146 56//6 84075=
85586,2017,07,12,03,00,AAXX 12034 85586 NIL=
85586,2017,07,12,06,00,AAXX 12064 85586 NIL=
85586,2017,07,12,09,00,AAXX 12094 85586 NIL=
85586,2017,07,12,12,00,AAXX 12124 85586 14560 80507 10119 20093 30079 40171 52006 60001 70222 885// 333 20034 31/// 55058 70000 88631=
85586,2017,07,12,15,00,AAXX 12154 85586 42560 60208 10141 20096 30094 40181 50010 87500 333 560// 87627==
85586,2017,07,12,18,00,AAXX 12184 85586 14560 73309 10138 20110 30086 40173 58006 60001 70222 87500 333 560// 87633=
85586,2017,07,12,21,00,AAXX 12214 85586 42460 83409 10136 20101 30092 40179 53004 8783/ 333 5600/ 82615 84625 87630 81363==
85586,2017,07,13,00,00,AAXX 13004 85586 14660 80404 10117 20088 30096 40188 51009 60001 70222 885// 333 10155 88643=
85586,2017,07,13,03,00,AAXX 13034 85586 NIL=
85586,2017,07,13,12,00,AAXX 13124 85586 14360 80204 10115 20104 30134 40226 53020 60051 70266 885// 333 20101 32/// 55000 561// 70058 85709 88615=
85586,2017,07,13,15,00,AAXX 13154 85586 42460 63507 10142 20110 30154 40242 51017 87800 333 560// 86615 87640==
85586,2017,07,13,18,00,AAXX 13184 85586 14430 82905 10122 20113 30149 40241 50001 60031 76122 888// 333 566// 85814 88627=
85586,2017,07,13,21,00,AAXX 13214 85586 41460 62605 10132 20113 30152 40240 55002 70262 84809 333 566// 84819 82656=
85586,2017,07,14,00,00,AAXX 14004 85586 14960 31803 10105 20097 30155 40248 51008 60001 70111 80002 333 10146 56//6 83075=
85586,2017,07,14,03,00,AAXX 14034 85586 NIL=
85586,2017,07,14,06,00,AAXX 14064 85586 NIL=
85586,2017,07,14,09,00,AAXX 14094 85586 NIL=
85586,2017,07,14,12,00,AAXX 14124 85586 14105 7//// 10060 20059 30135 40229 55010 60001 72822 87600 333 20050 32/// 55006 566// 70034 87702=
85586,2017,07,14,15,00,AAXX 14154 85586 42660 40703 10100 20099 30149 40236 53010 84500 333 563// 84635==
85586,2017,07,14,18,00,AAXX 14184 85586 14560 23106 10133 20067 30132 40224 57012 60001 70111 82100 333 566// 82822=
85586,2017,07,14,21,00,AAXX 14214 85586 42660 23306 10139 20053 30117 40208 55017 82100 333 566// 82844==
85586,2017,07,15,00,00,AAXX 15004 85586 14660 30107 10113 20052 30113 40205 58005 60001 70111 83100 333 10147 566// 83849=
85586,2017,07,15,03,00,AAXX 15034 85586 NIL=
85586,2017,07,15,06,00,AAXX 15064 85586 NIL=
85586,2017,07,15,09,00,AAXX 15094 85586 NIL=
85586,2017,07,15,12,00,AAXX 15124 85586 14560 40808 10041 20028 30158 40253 53017 60071 70166 84500 333 20041 32/// 55060 566// 70068 84624=
85586,2017,07,15,15,00,AAXX 15154 85586 41560 60505 10074 20047 30181 40275 53023 72511 86800 333 566// 84832 86641==
85586,2017,07,15,18,00,AAXX 15184 85586 14560 72908 10094 20054 30176 40269 58007 69941 72511 87800 333 566// 85825 87637=
85586,2017,07,15,21,00,AAXX 15214 85586 42560 40804 10098 20054 30184 40277 51009 84500 333 566// 84626==
85586,2017,07,16,00,00,AAXX 16004 85586 14960 2//// 10059 20042 30194 40289 51011 60001 70111 80001 333 10116 56//6 82073=
85586,2017,07,16,03,00,AAXX 16034 85586 NIL=
85586,2017,07,16,06,00,AAXX 16064 85586 NIL=
85586,2017,07,16,09,00,AAXX 16094 85586 NIL=
85586,2017,07,16,12,00,AAXX 16124 85586 14908 01204 10020 20016 30218 40314 53010 60001 74100 80000 333 20015 31/// 55040 70004=
85586,2017,07,16,15,00,AAXX 16154 85586 41160 01507 10063 20043 30230 40325 53003 70144 81500 333 566// 81602==
85586,2017,07,16,18,00,AAXX 16184 85586 14960 01706 10114 20035 30213 40306 58016 60001 70000 80000=
85586,2017,07,16,21,00,AAXX 16214 85586 42960 01607 10111 20011 30205 40298 58009==
85586,2017,07,17,00,00,AAXX 17004 85586 14960 0//// 10064 21008 30191 40286 58014 60001 70000 80000 333 10118=
85586,2017,07,17,03,00,AAXX 17034 85586 NIL=
85586,2017,07,17,06,00,AAXX 17064 85586 NIL=
85586,2017,07,17,09,00,AAXX 17094 85586 NIL=
85586,2017,07,17,12,00,AAXX 17124 85586 14960 01604 10012 21010 30161 40257 53000 60001 70200 80000 333 20000 34/// 55064 70000=
85586,2017,07,17,15,00,AAXX 17154 85586 42960 01504 10093 20008 30165 40253 54000==
85586,2017,07,17,18,00,AAXX 17184 85586 14960 01503 10142 20019 30134 40226 58026 60001 70200 80000=
85586,2017,07,17,21,00,AAXX 17214 85586 NIL=
85586,2017,07,18,00,00,AAXX 18004 85586 14960 00000 10062 20037 30129 40223 54000 60001 70200 80000 333 10154=
85586,2017,07,18,12,00,AAXX 18124 85586 14960 01203 10026 20016 30105 40200 53002 60001 70200 80000 333 20019 31/// 55070 70000=
85586,2017,07,18,15,00,AAXX 18154 85586 41958 02004 10118 20059 30119 40207 53010 70500 333 81075==
85586,2017,07,18,18,00,AAXX 18184 85586 14960 11304 10169 20071 30094 40184 58018 60001 70200 80002 333 56//6 81073=
85586,2017,07,18,21,00,AAXX 18214 85586 42960 02409 10147 20087 30096 40187 53003==
85586,2017,07,19,00,00,AAXX 19004 85586 14960 00000 10084 20067 30110 40203 52017 60001 70200 80000 333 10183=
85586,2017,07,19,03,00,AAXX 19034 85586 NIL=
85586,2017,07,19,06,00,AAXX 19064 85586 NIL=
85586,2017,07,19,09,00,AAXX 19094 85586 NIL=
85586,2017,07,19,12,00,AAXX 19124 85586 14960 01204 10053 20038 30106 40200 53015 60001 70200 80000 333 20025 31/// 55071 70000=
85586,2017,07,19,15,00,AAXX 19154 85586 42960 02407 10115 20073 30121 40208 51010 333 81075==
85586,2017,07,19,18,00,AAXX 19184 85586 14960 01608 10186 20089 30090 40180 58025 60001 70000 80000=
85586,2017,07,19,21,00,AAXX 19214 85586 42/60 22705 10154 20102 30079 40170 55012 333 56//6 83075==
85586,2017,07,20,00,00,AAXX 20004 85586 14960 0//// 10100 20060 30082 40174 51003 60001 70000 80000 333 10205=
85586,2017,07,20,03,00,AAXX 20034 85586 NIL=
85586,2017,07,20,06,00,AAXX 20064 85586 NIL=
85586,2017,07,20,09,00,AAXX 20094 85586 NIL=
85586,2017,07,20,12,00,AAXX 20124 85586 14960 31604 10086 20044 30089 40182 51012 60001 70100 80004 333 20049 31/// 55067 56//6 70000 83074=
85586,2017,07,20,15,00,AAXX 20154 85586 42/60 21708 10156 20050 30089 40180 52001 333 56//6 83074==
85586,2017,07,20,18,00,AAXX 20184 85586 14960 01304 10204 20085 30069 40158 58020 60001 70000 80000=
85586,2017,07,20,21,00,AAXX 20214 85586 42/60 22004 10230 20092 30064 40148 55009 333 83075==
85586,2017,07,21,00,00,AAXX 21004 85586 14960 0//// 10163 20084 30071 40161 51011 60001 70000 80000 333 10239=
85586,2017,07,21,03,00,AAXX 21034 85586 NIL=
85586,2017,07,21,06,00,AAXX 21064 85586 NIL=
85586,2017,07,21,09,00,AAXX 21094 85586 NIL=
85586,2017,07,21,12,00,AAXX 21124 85586 14120 80803 10094 20086 30074 40167 51018 60001 71022 886// 333 20084 31/// 55060 566// 70000 88703=
85586,2017,07,21,15,00,AAXX 21154 85586 41358 22906 10129 20108 30084 40171 52007 70522 83600 333 567// 83708==
85586,2017,07,21,18,00,AAXX 21184 85586 14460 23009 10141 20107 30074 40165 58007 60001 70100 82500 333 566// 82613=
85586,2017,07,21,21,00,AAXX 21214 85586 41/58 23108 10135 20107 30068 40159 55006 70500 333 56//6 82075==
85586,2017,07,22,00,00,AAXX 22004 85586 14960 0//// 10109 20098 30075 40167 52007 60001 70000 80000 333 10148=
85586,2017,07,22,03,00,AAXX 22034 85586 NIL=
85586,2017,07,22,06,00,AAXX 22064 85586 NIL=
85586,2017,07,22,12,00,AAXX 22124 85586 14560 80505 10120 20083 30093 40186 53013 60001 70222 885// 333 20081 30/// 55056 566// 70000 88624=
85586,2017,07,22,15,00,AAXX 22154 85586 42560 80309 10127 20086 30110 40202 51018 885// 333 566// 88629==
85586,2017,07,22,18,00,AAXX 22184 85586 14560 83607 10130 20093 30109 40201 58001 69901 70255 885// 333 566// 88620=
85586,2017,07,22,21,00,AAXX 22214 85586 41450 83606 10128 20100 30103 40195 55006 72022 885// 333 566// 88619==
85586,2017,07,23,00,00,AAXX 23004 85586 14560 80303 10126 20096 30110 40202 53006 69901 70222 885// 333 10140 566// 88632=
85586,2017,07,23,03,00,AAXX 23034 85586 NIL=
85586,2017,07,23,06,00,AAXX 23064 85586 NIL=
85586,2017,07,23,09,00,AAXX 23094 85586 NIL=
85586,2017,07,23,12,00,AAXX 23124 85586 14760 71102 10111 20089 30116 40208 53004 60001 70222 87500 333 20110 30/// 55000 566// 79999 87650=
85586,2017,07,23,15,00,AAXX 23154 85586 42560 80503 10146 20099 30126 40217 51009 885// 333 566//=
85586,2017,07,23,18,00,AAXX 23184 85586 14440 82703 10123 20117 30122 40214 57002 69981 76182 885// 333 566// 85616 88620=
85586,2017,07,23,21,00,AAXX 23214 85586 41357 83003 10126 20115 30128 40220 53005 70562 885// 333 566//=
85586,2017,07,24,00,00,AAXX 24004 85586 14740 80000 10117 20112 30134 40226 53006 69921 71022 8353/ 333 10151 566// 83650 88357=
85586,2017,07,24,12,00,AAXX 24124 85586 14360 81605 10094 20085 30140 40232 53003 60001 70222 886// 333 20074 31/// 55000 70010 88707=
85586,2017,07,24,15,00,AAXX 24154 85586 42360 61505 10106 20085 30142 40235 50002 87500 333 566// 87608==
85586,2017,07,24,18,00,AAXX 24184 85586 14560 41606 10147 20098 30118 40209 58023 60001 70122 84500 333 566// 84620=
85586,2017,07,24,21,00,AAXX 24214 85586 42560 01707 10156 20079 30107 40194 56016 81500 333 564// 81625==
85586,2017,07,25,00,00,AAXX 25004 85586 14960 01503 10102 20073 30102 40195 55001 60001 70200 80000 333 10163=
85586,2017,07,25,03,00,AAXX 25034 85586 NIL=
85586,2017,07,25,06,00,AAXX 25064 85586 NIL=
85586,2017,07,25,09,00,AAXX 25094 85586 NIL=
85586,2017,07,25,12,00,AAXX 25124 85586 14960 40000 10037 20034 30073 40167 53003 60001 70211 80001 333 20022 31/// 55065 56//6 70000 84075=
85586,2017,07,25,15,00,AAXX 25154 85586 42/60 23203 10108 20075 30092 40184 53020 333 56//6 82075==
85586,2017,07,25,18,00,AAXX 25184 85586 14960 12509 10129 20063 30109 40197 52013 60001 70200 80002 333 81075=
85586,2017,07,25,21,00,AAXX 25214 85586 42960 02405 10133 20078 30122 40210 53013 333 81075==
85586,2017,07,26,00,00,AAXX 26004 85586 14960 01102 10069 20059 30131 40220 50008 60001 70200 80000 333 10141=
85586,2017,07,26,03,00,AAXX 26034 85586 NIL=
85586,2017,07,26,12,00,AAXX 26124 85586 14960 0//// 10034 20028 30093 40188 57006 60001 70000 80000 333 20021 31/// 55058 70000=
85586,2017,07,26,15,00,AAXX 26154 85586 41958 01204 10098 20064 30095 40183 58004 70500==
85586,2017,07,26,18,00,AAXX 26184 85586 14960 12507 10136 20081 30063 40154 58027 60001 70000 80001 333 56//6 81074=
85586,2017,07,26,21,00,AAXX 26214 85586 42960 02408 10131 20096 30059 40150 55004 333 56//6 81074==
85586,2017,07,27,00,00,AAXX 27004 85586 14960 00903 10083 20077 30070 40163 53011 60001 70000 80000 333 10145=
85586,2017,07,27,03,00,AAXX 27034 85586 NIL=
85586,2017,07,27,06,00,AAXX 27064 85586 NIL=
85586,2017,07,27,09,00,AAXX 27094 85586 NIL=
85586,2017,07,27,12,00,AAXX 27124 85586 14130 81202 10026 20025 30090 40180 52009 60001 71022 886// 333 20013 31/// 55074 562// 70000 88702=
85586,2017,07,27,15,00,AAXX 2715/ 85586 41/58 4//// 10100 20056 30095 40188 50011 70500 333 56//6 84074==
85586,2017,07,27,18,00,AAXX 27184 85586 14958 32607 10119 20062 30084 40176 58012 60001 70511 80004 333 56//6 83074=
85586,2017,07,27,21,00,AAXX 27214 85586 42/60 62408 10117 20075 30090 40182 53006 333 56//6 86073==
85586,2017,07,28,00,00,AAXX 28004 85586 14960 41103 10074 20063 30101 40194 52011 60001 70200 80001 333 10129 56//6 84073=
85586,2017,07,28,03,00,AAXX 28034 85586 NIL=
85586,2017,07,28,06,00,AAXX 28064 85586 NIL=
85586,2017,07,28,09,00,AAXX 28094 85586 NIL=
85586,2017,07,28,12,00,AAXX 28124 85586 14960 6//// 10038 20032 30112 40207 51008 60001 70211 80001 333 20029 31/// 55064 56//6 70000 86073=
85586,2017,07,28,15,00,AAXX 28154 85586 42/60 61103 10116 20079 30124 40211 50007 333 86075==
85586,2017,07,28,18,00,AAXX 28184 85586 14960 02510 10142 20099 30107 40198 58011 60001 70100 80000=
85586,2017,07,28,21,00,AAXX 28214 85586 42/60 42307 10137 20109 30107 40198 55001 333 56//6 84073==
85586,2017,07,29,00,00,AAXX 29004 85586 14960 12104 10108 20091 30128 40221 51021 60001 70100 80001 333 10164 56//6 81075=
85586,2017,07,29,06,00,AAXX 29064 85586 NIL=
85586,2017,07,29,12,00,AAXX 29124 85586 14960 21604 10070 20045 30112 40206 53003 60001 70200 80001 333 20069 30/// 55057 56//6 70000 82075=
85586,2017,07,29,15,00,AAXX 29154 85586 42/60 61708 10115 20056 30123 40215 51011 333 56//6 86073==
85586,2017,07,29,18,00,AAXX 29184 85586 14960 62511 10135 20071 30108 40200 58015 60001 70222 80002 333 56//6 86073=
85586,2017,07,29,21,00,AAXX 29214 85586 42/60 42312 10117 20060 30116 40208 53009 333 56//6=
85586,2017,07,30,00,00,AAXX 30004 85586 14960 32003 10072 20055 30129 40222 53011 60001 70211 80002 333 10141 56//6 83073=
85586,2017,07,30,12,00,AAXX 30124 85586 14960 01203 10016 20012 30121 40217 51004 60001 70222 80000 333 20002 31/// 55068 70000=
85586,2017,07,30,15,00,AAXX 30154 85586 42960 01203 10106 20064 30125 40218 50003 333 56//6 81075==
85586,2017,07,30,18,00,AAXX 30184 85586 14960 42510 10117 20065 30107 40199 58018 60001 70300 80002 333 56//6 84075=
85586,2017,07,30,21,00,AAXX 30214 85586 42/60 62506 10115 20073 30098 40190 55009 333 56//6 86075==
85586,2017,07,31,00,00,AAXX 31004 85586 14960 11203 10060 20051 30099 40193 53002 60001 70111 80001 333 10126 56//6 81075=
85586,2017,07,31,06,00,AAXX 31064 85586 NIL=
85586,2017,07,31,12,00,AAXX 31124 85586 14904 21203 10016 20013 30078 40173 53008 60001 74600 82030 333 20012 31/// 55068 56/6/ 70000 82365=
85586,2017,07,31,15,00,AAXX 31154 85586 41/58 20803 10106 20075 30091 40178 52008 70500 83030 333 83365==
85586,2017,07,31,18,00,AAXX 31184 85586 14958 63405 10132 20081 30076 40167 58010 60001 70522 86030 333 56/6/ 86367=
85586,2017,07,31,21,00,AAXX 31214 85586 41/58 43103 10114 20075 30077 40169 53002 70500 84030 333 56/6/ 84364==
85586,2017,08,01,00,00,AAXX 01004 85586 14960 30903 10076 20065 30078 40171 50001 60001 70100 83030 333 10133 56/6/ 83364=
85586,2017,08,01,06,00,AAXX 01064 85586 NIL=
85586,2017,08,01,12,00,AAXX 01124 85586 14960 40703 10084 20064 30108 40201 52016 60001 70100 84030 333 20061 31/// 55065 56/6/ 70000 84364=
85586,2017,08,01,15,00,AAXX 01154 85586 42560 60204 10126 20081 30130 40222 52022 86130 333 5666/ 82830 86362==
85586,2017,08,01,18,00,AAXX 01184 85586 14560 83305 10125 20086 30144 40232 51010 60001 70222 8753/ 333 567// 84630 85650 83362=
85586,2017,08,01,21,00,AAXX 01214 85586 42660 43503 10145 20071 30150 40238 52006=
85586,2017,08,02,00,00,AAXX 02004 85586 14760 21202 10091 20072 30160 40248 53009 60001 70110 82500 333 10149 563// 82656=
85586,2017,08,02,06,00,AAXX 02064 85586 NIL=
85586,2017,08,02,12,00,AAXX 02124 85586 14950 01203 10059 20045 30170 40260 52006 60001 71000 80000 333 20047 31/// 55014 70000=
85586,2017,08,02,15,00,AAXX 02154 85586 41958 01403 10130 20079 30169 40256 58001 70500==
85586,2017,08,02,18,00,AAXX 02184 85586 14958 21906 10170 20074 30137 40224 58030 60001 70500 80001 333 82075=
85586,2017,08,02,21,00,AAXX 02214 85586 42960 02506 10154 20102 30114 40205 56020 333 56//6 81075==
85586,2017,08,03,00,00,AAXX 03004 85586 14960 01504 10112 20072 30107 40199 58007 60001 70000 80000 333 10175=
85586,2017,08,03,12,00,AAXX 03124 85586 14958 3//// 10038 20034 30076 40170 53012 60001 70500 80001 333 20019 30/// 55080 56//6 70000 83075=
85586,2017,08,03,15,00,AAXX 03154 85586 41/50 43605 10107 20070 30098 40190 52022 70500 333 56//6 84075==
85586,2017,08,03,18,00,AAXX 03184 85586 14960 43208 10127 20080 30096 40188 58002 60001 70211 80002 333 56//6 84075=
85586,2017,08,03,21,00,AAXX 03214 85586 42460 42706 10112 20079 30101 40193 53004=
85586,2017,08,04,00,00,AAXX 04004 85586 14460 83105 10112 20083 30113 40205 52013 60001 70222 885// 333 10133 88616=
85586,2017,08,04,06,00,AAXX 04064 85586 NIL=
85586,2017,08,04,12,00,AAXX 04124 85586 14450 80703 10105 20081 30111 40204 53003 60001 71022 886// 333 20104 31/// 55060 70000 88710=
85586,2017,08,04,15,00,AAXX 04154 85586 41457 80304 10110 20073 30119 40211 52007 70522 885// 333 88616==
85586,2017,08,04,18,00,AAXX 04184 85586 14558 83204 10120 20073 30105 40197 58014 60001 70522 885// 333 566// 88621=
85586,2017,08,04,21,00,AAXX 04214 85586 41557 82605 10108 20074 30096 40188 55009 70522 885// 333 566// 88620==
85586,2017,08,05,00,00,AAXX 05004 85586 14460 8//// 10105 20072 30104 40196 50009 60001 70222 885// 333 10122 566// 88618=
85586,2017,08,05,06,00,AAXX 05064 85586 NIL=
85586,2017,08,05,12,00,AAXX 05124 85586 14560 8//// 10095 20066 30120 40213 53011 60001 70222 885// 333 20092 31/// 55000 566// 70000 88620=
85586,2017,08,05,15,00,AAXX 05154 85586 42560 80405 10112 20062 30130 40222 51011 885// 333 566// 88629==
85586,2017,08,05,18,00,AAXX 05184 85586 14660 73406 10140 20059 30116 40207 58014 60001 70222 87500 333 566// 87635=
85586,2017,08,05,21,00,AAXX 05214 85586 42760 63204 10143 20067 30121 40208 53001 84630 333 567// 84656 84358==
85586,2017,08,06,00,00,AAXX 06004 85586 14660 61501 10114 20081 30129 40216 50007 60001 70222 86500 333 10153 561// 86635=
85586,2017,08,06,06,00,AAXX 06064 85586 NIL=
85586,2017,08,06,12,00,AAXX 06124 85586 14760 60000 10065 20058 30116 40205 55002 60001 70222 82531 333 20064 31/// 55033 562// 70000 82656 83358 84075=
85586,2017,08,06,15,00,AAXX 06154 85586 41/57 41004 10120 20083 30124 40212 51011 70522 82036 333 82368=
85586,2017,08,06,18,00,AAXX 06184 85586 14560 32509 10143 20099 30103 40194 58017 60001 70100 81101 333 566/6 81825 82075=
85586,2017,08,06,21,00,AAXX 06214 85586 42960 02508 10138 20108 30090 40181 57014 333 56//6 81075==
85586,2017,08,07,00,00,AAXX 07004 85586 14957 73602 10097 20093 30098 40191 51008 60001 71000 80001 333 10161 56//6 87075=
85586,2017,08,07,12,00,AAXX 07124 85586 14360 8//// 10097 20093 30111 40204 51023 60001 70222 875// 333 20093 30/// 55063 566// 70000 84608 87626=
85586,2017,08,07,15,00,AAXX 07154 85586 42460 60106 10129 20094 30128 40220 51016=
85586,2017,08,07,18,00,AAXX 07184 85586 14460 33009 10143 20104 30116 40207 58010 60001 70211 81502 333 566/6 81615 83075=
85586,2017,08,07,21,00,AAXX 07214 85586 42/60 63406 10131 20098 30124 40216 50007 84032 333 56/66 84360=
85586,2017,08,08,00,00,AAXX 08004 85586 14960 80904 10115 20080 30131 40223 50007 60001 70222 8803/ 333 10150 88366=
85586,2017,08,08,06,00,AAXX 08064 85586 NIL=
85586,2017,08,08,12,00,AAXX 08124 85586 14960 51203 10057 20050 30092 40186 56015 60001 70222 80001 333 20057 31/// 55038 56//6 70000 85075=
85586,2017,08,08,15,00,AAXX 08154 85586 42/60 60403 10152 20102 30087 40178 57004 333 56//6 86072==
85586,2017,08,08,18,00,AAXX 08184 85586 14958 5//// 10175 20107 30051 40141 58037 60001 70511 85030 333 56/6/ 85364=
85586,2017,08,08,21,00,AAXX 08214 85586 41/60 42305 10141 20105 30050 40141 55001 70522=
85586,2017,08,09,00,00,AAXX 09004 85586 14960 21003 10103 20094 30050 40142 50001 60001 70100 80002 333 10201 56//6 82073=
85586,2017,08,09,06,00,AAXX 09064 85586 NIL=
85586,2017,08,09,12,00,AAXX 09124 85586 14960 60803 10114 20060 30046 40138 55004 60001 70222 85034 333 20089 30/// 55042 56/66 70000 84363 83074=
85586,2017,08,09,15,00,AAXX 09154 85586 42/60 60105 10136 20081 30060 40151 50013 87030 333 56/6/ 87364==
85586,2017,08,09,18,00,AAXX 09184 85586 14960 63207 10144 20105 30060 40151 55001 60001 70222 86030 333 56/6/ 84361 86364=
85586,2017,08,09,21,00,AAXX 09214 85586 41220 83607 10124 20116 30069 40156 53006 78186 888// 333 560// 82804=
85586,2017,08,10,00,00,AAXX 10004 85586 14450 80906 10107 20104 30067 40155 50001 60191 76386 885// 333 10153 562// 82615 88640=
85586,2017,08,10,06,00,AAXX 10064 85586 NIL=
85586,2017,08,10,12,00,AAXX 10124 85586 14560 70606 10100 20081 30085 40172 53003 69981 71562 86530 333 20098 32/// 55000 562// 70396 86625 86359=
85586,2017,08,10,15,00,AAXX 10154 85586 42560 60409 10124 20093 30087 40175 50004 83532 333 561// 83625 84358=
85586,2017,08,10,18,00,AAXX 10184 85586 14560 83505 10134 20097 30078 40165 58008 60001 70222 86501 333 567// 86625 86071=
85586,2017,08,10,21,00,AAXX 10214 85586 42/60 63607 10131 20099 30078 40169 53003 84034 333 56/55 84359 87070==
85586,2017,08,11,00,00,AAXX 11004 85586 14558 83404 10112 20096 30089 40181 53012 69921 72122 885// 333 10140 565// 88626=
85586,2017,08,11,06,00,AAXX 11064 85586 NIL=
85586,2017,08,11,12,00,AAXX 11124 85586 14660 80705 10090 20084 30097 40190 53015 60061 72166 885// 333 20089 32/// 55000 565// 70096 88646=
85586,2017,08,11,15,00,AAXX 11154 85586 42/60 60803 10115 20084 30105 40197 51008 86021 333 56/55 86363 81073==
85586,2017,08,11,18,00,AAXX 11184 85586 14460 83006 10116 20092 30109 40201 51005 69921 70262 8483/ 333 562// 82815 83620 88360=
85586,2017,08,11,21,00,AAXX 11214 85586 41560 80503 10105 20065 30120 40213 53010 70262=
85586,2017,08,12,00,00,AAXX 12004 85586 14760 40904 10090 20056 30139 40232 51020 69901 70122 83530 333 10124 5633/ 83656 83366=
85586,2017,08,12,06,00,AAXX 12064 85586 NIL=
85586,2017,08,12,12,00,AAXX 12124 85586 14960 01203 10038 20037 30158 40253 52014 60001 70200 80000 333 20031 31/// 55000 70002=
85586,2017,08,12,15,00,AAXX 12154 85586 42960 02605 10102 20075 30170 40233 52012 333 56//6 81075==
85586,2017,08,12,18,00,AAXX 12184 85586 14460 22607 10127 20072 30165 40257 58004 60001 70100 82100 333 566// 82816=
85586,2017,08,12,21,00,AAXX 12214 85586 42/60 22309 10116 20079 30173 40266 53008 333 56//6 83073==
85586,2017,08,13,00,00,AAXX 13004 85586 14960 00902 10075 20061 30191 40285 51019 60001 70000 80000 333 10134=
85586,2017,08,13,06,00,AAXX 13064 85586 NIL=
85586,2017,08,13,12,00,AAXX 13124 85586 14960 81102 10070 20060 30181 40275 53006 60001 70222 8803/ 333 20055 31/// 55066 56/6/ 70000 88364=
85586,2017,08,13,15,00,AAXX 13154 85586 42/60 80404 10112 20066 30185 40278 50004 8803/ 333 56/6/ 88363==
85586,2017,08,13,18,00,AAXX 13184 85586 14760 83408 10134 20049 30159 40247 58029 60001 70222 8553/ 333 567// 85656 87360=
85586,2017,08,13,21,00,AAXX 13214 85586 41660 83605 10122 20065 30156 40243 58006 72582 885// 333 560//=
85586,2017,08,14,00,00,AAXX 14004 85586 14550 81602 10089 20074 30163 40251 53008 60021 78182 888// 333 10141 563// 84820 88635=
85586,2017,08,14,06,00,AAXX 14064 85586 NIL=
85586,2017,08,14,12,00,AAXX 14124 85586 14660 21503 10068 20062 30149 40238 51013 60001 70121 82500 333 20061 32/// 55000 563// 70054 82645=
85586,2017,08,14,15,00,AAXX 14154 85586 42460 21505 10137 20098 30155 40243 51007 82100 333 563// 82817==
85586,2017,08,14,18,00,AAXX 14184 85586 14560 11804 10166 20107 30133 40220 58021 60001 70200 81100 333 564// 81825=
85586,2017,08,14,21,00,AAXX 14214 85586 42660 02411 10138 20101 30132 40220 55003 81500 333 565// 81640==
85586,2017,08,15,00,00,AAXX 15004 85586 14960 00000 10100 20088 30142 40230 53010 60001 70100 80000 333 10167=
85586,2017,08,15,12,00,AAXX 15124 85586 14960 81604 10083 20063 30145 40234 53010 60001 70422 85032 333 20054 31/// 55000 70000 85365 87272=
85586,2017,08,15,15,00,AAXX 15154 85586 42/60 42108 10112 20081 30154 40242 51010 83031 333 83365 84175==
85586,2017,08,15,18,00,AAXX 15184 85586 14960 31607 10168 20087 30127 40218 58022 60001 70111 80004 333 56//5 83073=
85586,2017,08,15,21,00,AAXX 15214 85586 42/60 41807 10164 20094 30111 40201 56015 333 56//5 84075==
85586,2017,08,16,00,00,AAXX 16004 85586 14960 2//// 10104 20093 30117 40210 51005 60001 70100 80001 333 10184 56//5 82075=
85586,2017,08,16,12,00,AAXX 16124 85586 14960 1//// 10059 20045 30112 40206 50006 60001 70200 80001 333 20058 30/// 55060 56//5 70000 81075=
85586,2017,08,16,18,00,AAXX 16184 85586 14960 02413 10144 20077 30097 40188 58016 60001 70000 80000=
85586,2017,08,16,21,00,AAXX 16214 85586 42960 02605 10144 20095 30096 40187 57003==
85586,2017,08,17,00,00,AAXX 17004 85586 14960 00903 10093 20082 30107 40200 51012 60001 70200 80000 333 10166=
85586,2017,08,17,12,00,AAXX 17124 85586 14960 41104 10047 20044 30101 40195 58010 60001 70300 80001 333 20028 31/// 55086 56//5 70000 84075=
85586,2017,08,17,15,00,AAXX 1715/ 85586 42/60 4//// 10139 20088 30100 40191 58001 333 56//5 84075==
85586,2017,08,17,18,00,AAXX 17184 85586 14960 12412 10148 20096 30085 40176 58013 60001 70100 80001 333 56//6 81074=
85586,2017,08,17,21,00,AAXX 17214 85586 42/60 22606 10140 20115 30084 40175 55003 333 56//6 82074==
85586,2017,08,18,00,00,AAXX 18004 85586 14260 60803 10108 20103 30092 40184 51008 60001 70222 86600 333 10173 566// 86704=
85586,2017,08,18,12,00,AAXX 18124 85586 14115 80903 10096 20092 30100 40193 52011 60001 71022 886// 333 20096 31/// 55082 566// 70000 82702 85704 88707=
85586,2017,08,18,15,00,AAXX 18154 85586 41340 82506 10109 20095 30112 40204 53016 71022 888// 333 566// 83807 88610==
85586,2017,08,18,18,00,AAXX 18184 85586 14860 72903 10120 20092 30100 40192 58017 60001 70222 87030 333 56/6/ 87356=
85586,2017,08,18,21,00,AAXX 1821/ 85586 41557 8//// 10106 20095 30107 40199 51009 76322 885// 333 566// 88633==
85586,2017,08,19,00,00,AAXX 19004 85586 14440 8//// 10102 20097 30113 40206 53007 60101 76166 888// 333 10126 566// 82814 88628=
85586,2017,08,19,12,00,AAXX 19124 85586 14560 51603 10092 20086 30158 40251 52020 60041 70111 85500 333 20088 32/// 55000 566// 70132 83630 85639=
85586,2017,08,19,15,00,AAXX 1915/ 85586 42660 2//// 10141 20081 30175 40267 51017 81104 333 566/6 81847 83074==
85586,2017,08,19,18,00,AAXX 19184 85586 14560 22411 10144 20097 30166 40258 58009 60001 70111 82100 333 566// 82830=
85586,2017,08,19,21,00,AAXX 19214 85586 42660 02311 10140 20089 30165 40253 55005 81500 333 565// 81640==
85586,2017,08,20,00,00,AAXX 20004 85586 14960 01704 10099 20070 30169 40257 53003 60001 70100 80000 333 10153=
85586,2017,08,20,12,00,AAXX 20124 85586 14960 31406 10079 20055 30153 40242 55005 60001 70100 80001 333 20049 31/// 55086 70000 83075=
85586,2017,08,20,15,00,AAXX 20154 85586 42/60 21805 10138 20074 30143 40231 58009 333 82075==
85586,2017,08,20,18,00,AAXX 20184 85586 14960 51706 10182 20071 30123 40209 58020 60001 70321 80001 333 85075=
85586,2017,08,20,21,00,AAXX 20214 85586 42/60 62506 10158 20108 30105 40192 56018 333 86075==
85586,2017,08,21,00,00,AAXX 21004 85586 14960 51606 10139 20053 30092 40179 55012 60001 70222 80006 333 10186 85075=
85586,2017,08,21,12,00,AAXX 21124 85586 14960 41303 10068 20047 30063 40151 55008 60001 70300 80001 333 20039 31/// 55093 70000 84075=
85586,2017,08,21,15,00,AAXX 21154 85586 42/60 23202 10150 20083 30067 40154 51005 333 83075==
85586,2017,08,21,18,00,AAXX 21184 85586 14960 52508 10143 20094 30053 40144 58009 60001 70300 80004 333 56//5 85075=
85586,2017,08,21,21,00,AAXX 21214 85586 42/60 63004 10133 20098 30047 40138 56007 333 56//5 87075==
85586,2017,08,22,00,00,AAXX 22004 85586 14960 43103 10102 20091 30042 40134 55005 60001 70122 80004 333 10163 56//5 84075=
85586,2017,08,22,12,00,AAXX 22124 85586 14460 83606 10105 20083 30080 40172 50004 60001 70222 885// 333 20075 31/// 55079 565// 79999 88615=
85586,2017,08,22,15,00,AAXX 22154 85586 42560 83311 10122 20087 30084 40176 50006 885// 333 565// 88624==
85586,2017,08,22,18,00,AAXX 22184 85586 14560 73213 10123 20092 30081 40173 56006 60001 70222 87504 333 565/5 85620 86632 82074=
85586,2017,08,22,21,00,AAXX 22214 85586 41550 83311 10112 20096 30088 40180 53009 72155 886// 333 565// 88620==
85586,2017,08,23,00,00,AAXX 23004 85586 14460 83305 10111 20095 30097 40189 52008 69941 70266 885// 333 10129 565// 82617 88626=
85586,2017,08,23,12,00,AAXX 23124 85586 14558 7//// 10085 20081 30120 40214 51010 69941 72055 87500 333 20083 32/// 55000 565// 70066 85629 87639=
85586,2017,08,23,15,00,AAXX 23154 85586 41356 81003 10104 20090 30117 40210 58004 70555 885// 333 565//=
85586,2017,08,23,18,00,AAXX 23184 85586 14360 7//// 10125 20099 30090 40182 58026 69981 70122 87500 333 565// 84609 87625=
85586,2017,08,23,21,00,AAXX 23214 85586 42360 22409 10119 20097 30079 40171 55012 83500 333 566// 83608==
85586,2017,08,24,00,00,AAXX 24004 85586 14560 30000 10097 20083 30086 40179 53007 60001 70111 83500 333 10147 566// 83622=
85586,2017,08,24,12,00,AAXX 24124 85586 146// 40904 10086 20077 30073 40166 51004 60001 70111 84500 333 20060 31/// 55023 566// 70008 84639=
85586,2017,08,24,15,00,AAXX 2415/ 85586 42660 2//// 10139 20063 30085 40176 51012 82500 333 566// 82638==
85586,2017,08,24,18,00,AAXX 24184 85586 14960 22707 10133 20053 30077 40168 58008 60001 70100 80004 333 56//6 82074=
85586,2017,08,24,21,00,AAXX 24214 85586 42/60 22907 10128 20067 30076 40167 55002 333 56//6 82074==
85586,2017,08,25,00,00,AAXX 25004 85586 14960 01102 10086 20074 30087 40180 52011 60001 70000 80000 333 10142=
85586,2017,08,25,12,00,AAXX 25124 85586 14960 5//// 10078 20059 30109 40202 53021 60001 70222 80004 333 20053 31/// 55074 56//6 70000 85074=
85586,2017,08,25,15,00,AAXX 25154 85586 42660 61103 10126 20079 30127 40219 51019 87530 333 5666/ 82636 87356==
85586,2017,08,25,18,00,AAXX 25184 85586 14660 22507 10146 20082 30123 40214 58003 60001 70111 82500 333 566// 82637=
85586,2017,08,25,21,00,AAXX 25214 85586 42560 02905 10139 20090 30127 40214 55001 81100 333 567// 81830==
85586,2017,08,26,00,00,AAXX 26004 85586 14960 01002 10100 20091 30138 40226 53010 60001 70200 80000 333 10153=
85586,2017,08,26,12,00,AAXX 26124 85586 14460 81102 10099 20091 30124 40212 58002 60001 70222 85631 333 20068 31/// 55057 562// 70000 85618 85368 81075=
85586,2017,08,26,15,00,AAXX 26154 85586 42460 61804 10131 20094 30123 40211 55000 82531 333 564// 82813 86366 81075==
85586,2017,08,26,18,00,AAXX 26184 85586 14460 72509 10138 20098 30118 40205 58004 60001 70222 85430 333 566// 85817 85366=
85586,2017,08,26,21,00,AAXX 26214 85586 42560 22606 10135 20102 30106 40193 56012 81530 333 566// 81630 81368==
85586,2017,08,27,00,00,AAXX 27004 85586 14560 11802 10102 20093 30113 40201 53004 60001 70110 81500 333 10148 564// 81625=
85586,2017,08,27,12,00,AAXX 27124 85586 14450 51203 10089 20086 30103 40191 52004 60001 71021 85500 333 20065 31/// 55061 562// 70000 83610 84615=
85586,2017,08,27,15,00,AAXX 27154 85586 42460 23206 10133 20082 30107 40195 53004 82100 333 567// 82817==
85586,2017,08,27,18,00,AAXX 27184 85586 14560 23012 10136 20099 30101 40192 57002 60001 70200 82100 333 565// 82825=
85586,2017,08,27,21,00,AAXX 27214 85586 42960 03012 10134 20093 30098 40189 56003 333 56//5 81075==
85586,2017,08,28,00,00,AAXX 28004 85586 14960 50205 10116 20088 30105 40197 51008 60001 70300 82031 333 10145 56/55 82363 85175=
85586,2017,08,28,12,00,AAXX 28124 85586 14660 61003 10092 20077 30095 40188 52003 60001 70222 86501 333 20084 30/// 55094 565/5 70000 86643 81075=
85586,2017,08,28,15,00,AAXX 28154 85586 41250 82507 10103 20097 30109 40202 53014 72166 885// 333 565// 86604 88614==
85586,2017,08,28,18,00,AAXX 28184 85586 14450 8//// 10102 20088 30112 40205 50002 60041 72166 885// 333 565// 85610 88630=
85586,2017,08,28,21,00,AAXX 28214 85586 41156 83204 10099 20093 30121 40214 53011 72166 885// 333 565// 82603=
85586,2017,08,29,00,00,AAXX 29004 85586 14660 4//// 10094 20088 30139 40232 53017 60041 70155 84500 333 10119 565// 84646=
85586,2017,08,29,12,00,AAXX 29124 85586 14002 71103 10060 20059 30197 40292 51024 60001 72844 87600 333 20055 31/// 55000 565// 70080 87701=
85586,2017,08,29,15,00,AAXX 2915/ 85586 41157 0//// 10122 20091 30197 40290 50000 70500 81500 333 565// 81603==
85586,2017,08,29,18,00,AAXX 29184 85586 14560 11909 10152 20073 30168 40260 58027 60001 70100 81100 333 565// 81830=
85586,2017,08,29,21,00,AAXX 29214 85586 42960 01710 10162 20037 30145 40236 56024==
85586,2017,08,30,00,00,AAXX 30004 85586 14960 01604 10119 20039 30138 40230 57009 60001 70000 80000 333 10166=
85586,2017,08,30,12,00,AAXX 30124 85586 14960 0//// 10033 20029 30123 40218 53010 60001 70000 80000 333 20020 31/// 55084 70000=
85586,2017,08,30,15,00,AAXX 30154 85586 42960 01105 10127 20066 30116 40208 58004==
85586,2017,08,30,18,00,AAXX 30184 85586 14960 02514 10133 20074 30099 40190 56017 60001 70000 80000=
85586,2017,08,30,21,00,AAXX 30214 85586 42960 02411 10131 20082 30090 40181 56011==
85586,2017,08,31,00,00,AAXX 31004 85586 14960 0//// 10085 20076 30094 40188 51007 60001 70000 80000 333 10170=
85586,2017,08,31,12,00,AAXX 31124 85586 14958 01103 10038 20035 30079 40173 51006 60001 70500 80000 333 20024 31/// 55087 70000=
85586,2017,08,31,15,00,AAXX 3115/ 85586 42960 0//// 10113 20082 30090 40182 50011==
85586,2017,08,31,18,00,AAXX 31184 85586 14960 02510 10126 20089 30076 40167 58015 60001 70000 80000=
85586,2017,08,31,21,00,AAXX 31214 85586 42560 02509 10123 20091 30079 40167 56002 81100 333 566// 81820==
85586,2017,09,01,00,00,AAXX 01004 85586 14460 52903 10107 20080 30086 40173 51007 60001 70321 85500 333 10152 567// 85615=
85586,2017,09,01,12,00,AAXX 01124 85586 14560 80403 10103 20081 30103 40190 53011 60001 70222 885// 333 20064 31/// 55098 561// 70000 88625=
85586,2017,09,01,15,00,AAXX 01154 85586 42560 63608 10133 20069 30127 40215 52024 87500 333 560// 87630==
85586,2017,09,01,18,00,AAXX 01184 85586 14660 73011 10150 20088 30121 40208 58006 60001 70221 87501 333 567// 85635 83650 81075=
85586,2017,09,01,21,00,AAXX 01214 85586 42660 63307 10142 20086 30124 40211 53003 87500 333 567// 87635==
85586,2017,09,02,00,00,AAXX 02004 85586 14460 82302 10120 20092 30134 40221 51009 60001 70322 888// 333 10164 565// 82817 88620=
85586,2017,09,02,12,00,AAXX 02124 85586 14930 01201 10077 20074 30112 40200 53006 60001 71051 80000 333 20062 31/// 55040 79999=
85586,2017,09,02,15,00,AAXX 02154 85586 41456 61603 10135 20105 30123 40211 50011 70522 87600 333 563// 87710==
85586,2017,09,02,18,00,AAXX 02184 85586 14560 22413 10141 20094 30113 40200 57009 60001 70221 82501 333 565// 82625 81075=
85586,2017,09,02,21,00,AAXX 02214 85586 42960 02410 10142 20095 30111 40202 53002 333 56//5 81075==
85586,2017,09,03,00,00,AAXX 03004 85586 14660 50000 10109 20088 30124 40216 51013 60001 70300 85500 333 10160 565// 85638=
85586,2017,09,03,12,00,AAXX 03124 85586 14860 10000 10056 20053 30147 40242 51023 60001 70100 81030 333 20034 31/// 55069 56/5/ 70000 81356=
85586,2017,09,03,15,00,AAXX 03154 85586 42560 02707 10131 20076 30157 40249 50011 81100 333 565// 81820==
85586,2017,09,03,18,00,AAXX 03184 85586 14960 02516 10137 20086 30151 40243 58006 60001 70000 80000=
85586,2017,09,03,21,00,AAXX 03214 85586 42960 02416 10129 20080 30158 40250 53007==
85586,2017,09,04,00,00,AAXX 04004 85586 14960 0//// 10096 20070 30178 40271 53018 60001 70000 80000 333 10146=
85586,2017,09,04,12,00,AAXX 04124 85586 14960 0//// 10068 20053 30176 40270 55000 60001 70000 80000 333 20028 31/// 55101 70000=
85586,2017,09,04,15,00,AAXX 04154 85586 42960 01609 10142 20048 30174 40266 58002==
85586,2017,09,04,18,00,AAXX 04184 85586 14960 01907 10181 20055 30151 40241 58023 60001 70000 80000=
85586,2017,09,04,21,00,AAXX 04214 85586 42960 02310 10148 20096 30148 40239 56005==
85586,2017,09,05,00,00,AAXX 05004 85586 14960 32002 10110 20082 30159 40252 53010 60001 70100 80004 333 10184 56//6 83074=
85586,2017,09,05,12,00,AAXX 05124 85586 14960 6//// 10065 20043 30105 40199 55001 60001 70100 80004 333 20044 31/// 55090 56//6 70000 86074=
85586,2017,09,05,15,00,AAXX 05154 85586 42/60 63004 10139 20088 30106 40197 50001 333 56//6 87073==
85586,2017,09,05,18,00,AAXX 05184 85586 14960 82508 10152 20087 30098 40189 58007 60001 70222 80007 333 56//6 88274=
85586,2017,09,05,21,00,AAXX 05214 85586 42/60 82410 10128 20093 30092 40184 56008 333 56//6 88274==
85586,2017,09,06,00,00,AAXX 06004 85586 14960 31903 10098 20069 30098 40191 53007 60001 70100 80002 333 10153 56//6 83075=
85586,2017,09,06,12,00,AAXX 06124 85586 14960 11102 10043 20037 30104 40199 53006 60001 70100 80002 333 20018 31/// 55021 56//6 70000 81074=
85586,2017,09,06,15,00,AAXX 06154 85586 42/60 42804 10123 20076 30114 40206 51013 333 56//6=
85586,2017,09,06,18,00,AAXX 06184 85586 14960 72411 10141 20100 30106 40197 57007 60001 70222 80004 333 56//6 87075=
85586,2017,09,06,21,00,AAXX 06214 85586 42/60 62409 10141 20104 30103 40190 58007 333 86075==
85586,2017,09,07,00,00,AAXX 07004 85586 14956 31102 10093 20084 30103 40191 55001 60001 70521 80001 333 10149 83075=
85586,2017,09,07,12,00,AAXX 07124 85586 14925 01002 10049 20048 30105 40194 53016 60001 71000 80000 333 20033 31/// 70000=
85586,2017,09,07,15,00,AAXX 07154 85586 42560 23403 10136 20085 30108 40195 50004 81101 333 567// 81820 81075==
85586,2017,09,07,18,00,AAXX 07184 85586 14460 52411 10138 20095 30108 40195 50001 60001 70310 83101 333 566// 83815 82075=
85586,2017,09,07,21,00,AAXX 07214 85586 42560 62511 10124 20079 30102 40190 56007 82101 333 565// 82820 85075==
85586,2017,09,08,00,00,AAXX 08004 85586 14460 62403 10094 20067 30122 40210 51019 60001 70222 82101 333 10138 566// 82818 86075=
85586,2017,09,08,12,00,AAXX 08124 85586 14660 71202 10086 20061 30111 40199 54000 60001 70122 87500 333 20078 31/// 55105 563// 70000 87640=
85586,2017,09,08,15,00,AAXX 08154 85586 42560 60703 10133 20065 30108 40196 58001 82130 333 561// 82827 86366==
85586,2017,09,08,18,00,AAXX 08184 85586 14560 52612 10135 20078 30093 40184 57011 60001 70222 81530 333 5666/ 81620 85366=
85586,2017,09,08,21,00,AAXX 08214 85586 42560 62312 10122 20083 30083 40175 56010 82530 333 5666/ 82620 83650 85365==
85586,2017,09,09,00,00,AAXX 09004 85586 14960 80000 10113 20092 30088 40180 53004 60001 70222 8803/ 333 10136 88366=
85586,2017,09,09,15,00,AAXX 09154 85586 42/60 62604 10116 20061 30090 40182 50009 86030 333 56/6/ 86365==
85586,2017,09,09,18,00,AAXX 09184 85586 14860 72706 10116 20070 30094 40186 51004 60001 70222 87030 333 56/6/ 87358=
85586,2017,09,09,21,00,AAXX 09214 85586 42/60 62506 10122 20052 30094 40186 54000 86030 333 56/6/ 86359==
85586,2017,09,10,15,00,AAXX 10154 85586 42460 83503 10119 20082 30179 40272 51014 885// 333 566// 85615 88630==
85586,2017,09,10,18,00,AAXX 10184 85586 14460 72708 10126 20079 30179 40271 50001 60001 70222 87800 333 566// 82819 87647=
85586,2017,09,10,21,00,AAXX 10214 85586 42560 22508 10127 20065 30183 40275 52003 82500 333 566// 82633==
85586,2017,09,11,00,00,AAXX 11004 85586 14960 0//// 10086 20061 30182 40276 50001 60001 70000 80000 333 10136=
85586,2017,09,11,12,00,AAXX 11124 85586 14960 81404 10074 20060 30101 40194 56011 60001 70222 8803/ 333 20045 31/// 55043 56/6/ 70000 88362=
85586,2017,09,11,15,00,AAXX 11154 85586 42/60 71807 10113 20069 30096 40188 58009 87030 333 56/6/ 87361==
85586,2017,09,11,18,00,AAXX 11184 85586 14960 71605 10133 20069 30084 40175 58011 60001 70222 87030 333 56/6/ 87362=
85586,2017,09,11,21,00,AAXX 11214 85586 42/60 82006 10133 20062 30080 40171 56004 8803/ 333 56/6/ 88361==
85586,2017,09,12,00,00,AAXX 12004 85586 44960 62003 10104 20078 30083 40175 51003 70222 86030 333 10137 56/6/ 86364=
85586,2017,09,12,12,00,AAXX 12124 85586 14960 30903 10095 20075 30123 40216 53014 60001 70111 80004 333 20052 31/// 55000 56//6 70000 83074=
85586,2017,09,12,15,00,AAXX 12154 85586 42560 52808 10130 20085 30131 40223 51008 85500 333 566// 85630==
85586,2017,09,12,18,00,AAXX 12184 85586 14660 73009 10137 20092 30128 40220 58002 60001 70222 87500 333 566// 87639=
85586,2017,09,12,21,00,AAXX 12214 85586 42660 32807 10137 20092 30128 40216 55004 83500 333 567// 82640 81656==
85586,2017,09,13,00,00,AAXX 13004 85586 14660 50000 10105 20096 30135 40223 53006 60001 70310 85530 333 10151 566// 85645 81365=
85586,2017,09,13,12,00,AAXX 13124 85586 14458 70000 10099 20094 30162 40250 51018 60001 70522 87800 333 20082 31/// 55086 562// 70000 84815 87656=
85586,2017,09,13,15,00,AAXX 13154 85586 42560 42507 10141 20086 30167 40255 50007 84500 333 566// 84623==
85586,2017,09,13,18,00,AAXX 13184 85586 14560 42509 10148 20090 30170 40258 52002 60001 70310 82101 333 566// 82825 82075=
85586,2017,09,13,21,00,AAXX 13214 85586 42/60 52607 10132 20095 30182 40269 53010 85031 333 85368 82071==
85586,2017,09,14,00,00,AAXX 14004 85586 14660 52503 10104 20088 30199 40287 52017 60001 70310 84501 333 10151 565// 84645 82075=
85586,2017,09,14,12,00,AAXX 14124 85586 14560 71402 10100 20074 30191 40279 52010 60001 70122 87500 333 20081 31/// 55058 563// 70000 87633=
85586,2017,09,14,15,00,AAXX 14154 85586 42560 82007 10129 20076 30194 40281 50002 8653/ 333 565// 86630 83361==
85586,2017,09,14,18,00,AAXX 14184 85586 14560 12415 10140 20097 30161 40253 58027 60001 70200 81500 333 566// 81633=
85586,2017,09,14,21,00,AAXX 14214 85586 42960 02411 10153 20105 30140 40231 56021==
85586,2017,09,15,00,00,AAXX 15004 85586 14960 02204 10125 20072 30146 40238 53007 60001 70200 80000 333 10172=
85586,2017,09,15,12,00,AAXX 15124 85586 14960 01503 10088 20044 30144 40237 53008 60001 70200 80000 333 20061 30/// 55079 70000=
85586,2017,09,15,15,00,AAXX 15154 85586 42960 01705 10162 20083 30142 40233 58002==
85586,2017,09,15,18,00,AAXX 15184 85586 14960 02514 10149 20082 30126 40217 57016 60001 70200 80000=
85586,2017,09,15,21,00,AAXX 15214 85586 42960 02408 10151 20097 30111 40202 56015==
85586,2017,09,16,00,00,AAXX 16004 85586 14960 01203 10101 20085 30108 40201 58003 60001 70200 80000 333 10183=
85586,2017,09,16,12,00,AAXX 16124 85586 14960 01203 10112 20058 30060 40152 55003 60001 70200 80000 333 20059 30/// 55109 70000=
85586,2017,09,16,15,00,AAXX 16154 85586 42960 02503 10197 20097 30052 40141 58008==
85586,2017,09,16,18,00,AAXX 16184 85586 14960 02509 10173 20099 30043 40133 56010 60001 70000 80000=
85586,2017,09,16,21,00,AAXX 16214 85586 42960 03007 10143 20092 30058 40149 53015==
85586,2017,09,17,00,00,AAXX 17004 85586 14960 03605 10117 20103 30073 40165 52016 60001 70000 80000 333 10205=
85586,2017,09,17,12,00,AAXX 17124 85586 14115 8//// 10090 20089 30074 40167 53011 60001 71022 886// 333 20066 31/// 55095 566// 70000 88702=
85586,2017,09,17,15,00,AAXX 17154 85586 41340 83205 10116 20100 30095 40187 53020 71022 886// 333 566// 88707==
85586,2017,09,17,18,00,AAXX 17184 85586 14357 83006 10125 20102 30083 40175 58011 60001 70522 886// 333 566// 88709=
85586,2017,09,17,21,00,AAXX 17214 85586 41458 82705 10124 20100 30073 40165 56013 70522 885// 333 566// 88610==
85586,2017,09,18,00,00,AAXX 18004 85586 14460 83203 10118 20096 30077 40169 53004 60001 70222 885// 333 10130 566// 88612=
85586,2017,09,18,12,00,AAXX 18124 85586 14450 8//// 10105 20099 30051 40143 57003 60001 71022 885// 333 20103 31/// 55000 566// 70000 88612=
85586,2017,09,18,15,00,AAXX 18154 85586 41230 83206 10114 20106 30074 40166 53023 71022 886// 333 566// 88705==
85586,2017,09,18,18,00,AAXX 18184 85586 14258 83206 10123 20106 30076 40164 52002 69901 70552 886// 333 567// 85706 88615=
85586,2017,09,18,21,00,AAXX 18214 85586 42260 83007 10126 20112 30071 40158 55005 888// 333 567// 85806 88622==
85586,2017,09,19,00,00,AAXX 19004 85586 14560 83405 10125 20101 30079 40167 53008 60001 70222 885// 333 10128 567// 88623=
85586,2017,09,19,12,00,AAXX 19124 85586 14660 50306 10128 20075 30109 40197 53020 60001 70122 85500 333 20110 30/// 55000 561// 79999 85645=
85586,2017,09,19,15,00,AAXX 19154 85586 42660 73109 10143 20081 30132 40219 51023 87500 333 567// 84635 85650==
85586,2017,09,19,18,00,AAXX 19184 85586 14660 63111 10157 20080 30130 40217 58002 60001 70122 86500 333 567// 82640 84656=
85586,2017,09,19,21,00,AAXX 19214 85586 42660 62908 10141 20090 30135 40223 53005 86400 333 567// 81645 86656==
85586,2017,09,20,00,00,AAXX 20004 85586 14460 71203 10117 20096 30152 40239 52016 60001 70321 87500 333 10171 563// 82615 86650=
85586,2017,09,20,12,00,AAXX 20124 85586 14960 01803 10095 20091 30170 40258 51010 60001 70200 80000 333 20054 30/// 55056 70000=
85586,2017,09,20,15,00,AAXX 20154 85586 42460 22706 10154 20108 30164 40255 54000 82500 333 566// 82617==
85586,2017,09,20,18,00,AAXX 20184 85586 14560 22416 10154 20106 30153 40240 58015 60001 70110 82100 333 565// 82820=
85586,2017,09,20,21,00,AAXX 20214 85586 42960 02413 10155 20111 30134 40225 56014==
85586,2017,09,21,00,00,AAXX 21004 85586 14960 02303 10118 20094 30142 40234 53007 60001 70200 80000 333 10164=
85586,2017,09,21,12,00,AAXX 21124 85586 14960 01203 10102 20067 30139 40232 51013 60001 70200 80000 333 20053 30/// 55101 70000=
85586,2017,09,21,15,00,AAXX 21154 85586 42960 02608 10152 20090 30134 40225 58004==
85586,2017,09,21,18,00,AAXX 21184 85586 14960 02414 10153 20095 30120 40211 58013 60001 70200 80000=
85586,2017,09,21,21,00,AAXX 21214 85586 42/60 42412 10154 20100 30110 40201 56011 333 56//6 84075==
85586,2017,09,22,00,00,AAXX 22004 85586 14960 32303 10111 20082 30120 40212 53009 60001 70211 80002 333 10166 56//6 83075=
85586,2017,09,22,12,00,AAXX 22124 85586 149// 01404 10118 20080 30110 40202 54000 60001 70200 80000 333 20054 30/// 55099 70000=
85586,2017,09,22,15,00,AAXX 22154 85586 42960 01807 10192 20106 30097 40187 58013==
85586,2017,09,22,18,00,AAXX 22184 85586 14960 02512 10174 20113 30073 40163 58024 60001 70200 80000=
85586,2017,09,22,21,00,AAXX 22214 85586 42/60 42408 10160 20105 30064 40154 56009 333 56//6 84075==
85586,2017,09,23,00,00,AAXX 23004 85586 14960 32405 10118 20099 30062 40154 58002 60001 70111 80002 333 10207 56//6 83073=
85586,2017,09,23,12,00,AAXX 23124 85586 14960 4//// 10102 20096 30046 40138 52001 60001 70200 80001 333 20049 30/// 55093 56//6 70000 84075=
85586,2017,09,23,15,00,AAXX 23154 85586 41/58 22906 10145 20104 30052 40143 51006 70500 333 56//6 82075==
85586,2017,09,23,18,00,AAXX 23184 85586 14240 82612 10119 20103 30067 40159 53015 60001 71011 885// 333 565// 88604=
85586,2017,09,23,21,00,AAXX 23214 85586 41250 82807 10115 20096 30077 40169 52010 70522 885// 333 566// 88606==
85586,2017,09,24,00,00,AAXX 24004 85586 14360 83005 10114 20100 30100 40192 53021 60001 70222 885// 333 10168 566// 88608=
85586,2017,09,24,12,00,AAXX 24124 85586 14257 42308 10102 20096 30118 40211 53023 60001 70500 84500 333 20081 30/// 55052 565// 70000 84605=
85586,2017,09,24,15,00,AAXX 24154 85586 42/60 32706 10146 20103 30128 40219 50011 333 56//6 83073==
85586,2017,09,24,18,00,AAXX 24184 85586 14960 72410 10143 20107 30126 40217 50002 60001 70222 80002 333 56//5 87073=
85586,2017,09,24,21,00,AAXX 24214 85586 42/60 53204 10162 20112 30123 40210 56008 333 85072==
85586,2017,09,25,00,00,AAXX 25004 85586 14960 00000 10111 20099 30126 40213 53004 60001 70121 80000 333 10166=
85586,2017,09,25,12,00,AAXX 25124 85586 14960 61704 10095 20086 30119 40207 55002 69921 70322 83039 333 20056 31/// 55070 70002 83368 83172=
85586,2017,09,25,15,00,AAXX 25154 85586 42/60 61807 10187 20114 30115 40201 58004 333 86273==
85586,2017,09,25,18,00,AAXX 25184 85586 14960 62413 10169 20108 30103 40189 57012 60001 70222 80006 333 86073=
85586,2017,09,25,21,00,AAXX 25214 85586 42/60 62309 10158 20106 30095 40182 58008 333 86073==
85586,2017,09,26,00,00,AAXX 26004 85586 14960 30000 10111 20094 30109 40191 60001 70110 80001 333 10211 83075=
85586,2017,09,26,12,00,AAXX 26124 85586 14958 72602 10115 20076 30092 40180 53009 60001 70622 82031 333 20062 31/// 55093 70000 82368 85072=
85586,2017,09,26,15,00,AAXX 26154 85586 42/60 72206 10177 20070 30089 40176 58003 81016 333 81368 86075==
85586,2017,09,26,18,00,AAXX 26184 85586 14960 12415 10155 20097 30075 40162 56014 60001 70111 80002 333 56//6 81075=
85586,2017,09,26,21,00,AAXX 26214 85586 42960 02409 10150 20092 30068 40155 55009==
85586,2017,09,27,00,00,AAXX 27004 85586 14960 10504 10104 20085 30070 40158 53002 60001 70200 80001 333 10181 81075=
85586,2017,09,27,12,00,AAXX 27124 85586 14960 50803 10101 20092 30051 40139 53004 60001 70222 83032 333 20065 30/// 55081 56/66 70000 83365 84075=
85586,2017,09,27,15,00,AAXX 27154 85586 42/60 72806 10142 20097 30053 40140 53002 333 56//6 87073==
85586,2017,09,27,18,00,AAXX 27184 85586 14960 52907 10144 20095 30048 40139 50001 60001 70200 82034 333 56/66 82362 85074=
85586,2017,09,27,21,00,AAXX 27214 85586 42360 83006 10128 20105 30059 40150 51012 8113/ 333 5666/ 83808 88360==
85586,2017,09,28,00,00,AAXX 28004 85586 14960 7//// 10116 20104 30071 40163 51010 60001 70222 87030 333 10160 56/6/ 87360=
85586,2017,09,28,12,00,AAXX 28124 85586 14460 8//// 10109 20091 30079 40171 53013 60001 70222 885// 333 20099 31/// 55043 566// 70000 88612=
85586,2017,09,28,15,00,AAXX 28154 85586 42460 82705 10117 20091 30093 40185 53014 885// 333 566// 88612==
85586,2017,09,28,18,00,AAXX 28184 85586 14960 72810 10139 20100 30074 40165 56019 60001 70000 82034 333 56/66 82362 87074=
85586,2017,09,28,21,00,AAXX 28214 85586 42460 82605 10119 20093 30088 40180 51016 885// 333 566// 82611 88617==
85586,2017,09,29,00,00,AAXX 29004 85586 14460 8//// 10117 20095 30092 40184 53003 60001 70222 885// 333 10165 566// 88612=
85586,2017,09,29,12,00,AAXX 29124 85586 14340 80505 10113 20101 30104 40196 53009 60001 71022 885// 333 20085 30/// 55004 565// 70000 88608=
85586,2017,09,29,15,00,AAXX 29154 85586 41350 62606 10130 20106 30108 40200 50004 70522 86501 333 565/5 86608 81073==
85586,2017,09,29,18,00,AAXX 29184 85586 14559 82807 10144 20101 30098 40185 56014 60001 70522 81507 333 56//7 81620 88273=
85586,2017,09,29,21,00,AAXX 29214 85586 42460 72704 10137 20102 30097 40184 57003 81506 333 566// 81615 87075==
85586,2017,09,30,00,00,AAXX 30004 85586 14960 82303 10112 20096 30087 40175 56009 60001 70222 82036 333 10164 81365 87075=
85586,2017,09,30,12,00,AAXX 30124 85586 14320 80603 10109 20101 30069 40157 51005 60031 76586 888// 333 20093 32/// 55060 562// 70032 85808 88615=
85586,2017,09,30,15,00,AAXX 30154 85586 41/35 80608 10116 20110 30068 40156 52003 76166 8802/ 333 56/1/ 88507==
85586,2017,09,30,18,00,AAXX 30184 85586 14120 83107 10128 20125 30071 40158 53003 60111 76366 886// 333 88703=
85586,2017,09,30,21,00,AAXX 30214 85586 42260 62708 10141 20127 30082 40169 53011 86500 333 564// 83706 83614 85620==
85586,2017,10,01,00,00,AAXX 01004 85586 14560 22803 10117 20111 30103 40191 52021 60001 70111 82500 333 10143 564// 82630=
85586,2017,10,01,12,00,AAXX 01124 85586 14760 12203 10103 20102 30127 40214 51015 60001 70200 81500 333 20060 30/// 55021 566// 70112 81650=
85586,2017,10,01,15,00,AAXX 01154 85586 42460 42608 10138 20110 30135 40223 50011 84500 333 566// 82610 83615==
85586,2017,10,01,18,00,AAXX 01184 85586 14560 22415 10147 20102 30117 40208 57016 60001 70100 82500 333 566// 82621=
85586,2017,10,01,21,00,AAXX 01214 85586 42960 02314 10142 20084 30121 40212 52003==
85586,2017,10,02,00,00,AAXX 02004 85586 14960 0//// 10103 20077 30129 40222 53008 60001 70000 80000 333 10155=
85586,2017,10,02,12,00,AAXX 02124 85586 14960 5//// 10084 20075 30122 40215 53002 60001 70100 80009 333 20046 31/// 55096 56//6 70000 85173=
85586,2017,10,02,15,00,AAXX 02154 85586 42/60 62504 10131 20099 30127 40219 51005 333 56//6 86075==
85586,2017,10,02,18,00,AAXX 02184 85586 14960 62510 10145 20104 30119 40210 58009 60001 70100 80004 333 56//6 86075=
85586,2017,10,02,21,00,AAXX 02214 85586 42/60 52410 10135 20102 30110 40202 55008 333 56//6 85073==
85586,2017,10,03,00,00,AAXX 03004 85586 14960 40403 10112 20100 30113 40205 52001 60001 70100 80004 333 10155 56//6 84075=
85586,2017,10,03,12,00,AAXX 03124 85586 14958 4//// 10091 20090 30109 40202 50002 60001 70500 80004 333 20065 31/// 55017 56//6 70000 84073=
85586,2017,10,03,15,00,AAXX 03154 85586 42/60 32408 10130 20111 30097 40189 58009 333 56//6 83074==
85586,2017,10,03,18,00,AAXX 03184 85586 14960 62411 10159 20105 30086 40177 56012 60001 70222 80001 333 56//5 86073=
85586,2017,10,03,21,00,AAXX 03214 85586 42/60 82808 10136 20108 30076 40167 55010 333 56//5 88273==
85586,2017,10,04,00,00,AAXX 04004 85586 14460 63203 10120 20109 30083 40175 52006 60001 70222 82504 333 10165 566/6 82610 86073=
85586,2017,10,04,12,00,AAXX 04124 85586 14960 80604 10106 20092 30070 40162 52010 60001 70222 80009 333 20095 30/// 55088 56//5 70000 88175=
85586,2017,10,04,15,00,AAXX 04154 85586 42/60 83310 10149 20102 30071 40162 50000 83034 333 56/55 83356 88075==
85586,2017,10,04,18,00,AAXX 04184 85586 14560 83313 10141 20107 30063 40154 58008 60001 70222 885// 333 567// 82625 88636=
85586,2017,10,04,21,00,AAXX 04214 85586 41560 83411 10129 20110 30055 40146 55009 72166 885// 333 567// 88620==
85586,2017,10,05,00,00,AAXX 05004 85586 14140 83506 10124 20121 30061 40152 50007 60161 72166 885// 333 10156 567// 88602=
85586,2017,10,05,12,00,AAXX 05124 85586 14960 00605 10110 20079 30122 40214 51017 60001 70000 80000 333 20080 31/// 55000 70318=
85586,2017,10,05,15,00,AAXX 05154 85586 42560 63107 10141 20104 30136 40226 51013 85500 333 565// 82620 85641==
85586,2017,10,05,18,00,AAXX 05184 85586 14560 62605 10145 20113 30136 40223 54000 60001 70222 83530 333 5666/ 83625 86362=
85586,2017,10,05,21,00,AAXX 05214 85586 42460 22508 10146 20095 30136 40223 55001 81502 333 566/6 81615 81073==
85586,2017,10,06,00,00,AAXX 06004 85586 14960 11703 10103 20091 30146 40234 52008 60001 70200 80001 333 10152 56//6 81075=
85586,2017,10,06,12,00,AAXX 06124 85586 14960 51505 10122 20077 30097 40185 58011 60001 70511 80001 333 20065 31/// 55086 56//6 70000 85075=
85586,2017,10,06,15,00,AAXX 06154 85586 42/60 51905 10185 20107 30080 40166 57016 333 56//6 85075==
85586,2017,10,06,18,00,AAXX 06184 85586 14960 02414 10165 20120 30067 40153 58015 60001 70111 80000=
85586,2017,10,06,21,00,AAXX 06214 85586 42960 02510 10159 20121 30057 40143 57009==
85586,2017,10,07,00,00,AAXX 07004 85586 149// 40506 10118 20106 30065 40153 53008 60001 70300 80001 333 10187 56//6 84075=
85586,2017,10,07,12,00,AAXX 07124 85586 14220 83204 10112 20107 30106 40193 53016 69901 75252 886// 333 20108 31/// 55109 79999 88705=
85586,2017,10,07,15,00,AAXX 07154 85586 41240 83008 10123 20118 30121 40209 52016 71055 885// 333 566// 85704 88626==
85586,2017,10,07,18,00,AAXX 07184 85586 14135 82408 10122 20117 30128 40216 53007 69981 75152 886// 333 566// 85703 88625=
85586,2017,10,07,21,00,AAXX 07214 85586 41350 82507 10118 20106 30130 40217 53001 75122 887// 333 566// 84707 88617==
85586,2017,10,08,00,00,AAXX 08004 85586 14558 82402 10116 20102 30145 40232 53015 60001 70552 885// 333 10132 566// 82620 88640=
85586,2017,10,08,12,00,AAXX 08124 85586 14760 30403 10103 20084 30144 40232 55001 60001 70200 82501 333 20060 31/// 55000 561// 70008 82656 81075=
85586,2017,10,08,15,00,AAXX 08154 85586 42560 42409 10141 20096 30139 40227 55003 84100 333 565// 84830==
85586,2017,10,08,18,00,AAXX 08184 85586 14660 22416 10149 20102 30129 40216 56010 60001 70200 82500 333 565// 82640=
85586,2017,10,08,21,00,AAXX 08214 85586 42960 02414 10147 20108 30113 40204 56012==
85586,2017,10,09,00,00,AAXX 09004 85586 14960 0//// 10113 20097 30123 40215 53008 60001 70000 80000 333 10161=
85586,2017,10,09,12,00,AAXX 09124 85586 14960 31303 10109 20078 30118 40210 51010 60001 70100 80004 333 20066 31/// 55094 56//6 70000 83074=
85586,2017,10,09,15,00,AAXX 09154 85586 42/60 41004 10162 20104 30107 40198 58009 333 56//6 84074==
85586,2017,10,09,18,00,AAXX 09184 85586 14960 02417 10159 20103 30091 40182 58016 60001 70000 80000=
85586,2017,10,09,21,00,AAXX 09214 85586 42/60 12313 10156 20102 30079 40170 55011 333 56//5 81075==
85586,2017,10,10,00,00,AAXX 10004 85586 14960 4//// 10113 20087 30082 40174 53002 60001 70200 80004 333 10186 56//5 84071=
85586,2017,10,10,12,00,AAXX 10124 85586 14960 4//// 10092 20040 30105 40198 53026 60001 70200 83031 333 20057 30/// 55108 56/55 70000 83368 82175=
85586,2017,10,10,15,00,AAXX 10154 85586 42960 02414 10135 20073 30112 40204 51007==
85586,2017,10,10,18,00,AAXX 10184 85586 14960 02319 10137 20068 30116 40208 53004 60001 70000 80000=
85586,2017,10,10,21,00,AAXX 10214 85586 42960 02315 10133 20074 30111 40203 55005==
85586,2017,10,11,00,00,AAXX 11004 85586 14960 02204 10098 20069 30113 40206 53003 60001 70000 80000 333 10145=
85586,2017,10,11,12,00,AAXX 11124 85586 14960 0//// 10079 20067 30102 40195 52015 60001 70000 80000 333 20026 30/// 55108 70000=
85586,2017,10,11,15,00,AAXX 11154 85586 42560 12908 10123 20076 30105 40197 53003 81100 333 567// 81820==
85586,2017,10,11,18,00,AAXX 11184 85586 14460 12513 10137 20077 30109 40196 52001 60001 70200 81500 333 566// 81615=
85586,2017,10,11,21,00,AAXX 11214 85586 42460 22413 10126 20079 30109 40197 55003 82500 333 566// 81615 81640==
85586,2017,10,12,00,00,AAXX 12004 85586 14760 32606 10101 20079 30122 40210 51011 60001 70300 83500 333 10140 566// 83650=
85586,2017,10,12,12,00,AAXX 12124 85586 14460 31203 10094 20079 30149 40237 53017 60001 70211 81530 333 20065 31/// 55118 5666/ 70000 81617 83357=
85586,2017,10,12,15,00,AAXX 12154 85586 42560 12707 10130 20083 30151 40239 51005 81500 333 566// 81620==
85586,2017,10,12,18,00,AAXX 12184 85586 14560 12511 10144 20091 30147 40235 57004 60001 70200 81500 333 566// 81620=
85586,2017,10,12,21,00,AAXX 12214 85586 42960 02413 10133 20101 30139 40227 56008==
85586,2017,10,13,00,00,AAXX 13004 85586 14960 02203 10108 20092 30145 40233 52004 60001 70200 80000 333 10148=
85586,2017,10,13,15,00,AAXX 13154 85586 42960 02507 10144 20108 30135 40222 58003==
85586,2017,10,13,18,00,AAXX 13184 85586 14960 02414 10151 20121 30123 40210 57012 60001 70100 80000=
85586,2017,10,13,21,00,AAXX 13214 85586 42960 02408 10159 20111 30108 40195 57016==
85586,2017,10,14,00,00,AAXX 14004 85586 14960 00304 10123 20107 30108 40196 54000 60001 70200 80000 333 10165=
85586,2017,10,14,12,00,AAXX 14124 85586 14960 02703 10117 20100 30060 40148 53001 60001 70200 80000 333 20057 30/// 55112 70000=
85586,2017,10,14,15,00,AAXX 14154 85586 42960 02509 10158 20108 30055 40144 57004==
85586,2017,10,14,18,00,AAXX 14184 85586 14960 03007 10160 20118 30051 40137 55005 60001 70000 80000=
85586,2017,10,14,21,00,AAXX 14214 85586 42960 03107 10148 20116 30043 40130 55007==
85586,2017,10,15,00,00,AAXX 15004 85586 14360 13403 10119 20108 30042 40129 54000 60001 70300 81500 333 10179 567// 81608=
85586,2017,10,15,03,00,AAXX 15034 85586 41258 83306 10121 20112 30045 40132 50003 70521 886// 333 567// 88705==
85586,2017,10,15,12,00,AAXX 15124 85586 14360 80203 10120 20103 30042 40129 52011 60001 70522 887// 333 20107 31/// 55116 561// 70000 84709 88613=
85586,2017,10,15,15,00,AAXX 15154 85586 42460 73112 10137 20103 30053 40140 53011 87500 333 567// 82616 86620==
85586,2017,10,15,18,00,AAXX 15184 85586 14560 23016 10158 20106 30052 40138 58001 60001 70221 82600 333 567// 82625=
85586,2017,10,15,21,00,AAXX 15214 85586 42/60 13008 10149 20093 30034 40124 57014 333 56//5 81075==
85586,2017,10,16,00,00,AAXX 16004 85586 14960 03102 10110 20088 30031 40123 57003 60001 70000 80000 333 10163=
85586,2017,10,16,12,00,AAXX 16124 85586 14460 83506 10123 20095 30071 40163 53024 60001 70222 885// 333 20081 30/// 55068 567// 70000 88615=
85586,2017,10,16,15,00,AAXX 16154 85586 42460 83406 10130 20104 30096 40188 51024 885// 333 567// 82615 88617==
85586,2017,10,16,18,00,AAXX 16184 85586 14560 73310 10156 20104 30093 40184 58002 60001 70122 87500 333 567// 87633=
85586,2017,10,16,21,00,AAXX 16214 85586 42660 53208 10147 20111 30098 40189 51005 85500 333 567// 85636==
85586,2017,10,17,00,00,AAXX 17004 85586 14560 73104 10129 20110 30108 40200 53010 60001 70222 87500 333 10159 567// 87633=
85586,2017,10,17,12,00,AAXX 17124 85586 14257 8//// 10121 20113 30098 40190 53009 60001 70522 885// 333 20097 30/// 55018 566// 70000 86605 88615=
85586,2017,10,17,15,00,AAXX 17154 85586 42560 82405 10137 20109 30099 40190 50001 885// 333 566// 88622==
85586,2017,10,17,18,00,AAXX 17184 85586 14560 82411 10139 20105 30099 40186 56003 60001 70222 885// 333 88622=
85586,2017,10,17,21,00,AAXX 17214 85586 42560 72409 10146 20090 30096 40183 55003 84502 333 566/6 84623 86070==
85586,2017,10,18,00,00,AAXX 18004 85586 14960 72406 10114 20095 30096 40184 55001 60001 70222 80002 333 10152 56//6 87070=
85586,2017,10,18,12,00,AAXX 18124 85586 14660 70000 10117 20100 30122 40209 53023 60001 70222 83530 333 20092 30/// 55019 5666/ 70000 83633 86357=
85586,2017,10,18,15,00,AAXX 18154 85586 42560 52707 10168 20114 30126 40213 53006 85500 333 566// 85630==
85586,2017,10,18,18,00,AAXX 18184 85586 14560 12417 10169 20112 30110 40196 57015 60001 70200 81500 333 566// 81630=
85586,2017,10,18,21,00,AAXX 18214 85586 42960 02413 10163 20109 30106 40193 56004==
85586,2017,10,19,00,00,AAXX 19004 85586 14960 01203 10126 20100 30113 40201 53005 60001 70200 80000 333 10192=
85586,2017,10,19,12,00,AAXX 19124 85586 14960 01605 10144 20101 30075 40162 58006 60001 70222 80000 333 20065 30/// 55094 70000=
85586,2017,10,19,15,00,AAXX 19154 85586 42/60 12512 10169 20110 30060 40146 58013 333 56//6 81075==
85586,2017,10,19,18,00,AAXX 19184 85586 14960 42415 10180 20109 30045 40130 58016 60001 70200 80004 333 84075=
85586,2017,10,19,21,00,AAXX 19214 85586 42/60 42414 10152 20102 30041 40127 55006 333 84071==
85586,2017,10,20,00,00,AAXX 20004 85586 14960 42504 10113 20082 30055 40143 53012 60001 70200 80004 333 10185 84073=
85586,2017,10,20,12,00,AAXX 20124 85586 14960 80803 10103 20092 30074 40161 52011 60001 70222 85037 333 20088 30/// 55112 70000 85363 88273=
85586,2017,10,20,15,00,AAXX 20154 85586 42/60 82508 10122 20092 30081 40169 52005 84037 333 84361 88271==
85586,2017,10,20,18,00,AAXX 20184 85586 14960 72413 10157 20103 30081 40168 58001 60001 70222 85033 333 85366 84071=
85586,2017,10,20,21,00,AAXX 20214 85586 42/60 52311 10157 20101 30079 40166 58001 85030 333 85368==
85586,2017,10,21,00,00,AAXX 21004 85586 14960 32005 10127 20086 30091 40179 53011 60001 70110 83030 333 10161 83365=
85586,2017,10,21,12,00,AAXX 21124 85586 14960 11506 10136 20067 30097 40185 50005 60001 70200 80001 333 20062 30/// 55030 70000 81075=
85586,2017,10,21,15,00,AAXX 21154 85586 42/60 12407 10169 20104 30088 40174 58008 333 81075==
85586,2017,10,21,18,00,AAXX 21184 85586 14960 12313 10172 20099 30074 40160 56015 60001 70200 80001 333 81075=
85586,2017,10,21,21,00,AAXX 21214 85586 42/60 12805 10184 20103 30054 40143 56015 333 56//5 81075==
85586,2017,10,22,00,00,AAXX 22004 85586 14960 10000 10126 20091 30058 40149 52003 60001 70200 80001 333 10208 56//6 81075=
85586,2017,10,22,12,00,AAXX 22124 85586 14960 4//// 10115 20091 30078 40170 51016 60001 70200 80001 333 20055 30/// 55125 56//5 70000 84075=
85586,2017,10,22,15,00,AAXX 22154 85586 42/60 62506 10140 20105 30080 40171 52002 333 56//5 86170==
85586,2017,10,22,18,00,AAXX 22184 85586 14960 22508 10159 20119 30073 40163 56006 60001 70100 80001 333 56//5 82073=
85586,2017,10,22,21,00,AAXX 22214 85586 42460 42807 10140 20112 30067 40158 58007 83101 333 565/5 83810 84075==
85586,2017,10,23,00,00,AAXX 23004 85586 14360 40105 10115 20101 30077 40169 53008 60001 70200 81101 333 10163 567/7 81807 84075=
85586,2017,10,23,12,00,AAXX 23124 85586 14103 8//// 10083 20082 30088 40181 53007 60001 72822 886// 333 20056 31/// 55108 565// 70000 88702=
85586,2017,10,23,15,00,AAXX 23154 85586 42/60 12405 10132 20091 30086 40177 54000 333 56//5 81075==
85586,2017,10,23,18,00,AAXX 23184 85586 14960 32411 10146 20105 30089 40176 54000 60001 70211 80001 333 56//6 83075=
85586,2017,10,23,21,00,AAXX 23214 85586 42/60 42909 10140 20108 30091 40178 54000 333 56//6 84075==
85586,2017,10,24,00,00,AAXX 24004 85586 14960 50607 10117 20105 30101 40189 53010 60001 70311 80001 333 10158 56//6 85075=
85586,2017,10,24,12,00,AAXX 24124 85586 14250 52403 10114 20105 30107 40194 52003 60001 71011 84601 333 20067 30/// 55091 566/6 70000 84704 83075=
85586,2017,10,24,15,00,AAXX 24154 85586 42/60 32607 10162 20122 30101 40188 58003 333 56//6 83075==
85586,2017,10,24,18,00,AAXX 24184 85586 14960 22414 10165 20109 30094 40180 57008 60001 70200 80001 333 56//6 82075=
85586,2017,10,24,21,00,AAXX 24214 85586 42960 02511 10156 20100 30087 40174 55007==
85586,2017,10,25,00,00,AAXX 25004 85586 14960 00000 10110 20084 30093 40181 53006 60001 70200 80000 333 10177=
85586,2017,10,25,12,00,AAXX 25124 85586 14120 80403 10093 20089 30097 40185 53004 60001 71022 886// 333 20068 30/// 55119 70000 88703=
85586,2017,10,25,15,00,AAXX 25154 85586 41357 22607 10128 20098 30094 40182 55003 70522 82600 333 566// 82708==
85586,2017,10,25,18,00,AAXX 25184 85586 14960 02513 10154 20116 30079 40166 58015 60001 70200 80000=
85586,2017,10,25,21,00,AAXX 25214 85586 42960 02413 10156 20100 30067 40153 56012==
85586,2017,10,26,00,00,AAXX 26004 85586 14960 00000 10114 20088 30075 40165 53007 60001 70000 80000 333 10170=
85586,2017,10,26,12,00,AAXX 26124 85586 14460 83606 10113 20091 30099 40187 51019 60001 70222 886// 333 20091 31/// 55100 560// 70000 88710=
85586,2017,10,26,15,00,AAXX 26154 85586 41258 83106 10120 20101 30111 40199 51011 70522 886// 333 567// 88706==
85586,2017,10,26,18,00,AAXX 26184 85586 14460 42809 10139 20096 30105 40196 50000 60001 70122 84500 333 567// 84612=
85586,2017,10,26,21,00,AAXX 26214 85586 42460 42407 10138 20104 30102 40193 57004 84500 333 565// 84611==
85586,2017,10,27,00,00,AAXX 27004 85586 14960 00104 10114 20095 30102 40194 50001 60001 70011 80000 333 10148=
85586,2017,10,27,12,00,AAXX 27124 85586 14250 1//// 10105 20091 30083 40175 53002 60001 70522 81100 333 20057 30/// 55048 565// 70000 81805=
85586,2017,10,27,15,00,AAXX 27154 85586 41257 42807 10135 20105 30072 40163 58011 70500 82601 333 565/5 82705 82075==
85586,2017,10,27,18,00,AAXX 27184 85586 14360 52513 10146 20112 30059 40150 56013 60001 70100 81504 333 566/6 81607 84074=
85586,2017,10,27,21,00,AAXX 27214 85586 42/60 52412 10150 20108 30048 40138 56012 333 56//6 85073==
85586,2017,10,28,00,00,AAXX 28004 85586 14960 50000 10114 20095 30059 40151 53011 60001 70100 80004 333 10159 56//6 85074=
85586,2017,10,28,12,00,AAXX 28124 85586 14560 7//// 10124 20087 30087 40179 51010 60001 70222 87500 333 20073 30/// 55097 566// 70000 87632=
85586,2017,10,28,15,00,AAXX 28154 85586 42560 42907 10156 20093 30093 40184 53006 84500 333 566// 84629==
85586,2017,10,28,18,00,AAXX 28184 85586 14560 52810 10165 20095 30102 40189 51005 60001 70311 85500 333 566// 82627 85650=
85586,2017,10,28,21,00,AAXX 28214 85586 41360 72409 10120 20101 30107 40195 52005 75022 87600 333 566// 85607 85623==
85586,2017,10,29,00,00,AAXX 29004 85586 14460 81503 10119 20091 30117 40206 53009 69901 70222 885// 333 10165 566// 82612 88623=
85586,2017,10,29,12,00,AAXX 29124 85586 14760 32204 10101 20066 30128 40216 53016 60001 70122 83500 333 20050 30/// 55042 566// 79999 83656=
85586,2017,10,29,15,00,AAXX 29154 85586 42560 22412 10141 20065 30129 40216 50002 81502 333 566/6 81630 81075==
85586,2017,10,29,18,00,AAXX 29184 85586 14560 12517 10145 20071 30126 40213 55003 60001 70200 81500 333 566// 81630=
85586,2017,10,29,21,00,AAXX 29214 85586 42/60 12415 10136 20065 30123 40211 58004 333 81075==
85586,2017,10,30,00,00,AAXX 30004 85586 14760 32204 10107 20063 30135 40223 53010 60001 70200 83501 333 10158 565// 83656 81075=
85586,2017,10,30,12,00,AAXX 30124 85586 14960 50103 10106 20073 30138 40226 52002 60001 70310 80005 333 20040 31/// 55114 79999 85075=
85586,2017,10,30,15,00,AAXX 30154 85586 42/60 42410 10142 20080 30128 40215 58009 333 84075==
85586,2017,10,30,18,00,AAXX 30184 85586 14960 12415 10148 20086 30114 40205 56010 60001 70200 80001 333 56//5 81075=
85586,2017,10,30,21,00,AAXX 30214 85586 42/60 12414 10140 20087 30114 40205 53000 333 56//5 81075==
85586,2017,10,31,00,00,AAXX 31004 85586 14960 22506 10107 20078 30119 40212 53005 60001 70200 80001 333 10160 56//5 82075=
85586,2017,10,31,12,00,AAXX 31124 85586 14960 70803 10092 20081 30105 40198 51019 60001 70222 80004 333 20041 30/// 55122 56//1 70000 87075=
85586,2017,10,31,15,00,AAXX 31154 85586 42/60 62809 10139 20088 30107 40198 50004 333 56//5 86074==
85586,2017,10,31,18,00,AAXX 31184 85586 14960 62708 10149 20082 30102 40193 57006 60001 70200 80004 333 56//6 86074=
85586,2017,10,31,21,00,AAXX 31214 85586 42/60 62706 10147 20080 30096 40187 55006 333 56//6 86075==
85586,2017,11,01,00,00,AAXX 01004 85586 14960 4//// 10124 20094 30097 40189 52001 60001 70211 80004 333 10154 56//6 84074=
85586,2017,11,01,12,00,AAXX 01124 85586 14960 6//// 10122 20089 30073 40165 53005 60001 70222 86030 333 20092 30/// 55043 56/6/ 70000 86363=
85586,2017,11,01,15,00,AAXX 01154 85586 42/60 73105 10159 20087 30078 40168 52006 87030 333 56/6/ 87362==
85586,2017,11,01,18,00,AAXX 01184 85586 14560 83203 10154 20098 30084 40171 50003 60001 70222 8453/ 333 566// 84625 88360=
85586,2017,11,01,21,00,AAXX 01214 85586 41560 82704 10131 20108 30085 40172 55001 76022 885// 333 566// 85620 88626==
85586,2017,11,02,00,00,AAXX 02004 85586 14356 81203 10129 20120 30087 40174 53003 60011 76362 886// 333 10162 88708=
85586,2017,11,02,12,00,AAXX 02124 85586 14450 70204 10125 20116 30097 40185 53018 69901 71022 87500 333 20116 31/// 55000 566// 70028 83612 87645=
85586,2017,11,02,15,00,AAXX 02154 85586 42460 72907 10151 20103 30111 40198 52013 87500 333 566// 81613 87647==
85586,2017,11,02,18,00,AAXX 02184 85586 14560 82808 10158 20112 30117 40204 53007 60001 70222 885// 333 566// 82620 88656=
85586,2017,11,02,21,00,AAXX 02214 85586 42560 42806 10160 20108 30119 40206 53002 84100 333 566// 84825==
85586,2017,11,03,00,00,AAXX 03004 85586 14760 20000 10121 20100 30123 40211 52003 60001 70200 82501 333 10171 566// 82850 81075=
85586,2017,11,03,12,00,AAXX 03124 85586 14960 82802 10116 20094 30109 40197 52011 60001 70222 84037 333 20077 31/// 55065 70000 84365 88270=
85586,2017,11,03,15,00,AAXX 03154 85586 42/60 62607 10161 20107 30109 40196 53001 83031 333 83465 85075==
85586,2017,11,03,18,00,AAXX 03184 85586 14960 12414 10170 20095 30098 40188 58007 60001 70111 80001 333 56//5 81075=
85586,2017,11,03,21,00,AAXX 03214 85586 42/60 12414 10161 20107 30086 40176 56012 333 56//5 81075==
85586,2017,11,04,00,00,AAXX 04004 85586 14960 4//// 10122 20105 30094 40186 50008 60001 70300 80001 333 10179 56//6 84075=
85586,2017,11,04,12,00,AAXX 04124 85586 14960 80404 10120 20103 30076 40168 53002 60001 70222 8803/ 333 20092 30/// 55083 56/1/ 70000 88368=
85586,2017,11,04,15,00,AAXX 04154 85586 42460 83604 10144 20105 30090 40181 50014 8755/ 333 5677/ 81612 88365==
85586,2017,11,04,18,00,AAXX 04184 85586 14960 8//// 10169 20089 30085 40175 58006 60001 70222 8803/ 333 56/6/ 88363=
85586,2017,11,04,21,00,AAXX 04214 85586 42/60 82805 10144 20101 30085 40176 51002 8803/ 333 56/6/ 88365==
85586,2017,11,05,00,00,AAXX 05004 85586 14960 82802 10133 20103 30090 40181 53005 60001 70222 8803/ 333 10173 56/6/ 88363=
85586,2017,11,05,12,00,AAXX 05124 85586 14960 20903 10153 20088 30090 40181 51016 60001 70100 82030 333 20094 30/// 55000 56/6/ 70000 82361=
85586,2017,11,05,15,00,AAXX 05154 85586 42960 02606 10191 20125 30089 40178 58001==
85586,2017,11,05,18,00,AAXX 05184 85586 14960 52512 10191 20140 30092 40178 54000 60001 70311 80001 333 56//6 85075=
85586,2017,11,05,21,00,AAXX 05214 85586 42160 82411 10157 20141 30086 40173 55005 886// 333 88703==
85586,2017,11,06,00,00,AAXX 06004 85586 14105 82906 10141 20136 30087 40174 53001 60001 74622 886// 333 10196 88702=
85586,2017,11,06,12,00,AAXX 06124 85586 14108 82803 10131 20129 30087 40174 52014 69901 74644 886// 333 20125 31/// 55084 70002 88703=
85586,2017,11,06,15,00,AAXX 06154 85586 41157 82707 10140 20134 30091 40178 51003 71022 886// 333 88703==
85586,2017,11,06,18,00,AAXX 06184 85586 14260 82905 10146 20133 30087 40174 57004 60001 70222 886// 333 88704=
85586,2017,11,06,21,00,AAXX 06214 85586 41130 82605 10138 20130 30086 40173 54000 71022 886// 333 88702==
85586,2017,11,07,00,00,AAXX 07004 85586 14260 80203 10135 20124 30082 40169 58004 60001 70222 886// 333 10157 88705=
85586,2017,11,07,12,00,AAXX 07124 85586 14260 80204 10141 20120 30084 40171 53002 60001 70222 885// 333 20123 30/// 55000 566// 70000 85706 88639=
85586,2017,11,07,15,00,AAXX 07154 85586 42260 72104 10161 20125 30088 40174 53003 84502 333 566/6 82606 84617 86072==
85586,2017,11,07,18,00,AAXX 07184 85586 14960 72409 10175 20125 30077 40167 58006 60001 70122 80004 333 56//5 87074=
85586,2017,11,07,21,00,AAXX 07214 85586 42/60 62509 10164 20124 30075 40165 55003 81034 333 56/55 81365 86070==
85586,2017,11,08,00,00,AAXX 08004 85586 14260 73605 10131 20117 30087 40178 51011 60001 70322 87501 333 10179 565/5 87606 81073=
85586,2017,11,08,12,00,AAXX 08124 85586 14157 70000 10114 20112 30083 40175 52004 60001 70522 87530 333 20100 30/// 55037 5655/ 70000 83603 86368=
85586,2017,11,08,15,00,AAXX 08154 85586 41250 52506 10156 20124 30082 40173 55000 70522 85531 333 56555 82605 85367 81073==
85586,2017,11,08,18,00,AAXX 08184 85586 14107 82508 10141 20125 30079 40170 57003 60001 72844 886// 333 565// 88701=
85586,2017,11,08,21,00,AAXX 08214 85586 41108 82608 10129 20123 30076 40167 55003 72844 886// 333 565// 88701==
85586,2017,11,09,00,00,AAXX 09004 85586 14105 82705 10122 20119 30083 40175 52005 60001 72844 886// 333 10166 565// 88701=
85586,2017,11,09,12,00,AAXX 09124 85586 14250 8//// 10123 20107 30107 40199 53014 60001 70522 886// 333 20112 30/// 55034 565// 70000 88706=
85586,2017,11,09,15,00,AAXX 09154 85586 42/60 12508 10156 20120 30101 40192 58003 333 56//5 81075==
85586,2017,11,09,18,00,AAXX 09184 85586 14960 02413 10180 20136 30084 40174 56018 60001 70000 80000=
85586,2017,11,09,21,00,AAXX 09214 85586 42960 02512 10183 20110 30076 40166 55008==
85586,2017,11,10,00,00,AAXX 10004 85586 14960 00703 10153 20107 30084 40175 53007 60001 70000 80000 333 10199=
85586,2017,11,10,12,00,AAXX 10124 85586 14960 01505 10192 20121 30058 40147 50006 60001 70000 80000 333 20099 30/// 55102 70000=
85586,2017,11,10,15,00,AAXX 10154 85586 42960 01708 10265 20105 30041 40128 58015==
85586,2017,11,10,18,00,AAXX 10184 85586 14960 12414 10213 20123 30027 40115 57015 60001 70100 80001 333 56//6 81073=
85586,2017,11,10,21,00,AAXX 10214 85586 42960 02412 10199 20120 30012 40101 56016==
85586,2017,11,11,00,00,AAXX 11004 85586 14960 00305 10151 20111 30019 40109 53008 69901 70000 80000 333 10271=
85586,2017,11,11,12,00,AAXX 11124 85586 14960 00403 10157 20113 30026 40116 51010 60001 70000 80000 333 20077 30/// 55118 79999=
85586,2017,11,11,15,00,AAXX 11154 85586 42960 03006 10188 20110 30033 40122 52007==
85586,2017,11,11,18,00,AAXX 11184 85586 14960 03208 10172 20117 30042 40128 50005 60001 70200 80000=
85586,2017,11,11,21,00,AAXX 11214 85586 42960 03309 10167 20125 30033 40119 55008==
85586,2017,11,12,00,00,AAXX 12004 85586 14960 03406 10137 20119 30031 40118 55004 60001 70200 80000 333 10193=
85586,2017,11,12,12,00,AAXX 12124 85586 14360 23204 10133 20109 30044 40131 51022 60001 70200 82600 333 20069 30/// 55123 566// 70000 82708=
85586,2017,11,12,15,00,AAXX 12154 85586 41257 73310 10144 20119 30056 40143 51012 70522 87600 333 566// 87706==
85586,2017,11,12,18,00,AAXX 12184 85586 14360 53010 10152 20118 30060 40147 50004 60001 70122 85600 333 566// 85707=
85586,2017,11,12,21,00,AAXX 12214 85586 42360 82608 10134 20111 30058 40145 57002 886// 333 88707==
85586,2017,11,13,00,00,AAXX 13004 85586 14360 82703 10125 20108 30060 40147 53002 60001 70222 886// 333 10161 88708=
85586,2017,11,13,12,00,AAXX 13124 85586 14157 83005 10123 20117 30073 40161 52011 60001 71052 886// 333 20120 31/// 55042 70002 88703=
85586,2017,11,13,15,00,AAXX 13154 85586 42360 82807 10140 20114 30080 40167 51008 886// 333 88707==
85586,2017,11,13,18,00,AAXX 13184 85586 14360 72808 10150 20116 30072 40159 56008 60001 70222 87600 333 566// 87709=
85586,2017,11,13,21,00,AAXX 13214 85586 42260 82805 10135 20122 30062 40149 58010 886// 333 88704==
85586,2017,11,14,00,00,AAXX 14004 85586 14260 80507 10128 20115 30058 40145 55004 60001 70222 886// 333 10166 88705=
85586,2017,11,14,12,00,AAXX 14124 85586 14360 80505 10134 20115 30057 40148 53018 60001 70222 885// 333 20122 30/// 55007 566// 70000 88608=
85586,2017,11,14,15,00,AAXX 14154 85586 42260 83407 10135 20119 30070 40161 53013 886// 333 566// 88704==
85586,2017,11,14,18,00,AAXX 14184 85586 14160 83108 10150 20134 30080 40171 51011 60001 70222 886// 333 566// 88702=
85586,2017,11,14,21,00,AAXX 14214 85586 41250 82907 10145 20132 30080 40171 55001 71022 886// 333 566// 88704==
85586,2017,11,15,00,00,AAXX 15004 85586 14460 82305 10131 20126 30090 40181 53010 60001 70222 885// 333 10162 566// 88616=
85586,2017,11,15,12,00,AAXX 15124 85586 14960 01706 10134 20091 30122 40214 51021 60001 70000 80000 333 20070 30/// 55004 70000=
85586,2017,11,15,15,00,AAXX 15154 85586 42960 01806 10204 20098 30116 40205 58004==
85586,2017,11,15,18,00,AAXX 15184 85586 14960 02319 10168 20100 30107 40197 55009 60001 70000 80000=
85586,2017,11,15,21,00,AAXX 15214 85586 42960 02315 10188 20094 30095 40185 58013==
85586,2017,11,16,00,00,AAXX 16004 85586 14960 0//// 10139 20081 30104 40195 53008 60001 70000 80000 333 10208=
85586,2017,11,16,12,00,AAXX 16124 85586 14960 01406 10153 20079 30099 40190 50002 60001 70000 80000 333 20062 30/// 55118 70000=
85586,2017,11,16,15,00,AAXX 16154 85586 42960 02414 10164 20094 30086 40176 56013==
85586,2017,11,16,18,00,AAXX 16184 85586 14960 02318 10185 20091 30076 40166 58008 60001 70000 80000=
85586,2017,11,16,21,00,AAXX 16214 85586 42960 02318 10169 20089 30063 40153 56014==
85586,2017,11,17,00,00,AAXX 17004 85586 14960 02307 10128 20093 30071 40162 53007 60001 70000 80000 333 10212=
85586,2017,11,17,12,00,AAXX 17124 85586 14960 02904 10144 20108 30095 40182 50006 60001 70200 80000 333 20071 30/// 55122 70000=
85586,2017,11,17,15,00,AAXX 17154 85586 42960 02514 10170 20116 30088 40174 58006==
85586,2017,11,17,18,00,AAXX 17184 85586 14960 22417 10186 20103 30078 40164 58012 60001 70200 80002 333 56//6 82075=
85586,2017,11,17,21,00,AAXX 17214 85586 42/60 62410 10209 20105 30064 40149 57013 333 56//6 86070==
85586,2017,11,18,00,00,AAXX 18004 85586 14960 22504 10140 20082 30073 40160 53008 60001 70200 80002 333 10224 56//6 82072=
85586,2017,11,18,12,00,AAXX 18124 85586 14960 02207 10140 20062 30087 40174 52004 60001 70200 80000 333 20083 30/// 55125 70000=
85586,2017,11,18,15,00,AAXX 18154 85586 42960 02414 10163 20086 30087 40173 55002==
85586,2017,11,18,18,00,AAXX 18184 85586 14960 02415 10160 20090 30087 40174 53001 60001 70200 80000=
85586,2017,11,18,21,00,AAXX 18214 85586 42960 02507 10163 20088 30077 40163 56010==
85586,2017,11,19,00,00,AAXX 19004 85586 14960 00308 10124 20085 30083 40171 53005 60001 70200 80000 333 10186=
85586,2017,11,19,03,00,AAXX 19034 85586 42960 00704 10101 20085 30091 40178 50008==
85586,2017,11,19,12,00,AAXX 19124 85586 14960 02703 10141 20098 30067 40154 50001 60001 70200 80000 333 20056 30/// 55131 70000=
85586,2017,11,19,15,00,AAXX 19154 85586 42960 03006 10156 20100 30065 40151 55002==
85586,2017,11,19,18,00,AAXX 19184 85586 14960 02809 10158 20108 30063 40149 57003 60001 70200 80000=
85586,2017,11,19,21,00,AAXX 19214 85586 42960 02608 10162 20107 30050 40140 57007==
85586,2017,11,20,00,00,AAXX 20004 85586 14960 03303 10123 20099 30063 40150 53007 60001 70200 80000 333 10173=
85586,2017,11,20,12,00,AAXX 20124 85586 14457 82504 10115 20084 30090 40182 51019 60001 70522 885// 333 20090 30/// 55124 566// 70000 88612=
85586,2017,11,20,15,00,AAXX 20154 85586 42460 72809 10136 20083 30101 40192 53012 87500 333 566// 87616==
85586,2017,11,20,18,00,AAXX 20184 85586 14460 22608 10153 20093 30106 40197 51005 60001 70122 82500 333 566// 82617=
85586,2017,11,20,21,00,AAXX 20214 85586 42460 12708 10140 20103 30106 40197 50001 81100 333 566// 81811==
85586,2017,11,21,00,00,AAXX 21004 85586 14960 00204 10118 20096 30112 40204 53006 60001 70000 80000 333 10160=
85586,2017,11,21,12,00,AAXX 21124 85586 14960 01703 10166 20110 30098 40189 50001 60001 70000 80000 333 20062 30/// 55085 70000=
85586,2017,11,21,15,00,AAXX 21154 85586 42960 02413 10184 20098 30089 40179 56010==
85586,2017,11,21,18,00,AAXX 21184 85586 14960 02416 10187 20104 30075 40165 56012 60001 70000 80000=
85586,2017,11,21,21,00,AAXX 21214 85586 42960 02508 10200 20100 30062 40151 56013==
85586,2017,11,22,00,00,AAXX 22004 85586 14960 00206 10144 20097 30069 40160 53006 60001 70000 80000 333 10218=
85586,2017,11,22,12,00,AAXX 22124 85586 14960 0//// 10144 20103 30055 40146 58003 60001 70000 80000 333 20062 30/// 55120 70000=
85586,2017,11,22,15,00,AAXX 22154 85586 42960 02806 10166 20105 30053 40143 58001==
85586,2017,11,22,18,00,AAXX 22184 85586 14960 02511 10179 20108 30037 40126 58016 60001 70000 80000=
85586,2017,11,22,21,00,AAXX 22214 85586 42960 02909 10154 20100 30038 40128 53001==
85586,2017,11,23,00,00,AAXX 23004 85586 14960 00106 10131 20101 30034 40125 55005 60001 70000 80000 333 10185=
85586,2017,11,23,12,00,AAXX 23124 85586 14106 82604 10103 20100 30054 40142 53012 60001 74642 886// 333 20089 30/// 55123 70000 88702=
85586,2017,11,23,15,00,AAXX 23154 85586 41257 83007 10136 20113 30063 40150 51010 71522 886// 333 88705==
85586,2017,11,23,18,00,AAXX 23184 85586 14257 83309 10140 20108 30067 40154 51004 60001 71522 886// 333 88705=
85586,2017,11,23,21,00,AAXX 23214 85586 42460 43009 10150 20112 30065 40152 58002 84500 333 566// 84610==
85586,2017,11,24,00,00,AAXX 24004 85586 14460 63304 10133 20112 30074 40161 53009 60001 70222 86500 333 10162 566// 86611=
85586,2017,11,24,12,00,AAXX 24124 85586 14460 83004 10135 20100 30115 40203 51015 60001 70222 885// 333 20115 30/// 55053 566// 70000 82616 88625=
85586,2017,11,24,15,00,AAXX 24154 85586 42560 82608 10149 20097 30125 40212 53012 885// 333 566// 82624 88629==
85586,2017,11,24,18,00,AAXX 24184 85586 14960 02908 10170 20097 30121 40208 58004 60001 70221 80000=
85586,2017,11,24,21,00,AAXX 24214 85586 42960 02508 10159 20098 30115 40202 58004==
85586,2017,11,25,00,00,AAXX 25004 85586 14960 02603 10129 20099 30121 40209 53005 69951 70000 80000 333 10174=
85586,2017,11,25,12,00,AAXX 25124 85586 14960 00802 10166 20114 30083 40169 58003 60001 70000 80000 333 20069 30/// 55107 70005=
85586,2017,11,25,15,00,AAXX 25154 85586 42960 02509 10178 20117 30070 40156 57014==
85586,2017,11,25,18,00,AAXX 25184 85586 14960 02413 10176 20110 30049 40139 56018 60001 70200 80000=
85586,2017,11,25,21,00,AAXX 25214 85586 42960 02707 10167 20104 30039 40129 55009==
85586,2017,11,26,00,00,AAXX 26004 85586 14960 03505 10131 20107 30047 40138 53007 60001 70200 80000 333 10190=
85586,2017,11,26,12,00,AAXX 26124 85586 14357 83304 10136 20118 30069 40160 53020 60001 70522 885// 333 20127 30/// 55113 567// 70000 88607=
85586,2017,11,26,15,00,AAXX 26154 85586 41257 82907 10134 20115 30074 40165 53005 70522 885// 333 566// 88604==
85586,2017,11,26,18,00,AAXX 26184 85586 14260 82708 10145 20119 30075 40166 52002 60001 70222 888// 333 566// 85806 88609=
85586,2017,11,26,21,00,AAXX 26214 85586 42360 82706 10135 20112 30070 40161 57004 885// 333 566// 88607==
85586,2017,11,27,00,00,AAXX 27004 85586 14250 82904 10124 20111 30069 40161 55002 60001 71022 886// 333 10153 566// 88706=
85586,2017,11,27,12,00,AAXX 27124 85586 14250 8//// 10124 20111 30052 40143 55001 60001 71022 886// 333 20111 31/// 55000 566// 70000 88705=
85586,2017,11,27,15,00,AAXX 27154 85586 41257 82905 10136 20115 30050 40141 58003 70522 886// 333 566// 88706==
85586,2017,11,27,18,00,AAXX 27184 85586 14360 82907 10154 20122 30050 40136 58003 60001 70222 886// 333 88709=
85586,2017,11,27,21,00,AAXX 27214 85586 42360 82607 10145 20120 30045 40132 57005 886// 333 88707==
85586,2017,11,28,00,00,AAXX 28004 85586 14360 83404 10137 20119 30043 40130 55002 60001 70222 886// 333 10161 88708=
85586,2017,11,28,12,00,AAXX 28124 85586 14357 83103 10128 20114 30063 40150 53021 69901 71552 886// 333 20124 30/// 55000 79999 88709=
85586,2017,11,28,15,00,AAXX 28154 85586 41356 83108 10133 20115 30085 40172 53022 70522 886// 333 88707==
85586,2017,11,28,18,00,AAXX 28184 85586 14457 83007 10145 20108 30096 40183 51012 60001 70522 885// 333 567// 88617=
85586,2017,11,28,21,00,AAXX 28214 85586 41557 82907 10152 20108 30089 40176 56007 70522 885// 333 567// 82620 88628==
85586,2017,11,29,00,00,AAXX 29004 85586 14557 32502 10130 20109 30090 40177 52001 60001 70521 83500 333 10155 566// 83630=
85586,2017,11,29,12,00,AAXX 29124 85586 14558 82403 10140 20103 30116 40203 53024 60001 70522 885// 333 20114 31/// 55000 566// 70000 88620=
85586,2017,11,29,15,00,AAXX 29154 85586 41558 82307 10147 20089 30125 40212 51009 70522 885// 333 565// 88624==
85586,2017,11,29,18,00,AAXX 29184 85586 14560 22508 10180 20095 30109 40199 58011 60001 70122 81101 333 565/5 81825 81075=
85586,2017,11,29,21,00,AAXX 29214 85586 42960 02510 10170 20097 30091 40181 57018==
85586,2017,11,30,00,00,AAXX 30004 85586 14960 02306 10133 20096 30078 40169 57014 60001 70000 80000 333 10180=
85586,2017,11,30,12,00,AAXX 30124 85586 14960 7//// 10137 20109 30052 40143 51015 60001 70222 80004 333 20071 30/// 55061 56//5 70000 87171=
85586,2017,11,30,15,00,AAXX 30154 85586 41258 72410 10153 20121 30053 40143 55000 70522 85504 333 565/5 85605 82171==
85586,2017,11,30,18,00,AAXX 30184 85586 14360 32711 10166 20128 30057 40147 51005 60001 70211 83600 333 566// 83707=
85586,2017,11,30,21,00,AAXX 30214 85586 42360 42811 10148 20112 30051 40142 55005 84600 333 566// 84709==
85586,2017,12,01,00,00,AAXX 01004 85586 14360 83305 10137 20116 30045 40136 55007 60001 70222 886// 333 10175 566// 88709=
85586,2017,12,01,12,00,AAXX 01124 85586 14250 83507 10131 20115 30048 40139 53020 60001 71022 886// 333 20124 30/// 55080 566// 70000 88706=
85586,2017,12,01,15,00,AAXX 01154 85586 41357 83008 10148 20120 30061 40148 51009 70522 885// 333 562// 88609==
85586,2017,12,01,18,00,AAXX 01184 85586 14357 82708 10172 20128 30054 40144 58002 60001 70522 888// 333 566// 84809 88616=
85586,2017,12,01,21,00,AAXX 01214 85586 41356 82508 10141 20115 30052 40139 57007 70522 885// 333 566// 88609==
85586,2017,12,02,00,00,AAXX 02004 85586 14340 82605 10132 20113 30054 40141 53002 60001 70522 885// 333 10172 566// 88608=
85586,2017,12,02,12,00,AAXX 02124 85586 14435 82804 10136 20106 30070 40157 53012 60001 70522 885// 333 20123 30/// 55003 567// 70000 88611=
85586,2017,12,02,15,00,AAXX 02154 85586 41450 83206 10140 20105 30084 40171 51014 70552 885// 333 567// 85613 88620==
85586,2017,12,02,18,00,AAXX 02184 85586 14560 82906 10160 20110 30085 40172 50002 69901 70222 885// 333 88629=
85586,2017,12,02,21,00,AAXX 02214 85586 42660 22807 10160 20108 30080 40166 57005 82500 333 566// 82640==
85586,2017,12,03,00,00,AAXX 03004 85586 14660 52704 10138 20108 30090 40177 53010 60001 70222 84530 333 10175 5666/ 84636 83360=
85586,2017,12,03,12,00,AAXX 03124 85586 14660 60803 10148 20101 30095 40182 51008 60001 70222 86500 333 20084 30/// 55026 566// 79999 86639=
85586,2017,12,03,15,00,AAXX 03154 85586 42660 42609 10175 20109 30099 40185 52004 84500 333 566// 84640==
85586,2017,12,03,18,00,AAXX 03184 85586 14560 12611 10175 20116 30089 40179 58006 60001 70111 81100 333 565// 81825=
85586,2017,12,03,21,00,AAXX 03214 85586 42960 02509 10169 20104 30070 40160 56018==
85586,2017,12,04,00,00,AAXX 04004 85586 14460 32406 10140 20106 30064 40155 55007 60001 70300 81101 333 10187 565/5 81815 82075=
85586,2017,12,04,12,00,AAXX 04124 85586 14458 83403 10143 20113 30044 40135 52006 60001 70522 885// 333 20114 30/// 55109 567// 70000 88611=
85586,2017,12,04,15,00,AAXX 04154 85586 42460 82909 10150 20116 30055 40146 52011 885// 333 565// 88612==
85586,2017,12,04,18,00,AAXX 04184 85586 14460 82907 10158 20126 30053 40143 57001 60001 70222 885// 333 566// 88610=
85586,2017,12,04,21,00,AAXX 04214 85586 42360 82907 10149 20124 30050 40141 56004 885// 333 566// 88608==
85586,2017,12,05,00,00,AAXX 05004 85586 14360 82704 10141 20123 30048 40139 58003 60001 70222 886// 333 10162 566// 88707=
85586,2017,12,05,12,00,AAXX 05124 85586 14350 82302 10139 20125 30060 40151 52013 60001 71022 886// 333 20134 31/// 55000 566// 70000 88708=
85586,2017,12,05,15,00,AAXX 05154 85586 41458 82506 10155 20125 30070 40161 52010 70522 885// 333 566// 88610==
85586,2017,12,05,18,00,AAXX 05184 85586 14460 82508 10163 20119 30074 40164 52004 60001 70222 888// 333 566// 83811 88617=
85586,2017,12,05,21,00,AAXX 05214 85586 42460 82608 10155 20123 30071 40157 56007 888// 333 566// 82810 88618==
85586,2017,12,06,00,00,AAXX 06004 85586 14460 82405 10148 20118 30070 40157 54001 60001 70222 885// 333 10168 566// 88614=
85586,2017,12,06,12,00,AAXX 06124 85586 14458 82002 10134 20110 30082 40169 51012 60001 70522 885// 333 20130 30/// 55000 565// 70000 88611=
85586,2017,12,06,15,00,AAXX 06154 85586 41458 82406 10150 20114 30092 40179 52010 70522 885// 333 566// 85612 88616==
85586,2017,12,06,18,00,AAXX 06184 85586 14560 82407 10177 20113 30085 40171 58006 60001 70222 885// 333 88620=
85586,2017,12,06,21,00,AAXX 06214 85586 42960 02411 10165 20115 30072 40158 56012==
85586,2017,12,07,00,00,AAXX 07004 85586 14360 82405 10143 20122 30073 40162 53003 60001 70222 886// 333 10186 88709=
85586,2017,12,07,12,00,AAXX 07124 85586 14120 82804 10125 20120 30073 40160 52003 69901 75022 886// 333 20120 31/// 55035 79999 88702=
85586,2017,12,07,15,00,AAXX 07154 85586 41257 83003 10137 20124 30071 40158 58001 70522 886// 333 88705==
85586,2017,12,07,18,00,AAXX 07184 85586 14360 82806 10151 20126 30063 40154 58004 60001 70222 885// 333 565// 88608=
85586,2017,12,07,21,00,AAXX 07214 85586 41357 82706 10148 20125 30061 40152 57002 70522 885// 333 565// 88608==
85586,2017,12,08,00,00,AAXX 08004 85586 14240 82805 10136 20125 30068 40159 53006 60001 71044 885// 333 10161 565// 88605=
85586,2017,12,08,12,00,AAXX 08124 85586 14450 8//// 10126 20100 30081 40173 51018 60001 70522 885// 333 20121 30/// 55000 565// 70000 88612=
85586,2017,12,08,15,00,AAXX 08154 85586 42460 72707 10141 20094 30091 40182 53011 87500 333 565// 87615==
85586,2017,12,08,18,00,AAXX 08184 85586 14460 12610 10158 20097 30093 40184 50002 60001 70100 81100 333 566// 81816=
85586,2017,12,08,21,00,AAXX 08214 85586 42960 02510 10160 20106 30085 40176 57008==
85586,2017,12,09,00,00,AAXX 09004 85586 14460 32408 10129 20103 30084 40175 55001 60001 70100 83500 333 10170 566// 83611=
85586,2017,12,09,12,00,AAXX 09124 85586 14360 32107 10125 20102 30082 40174 52010 60001 70100 83600 333 20067 30/// 55079 566// 70000 83707=
85586,2017,12,09,15,00,AAXX 09154 85586 42960 02606 10157 20113 30083 40174 53002==
85586,2017,12,09,18,00,AAXX 09184 85586 14360 12511 10170 20128 30080 40170 58005 60001 70100 81600 333 566// 81608=
85586,2017,12,09,21,00,AAXX 09214 85586 42960 03306 10184 20125 30068 40158 58011==
85586,2017,12,10,00,00,AAXX 10004 85586 44960 20508 10148 20120 30063 40154 55005 70100 80002 333 10191 56//7 82075=
85586,2017,12,10,12,00,AAXX 10124 85586 14960 1//// 10159 20119 30043 40133 50005 60001 70100 80001 333 20082 30/// 55081 56//6 70000 81073=
85586,2017,12,10,15,00,AAXX 10154 85586 42260 53012 10167 20133 30048 40138 53005 85500 333 566// 85606==
85586,2017,12,10,18,00,AAXX 10184 85586 14360 53112 10175 20133 30058 40143 52007 60001 70222 85600 333 566// 85709=
85586,2017,12,10,21,00,AAXX 10214 85586 41457 73009 10170 20130 30055 40141 57002 70522 87500 333 87610==
85586,2017,12,11,00,00,AAXX 11004 85586 14457 83010 10161 20140 30060 40148 53006 60001 70522 885// 333 10190 88617=
85586,2017,12,11,12,00,AAXX 11124 85586 14360 83206 10151 20133 30073 40160 53011 60001 70222 885// 333 20151 30/// 55084 566// 70000 82708 88616=
85586,2017,12,11,15,00,AAXX 11154 85586 42260 83208 10157 20137 30074 40160 54000 885// 333 566// 84706 85615 88618==
85586,2017,12,11,18,00,AAXX 11184 85586 14460 83411 10173 20135 30068 40158 58001 60001 70222 885// 333 565// 83612 88618=
85586,2017,12,11,21,00,AAXX 11214 85586 42360 83110 10162 20135 30061 40151 55007 885// 333 565// 82608 88623==
85586,2017,12,12,00,00,AAXX 12004 85586 14560 83006 10156 20131 30064 40154 53003 60001 70222 885// 333 10177 565// 88625=
85586,2017,12,12,12,00,AAXX 12124 85586 14460 83606 10157 20123 30092 40183 52019 60001 70222 885// 333 20155 30/// 55000 567// 70000 85617 88625=
85586,2017,12,12,15,00,AAXX 12154 85586 42460 80307 10182 20133 30098 40188 51005 885// 333 567// 84614 88632==
85586,2017,12,12,18,00,AAXX 12184 85586 14660 73014 10169 20133 30097 40187 53000 60001 70222 87500 333 567// 87636=
85586,2017,12,12,21,00,AAXX 12214 85586 42360 22810 10179 20143 30090 40180 56006 82100 333 565// 82809==
85586,2017,12,13,00,00,AAXX 13004 85586 14460 73105 10160 20137 30096 40187 53005 60001 70300 87500 333 10198 565// 87610=
85586,2017,12,13,12,00,AAXX 13124 85586 14560 81903 10171 20136 30105 40195 52003 60001 70222 885// 333 20152 30/// 55045 565// 70000 88633=
85586,2017,12,13,15,00,AAXX 13154 85586 42560 62509 10196 20145 30106 40196 52002 86500 333 565// 86632==
85586,2017,12,13,18,00,AAXX 13184 85586 14960 02415 10196 20141 30106 40196 58001 60001 70000 80000=
85586,2017,12,13,21,00,AAXX 13214 85586 42960 02513 10193 20133 30097 40187 57009==
85586,2017,12,14,00,00,AAXX 14004 85586 14960 02507 10163 20127 30095 40186 56003 60001 70000 80000 333 10204=
85586,2017,12,14,12,00,AAXX 14124 85586 14960 03102 10177 20127 30083 40169 53008 60001 70200 80000 333 20093 30/// 55084 70000=
85586,2017,12,14,18,00,AAXX 14184 85586 14960 02512 10202 20144 30062 40147 58012 60001 70142 80000=
85586,2017,12,14,21,00,AAXX 14214 85586 42960 02511 10229 20138 30042 40126 56021==
85586,2017,12,15,00,00,AAXX 15004 85586 14960 00404 10181 20130 30042 40127 54000 60001 70000 80000 333 10240=
85586,2017,12,15,12,00,AAXX 15124 85586 14958 03104 10174 20134 30029 40114 52010 60001 70500 80000 333 20103 30/// 55133 70000=
85586,2017,12,15,15,00,AAXX 15154 85586 42960 02508 10190 20135 30025 40110 57004==
85586,2017,12,15,18,00,AAXX 15184 85586 14260 32909 10173 20127 30026 40111 54000 60001 70310 83600 333 566// 83706=
85586,2017,12,15,21,00,AAXX 15214 85586 42360 13111 10175 20127 30031 40117 52006 81500 333 567// 81608==
85586,2017,12,16,00,00,AAXX 16004 85586 14460 13307 10151 20119 30042 40128 53010 60001 70200 81500 333 10209 567// 81612=
85586,2017,12,16,12,00,AAXX 16124 85586 14250 82904 10132 20119 30050 40141 53019 60001 71022 886// 333 20118 30/// 55127 566// 70000 88705=
85586,2017,12,16,15,00,AAXX 16154 85586 42260 32606 10173 20131 30068 40158 53019 83500 333 566// 83606==
85586,2017,12,16,18,00,AAXX 16184 85586 14960 62513 10169 20131 30066 40157 55002 60001 70100 80004 333 56//6 86074=
85586,2017,12,16,21,00,AAXX 16214 85586 42/60 52412 10180 20136 30064 40154 57001 333 56//6 85074==
85586,2017,12,17,00,00,AAXX 17004 85586 44960 32306 10157 20127 30068 40158 53003 70100 80004 333 10196 56//6 83073=
85586,2017,12,17,12,00,AAXX 17124 85586 14960 01504 10186 20127 30044 40133 51005 60001 70000 80000 333 20091 30/// 55043 70000=
85586,2017,12,17,15,00,AAXX 17154 85586 42/60 12510 10199 20112 30047 40136 50002 333 56//6 81074==
85586,2017,12,17,18,00,AAXX 17184 85586 14960 12512 10184 20096 30056 40145 50010 60001 70100 80001 333 56//6 81075=
85586,2017,12,17,21,00,AAXX 17214 85586 42/60 12511 10165 20095 30055 40145 50001 333 56//5 81075==
85586,2017,12,18,00,00,AAXX 18004 85586 14960 13606 10140 20091 30047 40138 56008 60001 70200 80001 333 10216 56//5 81075=
85586,2017,12,18,12,00,AAXX 18124 85586 14958 10305 10142 20110 30041 40132 53018 60001 70511 80001 333 20082 30/// 55131 70000 81075=
85586,2017,12,18,15,00,AAXX 18154 85586 41457 53110 10160 20120 30078 40168 51038 70500 83504 333 567/7 83610 85075==
85586,2017,12,18,18,00,AAXX 18184 85586 14458 72809 10166 20130 30080 40170 50004 60001 70522 84504 333 567/7 84611 87071=
85586,2017,12,18,21,00,AAXX 18214 85586 42/60 52511 10165 20115 30067 40157 57014 333 56//5 85073==
85586,2017,12,19,00,00,AAXX 19004 85586 14960 42606 10132 20109 30056 40147 56009 60001 70211 80001 333 10184 56//5 84075=
85586,2017,12,19,12,00,AAXX 19124 85586 14960 00703 10146 20105 30053 40144 51014 60001 70200 80000 333 20072 30/// 55090 70000=
85586,2017,12,19,15,00,AAXX 19154 85586 42960 02909 10166 20118 30058 40148 53004==
85586,2017,12,19,18,00,AAXX 19184 85586 12460 12708 10176 20128 30056 40142 58004 60001 81100 333 566// 81815==
85586,2017,12,19,21,00,AAXX 19214 85586 42960 02808 10172 20124 30041 40127 58015==
85586,2017,12,20,00,00,AAXX 20004 85586 12460 10105 10141 20116 30036 40123 55006 60001 81100 333 10196 561// 81813==
85586,2017,12,20,12,00,AAXX 20124 85586 11440 80207 10149 20119 30059 40146 51017 60004 70522 885// 333 20112 30/// 55129 560// 70000 88610==
85586,2017,12,20,15,00,AAXX 20154 85586 42360 53409 10167 20127 30074 40160 51016 85500 333 567// 85607==
85586,2017,12,20,18,00,AAXX 20184 85586 12260 62708 10161 20117 30072 40158 58002 60001 86500 333 566// 82806 85608==
85586,2017,12,20,21,00,AAXX 20214 85586 41258 22904 10185 20132 30049 40134 58022 70521 82500 333 567// 82605==
85586,2017,12,21,00,00,AAXX 21004 85586 12360 10408 10157 20127 30049 40135 55001 60001 81500 333 10192 561// 81608==
85586,2017,12,21,12,00,AAXX 21124 85586 12360 32403 10143 20122 30045 40136 53013 60004 83600 333 20090 30/// 55063 566// 70000 83708==
85586,2017,12,21,15,00,AAXX 21154 85586 42460 13006 10177 20131 30053 40143 50007 81500 333 566// 81610==
85586,2017,12,21,18,00,AAXX 21184 85586 12960 02414 10189 20123 30055 40144 50003 60001==
85586,2017,12,21,21,00,AAXX 21214 85586 42960 02811 10168 20107 30050 40140 58004==
85586,2017,12,22,00,00,AAXX 22004 85586 12960 00607 10145 20102 30050 40141 55001 60001 333 10193==
85586,2017,12,22,12,00,AAXX 22124 85586 12960 03003 10147 20093 30075 40166 52017 60004 333 20072 30/// 55115 70000==
85586,2017,12,22,15,00,AAXX 22154 85586 42960 02907 10164 20114 30080 40170 51006==
85586,2017,12,22,18,00,AAXX 22184 85586 12960 02508 10196 20110 30068 40157 58010 60001==
85586,2017,12,22,21,00,AAXX 22214 85586 42960 02410 10210 20109 30046 40135 57023==
85586,2017,12,23,00,00,AAXX 23004 85586 12960 02406 10165 20106 30051 40141 53005 60001 333 10214==
85586,2017,12,23,12,00,AAXX 2312/ 85586 12/60 1//// 10150 20110 30064 40155 51010 60004 333 20077 30/// 55127 70000 81075==
85586,2017,12,23,15,00,AAXX 23154 85586 42/60 12509 10178 20105 30064 40154 55000 333 56//5 81075==
85586,2017,12,23,18,00,AAXX 23184 85586 12/60 12415 10166 20096 30063 40153 50001 60001 333 56//5 81075==
85586,2017,12,23,21,00,AAXX 23214 85586 42960 02509 10172 20090 30053 40143 58010==
85586,2017,12,24,00,00,AAXX 24004 85586 12960 00507 10141 20094 30055 40146 53002 60001 333 10185==
85586,2017,12,24,12,00,AAXX 24124 85586 12960 02702 10134 20101 30073 40160 52011 60004 333 20062 30/// 55000 70000==
85586,2017,12,24,15,00,AAXX 24154 85586 42460 22607 10155 20109 30069 40155 58004 81601 333 566// 81710 81075==
85586,2017,12,24,18,00,AAXX 24184 85586 12/60 22510 10171 20105 30061 40147 58007 60001 333 82075==
85586,2017,12,24,21,00,AAXX 24214 85586 42960 02909 10168 20107 30051 40137 56010==
85586,2017,12,25,00,00,AAXX 25004 85586 12960 00308 10146 20097 30049 40136 55004 60001 333 10185==
85586,2017,12,25,12,00,AAXX 25124 85586 12260 10000 10141 20094 30048 40135 51013 60004 81600 333 20069 30/// 55132 70000 81705==
85586,2017,12,25,15,00,AAXX 25154 85586 41256 52907 10148 20116 30052 40139 51004 70521 85600 333 567// 85704==
85586,2017,12,25,18,00,AAXX 25184 85586 11106 82609 10142 20123 30054 40141 53002 60001 74121 886// 333 566// 88702==
85586,2017,12,25,21,00,AAXX 25214 85586 41240 82808 10139 20120 30052 40139 50001 70542 887// 333 567// 88704==
85586,2017,12,26,00,00,AAXX 26004 85586 11206 83007 10126 20121 30059 40146 53007 60001 75154 886// 333 10152 567// 88704==
85586,2017,12,26,12,00,AAXX 26124 85586 11257 83403 10138 20127 30084 40176 51015 60001 70522 885// 333 20126 30/// 55048 567// 88606==
85586,2017,12,26,15,00,AAXX 26154 85586 42960 02707 10181 20132 30079 40169 58005==
85586,2017,12,26,18,00,AAXX 26184 85586 14960 02706 10178 20123 30081 40171 50002 60001 70000 80000=
85586,2017,12,26,21,00,AAXX 26214 85586 42960 02509 10197 20137 30067 40156 58014==
85586,2017,12,27,00,00,AAXX 27004 85586 14960 0//// 10167 20138 30071 40161 53004 60001 70200 80000 333 10204=
85586,2017,12,27,12,00,AAXX 27124 85586 14360 22505 10155 20129 30085 40176 53014 60001 70311 81101 333 20109 30/// 55092 565/5 70000 81808 81075=
85586,2017,12,27,15,00,AAXX 27154 85586 42960 02609 10195 20129 30081 40170 56004==
85586,2017,12,27,18,00,AAXX 27184 85586 14960 02616 10197 20105 30073 40162 58007 60001 70000 80000=
85586,2017,12,27,21,00,AAXX 27214 85586 42960 02419 10200 20131 30063 40152 56011==
85586,2017,12,28,00,00,AAXX 28004 85586 14960 0//// 10171 20131 30065 40155 53002 60001 70000 80000 333 10233=
85586,2017,12,28,12,00,AAXX 28124 85586 14960 02703 10161 20131 30064 40154 53006 60001 70000 80000 333 20095 30/// 55116 70000=
85586,2017,12,28,15,00,AAXX 28154 85586 42960 02807 10163 20121 30072 40162 51008==
85586,2017,12,28,18,00,AAXX 28184 85586 14960 02611 10177 20128 30067 40157 55004 60001 70000 80000=
85586,2017,12,28,21,00,AAXX 28214 85586 42460 22509 10189 20144 30055 40140 57016 82500 333 566// 82612==
85586,2017,12,29,00,00,AAXX 29004 85586 14360 50410 10162 20142 30062 40148 53006 60001 70310 85500 333 10197 561// 85607=
85586,2017,12,29,12,00,AAXX 29124 85586 14104 80000 10139 20136 30071 40158 53019 69901 74554 887// 333 20117 31/// 55131 560// 79999 88702=
85586,2017,12,29,15,00,AAXX 29154 85586 41212 63108 10163 20131 30081 40167 50011 71542 86600 333 567// 86704==
85586,2017,12,29,18,00,AAXX 29184 85586 14960 02810 10206 20143 30059 40144 58022 60001 70042 80000=
85586,2017,12,29,21,00,AAXX 29214 85586 42360 12616 10173 20135 30052 40138 56006 81500 333 566// 81608==
85586,2017,12,30,00,00,AAXX 30004 85586 14960 02505 10169 20131 30053 40137 55001 60001 70000 80000 333 10206=
85586,2017,12,30,12,00,AAXX 30124 85586 14960 02405 10161 20131 30080 40170 53012 60001 70000 80000 333 20104 30/// 55098 70000=
85586,2017,12,30,15,00,AAXX 30154 85586 41960 03005 10177 20133 30079 40169 50001 70140==
85586,2017,12,30,18,00,AAXX 30184 85586 14260 42710 10181 20148 30065 40155 58013 60001 70300 84501 333 565/5 84605 81075=
85586,2017,12,30,21,00,AAXX 30214 85586 41140 62513 10175 20152 30051 40141 56015 71022 86501 333 565/5 86602 81075==
85586,2017,12,31,00,00,AAXX 31004 85586 14108 83105 10145 20142 30051 40142 53001 60001 72844 886// 333 10196 565// 88702=
85586,2017,12,31,12,00,AAXX 31124 85586 14235 80106 10148 20137 30066 40153 51021 60001 71022 886// 333 20140 30/// 55061 70000 88704=
85586,2017,12,31,15,00,AAXX 31154 85586 41357 83409 10167 20129 30077 40163 51013 70522 886// 333 88707==
85586,2017,12,31,18,00,AAXX 31184 85586 14460 83009 10175 20131 30085 40171 51008 60001 70222 885// 333 88610=
85586,2017,12,31,21,00,AAXX 31214 85586 42460 82908 10169 20131 30086 40172 50001 885// 333 88612==
