85586,2007,01,01,12,00,AAXX 01124 85586 32960 00000 10171 20132 40157 51/// 333 20113 30/// 50320 55000=
85586,2007,01,01,15,00,AAXX 01154 85586 42960 02905 10200 20137 40168 51012=
85586,2007,01,01,18,00,AAXX 01184 85586 32960 02718 10201 20121 40157 58011=
85586,2007,01,01,21,00,AAXX 01214 85586 42960 02518 10186 20114 40144 57014=
85586,2007,01,02,12,00,AAXX 02124 85586 32960 00000 10148 20106 40153 52/// 333 20096 30/// 50034 55127=
85586,2007,01,02,15,00,AAXX 02154 85586 42960 02807 10166 20116 40153 54001=
85586,2007,01,02,18,00,AAXX 02184 85586 32970 02712 10180 20104 40152 54001=
85586,2007,01,02,21,00,AAXX 02214 85586 42970 02712 10182 20086 40142 57010=
85586,2007,01,03,12,00,AAXX 03124 85586 32960 02804 10146 20111 40151 52/// 333 20080 30/// 50330 55123=
85586,2007,01,03,15,00,AAXX 03154 85586 42960 03006 10168 20120 40162 52012=
85586,2007,01,03,18,00,AAXX 03184 85586 32960 02808 10178 20126 40169 52007=
85586,2007,01,03,21,00,AAXX 03214 85586 42960 02406 10176 20123 40161 58008=
85586,2007,01,04,12,00,AAXX 04124 85586 32960 03004 10144 20123 40149 52/// 333 20098 30/// 50360 55124=
85586,2007,01,04,15,00,AAXX 04154 85586 41325 12806 10164 20124 40152 51004 71000 81600 333 56600 81708=
85586,2007,01,04,18,00,AAXX 04184 85586 32960 03008 10178 20122 40146 57006=
85586,2007,01,04,21,00,AAXX 04214 85586 42960 02804 10186 20112 40130 57016=
85586,2007,01,05,12,00,AAXX 05124 85586 31358 83205 10154 20147 40124 52/// 7102/ 86600 333 20097 30/// 50410 55125 56700 86707=
85586,2007,01,05,15,00,AAXX 05154 85586 41358 53006 10181 20149 40130 52007 70522 85600 333 56700 85708=
85586,2007,01,05,18,00,AAXX 05184 85586 31459 63007 10183 20151 40124 58006 70522 86600 333 56700 86710=
85586,2007,01,05,21,00,AAXX 05214 85586 42460 72905 10180 20148 40112 57012 87500 333 56700 87615=
85586,2007,01,06,12,00,AAXX 06124 85586 31456 80000 10160 20153 40143 52/// 7052/ 885// 333 20152 30/// 50220 55035 56699 88615=
85586,2007,01,06,15,00,AAXX 06154 85586 41458 82807 10181 20152 40145 54002 70522 82500 333 56600 82610 87619=
85586,2007,01,06,18,00,AAXX 06184 85586 32460 22811 10199 20143 40140 57004 82500 333 56600 82619=
85586,2007,01,06,21,00,AAXX 06214 85586 42460 52712 10190 20149 40137 57004 85500 333 56600 85617=
85586,2007,01,07,12,00,AAXX 07124 85586 32960 00000 10177 20140 40164 52/// 333 20128 30/// 50390 55042=
85586,2007,01,07,15,00,AAXX 07154 85586 42960 02707 10210 20146 40163 54001=
85586,2007,01,07,18,00,AAXX 07184 85586 32970 02707 10220 20137 40159 57004=
85586,2007,01,07,21,00,AAXX 07214 85586 42970 02508 10211 20139 40152 57007=
85586,2007,01,08,12,00,AAXX 08124 85586 31458 70000 10156 20143 40135 52/// 7052/ 87500 333 20126 30/// 50350 55124 56000 87613=
85586,2007,01,08,15,00,AAXX 08154 85586 42460 82807 10166 20139 40142 52007 885// 333 56699 88615=
85586,2007,01,08,18,00,AAXX 08184 85586 32460 52811 10182 20141 40141 54001 85500 333 56600 85618=
85586,2007,01,08,21,00,AAXX 08214 85586 42560 22706 10180 20133 40129 57012 82500 333 56600 82620=
85586,2007,01,09,12,00,AAXX 09124 85586 32460 82704 10136 20122 40145 52/// 885// 333 20132 30/// 50270 55058 56099 88617=
85586,2007,01,09,15,00,AAXX 09154 85586 41456 83108 10142 20130 40161 52016 70522 885// 333 56099 88613=
85586,2007,01,09,18,00,AAXX 09184 85586 32560 82806 10158 20113 40168 51007 885// 333 56699 88623=
85586,2007,01,09,21,00,AAXX 09214 85586 42560 82706 10160 20120 40155 57012 885// 333 56699 88623=
85586,2007,01,10,12,00,AAXX 10124 85586 32560 83604 10146 20120 40155 52/// 885// 333 20136 30/// 50240 55000 56099 88626=
85586,2007,01,10,15,00,AAXX 10154 85586 42560 12708 10180 20111 40159 51005 81500 333 56600 81630=
85586,2007,01,10,18,00,AAXX 10184 85586 32560 22708 10192 20131 40160 54001 82500 333 56600 82630=
85586,2007,01,10,21,00,AAXX 10214 85586 42560 12606 10190 20136 40151 57009 81500 333 56600 81630=
85586,2007,01,11,12,00,AAXX 11124 85586 32960 00000 10163 20142 40184 52/// 333 20096 30/// 50400 55089=
85586,2007,01,11,15,00,AAXX 11154 85586 42960 02411 10188 20124 40179 58005=
85586,2007,01,11,18,00,AAXX 11184 85586 32960 02509 10192 20140 40171 57008=
85586,2007,01,11,21,00,AAXX 11214 85586 42960 02410 10210 20133 40146 57023=
85586,2007,01,12,12,00,AAXX 12124 85586 32960 00000 10151 20118 40122 53/// 333 20086 30/// 50440 55126=
85586,2007,01,12,15,00,AAXX 12154 85586 42970 02805 10188 20118 40122 54001=
85586,2007,01,12,18,00,AAXX 12184 85586 32970 02709 10185 20125 40120 54002=
85586,2007,01,12,21,00,AAXX 12214 85586 42970 02806 10186 20123 40106 57014=
85586,2007,01,13,12,00,AAXX 13124 85586 31357 63605 10155 20147 40091 52/// 7102/ 86600 333 20110 30/// 50400 55124 56700 86707=
85586,2007,01,13,15,00,AAXX 13154 85586 42960 03308 10162 20123 40103 52012=
85586,2007,01,13,18,00,AAXX 13184 85586 32970 03009 10191 20142 40103 54000=
85586,2007,01,13,21,00,AAXX 13214 85586 42970 02808 10190 20144 40099 57004=
85586,2007,01,14,12,00,AAXX 14124 85586 32458 80904 10160 20140 40117 52/// 7052/ 885// 333 20128 30/// 50300 55105 56099 88617=
85586,2007,01,14,15,00,AAXX 14154 85586 41458 83304 10176 20143 40123 52006 70522 885// 333 56099 88615=
85586,2007,01,14,18,00,AAXX 14184 85586 32960 02809 10210 20144 40113 57008=
85586,2007,01,14,21,00,AAXX 14214 85586 42960 03006 10210 20134 40107 58007=
85586,2007,01,15,12,00,AAXX 15124 85586 32460 10000 10174 20148 40140 52/// 81600 333 20136 30/// 50300 55068 56000 81710=
85586,2007,01,15,15,00,AAXX 15154 85586 42560 13010 10200 20149 40147 52008 81500 333 56600 81620=
85586,2007,01,15,18,00,AAXX 15184 85586 32560 12710 10212 20156 40146 54000 81500 333 56600 81620=
85586,2007,01,15,21,00,AAXX 15214 85586 42560 32608 10204 20157 40133 57015 83500 333 56600 83620=
85586,2007,01,16,12,00,AAXX 16124 85586 32460 80804 10162 20144 40156 50/// 885// 333 20130 30/// 50360 55116 56099 88615=
85586,2007,01,16,15,00,AAXX 16154 85586 41956 02408 10204 20141 40151 58004 70511=
85586,2007,01,16,18,00,AAXX 16184 85586 32960 02514 10207 20144 40142 57008=
85586,2007,01,16,21,00,AAXX 16214 85586 42960 02708 10202 20146 40129 57014=
85586,2007,01,17,12,00,AAXX 17124 85586 31458 80000 10158 20151 40145 53/// 7102/ 885// 333 20151 30/// 50350 55103 56699 88613=
85586,2007,01,17,15,00,AAXX 17154 85586 42460 72905 10182 20146 40148 52003 87500 333 56600 87615=
85586,2007,01,17,18,00,AAXX 17184 85586 32460 63005 10190 20141 40144 58004 86500 333 56600 86617=
85586,2007,01,17,21,00,AAXX 17214 85586 42560 72405 10182 20146 40145 54001 87500 333 56600 87620=
85586,2007,01,18,12,00,AAXX 18124 85586 31358 80000 10153 20149 40129 53/// 7102/ 886// 333 20149 30/// 50300 55017 56799 88707=
85586,2007,01,18,15,00,AAXX 18154 85586 41358 82805 10162 20151 40136 52007 70522 886// 333 56099 88709=
85586,2007,01,18,18,00,AAXX 18184 85586 31458 82707 10172 20151 40138 54002 70522 886// 333 56699 88710=
85586,2007,01,18,21,00,AAXX 18214 85586 42460 83006 10186 20161 40130 57008 885// 333 56699 88615=
85586,2007,01,19,12,00,AAXX 19124 85586 31556 80000 10168 20155 40174 52/// 7052/ 885// 333 20161 30/// 50120 55000 56099 88620=
85586,2007,01,19,15,00,AAXX 19154 85586 42560 22710 10210 20148 40181 52009 82500 333 56600 82620=
85586,2007,01,19,18,00,AAXX 19184 85586 32560 22606 10218 20147 40180 54001 82500 333 56600 82625=
85586,2007,01,19,21,00,AAXX 19214 85586 42560 52609 10214 20153 40175 57005 82501 333 56607 82625 83075=
85586,2007,01,20,12,00,AAXX 20124 85586 32960 20000 10188 20146 40148 52/// 80001 333 20127 30/// 50420 55100 56006 82075=
85586,2007,01,20,15,00,AAXX 20154 85586 42260 12711 10214 20152 40151 52005 81600 333 56700 81704=
85586,2007,01,20,18,00,AAXX 20184 85586 32360 52711 10202 20156 40158 52006 85600 333 56600 85707=
85586,2007,01,20,21,00,AAXX 20214 85586 42460 12914 10208 20149 40155 58002 81500 333 56700 81615=
85586,2007,01,21,12,00,AAXX 21124 85586 32960 71103 10170 20126 40162 52/// 80001 333 20126 30/// 50430 55115 56006 87075=
85586,2007,01,21,15,00,AAXX 21154 85586 42460 63106 10224 20131 40164 51004 81130 333 56760 81815 85365=
85586,2007,01,21,18,00,AAXX 21184 85586 32960 72610 10225 20142 40163 55001 87030 333 56060 87365=
85586,2007,01,21,21,00,AAXX 21214 85586 42960 72805 10207 20145 40148 57015 87030 333 56060 87365=
85586,2007,01,22,12,00,AAXX 22124 85586 32960 80903 10163 20136 40149 8803/ 333 20153 30/// 50440 55085 56069 88362=
85586,2007,01,22,15,00,AAXX 22154 85586 42960 73106 10214 20130 40155 52007 87030 333 56060 87365=
85586,2007,01,22,18,00,AAXX 22184 85586 32960 43111 10225 20149 40159 84030 333 56060 84365=
85586,2007,01,22,21,00,AAXX 22214 85586 42460 23112 10223 20161 40162 53002 82500 333 56700 82615=
85586,2007,01,23,12,00,AAXX 23124 85586 32960 00000 10191 20142 40154 52/// 333 20156 30/// 50340 55083=
85586,2007,01,23,15,00,AAXX 23154 85586 42960 02410 10225 20156 40149 54003=
85586,2007,01,23,18,00,AAXX 23184 85586 32260 12414 10230 20151 40146 57003 81600 333 56600 81706=
85586,2007,01,23,21,00,AAXX 23214 85586 42960 02711 10210 20163 40131 57015=
85586,2007,01,24,12,00,AAXX 24124 85586 32360 40000 10172 20161 40130 52/// 84600 333 20146 30/// 50430 55132 56600 84707=
85586,2007,01,24,15,00,AAXX 24154 85586 42670 02806 10202 20158 40134 52005=
85586,2007,01,24,18,00,AAXX 24184 85586 32970 02607 10212 20160 40133 54000=
85586,2007,01,24,21,00,AAXX 24214 85586 42970 02711 10200 20145 40131 57003=
85586,2007,01,25,12,00,AAXX 25124 85586 31458 40000 10151 20139 40160 52/// 7051/ 84600 333 20110 30/// 50380 55117 56600 84706=
85586,2007,01,25,15,00,AAXX 25154 85586 42260 22807 10192 20137 40167 52008 82600 333 56600 82707=
85586,2007,01,25,18,00,AAXX 25184 85586 32370 12610 10205 20145 40167 51002 81600 333 56700 81707=
85586,2007,01,25,21,00,AAXX 25214 85586 42370 12611 10202 20149 40172 52004 81100 333 56600 81808=
85586,2007,01,26,12,00,AAXX 26124 85586 32560 21805 10181 20139 40173 52/// 82500 333 20132 30/// 50480 55117 56700 82625=
85586,2007,01,26,15,00,AAXX 26154 85586 42560 12611 10213 20146 40176 51005 81500 333 56700 81625=
85586,2007,01,26,18,00,AAXX 26184 85586 32960 02512 10213 20149 40172 58004=
85586,2007,01,26,21,00,AAXX 26214 85586 42960 02620 10211 20152 40160 57012=
85586,2007,01,27,12,00,AAXX 27124 85586 32960 01203 10183 20131 40158 52/// 333 20123 30/// 50480 55119=
85586,2007,01,27,15,00,AAXX 27154 85586 42960 02611 10204 20141 40160 51003=
85586,2007,01,27,18,00,AAXX 27184 85586 32960 02512 10214 20154 40160 50001=
85586,2007,01,27,21,00,AAXX 27214 85586 42960 02818 10210 20135 40154 57006=
85586,2007,01,28,12,00,AAXX 28124 85586 32460 23604 10165 20125 40159 52/// 82500 333 20121 30/// 50460 55126 56700 82612=
85586,2007,01,28,15,00,AAXX 28154 85586 42460 52714 10191 20122 40167 52008 81501 333 56706 81612 85075=
85586,2007,01,28,18,00,AAXX 28184 85586 42960 62812 10195 20126 40165 50001 81201 333 56706 81815 86075=
85586,2007,01,28,21,00,AAXX 28214 85586 42560 82705 10183 20123 40167 885// 333 56799 88620=
85586,2007,01,29,12,00,AAXX 29124 85586 32960 30000 10125 20116 40176 53/// 82031 333 20094 30/// 50350 55091 56066 82365=
85586,2007,01,29,18,00,AAXX 29184 85586 32960 02510 10202 20144 40174 58005=
85586,2007,01,29,21,00,AAXX 29214 85586 42960 02704 10196 20154 40161 57013=
85586,2007,01,30,12,00,AAXX 30124 85586 32960 00000 10152 20135 40156 53/// 333 20103 30/// 50390 55120=
85586,2007,01,30,15,00,AAXX 30154 85586 42970 02707 10199 20147 40153 54001=
85586,2007,01,30,18,00,AAXX 30184 85586 32970 02812 10202 20149 40147 57006=
85586,2007,01,30,21,00,AAXX 30214 85586 42960 02711 10192 20143 40142 57006=
85586,2007,01,31,12,00,AAXX 31124 85586 31358 50000 10149 20137 40151 52/// 7052/ 85600 333 20102 30/// 50370 55124 56600 85707=
85586,2007,01,31,15,00,AAXX 31154 85586 41258 33008 10178 20135 40165 52015 70511 83600 333 56700 83705=
85586,2007,01,31,18,00,AAXX 31184 85586 32360 22610 10188 20140 40167 54002 82600 333 56700 82707=
85586,2007,01,31,21,00,AAXX 31214 85586 42360 42810 10181 20143 40160 57007 84600 333 56700 84708=
85586,2007,02,01,12,00,AAXX 01124 85586 32260 10000 10156 20130 40153 52/// 81600 333 20106 30/// 50430 55110 56700 81704=
85586,2007,02,01,18,00,AAXX 01184 85586 31340 83106 10184 20143 40174 51008 70248 886// 333 56799 88708=
85586,2007,02,01,21,00,AAXX 01214 85586 42360 43205 10197 20147 40163 58010 84600 333 56700 84709=
85586,2007,02,02,00,00,AAXX 02004 85586 32356 40000 10174 20143 40164 55000 84600 333 10207 56700 84709=
85586,2007,02,02,12,00,AAXX 02124 85586 32240 83304 10151 20125 40153 52/// 7052/ 886// 333 20141 30/// 50480 55111 56799 88704=
85586,2007,02,02,15,00,AAXX 02154 85586 41240 82706 10164 20137 40157 51005 75022 886// 333 56799 88706=
85586,2007,02,02,18,00,AAXX 02184 85586 11356 72811 10191 20146 40147 58010 69901 70152 87600 333 56700 87708=
85586,2007,02,02,21,00,AAXX 02214 85586 42358 82808 10172 20135 40142 57005 886// 333 56699 88709=
85586,2007,02,03,00,00,AAXX 03004 85586 31358 82803 10164 20142 40146 53004 70522 886// 333 10193 56799 88708=
85586,2007,02,03,12,00,AAXX 03124 85586 11340 82703 10161 20143 40150 52/// 69944 7505/ 886// 333 20157 31/// 50310 55003 56799 70004 88708=
85586,2007,02,03,15,00,AAXX 03154 85586 41458 83107 10171 20151 40162 52012 70555 885// 333 56799 88614=
85586,2007,02,03,18,00,AAXX 03184 85586 11460 82806 10198 20141 40163 54002 70252 888// 333 56699 81815 88625=
85586,2007,02,03,21,00,AAXX 03214 85586 42560 72608 10209 20143 40162 55000 84501 333 56706 83625 84075=
85586,2007,02,04,00,00,AAXX 04004 85586 32558 82504 10176 20145 40167 53003 70511 885// 333 10217 56799 88625=
85586,2007,02,04,12,00,AAXX 04124 85586 11340 80504 10159 20129 40154 52/// 69904 7052/ 886// 333 20153 30/// 50360 55010 56799 70000 88608=
85586,2007,02,04,15,00,AAXX 04154 85586 41456 83306 10164 20137 40155 54001 70522 885// 333 56699 88615=
85586,2007,02,04,18,00,AAXX 04184 85586 31458 82704 10173 20143 40155 54000 70522 885// 333 56699 88615=
85586,2007,02,04,21,00,AAXX 04214 85586 42460 83104 10176 20141 40152 54003 885// 333 56699 88615=
85586,2007,02,05,00,00,AAXX 05004 85586 32460 82704 10167 20144 40147 55005 885// 333 10188 56699 88613=
85586,2007,02,05,15,00,AAXX 05154 85586 41320 83304 10170 20162 40155 52010 75055 886// 333 56099 88707=
85586,2007,02,05,18,00,AAXX 05184 85586 11456 83406 10184 20157 40163 51008 69951 70555 885// 333 56799 85618 88633=
85586,2007,02,05,21,00,AAXX 05214 85586 42460 82804 10190 20160 40156 57003 885// 333 56799 85618 88633=
85586,2007,02,06,00,00,AAXX 06004 85586 32560 80000 10176 20152 40162 53006 885// 333 10194 56099 81620 88630=
85586,2007,02,06,12,00,AAXX 06124 85586 12560 82306 10174 20152 40172 52/// 69954 885// 333 10170 30/// 50180 55000 56099 70005 88628=
85586,2007,02,06,15,00,AAXX 06154 85586 42560 83006 10196 20154 40181 51010 885// 333 56699 88623=
85586,2007,02,06,18,00,AAXX 06184 85586 32560 52712 10224 20144 40180 54000 85500 333 56600 85623=
85586,2007,02,06,21,00,AAXX 06214 85586 42960 02610 10194 20146 40176 57006=
85586,2007,02,07,00,00,AAXX 07004 85586 32960 02704 10170 20147 40170 56006 333 10228=
85586,2007,02,07,15,00,AAXX 07154 85586 42960 02809 10211 20145 40182 52013=
85586,2007,02,07,18,00,AAXX 07184 85586 32960 02512 10221 20126 40172 58010=
85586,2007,02,07,21,00,AAXX 07214 85586 42960 02512 10221 20125 40157 57015=
85586,2007,02,08,00,00,AAXX 08004 85586 32960 10403 10174 20119 40156 56003 80001 333 10228 56006 81075=
85586,2007,02,08,12,00,AAXX 08124 85586 32960 50000 10151 20106 40155 52/// 80001 333 20102 30/// 50490 55121 56006 85075=
85586,2007,02,08,15,00,AAXX 08154 85586 42960 63211 10205 20150 40165 52013 80001 333 56006 86075=
85586,2007,02,08,18,00,AAXX 08184 85586 32960 73012 10217 20150 40159 58006 80001 333 56006 87075=
85586,2007,02,08,21,00,AAXX 08214 85586 42960 63207 10214 20152 40154 56005 80001 333 56006 86075=
85586,2007,02,09,00,00,AAXX 09004 85586 32460 63104 10183 20156 40164 53008 82501 333 10223 56706 82615 84075=
85586,2007,02,09,12,00,AAXX 09124 85586 32220 80000 10153 20144 40186 52/// 7102/ 886// 333 20131 30/// 50420 55112 56099 88704=
85586,2007,02,09,15,00,AAXX 09154 85586 41340 82905 10181 20143 40197 52012 70522 886// 333 56799 88710=
85586,2007,02,09,18,00,AAXX 09184 85586 32960 02906 10211 20141 40194=
85586,2007,02,09,21,00,AAXX 09214 85586 42460 12705 10204 20151 40178 57016 81500 333 56700 81615=
85586,2007,02,10,00,00,AAXX 10004 85586 32960 02903 10183 20147 40174 56005 333 10213=
85586,2007,02,10,12,00,AAXX 10124 85586 31359 70000 10152 20137 40167 52/// 7052/ 87500 333 20140 30/// 50360 55072 56700 87613=
85586,2007,02,10,15,00,AAXX 10154 85586 42460 12809 10196 20149 40177 52012 81600 333 56700 81515=
85586,2007,02,10,18,00,AAXX 10184 85586 32460 22809 10211 20148 40178 54002 82500 333 56600 82615=
85586,2007,02,10,21,00,AAXX 10214 85586 42460 22808 10204 20153 40173 57006 82500 333 56700 82615=
85586,2007,02,11,00,00,AAXX 11004 85586 32560 73304 10176 20149 40169 56005 87500 333 10220 56600 87620=
85586,2007,02,11,12,00,AAXX 11124 85586 31440 80404 10166 20148 40183 52/// 7052/ 885// 333 20138 30/// 50260 55073 56199 83710 88620=
85586,2007,02,11,15,00,AAXX 11154 85586 41457 82908 10198 20147 40190 51007 70522 885// 333 56699 84612 88625=
85586,2007,02,11,18,00,AAXX 11184 85586 32560 42604 10213 20144 40101 54000 84500 333 56600 84625=
85586,2007,02,11,21,00,AAXX 11214 85586 42560 32610 10206 20110 40183 57006 83500 333 56600 83630=
85586,2007,02,12,12,00,AAXX 12124 85586 32960 00000 10146 20131 40157 52/// 333 20104 30/// 50270 55058=
85586,2007,02,12,15,00,AAXX 12154 85586 42960 02706 10192 20143 40163 52007=
85586,2007,02,12,18,00,AAXX 12184 85586 32560 22810 10206 20149 40160 54002 82500 333 56600 82630=
85586,2007,02,12,21,00,AAXX 12214 85586 42560 52610 10198 20136 40155 57005 85500 333 56600 85626=
85586,2007,02,13,00,00,AAXX 13004 85586 32560 12804 10179 20144 40148 57012 81500 333 10212 56600 81630=
85586,2007,02,13,12,00,AAXX 13124 85586 32960 00000 10151 20126 40150 51/// 333 20111 30/// 50460 55093=
85586,2007,02,13,15,00,AAXX 13154 85586 42460 12510 10203 20122 40164 52016 81100 333 56700 81815=
85586,2007,02,13,18,00,AAXX 13184 85586 32460 32910 10223 20132 40167 51004 83500 333 56700 83615=
85586,2007,02,13,21,00,AAXX 13214 85586 42960 02810 10210 20129 40153 57014=
85586,2007,02,14,00,00,AAXX 14004 85586 32960 02411 10176 20126 40160 53007 333 10225=
85586,2007,02,14,12,00,AAXX 14124 85586 32960 11203 10151 20122 40165 51/// 81030 333 20097 30/// 50490 55118 56060 81365=
85586,2007,02,14,18,00,AAXX 14184 85586 32960 02615 10205 20124 40160 57006=
85586,2007,02,14,21,00,AAXX 14214 85586 42960 02416 10209 20111 40147 57015=
85586,2007,02,15,00,00,AAXX 15004 85586 32960 02507 10171 20106 40154 53007 333 10215=
85586,2007,02,15,12,00,AAXX 15124 85586 32960 01103 10139 20093 40165 51/// 333 20078 30/// 50450 55124=
85586,2007,02,15,15,00,AAXX 15154 85586 42960 02808 10192 20102 40165 54001=
85586,2007,02,15,18,00,AAXX 15184 85586 32960 02707 10198 20127 40153 57009=
85586,2007,02,15,21,00,AAXX 15214 85586 42460 12911 10204 20134 40145 56008 81100 333 56700 81815=
85586,2007,02,16,00,00,AAXX 16004 85586 32960 12703 10178 20124 40156 80001 333 10211 56006 81075=
85586,2007,02,16,12,00,AAXX 16124 85586 11420 81812 10101 20096 40165 52/// 60224 7808/ 8373/ 333 20098 32/// 50290 55121 56679 70224 83710 88357=
85586,2007,02,16,15,00,AAXX 16154 85586 41560 70404 10102 20092 40195 52029 72588 83730 333 56270 83720 86358=
85586,2007,02,16,18,00,AAXX 16184 85586 12560 62604 10158 20100 40202 51009 60091 85130 333 56700 85820=
85586,2007,02,16,21,00,AAXX 16214 85586 42560 22806 10164 20101 40192 57010 81130 333 56670 81825=
85586,2007,02,17,00,00,AAXX 17004 85586 32560 22406 10156 20092 40184 57008 81130 333 10176 56670 81825=
85586,2007,02,17,12,00,AAXX 17124 85586 12660 11506 10128 20078 40194 53/// 60094 81500 333 20080 31/// 50300 55067 56600 70093 81633=
85586,2007,02,17,15,00,AAXX 17154 85586 42960 12810 10183 20082 40193 54001 80001 333 56006 81073=
85586,2007,02,17,18,00,AAXX 17184 85586 32960 32610 10184 20113 40169 58004 80002 333 56006 83073=
85586,2007,02,17,21,00,AAXX 17214 85586 42960 52510 10184 20123 40180 57009 80002 333 56006 85072=
85586,2007,02,18,00,00,AAXX 18004 85586 32960 12506 10166 20121 40178 54002 80001 333 10192 56006 81072=
85586,2007,02,18,12,00,AAXX 18124 85586 32960 00000 10130 20102 40187 52/// 333 20090 31/// 50360 55111=
85586,2007,02,18,15,00,AAXX 18154 85586 42960 02606 10186 20111 40192 51005=
85586,2007,02,18,21,00,AAXX 18214 85586 42560 12614 10186 20113 40179 57008 81500 333 56600 81630=
85586,2007,02,19,00,00,AAXX 19004 85586 32960 00000 10148 20128 40181 54001 333 10200=
85586,2007,02,19,12,00,AAXX 19124 85586 32960 00707 10147 20124 40170 51/// 333 20115 31/// 50410 55118=
85586,2007,02,19,15,00,AAXX 19154 85586 42360 13404 10187 20128 40173 53004 81600 333 56700 81708=
85586,2007,02,19,18,00,AAXX 19184 85586 32960 03010 10184 20124 40176 51003=
85586,2007,02,19,21,00,AAXX 19214 85586 42560 22705 10199 20144 40168 58007 82100 333 56700 82815=
85586,2007,02,20,00,00,AAXX 20004 85586 32560 13104 10173 20138 40175 53007 81100 333 10201 56700 81815=
85586,2007,02,20,12,00,AAXX 20124 85586 32556 80000 10151 20129 40164 53/// 7052/ 885// 333 20114 30/// 50410 55121 56799 88615=
85586,2007,02,20,15,00,AAXX 20154 85586 42556 80000 10183 20128 40173 52010 70522 888// 333 56799 81815 88620=
85586,2007,02,20,18,00,AAXX 20184 85586 31458 73509 10192 20143 40175 54002 87800 333 56600 82815 87625=
85586,2007,02,20,21,00,AAXX 20214 85586 41458 63110 10186 20134 40169 58006 70522 86800 333 56700 81815 86625=
85586,2007,02,21,00,00,AAXX 21004 85586 32560 63005 10173 20136 40169 55000 81630 333 10198 56760 81625 86365=
85586,2007,02,21,12,00,AAXX 21124 85586 32960 41203 10141 20123 40183 52/// 84030 333 20124 30/// 50380 55027 56070 84365=
85586,2007,02,21,15,00,AAXX 21154 85586 42460 23007 10195 20147 40194 52012 82100 333 56600 82817=
85586,2007,02,21,18,00,AAXX 21184 85586 32560 12708 10205 20138 40189 54004 81100 333 56600 81820=
85586,2007,02,21,21,00,AAXX 21214 85586 42960 02516 10204 20132 40180 57009=
85586,2007,02,22,12,00,AAXX 22124 85586 32960 20000 10148 20134 40169 52/// 80001 333 20086 30/// 50340 55111 56006 82075=
85586,2007,02,22,15,00,AAXX 22154 85586 42960 02808 10188 20136 40175 52007=
85586,2007,02,22,18,00,AAXX 22184 85586 32960 02711 10194 20140 40179 52004=
85586,2007,02,22,21,00,AAXX 22214 85586 42960 02413 10199 20127 40163 57015=
85586,2007,02,23,00,00,AAXX 23004 85586 32960 10000 10166 20130 40165 56001 80001 333 10204 56006 81075=
85586,2007,02,23,12,00,AAXX 23124 85586 32960 00000 10130 20118 40161 52/// 333 20090 30/// 50370 55118=
85586,2007,02,23,15,00,AAXX 23154 85586 42960 02807 10199 20144 40172 52005=
85586,2007,02,23,18,00,AAXX 23184 85586 32960 02410 10202 20123 40171 54001=
85586,2007,02,23,21,00,AAXX 23214 85586 42960 02612 10203 20124 40156 57015=
85586,2007,02,24,00,00,AAXX 24004 85586 32960 00404 10174 20113 40150 57008 333 10209=
85586,2007,02,24,12,00,AAXX 24124 85586 32960 00000 10116 20107 40125 56/// 333 20080 30/// 50410 55118=
85586,2007,02,24,15,00,AAXX 24154 85586 42960 02904 10196 20113 40129 52005=
85586,2007,02,24,18,00,AAXX 24184 85586 32960 02410 10203 20128 40124 58005=
85586,2007,02,24,21,00,AAXX 24214 85586 42960 02608 10206 20122 40117 57007=
85586,2007,02,25,00,00,AAXX 25004 85586 32960 00506 10164 20128 40120 54003 333 10212=
85586,2007,02,25,12,00,AAXX 25124 85586 31203 80303 10125 20116 40132 52/// 7444/ 886// 333 20087 30/// 50410 55117 56799 88704=
85586,2007,02,25,15,00,AAXX 25154 85586 41340 83111 10169 20138 40147 52016 70544 886// 333 56799 88608=
85586,2007,02,25,18,00,AAXX 25184 85586 31960 02910 10187 20132 40150 53003 70244=
85586,2007,02,26,12,00,AAXX 26124 85586 11240 80604 10151 20137 40147 52/// 69904 7105/ 886// 333 20126 31/// 50410 55092 56799 70000 88706=
85586,2007,02,26,15,00,AAXX 26154 85586 41456 80106 10183 20134 40157 51011 70552 885// 333 56799 88612=
85586,2007,02,26,18,00,AAXX 26184 85586 31560 62806 10194 20135 40153 58003 70152 86500 333 56700 86625=
85586,2007,02,26,21,00,AAXX 26214 85586 42460 72706 10187 20147 40151 56003 87800 333 56700 81815 87625=
85586,2007,02,27,00,00,AAXX 27004 85586 31556 82505 10162 20126 40149 56003 70522 885// 333 10207 56799 88625=
85586,2007,02,27,12,00,AAXX 27124 85586 31208 82604 10136 20120 40142 52/// 7444/ 886// 333 20134 30/// 50410 55026 56799 88706=
85586,2007,02,27,15,00,AAXX 27154 85586 41240 82904 10151 20125 40152 52010 70544 886// 333 56799 88706=
85586,2007,02,27,18,00,AAXX 27184 85586 31456 72707 10182 20129 40144 58007 70544 87800 333 56700 82815 86620=
85586,2007,02,27,21,00,AAXX 27214 85586 42458 42907 10164 20128 40134 57010 70522 84600 333 56700 84615=
85586,2007,02,28,00,00,AAXX 28004 85586 31458 33103 10148 20118 40136 55001 70522 81501 333 10185 56706 81515 82075=
85586,2007,02,28,12,00,AAXX 28124 85586 31340 80904 10114 20107 40123 52/// 7102/ 886// 333 20086 30/// 50260 55044 56099 88707=
85586,2007,02,28,15,00,AAXX 28154 85586 41456 32804 10158 20112 40136 52014 70522 83500 333 56600 83615=
85586,2007,02,28,18,00,AAXX 28184 85586 32560 12906 10168 20106 40142 52006 81500 333 56600 81620=
85586,2007,02,28,21,00,AAXX 28214 85586 42960 02708 10164 20096 40137 58005=
85586,2007,03,01,00,00,AAXX 01004 85586 32960 03104 10132 20097 40132 57005 333 10180=
85586,2007,03,01,12,00,AAXX 01124 85586 32960 01204 10100 20092 40148 52/// 333 20054 30/// 50320 55091=
85586,2007,03,01,15,00,AAXX 01154 85586 42960 02508 10168 20093 40155 52009=
85586,2007,03,01,18,00,AAXX 01184 85586 32960 02612 10182 20090 40152 54003=
85586,2007,03,01,21,00,AAXX 01214 85586 42960 02610 10174 20093 40142 57010=
85586,2007,03,02,00,00,AAXX 02004 85586 32960 00406 10144 20098 40145 54002 333 10186=
85586,2007,03,02,12,00,AAXX 02124 85586 32960 00904 10106 20077 40135 52/// 333 20060 30/// 50330 55112=
85586,2007,03,02,15,00,AAXX 02154 85586 42960 02410 10176 20093 40140 52006=
85586,2007,03,02,18,00,AAXX 02184 85586 32960 02610 10172 20101 40135 56005=
85586,2007,03,02,21,00,AAXX 02214 85586 42960 02710 10178 20095 40130 57005=
85586,2007,03,03,00,00,AAXX 03004 85586 32960 00000 10138 20102 40137 52009 333 10186=
85586,2007,03,03,12,00,AAXX 03124 85586 31340 80605 10116 20093 40153 52/// 7052/ 886// 333 20111 30/// 50360 55116 56799 88708=
85586,2007,03,03,15,00,AAXX 03154 85586 41356 23107 10155 20112 40159 51007 74022 82600 333 56700 82710=
85586,2007,03,03,18,00,AAXX 03184 85586 31358 52507 10159 20109 40156 58003 70522 85600 333 56700 85710=
85586,2007,03,03,21,00,AAXX 03214 85586 42960 03108 10163 20117 40153 56003=
85586,2007,03,04,00,00,AAXX 04004 85586 31458 82704 10135 20115 40160 53006 70522 885// 333 10165 56799 88615=
85586,2007,03,04,12,00,AAXX 04124 85586 31206 81104 10101 20093 40132 53/// 7424/ 886// 333 20094 30/// 50310 55076 56799 88706=
85586,2007,03,04,15,00,AAXX 04154 85586 41920 02705 10142 20111 40135 52004 74044=
85586,2007,03,04,18,00,AAXX 04184 85586 31260 12807 10165 20122 40129 57005 70344 81600 333 56600 81704=
85586,2007,03,04,21,00,AAXX 04214 85586 41960 00406 10178 20128 40117 57012=
85586,2007,03,05,00,00,AAXX 05004 85586 32960 00507 10147 20132 40119 55001 333 10185=
85586,2007,03,05,12,00,AAXX 05124 85586 31206 80000 10105 20097 40134 52/// 7464/ 886// 333 20068 30/// 50340 55109 56799 88704=
85586,2007,03,05,15,00,AAXX 05154 85586 41956 02806 10160 20126 40133 54000 74044=
85586,2007,03,05,18,00,AAXX 05184 85586 31240 83106 10147 20137 40144 52010 74044 886// 333 56699 88704=
85586,2007,03,05,21,00,AAXX 05214 85586 41460 12807 10161 20143 40144 54001 70244 81500 333 56600 81612=
85586,2007,03,06,00,00,AAXX 06004 85586 32460 10000 10141 20122 40142 54003 81500 333 10168 56000 81612=
85586,2007,03,06,12,00,AAXX 06124 85586 31430 80000 10136 20114 40155 52/// 7052/ 885// 333 20128 30/// 50300 55083 56099 88610=
85586,2007,03,06,15,00,AAXX 06154 85586 41458 80000 10175 20127 40164 52010 70522 885// 333 56099 88614=
85586,2007,03,06,18,00,AAXX 06184 85586 32960 03109 10191 20131 40160 57004=
85586,2007,03,06,21,00,AAXX 06214 85586 41458 73206 10168 20136 40157 56003 70522 87500 333 56700 87613=
85586,2007,03,07,00,00,AAXX 07004 85586 31458 82406 10152 20124 40162 54001 70522 885// 333 10197 56699 88610=
85586,2007,03,07,12,00,AAXX 07124 85586 31320 80000 10142 20133 40184 52/// 7102/ 886// 333 20142 30/// 50250 55040 56099 88707=
85586,2007,03,07,15,00,AAXX 07154 85586 41320 82606 10146 20137 40196 52012 71052 886// 333 56699 88708=
85586,2007,03,07,18,00,AAXX 07184 85586 12560 72606 10176 20126 40191 58004 69914 87500 333 56600 87623=
85586,2007,03,07,21,00,AAXX 07214 85586 42560 22608 10178 20123 40179 57012 81502 333 56606 81623=
85586,2007,03,08,00,00,AAXX 08004 85586 32460 82706 10148 20131 40176 56004 885// 333 10188 56699 88610=
85586,2007,03,08,12,00,AAXX 08124 85586 12560 11204 10130 20119 40191 52/// 69914 81500 333 20118 30/// 50240 55042 56600 70001 81626=
85586,2007,03,08,15,00,AAXX 08154 85586 42960 02706 10180 20126 40191 54002=
85586,2007,03,08,18,00,AAXX 08184 85586 32960 02614 10180 20129 40176 57005=
85586,2007,03,08,21,00,AAXX 08214 85586 42560 12608 10182 20148 40178 56008 81500 333 56600 81623=
85586,2007,03,09,00,00,AAXX 09004 85586 32960 00404 10156 20136 40171 56007 333 10200=
85586,2007,03,09,12,00,AAXX 09124 85586 32960 01803 10153 20114 40163 52/// 333 20087 30/// 50410 55116=
85586,2007,03,09,15,00,AAXX 09154 85586 42960 02611 10191 20112 40169 51007=
85586,2007,03,09,18,00,AAXX 09184 85586 32960 02712 10197 20114 40159 58009=
85586,2007,03,09,21,00,AAXX 09214 85586 42960 02412 10200 20108 40150 57009=
85586,2007,03,10,00,00,AAXX 10004 85586 32960 00704 10161 20092 40155 53004 333 10203=
85586,2007,03,10,12,00,AAXX 10124 85586 32960 20000 10119 20096 40147 51/// 80001 333 20078 30/// 50420 56006 82075=
85586,2007,03,10,15,00,AAXX 10154 85586 42960 02503 10186 20111 40153 53007=
85586,2007,03,10,18,00,AAXX 10184 85586 31260 12511 10172 20127 40152 54001 72800 81600 333 56600 81704=
85586,2007,03,10,21,00,AAXX 10214 85586 42960 12403 10186 20119 40142 58010 81001 333 56006 81075=
85586,2007,03,11,00,00,AAXX 11004 85586 31956 10506 10144 20118 40152 53009 70500 80001 333 10197 56006 81075=
85586,2007,03,11,12,00,AAXX 11124 85586 31103 80000 10116 20109 40155 52/// 7444/ 886// 333 20107 30/// 50380 55109 56799 88703=
85586,2007,03,11,15,00,AAXX 11154 85586 41206 82905 10141 20119 40161 51006 74244 886// 333 56799 88706=
85586,2007,03,11,18,00,AAXX 11184 85586 31256 12809 10173 20118 40152 58008 74044 81600 333 56700 81708=
85586,2007,03,11,21,00,AAXX 11214 85586 41960 03405 10182 20126 40146 57006 70244=
85586,2007,03,12,00,00,AAXX 12004 85586 32960 00405 10153 20123 40150 53003 333 10185=
85586,2007,03,12,12,00,AAXX 12124 85586 31958 00000 10115 20106 40140 52/// 7050/ 333 20097 30/// 50310 55071=
85586,2007,03,12,15,00,AAXX 12154 85586 42960 02507 10198 20139 40137 54001=
85586,2007,03,12,18,00,AAXX 12184 85586 32960 22610 10202 20142 40127 57010 80001 333 56006 82075=
85586,2007,03,12,21,00,AAXX 12214 85586 42960 23306 10208 20146 40114 57013 80001 333 56006 82075=
85586,2007,03,13,00,00,AAXX 13004 85586 32960 03604 10170 20140 40117 54002 333 10216=
85586,2007,03,13,12,00,AAXX 13124 85586 31315 80000 10124 20117 40142 52/// 7102/ 886// 333 20124 30/// 50330 55111 56099 88707=
85586,2007,03,13,15,00,AAXX 13154 85586 41312 83106 10146 20137 40160 52018 71022 886// 333 56799 88707=
85586,2007,03,13,18,00,AAXX 13184 85586 31440 83104 10160 20138 40163 51004 70522 885// 333 56799 88612=
85586,2007,03,13,21,00,AAXX 13214 85586 41420 83604 10160 20143 40156 57007 70522 885// 333 56799 88610=
85586,2007,03,14,00,00,AAXX 14004 85586 11208 80000 10148 20139 40165 53008 69901 75052 886// 333 10170 56099 88706=
85586,2007,03,14,12,00,AAXX 14124 85586 11205 82404 10136 20132 40168 53/// 69924 7444/ 886// 333 20136 30/// 50090 55000 56799 70002 88704=
85586,2007,03,14,15,00,AAXX 14154 85586 41330 82705 10155 20143 40180 52013 71042 886// 333 56799 88708=
85586,2007,03,14,18,00,AAXX 14184 85586 31456 73106 10188 20140 40160 58020 70522 82502 333 56706 82615 86075=
85586,2007,03,14,21,00,AAXX 14214 85586 41456 80000 10151 20124 40166 53005 70522 85501 333 56706 85613 83073=
85586,2007,03,15,00,00,AAXX 15004 85586 31356 83304 10144 20130 40169 52003 70522 886// 333 10201 56799 88708=
85586,2007,03,15,12,00,AAXX 15124 85586 31104 80000 10138 20136 40157 52/// 7444/ 886// 333 20136 30/// 50210 55028 56099 88702=
85586,2007,03,15,15,00,AAXX 15154 85586 41108 80000 10142 20133 40169 52012 74444 886// 333 56099 88703=
85586,2007,03,15,18,00,AAXX 15184 85586 31357 72706 10166 20137 40171 54003 70542 87500 333 56600 87609=
85586,2007,03,15,21,00,AAXX 15214 85586 41358 82611 10152 20132 40167 57005 70522 8652/ 333 56679 86510 84462=
85586,2007,03,16,00,00,AAXX 16004 85586 31102 80000 10156 20142 40168 54001 74442 886// 333 10170 56799 88702=
85586,2007,03,16,12,00,AAXX 16124 85586 31106 40903 10123 20114 40184 52/// 7424/ 84600 333 20118 30/// 50310 55002 56700 84704=
85586,2007,03,16,15,00,AAXX 16154 85586 41956 03105 10181 20148 40182 50001 74044=
85586,2007,03,16,18,00,AAXX 16184 85586 31120 42710 10167 20138 40178 57004 74044 84600 333 56700 84706=
85586,2007,03,16,21,00,AAXX 16214 85586 41256 32808 10166 20127 40176 56002 70544 333 56700 83708=
85586,2007,03,17,00,00,AAXX 17004 85586 31240 70705 10143 20122 40174 58003 70544 87600 333 10183 56700 87706=
85586,2007,03,17,12,00,AAXX 17124 85586 32960 00904 10156 20132 40136 53/// 333 20093 30/// 50280 55078=
85586,2007,03,17,15,00,AAXX 17154 85586 42960 02408 10220 20156 40135 54001=
85586,2007,03,17,18,00,AAXX 17184 85586 32960 02709 10246 20133 40113 57021=
85586,2007,03,17,21,00,AAXX 17214 85586 42960 03206 10237 20136 40102 57011=
85586,2007,03,18,00,00,AAXX 18004 85586 32960 00000 10188 20138 40115 52010 333 10265=
85586,2007,03,18,12,00,AAXX 18124 85586 31440 83604 10146 20132 40138 52/// 7052/ 886// 333 20130 30/// 50300 55114 56099 88710=
85586,2007,03,18,15,00,AAXX 18154 85586 41956 03106 10188 20140 40156 52019 70511=
85586,2007,03,18,18,00,AAXX 18184 85586 32960 03110 10199 20144 40149 58006=
85586,2007,03,18,21,00,AAXX 18214 85586 42460 12710 10184 20147 40143 56007 81500 333 56600 81613=
85586,2007,03,19,00,00,AAXX 19004 85586 32960 30000 10162 20140 54004 80001 333 10206 56006 83075=
85586,2007,03,19,12,00,AAXX 19124 85586 31430 83304 10152 20134 40149 52/// 7052/ 886// 333 20132 30/// 50260 55097 56799 88710=
85586,2007,03,19,15,00,AAXX 19154 85586 41454 80000 10168 20143 40166 52018 70522 885// 333 56099 88611=
85586,2007,03,19,18,00,AAXX 19184 85586 31456 83106 10184 20147 40165 54001 70522 885// 333 56799 88613=
85586,2007,03,19,21,00,AAXX 19214 85586 41457 82604 10176 20150 40162 54003 70522 885// 333 56699 88613=
85586,2007,03,20,00,00,AAXX 20004 85586 31456 80000 10166 20149 40157 56005 70522 885// 333 10192 56099 88610=
85586,2007,03,20,12,00,AAXX 20124 85586 31103 80000 10151 20148 40154 52/// 7444/ 886// 333 20138 30/// 50180 55000 56099 88702=
85586,2007,03,20,15,00,AAXX 20154 85586 41108 80000 10152 20148 40161 52005 74254 886// 333 56099 88702=
85586,2007,03,20,18,00,AAXX 20184 85586 31108 82804 10170 20156 40176 52018 74244 886// 333 56699 88703=
85586,2007,03,20,21,00,AAXX 20214 85586 42560 73112 10174 20146 40165 57011 87500 333 56700 87620=
85586,2007,03,21,00,00,AAXX 21004 85586 32560 80000 10169 20144 40161 57004 885// 333 10185 56799 88620=
85586,2007,03,21,12,00,AAXX 21124 85586 31456 80000 10158 20138 40139 54/// 7052/ 885// 333 20156 30/// 50130 55000 56099 88610=
85586,2007,03,21,15,00,AAXX 21154 85586 41340 80000 10161 20132 40152 52013 70522 885// 333 56099 88608=
85586,2007,03,21,18,00,AAXX 21184 85586 32560 63104 10188 20132 40142 57010 86500 333 56700 86620=
85586,2007,03,21,21,00,AAXX 21214 85586 42360 23110 10184 20132 40133 57003 82600 333 56600 82709=
85586,2007,03,22,00,00,AAXX 22004 85586 32460 30000 10170 20154 40142 53003 83500 333 10200 56700 83612=
85586,2007,03,22,12,00,AAXX 22124 85586 31556 70903 10177 20136 40145 52/// 7052/ 87500 333 20163 30/// 50380 55027 56700 87630=
85586,2007,03,22,15,00,AAXX 22154 85586 41458 42706 10214 20142 40154 52015 70522 81530 333 56760 81615 84358=
85586,2007,03,22,18,00,AAXX 22184 85586 31458 22706 10213 20151 40157 51003 70521 82500 333 56700 82620=
85586,2007,03,22,21,00,AAXX 22214 85586 42960 02708 10209 20148 40147 58010=
85586,2007,03,23,00,00,AAXX 23004 85586 31940 00000 10163 20143 40151 53002 70400 333 10217=
85586,2007,03,23,12,00,AAXX 23124 85586 31103 40903 10131 20122 40159 52/// 7424/ 84600 333 20114 30/// 50320 55083=
85586,2007,03,23,15,00,AAXX 23154 85586 41958 02604 10186 20132 40159 50001=
85586,2007,03,23,18,00,AAXX 23184 85586 31960 02607 10207 20135 40146 57011 70244=
85586,2007,03,24,12,00,AAXX 24124 85586 32960 00000 10100 20092 40136 53/// 333 20082 30/// 50310 55103=
85586,2007,03,24,15,00,AAXX 24154 85586 41456 53106 10170 20138 40143 52009 70522 85500 333 56700 85613=
85586,2007,03,24,18,00,AAXX 24184 85586 31458 52706 10184 20141 40142 54001 70522 85500 333 56600 85617=
85586,2007,03,24,21,00,AAXX 24214 85586 42460 22706 10176 20128 40140 54002 82500 333 56600 82617=
85586,2007,03,25,00,00,AAXX 25004 85586 32560 73106 10148 20127 40152 52011 87500 333 10194 56700 87620=
85586,2007,03,25,12,00,AAXX 25124 85586 32460 80104 10136 20108 40160 53/// 885// 333 20136 30/// 50280 55082 56099 88613=
85586,2007,03,25,18,00,AAXX 25184 85586 32960 03109 10183 20122 40158 57008=
85586,2007,03,25,21,00,AAXX 25214 85586 42560 82606 10164 20128 40153 56005 885// 333 56699 88620=
85586,2007,03,26,00,00,AAXX 26004 85586 32560 50000 10147 20119 40159 52005 85500 333 10187 56600 85620=
85586,2007,03,26,12,00,AAXX 26124 85586 32460 80000 10137 20107 40152 52/// 885// 333 20126 30/// 50250 55052 56099 88610=
85586,2007,03,26,15,00,AAXX 26154 85586 42460 32805 10168 20094 40168 52017 83500 333 56700 85617=
85586,2007,03,26,18,00,AAXX 26184 85586 32460 12808 10176 20091 40165 57006 81500 333 56600 81615=
85586,2007,03,26,21,00,AAXX 26214 85586 42360 52806 10173 20119 40164 54002 85500 333 56700 85609=
85586,2007,03,27,00,00,AAXX 27004 85586 32460 62506 10144 20110 40169 52004 86500 333 10187 56600 86610=
85586,2007,03,27,12,00,AAXX 27124 85586 32560 30000 10107 20088 40157 52/// 83100 333 20106 30/// 50290 55075 56600 83833=
85586,2007,03,27,15,00,AAXX 27154 85586 42560 52805 10172 20102 40165 52009 85500 333 56600 85620=
85586,2007,03,27,18,00,AAXX 27184 85586 32560 82810 10164 20104 40168 54003 885// 333 56799 88627=
85586,2007,03,27,21,00,AAXX 27214 85586 42460 73111 10174 20119 40167 54001 82800 333 56600 82810 85635=
85586,2007,03,28,00,00,AAXX 28004 85586 32360 30000 10145 20086 40184 52016 83500 333 10188 56700 83608=
85586,2007,03,28,12,00,AAXX 28124 85586 32960 70000 10099 20079 40171 52/// 83031 333 20081 30/// 50280 55049 56066 83358 84075=
85586,2007,03,28,15,00,AAXX 28154 85586 42960 70000 10161 20080 40168 55001 87030 333 56070 87358=
85586,2007,03,28,18,00,AAXX 28184 85586 32960 42810 10191 20092 40164 58004 84030 333 56070 84362=
85586,2007,03,28,21,00,AAXX 28214 85586 42960 32708 10188 20102 40163 55001 83030 333 56070 83362=
85586,2007,03,29,00,00,AAXX 29004 85586 31956 72603 10164 20107 40171 53008 70511 87030 333 10201 56070 87362=
85586,2007,03,29,12,00,AAXX 29124 85586 31558 71003 10121 20105 40176 52/// 7052/ 87500 333 20114 30/// 50280 55062 56700 87630=
85586,2007,03,29,15,00,AAXX 29154 85586 41556 73305 10169 20105 40196 52021 70522 82530 333 56770 82625 87358=
85586,2007,03,29,18,00,AAXX 29184 85586 11456 72607 10181 20125 40202 51006 72122 87200 333 56700 87820=
85586,2007,03,29,21,00,AAXX 29214 85586 41458 82208 10173 20123 40203 50001 70562 8113/ 333 56770 81820 88358=
85586,2007,03,30,00,00,AAXX 30004 85586 31956 70000 10151 20118 40206 53002 70562 80001 333 10183 56006 87075=
85586,2007,03,30,12,00,AAXX 30124 85586 12560 80000 10136 20110 40191 54/// 69934 8353/ 333 20132 30/// 50220 55007 56069 70003 83525 87363=
85586,2007,03,30,15,00,AAXX 30154 85586 42960 61604 10184 20123 40195 51004 83032 333 56066 83363 85070=
85586,2007,03,30,18,00,AAXX 30184 85586 32960 52608 10204 20127 40180 57014 80002 333 56006 85072=
85586,2007,03,30,21,00,AAXX 30214 85586 42960 62606 10200 20138 40156 57024 80002 333 56006 86073=
85586,2007,03,31,00,00,AAXX 31004 85586 32960 52604 10156 20130 40137 57019 80001 333 10220 56006 85073=
85586,2007,03,31,12,00,AAXX 31124 85586 31320 80000 10116 20106 40109 53/// 7102/ 886// 333 20110 30/// 50250 55052 56099 88708=
85586,2007,03,31,15,00,AAXX 31154 85586 41450 83108 10170 20142 40123 52015 70522 885// 333 56699 88612=
85586,2007,03,31,18,00,AAXX 31184 85586 31456 33112 10192 20147 40118 57005 70511 83500 333 56700 83615=
85586,2007,03,31,21,00,AAXX 31214 85586 41458 23106 10180 20136 40118 54001 70511 82500 333 56700 82615=
85586,2007,04,01,00,00,AAXX 01004 85586 32960 03506 10154 20133 40121 53002 333 10198=
85586,2007,04,01,12,00,AAXX 01124 85586 31557 60000 10143 20131 40130 53/// 7102/ 86500 333 20138 30/// 40160 55073 56700 86620=
85586,2007,04,01,15,00,AAXX 01154 85586 42560 43304 10196 20138 40142 52014 84500 333 56700 84623=
85586,2007,04,01,18,00,AAXX 01184 85586 32560 13310 10193 20140 40150 52007 81500 333 56700 81623=
85586,2007,04,01,21,00,AAXX 01214 85586 42960 03404 10188 20142 40151 54001=
85586,2007,04,02,00,00,AAXX 02004 85586 32560 40000 10154 20137 40156 52004 84500 333 10200 56700 84720=
85586,2007,04,02,12,00,AAXX 02124 85586 31559 50000 10105 20099 40176 53/// 7102/ 85500 333 20100 30/// 50190 55090 56700 85633=
85586,2007,04,02,15,00,AAXX 02154 85586 42560 50000 10188 20142 40187 52013 85500 333 56700 85633=
85586,2007,04,02,18,00,AAXX 02184 85586 32960 02504 10204 20139 40180 58006=
85586,2007,04,02,21,00,AAXX 02214 85586 42960 02508 10194 20144 40173 57008=
85586,2007,04,03,00,00,AAXX 03004 85586 32960 00000 10155 20129 40169 57004 333 10206=
85586,2007,04,03,15,00,AAXX 03154 85586 41958 62805 10182 20111 40160 51008 70521 82031 333 56066 82365 85075=
85586,2007,04,03,18,00,AAXX 03184 85586 32960 42811 10201 20127 40165 51006 80001 333 56006 84075=
85586,2007,04,03,21,00,AAXX 03214 85586 41456 82507 10175 20136 40157 58009 70521 885// 333 56799 88612=
85586,2007,04,04,00,00,AAXX 04004 85586 31456 83104 10161 20130 40167 52010 70522 885// 333 10203 56799 88612=
85586,2007,04,04,12,00,AAXX 04124 85586 31440 81804 10152 20114 40167 52/// 7052/ 885// 333 20146 30/// 50280 55069 56799 88612=
85586,2007,04,04,15,00,AAXX 04154 85586 41440 80203 10161 20111 40180 52014 70522 885// 333 56799 88612=
85586,2007,04,04,18,00,AAXX 04184 85586 31456 82506 10185 20124 40178 58002 70522 885// 333 56799 88616=
85586,2007,04,04,21,00,AAXX 04214 85586 41956 02507 10181 20117 40168 57010 70522=
85586,2007,04,05,00,00,AAXX 05004 85586 31540 82404 10161 20125 40171 53003 70522 885// 333 10191 56799 88620=
85586,2007,04,05,12,00,AAXX 05124 85586 31330 80000 10136 20121 40158 52/// 7052/ 886// 333 20136 30/// 50210 55017 56099 88707=
85586,2007,04,05,15,00,AAXX 05154 85586 41320 83004 10152 20137 40174 52016 70522 886// 333 56699 88707=
85586,2007,04,05,18,00,AAXX 05184 85586 31440 82506 10160 20128 40177 51004 70522 885// 333 56699 88610=
85586,2007,04,05,21,00,AAXX 05214 85586 41440 82704 10154 20133 40184 52006 70522 885// 333 56699 88612=
85586,2007,04,06,00,00,AAXX 06004 85586 31440 82604 10147 20130 40187 54003 70522 885// 333 10162 56699 88610=
85586,2007,04,06,12,00,AAXX 06124 85586 31330 81804 10144 20123 40181 53/// 70522 886// 333 20144 30/// 50180 55000 56099 88707=
85586,2007,04,06,15,00,AAXX 06154 85586 41356 80000 10158 20121 40188 52008 70522 886// 333 56099 88709=
85586,2007,04,06,18,00,AAXX 06184 85586 32960 02413 10178 20124 40176 57012=
85586,2007,04,06,21,00,AAXX 06214 85586 42560 12711 10171 20131 40169 57007 81500 333 56600 81620=
85586,2007,04,07,00,00,AAXX 07004 85586 32960 00000 10146 20127 40175 52005 333 10182=
85586,2007,04,07,12,00,AAXX 07124 85586 32960 00000 10117 20104 40164 57/// 333 20085 30/// 50380 55059=
85586,2007,04,07,15,00,AAXX 07154 85586 42960 01708 10239 20128 40155 57005=
85586,2007,04,07,18,00,AAXX 07184 85586 32960 02613 10216 20124 40139 57017=
85586,2007,04,07,21,00,AAXX 07214 85586 42960 22606 10201 20141 40136 57004 80001 333 56007 82075=
85586,2007,04,08,00,00,AAXX 08004 85586 32960 20000 10152 20127 40144 52006 80001 333 10242 56006 82075=
85586,2007,04,08,12,00,AAXX 08124 85586 32258 20000 10088 20076 40146 52/// 7051/ 82600 333 20086 30/// 50410 55107 56600 82706=
85586,2007,04,08,15,00,AAXX 08154 85586 42960 02706 10172 20129 40152 52008=
85586,2007,04,08,18,00,AAXX 08184 85586 32960 02710 10188 20104 40150 54002=
85586,2007,04,08,21,00,AAXX 08214 85586 42360 12805 10174 20130 40156 52006 82600 333 56700 82707=
85586,2007,04,09,00,00,AAXX 09004 85586 32360 20000 10148 20126 40168 52011 82600 333 10196 56700 82708=
85586,2007,04,09,12,00,AAXX 09124 85586 11220 80503 10143 20134 40175 52/// 69914 7215/ 886// 333 20117 50280 55114 56799 70001 88706=
85586,2007,04,09,15,00,AAXX 09154 85586 41440 73105 10172 20112 40183 51009 70555 85501 333 56706 85612 82075=
85586,2007,04,09,18,00,AAXX 09184 85586 31456 82808 10166 20107 40191 51008 70555 885// 333 56799 88615=
85586,2007,04,09,21,00,AAXX 09214 85586 41958 82706 10164 20115 40186 56005 70522 8803/ 333 56069 88365=
85586,2007,04,10,00,00,AAXX 10004 85586 31956 82205 10154 20100 40197 53010 70522 8803/ 333 10175 56069 88362=
85586,2007,04,10,12,00,AAXX 10124 85586 31940 71204 10081 20067 40189 52/// 7051/ 82031 333 20068 30/// 50240 55008 56066 82365 85075=
85586,2007,04,10,15,00,AAXX 10154 85586 41458 43109 10179 20113 40191 51004 70511 82230 333 56760 82815 82362=
85586,2007,04,10,18,00,AAXX 10184 85586 32560 22612 10193 20108 40184 58007 81230 333 56760 81820 82365=
85586,2007,04,10,21,00,AAXX 10214 85586 42460 52612 10166 20117 40188 53004 81101 333 56706 81815 85075=
85586,2007,04,11,00,00,AAXX 11004 85586 31456 72407 10144 20106 40202 52013 70511 87500 333 10201 56700 87615=
85586,2007,04,11,12,00,AAXX 11124 85586 32960 11304 10080 20068 40229 54/// 80001 333 20066 30/// 50220 55088 56006 81075=
85586,2007,04,11,15,00,AAXX 11154 85586 42960 22408 10188 20072 40225 54001 80001 333 56006 82075=
85586,2007,04,11,18,00,AAXX 11184 85586 32960 52512 10188 20099 40223 54002 80002 333 56006 85072=
85586,2007,04,11,21,00,AAXX 11214 85586 42960 22614 10186 20107 40217 57006 80001 333 56006 82073=
85586,2007,04,12,00,00,AAXX 12004 85586 32960 20000 10140 20100 40222 53004 80001 333 10200 56006 82075=
85586,2007,04,12,12,00,AAXX 12124 85586 32960 01504 10100 20074 40200 53/// 333 20076 30/// 50250 55095=
85586,2007,04,12,15,00,AAXX 12154 85586 42960 01105 10204 20063 40195 54001=
85586,2007,04,12,18,00,AAXX 12184 85586 32960 02511 10185 20093 40176 57021=
85586,2007,04,12,21,00,AAXX 12214 85586 42960 02608 10188 20111 40157 57018=
85586,2007,04,13,00,00,AAXX 13004 85586 32960 00000 10141 20093 40159 54001 333 10228=
85586,2007,04,13,12,00,AAXX 13124 85586 32960 00000 10072 20062 40143 52/// 333 20046 30/// 50930 55108=
85586,2007,04,13,15,00,AAXX 13154 85586 42960 02705 10162 20105 40154 52014=
85586,2007,04,13,18,00,AAXX 13184 85586 32360 13108 10178 20114 40153 54001 81600 333 56700 81709=
85586,2007,04,13,21,00,AAXX 13214 85586 42960 12708 10169 20105 40153 54000 81600 333 56600 81710=
85586,2007,04,14,00,00,AAXX 14004 85586 32960 00000 10133 20102 40164 52010 333 10180=
85586,2007,04,14,12,00,AAXX 14124 85586 31458 80000 10102 20092 40194 52/// 7052/ 885// 333 20085 30/// 50270 55098 56099 88619=
85586,2007,04,14,15,00,AAXX 14154 85586 42960 70000 10151 20096 40201 52009 87020 333 56060 87463=
85586,2007,04,14,18,00,AAXX 14184 85586 32960 72604 10168 20094 40192 57008 87050 333 56070 87365=
85586,2007,04,14,21,00,AAXX 14214 85586 42960 62607 10164 20104 40183 57009 83051 333 56067 83366 83075=
85586,2007,04,15,00,00,AAXX 15004 85586 32960 40000 10140 20094 40190 52006 80001 333 10188 56007 84075=
85586,2007,04,15,12,00,AAXX 15124 85586 31956 01205 10083 20074 40174 52/// 7050/ 333 20061 30/// 50240 55021=
85586,2007,04,15,15,00,AAXX 15154 85586 41956 03005 10179 20094 40170 58002 70500=
85586,2007,04,15,18,00,AAXX 15184 85586 31958 22909 10176 20121 40161 57009 70500 80001 333 56006 82075=
85586,2007,04,15,21,00,AAXX 15214 85586 42460 82707 10159 20121 40152 57009 885// 333 56799 88615=
85586,2007,04,16,00,00,AAXX 16004 85586 31456 80000 10147 20119 40156 53003 70521 885// 333 10183 56799 88615=
85586,2007,04,16,12,00,AAXX 16124 85586 32560 80703 10153 20117 40187 52/// 885// 333 20131 30/// 50240 55072 56799 88625=
85586,2007,04,16,15,00,AAXX 16154 85586 42560 73211 10194 20125 40193 51007 87500 333 56700 87625=
85586,2007,04,16,18,00,AAXX 16184 85586 32560 73114 10188 20129 40193 50000 82230 333 56760 82820 85362=
85586,2007,04,16,21,00,AAXX 16214 85586 42460 53307 10193 20137 40186 57007 82530 333 56760 82615 84362=
85586,2007,04,17,00,00,AAXX 17004 85586 31956 50000 10164 20128 40187 55001 70522 85030 333 10204 56070 85365=
85586,2007,04,17,12,00,AAXX 17124 85586 32960 11206 10110 20097 40169 56/// 80002 333 10100 30/// 50220 55067 56006 81075=
85586,2007,04,17,15,00,AAXX 17154 85586 42960 32706 10188 20096 40168 54000 80001 333 56006 83075=
85586,2007,04,17,18,00,AAXX 17184 85586 32960 32410 10200 20104 40153 57014 80001 333 56006 83075=
85586,2007,04,17,21,00,AAXX 17214 85586 42960 22510 10182 20116 40143 56006 80001 333 56006 82075=
85586,2007,04,18,00,00,AAXX 18004 85586 32960 00000 10126 20106 40146 56003 333 10210=
85586,2007,04,18,12,00,AAXX 18124 85586 31308 21204 10077 20069 40151 53/// 7461/ 82600 333 20066 30/// 50260 55104 56300 82707=
85586,2007,04,18,15,00,AAXX 18154 85586 41960 20000 10179 20121 40152 54003 70241 80001 333 56007 82075=
85586,2007,04,18,18,00,AAXX 18184 85586 31256 62705 10163 20126 40145 57007 70541 83601 333 56707 83706 83075=
85586,2007,04,18,21,00,AAXX 18214 85586 41208 82506 10144 20128 40145 54001 74444 886// 333 56699 88707=
85586,2007,04,19,00,00,AAXX 19004 85586 31460 60000 10142 20124 40153 52008 70242 86500 333 10181 56600 86610=
85586,2007,04,19,12,00,AAXX 19124 85586 31340 80000 10128 20117 40198 52/// 7052/ 886// 333 20126 30/// 50290 55064 56099 88707=
85586,2007,04,19,15,00,AAXX 19154 85586 42460 52705 10192 20126 40205 52009 82501 333 56607 82610 83075=
85586,2007,04,19,18,00,AAXX 19184 85586 32360 52611 10176 20114 40204 54001 84501 333 56606 84615 81075=
85586,2007,04,19,21,00,AAXX 19214 85586 42960 11809 10199 20107 40200 57004 80001 333 56007 81075=
85586,2007,04,20,00,00,AAXX 20004 85586 32960 10000 10148 20079 40207 52006 80001 333 10212 56000 81073=
85586,2007,04,20,12,00,AAXX 20124 85586 32960 21704 10146 20115 40202 54/// 80001 333 20082 30/// 50330 55082 56007 82073=
85586,2007,04,20,15,00,AAXX 20154 85586 42960 21907 10176 20049 40194 57007 80001 333 56006 82075=
85586,2007,04,20,18,00,AAXX 20184 85586 32960 32617 10173 20081 40182 57012 80001 333 56006 83075=
85586,2007,04,20,21,00,AAXX 20214 85586 42960 22617 10163 20083 40179 57003 80001 333 56006 82073=
85586,2007,04,21,12,00,AAXX 21124 85586 31958 50000 10058 20043 40169 52/// 7051/ 80001 333 20036 30/// 50220 55016 56006 85075=
85586,2007,04,21,15,00,AAXX 21154 85586 41956 62706 10145 20066 40173 53006 70511 80001 333 56006 86075=
85586,2007,04,21,18,00,AAXX 21184 85586 31958 82511 10151 20082 40167 56006 70511 85031 333 56076 85365 83075=
85586,2007,04,21,21,00,AAXX 21214 85586 42960 72907 10133 20088 40182 52015 87030 333 56070 87365=
85586,2007,04,22,00,00,AAXX 22004 85586 31956 80000 10116 20087 40189 53007 70522 8803/ 333 10163 56079 88365=
85586,2007,04,22,12,00,AAXX 22124 85586 31958 70903 10097 20084 40197 52/// 7051/ 87030 333 20071 30/// 50180 55061 56070 87362=
85586,2007,04,22,15,00,AAXX 22154 85586 41460 73005 10149 20097 40129 52022 72521 81130 333 56770 81815 87362=
85586,2007,04,22,18,00,AAXX 22184 85586 11460 73206 10161 20069 40213 58006 69901 70282 81130 333 56870 81215 87362=
85586,2007,04,22,21,00,AAXX 22214 85586 41960 72503 10143 20077 40225 53012 70182 80030 333 56070 87365=
85586,2007,04,23,00,00,AAXX 23004 85586 31958 00000 10093 20071 40221 58006 70522 333 10164=
85586,2007,04,23,12,00,AAXX 23124 85586 12960 81204 10069 20054 40176 57/// 69904 85032 333 20050 30/// 50190 55024 56066 70000 85363 83075=
85586,2007,04,23,15,00,AAXX 23154 85586 42960 80000 10104 20075 40175 54000 87032 333 56066 87359=
85586,2007,04,23,18,00,AAXX 23184 85586 32960 80304 10140 20073 40182 52009 8803/ 333 56069 88358=
85586,2007,04,23,21,00,AAXX 23214 85586 42960 72508 10127 20092 40183 54001 87030 333 56060 87360=
85586,2007,04,24,00,00,AAXX 24004 85586 32960 70000 10106 20082 40181 54002 87030 333 10142 56060 87362=
85586,2007,04,24,12,00,AAXX 24124 85586 32960 21404 10019 20011 40202 52/// 81031 333 20008 30/// 50160 55005 56066 81365=
85586,2007,04,24,15,00,AAXX 24154 85586 41956 30000 10132 20064 40200 54000 70511 81031 333 56066 81365=
85586,2007,04,24,18,00,AAXX 24184 85586 31957 52611 10158 20069 40203 52004 70533 84031 333 56066 84367 81073=
85586,2007,04,24,21,00,AAXX 24214 85586 42960 42605 10144 20098 40206 54003 84030 333 56060 84365=
85586,2007,04,25,00,00,AAXX 25004 85586 32960 10000 10109 20092 40210 54003 81030 333 10162 56060 81363=
85586,2007,04,25,12,00,AAXX 25124 85586 31940 00000 10042 20031 40220 52/// 7050/ 333 20030 30/// 50320 55088=
85586,2007,04,25,15,00,AAXX 25154 85586 41956 02803 10147 20082 40226 52010=
85586,2007,04,25,18,00,AAXX 25184 85586 31957 02611 10148 20073 40213 57008=
85586,2007,04,25,21,00,AAXX 25214 85586 42960 02608 10148 20067 40218 54000=
85586,2007,04,26,12,00,AAXX 26124 85586 31950 00000 10049 20027 40202 55/// 7050/ 333 20046 30/// 50380 55101=
85586,2007,04,26,15,00,AAXX 26154 85586 42960 01607 10173 20032 40198 54000=
85586,2007,04,26,18,00,AAXX 26184 85586 32960 02613 10161 20073 40182 57016=
85586,2007,04,26,21,00,AAXX 26214 85586 42960 02705 10164 20096 40169 57013=
85586,2007,04,27,00,00,AAXX 27004 85586 32960 00000 10099 20087 40172 54001 333 10204=
85586,2007,04,27,12,00,AAXX 27124 85586 31958 01206 10056 20045 40142 52/// 7050/ 333 20023 30/// 50220 55105=
85586,2007,04,27,15,00,AAXX 27154 85586 41940 02906 10154 20053 40163 52023 70500=
85586,2007,04,27,18,00,AAXX 27184 85586 31256 13014 10161 20104 40178 52016 70500 81600 333 56800 81708=
85586,2007,04,27,21,00,AAXX 27214 85586 41456 33107 10152 20121 40179 50000 70500 83500 333 56700 83615=
85586,2007,04,28,00,00,AAXX 28004 85586 31956 00000 10126 20102 40187 53008 70500 333 10163=
85586,2007,04,28,12,00,AAXX 28124 85586 31540 80404 10136 20098 40199 53/// 7052/ 885// 333 20083 30/// 50180 55098 56799 88620=
85586,2007,04,28,15,00,AAXX 28154 85586 41556 80705 10151 20093 40207 51008 70522 885// 333 56799 88625=
85586,2007,04,28,18,00,AAXX 28184 85586 31958 03010 10176 20095 40193 58013 70522=
85586,2007,04,28,21,00,AAXX 28214 85586 41958 02806 10159 20095 40184 57009 70522=
85586,2007,04,29,12,00,AAXX 29124 85586 31320 80904 10102 20090 40171 52/// 7102/ 886// 333 20052 30/// 50190 55047 56099 88707=
85586,2007,04,29,15,00,AAXX 29154 85586 41440 80404 10129 20104 40190 52020 70522 885// 333 56199 88615=
85586,2007,04,29,18,00,AAXX 29184 85586 31556 80404 10164 20107 40168 58021 70522 87501 333 56006 87620=
85586,2007,04,29,21,00,AAXX 29214 85586 41458 72804 10170 20088 40162 56007 70522 80001 333 56006 87075=
85586,2007,04,30,00,00,AAXX 30004 85586 31958 50000 10114 20087 40156 56006 70522 80001 333 10182 56006 85075=
85586,2007,04,30,12,00,AAXX 30124 85586 32960 61204 10100 20087 40157 53/// 84031 333 20086 20/// 50180 55043 56066 84365 83075=
85586,2007,04,30,15,00,AAXX 30154 85586 42960 70406 10160 20084 40165 52010 87030 333 56060 87363=
85586,2007,04,30,18,00,AAXX 30184 85586 32960 73306 10176 20080 40156 58010 87030 333 56060 87362=
85586,2007,05,01,00,00,AAXX 01004 85586 32960 73106 10158 20097 40162 54001 87030 333 10186 56060 87362=
85586,2007,05,01,12,00,AAXX 01124 85586 12560 50000 10125 20118 40157 54/// 60064 81101 333 20125 32/// 50120 55019 56606 70061 81823 84073=
85586,2007,05,01,15,00,AAXX 01154 85586 42560 73104 10170 20131 40172 52016 82101 333 56706 82823 86073=
85586,2007,05,01,18,00,AAXX 01184 85586 32460 72809 10172 20131 40173 54001 82101 333 56606 82819 86073=
85586,2007,05,01,21,00,AAXX 01214 85586 41458 80000 10164 20129 40173 54000 70522 8113/ 333 56769 81817 88368=
85586,2007,05,02,00,00,AAXX 02004 85586 31958 80000 10146 20130 40179 52005 70522 8803/ 333 10179 56069 88365=
85586,2007,05,02,12,00,AAXX 02124 85586 32960 50000 10106 20095 40170 53/// 81039 333 20102 30/// 50140 55033 56006 81365 84175=
85586,2007,05,02,15,00,AAXX 02154 85586 42960 33104 10184 20111 40171 54002 80001 333 56006 83075=
85586,2007,05,02,18,00,AAXX 02184 85586 32960 22509 10178 20125 40163 80001 333 56006 82075=
85586,2007,05,02,21,00,AAXX 02214 85586 41107 82504 10146 20136 40158 57006 74642 886// 333 56699 88703=
85586,2007,05,03,00,00,AAXX 03004 85586 31103 80000 10138 20131 40162 52004 74444 886// 333 10194 56099 88702=
85586,2007,05,03,12,00,AAXX 03124 85586 11103 80000 10112 20101 40176 52/// 7445/ 886// 333 20107 31/// 50180 55077 56799 70001 88703=
85586,2007,05,03,15,00,AAXX 03154 85586 41120 80000 10122 20116 40182 51006 72054886// 333 56799 88704=
85586,2007,05,03,18,00,AAXX 03184 85586 11104 82707 10124 20116 40171 57011 69911 74654 886// 333 56799 88704=
85586,2007,05,03,21,00,AAXX 03214 85586 41220 83105 10129 20113 40179 53008 75054 886// 333 56799 88708=
85586,2007,05,04,00,00,AAXX 04004 85586 11320 80000 10128 20107 40187 52008 70544 886// 333 10135 56799 88708=
85586,2007,05,04,12,00,AAXX 04124 85586 11340 81904 10114 20093 40179 53/// 69914 7052/ 886// 333 20113 31/// 50150 55000 56799 70001 88709=
85586,2007,05,04,15,00,AAXX 04154 85586 42960 60705 10159 20099 40181 58003 80001 333 56006 86075=
85586,2007,05,04,18,00,AAXX 04184 85586 32960 72906 10167 20107 40173 57008 80001 333 56006 87075=
85586,2007,05,04,21,00,AAXX 04214 85586 42960 73004 10153 20108 40171 56003 80001 333 56006 87075=
85586,2007,05,05,00,00,AAXX 05004 85586 31956 50000 10103 20082 40166 56006 70511 80001 333 10186 56006 85075=
85586,2007,05,05,12,00,AAXX 05124 85586 31201 80904 10100 20093 40161 52/// 7464/ 886// 333 20070 30/// 50200 55062 56299 88704=
85586,2007,05,05,15,00,AAXX 05154 85586 41560 50000 10150 20117 40169 51009 70142 81501 333 56006 81620 85075=
85586,2007,05,05,18,00,AAXX 05184 85586 32560 32604 10176 20113 40161 58007 82501 333 56606 82620=
85586,2007,05,05,21,00,AAXX 05214 85586 42560 32706 10160 20124 40169 53008 82501 333 56606 82620=
85586,2007,05,06,00,00,AAXX 06004 85586 63460 60000 10134 20122 40185 52015 83501 333 10180 56006 83617 85075=
85586,2007,05,06,12,00,AAXX 06124 85586 31256 40000 10104 20093 40192 57/// 7052/ 84500 333 20096 30/// 50180 55079 56000 82705 83615=
85586,2007,05,06,15,00,AAXX 06154 85586 41458 50000 10142 20124 40202 52012 70522 85500 333 56600 85617=
85586,2007,05,06,18,00,AAXX 06184 85586 32560 12512 10156 20100 40193 57009 81800 333 56600 81620=
85586,2007,05,06,21,00,AAXX 06214 85586 42960 02509 10143 20097 40185 57008=
85586,2007,05,07,00,00,AAXX 07004 85586 32960 00000 10099 20080 40190 52004 333 10159=
85586,2007,05,07,12,00,AAXX 07124 85586 32960 00000 10035 20028 40201 57/// 333 20022 30/// 50280 55068=
85586,2007,05,07,15,00,AAXX 07154 85586 42960 03107 10127 20067 40205 52007=
85586,2007,05,07,18,00,AAXX 07184 85586 32960 02405 10139 20071 40195 57009=
85586,2007,05,07,21,00,AAXX 07214 85586 42960 02508 10140 20072 40193 54002=
85586,2007,05,08,00,00,AAXX 08004 85586 32960 00000 10078 20052 40196 54001 333 10152=
85586,2007,05,08,12,00,AAXX 08124 85586 31957 01704 10063 20031 40173 54/// 7050/ 333 20044 30/// 50260 55099=
85586,2007,05,08,15,00,AAXX 08154 85586 41958 00000 10137 20055 40179 52008=
85586,2007,05,08,18,00,AAXX 08184 85586 32960 02708 10153 20072 40166 57013=
85586,2007,05,08,21,00,AAXX 08214 85586 42960 02803 10150 20080 40161 57005=
85586,2007,05,09,00,00,AAXX 09004 85586 32960 00000 10098 20072 40169 52007 333 10153=
85586,2007,05,09,12,00,AAXX 09124 85586 31440 81204 10076 20060 40169 52/// 7052/ 885// 333 20029 30/// 50180 55101 56799 88615=
85586,2007,05,09,15,00,AAXX 09154 85586 41556 73305 10149 20099 40182 52014 70522 87500 333 56700 87620=
85586,2007,05,09,18,00,AAXX 09184 85586 31958 13306 10173 20098 40176 58005 70522 81100 333 56700 81815=
85586,2007,05,09,21,00,AAXX 09214 85586 41958 03209 10156 20108 40189 53003 70521=
85586,2007,05,10,00,00,AAXX 10004 85586 31540 83503 10143 20097 4019353013 70511 885// 333 10175 56799 88625=
85586,2007,05,10,12,00,AAXX 10124 85586 31540 80000 10129 20086 40207 52/// 7052/ 885// 333 20101 30/// 50160 55066 56799 88625=
85586,2007,05,10,15,00,AAXX 10154 85586 41540 81304 10152 20086 40216 52011 70522 885// 333 56799 88625=
85586,2007,05,10,18,00,AAXX 10184 85586 31956 62516 10161 20092 40200 58017 70522 80001 333 56006 86075=
85586,2007,05,10,21,00,AAXX 10214 85586 41956 72514 10136 20096 40191 57009 70522 80001 333 56006 87075=
85586,2007,05,11,00,00,AAXX 11004 85586 31940 40000 10096 20065 40196 53003 70511 80001 333 10174 56006 84075=
85586,2007,05,11,12,00,AAXX 11124 85586 31920 61206 10064 20054 40164 56/// 7102/ 83031 333 20050 30/// 50190 55050 56066 83365 85075=
85586,2007,05,11,15,00,AAXX 11154 85586 41930 80000 10122 20092 40157 57005 70522 85032 333 56066 85365 83075=
85586,2007,05,11,18,00,AAXX 11184 85586 31950 82408 10146 20085 40142 57015 70522 83032 333 56066 83365 85075=
85586,2007,05,11,21,00,AAXX 11214 85586 41950 83304 10140 20090 40136 57006 70522 83032 333 56066 83365 85075=
85586,2007,05,12,00,00,AAXX 12004 85586 31550 80000 10104 20094 40136 54000 70522 85032 333 10166 56066 85365 84075=
85586,2007,05,12,12,00,AAXX 12124 85586 31920 80000 10050 20039 40124 53/// 7102/ 84032 333 20046 30/// 50160 55013 56066 84365 85075=
85586,2007,05,12,15,00,AAXX 12154 85586 41940 83106 10118 20092 40157 52035 70522 83032 333 56066 83365 87075=
85586,2007,05,12,18,00,AAXX 12184 85586 31950 83107 10153 20107 40157 54000 70522 8803/ 333 56069 88315=
85586,2007,05,12,21,00,AAXX 12214 85586 41556 73107 10143 20103 40175 52018 70522 83530 333 56660 83620 85365=
85586,2007,05,13,00,00,AAXX 13004 85586 31957 40000 10106 20087 4019452018 70522 80002 333 10158 56006 84075=
85586,2007,05,13,12,00,AAXX 13124 85586 31940 70000 10086 20082 40218 52/// 7102/ 84031 333 20064 30/// 50130 55004 56066 84365 83073=
85586,2007,05,13,15,00,AAXX 13154 85586 41956 70000 10147 20135 40227 52011 71022 85031 333 56066 85363=
85586,2007,05,13,18,00,AAXX 13184 85586 32960 72410 10157 20115 40220 58007 85031 333 56066 85363=
85586,2007,05,13,21,00,AAXX 13214 85586 42960 62509 10143 20093 40218 54002 81039 333 56066 81363 85173=
85586,2007,05,14,00,00,AAXX 14004 85586 32960 10000 10098 20072 40223 52003 81030 333 10158 56060 81363=
85586,2007,05,14,12,00,AAXX 14124 85586 31956 51403 10056 20047 40190 55/// 7051/ 84031 333 20035 30/// 50240 55042 56066 84363 81073=
85586,2007,05,14,15,00,AAXX 14154 85586 41956 33103 10138 20082 40197 52009 70511 80001 333 56006 83073=
85586,2007,05,14,18,00,AAXX 14184 85586 31958 52610 10167 20089 40182 57014 70511 80001 333 56006 85073=
85586,2007,05,14,21,00,AAXX 14214 85586 41958 62709 10143 20099 40185 54002 70522 83011 333 56066 83462 86070=
85586,2007,05,15,00,00,AAXX 15004 85586 31958 30000 10126 20100 40195 52009 70511 80001 333 10197 56006 83070=
85586,2007,05,15,12,00,AAXX 15124 85586 31940 82407 10099 20074 40204 52/// 7052/ 8803/ 333 20068 30/// 50210 55080 56069 88358=
85586,2007,05,15,15,00,AAXX 15154 85586 41956 81906 10136 20081 40209 51007 70522 8803/ 333 56069 88358=
85586,2007,05,15,18,00,AAXX 15184 85586 31956 82510 10157 20091 40191 58018 70522 8803/ 333 56069 88362=
85586,2007,05,15,21,00,AAXX 15214 85586 41956 72506 10151 20092 40192 55001 70522 87030 333 56060 87365=
85586,2007,05,16,00,00,AAXX 16004 85586 31940 60000 10113 20076 40206 52013 70522 86030 333 10161 56060 86365=
85586,2007,05,16,12,00,AAXX 16124 85586 31960 02106 10041 20023 40207 54/// 333 20032 50160 55001=
85586,2007,05,16,15,00,AAXX 16154 85586 41958 01404 10149 20055 40202 50001 70500=
85586,2007,05,16,18,00,AAXX 16184 85586 32960 01608 10194 20031 40171 57030=
85586,2007,05,16,21,00,AAXX 16214 85586 42960 01511 10188 21005 40161 57010=
85586,2007,05,17,00,00,AAXX 17004 85586 31956 00000 10084 20011 40168 70500 333 10203=
85586,2007,05,17,12,00,AAXX 17124 85586 32960 01804 10040 20028 40185 52/// 333 20018 30/// 50190 55099=
85586,2007,05,17,15,00,AAXX 17154 85586 42960 12208 10120 20037 40189 52007 80002 333 56006 81075=
85586,2007,05,17,18,00,AAXX 17184 85586 32960 52510 10148 20057 40182 58007 80001 333 56006 85075=
85586,2007,05,17,21,00,AAXX 17214 85586 42960 62408 10146 20077 40172 54000 80001 333 56006 86075=
85586,2007,05,18,00,00,AAXX 18004 85586 32960 31806 10076 20064 40200 52007 80001 333 10160 56006 83075=
85586,2007,05,18,12,00,AAXX 18124 85586 32960 01204 10006 21002 40217 52/// 333 20001 30/// 50210 55093=
85586,2007,05,18,15,00,AAXX 18154 85586 42960 02704 10116 20053 40212 54001=
85586,2007,05,18,18,00,AAXX 18184 85586 32960 02607 10136 20073 40200 57011=
85586,2007,05,18,21,00,AAXX 18214 85586 42960 02506 10134 20081 40192 56009=
85586,2007,05,19,12,00,AAXX 19124 85586 31912 00000 10014 20010 40199 52/// 7100/ 333 20008 30/// 50370 55093=
85586,2007,05,19,15,00,AAXX 19154 85586 41940 03503 10110 20064 40202 52007 70500=
85586,2007,05,19,18,00,AAXX 19184 85586 31958 02709 10128 20070 40197 57005 70500=
85586,2007,05,19,21,00,AAXX 19214 85586 41358 12509 10120 20082 40193 57004 70511 81600 333 56600 81709=
85586,2007,05,20,00,00,AAXX 20004 85586 32360 30000 10073 20057 40204 53009 83600 333 10134 56600 83709=
85586,2007,05,20,12,00,AAXX 20124 85586 31340 80000 10092 20072 40207 53/// 7052/ 886// 333 20065 30/// 50330 55091 56099 88708=
85586,2007,05,20,15,00,AAXX 20154 85586 41450 81204 10096 20071 40223 52016 70522 885// 333 56699 88610=
85586,2007,05,20,18,00,AAXX 20184 85586 31358 62707 10135 20070 40210 57011 70511 82531 333 56766 82609 83362 84070=
85586,2007,05,20,21,00,AAXX 20214 85586 41359 32708 10126 20077 40210 54001 70511 82501 333 56606 82609 81070=
85586,2007,05,21,00,00,AAXX 21004 85586 32360 80000 10108 20098 40214 52004 886// 333 10142 56699 88707=
85586,2007,05,21,12,00,AAXX 21124 85586 32560 81304 10074 20059 40221 52/// 885// 333 20068 30/// 50140 55049 56799 88525=
85586,2007,05,21,15,00,AAXX 21154 85586 41556 81503 10111 20077 40232 52013 70522 885// 333 56799 88520=
85586,2007,05,21,18,00,AAXX 21184 85586 32560 22609 10151 20080 40218 58013 81101 333 56706 81820=
85586,2007,05,21,21,00,AAXX 21214 85586 42960 02410 10134 20087 40211 56008=
85586,2007,05,22,00,00,AAXX 22004 85586 31956 00000 10082 20045 40227 53015 70510 333 10153=
85586,2007,05,22,15,00,AAXX 22154 85586 42956 00904 10124 20053 40228 50001 70500=
85586,2007,05,22,18,00,AAXX 22184 85586 32960 02612 10137 20062 40205 57012=
85586,2007,05,22,21,00,AAXX 22214 85586 42960 22407 10133 20071 40206 55000=
85586,2007,05,23,00,00,AAXX 23004 85586 31956 01806 10079 20043 40218 52011 333 10151=
85586,2007,05,23,12,00,AAXX 23124 85586 32960 00000 10010 20000 40214 52/// 333 20010 30/// 50230 55097=
85586,2007,05,23,15,00,AAXX 23154 85586 41956 03104 10120 20043 40209 54001 70500=
85586,2007,05,23,18,00,AAXX 23184 85586 31956 02506 10140 20067 40190 57018 70500=
85586,2007,05,23,21,00,AAXX 23214 85586 41956 03004 10144 20070 40177 57013 70500=
85586,2007,05,24,00,00,AAXX 24004 85586 31956 00804 10060 20038 40180 54001 70500 333 10156=
85586,2007,05,24,12,00,AAXX 24124 85586 31957 00000 10005 20003 40174 53/// 7100/ 333 20005 34/// 50160 55091=
85586,2007,05,24,15,00,AAXX 24154 85586 41356 22804 10106 20063 40187 52007 70511 82600 333 56600 82708=
85586,2007,05,24,18,00,AAXX 24184 85586 31356 63110 10130 22085 40184 57007 70522 86600 333 56600 867080=
85586,2007,05,24,21,00,AAXX 24214 85586 41350 83103 10122 20083 40184 54000 70522 886// 333 56099 88708=
85586,2007,05,25,00,00,AAXX 25004 85586 31340 80000 10115 20091 40188 52004 70522 886// 333 10138 56699 88709=
85586,2007,05,25,12,00,AAXX 25124 85586 31340 80903 10108 20073 40193 53/// 7052/ 886// 333 20105 30/// 50140 55042 56099 88708=
85586,2007,05,25,15,00,AAXX 25154 85586 41350 80404 10120 20070 40210 52017 70522 886// 333 56199 88708=
85586,2007,05,25,18,00,AAXX 25184 85586 31456 82803 10132 20064 40204 57006 70522 886// 333 56799 88710=
85586,2007,05,25,21,00,AAXX 25214 85586 41457 82704 10130 20055 40193 57009 70522 885// 333 56699 88611=
85586,2007,05,26,00,00,AAXX 26004 85586 31450 80000 10113 20073 40199 52006 70522 885// 333 10137 56699 88611=
85586,2007,05,26,12,00,AAXX 26124 85586 31330 80000 10096 20062 40228 52/// 7052/ 886// 333 20093 30/// 50110 55000 56099 88707=
85586,2007,05,26,15,00,AAXX 26154 85586 41550 81203 10121 20051 40246 52019 70522 885// 333 56799 88628=
85586,2007,05,26,18,00,AAXX 26184 85586 31657 52607 10144 20050 40227 57018 70511 85500 333 56600 85635=
85586,2007,05,26,21,00,AAXX 26214 85586 42560 12605 10121 20057 40234 52006 81500 333 56600 81633=
85586,2007,05,27,00,00,AAXX 27004 85586 32960 00000 10065 20059 40237 54001 333 10150=
85586,2007,05,27,12,00,AAXX 27124 85586 31920 81404 10074 20056 40207 56/// 7052/ 8803/ 333 20048 30/// 50140 55044 56069 88362=
85586,2007,05,27,15,00,AAXX 27154 85586 41920 20000 10111 20057 40203 58002 70522 82030 333 56060 82365=
85586,2007,05,27,18,00,AAXX 27184 85586 31940 02610 10126 20056 40188 57014 70522=
85586,2007,05,28,00,00,AAXX 28004 85586 31940 00000 10043 20024 40191 55000 70500 333 10135=
85586,2007,05,28,12,00,AAXX 28124 85586 31940 00000 11012 21023 40186 52/// 7110/ 333 21014 30/// 50120 55069=
85586,2007,05,28,15,00,AAXX 28154 85586 41956 00000 10116 20045 40206 51013 70500=
85586,2007,05,28,18,00,AAXX 28184 85586 31958 42705 10131 20027 40201 58005 70500 80001 333 56006 84075=
85586,2007,05,28,21,00,AAXX 28214 85586 41958 63104 10115 20064 40200 55001 70500 80001 333 56006 86075=
85586,2007,05,29,00,00,AAXX 29004 85586 31940 73603 10059 20032 40201 55001 70511 80001 333 10133 56006 87075=
85586,2007,05,29,12,00,AAXX 29124 85586 32560 80000 10074 20056 40189 53/// 82532 333 20052 30/// 50180 55082 56066 82620 83363 85075=
85586,2007,05,29,15,00,AAXX 29154 85586 41557 83304 10110 20072 40210 52022 70522=
85586,2007,05,29,18,00,AAXX 29184 85586 31557 83506 10122 20073 40209 54001 70522 8553/ 333 56769 85626 85362=
85586,2007,05,29,21,00,AAXX 29214 85586 41556 80000 10124 20085 40203 57006 70522=
85586,2007,05,30,00,00,AAXX 30004 85586 31556 80000 10109 20078 40204 54001 70522 8353/ 333 10136 56069 83626 86362=
85586,2007,05,30,12,00,AAXX 30124 85586 32960 81204 10076 20060 40177 57/// 85032 333 20070 30/// 50130 55000 56066 85362 85075=
85586,2007,05,30,15,00,AAXX 30154 85586 42960 81004 10120 20082 40178 56002 86032 333 56066 86360 84075=
85586,2007,05,30,18,00,AAXX 30184 85586 32560 63306 10142 20086 40171 57007 81532 333 56766 81620 84362=
85586,2007,05,30,21,00,AAXX 30214 85586 42960 83408 10128 20093 40172 54001 85032 333 56066 85362 84075=
85586,2007,05,31,00,00,AAXX 31004 85586 11940 80000 10110 20098 40182 52009 69901 76022 85032 333 10146 85362 85075=
85586,2007,05,31,12,00,AAXX 31124 85586 12560 70000 10104 20091 40199 53/// 60144 85201 333 20052 32/// 50120 55000 56606 70145 85830=
85586,2007,05,31,15,00,AAXX 31154 85586 12560 71203 10122 20094 40212 52014 86221 333 56667 86830 85469 82073=
85586,2007,05,31,18,00,AAXX 31184 85586 11556 80304 10115 20100 40220 52008 70522 8322/ 333 56769 83825 87465=
85586,2007,05,31,21,00,AAXX 31214 85586 42560 42807 10136 20105 40221 53002 84201 333 56706 84822 81073=
85586,2007,06,01,00,00,AAXX 01004 85586 32360 20000 10103 20090 40245 52022 82600 333 10143 56600 82707=
85586,2007,06,01,12,00,AAXX 01124 85586 11000 80000 10058 20054 40285 52/// 60194 7444/ 886// 333 20051 31/// 50110 55023 56099 70187 88701=
85586,2007,06,01,15,00,AAXX 01154 85586 41240 41203 10083 20073 40298 52014 70544 84600 333 56600 84706=
85586,2007,06,01,18,00,AAXX 01184 85586 32560 11707 10135 20072 40281 57015 81100 333 56600 81820=
85586,2007,06,01,21,00,AAXX 01214 85586 42960 01904 10141 20068 40268 57013=
85586,2007,06,02,12,00,AAXX 02124 85586 31958 01605 10029 20019 40243 53/// 7110/ 333 20024 50140 55071=
85586,2007,06,02,15,00,AAXX 02154 85586 42960 01812 10116 20072 40251=
85586,2007,06,02,18,00,AAXX 02184 85586 32960 01814 10161 20047 40231 58019=
85586,2007,06,02,21,00,AAXX 02214 85586 42960 01807 10154 20123 40224 56007=
85586,2007,06,03,00,00,AAXX 03004 85586 31958 02203 10078 20055 40244 53018 333 10165=
85586,2007,06,03,15,00,AAXX 03154 85586 41958 01405 10123 20049 40207 58014 70500=
85586,2007,06,03,18,00,AAXX 03184 85586 32960 02706 10183 20074 40175 57030=
85586,2007,06,03,21,00,AAXX 03214 85586 42960 02505 10152 20062 40171 56005=
85586,2007,06,04,00,00,AAXX 04004 85586 31940 00000 10066 20041 40170 53003 70500 333 10196=
85586,2007,06,04,12,00,AAXX 04124 85586 32460 70000 10068 20060 40200 52/// 87500 333 20012 31/// 50130 55094 56000 87615=
85586,2007,06,04,15,00,AAXX 04154 85586 41458 31404 10108 20097 40207 52009 70522 83500 333 56300 83613=
85586,2007,06,04,18,00,AAXX 04184 85586 31457 33306 10138 20092 40194 58012 70511 83500 333 56600 83615=
85586,2007,06,04,21,00,AAXX 04214 85586 41457 12606 10126 20080 40200 53005 70500 81500 333 56600 81615=
85586,2007,06,05,00,00,AAXX 05004 85586 31456 71804 10070 20058 40205 51003 70500 87600 333 10141 56400 87710=
85586,2007,06,05,12,00,AAXX 05124 85586 31312 80000 10084 20075 40186 56/// 7102/ 886// 333 20062 31/// 50140 55072 56099 88710=
85586,2007,06,05,15,00,AAXX 05154 85586 41213 82203 10091 20085 40200 52013 75222 886// 333 56099 88706=
85586,2007,06,05,18,00,AAXX 05184 85586 11340 80000 10098 20090 40197 57003 69901 70522 886// 333 56099 88707=
85586,2007,06,05,21,00,AAXX 05214 85586 41440 82604 10108 20095 40195 56001 70522 885// 333 56699 88610=
85586,2007,06,06,00,00,AAXX 06004 85586 31450 80000 10098 20081 40213 52017 70522 885// 333 10141 56699 88610=
85586,2007,06,06,12,00,AAXX 06124 85586 11456 80000 10091 20073 40226 52/// 69904 7052/ 885// 333 20089 30/// 50130 55000 56099 70000 88610=
85586,2007,06,06,18,00,AAXX 06184 85586 31958 02205 10134 20056 40222 57005 70500=
85586,2007,06,06,21,00,AAXX 06214 85586 42960 02708 10120 20059 40224 54002=
85586,2007,06,07,00,00,AAXX 07004 85586 32960 00000 10055 20036 40228 54002 333 10136=
85586,2007,06,07,12,00,AAXX 07124 85586 31940 20000 10041 20026 40221 53/// 7050/ 80001 333 20022 30/// 50290 55082 56006 82073=
85586,2007,06,07,15,00,AAXX 07154 85586 41956 00903 10097 20069 40221 54002 70500=
85586,2007,06,07,18,00,AAXX 07184 85586 31958 42207 10147 20049 40198 57021 70511 80001 333 56006 84073=
85586,2007,06,07,21,00,AAXX 07214 85586 41958 62605 10133 20088 40193 57006 70522 80001 333 56007 86073=
85586,2007,06,08,00,00,AAXX 08004 85586 31956 70000 10088 20068 40197 54003 70522 80001 333 10154 56007 87073=
85586,2007,06,08,12,00,AAXX 08124 85586 31956 81404 10076 20052 40183 52/// 7052/ 8803/ 333 20068 30/// 50140 55065 56069 88365=
85586,2007,06,08,15,00,AAXX 08154 85586 41940 51003 10101 20078 40192 52008 70522 80001 333 56006 85075=
85586,2007,06,08,18,00,AAXX 08184 85586 31956 12705 10144 20088 40180 58010 70522 80001 333 56006 81075=
85586,2007,06,08,21,00,AAXX 08214 85586 41858 02506 10129 20093 40187 53007 70511=
85586,2007,06,09,00,00,AAXX 09004 85586 31920 00000 10058 20042 40203 52013 70400 333 10146=
85586,2007,06,09,12,00,AAXX 09124 85586 32960 41007 10088 20044 40221 52/// 84030 333 20041 31/// 50150 55063 56060 84365=
85586,2007,06,09,15,00,AAXX 09154 85586 41956 10505 10154 20055 40222 51003 70511 81030 333 56060 81365=
85586,2007,06,09,18,00,AAXX 09184 85586 32960 02410 10162 20049 40209 58013=
85586,2007,06,10,00,00,AAXX 10004 85586 31956 01305 10094 20060 40207 55001 70500 333 10173=
85586,2007,06,10,12,00,AAXX 10124 85586 32960 41504 10028 20020 40202 53/// 80001 333 20018 31/// 50130 55086 56006 84075=
85586,2007,06,10,15,00,AAXX 10154 85586 41958 71504 10092 20072 40198 54002 70522 83032 333 56066 83365 85075=
85586,2007,06,10,18,00,AAXX 10184 85586 31957 72706 10142 20076 40186 57010 70522 80332 333 56066 83365 86075=
85586,2007,06,10,21,00,AAXX 10214 85586 41957 80000 10132 20051 40191 53004 70522 83032 333 56066 83365 86075=
85586,2007,06,11,00,00,AAXX 11004 85586 31957 81806 10098 20053 40187 54004 70522 84032 333 10144 56066 84365 86075=
85586,2007,06,11,12,00,AAXX 11124 85586 31556 80000 10066 20041 40196 52/// 7052/ 8353/ 333 20066 31/// 50110 55014 56069 83523 88362=
85586,2007,06,11,15,00,AAXX 11154 85586 41556 71705 10097 20061 40177 57017 70522 81530 333 56660 81523 87362=
85586,2007,06,11,18,00,AAXX 11184 85586 31957 81905 10119 20060 40179 54003 70522 8803/ 333 5606/ 88361=
85586,2007,06,11,21,00,AAXX 11214 85586 41957 82705 10111 20073 40187 52008 70522 8803/ 333 56059 88362=
85586,2007,06,12,00,00,AAXX 12004 85586 31958 30000 10062 20047 40198 52008 70511 83031 333 10127 56066 83364 81073=
85586,2007,06,12,12,00,AAXX 12124 85586 31556 80000 10048 20035 40167 52/// 7052/ 8253/ 333 20027 30/// 50130 55000 56069 82623 88360=
85586,2007,06,12,15,00,AAXX 12154 85586 41957 81303 10071 20053 40176 52009 70522 8803/ 333 56069 88360=
85586,2007,06,12,18,00,AAXX 12184 85586 31558 81806 10098 20056 40164 57013 70522 8383/ 333 56669 83823 82625 88358=
85586,2007,06,12,21,00,AAXX 12214 85586 41957 80000 10101 20062 40150 57014 72162 8803/ 333 56069 88359=
85586,2007,06,13,00,00,AAXX 13004 85586 11858 80000 10086 20064 40164 52014 60011 70522 8803/ 333 10107 56059 88358=
85586,2007,06,13,12,00,AAXX 13124 85586 11958 80411 10103 20065 40157 52/// 60204 7216/ 8807/ 333 20087 32/// 50120 55000 56009 70205 88359=
85586,2007,06,13,15,00,AAXX 13154 85586 41425 83403 10112 20097 40173 52017 76261 8807/ 333 56069 88511=
85586,2007,06,13,18,00,AAXX 13184 85586 11460 83305 10122 20111 40171 54002 60021 70561 884// 333 56199 88608=
85586,2007,06,13,21,00,AAXX 13214 85586 41207 83109 10111 20103 40174 54003 74422 887// 333 56799 88705=
85586,2007,06,14,00,00,AAXX 14004 85586 31108 80000 10110 20093 40176 54002 75354 887// 333 10127 56099 88703=
85586,2007,06,14,12,00,AAXX 14124 85586 12460 80000 10086 20072 40181 52/// 60034 8113/ 333 20071 32/// 50120 55000 56769 70038 81815 88362=
85586,2007,06,14,15,00,AAXX 14154 85586 42560 82704 10105 20093 40200 52019 8427/ 333 56769 84825 88362=
85586,2007,06,14,18,00,AAXX 14184 85586 32460 81305 10119 20092 40198 54001 8117/ 333 56769 81815 88458=
85586,2007,06,14,21,00,AAXX 14214 85586 42460 41707 10104 20078 40235 52035 81201 333 56706 81820 84075=
85586,2007,06,15,00,00,AAXX 15004 85586 31958 01105 10061 20044 40256 52020 70521 333 10121=
85586,2007,06,15,12,00,AAXX 15124 85586 31920 01306 10039 20023 40252 57/// 7400/ 333 20019 32/// 50120 55012=
85586,2007,06,15,15,00,AAXX 15154 85586 41960 11507 10088 20045 40236 57014 70240 80001 333 56006 81075=
85586,2007,06,15,18,00,AAXX 15184 85586 32960 01311 10137 20062 40197 57037=
85586,2007,06,15,21,00,AAXX 15214 85586 42960 32005 10137 20045 40178 57018 80001 333 56006 83075=
85586,2007,06,16,00,00,AAXX 16004 85586 31958 00000 10054 20018 40191 53011 70500 333 10147=
85586,2007,06,16,12,00,AAXX 16124 85586 32960 70000 10052 20033 40201 52/// 87030 333 20024 31/// 50110 55091 56060 87363=
85586,2007,06,16,15,00,AAXX 16154 85586 42960 70000 10076 20053 40206 51004 87030 333 56060 87363=
85586,2007,06,16,18,00,AAXX 16184 85586 32960 70000 10110 20060 40209 54004 87030 333 56060 87365=
85586,2007,06,16,21,00,AAXX 16214 85586 42960 32504 10114 20054 40222 52013 83030 333 56060 83365=
85586,2007,06,17,00,00,AAXX 17004 85586 32960 10000 10038 20018 40245 52020 81030 333 10116 56060 81365=
85586,2007,06,17,12,00,AAXX 17124 85586 31902 41206 10016 20008 40248 52/// 7464/ 80001 333 20010 32/// 50090 55022 56006 84075=
85586,2007,06,17,15,00,AAXX 17154 85586 41950 31406 10082 20072 40244 54002 70542 80001 333 56006 83075=
85586,2007,06,17,18,00,AAXX 17184 85586 32960 32208 10144 20043 40223 57019 80002 333 56006 83075=
85586,2007,06,17,21,00,AAXX 17214 85586 42960 22508 10126 20082 40215 56009 80002 333 56006 82075=
85586,2007,06,18,00,00,AAXX 18004 85586 32960 10000 10056 20034 40214 54003 80001 333 10147 56006 81075=
85586,2007,06,18,12,00,AAXX 18124 85586 31957 30000 10027 20022 40197 57/// 7100/ 80001 333 20011 31/// 50090 55064 56006 83073=
85586,2007,06,18,15,00,AAXX 18154 85586 42960 40000 10085 20075 40202 53007 80001 333 56006 84073=
85586,2007,06,18,18,00,AAXX 18184 85586 32960 73006 10120 20086 40186 58014 84031 333 56066 84365 83073=
85586,2007,06,18,21,00,AAXX 18214 85586 42960 62506 10109 20089 40181 57005 83031 333 56066 83365 83073=
85586,2007,06,19,00,00,AAXX 19004 85586 32960 50000 10058 20046 40193 52009 82031 333 10122 56066 82365 83073=
85586,2007,06,19,12,00,AAXX 19124 85586 31958 81206 10074 20060 40162 54/// 7052/ 8807/ 333 20056 31/// 50100 55059 56069 88363=
85586,2007,06,19,15,00,AAXX 19154 85586 41958 71204 10098 20072 40154 57007 70522 87070 333 56060 87363=
85586,2007,06,19,18,00,AAXX 19184 85586 31958 73208 10135 20099 40146 57007 70522 87070 333 56060 87363=
85586,2007,06,19,21,00,AAXX 19214 85586 41558 83604 10107 20080 40152 53006 76022 8257/ 333 56779 83625 86362=
85586,2007,06,20,00,00,AAXX 20004 85586 11557 80805 10100 20084 40162 52009 60021 76162 8357/ 333 10135 56669 83623 86358=
85586,2007,06,20,12,00,AAXX 20124 85586 11560 73404 10098 20074 40198 52/// 60046 7611/ 81120 333 20091 32/// 50130 55000 56770 70043 81820 87456=
85586,2007,06,20,15,00,AAXX 20154 85586 41560 83604 10102 20081 40228 52030 72161 83820 333 56779 83825 88456=
85586,2007,06,20,18,00,AAXX 20184 85586 11560 63404 10134 20082 40231 51004 60041 70366 86200 333 56700 86820=
85586,2007,06,20,21,00,AAXX 20214 85586 41560 10505 10118 20065 40245 52014 70166 81200 333 56700 81820=
85586,2007,06,21,12,00,AAXX 21124 85586 31920 01306 10024 20016 40220 53/// 60044 7400/ 333 20021 31/// 50120 55037 70045=
85586,2007,06,21,15,00,AAXX 21154 85586 41958 01204 10086 20062 40214 56004 70540=
85586,2007,06,21,18,00,AAXX 21184 85586 32960 02512 10119 20063 40197 57016=
85586,2007,06,21,21,00,AAXX 21214 85586 42960 02510 10108 20054 40198 54001=
85586,2007,06,22,00,00,AAXX 22004 85586 31956 00000 10041 20019 40207 53006 70500 333 10123=
85586,2007,06,22,12,00,AAXX 22124 85586 32960 50406 10060 20040 40178 57/// 83032 333 20014 32/// 50100 55090 56066 83363 83075=
85586,2007,06,22,15,00,AAXX 22154 85586 41530 80408 10074 20066 40179 52011 76262 8213/ 333 56169 82820 83360=
85586,2007,06,22,18,00,AAXX 22184 85586 11520 83116 10074 20067 40201 52011 60241 78066 8223/ 333 56169 85820 88358=
85586,2007,06,22,21,00,AAXX 22214 85586 41556 80906 10076 20068 40224 52024 76086=
85586,2007,06,23,00,00,AAXX 23004 85586 11556 80906 10056 20050 40248 52013 60141 76066 8353/ 333 10088 56169 83620 88358=
85586,2007,06,23,12,00,AAXX 23124 85586 12960 71004 10014 20006 40261 54/// 60374 7022/ 83032 333 10014 33/// 50060 55000 56066 70370 83365 85075=
85586,2007,06,23,15,00,AAXX 23154 85586 42960 50000 10053 20043 40268 52009 83032 333 56066 83365 84075=
85586,2007,06,23,18,00,AAXX 23184 85586 32960 61703 10103 20043 40258 57009 85032 333 56066 85365 82075=
85586,2007,06,23,21,00,AAXX 23214 85586 42960 01803 10109 20041 40256 54001=
85586,2007,06,24,00,00,AAXX 24004 85586 32960 00000 10042 20023 40254 54002 333 10118=
85586,2007,06,24,12,00,AAXX 24124 85586 32960 00000 10016 20002 40217 57/// 333 20008 30/// 50190 55069=
85586,2007,06,24,15,00,AAXX 24154 85586 42960 01303 10091 20032 40205 57010=
85586,2007,06,24,18,00,AAXX 24184 85586 32960 02306 10143 20046 40173 57030=
85586,2007,06,24,21,00,AAXX 24214 85586 42960 01907 10144 20021 40162 57009=
85586,2007,06,25,00,00,AAXX 25004 85586 32960 00000 10057 20027 40161 57003 333 10157=
85586,2007,06,25,12,00,AAXX 25124 85586 32960 00000 11013 21025 40189 52/// 333 21018 30/// 50240 55093=
85586,2007,06,25,15,00,AAXX 25154 85586 42560 60000 10077 20061 40200 52016 86500 333 56600 86623=
85586,2007,06,25,18,00,AAXX 25184 85586 32560 83105 10108 20067 40190 57006 885// 333 56699 88625=
85586,2007,06,25,21,00,AAXX 25214 85586 41558 80000 10099 20059 40197 54000 70522 885// 333 56699 88625=
85586,2007,06,26,00,00,AAXX 26004 85586 32560 60000 10069 20056 40200 54002 86500 333 10110 56600 86620=
85586,2007,06,26,12,00,AAXX 26124 85586 11540 81304 10087 20054 40247 53/// 69914 7052/ 885// 333 20069 31/// 56799 70001 88620=
85586,2007,06,26,15,00,AAXX 26154 85586 41540 81606 10099 20052 40249 51002 70522 885// 333 56799 88620=
85586,2007,06,26,18,00,AAXX 26184 85586 31940 11307 10133 20067 40228 58020 70522 80001 333 56006 81075=
85586,2007,06,26,21,00,AAXX 26214 85586 41956 42306 10113 20072 40208 57020 70521 80001 333 56006 84075=
85586,2007,06,27,00,00,AAXX 27004 85586 31940 41403 10053 20035 40205 57005 70511 80001 333 10146 56006 84075=
85586,2007,06,27,12,00,AAXX 27124 85586 31903 41307 10022 20014 40178 53/// 7464/ 80001 333 20006 31/// 50140 55054 56006 84075=
85586,2007,06,27,15,00,AAXX 27154 85586 41906 01005 10061 20046 40187 52010 74244=
85586,2007,06,27,18,00,AAXX 27184 85586 31940 22704 10114 20069 40169 58016 70544 80001 333 56006 82075=
85586,2007,06,27,21,00,AAXX 27214 85586 41940 52806 10105 20068 40172 53003 70544 80001 333 56006 85075=
85586,2007,06,28,00,00,AAXX 28004 85586 31940 01104 10054 20042 40183 52011 74111 333 10123=
85586,2007,06,28,12,00,AAXX 28124 85586 32960 01206 10030 20017 40165 57/// 333 20012 31/// 50110 55061=
85586,2007,06,28,18,00,AAXX 28184 85586 32958 01204 10172 20072 40149 58024 70500=
85586,2007,06,28,21,00,AAXX 28214 85586 41958 00604 10130 20074 40159 54000 70500=
85586,2007,06,29,00,00,AAXX 29004 85586 31958 00000 10060 20046 40154 54002 70500 333 10184=
85586,2007,06,29,15,00,AAXX 29154 85586 41956 30000 10112 20082 40163 52015 70511 80001 333 56006 83075=
85586,2007,06,29,18,00,AAXX 29184 85586 31206 82804 10101 20092 40172 52008 74222 886// 333 56699 88706=
85586,2007,06,29,21,00,AAXX 29214 85586 41356 72703 10112 20087 40164 57013 70522 87600 333 56600 87708=
85586,2007,06,30,00,00,AAXX 30004 85586 31356 80000 10101 20087 40176 52011 70522 886// 333 10123 56099 88708=
85586,2007,06,30,12,00,AAXX 30124 85586 31440 80000 10098 20086 40201 52/// 7102/ 886// 333 20098 31/// 50090 55020 56799 88710=
85586,2007,06,30,15,00,AAXX 30154 85586 41440 80000 10103 20092 40221 52020 71022 886// 333 56099 88712=
85586,2007,06,30,18,00,AAXX 30184 85586 31450 80000 10113 20093 40216 54004 70522 885// 333 56699 88615=
85586,2007,06,30,21,00,AAXX 30214 85586 41456 80000 10114 20086 40207 57009 70522 885// 333 56699 88615=
85586,2007,07,01,00,00,AAXX 01004 85586 31450 80000 10110 20083 40215 52008 70522 885// 333 10119 56099 88617=
85586,2007,07,01,12,00,AAXX 01124 85586 31320 80000 10090 20070 40208 55/// 7102/ 886// 333 20088 30/// 50060 55000 88707=
85586,2007,07,01,15,00,AAXX 01154 85586 41330 80000 10093 20072 40213 52005 70522 886// 333 56099 88709=
85586,2007,07,01,18,00,AAXX 01184 85586 31330 82604 10095 20071 40219 52006 70522 886// 333 56099 88710=
85586,2007,07,01,21,00,AAXX 01214 85586 41450 61803 10100 20066 40213 57006 70522 86599 333 56600 86615=
85586,2007,07,02,00,00,AAXX 02004 85586 31450 80000 10085 20075 40219 52006 71022 886// 333 10104 56699 88710=
85586,2007,07,02,00,03,AAXX 02004 85586 31450 80000 10085 20075 40219 52006 71022 886// 333 10104 56699 88710=
85586,2007,07,02,12,00,AAXX 02124 85586 31220 71305 10063 20048 40216 52/// 7101/ 82601 333 20024 31/// 50120 55000 56706 82708 85075=
85586,2007,07,02,15,00,AAXX 02154 85586 41220 31505 10085 20066 40234 52018 74021 83600 333 56700 83707=
85586,2007,07,02,18,00,AAXX 02184 85586 31940 52705 10133 20072 40207 58026 70521 80001 333 56006 85075=
85586,2007,07,02,21,00,AAXX 02214 85586 41956 72504 10107 20080 40197 56009 70511 80001 333 56006 87075=
85586,2007,07,03,00,00,AAXX 03004 85586 31240 61703 10093 20075 40210 52011 70511 82601 333 10135 56706 82707 84075=
85586,2007,07,03,12,00,AAXX 03124 85586 31103 61403 10056 20045 40210 51/// 7464/ 82601 333 20049 31/// 50130 55061 56706 82704 84075=
85586,2007,07,03,15,00,AAXX 03154 85586 41940 70904 10117 20077 40214 53006 70544 80001 333 56006 87075=
85586,2007,07,03,18,00,AAXX 03184 85586 31940 72503 10152 20095 40203 58010 70544 80001 333 56006 87075=
85586,2007,07,03,21,00,AAXX 03214 85586 41240 72505 10123 20093 40195 57009 70511 81631 333 56766 81708 83365=
85586,2007,07,04,00,00,AAXX 04004 85586 31240 40000 10103 20086 40196 54000 70541 81630 333 10165 56760 81708 83362=
85586,2007,07,04,12,00,AAXX 04124 85586 31430 81004 10106 20087 40186 53/// 7102/ 885// 333 20076 31/// 50130 55080 56099 88617=
85586,2007,07,04,15,00,AAXX 04154 85586 41950 10404 10154 20133 40187 54001 70511 80001 333 56006 81075=
85586,2007,07,04,18,00,AAXX 04184 85586 31557 42608 10174 20128 40165 57021 70511 81501 333 56606 81620 83075=
85586,2007,07,04,21,00,AAXX 04214 85586 41958 82704 10146 20120 40164 56002 70522 8803/ 333 56069 88367=
85586,2007,07,05,00,00,AAXX 05004 85586 31958 80000 10122 20104 40161 54003 70522 8803/ 333 10186 56069 88365=
85586,2007,07,05,12,00,AAXX 05124 85586 11204 80000 10111 20105 40160 53/// 60014 7464/ 886// 333 20111 32/// 50090 55060 56099 70013 88704=
85586,2007,07,05,15,00,AAXX 05154 85586 41202 82804 10118 20113 40173 52013 74644 886// 333 56099 88704=
85586,2007,07,05,18,00,AAXX 05184 85586 11354 83103 10120 20105 40173 54000 60016 70522 888// 333 56099 83707 88611=
85586,2007,07,05,21,00,AAXX 05214 85586 41457 80000 10128 20115 40180 52007 70522 8857/ 333 56009 82610 88350=
85586,2007,07,06,00,00,AAXX 06004 85586 11530 80000 10123 20111 40192 52011 60021 71022 885// 333 10134 56099 88625=
85586,2007,07,06,12,00,AAXX 06124 85586 11457 80000 10106 20093 40205 52/// 60034 7052/ 885// 333 20104 31/// 50070 55000 56099 70028 88612=
85586,2007,07,06,15,00,AAXX 06154 85586 41458 82303 10117 20106 40213 52008 70522 885// 333 56699 88612=
85586,2007,07,06,18,00,AAXX 06184 85586 32560 72403 10117 20093 40205 57008 87500 333 56600 87617=
85586,2007,07,06,21,00,AAXX 06214 85586 42560 62306 10112 20080 40204 54001 83101 333 56606 83820 85075=
85586,2007,07,07,00,00,AAXX 07004 85586 32960 00000 10072 20058 40185 57020 333 10126=
85586,2007,07,07,12,00,AAXX 07124 85586 32460 20000 10031 20011 40198 52/// 82500 333 20027 30/// 50090 55006 56600 82615=
85586,2007,07,07,15,00,AAXX 07154 85586 42460 10000 10097 20059 40216 52020 81600 333 56600 81712=
85586,2007,07,07,18,00,AAXX 07184 85586 32560 42607 10106 20054 40206 57009 84800 333 56600 84820=
85586,2007,07,07,21,00,AAXX 07214 85586 42560 32408 10103 20056 40208 54001 83800 333 56600 83820=
85586,2007,07,08,00,00,AAXX 08004 85586 32560 10000 10054 20041 40225 52016 81500 333 10124 56600 81620=
85586,2007,07,08,12,00,AAXX 08124 85586 31960 00000 11007 21023 40249 52/// 333 21012 31/// 50140 55069=
85586,2007,07,08,15,00,AAXX 08154 85586 42960 01608 10088 20025 40256 51010=
85586,2007,07,08,18,00,AAXX 08184 85586 32960 12610 10111 20034 40242 58013=
85586,2007,07,09,00,00,AAXX 09004 85586 31956 00000 10031 20009 40256 52005 70500 333 10113=
85586,2007,07,09,12,00,AAXX 09124 85586 32960 11205 11001 21008 40289 52/// 81030 333 21017 31/// 50160 55093 56060 81362=
85586,2007,07,09,15,00,AAXX 09154 85586 42960 10503 10093 20027 40296 52009 81030 333 56060 81362=
85586,2007,07,09,18,00,AAXX 09184 85586 32960 12505 10100 20031 40285 58010 81100 333 56700 81820=
85586,2007,07,09,21,00,AAXX 09214 85586 42960 02610 10097 20023 40285 55000=
85586,2007,07,10,00,00,AAXX 10004 85586 31956 01204 10023 21004 40301 52013 70400 333 10105=
85586,2007,07,10,12,00,AAXX 10124 85586 32960 01204 10004 21004 40274 57/// 333 21018 32/// 50120 55091=
85586,2007,07,10,15,00,AAXX 10154 85586 42960 11204 10076 20012 40266 56004 80002 333 56006 81070=
85586,2007,07,10,18,00,AAXX 10184 85586 32960 31806 10126 21018 40242 57023 80001 333 56006 83075=
85586,2007,07,10,21,00,AAXX 10214 85586 42960 22506 10118 20028 40229 57013 80001 333 56006 82075=
85586,2007,07,11,00,00,AAXX 11004 85586 32960 02606 10038 21028 40230 54002 333 10136=
85586,2007,07,11,12,00,AAXX 11124 85586 32960 31606 10004 21016 40204 56/// 80001 333 21024 32/// 50120 55088 56006 83075=
85586,2007,07,11,15,00,AAXX 11154 85586 42960 60000 10080 20022 40206 53004 80001 333 56006 86075=
85586,2007,07,11,18,00,AAXX 11184 85586 32960 22609 10113 20033 40191 57014 80001 333 56007 82075=
85586,2007,07,11,21,00,AAXX 11214 85586 42960 02609 10106 20046 40184 57006=
85586,2007,07,12,00,00,AAXX 12004 85586 32960 00000 10028 20005 40200 52012 333 10124=
85586,2007,07,12,12,00,AAXX 12124 85586 31957 80000 10023 20005 40211 52/// 7052/ 8803/ 333 21018 30/// 50220 55095 56009 88365=
85586,2007,07,12,15,00,AAXX 12154 85586 41958 80000 10070 20038 40231 52021 70522 8803/ 333 56069 88365=
85586,2007,07,12,18,00,AAXX 12184 85586 31958 63404 10107 20041 40209 57020 70522 86030 333 56070 86366=
85586,2007,07,12,21,00,AAXX 12214 85586 41358 80000 10100 20077 40207 54003 70522 82539 333 56669 82609 88365=
85586,2007,07,13,00,00,AAXX 13004 85586 31958 80000 10088 20070 40215 52009 76122 8807/ 333 10109 56009 88359=
85586,2007,07,13,12,00,AAXX 13124 85586 11440 80000 10091 20059 40223 52/// 60224 7616/ 8587/ 333 20083 32/// 50090 55004 56009 70223 85610 88358=
85586,2007,07,13,15,00,AAXX 13154 85586 41460 60404 10097 20083 40247 52024 72162 82830 333 56660 82615 85360=
85586,2007,07,13,18,00,AAXX 13184 85586 11560 32706 10142 2008740246 54001 70111 83100 333 56600 83822=
85586,2007,07,13,21,00,AAXX 13214 85586 42560 32604 10133 20070 40251 52004 83100 333 56600 83820=
85586,2007,07,14,00,00,AAXX 14004 85586 32960 00000 10076 20064 40255 54003 333 10146=
85586,2007,07,14,12,00,AAXX 14124 85586 12960 51206 10048 20036 40238 55/// 60024 85030 333 20034 31/// 50140 56060 85365=
85586,2007,07,14,15,00,AAXX 14154 85586 42960 21204 10101 20067 40247 51010 82030 333 56060 82365=
85586,2007,07,14,18,00,AAXX 14184 85586 32960 02512 10144 20078 40224 58021=
85586,2007,07,15,00,00,AAXX 15004 85586 31956 00000 10073 20042 40224 53007 70500 333 10153=
85586,2007,07,15,12,00,AAXX 15124 85586 32960 40000 10029 20009 40206 51/// 80001 333 20018 31/// 50130 55075 56006 84075=
85586,2007,07,15,15,00,AAXX 15154 85586 41958 21305 10113 20064 40227 53007 70511 82030 333 56060 82365=
85586,2007,07,15,18,00,AAXX 15184 85586 32960 02512 10145 20071 40215 56011=
85586,2007,07,15,21,00,AAXX 15214 85586 42960 22409 10141 20095 40207 57008 80001 333 56006 82075=
85586,2007,07,16,00,00,AAXX 16004 85586 31956 40000 10083 20066 40213 53004 70500 80001 333 10175 56006 84075=
85586,2007,07,16,12,00,AAXX 16124 85586 32560 80404 10076 20065 40192 56/// 8353/ 333 20068 31/// 50120 55094 56169 83626 88362=
85586,2007,07,16,15,00,AAXX 16154 85586 41840 80906 10094 20087 40222 51030 76062 8801/ 333 56069 88457=
85586,2007,07,16,18,00,AAXX 16184 85586 11958 81204 10118 20109 40202 57019 60031 76066 8803/ 333 56069 88360=
85586,2007,07,16,21,00,AAXX 16214 85586 42960 80404 10146 20085 40199 54002 8803/ 333 56069 88362=
85586,2007,07,17,00,00,AAXX 17004 85586 32960 80000 10104 20087 40225 52024 8803/ 333 10154 56069 88363=
85586,2007,07,17,12,00,AAXX 17124 85586 11902 31206 10068 20064 40254 52/// 60044 7464/ 80001 333 20068 32/// 50080 55015 56006 70038 83075=
85586,2007,07,17,15,00,AAXX 17154 85586 41958 20000 10101 20082 40253 54001 70511 80001 333 56007 82075=
85586,2007,07,17,18,00,AAXX 17184 85586 32960 42310 10153 20116 40235 57017 80001 333 56006 84073=
85586,2007,07,17,21,00,AAXX 17214 85586 42960 52704 10143 20117 40223 57012 83031 333 56066 83369 82073=
85586,2007,07,18,00,00,AAXX 18004 85586 31930 70000 10103 20092 40239 52014 70522 87030 333 10174 56060 87362=
85586,2007,07,18,12,00,AAXX 18124 85586 31920 70000 10078 20070 40210 57/// 7102/ 85031 333 20071 30/// 50160 55071 56066 85365 83073=
85586,2007,07,18,15,00,AAXX 18154 85586 41958 60000 10117 20105 40211 54002 70522 86030 333 56060 86365=
85586,2007,07,18,18,00,AAXX 18184 85586 31958 82404 10142 20130 40194 57016 70522 8803/ 333 56069 88365=
85586,2007,07,18,21,00,AAXX 18214 85586 41956 60000 10132 20117 40184 57010 70522 86030 333 56060 86365=
85586,2007,07,19,00,00,AAXX 19004 85586 31956 50000 10111 20095 40197 52012 70522 85030 333 10142 56060 85365=
85586,2007,07,19,12,00,AAXX 19124 85586 31000 80000 10086 20077 40215 52/// 7444/ 886// 333 20082 30/// 50170 55002 56099 88701=
85586,2007,07,19,15,00,AAXX 19154 85586 41115 72404 10100 20091 40228 52013 71044 86630 333 56660 86703 84365=
85586,2007,07,19,18,00,AAXX 19184 85586 31250 72804 10117 20108 40225 54002 70522 83630 333 56660 83704 86362=
85586,2007,07,19,21,00,AAXX 19214 85586 41330 82604 10117 20107 40224 54001 70522=
85586,2007,07,20,00,00,AAXX 20004 85586 31430 80000 10111 20102 40224 54000 70522 885// 333 10133 56699 88610=
85586,2007,07,20,12,00,AAXX 20124 85586 31256 71704 10097 20080 40211 57/// 7051/ 81601 333 20064 31/// 50140 56706 81706 86075=
85586,2007,07,20,15,00,AAXX 20154 85586 41440 71405 10124 20092 40204 56006 70511 83501 333 56706 83615 86075=
85586,2007,07,20,18,00,AAXX 20184 85586 31456 71904 10143 20090 40180 57023 70511 81501 333 56706 81615 86075=
85586,2007,07,20,21,00,AAXX 20214 85586 41958 72511 10122 20093 40170 56010 70522 80005 333 56006 87073=
85586,2007,07,21,00,00,AAXX 21004 85586 31556 72307 10098 20071 40182 53011 70522 82501 333 10148 56706 82625 85075=
85586,2007,07,21,12,00,AAXX 21124 85586 32960 20507 10064 20043 40206 52/// 82030 333 20024 31/// 50140 55074 56060 82365=
85586,2007,07,21,15,00,AAXX 21154 85586 41556 82811 10101 20056 40213 52008 76300 882// 333 56799 88825=
85586,2007,07,21,18,00,AAXX 21184 85586 11556 70111 10095 20071 40223 52010 60061 78060 87200 333 56700 87825=
85586,2007,07,21,21,00,AAXX 21214 85586 41560 12905 10111 20057 40231 52009 72586 81200 333 56700 81820=
85586,2007,07,22,00,00,AAXX 22004 85586 11556 21205 10072 20054 40258 52025 60021 82200 333 10118 56700 82825=
85586,2007,07,22,12,00,AAXX 22124 85586 12960 31206 10034 20025 40287 52/// 60114 80001 333 10034 32/// 50060 55032 56006 70106 83075=
85586,2007,07,22,15,00,AAXX 22154 85586 42960 11804 10086 20065 40286 54001 80001 333 56006 81075=
85586,2007,07,22,18,00,AAXX 22184 85586 32560 22706 10118 20059 40269 57016 82500 333 56600 82620=
85586,2007,07,23,00,00,AAXX 23004 85586 32960 50000 10064 20036 40278 52007 85030 333 10142 56060 85365=
85586,2007,07,23,12,00,AAXX 23124 85586 11958 80504 10072 20058 40240 57/// 69934 7602/ 8803/ 333 20066 32/// 50110 55093 56069 70003 88360=
85586,2007,07,23,15,00,AAXX 23154 85586 41940 80904 10083 20063 40250 52009 76166 8803/ 333 56069 88359=
85586,2007,07,23,18,00,AAXX 23184 85586 11430 80404 10085 20061 40236 57014 60066 76166 8853/ 333 56669 83610 88359=
85586,2007,07,23,21,00,AAXX 23214 85586 41540 62704 10090 20077 40235 57003 70522 86500 333 56600 86620=
85586,2007,07,24,00,00,AAXX 24004 85586 11458 20000 10082 20070 40266 52033 60051 70511 82500 333 10136 56600 82617=
85586,2007,07,24,12,00,AAXX 24124 85586 11909 31204 10040 20033 40314 52/// 60124 7461/ 83030 333 20040 33/// 55005 55000 56060 70115 83365=
85586,2007,07,24,15,00,AAXX 24154 85586 41960 01804 10088 20075 40320 52008 70144=
85586,2007,07,24,18,00,AAXX 24184 85586 32460 22208 10131 20054 40302 57017 82100 333 56600 82817=
85586,2007,07,24,21,00,AAXX 24214 85586 42970 01908 10130 20044 40301 54001=
85586,2007,07,25,00,00,AAXX 25004 85586 32970 10000 10081 20037 40314 52021 80001 333 10138 56006 81073=
85586,2007,07,25,12,00,AAXX 25124 85586 32970 00000 10028 20011 40302 57/// 333 20025 30/// 50210 55089=
85586,2007,07,25,15,00,AAXX 25154 85586 42970 01308 10100 20026 40207 54000=
85586,2007,07,25,18,00,AAXX 25184 85586 32970 01206 10142 20047 40271 57026=
85586,2007,07,25,21,00,AAXX 25214 85586 42970 01710 10153 20024 40250 57021=
85586,2007,07,26,00,00,AAXX 26004 85586 32960 00000 10090 20050 40249 54003 333 10164=
85586,2007,07,26,12,00,AAXX 26124 85586 32960 01405 10031 20014 40194 53/// 333 20025 31/// 50140 55096=
85586,2007,07,26,15,00,AAXX 26154 85586 42960 01809 10142 20042 40206 52016=
85586,2007,07,26,18,00,AAXX 26184 85586 32960 01805 10193 20050 40183 58022=
85586,2007,07,26,21,00,AAXX 26214 85586 42960 02005 10199 20025 40181 55001=
85586,2007,07,27,00,00,AAXX 27004 85586 31956 02510 10132 20045 40201 52017 70500 333 10206=
85586,2007,07,27,12,00,AAXX 27124 85586 32960 60000 10011 21002 40198 52/// 80001 333 20008 31/// 50140 55099 56006 86075=
85586,2007,07,27,15,00,AAXX 27154 85586 41956 20000 10108 20054 40198 51004 70511 80001 333 56006 82075=
85586,2007,07,27,18,00,AAXX 27184 85586 31958 02506 10125 20065 40185 58012 70511=
85586,2007,07,27,21,00,AAXX 27214 85586 42960 02704 10129 20073 40178 56007=
85586,2007,07,28,00,00,AAXX 28004 85586 31940 00904 10063 20044 40187 52007 70500 333 10131=
85586,2007,07,28,12,00,AAXX 28124 85586 31901 01204 10016 20009 40169 53/// 7464/ 333 20006 31/// 50120 55092=
85586,2007,07,28,15,00,AAXX 28154 85586 41209 80000 10070 20062 40173 52005 74644 886// 333 56099 88706=
85586,2007,07,28,18,00,AAXX 28184 85586 31204 80000 10086 20080 40160 58012 74644 886// 333 56099 88705=
85586,2007,07,28,21,00,AAXX 28214 85586 41340 83106 10102 20088 40158 56001 70544 886// 333 56799 88707=
85586,2007,07,29,12,00,AAXX 29124 85586 31320 81204 10080 20063 40189 52/// 7102/ 886// 333 20080 31/// 50090 55014 56099 88708=
85586,2007,07,29,15,00,AAXX 29154 85586 41440 80904 10092 20072 40221 52021 70522 885// 333 56099 88617=
85586,2007,07,29,18,00,AAXX 29184 85586 31440 80000 10103 20077 40225 52004 70522 885// 333 56099 88617=
85586,2007,07,29,21,00,AAXX 29214 85586 41556 80905 10107 20065 40225 54001 70522 885// 333 56099 88620=
85586,2007,07,30,00,00,AAXX 30004 85586 31440 80000 10091 20061 40248 52022 70522 885// 333 10113 56099 88617=
85586,2007,07,30,12,00,AAXX 30124 85586 31940 21804 10014 21008 40233 57/// 7051/ 80002 333 20014 31/// 50090 55000 56006 82075=
85586,2007,07,30,18,00,AAXX 30184 85586 31957 62311 10117 20053 40218 57020 70522 83031 333 56066 83362 85073=
85586,2007,07,31,00,00,AAXX 31004 85586 31950 40000 10098 20082 40213 52006 70511 80001 333 10147 56006 84073=
85586,2007,07,31,12,00,AAXX 31124 85586 31930 40000 10045 20031 40212 52/// 7051/ 83021 333 20041 30/// 50130 55021 56066 83463=
85586,2007,07,31,15,00,AAXX 31154 85586 41458 32205 10121 20085 40221 52011 70511 81101 333 56606 81817 83073=
85586,2007,07,31,21,00,AAXX 31214 85586 42460 62612 10111 20068 40214 54001 82601 333 56706 82717 85071=
85586,2007,08,01,00,00,AAXX 01004 85586 32960 02704 10082 20049 40229 52014 333 10132=
85586,2007,08,01,12,00,AAXX 01124 85586 32960 41904 10031 20000 40226 53/// 82031 333 20026 31/// 50130 55073 56066 82365 82075=
85586,2007,08,01,15,00,AAXX 01154 85586 42960 72205 10068 20038 40225 50000 87030 333 56060 87365=
85586,2007,08,01,18,00,AAXX 01184 85586 32960 71905 10092 20032 40204 57020 87030 333 56060 87365=
85586,2007,08,01,21,00,AAXX 01214 85586 42960 62504 10096 20045 40201 56003 86030 333 56060 86365=
85586,2007,08,02,00,00,AAXX 02004 85586 31956 32204 10057 20028 40202 55000 70511 83030 333 10101 56060 83065=
85586,2007,08,02,12,00,AAXX 02124 85586 31960 01203 11003 21014 40195 52/// 333 21007 31/// 50150 55002=
85586,2007,08,02,15,00,AAXX 02154 85586 42560 10306 10116 20049 40201 52010 81200 333 56700 81820=
85586,2007,08,02,18,00,AAXX 02184 85586 32560 13311 10127 20044 40201 54000 81100 333 56700 81820=
85586,2007,08,02,21,00,AAXX 02214 85586 42560 13309 10121 20036 40209 53008 81100 333 56700 81820=
85586,2007,08,03,00,00,AAXX 03004 85586 31956 00000 10076 20019 40225 52015 70500 333 10129=
85586,2007,08,03,12,00,AAXX 03124 85586 32960 11206 10024 21001 40254 52/// 80001 333 20004 31/// 50130 55096 56006 81075=
85586,2007,08,03,15,00,AAXX 03154 85586 42960 01004 10100 20033 40259 52007=
85586,2007,08,03,18,00,AAXX 03184 85586 32960 02708 10128 20046 40242 58016=
85586,2007,08,03,21,00,AAXX 03214 85586 42960 02410 10124 20055 40230 57012=
85586,2007,08,04,12,00,AAXX 04124 85586 32960 71204 10014 21009 40224 53/// 80002 333 21006 31/// 50120 55098 56006 87075=
85586,2007,08,04,15,00,AAXX 04154 85586 41958 70000 10066 20036 40227 52005 70422 87002 333 56006 87072=
85586,2007,08,04,18,00,AAXX 04184 85586 31958 82404 10106 2003640211 58014 70522 80002 333 56006 88070=
85586,2007,08,04,21,00,AAXX 04214 85586 41957 82606 10098 20050 40197 57013 70522 8803/ 333 56069 88767=
85586,2007,08,05,00,00,AAXX 05004 85586 31957 80000 10064 20038 40198 54001 70522 8803/ 333 10112 56069 88366=
85586,2007,08,05,12,00,AAXX 05124 85586 31958 70000 10024 20014 40197 52/// 70522 87030 333 20021 30/// 50110 55014 56060 87365=
85586,2007,08,05,15,00,AAXX 05154 85586 41558 70000 10086 20062 40222 52027 70522 84530 333 56660 84627 86365=
85586,2007,08,05,18,00,AAXX 05184 85586 32560 70000 10110 20049 40220 52009 83103 333 56666 83822 83365=
85586,2007,08,05,21,00,AAXX 05214 85586 42460 52804 10103 20050 40243 52012 82131 333 56766 82817 83362 82073=
85586,2007,08,06,00,00,AAXX 06004 85586 32960 60000 10056 20028 40263 52019 86030 333 10120 56060 86365=
85586,2007,08,06,12,00,AAXX 06124 85586 32960 00000 10018 20000 40312 52/// 333 20003 30/// 50190 55032=
85586,2007,08,06,15,00,AAXX 06154 85586 42960 00000 10110 20043 40316 52007=
85586,2007,08,06,18,00,AAXX 06184 85586 32560 12609 10119 20055 40296 57020 81100 333 56600 81820=
85586,2007,08,06,21,00,AAXX 06214 85586 42960 02512 10111 20082 40301 52005=
85586,2007,08,07,00,00,AAXX 07004 85586 32960 00000 10052 20032 40288 57014 333 10127=
85586,2007,08,07,12,00,AAXX 07124 85586 31958 20000 10011 21004 40229 52/// 7050/ 80001 333 20004 32/// 50120 55101 56006 82075=
85586,2007,08,07,15,00,AAXX 07154 85586 41956 00000 10106 20057 40210 58015=
85586,2007,08,07,18,00,AAXX 07184 85586 31958 42516 10126 20074 40180 57029 70500 80001 333 56006 84075=
85586,2007,08,07,21,00,AAXX 07214 85586 42960 32511 10116 20067 40170 56010 81031 333 56066 81365 83075=
85586,2007,08,08,00,00,AAXX 08004 85586 31556 72904 10096 20075 40172 55001 70511 82131 333 10128 56766 82820 85075=
85586,2007,08,08,12,00,AAXX 08124 85586 11540 82311 10081 20071 40195 52/// 60224 7626/ 882// 333 20078 32/// 50080 56799 70224 88825=
85586,2007,08,08,15,00,AAXX 08154 85586 41440 80904 10066 20056 40222 52026 76266 888// 333 56799 82815 88825=
85586,2007,08,08,18,00,AAXX 08184 85586 11540 80607 10061 20051 40220 56002 60141 76066 888// 333 56799 82820 88875=
85586,2007,08,08,21,00,AAXX 08214 85586 41458 61103 10062 20039 40226 52010 70566 86800 333 56700 82815 86825=
85586,2007,08,09,12,00,AAXX 09124 85586 12560 40000 11008 21027 40269 52/// 60144 84500 333 21016 31/// 50007 55005 56000 70144 84520=
85586,2007,08,09,15,00,AAXX 09154 85586 42460 21404 10080 20030 40278 52022 82100 333 56400 82817=
85586,2007,08,09,18,00,AAXX 09184 85586 32560 32808 10098 20012 40291 54003 83100 333 56500 83820=
85586,2007,08,09,21,00,AAXX 09214 85586 42560 12508 10094 20004 40302 52010 81100 333 56600 81820=
85586,2007,08,10,00,00,AAXX 10004 85586 32960 00000 10030 21003 40319 52014 333 10106=
85586,2007,08,10,12,00,AAXX 10124 85586 32960 01206 10016 21008 40291 57/// 333 21006 34/// 50100 55089=
85586,2007,08,10,15,00,AAXX 10154 85586 42960 01510 10080 20010 40270 57020=
85586,2007,08,10,18,00,AAXX 10184 85586 32960 01410 10142 21003 40216 57051=
85586,2007,08,11,00,00,AAXX 11004 85586 32960 31806 10080 20006 40172 57021 80001 333 10162 56006 83075=
85586,2007,08,11,12,00,AAXX 11124 85586 32960 10000 10032 20027 40123 53/// 80001 333 20018 31/// 50090 55100 56006 81073=
85586,2007,08,11,15,00,AAXX 11154 85586 42960 03105 10111 20032 40141 52021=
85586,2007,08,11,18,00,AAXX 11184 85586 32960 03104 10135 20052 40140 54001=
85586,2007,08,11,21,00,AAXX 11214 85586 42960 03107 10121 20080 40152 52012=
85586,2007,08,12,12,00,AAXX 12124 85586 32460 61704 10093 20055 40196 52/// 81530 333 20064 30/// 50210 55104 56660 81617 86365=
85586,2007,08,12,15,00,AAXX 12154 85586 42460 73109 10118 20047 40210 52015 83531 333 56776 83617 84360 82073=
85586,2007,08,12,18,00,AAXX 12184 85586 31457 81814 10107 20065 40226 52016 76162 8257/ 333 56779 82610 88356=
85586,2007,08,12,21,00,AAXX 12214 85586 42460 80405 10113 20068 40250 52024 8257/ 333 56679 82612 88357=
85586,2007,08,13,00,00,AAXX 13004 85586 32960 00000 10108 20052 40260 52010 60064 333 10122=
85586,2007,08,13,12,00,AAXX 13124 85586 12960 41204 10055 20034 40193 57/// 69994 81031 333 20052 31/// 50120 55000 56066 81365 83075=
85586,2007,08,13,15,00,AAXX 13154 85586 42960 03106 10146 20072 40179 57011=
85586,2007,08,13,18,00,AAXX 13184 85586 32960 23306 10134 20096 40161 57018 81130 333 56760 81815 81365=
85586,2007,08,13,21,00,AAXX 13214 85586 42960 73312 10121 20083 40146 57015 87030 333 56060 87365=
85586,2007,08,14,15,00,AAXX 14154 85586 41560 33611 10131 20080 40225 52026 70188 83200 333 56700 83820=
85586,2007,08,14,18,00,AAXX 14184 85586 11458 73109 10113 20086 40235 51010 69921 78088 87800 333 56700 81815 87825=
85586,2007,08,14,21,00,AAXX 14214 85586 41560 73405 10123 20059 40243 51008 70382 87200 333 56700 87825=
85586,2007,08,15,00,00,AAXX 15004 85586 11556 43504 10107 20071 40259 52016 69911 70582 84200 333 10136 56700 84825=
85586,2007,08,15,12,00,AAXX 15124 85586 11540 80000 10076 20063 40270 52/// 60044 7606/ 8553/ 333 20060 32/// 50080 55056 56069 70041 85620 87360=
85586,2007,08,15,15,00,AAXX 15154 85586 41557 63606 10110 20093 40285 52016 70162 86100 333 56800 86820=
85586,2007,08,15,18,00,AAXX 15184 85586 11540 81306 10088 20080 40291 51005 60101 76366 882// 333 56399 88820=
85586,2007,08,15,21,00,AAXX 15214 85586 41460 31506 10096 20091 40293 54002 70162 83800 333 56300 81810=
85586,2007,08,16,00,00,AAXX 16004 85586 12460 11506 10044 20032 40309 52012 60021 81100 333 10121 56400 81810=
85586,2007,08,16,18,00,AAXX 16184 85586 32460 22412 10102 20058 40284 57017 82500 333 56500 82617=
85586,2007,08,17,12,00,AAXX 17124 85586 32960 01206 10008 20000 40261 54/// 333 20004 32/// 50110 55095=
85586,2007,08,17,15,00,AAXX 17154 85586 42960 02706 10104 20077 40254 56004=
85586,2007,08,17,18,00,AAXX 17184 85586 32960 02606 10122 20068 40246 57007=
85586,2007,08,17,21,00,AAXX 17214 85586 42960 02510 10110 20062 40236 57010=
85586,2007,08,18,00,00,AAXX 18004 85586 32960 40000 10070 20046 40236 54002 80001 333 10124 56006 84075=
85586,2007,08,18,12,00,AAXX 18124 85586 32960 11408 10034 20024 40226 53/// 80001 333 20006 31/// 50120 55102 56006 81075=
85586,2007,08,18,15,00,AAXX 18154 85586 42960 00000 10116 20092 40237 52010=
85586,2007,08,18,18,00,AAXX 18184 85586 32960 02408 10146 20111 40223 56013=
85586,2007,08,19,12,00,AAXX 19124 85586 32960 01309 10061 20004 40222 58/// 333 20018 50140 55103=
85586,2007,08,19,15,00,AAXX 19154 85586 42960 02006 10156 20035 40213 56006=
85586,2007,08,19,18,00,AAXX 19184 85586 32960 22707 10182 20059 40188 57027 80001 333 56006 82075=
85586,2007,08,19,21,00,AAXX 19214 85586 42960 42505 10148 20069 40177 56012 80001 333 56006 84075=
85586,2007,08,20,00,00,AAXX 20004 85586 31956 40000 10076 20050 40182 53006 70500 80001 333 10189 56006 84075=
85586,2007,08,20,12,00,AAXX 20124 85586 32960 00000 10044 20013 40151 52/// 333 20011 31/// 50160 55105=
85586,2007,08,20,15,00,AAXX 20154 85586 41958 02705 10126 20047 40163 52015 70500=
85586,2007,08,20,18,00,AAXX 20184 85586 32960 03107 10138 20078 40176 51006=
85586,2007,08,20,21,00,AAXX 20214 85586 42460 13005 10121 20078 40184 51008 81500 333 56700 81615=
85586,2007,08,21,00,00,AAXX 21004 85586 31456 80000 10103 20074 40197 52012 70500 885// 333 10143 56799 88615=
85586,2007,08,21,12,00,AAXX 21124 85586 32560 72404 10076 20038 40221 52/// 87500 333 20064 31/// 50130 55106 56500 87625=
85586,2007,08,21,15,00,AAXX 21154 85586 41558 80000 10090 20045 51004 70522 885// 333 56099 88620=
85586,2007,08,21,18,00,AAXX 21184 85586 32560 43106 10122 20060 40199 57035 81501 333 56006 81620 84075=
85586,2007,08,22,12,00,AAXX 22124 85586 21430 80000 10070 20062 40182 56/// 7102/ 885// 333 20052 31/// 50100 55045 56099 88610=
85586,2007,08,22,15,00,AAXX 22154 85586 41456 82104 10102 20087 40184 54003 70522 885// 333 56099 88617=
85586,2007,08,22,18,00,AAXX 22184 85586 31958 82708 10124 20091 40168 57015 70522 84032 333 56066 84367 85075=
85586,2007,08,22,21,00,AAXX 22214 85586 41530 82606 10108 20082 40168 54000 70522=
85586,2007,08,23,00,00,AAXX 23004 85586 31440 82706 10102 20078 40196 52016 70522 885// 333 10127 56599 88613=
85586,2007,08,23,12,00,AAXX 23124 85586 31330 60000 10097 20083 40228 52/// 70522 84530 333 20095 31/// 50170 55004 56760 84609 86365=
85586,2007,08,23,15,00,AAXX 23154 85586 41356 72704 10109 20088 40239 52008 70522 84530 333 56660 84610 88360=
85586,2007,08,23,18,00,AAXX 23184 85586 32560 42606 10131 20079 40237 54001 84101 333 56706 84820 81073=
85586,2007,08,23,21,00,AAXX 23214 85586 42560 42507 10121 20062 40243 52005 83101 333 56606 83820 82073=
85586,2007,08,24,00,00,AAXX 24004 85586 32960 30000 10088 20040 40249 52005 83030 333 10136 56060 83360=
85586,2007,08,24,12,00,AAXX 24124 85586 32460 42406 10060 20036 40254 53/// 83530 333 20042 30/// 50220 55047 56660 83610=
85586,2007,08,24,15,00,AAXX 24154 85586 42460 32208 10108 20047 40252 54000 83130 333 56660 83815 81360=
85586,2007,08,24,18,00,AAXX 24184 85586 32560 32609 10108 20050 40242 57010 83100 333 56600 83820=
85586,2007,08,24,21,00,AAXX 24214 85586 42560 62509 10102 20028 40240 55003 85130 333 56660 85820 82360=
85586,2007,08,25,00,00,AAXX 25004 85586 32560 32308 10072 20012 40252 52011 83100 333 10120 56600 83820=
85586,2007,08,25,12,00,AAXX 25124 85586 32960 01304 10016 20010 40187 52/// 333 21002 31/// 50140 55098=
85586,2007,08,25,15,00,AAXX 25154 85586 42460 12706 10113 20036 40292 51006 81100 333 56700 81815=
85586,2007,08,25,18,00,AAXX 25184 85586 32460 12711 10122 20039 40283 56008 81100 333 56700 81815=
85586,2007,08,26,12,00,AAXX 26124 85586 32960 00000 10033 20011 40262 52/// 333 20015 31/// 50160 55105=
85586,2007,08,26,15,00,AAXX 26154 85586 42960 01507 10116 20035 40261 51002=
85586,2007,08,26,18,00,AAXX 26184 85586 32960 02511 10151 20070 40234 57026=
85586,2007,08,26,21,00,AAXX 26214 85586 42960 02410 10136 20077 40224 56010=
85586,2007,08,27,12,00,AAXX 27124 85586 32960 32408 10040 20024 40233 52/// 80001 333 20001 31/// 50130 55108 56006 83075=
85586,2007,08,27,15,00,AAXX 27154 85586 42960 52106 10108 20040 40240 52010 80002 333 56006 85075=
85586,2007,08,27,18,00,AAXX 27184 85586 32960 12614 10134 20058 40231 58009 80002 333 56006 81075=
85586,2007,08,27,21,00,AAXX 27214 85586 42960 02510 10129 20063 40227 56004=
85586,2007,08,28,00,00,AAXX 28004 85586 32960 00000 10074 20053 40237 53008 333 10157=
85586,2007,08,28,12,00,AAXX 28124 85586 32960 11504 10054 20030 40228 56/// 80001 333 20028 31/// 50120 55094 56006 81075=
85586,2007,08,28,15,00,AAXX 28154 85586 42960 11508 10138 20033 40220 56005 80001 333 56006 81075=
85586,2007,08,28,18,00,AAXX 28184 85586 32960 32612 10136 20039 40197 57023 80001 333 56006 83075=
85586,2007,08,28,21,00,AAXX 28214 85586 42960 32508 10136 20049 40194 54003 81031 333 56066 81363 83075=
85586,2007,08,29,12,00,AAXX 29124 85586 32960 00904 10008 21012 40237 52/// 333 20002 31/// 50120 55105=
85586,2007,08,29,15,00,AAXX 29154 85586 42960 02605 10109 20042 40238 52005=
85586,2007,08,29,18,00,AAXX 29184 85586 32960 02706 10128 20046 40226 57012=
85586,2007,08,29,21,00,AAXX 29214 85586 42960 02607 10123 20062 40215 57011=
85586,2007,08,30,00,00,AAXX 30004 85586 32960 00000 10071 20048 40220 52003 333 10133=
85586,2007,08,30,12,00,AAXX 30124 85586 31904 00000 10018 20010 40214 57/// 7444/ 333 20005 30/// 50190 55104=
85586,2007,08,30,15,00,AAXX 30154 85586 41957 02704 10101 20062 40220 52004 70544=
85586,2007,08,30,18,00,AAXX 30184 85586 32960 02706 10132 20071 40216 54003=
85586,2007,08,30,21,00,AAXX 30214 85586 41958 02506 10127 20073 40206 57009 70500=
85586,2007,08,31,00,00,AAXX 31004 85586 32960 00000 10091 20079 40210 54002 333 10139=
85586,2007,08,31,12,00,AAXX 31124 85586 31102 81204 10051 20040 40198 53/// 7444/ 886// 333 20044 31/// 50160 55100 56799 88703=
85586,2007,08,31,15,00,AAXX 31154 85586 41208 63303 10093 20082 40189 56007 74244 86600 333 56700 86706=
85586,2007,08,31,18,00,AAXX 31184 85586 31940 02709 10136 20072 40180 58008 70544=
85586,2007,08,31,21,00,AAXX 31214 85586 41456 12806 10127 20094 40182 51002 70544 81500 333 56700 81615=
85586,2007,09,01,00,00,AAXX 01004 85586 31440 80304 10108 20085 40196 52013 70522 885// 333 10145 56799 88615=
85586,2007,09,01,12,00,AAXX 01124 85586 31240 80903 10086 20078 40213 52/// 7102/ 886// 333 20076 31/// 50150 55082 56799 88706=
85586,2007,09,01,18,00,AAXX 01184 85586 31340 82904 10115 20081 40193 57017 70522 886// 333 56799 88709=
85586,2007,09,02,12,00,AAXX 02124 85586 31320 80000 10086 20078 40203 52/// 7102/ 886// 333 20172 31/// 50100 55007 56099 88707=
85586,2007,09,02,15,00,AAXX 02154 85586 41325 83104 10092 20085 40208 51005 71022 885// 333 56099 88608=
85586,2007,09,02,18,00,AAXX 02184 85586 31440 83106 10096 20084 40208 54000 71022 885// 333 56099 88612=
85586,2007,09,02,21,00,AAXX 02214 85586 41430 83004 10094 20086 40212 52004 71022 885// 333 56099 88610=
85586,2007,09,03,00,00,AAXX 03004 85586 31440 80000 10094 20080 40215 54003 70522 885// 333 10100 56099 88610=
85586,2007,09,03,12,00,AAXX 03124 85586 31456 80506 10088 20062 40201 56/// 7052/ 885// 333 20088 31/// 50090 55000 56099 88615=
85586,2007,09,03,15,00,AAXX 03154 85586 41557 83406 10108 20066 40205 52005 70522 885// 333 56099 88620=
85586,2007,09,03,18,00,AAXX 03184 85586 31558 83606 10123 20060 40200 58005 70522 885// 333 56099 88623=
85586,2007,09,03,21,00,AAXX 03214 85586 41558 83206 10122 20067 40204 53004 70522 8453/ 333 56669 84626 85365=
85586,2007,09,04,12,00,AAXX 04124 85586 11558 71204 10094 20085 40238 52/// 60014 7052/ 82501 333 20086 32/// 50080 55001 56306 70008 82623 86075=
85586,2007,09,04,15,00,AAXX 04154 85586 41558 51805 10142 20102 40262 52016 70511 83101 333 56606 83820 84075=
85586,2007,09,04,18,00,AAXX 04184 85586 32560 52512 10142 20104 40230 57022 83101 333 56606 83823 84075=
85586,2007,09,04,21,00,AAXX 04214 85586 42560 42613 10144 20098 40225 57004 82101 333 56706 82820 83075=
85586,2007,09,05,00,00,AAXX 05004 85586 32960 00000 10101 20084 40231 54003 333 10153=
85586,2007,09,05,12,00,AAXX 05124 85586 31958 00000 10073 20063 40230 57/// 7050/ 333 20039 3//// 5//// 55088=
85586,2007,09,05,15,00,AAXX 05154 85586 42960 02305 10162 20093 40216 57009=
85586,2007,09,05,18,00,AAXX 05184 85586 32960 02513 10153 20083 40197 57019=
85586,2007,09,05,21,00,AAXX 05214 85586 42960 02706 10153 20091 40192 57005=
85586,2007,09,06,00,00,AAXX 06004 85586 32960 00000 10096 20078 40205 52009 333 10182=
85586,2007,09,06,12,00,AAXX 06124 85586 32960 01204 10064 20053 40197 52///=
85586,2007,09,06,15,00,AAXX 06154 85586 41958 02805 10156 20092 40190 56004 70500=
85586,2007,09,06,18,00,AAXX 06184 85586 32960 32714 10145 20099 40181 57009 80001 333 56007 83075=
85586,2007,09,06,21,00,AAXX 06214 85586 42960 13105 10141 20094 40186 53005 80001 333 56006 81075=
85586,2007,09,07,00,00,AAXX 07004 85586 31320 80509 10098 20088 40205 52017 71000 886// 333 10163 56799 88709=
85586,2007,09,07,12,00,AAXX 07124 85586 31102 80000 10083 20076 40177 56/// 7444/ 886// 333 20080 31/// 56799 88703=
85586,2007,09,07,15,00,AAXX 07154 85586 41204 82804 10095 20087 40173 58004 75044 886// 333 56799 88704=
85586,2007,09,07,18,00,AAXX 07184 85586 11215 82403 10112 20098 40163 57009 69901 71044 886// 333 56799 88706=
85586,2007,09,07,21,00,AAXX 07214 85586 41340 82405 10111 20090 40161 56002 70554 886// 333 56799 88708=
85586,2007,09,08,00,00,AAXX 08004 85586 11340 83003 10102 20093 40168 53007 75052 886// 333 10113 56799 88709=
85586,2007,09,08,12,00,AAXX 08124 85586 11450 70000 10090 20080 40170 52/// 69914 7052/ 87500 333 20076 31/// 50070 55000 56000 70001 87617=
85586,2007,09,08,15,00,AAXX 08154 85586 41458 83104 10110 20057 40178 51009 70522 885// 333 56799 83615 88620=
85586,2007,09,08,18,00,AAXX 08184 85586 32460 83110 10122 20078 40185 52007 885// 333 56799 81810 88620=
85586,2007,09,08,21,00,AAXX 08214 85586 42560 83108 10118 20072 40195 52009 8453/ 333 56769 84623 84365=
85586,2007,09,09,00,00,AAXX 09004 85586 32560 80000 10114 20071 40203 51008 8353/ 333 10131 56769 83620 85365=
85586,2007,09,09,12,00,AAXX 09124 85586 32460 70000 10090 20077 40189 56/// 81530 333 20090 31/// 50090 56006 56060 81615 87365=
85586,2007,09,09,15,00,AAXX 09154 85586 41458 82710 10130 20069 40198 52011 70522 8383/ 333 56669 81810 83626 87362=
85586,2007,09,09,18,00,AAXX 09184 85586 31458 83108 10132 20087 40198 54000 70522 8383/ 333 56769 81810 83623 87362=
85586,2007,09,09,21,00,AAXX 09214 85586 42560 83108 10128 20104 40208 52010=
85586,2007,09,10,00,00,AAXX 10004 85586 32960 10000 10086 20070 40221 52012 81030 333 10138 56060 81365=
85586,2007,09,10,12,00,AAXX 10124 85586 31958 51206 10062 20054 40205 56/// 7052/ 80002 333 20034 31/// 50100 55018 56006 85070=
85586,2007,09,10,15,00,AAXX 10154 85586 41458 82406 10128 20097 40202 54001 70522 81502 333 56506 81615 87070=
85586,2007,09,10,18,00,AAXX 10184 85586 32560 62705 10146 20083 40195 57006 82550 333 56560 82620 86365=
85586,2007,09,10,21,00,AAXX 10214 85586 42560 62209 10137 20089 40189 57006 82550 333 56660 82620 86363=
85586,2007,09,11,00,00,AAXX 11004 85586 32960 10000 10098 20085 40194 52003 81050 333 10150 56060 81363=
85586,2007,09,11,12,00,AAXX 11124 85586 31956 10000 10031 20019 40183 52/// 7050/ 80001 333 20019 31/// 50170 55053 56006 81075=
85586,2007,09,11,15,00,AAXX 11154 85586 41956 02705 10125 20079 40196 52015 70500=
85586,2007,09,11,18,00,AAXX 11184 85586 31958 02612 10141 20092 40185 58010=
85586,2007,09,11,21,00,AAXX 11214 85586 42960 02509 10131 20088 40182 56003=
85586,2007,09,12,00,00,AAXX 12004 85586 31956 00000 10086 20073 40186 53003 70500 333 10147=
85586,2007,09,12,12,00,AAXX 12124 85586 31440 80000 10084 20072 40192 52/// 7052/ 885// 333 20039 31/// 56799 88610=
85586,2007,09,12,15,00,AAXX 12154 85586 41556 73105 10123 20076 40198 51007 70522 87500 333 56700 87615=
85586,2007,09,12,18,00,AAXX 12184 85586 31456 62607 10128 20073 40193 58005 70522 84530 333 56760 84615=
85586,2007,09,12,21,00,AAXX 12214 85586 41556 62808 10134 20075 40179 57013 70522 83501 333 56706 83620=
85586,2007,09,13,00,00,AAXX 13004 85586 31540 82604 10108 20081 40178 55001 70522 885// 333 10136 56799 88525=
85586,2007,09,13,12,00,AAXX 13124 85586 11220 82906 10091 20081 40193 52/// 60014 7535/ 886// 333 20093 32/// 50130 55069 56799 70013 88604=
85586,2007,09,13,15,00,AAXX 13154 85586 41456 80504 10115 20077 40216 52024 70555 888// 333 56799 81815 88625=
85586,2007,09,13,18,00,AAXX 13184 85586 11458 73005 10133 20087 40221 52015 69931 70555 87800 333 56700 81815 87625=
85586,2007,09,13,21,00,AAXX 13214 85586 42460 83104 10123 20088 40221 54000 888// 333 56799 81815 88625=
85586,2007,09,14,00,00,AAXX 14004 85586 31956 40000 10094 20070 40219 58003 70522 84030 333 10141 56060 84062=
85586,2007,09,14,12,00,AAXX 14124 85586 31907 00000 10045 20039 40190 54/// 7420/ 333 20023 30/// 50180 55039=
85586,2007,09,14,15,00,AAXX 14154 85586 41557 22804 10115 20067 40203 57013 70511 82100 333 56600 82820=
85586,2007,09,14,18,00,AAXX 14184 85586 32560 22705 10128 20075 40218 52015 82100 333 56700 82820=
85586,2007,09,14,21,00,AAXX 14214 85586 32460 32605 10121 20073 40217 54001 83500 333 56600 83619=
85586,2007,09,15,00,00,AAXX 15004 85586 32560 30000 10100 20073 40224 52007 83500 333 10132 56600 83623=
85586,2007,09,15,12,00,AAXX 15124 85586 32460 70000 10095 20087 40211 53/// 87500 333 20095 30/// 50180 55103 56600 87615=
85586,2007,09,15,15,00,AAXX 15154 85586 42660 60000 10132 20074 40214 52004 86500 333 56600 86630=
85586,2007,09,15,18,00,AAXX 15184 85586 32560 52508 10130 20069 40212 54002 82531 333 56666 82620 82365 84070=
85586,2007,09,15,21,00,AAXX 15214 85586 42460 62604 10121 20073 40219 52007 82530 333 56760 82617 86367=
85586,2007,09,16,00,00,AAXX 16004 85586 32560 50000 10106 20069 40222 52003 82501 333 10138 56606 82620 85070=
85586,2007,09,16,12,00,AAXX 16124 85586 32960 20000 10058 20054 40208 53/// 80001 333 20040 30/// 50210 55048 56006 82073=
85586,2007,09,16,15,00,AAXX 16154 85586 42560 30000 10143 20046 40202 54003 81101 333 56707 81820 83070=
85586,2007,09,16,18,00,AAXX 16184 85586 32560 42418 10140 20074 40191 57011 82101 333 56606 82820=
85586,2007,09,16,21,00,AAXX 16214 85586 42960 22215 10128 20074 40189 57002 80001 333 56007 82070=
85586,2007,09,17,00,00,AAXX 17004 85586 32960 10000 10096 20074 40196 52005 80001 333 10151 56007 81070=
85586,2007,09,17,12,00,AAXX 17124 85586 32560 60000 10064 20060 40207 52/// 81131 333 20037 30/// 50200 55109 56666 81820 84365=
85586,2007,09,17,15,00,AAXX 17154 85586 42560 30000 10128 20066 40241 52036 83100 333 56700 83820=
85586,2007,09,17,18,00,AAXX 17184 85586 32560 22705 10138 20073 40239 54001 82100 333 56700 82825=
85586,2007,09,17,21,00,AAXX 17214 85586 42560 32506 10137 20054 40234 57005 81501 333 56706 81620 83070=
85586,2007,09,18,00,00,AAXX 18004 85586 32960 00000 10098 20092 40250 52014 333 10144=
85586,2007,09,18,12,00,AAXX 18124 85586 32960 01104 10074 20052 40244 57/// 333 20031 30/// 50170 55094=
85586,2007,09,18,15,00,AAXX 18154 85586 42960 02505 10161 20082 40227 57014=
85586,2007,09,18,18,00,AAXX 18184 85586 32960 02516 10151 20076 40205 57022=
85586,2007,09,18,21,00,AAXX 18214 85586 42960 32614 10134 20073 40185 57020 82031 333 56066 82367=
85586,2007,09,19,00,00,AAXX 19004 85586 31956 62704 10108 20075 40192 53006 70511 86030 333 10163 56060 86365=
85586,2007,09,19,12,00,AAXX 19124 85586 32960 01005 10087 20072 40210 52/// 333 20044 30/// 50210 55099=
85586,2007,09,19,15,00,AAXX 19154 85586 42960 33207 10149 20054 40217 52009 81130 333 56760 81815 83365=
85586,2007,09,19,18,00,AAXX 19184 85586 32960 63110 10148 20077 40217 50000 81830 333 56760 81815 86365=
85586,2007,09,19,21,00,AAXX 19214 85586 42960 13206 10143 20085 40227 53010 81100 333 56700 81815=
85586,2007,09,20,00,00,AAXX 20004 85586 31556 20000 10114 20089 40238 52010 70511 82500 333 10157 56700 82625=
85586,2007,09,20,12,00,AAXX 20124 85586 31903 40000 10067 20063 40218 54/// 7444/ 80001 333 20050 30/// 50240 55096 56006 84073=
85586,2007,09,20,15,00,AAXX 20154 85586 42460 62508 10128 20095 40219 52003 83101 333 56606 83817 83073=
85586,2007,09,20,18,00,AAXX 20184 85586 32560 52710 10135 20092 40222 52003 82101 333 56606 82820 83073=
85586,2007,09,20,21,00,AAXX 20214 85586 42560 22510 10143 20084 40219 54002 81101 333 56606 81823=
85586,2007,09,21,00,00,AAXX 21004 85586 32960 02405 10105 20084 40234 52013 333 10145=
85586,2007,09,21,12,00,AAXX 21124 85586 32960 00000 10065 20061 40242 53/// 333 20021 30/// 50200 55096=
85586,2007,09,21,15,00,AAXX 21154 85586 42560 12010 10149 20095 40235 58004 81100 333 56600 81825=
85586,2007,09,21,18,00,AAXX 21184 85586 32560 12518 10152 20094 40222 57013 81100 333 56000 81825=
85586,2007,09,21,21,00,AAXX 21214 85586 42960 52418 10136 20087 40218 57004 82031 333 56066 82365 83073=
85586,2007,09,22,00,00,AAXX 22004 85586 32960 50000 10108 20084 40219 54000 82031 333 10174 56066 82365 83073=
85586,2007,09,22,12,00,AAXX 22124 85586 32960 31905 10064 20039 40231 52/// 82031 333 20056 30/// 50210 55091 56066 82365=
85586,2007,09,22,15,00,AAXX 22154 85586 42960 21709 10151 20014 40233 52003 80001 333 56006 82073=
85586,2007,09,22,18,00,AAXX 22184 85586 32960 02607 10140 20058 40232 54001=
85586,2007,09,22,21,00,AAXX 22214 85586 42960 02614 10134 20075 40229 57004=
85586,2007,09,23,00,00,AAXX 23004 85586 32960 00000 10098 20073 40239 52009 333 10173=
85586,2007,09,23,12,00,AAXX 23124 85586 31958 00000 10053 20025 40265 52/// 333 20023 30/// 50230 55101=
85586,2007,09,23,15,00,AAXX 23154 85586 42960 03104 10115 20035 40274 52011=
85586,2007,09,23,18,00,AAXX 23184 85586 32960 02607 10130 20037 40263 57011=
85586,2007,09,23,21,00,AAXX 23214 85586 42960 02211 10121 20055 40258 57005=
85586,2007,09,24,00,00,AAXX 24004 85586 32960 00000 10077 20059 40260 54001 333 10142=
85586,2007,09,24,12,00,AAXX 24124 85586 32960 60000 10073 20053 40189 57/// 80001 333 20017 30/// 50210 55110 56006 86075=
85586,2007,09,24,15,00,AAXX 24154 85586 42960 52510 10183 20067 40174 57013 80001 333 56006 85075=
85586,2007,09,24,18,00,AAXX 24184 85586 32960 62514 10145 20083 40158 57016 80001 333 56006 86075=
85586,2007,09,24,21,00,AAXX 24214 85586 42960 72706 10144 20082 40152 56006 80001 333 56006 87075=
85586,2007,09,25,00,00,AAXX 25004 85586 31940 70305 10105 20082 40161 53009 70511 80001 333 10185 56006 87075=
85586,2007,09,25,12,00,AAXX 25124 85586 31540 83603 10113 20072 40217 52/// 7052/ 885// 333 30/// 20103 50220 55083 56799 88625=
85586,2007,09,25,15,00,AAXX 25154 85586 41540 83405 10131 20076 40230 52013 70522 885// 333 56799 88625=
85586,2007,09,25,18,00,AAXX 25184 85586 31556 83106 10138 20063 40229 50000 70522 885// 333 56799 88630=
85586,2007,09,25,21,00,AAXX 25214 85586 41556 83206 10131 20063 40224 56006 70522 885// 333 56799 88630=
85586,2007,09,26,00,00,AAXX 26004 85586 31540 80000 10114 20069 40224 55000 70522 885// 333 10141 56799 88620=
85586,2007,09,26,12,00,AAXX 26124 85586 32560 80000 10103 20090 40233 52/// 885// 333 20097 30/// 50120 55000 56099 88620=
85586,2007,09,26,15,00,AAXX 26154 85586 41556 32604 10138 20082 40241 52010 70522 83100 333 56600 83820=
85586,2007,09,26,18,00,AAXX 26184 85586 31556 12706 10148 20081 40239 54002 70511 81100 333 81820=
85586,2007,09,26,21,00,AAXX 26214 85586 41558 52406 10138 20082 40241 54002 70511 85500 333 56600 82625 85640=
85586,2007,09,27,00,00,AAXX 27004 85586 31958 30000 10098 20081 40247 52004 70511 80001 333 10155 56006 83073=
85586,2007,09,27,12,00,AAXX 27124 85586 31958 51206 10050 20042 40217 56/// 7052/ 80002 333 20030 30/// 50150 55085 56006 85073=
85586,2007,09,27,15,00,AAXX 27154 85586 41957 52808 10136 20075 40215 54001 70522 80002 333 56006 85073=
85586,2007,09,27,18,00,AAXX 27184 85586 31956 52412 10142 20087 40206 57009 70522 80001 333 56006 85073=
85586,2007,09,27,21,00,AAXX 27214 85586 41957 12804 10139 20093 40192 57014 70511 80001 333 56006 81073=
85586,2007,09,28,00,00,AAXX 28004 85586 31857 70404 10104 20086 40198 53004 70511 80002 333 10150 56006 81073=
85586,2007,09,28,12,00,AAXX 28124 85586 31201 40904 10064 20057 40173 56///7464/ 84600 333 20028 30/// 50160 55103 56200 84704=
85586,2007,09,28,15,00,AAXX 28154 85586 41225 43204 10118 20099 40177 52006 70511 84600 333 56700 84705=
85586,2007,09,28,18,00,AAXX 28184 85586 31250 13105 10137 20106 40174 58003 70500 81600 333 56700 81705=
85586,2007,09,28,21,00,AAXX 28214 85586 41350 32504 10134 20105 40172 54002 70500 83600 333 56700 83707=
85586,2007,09,29,00,00,AAXX 29004 85586 31257 60000 10114 20103 40179 52007 71022 86600 333 10144 56700 86706=
85586,2007,09,29,12,00,AAXX 29124 85586 31230 80000 10092 20084 40166 54/// 7102/ 886// 333 20090 30/// 50190 55097 56799 88706=
85586,2007,09,29,15,00,AAXX 29154 85586 41350 80000 10105 20086 40177 52011 70522 886// 333 56799 88707=
85586,2007,09,29,18,00,AAXX 29184 85586 31457 80000 10113 20089 40175 54001 70522 886// 333 56799 88711=
85586,2007,09,29,21,00,AAXX 29214 85586 41458 80000 10107 20084 40167 57008 70522 886// 333 56799 88710=
85586,2007,09,30,00,00,AAXX 30004 85586 31357 80000 10098 20082 40177 53009 70522 886// 333 10115 56799 88708=
85586,2007,09,30,12,00,AAXX 30124 85586 11220 82703 10090 20081 40172 52/// 69904 7502/ 886// 333 20089 31/// 50210 55000 56799 70000 88704=
85586,2007,09,30,15,00,AAXX 30154 85586 41220 83404 10102 20091 40193 52020 75052 886// 333 56799 88706=
85586,2007,09,30,18,00,AAXX 30184 85586 11240 83106 10121 20091 40195 51003 69941 70555 885// 333 56799 88610=
85586,2007,09,30,21,00,AAXX 30214 85586 41556 82504 10121 20069 40201 53006 70555 885// 333 56799 88620=
85586,2007,10,01,00,00,AAXX 01004 85586 31556 82311 10112 20067 40206 53005 70522 885// 333 10123 56799 88625=
85586,2007,10,01,12,00,AAXX 01124 85586 12960 31104 10105 20072 40260 52/// 69944 83030 333 20083 30/// 50220 55000 56060 70004 83365=
85586,2007,10,01,15,00,AAXX 01154 85586 42560 33305 10141 20066 40246 57013 83100 333 56700 83820=
85586,2007,10,01,18,00,AAXX 01184 85586 32960 02418 10149 20071 40228 57018=
85586,2007,10,01,21,00,AAXX 01214 85586 42960 02514 10147 20062 40215 57013=
85586,2007,10,02,00,00,AAXX 02004 85586 31956 01804 10094 20069 40209 56008 333 10156=
85586,2007,10,02,12,00,AAXX 02124 85586 31958 00000 10078 20070 40175 56/// 7050/ 333 20020 30/// 50160 55107=
85586,2007,10,02,15,00,AAXX 02154 85586 41958 03104 10138 20082 40182 53014 70500=
85586,2007,10,02,18,00,AAXX 02184 85586 32560 12608 10140 20094 40188 54001 81500 333 56600 81620=
85586,2007,10,02,21,00,AAXX 02214 85586 42560 12604 10134 20091 40190 52012 81500 333 56600 81620=
85586,2007,10,03,00,00,AAXX 03004 85586 32460 13104 10106 20093 40200 52009 81500 333 10150 5660081613=
85586,2007,10,03,12,00,AAXX 03124 85586 31958 51204 10096 20080 40218 52/// 7052/ 80002 333 20052 30/// 50140 55110 56006 85073=
85586,2007,10,03,15,00,AAXX 03154 85586 42460 12804 10137 20088 40228 52012 81500 333 56600 81615=
85586,2007,10,03,18,00,AAXX 03184 85586 32960 53104 10148 20091 40221 58007 80001 333 56006 85075=
85586,2007,10,03,21,00,AAXX 03214 85586 42460 72805 10142 20100 40204 57017 83502 333 56606 83615 85075=
85586,2007,10,04,00,00,AAXX 04004 85586 31320 80000 10108 20097 40200 58004 71022 886// 333 10154 56099 88707=
85586,2007,10,04,15,00,AAXX 04154 85586 41/06 90000 10110 20106 40198 52020 74544 89/// 333 89/01=
85586,2007,10,04,18,00,AAXX 04184 85586 31240 82504 10119 20106 40205 52007 70542 886// 333 56799 88705=
85586,2007,10,04,21,00,AAXX 04214 85586 41458 70000 10120 20098 40198 58007 70522 83606 333 56706 83710 84270=
85586,2007,10,05,00,00,AAXX 05004 85586 32460 80000 10116 20105 40210 52012 886// 333 10126 56699 88710=
85586,2007,10,05,12,00,AAXX 05124 85586 32960 80000 10085 20077 40216 52/// 8807/ 333 20080 30/// 50160 55000 56069 88365=
85586,2007,10,05,15,00,AAXX 05154 85586 42560 62705 10140 20104 40221 52007 82131 333 56666 82820 83365=
85586,2007,10,05,18,00,AAXX 05184 85586 32560 42410 10159 20100 40214 58007 82131 333 56666 82823=
85586,2007,10,05,21,00,AAXX 05214 85586 42560 12412 10157 20103 40212 54002 81100 333 56600 81823=
85586,2007,10,06,00,00,AAXX 06004 85586 32960 00000 10121 20103 40223 52010 333 10172=
85586,2007,10,06,12,00,AAXX 06124 85586 31958 01004 10106 20077 40221 51/// 7050/ 333 20033 30/// 50230 55077=
85586,2007,10,06,15,00,AAXX 06154 85586 42960 02611 10156 20085 40210 58009=
85586,2007,10,06,18,00,AAXX 06184 85586 32960 02420 10154 20086 40186 57024=
85586,2007,10,06,21,00,AAXX 06214 85586 42960 02412 10156 20084 40167 57018=
85586,2007,10,07,00,00,AAXX 07004 85586 31956 00000 10103 20066 40163 58006 70500 333 10176=
85586,2007,10,07,12,00,AAXX 07124 85586 32960 00000 10098 20072 40133 50/// 333 20028 30/// 50240 55117=
85586,2007,10,07,15,00,AAXX 07154 85586 42960 72610 10158 20072 40122 56009 80001 333 56006 87075=
85586,2007,10,07,18,00,AAXX 07184 85586 32960 72608 10160 20075 40121 54001 80001 333 56006 87075=
85586,2007,10,07,21,00,AAXX 07214 85586 42960 73204 10137 20071 40134 53012 80001 333 56006 87075=
85586,2007,10,08,00,00,AAXX 08004 85586 31956 70000 10112 20082 40145 52012 70511 80001 333 10163 56006 87075=
85586,2007,10,08,12,00,AAXX 08124 85586 32560 83104 10104 20081 40178 52/// 885// 333 20056 30/// 50160 55125 56099 88620=
85586,2007,10,08,15,00,AAXX 08154 85586 41457 83106 10128 20078 40194 52016 70522 885// 333 56699 83613 88626=
85586,2007,10,08,18,00,AAXX 08184 85586 32460 63108 10144 20084 40200 51007 86500 333 56600 82615 86633=
85586,2007,10,08,21,00,AAXX 08214 85586 42660 73006 10136 20086 40188 57012 87600 333 56600 87640=
85586,2007,10,09,12,00,AAXX 09124 85586 32560 10904 10110 20075 40225 52/// 81500 333 20050 30/// 50120 55044 56100 81620=
85586,2007,10,09,15,00,AAXX 09154 85586 42560 22806 10148 20077 40225 54001 81500 333 56600 81620=
85586,2007,10,09,18,00,AAXX 09184 85586 32560 13006 10152 20068 40218 57007 81500 333 56600 81620=
85586,2007,10,09,21,00,AAXX 09214 85586 42960 12608 10142 20078 40208 57010 80002 333 56006 81075=
85586,2007,10,10,12,00,AAXX 10124 85586 32960 01004 10090 20077 40192 53/// 333 20030 30/// 50170 55106=
85586,2007,10,10,15,00,AAXX 10154 85586 42960 02804 10142 20063 40196 52008=
85586,2007,10,10,18,00,AAXX 10184 85586 32560 22808 10153 20091 40196 54002 82100 333 56600 82820=
85586,2007,10,10,21,00,AAXX 10214 85586 42460 42807 10143 20101 40194 54002 84501 333 56606 84617 81070=
85586,2007,10,11,00,00,AAXX 11004 85586 32460 60000 10123 20108 40202 52004 86500 333 10162 56600 86615=
85586,2007,10,11,12,00,AAXX 11124 85586 32460 40000 10112 20088 40209 52/// 82530 333 20065 30/// 50250 55115 56060 82610 83365=
85586,2007,10,11,15,00,AAXX 11154 85586 42560 32605 10154 20095 40213 52005 83100 333 56600 83820=
85586,2007,10,11,18,00,AAXX 11184 85586 32560 32211 10158 20129 40204 57008 333 56600 83820=
85586,2007,10,11,21,00,AAXX 11214 85586 42560 32609 10147 20095 40198 57007 83100 333 56700 83820=
85586,2007,10,12,00,00,AAXX 12004 85586 32560 10000 10120 20090 40216 52017 81100 333 10163 56600 81820=
85586,2007,10,12,12,00,AAXX 12124 85586 31956 01306 10111 20078 40212 58/// 7050/ 333 20066 30/// 50240 55113=
85586,2007,10,12,15,00,AAXX 12154 85586 42460 12515 10143 20085 40199 57012 81100 333 56700 81815=
85586,2007,10,12,18,00,AAXX 12184 85586 32960 12412 10169 20099 40175 57023 80001 333 56001 81075=
85586,2007,10,12,21,00,AAXX 12214 85586 42960 62416 10148 20116 40174 56002 80001 333 56006 86075=
85586,2007,10,13,00,00,AAXX 13004 85586 32960 22507 10109 20089 40191 53005 80001 333 10172 56006 82075=
85586,2007,10,13,12,00,AAXX 13124 85586 31540 82405 10109 20066 40223 52/// 7052/ 885// 333 20054 30/// 50260 55113 56799 88620=
85586,2007,10,13,15,00,AAXX 13154 85586 42560 72511 10128 20046 40231 51007 87500 333 56700 87625=
85586,2007,10,13,18,00,AAXX 13184 85586 32960 02612 10141 20061 40232 51002=
85586,2007,10,13,21,00,AAXX 13214 85586 42960 02510 10144 20050 40223 58009=
85586,2007,10,14,00,00,AAXX 14004 85586 31958 02405 10102 20065 40232 53007 70500 333 10152=
85586,2007,10,14,12,00,AAXX 14124 85586 32960 11206 10096 20074 40203 56/// 80002 333 20030 30/// 50170 55065 56006 81075=
85586,2007,10,14,15,00,AAXX 14154 85586 42460 32606 10136 20085 40201 54000 83501 333 56606 83617=
85586,2007,10,14,18,00,AAXX 14184 85586 32460 32510 10148 20086 40198 54003 82101 333 56606 82817=
85586,2007,10,14,21,00,AAXX 14214 85586 42460 22708 10136 20092 40204 52006 81101 333 56606 81817=
85586,2007,10,15,00,00,AAXX 15004 85586 32960 13106 10104 20091 40211 51005 80001 333 10151 56006 81075=
85586,2007,10,15,12,00,AAXX 15124 85586 32560 10000 10092 20082 40241 52/// 81500 333 20034 30/// 50190 55113 56000 81620=
85586,2007,10,15,15,00,AAXX 15154 85586 42560 23106 10148 20086 40248 51010 82500 333 56600 82620=
85586,2007,10,15,18,00,AAXX 15184 85586 32560 12516 10146 20085 40247 54002 81500 333 56600 81626=
85586,2007,10,15,21,00,AAXX 15214 85586 42560 22612 10142 20091 40242 56005 81501 333 56606 81626 81075=
85586,2007,10,16,00,00,AAXX 16004 85586 32960 30904 10108 20086 40249 53006 80001 333 10154 56006 83075=
85586,2007,10,16,12,00,AAXX 16124 85586 32960 20000 10101 20075 40220 57/// 80001 333 20038 30/// 50210 55117 56006 82075=
85586,2007,10,16,15,00,AAXX 16154 85586 42960 12705 10171 20063 40212 57005 80001 333 56006 81075=
85586,2007,10,16,18,00,AAXX 16184 85586 32960 22606 10185 20093 40186 57026 80001 333 56007 82075=
85586,2007,10,16,21,00,AAXX 16214 85586 42960 02508 10183 20097 40169 57017=
85586,2007,10,17,00,00,AAXX 17004 85586 32960 00000 10123 20088 40175 52005 333 10198=
85586,2007,10,17,12,00,AAXX 17124 85586 31956 50000 10111 20083 40188 52/// 7052/ 80008 333 20051 30/// 50180 55119 56006 85270=
85586,2007,10,17,15,00,AAXX 17154 85586 41356 62509 10173 20128 40192 52005 70522 82601 333 56706 82709 85070=
85586,2007,10,17,18,00,AAXX 17184 85586 31957 42509 10154 20113 40190 57003 70511 80001 333 56006 84070=
85586,2007,10,17,21,00,AAXX 17214 85586 41958 52409 10161 20113 40186 57003 70522 80001 333 56007 85070=
85586,2007,10,18,00,00,AAXX 18004 85586 31956 30000 10114 20103 40195 52007 70511 80001 333 10181 56006 83070=
85586,2007,10,18,12,00,AAXX 18124 85586 31104 40604 10101 20092 40181 52/// 7444/ 84600 333 20053 30/// 50260 55113 56700 84704=
85586,2007,10,18,15,00,AAXX 18154 85586 41958 72907 10172 20103 40176 58003 70544 80001 333 56006 86075=
85586,2007,10,18,18,00,AAXX 18184 85586 31960 62512 10163 20106 40171 56005 70244 80001 333 56006 86075=
85586,2007,10,18,21,00,AAXX 18214 85586 42960 43006 10161 20096 40161 56010 80001 333 56006 84075=
85586,2007,10,19,00,00,AAXX 19004 85586 31956 80205 10122 20088 40177 52015 70511 82031 333 10199 56066 82365 86075=
85586,2007,10,19,12,00,AAXX 19124 85586 32960 60904 10104 20087 40192 52/// 86030 333 20067 30/// 50280 55093 56060 86365=
85586,2007,10,19,15,00,AAXX 19154 85586 42960 52707 10157 20086 40190 55000 82031 333 56066 82365 85075=
85586,2007,10,19,18,00,AAXX 19184 85586 32260 72615 10154 20115 40192 53002 82630 333 56760 82706 85365=
85586,2007,10,19,21,00,AAXX 19214 85586 42260 72709 10138 20111 40194 53002 82630 333 56760 82706 86365=
85586,2007,10,20,00,00,AAXX 20004 85586 31958 52504 10121 20105 40213 52018 70511 80001 333 10165 56006 85075=
85586,2007,10,20,12,00,AAXX 20124 85586 31920 20000 10124 20106 40214 52/// 7404/ 80001 333 20101 30/// 50280 55084 56006 85075=
85586,2007,10,20,15,00,AAXX 20154 85586 41960 52516 10171 20105 40201 56011 70244 80001 333 56006 85075=
85586,2007,10,20,18,00,AAXX 20184 85586 32960 02511 10179 20103 40187 57014=
85586,2007,10,20,21,00,AAXX 20214 85586 42960 02616 10179 20092 40171 56016=
85586,2007,10,21,00,00,AAXX 21004 85586 31958 10000 10124 20081 40182 53012 70500 80001 333 10187 56006 81075=
85586,2007,10,21,12,00,AAXX 21124 85586 32960 71604 10128 20093 40154 56/// 80002 333 20050 30/// 50220 55109 56006 87075=
85586,2007,10,21,15,00,AAXX 21154 85586 42960 72508 10164 20098 40151 54002 80002 333 56006 87075=
85586,2007,10,21,18,00,AAXX 21184 85586 32960 72410 10164 20098 40145 57006 80002 333 56006 87075=
85586,2007,10,21,21,00,AAXX 21214 85586 42960 72506 10156 20098 40146 56001 80002 333 56006 87075=
85586,2007,10,22,00,00,AAXX 22004 85586 32960 70406 10120 20100 40161 52014 80002 333 10175 56006 87075=
85586,2007,10,22,12,00,AAXX 22124 85586 31340 60000 10103 20092 40194 52/// 7052/ 86600 333 20100 30/// 50220 55102 56600 86708=
85586,2007,10,22,15,00,AAXX 22154 85586 41350 62805 10134 20106 40205 52012 70522 86500 333 56600 86708=
85586,2007,10,22,18,00,AAXX 22184 85586 31440 32805 10143 20095 40195 57009 70511 83500 333 56600 83710=
85586,2007,10,22,21,00,AAXX 22214 85586 41440 60000 10133 20106 40180 57014 70522 86500 333 56600 86710=
85586,2007,10,23,00,00,AAXX 23004 85586 31356 60000 10120 20110 40186 52005 70522 86600 333 10150 56600 86708=
85586,2007,10,23,12,00,AAXX 23124 85586 31104 80000 10101 20091 40167 53/// 7444/ 886// 333 20098 30/// 50130 55060 56099 88702=
85586,2007,10,23,15,00,AAXX 23154 85586 41240 23105 10138 20106 40169 54003 74041 82600 333 56600 82706=
85586,2007,10,23,18,00,AAXX 23184 85586 31356 52807 10143 20109 40165 57004 70522 85600 333 56600 85707=
85586,2007,10,23,21,00,AAXX 23214 85586 41240 73104 10134 20114 40163 54002 70522 87600 333 56600 87705=
85586,2007,10,24,00,00,AAXX 24004 85586 31250 80000 10128 20115 40169 52006 70522 886// 333 10153 56600 88706=
85586,2007,10,24,12,00,AAXX 24124 85586 31556 83503 10136 20113 40195 52/// 7052/ 885// 333 20125 30/// 50240 56799 88620=
85586,2007,10,24,15,00,AAXX 24154 85586 41456 83205 10137 20108 40218 52023 70522 888// 333 81815 88620=
85586,2007,10,24,18,00,AAXX 24184 85586 11558 83205 10151 20112 40223 51011 69901 70552 885// 333 56799 88620=
85586,2007,10,24,21,00,AAXX 24214 85586 41560 73104 10147 20102 40213 58010 70152 87500 333 56700 87625=
85586,2007,10,25,00,00,AAXX 25004 85586 31558 22504 10112 20084 40196 57018 70511 82500 333 10158 56700 82625=
85586,2007,10,25,18,00,AAXX 25184 85586 32960 02618 10181 20115 40185 57018=
85586,2007,10,25,21,00,AAXX 25214 85586 42960 02516 10181 20101 40160 57025=
85586,2007,10,26,00,00,AAXX 26004 85586 31956 00904 10134 20091 40161 55000 70500 333 10213=
85586,2007,10,26,12,00,AAXX 26124 85586 32960 32506 10116 20088 40169 52/// 80001 333 20048 30/// 50250 55121 56006 83075=
85586,2007,10,26,15,00,AAXX 26154 85586 42960 12708 10174 20101 40183 52015 80001 333 56006 81075=
85586,2007,10,26,18,00,AAXX 26184 85586 32960 02410 10182 20090 40162 58021=
85586,2007,10,27,12,00,AAXX 27124 85586 32960 00000 10174 20082 40133 52/// 333 20086 30/// 50260 55118=
85586,2007,10,27,18,00,AAXX 27184 85586 32960 02612 10162 20109 40144 52008=
85586,2007,10,27,21,00,AAXX 27214 85586 42560 53212 10148 20105 40142 54003 81502 333 56606 81620 85075=
85586,2007,10,28,00,00,AAXX 28004 85586 32460 53106 10112 20098 40152 52010 83502 333 10188 56606 83610 85075=
85586,2007,10,28,12,00,AAXX 28124 85586 32960 20000 10097 20084 40179 53/// 80001 333 20042 30/// 50300 55118 56005 82075=
85586,2007,10,28,15,00,AAXX 28154 85586 42560 43104 10137 20087 40196 52018 84500 333 56600 84620=
85586,2007,10,28,18,00,AAXX 28184 85586 32960 02406 10153 20079 40191 58005=
85586,2007,10,28,21,00,AAXX 28214 85586 42960 02514 10151 20094 40176 57015=
85586,2007,10,29,00,00,AAXX 29004 85586 32960 00000 10118 20093 40172 57004 333 10162=
85586,2007,10,29,12,00,AAXX 29124 85586 31957 30000 10094 20080 40157 57/// 7051/ 80001 333 20053 30/// 50310 55113 56006 83073=
85586,2007,10,29,15,00,AAXX 29154 85586 41958 43105 10152 20087 40170 52014 70511 80001 333 56007 84073=
85586,2007,10,29,18,00,AAXX 29184 85586 32960 32807 10158 20094 40173 52004 80001 333 56006 83070=
85586,2007,10,29,21,00,AAXX 29214 85586 42960 22709 10142 20086 40176 54002 80001 333 56006 82070=
85586,2007,10,30,00,00,AAXX 30004 85586 32960 10000 10115 20101 40177 54001 80001 333 10164 56005 81073=
85586,2007,10,30,12,00,AAXX 30124 85586 32960 10000 10121 20089 40177 53/// 81500 333 20038 30/// 50310 55103 56700 81615=
85586,2007,10,30,15,00,AAXX 30154 85586 42960 02907 10151 20087 40183 52006=
85586,2007,10,30,18,00,AAXX 30184 85586 32960 22911 10166 20109 40188 52006 82100 333 56700 82820=
85586,2007,10,30,21,00,AAXX 30214 85586 42960 02710 10167 20093 40179 56009=
85586,2007,10,31,00,00,AAXX 31004 85586 32956 00000 10123 20092 40185 53005 70500 333 10171=
85586,2007,10,31,12,00,AAXX 31124 85586 32960 70000 10119 20098 40205 51/// 87030 333 20071 30/// 50330 55125 56060 87365=
85586,2007,10,31,15,00,AAXX 31154 85586 42560 22705 10163 20108 40207 51003 81230 333 56760 81820=
85586,2007,10,31,18,00,AAXX 31184 85586 32560 12412 10159 20104 40210 51003 81100 333 56700 81820=
85586,2007,10,31,21,00,AAXX 31214 85586 42560 12414 10153 20101 40201 58009 81100 333 56700 81820=
85586,2007,11,01,00,00,AAXX 01004 85586 31958 00000 10121 20085 40203 55001 70500 333 10178=
85586,2007,11,01,12,00,AAXX 01124 85586 32960 00000 10124 20091 40207 52/// 333 20048 30/// 50220 55074=
85586,2007,11,01,15,00,AAXX 01154 85586 42960 22608 10162 20070 40204 54002 80001 333 56006 82075=
85586,2007,11,01,18,00,AAXX 01184 85586 32960 72512 10152 20077 40203 54001 82032 333 56066 82357 86075=
85586,2007,11,01,21,00,AAXX 01214 85586 42960 72514 10152 20087 40201 54002 82032 333 56066 82357 86072=
85586,2007,11,02,00,00,AAXX 02004 85586 32960 70000 10128 20101 40208 52006 84032 333 10181 56066 84365 86070=
85586,2007,11,02,12,00,AAXX 02124 85586 32560 23104 10130 20107 40208 52/// 81501 333 20076 30/// 50170 56024 56606 81620=
85586,2007,11,02,15,00,AAXX 02154 85586 42360 32514 10153 20109 40206 54001 81601 333 56606 81707=
85586,2007,11,02,18,00,AAXX 02184 85586 31458 22410 10150 20111 40206 54001 70522 82600 333 56600 82710=
85586,2007,11,02,21,00,AAXX 02214 85586 42460 22708 10146 20104 40195 57011 82500 333 56600 82617=
85586,2007,11,03,00,00,AAXX 03004 85586 32460 33506 10120 20102 40198 56002 81602 333 10158 56706 81710 83075=
85586,2007,11,03,12,00,AAXX 03124 85586 31002 80000 10106 20102 40191 55/// 7424/ 886// 333 20093 30/// 50190 55107 56009 88701=
85586,2007,11,03,15,00,AAXX 03154 85586 41940 32804 10146 20093 57005 70544 80001 333 56006 83073=
85586,2007,11,03,18,00,AAXX 03184 85586 32960 32711 10182 20098 40172 57012 80001 333 56007 83073=
85586,2007,11,03,21,00,AAXX 03214 85586 42960 12507 10190 20096 40159 57013 80001 333 56006 81073=
85586,2007,11,04,00,00,AAXX 04004 85586 32960 00000 10150 20087 40172 52013 333 10199=
85586,2007,11,04,12,00,AAXX 04124 85586 32960 00000 10153 20093 40169 52/// 333 20070 30/// 50230 55102=
85586,2007,11,04,15,00,AAXX 04154 85586 42960 02509 10180 20076 40163 57005=
85586,2007,11,04,18,00,AAXX 04184 85586 32960 02510 10182 20083 40153 57010=
85586,2007,11,04,21,00,AAXX 04214 85586 42960 02409 10173 20086 40143 57010=
85586,2007,11,05,00,00,AAXX 05004 85586 32960 00506 10128 20091 40152 52008 333 10186=
85586,2007,11,05,12,00,AAXX 05124 85586 32960 00000 10141 20099 40174 52/// 333 20054 50340 55123=
85586,2007,11,05,15,00,AAXX 05154 85586 42960 03006 10172 20105 40179 51006=
85586,2007,11,05,18,00,AAXX 05184 85586 32960 02811 10196 20101 40168 58010=
85586,2007,11,05,21,00,AAXX 05214 85586 42960 02512 10194 20097 40165 56005=
85586,2007,11,06,00,00,AAXX 06004 85586 32960 00405 10127 20092 40172 53007 333 10199=
85586,2007,11,06,12,00,AAXX 06124 85586 32960 00000 10163 20102 40141 50/// 333 20056 30/// 50350 55122=
85586,2007,11,06,15,00,AAXX 06154 85586 42960 02416 10192 20106 40128 58013=
85586,2007,11,06,18,00,AAXX 06184 85586 32960 02516 10183 20089 40119 57009=
85586,2007,11,06,21,00,AAXX 06214 85586 42960 02506 10203 20093 40114 56004=
85586,2007,11,07,00,00,AAXX 07004 85586 31958 50304 10138 20084 40119 53005 70500 80001 333 10234 56006 85075=
85586,2007,11,07,12,00,AAXX 07124 85586 32960 00000 10120 20098 40123 53/// 333 20050 30/// 50310 55124=
85586,2007,11,07,15,00,AAXX 07154 85586 42960 03106 10164 20098 40131 51009=
85586,2007,11,07,18,00,AAXX 07184 85586 32960 02608 10168 20098 40133 54002=
85586,2007,11,07,21,00,AAXX 07214 85586 42960 00306 10158 20100 40128 57005=
85586,2007,11,08,00,00,AAXX 08004 85586 32960 13608 10118 20101 40135 53006 80001 333 10176 56006 81075=
85586,2007,11,08,12,00,AAXX 08124 85586 31340 83606 10120 20106 40137 52/// 7052/ 885// 333 20100 30/// 50270 55122 56899 88608=
85586,2007,11,08,15,00,AAXX 08154 85586 41456 83110 10134 20109 40146 52009 70522 885// 333 56799 82613 88620=
85586,2007,11,08,18,00,AAXX 08184 85586 31458 82808 10140 20113 40148 51003 70522 885// 333 56699 82615 88623=
85586,2007,11,08,21,00,AAXX 08214 85586 41456 83012 10132 20105 40157 52008 70522 885// 333 56699 82615 88626=
85586,2007,11,09,00,00,AAXX 09004 85586 31557 80000 10122 20093 40166 52009 70522 885// 333 10148 56699 88626=
85586,2007,11,09,12,00,AAXX 09124 85586 32560 80000 10122 20114 40159 52/// 8257/ 333 20110 30/// 50300 55000 56779 82625 86365=
85586,2007,11,09,15,00,AAXX 09154 85586 42560 72805 10152 20089 40162 52003 83579 333 56670 83625 86365=
85586,2007,11,09,18,00,AAXX 09184 85586 32560 62807 10159 20097 40161 54001 84570 333 56660 84622 85365=
85586,2007,11,09,21,00,AAXX 09214 85586 42560 63108 10142 20100 40158 57004 83570 333 56670 83625 85365=
85586,2007,11,10,00,00,AAXX 10004 85586 32560 60000 10132 20102 40169 52003 85570 333 10163 56660 85625 83365=
85586,2007,11,10,12,00,AAXX 10124 85586 32970 00000 10143 20102 40194 53/// 333 20078 30/// 50210 55050=
85586,2007,11,10,15,00,AAXX 10154 85586 42570 22607 10154 20093 40194 54000 82100 333 56600 82820=
85586,2007,11,10,18,00,AAXX 10184 85586 32570 12617 10153 20087 40189 57005 81100 333 56600 81820=
85586,2007,11,10,21,00,AAXX 10214 85586 42960 02711 10153 20087 40179 57010=
85586,2007,11,11,12,00,AAXX 11124 85586 32960 41406 10171 20068 40186 52/// 80001 333 20051 30/// 50310 55125 56006 84075=
85586,2007,11,11,15,00,AAXX 11154 85586 42960 42518 10186 20069 40185 56002 80001 333 56006 84075=
85586,2007,11,11,18,00,AAXX 11184 85586 32960 62518 10171 20090 40183 54001 80030 333 56060 86365=
85586,2007,11,11,21,00,AAXX 11214 85586 42960 22516 10173 20083 40173 56010 82030 333 56060 82365=
85586,2007,11,12,00,00,AAXX 12004 85586 31858 00000 10128 20076 40182 53008 70500 333 10204=
85586,2007,11,12,12,00,AAXX 12124 85586 31956 60000 10114 20086 40184 52/// 7051/ 86030 333 20051 30/// 56060 86365=
85586,2007,11,12,15,00,AAXX 12154 85586 42960 22707 10156 20086 40180 56003 80001 333 56006 82075=
85586,2007,11,12,18,00,AAXX 12184 85586 32960 02715 10163 20093 40176 58004=
85586,2007,11,12,21,00,AAXX 12214 85586 42960 02516 10153 20085 40173 57004=
85586,2007,11,13,00,00,AAXX 13004 85586 32960 02508 10113 20076 40187 52014 333 10167=
85586,2007,11,13,12,00,AAXX 13124 85586 32960 00000 10118 20067 40205 52/// 333 20040 30/// 50310 55112=
85586,2007,11,13,15,00,AAXX 13154 85586 42960 02412 10148 20082 40202 54003=
85586,2007,11,13,18,00,AAXX 13184 85586 32960 02416 10160 20072 40190 57012=
85586,2007,11,13,21,00,AAXX 13214 85586 42960 02414 10172 20069 40173 57016=
85586,2007,11,14,00,00,AAXX 14004 85586 32960 02504 10130 20076 40180 53006 333 10172=
85586,2007,11,14,12,00,AAXX 14124 85586 32960 01804 10152 20034 40158 56/// 333 20032 30/// 50330 55127=
85586,2007,11,14,15,00,AAXX 14154 85586 42960 02616 10159 20073 40145 57012=
85586,2007,11,14,18,00,AAXX 14184 85586 32960 02612 10170 20094 40136 57009=
85586,2007,11,14,21,00,AAXX 14214 85586 42960 02806 10150 20093 40129 57008=
85586,2007,11,15,00,00,AAXX 15004 85586 32960 03604 10114 20091 40139 53010 333 10202=
85586,2007,11,15,12,00,AAXX 15124 85586 32460 82706 10108 20087 40148 53/// 885// 333 20062 30/// 50320 55127 56099 88618=
85586,2007,11,15,18,00,AAXX 15184 85586 32560 52710 10157 20081 40155 51007 85500 333 56600 85620=
85586,2007,11,15,21,00,AAXX 15214 85586 42960 03106 10154 20091 40150 57006=
85586,2007,11,16,00,00,AAXX 16004 85586 32560 60000 10120 20092 40159 52009 86500 333 10164 56600 86623=
85586,2007,11,16,12,00,AAXX 16124 85586 32560 60000 10136 20080 4017652/// 86500 333 20088 30/// 50290 55082 56600 86627=
85586,2007,11,16,15,00,AAXX 16154 85586 42960 02608 10162 20089 40170 57005=
85586,2007,11,16,18,00,AAXX 16184 85586 32960 02514 10163 20091 40166 57004=
85586,2007,11,16,21,00,AAXX 16214 85586 42960 02618 10158 20098 40159 57007=
85586,2007,11,17,00,00,AAXX 17004 85586 32960 02704 10126 20096 40167 52007 333 10165=
85586,2007,11,17,12,00,AAXX 17124 85586 32960 00000 10147 20095 40181 52/// 333 20062 30/// 50310 55117=
85586,2007,11,17,15,00,AAXX 17154 85586 42960 02709 10179 20102 40184 51004=
85586,2007,11,17,18,00,AAXX 17184 85586 32960 02516 10183 20112 40183 54001=
85586,2007,11,17,21,00,AAXX 17214 85586 42960 02512 10176 20117 40177 56007=
85586,2007,11,18,00,00,AAXX 18004 85586 32960 02406 10142 20104 40182 53005 333 10187=
85586,2007,11,18,12,00,AAXX 18124 85586 32960 03004 10159 20109 40170 52/// 333 20067 30/// 50350 55131=
85586,2007,11,18,15,00,AAXX 18154 85586 42960 02706 10185 20112 40166 58004=
85586,2007,11,18,18,00,AAXX 18184 85586 32960 02418 10197 20103 40163 58002=
85586,2007,11,19,00,00,AAXX 19004 85586 32960 00506 10133 20088 40176 52013 333 10199=
85586,2007,11,19,12,00,AAXX 19124 85586 32960 00000 10144 20094 40137 57/// 333 20066 30/// 50650 55125=
85586,2007,11,19,15,00,AAXX 19154 85586 42960 02410 10194 20077 40127 57009=
85586,2007,11,19,18,00,AAXX 19184 85586 32960 02710 10190 20092 40111 57012=
85586,2007,11,20,00,00,AAXX 20004 85586 32960 00404 10146 20089 40105 53002 333 10204=
85586,2007,11,20,12,00,AAXX 20124 85586 32960 03504 10140 20094 40099 52/// 333 20054 30/// 50340 55128=
85586,2007,11,20,15,00,AAXX 20154 85586 41430 83106 10142 20123 40130 52032 71011 886// 333 56799 88710=
85586,2007,11,20,18,00,AAXX 20184 85586 31557 33514 10166 20121 40140 52010 70522 83500 333 56700 83620=
85586,2007,11,20,21,00,AAXX 20214 85586 41457 83306 10160 20124 40140 54000 70522 885// 333 56799 88618=
85586,2007,11,21,00,00,AAXX 21004 85586 31557 80404 10140 20119 40140 54001 70522 885// 333 10169 56899 88612=
85586,2007,11,21,12,00,AAXX 21124 85586 11115 82704 10120 20116 40177 52/// 69914 7105/ 886// 333 20119 31/// 50300 55075 56799 70001 88702=
85586,2007,11,21,15,00,AAXX 21154 85586 41457 82706 10135 20112 40189 52012 70522 885// 333 56699 88610=
85586,2007,11,21,18,00,AAXX 21184 85586 31456 82806 10150 20122 40195 52006 70522 885// 333 56699 83615 88623=
85586,2007,11,21,21,00,AAXX 21214 85586 42460 82506 10142 20117 40186 58009 885// 333 56699 88617=
85586,2007,11,22,00,00,AAXX 22004 85586 32460 32506 10125 20112 40191 53004 83500 333 10155 56600 83612=
85586,2007,11,22,12,00,AAXX 22124 85586 32560 81905 10123 20087 40232 52/// 885// 333 20078 30/// 50230 55000 56699 88625=
85586,2007,11,22,15,00,AAXX 22154 85586 42960 02606 10195 20128 40212 58018=
85586,2007,11,22,18,00,AAXX 22184 85586 32960 02518 10163 20110 40206 57007=
85586,2007,11,22,21,00,AAXX 22214 85586 42960 02518 10170 20118 40189 57016=
85586,2007,11,23,00,00,AAXX 23004 85586 32960 00000 10132 20103 40199 52008 333 10196=
85586,2007,11,23,12,00,AAXX 23124 85586 32960 02106 10183 20096 40158 56/// 333 20064 30/// 50310 55105=
85586,2007,11,23,15,00,AAXX 23154 85586 42960 02714 10183 20102 40149 56009=
85586,2007,11,23,18,00,AAXX 23184 85586 32960 02612 10171 20099 40141 57008=
85586,2007,11,23,21,00,AAXX 23214 85586 42960 02516 10156 20100 40134 56007=
85586,2007,11,24,00,00,AAXX 24004 85586 31256 83104 10126 20110 40153 53010 70522 886// 333 10165 56799 88706=
85586,2007,11,24,12,00,AAXX 24124 85586 11220 83104 10117 20108 40153 52/// 69934 7505/ 886// 333 20104 31/// 50350 55131 56799 70003 88706=
85586,2007,11,24,15,00,AAXX 24154 85586 41356 83111 10142 20110 40157 51005 70555 885// 333 56799 82608 88610=
85586,2007,11,24,18,00,AAXX 24184 85586 11456 83011 10157 20133 40154 58002 69911 70555 885// 333 56799 81615 88620=
85586,2007,11,24,21,00,AAXX 24214 85586 41358 82906 10144 20112 40143 56012 70522 885// 333 56799 82610 88620=
85586,2007,11,25,12,00,AAXX 25124 85586 11220 82604 10116 20111 40179 52/// 69924 7102/ 885// 333 20108 30/// 50170 55015 56699 70002 82704 88608=
85586,2007,11,25,15,00,AAXX 25154 85586 41445 82806 10138 20098 40187 52008 70522 885// 333 56699 82612 88615=
85586,2007,11,25,18,00,AAXX 25184 85586 31450 82806 10160 20097 40181 58005 70522 885// 333 56699 88617=
85586,2007,11,25,21,00,AAXX 25214 85586 41558 82710 10161 20094 40169 57012 70522 81500 333 56600 81623=
85586,2007,11,26,00,00,AAXX 26004 85586 32960 12604 10128 20094 40172 54002 80001 333 10163 56006 81075=
85586,2007,11,26,12,00,AAXX 26124 85586 31456 83104 10121 20093 40181 52/// 7052/ 885// 333 20106 30/// 50160 55048 56099 88610=
85586,2007,11,26,15,00,AAXX 26154 85586 41456 82806 10134 20107 40188 52007 70522 885// 333 56699 88615=
85586,2007,11,26,18,00,AAXX 26184 85586 31456 82806 10146 20100 40187 54001 70522 885// 333 56699 82612 88617=
85586,2007,11,26,21,00,AAXX 26214 85586 42560 42507 10164 20085 40175 57011 82501 333 56606 82625 83075=
85586,2007,11,27,00,00,AAXX 27004 85586 32960 12804 10126 20103 40180 53004 80001 333 10168 56006 81075=
85586,2007,11,27,12,00,AAXX 27124 85586 32460 80000 10128 20103 40191 52/// 885// 333 20102 30/// 50160 55046 88617=
85586,2007,11,27,15,00,AAXX 27154 85586 42560 12807 10163 20103 40188 57003 81500 333 56600 81620=
85586,2007,11,27,18,00,AAXX 27184 85586 32460 22706 10168 20104 40189 52003 82500 333 56600 82615=
85586,2007,11,27,21,00,AAXX 27214 85586 42960 02605 10162 20105 40176 57013=
85586,2007,11,28,00,00,AAXX 28004 85586 32460 20000 10131 20118 40173 57004 82500 333 10171 56600 82615=
85586,2007,11,28,12,00,AAXX 28124 85586 31458 62604 10118 20097 40170 52/// 7052/ 86500 333 20068 30/// 50180 55093 56700 86614=
85586,2007,11,28,15,00,AAXX 28154 85586 42960 02708 10160 20098 40172 52003=
85586,2007,11,28,18,00,AAXX 28184 85586 32960 22609 10167 20105 40169 57003=
85586,2007,11,28,21,00,AAXX 28214 85586 42960 32207 10160 20102 40157 57012 80001 333 56006 83073=
85586,2007,11,29,00,00,AAXX 29004 85586 32960 20000 10138 20097 40152 57006 80001 333 10174 56007 82073=
85586,2007,11,29,12,00,AAXX 29124 85586 32960 00204 10143 20097 40179 51/// 333 20074 30/// 50310 55099=
85586,2007,11,29,15,00,AAXX 29154 85586 42960 02612 10169 20107 40183 51005=
85586,2007,11,29,18,00,AAXX 29184 85586 32960 62910 10166 20115 40182 58001 80001 333 56006 86075=
85586,2007,11,29,21,00,AAXX 29214 85586 42960 52616 10163 20116 40165 57017 80001 333 56006 85075=
85586,2007,11,30,00,00,AAXX 30004 85586 32960 30504 10144 20112 40165 55000 80001 333 10182 56006 83075=
85586,2007,11,30,12,00,AAXX 30124 85586 32960 02705 10153 20109 40183 52/// 333 20074 30/// 50310 50310 55132=
85586,2007,11,30,15,00,AAXX 30154 85586 42260 12611 10164 20117 40188 51006 81600 333 56700 81706=
85586,2007,11,30,18,00,AAXX 30184 85586 32960 32912 10184 20130 40199 52011 83600 333 56700 83709=
85586,2007,11,30,21,00,AAXX 30214 85586 42960 02711 10179 20126 40205 53004=
85586,2007,12,01,12,00,AAXX 01124 85586 32960 01906 10164 20097 40214 52/// 333 20066 30/// 50260 55122=
85586,2007,12,01,15,00,AAXX 01154 85586 42960 02412 10191 20112 40205 57008=
85586,2007,12,01,18,00,AAXX 01184 85586 32960 02616 10196 20103 40186 57018=
85586,2007,12,01,21,00,AAXX 01214 85586 42960 02418 10192 20077 40171 57016=
85586,2007,12,02,00,00,AAXX 02004 85586 32960 02506 10154 20076 40185 53013 333 10220=
85586,2007,12,02,12,00,AAXX 02124 85586 32960 00000 10138 20086 40178 52/// 333 20050 30/// 50290 55125=
85586,2007,12,02,15,00,AAXX 02154 85586 41958 03104 10160 20093 40178 70500=
85586,2007,12,02,21,00,AAXX 02214 85586 42960 02812 10152 20106 40181 53004=
85586,2007,12,03,00,00,AAXX 03004 85586 32560 63108 10130 20108 40186 52005 86500 333 10180 56600 86623=
85586,2007,12,03,12,00,AAXX 03124 85586 31340 83304 10117 20108 40217 52/// 7052/ 887// 333 20106 30/// 50170 55117 56099 88708=
85586,2007,12,03,15,00,AAXX 03154 85586 41457 80000 10135 20101 40227 52011 70522 885// 333 56699 88610=
85586,2007,12,03,18,00,AAXX 03184 85586 32560 70000 10162 20112 40226 54001 87500 333 56600 87620=
85586,2007,12,03,21,00,AAXX 03214 85586 42560 62805 10148 20106 57015 86500 333 56600 86625=
85586,2007,12,04,00,00,AAXX 04004 85586 32460 60000 10132 20117 40214 54002 86500 333 10162 56700 86615=
85586,2007,12,04,12,00,AAXX 04124 85586 32960 02704 10127 20088 40207 52/// 333 20072 30/// 50210 55016=
85586,2007,12,04,15,00,AAXX 04154 85586 42960 02706 10165 20078 40199 57006=
85586,2007,12,04,18,00,AAXX 04184 85586 32960 02513 10163 20084 40200 54000=
85586,2007,12,04,21,00,AAXX 04214 85586 42960 02713 10153 20074 40193 57007=
85586,2007,12,05,00,00,AAXX 05004 85586 31958 00504 10135 20076 40205 53010 70500 333 10175=
85586,2007,12,05,12,00,AAXX 05124 85586 32960 02704 10136 20112 40209 52/// 333 20068 30/// 50310 55112=
85586,2007,12,05,15,00,AAXX 05154 85586 42960 02808 10161 20092 40210 55001=
85586,2007,12,05,18,00,AAXX 05184 85586 32960 02516 10173 20092 40206 58003=
85586,2007,12,05,21,00,AAXX 05214 85586 42960 02516 10165 20116 40194 57012=
85586,2007,12,06,00,00,AAXX 06004 85586 31958 00504 10135 20076 40205 53010 70500 333 10175=
85586,2007,12,06,12,00,AAXX 06124 85586 32960 00404 10126 20082 40222 52/// 333 20072 30/// 50320 55130=
85586,2007,12,06,15,00,AAXX 06154 85586 42960 12810 10150 20089 40224 54003 80001 333 56006 81075=
85586,2007,12,06,18,00,AAXX 06184 85586 32960 72614 10164 20111 40217 57007 80002 333 56006 87073=
85586,2007,12,07,00,00,AAXX 07004 85586 32960 72408 10134 20114 40214 54003 84032 333 10182 56066 84366 87070=
85586,2007,12,07,12,00,AAXX 07124 85586 31105 80000 10118 20112 40196 56/// 7464/ 886// 333 20106 30/// 50220 55066 56099 88703=
85586,2007,12,07,15,00,AAXX 07154 85586 41340 63106 10180 20146 40185 57009 70522 81602 333 56606 81708 85072=
85586,2007,12,07,18,00,AAXX 07184 85586 31308 72808 10152 20121 40179 57007 74622 85602 333 56606 85708=
85586,2007,12,07,21,00,AAXX 07214 85586 41208 82706 10137 20128 40173 57006 74644 886// 333 56699 88706=
85586,2007,12,08,00,00,AAXX 08004 85586 31320 82906 10126 20118 40173 54000 71044 886// 333 10182 56699 88707=
85586,2007,12,08,12,00,AAXX 08124 85586 11440 80000 10124 20116 40195 52/// 69954 7505/ 885// 333 20108 31/// 50150 55023 56099 70005 88610=
85586,2007,12,08,15,00,AAXX 08154 85586 41450 83006 10136 20124 40204 52010 70522 885// 333 56699 85610 88615=
85586,2007,12,08,18,00,AAXX 08184 85586 32560 72908 10154 20104 40199 58005 87500 333 56600 87620=
85586,2007,12,08,21,00,AAXX 08214 85586 41558 82510 10141 20107 40197 56002 70522 885// 333 56699 88620=
85586,2007,12,09,00,00,AAXX 09004 85586 31548 83506 10132 20116 40199 54001 70522 885// 333 10164 56699 88617=
85586,2007,12,09,12,00,AAXX 09124 85586 11240 82506 10123 20112 40173 53/// 69914 7105/ 886// 333 20123 31/// 50160 55003 56799 70001 88706=
85586,2007,12,09,15,00,AAXX 09154 85586 41356 83104 10132 20103 40186 52013 70522 885// 333 56699 88608=
85586,2007,12,09,18,00,AAXX 09184 85586 32560 82705 10163 20097 40191 52005 885// 333 56699 88620=
85586,2007,12,09,21,00,AAXX 09214 85586 42560 82705 10160 20096 40182 57008 82501 333 56607 82630 83070=
85586,2007,12,10,00,00,AAXX 10004 85586 32560 62605 10132 20091 40195 52009 81510 333 10168 56660 81620 85465=
85586,2007,12,10,12,00,AAXX 10124 85586 32960 00000 10148 20095 40188 52/// 333 20068 30/// 50110 55034=
85586,2007,12,10,15,00,AAXX 10154 85586 42970 02512 10169 20085 40188 54001=
85586,2007,12,10,18,00,AAXX 10184 85586 32970 12611 10176 20104 40185 57003 80001 333 56006 81075=
85586,2007,12,10,21,00,AAXX 10214 85586 42970 22610 10173 20100 40169 57013 80001 333 56006 82075=
85586,2007,12,11,00,00,AAXX 11004 85586 32960 00504 10144 20108 40173 54002 333 10184=
85586,2007,12,11,12,00,AAXX 11124 85586 32960 02704 10174 20101 40148 54/// 333 20073 30/// 50330 55126=
85586,2007,12,11,15,00,AAXX 11154 85586 42960 02710 10187 20101 40144 58004=
85586,2007,12,11,18,00,AAXX 11184 85586 32960 02512 10181 20097 40142 56002=
85586,2007,12,11,21,00,AAXX 11214 85586 42960 03104 10171 20098 40140 56002=
85586,2007,12,12,00,00,AAXX 12004 85586 31956 03604 10133 20103 40141 55000 70500 333 10188=
85586,2007,12,12,12,00,AAXX 12124 85586 31220 82904 10126 20104 40128 51/// 7102/ 886// 333 20081 30/// 50340 55126 56799 88706=
85586,2007,12,12,15,00,AAXX 12154 85586 41340 63108 10159 20111 40126 54001 70522 86600 333 56700 86708=
85586,2007,12,12,18,00,AAXX 12184 85586 32360 22811 10171 20109 40130 53004 82600 333 56700 82709=
85586,2007,12,12,21,00,AAXX 12214 85586 42460 52909 10161 20106 40142 52012 85500 333 56700 85612=
85586,2007,12,13,12,00,AAXX 13124 85586 31456 82504 10126 20070 40189 52/// 7052/ 885// 333 20104 30/// 50280 55093 56600 88618=
85586,2007,12,13,15,00,AAXX 13154 85586 42560 82806 10150 20071 40218 52029 885// 333 56699 88620=
85586,2007,12,13,18,00,AAXX 13184 85586 32560 22610 10176 20067 40221 51004 82500 333 56600 82623=
85586,2007,12,13,21,00,AAXX 13214 85586 42960 02414 10170 20077 40213 57008=
85586,2007,12,14,00,00,AAXX 14004 85586 32960 02410 10140 20078 40211 56003 333 10182=
85586,2007,12,14,12,00,AAXX 14124 85586 32960 01908 10150 20071 40189 56/// 333 20056 30/// 50220 55068=
85586,2007,12,14,15,00,AAXX 14154 85586 42960 02412 10176 20099 40177 57011=
85586,2007,12,14,18,00,AAXX 14184 85586 32960 02416 10168 20090 40170 57007=
85586,2007,12,14,21,00,AAXX 14214 85586 42960 02416 10168 20086 40160 57010=
85586,2007,12,15,00,00,AAXX 15004 85586 32960 13604 10148 20078 40156 56005 80001 333 10186 56006 81075=
85586,2007,12,15,12,00,AAXX 15124 85586 31358 13606 10130 20105 40147 52/// 7051/ 81600 333 20052 30/// 50330 55121 56800 81708=
85586,2007,12,15,15,00,AAXX 15154 85586 42360 33105 10149 20096 40153 52006 81601 333 56706 81708 82073=
85586,2007,12,15,18,00,AAXX 15184 85586 32960 12806 10169 20115 40149 51003 80001 333 56006 81073=
85586,2007,12,15,21,00,AAXX 15214 85586 42960 02704 10168 20114 40142 57007=
85586,2007,12,16,00,00,AAXX 16004 85586 31458 33606 10142 20115 40139 56004 70511 83500 333 10184 56800 83613=
85586,2007,12,16,12,00,AAXX 16124 85586 31457 80000 10137 20106 40156 52/// 7052/ 885// 333 20058 30/// 50260 55122 56099 88610=
85586,2007,12,16,15,00,AAXX 16154 85586 41458 83107 10153 20128 40178 52022 70522 885// 333 56799 88617=
85586,2007,12,17,15,00,AAXX 17154 85586 42960 02708 10180 20118 40215 52003=
85586,2007,12,17,18,00,AAXX 17184 85586 32960 02607 10182 20121 40221 52006=
85586,2007,12,17,21,00,AAXX 17214 85586 42960 02507 10175 20112 40211 57010=
85586,2007,12,18,00,00,AAXX 18004 85586 32960 02604 10153 20118 40202 57010 333 10188=
85586,2007,12,18,12,00,AAXX 18124 85586 31240 50000 10133 20102 40189 55/// 7052/ 85600 333 20113 30/// 50270 55127 56600 85705=
85586,2007,12,18,15,00,AAXX 18154 85586 41330 82704 10143 20109 40193 52004 70522 886// 333 56699 88707=
85586,2007,12,18,18,00,AAXX 18184 85586 31340 82806 10151 20126 40190 57003 70522 886// 333 56799 88708=
85586,2007,12,18,21,00,AAXX 18214 85586 41456 82605 10150 20127 40186 57004 70522 885// 333 56699 88611=
85586,2007,12,19,00,00,AAXX 19004 85586 31230 80000 10139 20132 40184 54002 7102/ 886// 333 10155 56799 88705=
85586,2007,12,19,12,00,AAXX 19124 85586 31204 83404 10120 20113 40162 52/// 7464/ 886// 333 20116 30/// 50160 55000 56799 88705=
85586,2007,12,19,15,00,AAXX 19154 85586 41440 82806 10134 20118 40162 54000 70522 885// 333 56699 88611=
85586,2007,12,19,18,00,AAXX 19184 85586 31457 73108 10152 20115 40156 57006 70522 87500 333 56700 87615=
85586,2007,12,19,21,00,AAXX 19214 85586 41440 82906 10144 20121 40147 56008 70522 885// 333 56699 88613=
85586,2007,12,20,00,00,AAXX 20004 85586 31320 82604 10132 20116 40142 56005 70522 885// 333 10160 56699 88608=
85586,2007,12,20,12,00,AAXX 20124 85586 31330 83604 10126 20122 40160 52/// 7104/ 886// 333 20118 30/// 50150 55000 56899 88708=
85586,2007,12,20,15,00,AAXX 20154 85586 41440 82806 10154 20124 40173 52013 70522 885// 333 56699 88613=
85586,2007,12,20,18,00,AAXX 20184 85586 31450 82808 10166 20131 40175 51003 70522 885// 333 56699 88615=
85586,2007,12,20,21,00,AAXX 20214 85586 41450 82806 10156 20127 40165 57010 70522 885// 333 56699 88612=
85586,2007,12,21,12,00,AAXX 21124 85586 31320 83604 10126 20119 40165 52/// 7102/ 886// 333 20116 30/// 50160 55011 56899 88707=
85586,2007,12,21,15,00,AAXX 21154 85586 41456 83504 10148 20121 40175 52010 70522 885// 333 56799 88610=
85586,2007,12,21,18,00,AAXX 21184 85586 31457 83110 10174 20128 40172 54002 70522 885// 333 56799 83615 88620=
85586,2007,12,21,21,00,AAXX 21214 85586 42560 82805 10162 20123 40155 57018 885// 333 56799 88625=
85586,2007,12,22,00,00,AAXX 22004 85586 31458 80000 10142 20119 40166 52011 70522 885// 333 10176 56099 88615=
85586,2007,12,22,12,00,AAXX 22124 85586 31440 80000 10132 20112 40169 52/// 7052/ 886// 333 20128 30/// 50190 55000 56699 88712=
85586,2007,12,22,15,00,AAXX 22154 85586 41458 82805 10147 20117 40180 52011 70522 885// 333 56699 88615=
85586,2007,12,22,18,00,AAXX 22184 85586 32560 73010 10171 20121 40179 54001 87500 333 56700 87620=
85586,2007,12,22,21,00,AAXX 22214 85586 42560 72705 10153 20121 40172 57007 87500 333 56600 87620=
85586,2007,12,23,00,00,AAXX 23004 85586 31456 82604 10142 20121 40171 54001 70522 885// 333 10173 56799 88615=
85586,2007,12,23,12,00,AAXX 23124 85586 31104 80000 10116 20112 40141 53/// 7444/ 886// 333 20114 30/// 50180 55000 56699 88702=
85586,2007,12,23,15,00,AAXX 23154 85586 41115 23005 10153 20134 40146 52005 74040 82600 333 56600 82702=
85586,2007,12,23,18,00,AAXX 23184 85586 31960 03105 10176 20125 40149 52004 70240=
85586,2007,12,23,21,00,AAXX 23214 85586 42960 03009 10177 20124 40148 54001=
85586,2007,12,24,00,00,AAXX 24004 85586 32960 00000 10150 20129 40146 58003 333 10180=
85586,2007,12,24,12,00,AAXX 24124 85586 31108 80000 10117 20109 40124 53/// 7444/ 886// 333 20114 30/// 50240 55108 56699 88702=
85586,2007,12,24,15,00,AAXX 24154 85586 41458 32906 10165 20145 40124 54001 70542 83600 333 56600 83710=
85586,2007,12,24,18,00,AAXX 24184 85586 31457 73307 10160 20135 40134 52010 70542 87600 333 56600 87710=
85586,2007,12,25,00,00,AAXX 25004 85586 31330 80000 10145 20137 40141 54001 71022 886// 333 10166 56699 88708=
85586,2007,12,25,12,00,AAXX 25124 85586 31340 80000 10135 20126 40143 52/// 7102/ 885// 333 20128 30/// 50170 55016 56699 82708 88625=
85586,2007,12,25,15,00,AAXX 25154 85586 42460 83304 10164 20141 40146 52004 885// 333 56699 82617 86627=
85586,2007,12,25,18,00,AAXX 25184 85586 32560 72706 10178 20108 40147 54001 87500 333 56600 87627=
85586,2007,12,25,21,00,AAXX 25214 85586 42560 33304 10184 20115 40141 57006 83501 333 56606 83627=
85586,2007,12,26,00,00,AAXX 26004 85586 32560 62404 10160 20120 40145 53003 83531 333 10188 56666 83623 83363=
85586,2007,12,26,12,00,AAXX 26124 85586 31458 80000 10144 20119 40149 52/// 7052/ 885// 333 20094 30/// 50190 55037 56099 81613 88623=
85586,2007,12,26,15,00,AAXX 26154 85586 42560 82808 10178 20104 40155 52007 885// 333 56699 88626=
85586,2007,12,26,18,00,AAXX 26184 85586 32560 63112 10190 20112 40174 52018 83502 333 56706 83626 85073=
85586,2007,12,26,21,00,AAXX 26214 85586 42960 62408 10196 20091 40160 58012 80002 333 56006 86073=
85586,2007,12,27,00,00,AAXX 27004 85586 32960 32606 10166 20113 40159 54002 80001 333 10203 56006 83073=
85586,2007,12,27,12,00,AAXX 27124 85586 31458 80000 10138 20113 40149 52/// 7052/ 885// 333 20101 30/// 50180 55067 88613=
85586,2007,12,27,15,00,AAXX 27154 85586 41458 62709 10177 20124 40151 52003 70522 82501 333 56607 82612 85073=
85586,2007,12,27,18,00,AAXX 27184 85586 32460 62606 10178 20126 40143 57008 82501 333 56606 82615 86070=
85586,2007,12,27,21,00,AAXX 27214 85586 42560 62705 10161 20126 40148 52005 86500 333 56600 86620=
85586,2007,12,28,12,00,AAXX 28124 85586 31230 80000 10145 20136 40159 52/// 7102/ 886// 333 20142 30/// 50110 55041 56099 88706=
85586,2007,12,28,15,00,AAXX 28154 85586 41456 80000 10158 20146 40159 54002 71022 886// 333 56099 88710=
85586,2007,12,28,18,00,AAXX 28184 85586 31340 83104 10157 20136 40159 54001 70522 885// 333 56699 88608=
85586,2007,12,28,21,00,AAXX 28214 85586 41330 82806 10158 20138 40152 57007 71022 885// 333 56699 88608=
85586,2007,12,29,00,00,AAXX 29004 85586 31456 80000 10149 20122 40154 54001 70522 885// 333 10170 56699 88610=
85586,2007,12,29,12,00,AAXX 29124 85586 31458 80000 10148 20118 40165 52/// 70522 885// 333 20138 30/// 50120 55000 56699=
85586,2007,12,29,15,00,AAXX 29154 85586 42560 42710 10177 20125 40169 52005 84500 333 56600 84620=
85586,2007,12,29,18,00,AAXX 29184 85586 32460 52711 10176 20124 40170 54001 85500 333 56600 85617=
85586,2007,12,29,21,00,AAXX 29214 85586 42560 22609 10181 20125 40171 54001 82500 333 56700 82620=
85586,2007,12,30,00,00,AAXX 30004 85586 32560 72704 10162 20142 40175 52004 87500 333 10188 56600 87623=
85586,2007,12,30,12,00,AAXX 30124 85586 32960 00000 10167 20133 40176 53/// 333 20098 30/// 55030 55096=
85586,2007,12,30,15,00,AAXX 30154 85586 41009 32609 10180 20167 40172 58004 74600 83600 333 56600 83701=
85586,2007,12,30,18,00,AAXX 30184 85586 31160 12717 10188 20156 40164 57008 70140 81600 333 56600 81702=
85586,2007,12,30,21,00,AAXX 30214 85586 42960 02611 10203 20156 40150 57013=
85586,2007,12,31,00,00,AAXX 31004 85586 32960 02507 10180 20138 40140 54001 333 10209=
85586,2007,12,31,12,00,AAXX 31124 85586 32960 00000 10164 20132 40128 52/// 333 20092 30/// 50330 55126=
85586,2007,12,31,15,00,AAXX 31154 85586 42960 02706 10202 20128 40135 52008=
85586,2007,12,31,21,00,AAXX 31214 85586 42560 12612 10196 20122 40114 57018 81100 333 56000 81820=
