85586,2006,01,01,12,00,AAXX 01124 85586 32960 00000 10154 20130 40177 52/// 333 20082 30/// 50350 55122=
85586,2006,01,01,15,00,AAXX 01154 85586 42960 02810 10184 20138 40184 52007=
85586,2006,01,01,18,00,AAXX 01184 85586 32960 02410 10186 20132 40180 58004=
85586,2006,01,02,12,00,AAXX 02124 85586 32960 00000 10163 20131 40156 52/// 333 20095 30/// 50290 55130=
85586,2006,01,02,15,00,AAXX 02154 85586 42360 13107 10193 20135 40161 51005 81600 333 56700 81708=
85586,2006,01,02,18,00,AAXX 02184 85586 32360 62705 10202 20139 40160 55000 81601 333 56706 81708 86075=
85586,2006,01,02,21,00,AAXX 02214 85586 42960 12710 10205 20138 40149 57010 80001 333 56006 81075=
85586,2006,01,03,12,00,AAXX 03124 85586 32960 03603 10176 20131 40176 52/// 333 20135 30/// 50310 55131=
85586,2006,01,03,15,00,AAXX 03154 85586 42358 52811 10177 20133 40176 53002 85600 333 56700 85708=
85586,2006,01,03,18,00,AAXX 03184 85586 32360 52912 10194 20131 40169 57009 81601 333 56706 81709 84075=
85586,2006,01,03,21,00,AAXX 03214 85586 42360 12712 10187 20128 40168 55001 81600 333 56700 81709=
85586,2006,01,04,12,00,AAXX 04124 85586 32260 50000 10157 20133 40163 53/// 81631 333 20114 30/// 50300 55120 56666 81706 83365=
85586,2006,01,04,15,00,AAXX 04154 85586 42960 02406 10187 20134 40172 52009 80001 333 56006 82073=
85586,2006,01,04,18,00,AAXX 04184 85586 32960 22510 10193 20145 40165 58007 80001 333 56006 82073=
85586,2006,01,04,21,00,AAXX 04214 85586 42460 22610 10192 20140 40158 57007 82100 333 56600 82816=
85586,2006,01,05,12,00,AAXX 05124 85586 32960 00000 10149 20100 40156 53/// 333 20104 30/// 50390 55113=
85586,2006,01,05,15,00,AAXX 05154 85586 42960 02609 10200 20119 40162 52008=
85586,2006,01,05,18,00,AAXX 05184 85586 32960 02710 10203 20138 40171 52009=
85586,2006,01,05,21,00,AAXX 05214 85586 42360 22707 10197 20137 40164 58007 82600 333 56600 82709=
85586,2006,01,06,12,00,AAXX 06124 85586 32960 01605 10209 20156 40164 51/// 333 20141 30/// 50310 55118=
85586,2006,01,06,15,00,AAXX 06154 85586 42960 02412 10227 20172 40161 56003=
85586,2006,01,06,18,00,AAXX 06184 85586 32360 22518 10213 40157 56004 82600 333 56700 82708=
85586,2006,01,06,21,00,AAXX 06214 85586 42960 02814 10206 20132 40149 56003=
85586,2006,01,07,12,00,AAXX 07124 85586 32960 03605 10169 20126 40171 52/// 333 20136 30/// 50350 55131=
85586,2006,01,07,15,00,AAXX 07154 85586 42960 02707 10195 20127 40174 51004 80001 333 56006 82075=
85586,2006,01,07,18,00,AAXX 07184 85586 32960 72514 10197 20138 40179 51005 80001 333 56006 87075=
85586,2006,01,07,21,00,AAXX 07214 85586 42960 52616 10193 20131 40176 58004 80001 333 56006 85075=
85586,2006,01,08,12,00,AAXX 08124 85586 32960 50000 10168 20107 40149 53/// 80001 333 20135 30/// 50390 55113 56005 85075=
85586,2006,01,08,18,00,AAXX 08184 85586 32960 42515 10217 20134 40122 57014 80001 333 56005 84075=
85586,2006,01,08,21,00,AAXX 08214 85586 42960 52611 10220 20139 40108 57014 80001 333 56005 85075=
85586,2006,01,09,12,00,AAXX 09124 85586 32960 00000 10188 20130 40142 52/// 333 20094 50400 55123=
85586,2006,01,09,15,00,AAXX 09154 85586 42960 03107 10202 20129 40154 52013=
85586,2006,01,09,18,00,AAXX 09184 85586 32360 33007 10216 20160 40152 54001 83600 333 56600 83709=
85586,2006,01,09,21,00,AAXX 09214 85586 42460 12806 10222 20157 40155 52003 81600 333 56600 81710=
85586,2006,01,10,12,00,AAXX 10124 85586 32960 02405 10185 20139 40166 52/// 333 20143 30/// 50320 55126=
85586,2006,01,10,15,00,AAXX 10154 85586 42960 02511 10219 20142 40163 54001=
85586,2006,01,10,18,00,AAXX 10184 85586 32960 02712 10215 20122 40162 50001=
85586,2006,01,10,21,00,AAXX 10214 85586 42960 02614 10204 20133 40152 57009=
85586,2006,01,11,12,00,AAXX 11124 85586 32960 03604 10166 20112 40167 52/// 333 20102 30/// 50320 55130=
85586,2006,01,11,15,00,AAXX 11154 85586 42960 02709 10196 20120 40167 50001=
85586,2006,01,11,18,00,AAXX 11184 85586 32960 02418 10213 20112 40162 57004=
85586,2006,01,11,21,00,AAXX 11214 85586 41956 02426 10205 20117 40146 57016 70400=
85586,2006,01,12,12,00,AAXX 12124 85586 32960 02204 10201 20110 40142 56/// 333 20101 30/// 50310 55128=
85586,2006,01,12,15,00,AAXX 12154 85586 42960 02616 10204 20112 40136 58006=
85586,2006,01,12,18,00,AAXX 12184 85586 32960 02422 10201 20110 40127 57009=
85586,2006,01,13,12,00,AAXX 13124 85586 32960 03205 10140 20123 40108 52/// 333 20076 30/// 50350 55130=
85586,2006,01,13,15,00,AAXX 13154 85586 42960 03007 10176 20115 40123 52016=
85586,2006,01,13,18,00,AAXX 13184 85586 32260 12807 10183 20133 40137 52014 81600 333 56600 81706=
85586,2006,01,14,12,00,AAXX 14124 85586 31356 80000 10135 20104 40153 52/// 7052/ 886// 333 20082 30/// 50270 55127 56799 88708=
85586,2006,01,14,15,00,AAXX 14154 85586 41358 72807 10163 20106 40176 52019 70522 87600 333 56700 87709=
85586,2006,01,14,18,00,AAXX 14184 85586 32460 13109 10192 20113 40186 51010 81100 333 56700 81815=
85586,2006,01,14,21,00,AAXX 14214 85586 42960 02407 10184 20111 40173 58013=
85586,2006,01,15,12,00,AAXX 15124 85586 32960 01504 10170 20109 40181 52/// 333 20085 30/// 50410 55086=
85586,2006,01,15,15,00,AAXX 15154 85586 42960 02508 10212 20126 40166 58013=
85586,2006,01,15,18,00,AAXX 15184 85586 32960 02416 10199 20125 40160 57007=
85586,2006,01,15,21,00,AAXX 15214 85586 42960 02512 10204 20132 40141 57019=
85586,2006,01,16,12,00,AAXX 16124 85586 32960 00000 10155 20103 40145 52/// 333 20075 30/// 50430 55130=
85586,2006,01,16,15,00,AAXX 16154 85586 42960 03007 10189 20124 40143 54002=
85586,2006,01,16,18,00,AAXX 16184 85586 32960 02610 10192 20122 40136 57007=
85586,2006,01,16,21,00,AAXX 16214 85586 42960 02807 10186 20127 40129 57007=
85586,2006,01,17,12,00,AAXX 17124 85586 32360 83504 10144 20127 40161 52/// 886// 333 20095 30/// 50390 55127 56799 88608=
85586,2006,01,17,15,00,AAXX 17154 85586 42360 32908 10182 20150 40169 52009 83600 333 56700 83708=
85586,2006,01,17,18,00,AAXX 17184 85586 32360 12708 10194 20138 40169 54000 81600 333 56700 81708=
85586,2006,01,17,21,00,AAXX 17214 85586 42960 03110 10197 20137 40161 57007=
85586,2006,01,18,12,00,AAXX 18124 85586 31458 83303 10162 20123 40154 52/// 7052/ 886// 333 20091 30/// 50280 55105 56799 88715=
85586,2006,01,18,15,00,AAXX 18154 85586 41458 83204 10174 20121 40167 52013 70522 885// 333 56799 88615=
85586,2006,01,18,18,00,AAXX 18184 85586 32460 73305 10194 20127 40168 54001 87800 333 56700 81815 87625=
85586,2006,01,18,21,00,AAXX 18214 85586 42460 22506 10193 20131 40161 58007 82100 333 56700 82815=
85586,2006,01,19,12,00,AAXX 19124 85586 32458 82203 10154 20118 40164 52/// 7052/ 885// 333 20141 30/// 50290 55052 56799 88615=
85586,2006,01,19,15,00,AAXX 19154 85586 41558 72807 10177 20128 40163 50000 70522 87500 333 56700 87620=
85586,2006,01,19,18,00,AAXX 19184 85586 32960 02909 10194 20125 40162 55001=
85586,2006,01,19,21,00,AAXX 19214 85586 42460 13007 10187 20130 40146 58016 81100 333 56700 81815=
85586,2006,01,20,12,00,AAXX 20124 85586 32960 00000 10158 20127 40132 54/// 333 20108 30/// 50310 55067=
85586,2006,01,20,15,00,AAXX 20154 85586 42960 03308 10183 20133 40137 52005=
85586,2006,01,20,18,00,AAXX 20184 85586 32960 03008 10198 20136 40137 54001=
85586,2006,01,20,21,00,AAXX 20214 85586 42960 02806 10197 20142 40125 57012=
85586,2006,01,21,12,00,AAXX 21124 85586 32960 00000 10150 20133 40133 52/// 333 20106 30/// 50350 55123=
85586,2006,01,21,15,00,AAXX 21154 85586 42960 03309 10189 20132 40145 52013=
85586,2006,01,21,18,00,AAXX 21184 85586 32960 02707 10196 20137 40146 54002=
85586,2006,01,21,21,00,AAXX 21214 85586 42960 02509 10195 20150 40139 57007=
85586,2006,01,22,12,00,AAXX 22124 85586 32960 00000 10172 20121 40143 52/// 333 20127 30/// 50290 55118=
85586,2006,01,22,15,00,AAXX 22154 85586 42960 02605 10193 20122 40140 58003=
85586,2006,01,22,18,00,AAXX 22184 85586 32960 02612 10207 20131 40135 56007=
85586,2006,01,22,21,00,AAXX 22214 85586 42960 02911 10192 20138 40133 57004=
85586,2006,01,23,12,00,AAXX 23124 85586 32960 00000 10161 20122 40120 52/// 333 20104 30/// 50330 55124=
85586,2006,01,23,15,00,AAXX 23154 85586 42260 12705 10186 20133 40128 52008 81600 333 56700 81706=
85586,2006,01,23,18,00,AAXX 23184 85586 32360 12909 10202 20135 40126 54001 81600 333 56700 81708=
85586,2006,01,23,21,00,AAXX 23214 85586 42460 12912 10193 20140 40122 58005 81600 333 56700 81710=
85586,2006,01,24,12,00,AAXX 24124 85586 31556 80000 10142 20123 40141 52/// 7052/ 885// 333 20140 30/// 50290 55125 56099 88620=
85586,2006,01,24,15,00,AAXX 24154 85586 42960 03008 10180 20128 40142 54002=
85586,2006,01,24,21,00,AAXX 24214 85586 42960 03206 10186 20124 40145 58005=
85586,2006,01,25,12,00,AAXX 25124 85586 32960 00000 10150 20133 40120 55/// 333 20098 30/// 50300 55106=
85586,2006,01,25,15,00,AAXX 25154 85586 42960 03106 10206 20136 40119 54002=
85586,2006,01,25,18,00,AAXX 25184 85586 32960 02912 10206 20136 40117 54002=
85586,2006,01,25,21,00,AAXX 25214 85586 42960 03110 10196 20126 40116 54002=
85586,2006,01,28,21,00,AAXX 28214 85586 42560 42706 10206 20152 40150 57027 82501 333 56606 82620 83075=
85586,2006,01,30,18,00,AAXX 30184 85586 31356 83009 10203 20152 40130 51005 69901 70552 886// 333 56799 88709=
85586,2006,01,31,21,00,AAXX 31214 85586 41458 43006 10198 20148 40143 57009 70555 84600 333 56700 88410=
85586,2006,02,01,12,00,AAXX 01124 85586 11412 80000 10158 20141 40151 52/// 69904 7502/ 886// 333 20120 30/// 50220 55016 56099 70000 88712=
85586,2006,02,01,15,00,AAXX 01154 85586 41315 83106 10164 20149 40168 52017 75052 886// 333 56099 88707=
85586,2006,02,01,18,00,AAXX 01184 85586 11456 82806 10182 20160 40162 58006 69961 70552 885// 333 56099 88620=
85586,2006,02,01,21,00,AAXX 01214 85586 41558 82606 10200 20144 40142 57019 70522 885// 333 56099 88620=
85586,2006,02,02,12,00,AAXX 02124 85586 11320 83604 10162 20149 40148 52/// 69964 7055/ 886// 333 20124 31/// 50210 55003 56099 70006 88708=
85586,2006,02,02,15,00,AAXX 02154 85586 41450 83006 10184 20163 40154 52006 70522 885// 333 56099 83615 88620=
85586,2006,02,02,21,00,AAXX 02214 85586 42560 22806 10204 20144 40127 57015 82500 333 56600 82630=
85586,2006,02,03,12,00,AAXX 03124 85586 11340 82003 10167 20152 40143 52/// 69914 7502/ 886// 333 20161 30/// 50310 55053 56799 70001 88708=
85586,2006,02,03,15,00,AAXX 03154 85586 41456 80604 10201 20155 40147 51004 70552 886// 333 56799 88710=
85586,2006,02,03,18,00,AAXX 03184 85586 11558 82812 10214 20154 40153 52007 69901 70552 885// 333 56799 88625=
85586,2006,02,03,21,00,AAXX 03214 85586 41558 82707 10197 20156 40148 56006 70522 885// 333 56799 88620=
85586,2006,02,04,12,00,AAXX 04124 85586 11456 82003 10170 20142 40153 51/// 69904 7052/ 885// 333 20114 30/// 50310 55013 56799 700000 88615=
85586,2006,02,04,15,00,AAXX 04154 85586 41456 82706 10189 20147 40161 51008 70522 885// 333 56799 88615=
85586,2006,02,04,18,00,AAXX 04184 85586 31456 82708 10193 20146 40166 51005 70522 885// 333 56799 88615=
85586,2006,02,04,21,00,AAXX 04214 85586 41558 62514 10183 20135 40156 58010 70522 86500 333 56700 86625=
85586,2006,02,05,12,00,AAXX 05124 85586 32960 00000 10129 20116 40143 52/// 333 20084 30/// 50250 55024=
85586,2006,02,05,15,00,AAXX 05154 85586 42960 03104 10200 20137 40153 52012=
85586,2006,02,05,18,00,AAXX 05184 85586 32960 02706 10210 20133 40155 51003=
85586,2006,02,05,21,00,AAXX 05214 85586 42560 22708 10198 20145 40141 57015 82500 333 56600 82626=
85586,2006,02,06,12,00,AAXX 06124 85586 31550 83104 10160 20133 40145 52/// 7052/ 885// 333 20152 30/// 50350 55119 56099 88625=
85586,2006,02,06,15,00,AAXX 06154 85586 41556 83306 10184 20154 40159 52014 70522 885// 333 56099 88626=
85586,2006,02,06,18,00,AAXX 06184 85586 31558 32806 10206 20143 40162 54002 70522 83500 333 56600 83626=
85586,2006,02,06,21,00,AAXX 06214 85586 42560 13109 10202 20133 40155 57005 81500 333 56600 81626=
85586,2006,02,07,12,00,AAXX 07124 85586 31658 80903 10174 20130 40162 55/// 7052/ 885// 333 20151 30/// 50310 55055 56799 88620=
85586,2006,02,07,15,00,AAXX 07154 85586 41658 52516 10206 20136 40164 52004 70522 85500 333 56700 85625=
85586,2006,02,07,18,00,AAXX 07184 85586 32960 02507 10204 20133 40155 58010=
85586,2006,02,07,21,00,AAXX 07214 85586 41458 52707 10189 20145 40148 57008 70520 85500 333 56700 85615=
85586,2006,02,08,00,00,AAXX 08004 85586 0000 NIL=
85586,2006,02,08,12,00,AAXX 08124 85586 32260 10000 10166 20141 40139 52/// 81600 333 20107 30/// 50290 55072 56700 81704=
85586,2006,02,08,15,00,AAXX 08154 85586 41020 02707 10197 20147 40142 51004 74040=
85586,2006,02,08,18,00,AAXX 08184 85586 31960 02416 10217 20138 40132 58009 70240=
85586,2006,02,08,21,00,AAXX 08214 85586 41960 02712 10201 20118 40126 56005=
85586,2006,02,09,12,00,AAXX 09124 85586 32960 00000 10140 20126 40150 52/// 333 20108 30/// 50360 55122=
85586,2006,02,09,15,00,AAXX 09154 85586 42960 02808 10190 20148 40159 52010=
85586,2006,02,09,18,00,AAXX 09184 85586 31356 22708 10182 20135 40165 52008 70510 82600 333 56600 82707=
85586,2006,02,09,21,00,AAXX 09214 85586 41456 62506 10180 20137 40162 58005 70522 86500 333 56600 86617=
85586,2006,02,10,12,00,AAXX 10124 85586 31450 80402 10152 20128 40156 52/// 7052/ 885// 333 20124 30/// 50300 55107 56099 88618=
85586,2006,02,10,15,00,AAXX 10154 85586 41556 53106 10190 20143 40172 52017 70522 85500 333 56700 85625=
85586,2006,02,10,18,00,AAXX 10184 85586 32560 63104 10204 20143 40173 54002 81500 333 56700 81625=
85586,2006,02,11,12,00,AAXX 11124 85586 31430 83104 10154 20137 40157 52/// 7052/ 886// 333 20144 30/// 50320 55089 56099 88712=
85586,2006,02,11,15,00,AAXX 11154 85586 41430 83004 10162 20146 40168 52012 70522 886// 333 56099 88713=
85586,2006,02,11,21,00,AAXX 11214 85586 41558 72606 10198 20145 40155 57018 70522 87500 333 5656600 87625=
85586,2006,02,12,12,00,AAXX 12124 85586 11430 80402 10154 20137 40135 52/// 69904 7052/ 886// 333 20144 30/// 50270 55010 56099 70000 88712=
85586,2006,02,12,15,00,AAXX 12154 85586 41440 83006 10158 20141 40147 52014 70522 886// 333 56099 88713=
85586,2006,02,12,18,00,AAXX 12184 85586 31556 83106 10174 20153 40152 51005 70522 885// 333 56699 88625=
85586,2006,02,12,21,00,AAXX 12214 85586 41558 83014 10182 20153 40145 56007 70522 885// 333 56799 88625=
85586,2006,02,13,12,00,AAXX 13124 85586 31440 82703 10176 20152 40138 51/// 7052/ 885// 333 20143 30/// 50280 55000 56799 88615=
85586,2006,02,13,15,00,AAXX 13154 85586 41456 83007 10194 20151 40147 52009 70522 885// 333 56799 88615=
85586,2006,02,13,18,00,AAXX 13184 85586 31456 83107 10189 20149 40157 51010 70522 885// 333 56799 88615=
85586,2006,02,13,21,00,AAXX 13214 85586 42960 03211 10207 20141 40140 57015=
85586,2006,02,14,12,00,AAXX 14124 85586 31558 80000 10150 20133 40155 52/// 7052/ 885// 333 20120 30/// 50270 55044 56099 88623=
85586,2006,02,14,15,00,AAXX 14154 85586 42560 83406 10184 20159 40162 52008 885// 333 56099 88626=
85586,2006,02,14,18,00,AAXX 14184 85586 31558 82906 1019420151 40161 54001 70522 885// 333 56799 88626=
85586,2006,02,14,21,00,AAXX 14214 85586 42560 83008 10193 20143 40153 57008 885// 333 56799 88630=
85586,2006,02,15,12,00,AAXX 15124 85586 31558 81203 10163 20140 40167 52/// 7052/ 885// 333 20116 30/// 50290 55000 56799 88520=
85586,2006,02,15,15,00,AAXX 15154 85586 41556 82907 10211 20152 40166 55001 70522 885// 333 56799 88620=
85586,2006,02,15,18,00,AAXX 15184 85586 31858 02911 10224 20147 40155 58011 70522=
85586,2006,02,15,21,00,AAXX 15214 85586 42560 22605 10221 20147 40151 56004 81501 333 56706 81620 81075=
85586,2006,02,16,12,00,AAXX 16124 85586 32960 01103 10174 20143 40167 51/// 333 20123 30/// 50320 55079=
85586,2006,02,16,15,00,AAXX 16154 85586 42960 03012 10219 20151 40162 58003=
85586,2006,02,16,18,00,AAXX 16184 85586 32960 12415 10226 20150 40152 57010 80001 333 56006 81075=
85586,2006,02,16,21,00,AAXX 16214 85586 42960 52712 10211 20143 40147 56009 80001 333 56006 85075=
85586,2006,02,17,12,00,AAXX 17124 85586 32960 00000 10162 20139 40137 52/// 333 20130 30/// 50330 55098=
85586,2006,02,17,15,00,AAXX 17154 85586 42560 22706 10206 20154 40141 52006 82500 333 56600 82630=
85586,2006,02,17,18,00,AAXX 17184 85586 32960 12307 10218 20154 40136 58005 80001 333 56005 81075=
85586,2006,02,17,21,00,AAXX 17214 85586 42560 32610 10200 20134 40132 57005 81501 333 56606 81626 83075=
85586,2006,02,18,12,00,AAXX 18124 85586 32960 51202 10164 20151 40136 52/// 80001 333 20128 30/// 50350 55113 56006 85075=
85586,2006,02,18,15,00,AAXX 18154 85586 42960 53110 10214 20151 40141 52007 80001 333 56006 85075=
85586,2006,02,18,18,00,AAXX 18184 85586 32960 52516 10220 20146 40140 54003 80001 333 56006 85075=
85586,2006,02,18,21,00,AAXX 18214 85586 42560 52412 10204 20142 40143 54002 81101 333 56606 81823 85075=
85586,2006,02,19,12,00,AAXX 19124 85586 32960 01003 10176 20147 40147 51/// 333 20123 30/// 50320 55111=
85586,2006,02,19,15,00,AAXX 19154 85586 42960 02906 10211 20142 40157 52012=
85586,2006,02,19,18,00,AAXX 19184 85586 32960 02912 10216 20149 40163 51006=
85586,2006,02,19,21,00,AAXX 19214 85586 42560 22708 10216 20150 40152 58011 82500 333 56700 82620=
85586,2006,02,20,12,00,AAXX 20124 85586 31458 83004 10175 20144 40141 52/// 7051/ 885// 333 20159 30/// 50320 55105 56799 88615=
85586,2006,02,20,15,00,AAXX 20154 85586 41458 82607 10187 20148 40161 52020 70521 885// 333 56799 88615=
85586,2006,02,20,18,00,AAXX 20184 85586 32560 73009 10218 20152 40160 54001 87500 333 56700 87625=
85586,2006,02,20,21,00,AAXX 20214 85586 42560 10203 20154 40155 58006 885// 333 56799 88625=
85586,2006,02,21,12,00,AAXX 21124 85586 32660 70000 10174 20141 40152 52/// 87500 333 20160 30/// 50290 55002 56000 87640=
85586,2006,02,21,15,00,AAXX 21154 85586 42660 32708 10212 20126 40159 52009 83500 333 56600 83633=
85586,2006,02,21,18,00,AAXX 21184 85586 32560 13012 10226 20128 40155 56004 81500 333 56600 81630=
85586,2006,02,21,21,00,AAXX 21214 85586 42560 12708 10216 20148 40143 57012 81500 333 56600 81630=
85586,2006,02,22,12,00,AAXX 22124 85586 32560 72404 10152 20138 40162 52/// 87500 333 20118 30/// 50330 55106 56099 87630=
85586,2006,02,22,15,00,AAXX 22154 85586 41558 61910 10212 20118 40171 52012 70522 86500 333 56500 83620 85630=
85586,2006,02,22,18,00,AAXX 22184 85586 32560 12416 10216 20140 40162 57009 81500 333 56600 81623=
85586,2006,02,22,21,00,AAXX 22214 85586 42560 12416 10212 20138 40151 57011 81500 333 56600 81630=
85586,2006,02,23,12,00,AAXX 23124 85586 32960 01504 10170 20097 40139 57/// 333 20102 30/// 50320 55096=
85586,2006,02,23,15,00,AAXX 23154 85586 42960 01808 10256 20102 40126 57012=
85586,2006,02,23,18,00,AAXX 23184 85586 32960 02616 10202 20133 40121 56005=
85586,2006,02,23,21,00,AAXX 23214 85586 42960 02512 10194 20144 40120 54002=
85586,2006,02,24,12,00,AAXX 24124 85586 31903 00000 10128 20124 40115 53/// 7424/ 333 20098 30/// 50390 55120=
85586,2006,02,24,15,00,AAXX 24154 85586 41250 13209 10179 20149 40120 52006 70540 81600 333 56700 81703=
85586,2006,02,24,18,00,AAXX 24184 85586 31356 62907 10188 20155 40127 52007 70541 86600 333 56700 86708=
85586,2006,02,24,21,00,AAXX 24214 85586 42460 43010 10193 20162 40126 54001 84600 333 56700 84618=
85586,2006,02,25,12,00,AAXX 25124 85586 32460 83104 10164 20146 40145 52/// 885// 333 20156 30/// 50310 55071 56799 88615=
85586,2006,02,25,15,00,AAXX 25154 85586 42460 83205 10180 20148 40161 52016 885// 333 56799 88618=
85586,2006,02,25,18,00,AAXX 25184 85586 32560 13108 10204 20157 40153 58007 81500 333 56700 81620=
85586,2006,02,25,21,00,AAXX 25214 85586 42560 32606 10200 20154 40143 57010 83500 333 56700 83620=
85586,2006,02,26,12,00,AAXX 26124 85586 31458 82702 10160 20137 40146 52/// 7052/ 885// 333 20154 30/// 50270 55058 56099 88618=
85586,2006,02,26,18,00,AAXX 26184 85586 32560 72510 10180 20130 40169 51005 81532 333 56666 81625 85363=
85586,2006,02,26,21,00,AAXX 26214 85586 42560 72608 10176 20118 40165 58005 81532 333 56666 81630 86365=
85586,2006,02,27,12,00,AAXX 27124 85586 32960 11803 10150 20123 40154 52/// 80001 333 20106 30/// 50230 55011 56005 81073=
85586,2006,02,27,15,00,AAXX 27154 85586 42960 32609 10209 20103 40150 54001 80001 333 56005 83073=
85586,2006,02,27,18,00,AAXX 27184 85586 32960 22413 10189 20131 40145 57007 80001 333 56005 82073=
85586,2006,02,27,21,00,AAXX 27214 85586 42960 12511 10182 20129 40136 57009 80001 333 56005 81073=
85586,2006,02,28,12,00,AAXX 28124 85586 32960 00000 10108 20096 40154 53/// 333 20056 30/// 50210 55113=
85586,2006,02,28,15,00,AAXX 28154 85586 42960 02806 10172 20116 40159 52006=
85586,2006,02,28,18,00,AAXX 28184 85586 32960 02313 10186 20116 40158 54001=
85586,2006,02,28,21,00,AAXX 28214 85586 42960 02513 10178 20118 40154 57004=
85586,2006,03,01,12,00,AAXX 01124 85586 31430 80804 10110 20099 40170 52/// 7052/ 886// 333 20082 30/// 50320 55113 56000 88712=
85586,2006,03,01,15,00,AAXX 01154 85586 42960 12806 10166 20123 40171 54002 80002 333 56006 81075=
85586,2006,03,01,21,00,AAXX 01214 85586 42560 12806 10170 20122 40166 57007 81100 333 56600 81820=
85586,2006,03,02,12,00,AAXX 02124 85586 32560 50402 10126 20110 40183 52/// 85500 333 20094 30/// 50300 55092 56000 85620=
85586,2006,03,02,15,00,AAXX 02154 85586 42560 62806 10168 20120 40199 52017 86500 333 56600 86626=
85586,2006,03,02,18,00,AAXX 02184 85586 32560 12908 10194 20122 40195 56004 81100 333 56600 81820=
85586,2006,03,03,12,00,AAXX 03124 85586 32960 01205 10140 20123 40144 57/// 333 20108 30/// 50300 55080=
85586,2006,03,03,15,00,AAXX 03154 85586 42960 02409 10194 20131 40145 54002=
85586,2006,03,03,18,00,AAXX 03184 85586 32960 02716 10188 20143 40137 57006=
85586,2006,03,03,21,00,AAXX 03214 85586 42960 02707 10184 20136 40123 57014=
85586,2006,03,04,12,00,AAXX 04124 85586 31230 80302 10126 20121 40136 53/// 7102/ 886// 333 20109 30/// 50340 55114 56799 88704=
85586,2006,03,04,15,00,AAXX 04154 85586 41356 73105 10150 20133 40148 52012 70522 87600 333 56700 87707=
85586,2006,03,04,18,00,AAXX 04184 85586 31358 82405 10160 20135 40154 52007 70522 886// 333 56799 88709=
85586,2006,03,04,21,00,AAXX 04214 85586 42460 83004 10162 20130 40151 58003 885// 333 56799 88615=
85586,2006,03,05,12,00,AAXX 05124 85586 32560 80000 10122 20106 40159 52/// 885// 333 20096 30/// 50260 55002 56099 88623=
85586,2006,03,05,15,00,AAXX 05154 85586 42560 12607 10168 20125 40177 52019 81500 333 56600 81623=
85586,2006,03,05,18,00,AAXX 05184 85586 32560 12612 10184 20122 40181 54004 81500 333 56600 81626=
85586,2006,03,05,21,00,AAXX 05214 85586 42560 12608 10180 20119 40172 57009 81500 333 56600 81626=
85586,2006,03,06,12,00,AAXX 06124 85586 32960 01004 10108 20092 40163 52/// 333 20064 30/// 50320 55094=
85586,2006,03,06,15,00,AAXX 06154 85586 42960 02808 10174 20114 40172 52010=
85586,2006,03,06,18,00,AAXX 06184 85586 32960 02610 10196 20118 40167 56004=
85586,2006,03,06,21,00,AAXX 06214 85586 42560 12712 10192 20150 40155 57013 81500 333 56600 81623=
85586,2006,03,07,12,00,AAXX 07124 85586 31002 80000 10143 20139 40154 52/// 7444/ 886// 333 20143 30/// 50240 55108 56099 88701=
85586,2006,03,07,15,00,AAXX 07154 85586 41357 31003 10170 20154 40116 52013 70542 83600 333 56000 83708=
85586,2006,03,07,18,00,AAXX 07184 85586 31560 12508 10186 20127 40165 54001 70241 81100 333 56000 81823=
85586,2006,03,07,21,00,AAXX 07214 85586 42960 02414 10195 20140 40159 57005=
85586,2006,03,08,15,00,AAXX 08154 85586 42960 02408 10184 20134 40194 54002=
85586,2006,03,08,18,00,AAXX 08184 85586 32960 02516 10195 20140 40179 57014=
85586,2006,03,08,21,00,AAXX 08214 85586 42960 02911 10191 20141 40163 57017=
85586,2006,03,09,12,00,AAXX 09124 85586 32960 30000 10110 20097 40145 53/// 80001 333 20078 30/// 50340 55113 56006 83075=
85586,2006,03,09,15,00,AAXX 09154 85586 42960 12806 10188 20128 40152 52008 80001 333 56006 81075=
85586,2006,03,09,18,00,AAXX 09184 85586 32960 02610 10190 20121 40150 54002=
85586,2006,03,09,21,00,AAXX 09214 85586 42960 12710 10174 20128 40139 56009 80002 333 56006 81075=
85586,2006,03,10,12,00,AAXX 10124 85586 32960 10000 10106 20093 40149 52/// 80001 333 20071 30/// 50310 55109 56006 81075=
85586,2006,03,10,15,00,AAXX 10154 85586 42560 52810 10160 20124 40178 52030 85500 333 56600 85623=
85586,2006,03,10,18,00,AAXX 10184 85586 32560 32706 10184 20129 40182 51004 81502 333 56606 81625 83075=
85586,2006,03,10,21,00,AAXX 10214 85586 42560 22808 10180 20119 40174 57008 81502 333 56606 81630=
85586,2006,03,11,12,00,AAXX 11124 85586 32960 02405 10128 20113 40165 52/// 333 20075 30/// 50210 55099=
85586,2006,03,11,15,00,AAXX 11154 85586 42960 02907 10230 20122 40154 58008=
85586,2006,03,11,18,00,AAXX 11184 85586 32960 02414 10190 20132 40148 57008=
85586,2006,03,11,21,00,AAXX 11214 85586 42960 02611 10199 20137 40141 57006=
85586,2006,03,12,12,00,AAXX 12124 85586 31240 40604 10107 20101 40123 53/// 7100/ 84600 333 20072 30/// 50240 55115 56800 84704=
85586,2006,03,12,15,00,AAXX 12154 85586 41359 73408 10152 20132 40141 52018 70522 87600 333 56700 87709=
85586,2006,03,12,18,00,AAXX 12184 85586 32460 72709 10167 20133 40147 52007 87500 333 56700 87613=
85586,2006,03,12,21,00,AAXX 12214 85586 42460 43105 10176 20143 40142 58005 84500 333 56700 84613=
85586,2006,03,13,12,00,AAXX 13124 85586 31208 41004 10106 20098 40160 52/// 7464/ 84600 333 20088 30/// 50270 55061 56000 84706=
85586,2006,03,13,15,00,AAXX 13154 85586 41960 12704 10198 20123 40162 54004 70141 80001 333 56006 81075=
85586,2006,03,13,18,00,AAXX 13184 85586 32960 02710 10194 20112 40159 54004=
85586,2006,03,13,21,00,AAXX 13214 85586 42560 12710 10192 20127 40155 57004 81500 333 56600 81630=
85586,2006,03,14,12,00,AAXX 14124 85586 32960 30000 10106 20089 40141 53/// 80001 333 20092 30/// 50260 55098 56006 83075=
85586,2006,03,14,15,00,AAXX 14154 85586 42960 02810 10188 20137 40150 52010=
85586,2006,03,14,18,00,AAXX 14184 85586 32960 02410 10196 20120 40152 51003=
85586,2006,03,14,21,00,AAXX 14214 85586 42960 02415 10184 20090 40150 56003=
85586,2006,03,15,12,00,AAXX 15124 85586 32960 01004 10107 20101 40188 53/// 333 20060 30/// 50200 55109=
85586,2006,03,15,15,00,AAXX 15154 85586 42960 02511 10182 20123 40188 54001=
85586,2006,03,15,18,00,AAXX 15184 85586 32960 02416 10182 20128 40185 58003=
85586,2006,03,15,21,00,AAXX 15214 85586 42960 02319 10177 20128 40177 57008=
85586,2006,03,16,12,00,AAXX 16124 85586 32960 01804 10120 20102 40173 53/// 333 20068 30/// 50230 55108=
85586,2006,03,16,15,00,AAXX 16154 85586 42960 02309 10180 20131 40174 54002=
85586,2006,03,16,18,00,AAXX 16184 85586 32960 02415 10185 20127 40170 57004=
85586,2006,03,16,21,00,AAXX 16214 85586 42960 02418 10183 20133 40157 57013=
85586,2006,03,17,12,00,AAXX 17124 85586 32960 00904 10112 20082 40108 52/// 333 20060 30/// 50280 55105=
85586,2006,03,17,15,00,AAXX 17154 85586 42960 01204 10226 20073 40184 58010=
85586,2006,03,17,18,00,AAXX 17184 85586 32960 02412 10202 20106 40173 57012=
85586,2006,03,17,21,00,AAXX 17214 85586 42960 02416 10200 20103 40162 57011=
85586,2006,03,18,12,00,AAXX 18124 85586 32960 01806 10142 20083 40110 57/// 333 20090 30/// 50260 55110=
85586,2006,03,18,15,00,AAXX 18154 85586 42960 02408 10196 20077 40109 54000=
85586,2006,03,18,18,00,AAXX 18184 85586 32960 02706 10186 20106 40117 53007=
85586,2006,03,18,21,00,AAXX 18214 85586 42930 02806 10184 20108 40135 53007=
85586,2006,03,19,00,00,AAXX 19004 85586 32960 00000 10140 20112 40131 52006 333 10234=
85586,2006,03,19,12,00,AAXX 19124 85586 31106 80000 10110 20103 40142 52/// 7464/ 886// 333 20100 30/// 50240 55108 56099 88703=
85586,2006,03,19,15,00,AAXX 19154 85586 41208 83006 10126 20117 40152 52010 74644 886// 333 56099 88706=
85586,2006,03,19,18,00,AAXX 19184 85586 41420 82806 10142 20130 40149 54003 71044 886// 333 56099 88710=
85586,2006,03,19,21,00,AAXX 19214 85586 41420 83106 10136 20118 40139 57009 71044 886// 333 56099 88712=
85586,2006,03,20,00,00,AAXX 20004 85586 31456 80000 10136 20118 40132 57008 70544 886// 333 10144 56099 88713=
85586,2006,03,20,12,00,AAXX 20124 85586 31408 20000 10099 20088 40128 52/// 7461/ 82500 333 20064 30/// 50210 55000 56700 82615=
85586,2006,03,20,15,00,AAXX 20154 85586 41220 83207 10137 20113 40149 52022 71041 886// 333 56799 88706=
85586,2006,03,20,21,00,AAXX 20214 85586 41356 83006 10162 20123 40141 57006 70522 86/// 333 56799 88709=
85586,2006,03,21,00,00,AAXX 21004 85586 31956 00204 10135 20113 40147 53005 70522 333 10168=
85586,2006,03,21,12,00,AAXX 21124 85586 11103 80803 10109 20100 40162 52/// 69904 7504/ 886// 333 20056 31/// 50240 55024 56099 70000 88703=
85586,2006,03,21,15,00,AAXX 21154 85586 41358 60204 10153 20109 40167 51005 70554 86600 333 56700 86708=
85586,2006,03,21,18,00,AAXX 21184 85586 11960 22812 10176 20117 40169 51003 69901 70254 82030 333 56060 82365=
85586,2006,03,21,21,00,AAXX 21214 85586 42960 02616 10166 20117 40161 58008=
85586,2006,03,22,00,00,AAXX 22004 85586 31956 00606 10123 20101 40172 51010 333 10179=
85586,2006,03,22,12,00,AAXX 22124 85586 12960 01103 10093 20074 40165 53/// 69904 333 20051 30/// 50230 55079 70000=
85586,2006,03,22,15,00,AAXX 22154 85586 42960 02809 10165 20103 40174 52011=
85586,2006,03,22,18,00,AAXX 22184 85586 32960 02807 10164 20103 40181 51007=
85586,2006,03,22,21,00,AAXX 22214 85586 42360 22611 10163 20112 40170 58011 82600 333 56700 82708=
85586,2006,03,23,00,00,AAXX 23004 85586 31356 83304 10144 20122 40178 51007 70500 886// 333 10187 56700 56700 88708=
85586,2006,03,23,12,00,AAXX 23124 85586 31425 82404 10122 20109 40176 52/// 7102/ 886// 333 20108 30/// 55108 56099 88708=
85586,2006,03,23,15,00,AAXX 23154 85586 41558 33106 10158 20118 40181 52006 70522 83500 333 56700 83625=
85586,2006,03,23,18,00,AAXX 23184 85586 32960 02610 10174 20113 40184 54003=
85586,2006,03,23,21,00,AAXX 23214 85586 42960 02616 10166 20117 40181 54003=
85586,2006,03,24,00,00,AAXX 24004 85586 32960 04004 10136 20111 40191 52009 333 10180=
85586,2006,03,24,12,00,AAXX 24124 85586 32960 01904 10136 20118 40191 53/// 333 20088 30/// 55080=
85586,2006,03,24,15,00,AAXX 24154 85586 42960 01814 10214 20087 40189 54001=
85586,2006,03,24,18,00,AAXX 24184 85586 32560 12612 10198 20088 40176 57014 81500 333 56600 81625=
85586,2006,03,24,21,00,AAXX 24214 85586 42960 02706 10200 20077 40157 57019=
85586,2006,03,25,00,00,AAXX 25004 85586 32960 10000 10166 20063 40160 55002 80001 333 10234 56006 81075=
85586,2006,03,25,12,00,AAXX 25124 85586 32960 02503 10109 20055 40139 53/// 333 20063 30/// 50330 55110=
85586,2006,03,25,15,00,AAXX 25154 85586 42960 02707 10206 20065 40139 51003=
85586,2006,03,25,18,00,AAXX 25184 85586 32960 02715 10174 20081 40151 52010=
85586,2006,03,25,21,00,AAXX 25214 85586 42960 02906 10166 20086 40168 52017=
85586,2006,03,26,00,00,AAXX 26004 85586 32958 03404 10128 20089 40172 51003 333 10208=
85586,2006,03,26,12,00,AAXX 26124 85586 32960 00000 10093 20071 40169 52/// 333 20047 30/// 50270 55113=
85586,2006,03,26,15,00,AAXX 26154 85586 42960 03007 10171 20081 40179 52012=
85586,2006,03,26,18,00,AAXX 26184 85586 32960 03009 10182 20101 40178 50001=
85586,2006,03,26,21,00,AAXX 26214 85586 42960 13607 10173 20078 40166 57012 80001 333 56006 81075=
85586,2006,03,27,00,00,AAXX 27004 85586 31956 00000 10136 20096 40168 54001 70500 333 10185=
85586,2006,03,27,12,00,AAXX 27124 85586 32960 02405 10150 20123 40161 52/// 333 20077 30/// 50210 55112=
85586,2006,03,27,15,00,AAXX 27154 85586 42960 02508 10476 20125 40174 52006=
85586,2006,03,27,18,00,AAXX 27184 85586 32960 02510 10176 20129 40166 58008=
85586,2006,03,27,21,00,AAXX 27214 85586 42960 02506 10174 20113 40154 57012=
85586,2006,03,28,00,00,AAXX 28004 85586 32960 00604 10125 20113 40160 52005 333 10190=
85586,2006,03,28,12,00,AAXX 28124 85586 32960 00000 10070 20062 40140 53/// 333 20038 30/// 50230 55107=
85586,2006,03,28,15,00,AAXX 28154 85586 42960 02806 10164 20110 40142 52005=
85586,2006,03,28,18,00,AAXX 28184 85586 32960 02808 10176 20119 40139 58003=
85586,2006,03,28,21,00,AAXX 28214 85586 42960 03105 10160 20126 40137 54002=
85586,2006,03,29,00,00,AAXX 29004 85586 32960 00000 10118 20099 40148 52010 333 10178=
85586,2006,03,29,12,00,AAXX 29124 85586 31156 80904 10102 20087 40153 53/// 7052/ 885// 333 20082 30/// 50260 55100 56099 88620=
85586,2006,03,29,15,00,AAXX 29154 85586 41556 83306 10124 20098 40163 52011 70522 885// 333 56099 88623=
85586,2006,03,29,18,00,AAXX 29184 85586 31558 72704 10146 20095 40161 58002 70522 87500 333 56600 87625=
85586,2006,03,29,21,00,AAXX 29214 85586 42560 23006 10148 20093 40159 54002 82500 333 56600 82626=
85586,2006,03,30,00,00,AAXX 30004 85586 32560 42504 10124 20098 40159 54000 84500 333 10160 56600 84626=
85586,2006,03,30,12,00,AAXX 30124 85586 32660 72404 10122 20089 40164 53/// 87500 333 20122 30/// 50210 55043 56000 87633=
85586,2006,03,30,15,00,AAXX 30154 85586 42560 72802 10140 20081 40173 52009 87500 333 56000 87630=
85586,2006,03,30,18,00,AAXX 30184 85586 32560 32910 10168 20074 40179 52007 82501 333 56606 82630=
85586,2006,03,30,21,00,AAXX 30214 85586 42560 22506 10162 20073 40173 58006 81501 333 5656606 81630=
85586,2006,03,31,00,00,AAXX 31004 85586 32960 20000 10120 20087 40172 54002 80001 333 10173 56006 82073=
85586,2006,03,31,12,00,AAXX 31124 85586 31940 01203 10074 20062 40187 52/// 333 20037 30/// 50210 55058=
85586,2006,03,31,15,00,AAXX 31154 85586 42960 02806 10151 20112 40195 51008=
85586,2006,03,31,18,00,AAXX 31184 85586 32960 02512 10167 20107 40182 58012=
85586,2006,03,31,21,00,AAXX 31214 85586 41458 43006 10198 20148 40143 57009 70555 84600 333 56700 88410=
85586,2006,04,01,12,00,AAXX 01124 85586 31240 10200 10069 20055 40182 52/// 7100/ 81600 333 20047 30/// 50210 55107 56700 81704=
85586,2006,04,01,15,00,AAXX 01154 85586 41220 12706 10144 20112 40187 52007 74000 81600 333 56700 81706=
85586,2006,04,01,18,00,AAXX 01184 85586 31340 83207 10140 20115 40184 58003 70540 886// 333 56700 88708=
85586,2006,04,01,21,00,AAXX 01214 85586 41356 82804 10144 20116 40170 57014 70542 886// 333 56799 88709=
85586,2006,04,02,00,00,AAXX 02004 85586 31340 83005 10126 20107 40168 58002 70522 826// 333 10175 56799 88707=
85586,2006,04,02,12,00,AAXX 02124 85586 31356 72204 10113 20104 40161 57/// 7102/ 83601 333 20113 30/// 50180 55033 56706 83708 84073=
85586,2006,04,02,15,00,AAXX 02154 85586 41950 32508 10156 20122 40159 57011 70511 80001 333 56006 83073=
85586,2006,04,02,18,00,AAXX 02184 85586 31358 73104 10138 20111 40151 54001 70522 84601 333 56706 84708 83073=
85586,2006,04,02,21,00,AAXX 02214 85586 42460 82907 10125 20097 40148 57003 886// 333 56799 88710=
85586,2006,04,03,00,00,AAXX 03004 85586 31358 80000 10118 20109 40150 54002 71022 886// 333 10158 56799 88708=
85586,2006,04,03,12,00,AAXX 03124 85586 31330 80000 10109 20103 40161 52/// 7102/ 886// 333 20109 30/// 50130 55043 56799 88707=
85586,2006,04,03,15,00,AAXX 03154 85586 41340 80703 10133 20113 40180 52019 70522 886// 333 56799 88707=
85586,2006,04,03,18,00,AAXX 03184 85586 32460 82704 10142 20115 40189 52009 885// 333 56799 88618=
85586,2006,04,03,21,00,AAXX 03214 85586 42560 72304 10152 20113 40182 58007 87500 333 56700 87620=
85586,2006,04,04,00,00,AAXX 04004 85586 32560 32304 10117 20104 40172 57010 83500 333 56700 83620=
85586,2006,04,04,12,00,AAXX 04124 85586 31205 80000 10086 20078 40174 52/// 7464/ 886// 333 20072 30/// 50200 55000 56099 88705=
85586,2006,04,04,15,00,AAXX 04154 85586 41440 23106 10140 20110 40171 54002 70544 82600 333 56600 82710=
85586,2006,04,04,18,00,AAXX 04184 85586 31458 23106 10160 20128 40160 57010 70544 82600 333 56600 82712=
85586,2006,04,04,21,00,AAXX 04214 85586 42960 02508 10160 20099 40156 56004=
85586,2006,04,05,00,00,AAXX 05004 85586 32960 00904 10116 20088 40170 52013 333 10178=
85586,2006,04,05,12,00,AAXX 05124 85586 32960 00000 10046 20034 40171 52/// 333 20028 30/// 50240 55071=
85586,2006,04,05,15,00,AAXX 05154 85586 42960 02706 10162 20083 40171 54003=
85586,2006,04,05,18,00,AAXX 05184 85586 32960 02412 10166 20093 40156 57015=
85586,2006,04,05,21,00,AAXX 05214 85586 42960 02706 10176 20096 40148 57008=
85586,2006,04,06,00,00,AAXX 06004 85586 32960 00404 10116 20088 40160 53011 333 10180=
85586,2006,04,06,12,00,AAXX 06124 85586 31220 10000 10056 20047 40148 53/// 7100/ 81600 333 20041 30/// 50220 55104 56700 81706=
85586,2006,04,06,15,00,AAXX 06154 85586 41220 13108 10135 20101 40155 52009 74040 81600 333 56700 81706=
85586,2006,04,06,18,00,AAXX 06184 85586 31960 02812 10161 20113 40160 51006 70244=
85586,2006,04,06,21,00,AAXX 06214 85586 41460 32907 10154 20120 40172 52009 70344 83500 333 56700 83612=
85586,2006,04,07,00,00,AAXX 07004 85586 31456 40000 10126 20104 40180 51008 70511 84600 333 10163 56700 84612=
85586,2006,04,07,12,00,AAXX 07124 85586 31558 80704 10131 20082 40211 52/// 7052/ 885// 333 20117 30/// 50200 55088 56799 88625=
85586,2006,04,07,15,00,AAXX 07154 85586 42560 22705 10152 20080 40217 52007 82500 333 56700 82625=
85586,2006,04,07,18,00,AAXX 07184 85586 32960 02709 10179 20099 40209 58007=
85586,2006,04,07,21,00,AAXX 07214 85586 42960 02514 10154 20104 40202 56008=
85586,2006,04,08,00,00,AAXX 08004 85586 31956 00000 10114 20091 40204 50001 70500 333 10182=
85586,2006,04,08,12,00,AAXX 08124 85586 32960 01404 10108 20102 40178 53/// 333 20076 30/// 50120 55082=
85586,2006,04,08,15,00,AAXX 08154 85586 42960 01306 10217 20123 40159 57016=
85586,2006,04,08,18,00,AAXX 08184 85586 32960 02613 10200 20135 40145 57015=
85586,2006,04,08,21,00,AAXX 08214 85586 42960 03004 10201 20141 40129 57016=
85586,2006,04,09,00,00,AAXX 09004 85586 32960 00904 10134 20116 40132 54001 333 10232=
85586,2006,04,09,12,00,AAXX 09124 85586 31104 83605 10117 20113 40147 53/// 7444/ 886// 333 20092 30/// 50180 55107 56899 88702=
85586,2006,04,09,15,00,AAXX 09154 85586 41130 80204 10128 20122 40153 52006 71042 886// 333 56899 88703=
85586,2006,04,09,18,00,AAXX 09184 85586 31240 82706 10140 20117 40150 58003 70542 886// 333 56799 88706=
85586,2006,04,09,21,00,AAXX 09214 85586 41356 82805 10130 20112 40141 57009 70522 886// 333 56799 88709=
85586,2006,04,10,00,00,AAXX 10004 85586 31350 83004 10117 20108 40147 57006 71022 886// 333 10142 56799 88707=
85586,2006,04,10,12,00,AAXX 10124 85586 31330 80404 10102 20097 40141 54/// 7102/ 886// 333 20102 30/// 50200 30/// 50200 55000 56099 88707=
85586,2006,04,10,15,00,AAXX 10154 85586 41330 83106 10114 20106 40158 52018 71022 886// 333 56099 88708=
85586,2006,04,10,18,00,AAXX 10184 85586 31556 83106 10136 20120 40145 58013 70522 885// 333 56699 88620=
85586,2006,04,10,21,00,AAXX 10214 85586 41456 83104 10126 20112 40149 53004 70522 885// 333 56699 88615=
85586,2006,04,11,00,00,AAXX 11004 85586 31456 83004 10120 20106 40151 54002 70522 885// 333 10141 56099 88613=
85586,2006,04,11,12,00,AAXX 11124 85586 31456 80904 10116 20101 40146 53/// 7052/ 885// 333 20114 30/// 50160 55000 56099 88615=
85586,2006,04,11,15,00,AAXX 11154 85586 41558 80504 10154 20132 40147 54001 70522 8453/ 333 56069 84623 85363=
85586,2006,04,11,18,00,AAXX 11184 85586 32560 72806 10152 20130 40140 57007 82530 333 56660 82630 87363=
85586,2006,04,11,21,00,AAXX 11214 85586 42560 73004 10146 20123 40139 54001 82530 333 56660 82630 87363=
85586,2006,04,12,00,00,AAXX 12004 85586 32560 80000 10140 20117 40142 54003 8153/ 333 10165 56069 81630 88360=
85586,2006,04,12,12,00,AAXX 12124 85586 31340 81103 10121 20106 40164 52/// 7052/ 8163/ 333 20107 30/// 50180 55005=
85586,2006,04,12,15,00,AAXX 12154 85586 41556 72705 10166 20131 40172 53009 70522 8213/ 333 56760 82820 87365=
85586,2006,04,12,18,00,AAXX 12184 85586 31556 82609 10157 20121 40172 50000 70522 8111/ 333 56769 81820 88462=
85586,2006,04,12,21,00,AAXX 12214 85586 41958 72706 10144 20116 40168 56005 70522 87030 333 56060 87362=
85586,2006,04,13,00,00,AAXX 13004 85586 11956 80000 10134 20107 40171 53003 69901 72522 8803/ 333 10168 56069 88365=
85586,2006,04,13,15,00,AAXX 13154 85586 42560 12709 10141 20089 40211 52012 81100 333 56700 81820=
85586,2006,04,13,18,00,AAXX 13184 85586 32960 03207 10154 20091 40220 51009=
85586,2006,04,13,21,00,AAXX 13214 85586 42960 02707 10139 20094 40210 56007=
85586,2006,04,14,00,00,AAXX 14004 85586 32560 22305 10113 20087 40223 52012 82500 333 10157 56700 82620=
85586,2006,04,14,12,00,AAXX 14124 85586 32960 01604 10057 20051 40233 53/// 333 20035 50230 55096=
85586,2006,04,14,15,00,AAXX 14154 85586 42960 01307 10158 20105 40223 58007=
85586,2006,04,14,18,00,AAXX 14184 85586 32960 02412 10186 20126 40201 57021=
85586,2006,04,14,21,00,AAXX 14214 85586 42960 02408 10159 20090 40185 57016=
85586,2006,04,15,00,00,AAXX 15004 85586 32960 00000 10108 20093 40188 54002 333 10202=
85586,2006,04,15,12,00,AAXX 15124 85586 32960 01304 10030 20023 40197 53/// 333 20014 30/// 50210 55096=
85586,2006,04,15,15,00,AAXX 15154 85586 42960 02807 10148 20087 40202 52009=
85586,2006,04,15,18,00,AAXX 15184 85586 32960 02408 10155 20111 40199 58003=
85586,2006,04,15,21,00,AAXX 15214 85586 42960 02308 10144 20104 40202 53003=
85586,2006,04,16,00,00,AAXX 16004 85586 32960 00504 10087 21077 40209 52006 333 10156=
85586,2006,04,16,12,00,AAXX 16124 85586 32960 01404 10066 20043 40199 53/// 333 20016 30/// 50160 55098=
85586,2006,04,16,15,00,AAXX 16154 85586 42960 02606 10170 20063 40197 54001=
85586,2006,04,16,18,00,AAXX 16184 85586 32960 02810 10172 20080 40190 57007=
85586,2006,04,16,21,00,AAXX 16214 85586 42960 03104 10158 20097 40189 54001=
85586,2006,04,17,00,00,AAXX 17004 85586 32960 00000 10110 20086 40199 52009 333 10192=
85586,2006,04,17,12,00,AAXX 17124 85586 32960 00902 10032 20022 40172 53/// 333 20032 30/// 50170 55105=
85586,2006,04,17,15,00,AAXX 17154 85586 41312 72506 10112 20106 40169 54000 71000 87600 333 56600 87708=
85586,2006,04,17,18,00,AAXX 17184 85586 32960 53002 10156 20094 40151 57017 80001 333 56006 85075=
85586,2006,04,17,21,00,AAXX 17214 85586 41456 83006 10132 20109 40158 53006 70522 885// 333 56699 88615=
85586,2006,04,18,18,00,AAXX 18184 85586 31556 82704 10126 20098 40187 52011 70522 885// 333 56799 88625=
85586,2006,04,18,21,00,AAXX 18214 85586 42560 80303 10135 20101 40175 58012 8153/ 333 56769 81620 88362=
85586,2006,04,19,00,00,AAXX 19004 85586 31956 80903 10133 20094 40174 55001 70522 8803/ 333 10139 56060 88362=
85586,2006,04,19,12,00,AAXX 19124 85586 32460 70000 10109 20081 40156 53/// 8253/ 333 20082 30/// 50150 55000 56769 82612 86365=
85586,2006,04,19,15,00,AAXX 19154 85586 42560 73504 10183 20147 40160 53005 85630 333 56760 85615 82362=
85586,2006,04,19,18,00,AAXX 19184 85586 32460 83204 10195 20154 40163 51004 8353/ 333 56760 83615 85362=
85586,2006,04,19,21,00,AAXX 19214 85586 41560 83207 10187 20163 40145 56019 70162 8153/ 333 56769 81620 88365=
85586,2006,04,20,00,00,AAXX 20004 85586 11340 83406 10152 20138 40154 51008 60011 75352 886// 333 10205 56799 88708=
85586,2006,04,20,12,00,AAXX 20124 85586 12560 61804 10110 20104 40191 53/// 60084 83501 333 20110 31/// 50100 55018 56606 70081 83620 83075=
85586,2006,04,20,15,00,AAXX 20154 85586 42560 11709 10173 20125 40203 52014 81100 333 56700 81820=
85586,2006,04,20,18,00,AAXX 20184 85586 32960 02209 10221 20123 40190 58012=
85586,2006,04,20,21,00,AAXX 20214 85586 42960 02310 10183 20126 40187 57005=
85586,2006,04,21,00,00,AAXX 21004 85586 32960 01804 10132 20114 40186 54001 333 10226=
85586,2006,04,21,12,00,AAXX 21124 85586 32960 02304 10095 20084 40180 53/// 333 20090 31/// 50140 55088=
85586,2006,04,21,15,00,AAXX 21154 85586 42960 01907 10189 20127 40179 54001=
85586,2006,04,21,18,00,AAXX 21184 85586 32960 02409 10246 20077 40160 57026=
85586,2006,04,21,21,00,AAXX 21214 85586 42960 02706 10209 20095 40146 57005=
85586,2006,04,22,00,00,AAXX 22004 85586 32960 00000 10190 20123 40157 53011 333 10280=
85586,2006,04,22,12,00,AAXX 22124 85586 32960 11804 10136 20084 40147 56/// 80002 333 20124 30/// 50210 55106 56006 81075=
85586,2006,04,22,15,00,AAXX 22154 85586 42960 11804 10222 20114 40147 54003 80002 333 56006 81075=
85586,2006,04,22,18,00,AAXX 22184 85586 32960 22706 10214 20138 40127 57020 80001 333 006 82075=
85586,2006,04,22,21,00,AAXX 22214 85586 42960 62408 10198 20136 40118 56010 80001 333 56006 86075=
85586,2006,04,23,00,00,AAXX 23004 85586 32960 62406 10156 20126 40118 54001 80001 333 10252 56006 86075=
85586,2006,04,23,12,00,AAXX 23124 85586 32960 01606 10148 20124 40109 53/// 333 20134 30/// 50190 55105=
85586,2006,04,23,15,00,AAXX 23154 85586 42960 03008 10174 20130 40123 52015=
85586,2006,04,23,18,00,AAXX 23184 85586 31340 32810 10162 20139 40144 51021 70522 83500 333 56600 81708 83618=
85586,2006,04,23,21,00,AAXX 23214 85586 42460 72506 10150 20121 40139 57006 87500 333 56600 87615=
85586,2006,04,24,00,00,AAXX 24004 85586 32460 40402 10122 20106 40139 54000 84500 333 10168 56000 84615=
85586,2006,04,24,12,00,AAXX 24124 85586 31240 81103 10114 20101 40176 52/// 7102/ 886// 333 20103 30/// 50160 55087 56799 88706=
85586,2006,04,24,15,00,AAXX 24154 85586 41340 82605 10127 20104 40190 52014 70522 886// 333 56799 88708=
85586,2006,04,24,18,00,AAXX 24184 85586 31356 63003 10152 20108 40171 58019 70522 86600 333 56700 86709=
85586,2006,04,24,21,00,AAXX 24214 85586 41456 82409 10135 20106 40187 53004 70522 885// 333 56799 88612=
85586,2006,04,25,00,00,AAXX 25004 85586 31940 00000 10093 20076 40195 51006 70522 333 10161=
85586,2006,04,25,12,00,AAXX 25124 85586 31958 01705 10105 20093 40191 51/// 7050/ 333 20069 30/// 50170 55030=
85586,2006,04,25,15,00,AAXX 25154 85586 41958 01307 10198 20123 40183 58005 70500=
85586,2006,04,25,18,00,AAXX 25184 85586 32960 02511 10193 20131 40167 57017=
85586,2006,04,25,21,00,AAXX 25214 85586 42960 22607 10205 20134 40156 56009=
85586,2006,04,26,00,00,AAXX 26004 85586 31940 00000 10142 20123 40165 53006 70500 333 10214=
85586,2006,04,26,12,00,AAXX 26124 85586 31957 00000 10114 20107 40132 54/// 7100/ 333 20078 30/// 50130 55104=
85586,2006,04,26,15,00,AAXX 26154 85586 41220 12510 10156 20130 40145 51014 74000 81600 333 56700 81704=
85586,2006,04,26,18,00,AAXX 26184 85586 31108 82906 10149 20136 40131 58015 74140 886// 333 56799 88703=
85586,2006,04,26,21,00,AAXX 26214 85586 41220 73406 10139 20113 40125 56006 70544 87600 333 56700 87704=
85586,2006,04,27,00,00,AAXX 27004 85586 31340 40305 10134 20123 40132 53007 70544 84600 333 10172 56700 84708=
85586,2006,04,27,12,00,AAXX 27124 85586 31457 80000 10126 20117 40183 52/// 7102/ 886// 333 20122 30/// 50130 55061 56799 88710=
85586,2006,04,27,15,00,AAXX 27154 85586 41456 83106 10155 20105 40195 52012 70522 886// 333 56799 88710=
85586,2006,04,27,18,00,AAXX 27184 85586 31558 83312 10163 20114 40187 58007 70522 886// 333 56799 88625=
85586,2006,04,27,21,00,AAXX 27214 85586 41556 83506 10151 20112 40191 51003 70522 885// 333 56799 88620=
85586,2006,04,28,12,00,AAXX 28124 85586 31456 82106 10144 20109 40192 53/// 7052/ 885// 333 20140 30/// 50130 55000 5099 88617=
85586,2006,04,28,15,00,AAXX 28154 85586 41558 71508 10170 20124 40198 52007 70522 87500 333 56500 87626=
85586,2006,04,28,18,00,AAXX 28184 85586 31958 32510 10174 20112 40181 58017 70511 80001 333 56006 83075=
85586,2006,04,28,21,00,AAXX 28214 85586 42960 62406 10172 20121 40171 57010 80001 333 56006 86075=
85586,2006,04,29,00,00,AAXX 29004 85586 32960 60000 10132 20111 40181 52009 80001 333 10212 56006 86075=
85586,2006,04,29,12,00,AAXX 29124 85586 32960 41806 10092 20078 40155 54/// 80001 333 20092 30/// 50200 55055 56006 84075=
85586,2006,04,29,15,00,AAXX 29154 85586 42960 32608 10170 20126 40143 57010 80001 333 56006 83075=
85586,2006,04,29,18,00,AAXX 29184 85586 32960 12708 10164 20092 40137 57006 80001 333 56006 81075=
85586,2006,04,29,21,00,AAXX 29214 85586 42960 12704 10142 20089 40141 53003 80001 333 56006 81075=
85586,2006,04,30,00,00,AAXX 30004 85586 32960 00000 10102 20081 40144 54002 333 10202=
85586,2006,04,30,12,00,AAXX 30124 85586 31956 01703 10078 20064 40134 53/// 7050/ 333 20054 30/// 50220 55094=
85586,2006,04,30,15,00,AAXX 30154 85586 41956 02905 10158 20091 40143 52011 70500=
85586,2006,04,30,18,00,AAXX 30184 85586 32960 03106 10166 20096 40152 51009=
85586,2006,04,30,21,00,AAXX 30214 85586 41958 03106 10155 20117 40149 53003 70500=
85586,2006,05,01,00,00,AAXX 01004 85586 31212 83204 10126 20113 40151 55001 71000 886// 333 10177 56799 88706=
85586,2006,05,01,12,00,AAXX 01124 85586 31220 81303 10112 20099 40147 52/// 7102/ 886// 333 20109 30/// 50160 55093 56799 88706=
85586,2006,05,01,15,00,AAXX 01154 85586 41340 83105 10120 20094 40163 52015 70522 886// 333 56799 88708=
85586,2006,05,01,18,00,AAXX 01184 85586 31340 83106 10135 20102 40163 50001 70522 886// 333 56799 88709=
85586,2006,05,01,21,00,AAXX 01214 85586 41440 82803 10136 20101 40159 58004 70522 885// 333 56799 85610 83615=
85586,2006,05,02,00,00,AAXX 02004 85586 31440 80000 10133 20099 40163 53004 70522 885// 333 10142 56799 88615=
85586,2006,05,02,12,00,AAXX 02124 85586 31430 80000 10116 20110 40168 53/// 7102/ 886// 333 20114 30/// 50090 55000 56799 88710=
85586,2006,05,02,15,00,AAXX 02154 85586 41430 80000 10124 20113 40174 52006 71022 886// 333 56799 88710=
85586,2006,05,02,18,00,AAXX 02184 85586 31450 82606 10130 20113 40161 57013 70522 886// 333 56799 88710=
85586,2006,05,02,21,00,AAXX 02214 85586 41440 82405 10124 20113 40159 54002 70522 886// 333 56799 88710=
85586,2006,05,03,00,00,AAXX 03004 85586 31430 82204 10120 20111 40157 54002 71022 886// 333 10131 56799 88710=
85586,2006,05,03,12,00,AAXX 03124 85586 31102 83304 10105 20101 40165 52/// 7444/ 886// 333 20104 30/// 50070 55000 56799 88702=
85586,2006,05,03,15,00,AAXX 03154 85586 41106 83106 10110 20103 40185 52021 74444 886// 333 56799 88703=
85586,2006,05,03,18,00,AAXX 03184 85586 31315 83108 10122 20114 40185 54000 71044 886// 333 56799 88709=
85586,2006,05,03,21,00,AAXX 03214 85586 41430 80000 10129 20122 40179 57006 71022 886// 333 56799 88710=
85586,2006,05,04,00,00,AAXX 04004 85586 31330 80000 10127 20123 40195 52015 71022 886// 333 10141 56799 88707=
85586,2006,05,04,12,00,AAXX 04124 85586 31320 80504 10108 20100 40189 7102/ 886// 333 20086 30/// 50100 55000 56099 88709=
85586,2006,05,04,15,00,AAXX 04154 85586 41450 83104 10127 20116 40202 52013 70522 885// 333 56799 88615=
85586,2006,05,04,18,00,AAXX 04184 85586 31556 82506 10147 20112 4019058012 70522 83502 333 56606 83620 86070=
85586,2006,05,04,21,00,AAXX 04214 85586 41958 82406 10138 20098 40183 56007 70522 8803/ 333 56069 88360=
85586,2006,05,05,00,00,AAXX 05004 85586 31958 82404 10124 20097 40185 54002 70522 8803/ 333 10149 56069 88359=
85586,2006,05,05,12,00,AAXX 05124 85586 31330 80000 10120 20108 40194 52/// 7052/ 886// 333 20120 30/// 50090 55000 56099 88708=
85586,2006,05,05,15,00,AAXX 05154 85586 41440 83404 10132 20107 40200 52006 70522 885// 333 56099 88618=
85586,2006,05,05,18,00,AAXX 05184 85586 31540 82606 10138 20107 40200 54000 70522 885// 333 56699 88630=
85586,2006,05,05,21,00,AAXX 05214 85586 41550 82404 10134 20106 40196 56004 70522 885// 333 56699 88630=
85586,2006,05,06,00,00,AAXX 06004 85586 31550 41806 10096 20073 40201 53004 70522 82530 333 10141 56460 82630 83362=
85586,2006,05,06,12,00,AAXX 06124 85586 31206 82203 10063 20053 40177 52/// 7424/ 886// 333 20044 30/// 50150 55000 56799 88704=
85586,2006,05,06,15,00,AAXX 06154 85586 41208 83003 10109 20099 40189 51014 74244 886// 333 56799 88704=
85586,2006,05,06,18,00,AAXX 06184 85586 31220 82806 10123 20101 40186 58003 70544 886// 333 56799 88706=
85586,2006,05,06,21,00,AAXX 06214 85586 41220 82605 10117 20097 40183 56003 70544 886// 333 56799 88708=
85586,2006,05,07,00,00,AAXX 07004 85586 31220 80000 10109 20097 40195 52011 71044 886// 333 10132 56799 88708=
85586,2006,05,07,12,00,AAXX 07124 85586 11206 81404 10086 20076 40199 53/// 69914 7425/ 886// 333 20083 31/// 50120 55000 56799 88704=
85586,2006,05,07,15,00,AAXX 07154 85586 41204 83004 10103 20094 40204 51005 74254 886// 333 56799 88704=
85586,2006,05,07,18,00,AAXX 07184 85586 31380 82805 10120 20092 40182 58020 70554 886// 333 56799 88708=
85586,2006,05,07,21,00,AAXX 07214 85586 41204 82803 10112 20101 40171 56011 74654 886// 333 56799 88704=
85586,2006,05,08,00,00,AAXX 08004 85586 11203 80000 10103 20097 40178 53006 69911 75154 886// 333 10122 56699 88704=
85586,2006,05,08,12,00,AAXX 08124 85586 11/02 90904 10073 20071 40175 53/// 69914 7454/ 89/// 333 20073 30/// 50060 55000 70001 89/01=
85586,2006,05,08,15,00,AAXX 08154 85586 41/01 92305 10088 20084 40181 52007 74544 89/// 333 89/01=
85586,2006,05,08,18,00,AAXX 08184 85586 31/03 92505 10100 20096 40165 58016 74544 89/// 333 89/02=
85586,2006,05,08,21,00,AAXX 08214 85586 41/02 92805 10106 20098 40162 53002 74544 89/// 333 89/01=
85586,2006,05,09,00,00,AAXX 09004 85586 31/01 90000 10105 20101 40173 52010 74544 89/// 333 10108 89/01=
85586,2006,05,09,12,00,AAXX 09124 85586 31/01 90000 10080 20076 40176 52/// 7454/ 89/// 333 20080 30/// 50030 55000 89/01=
85586,2006,05,09,15,00,AAXX 09154 85586 41/03 90000 10092 20088 40192 52015 74544 89/// 333 89/01=
85586,2006,05,09,18,00,AAXX 09184 85586 31130 83204 10101 20095 40183 58008 71042 886// 333 56799 88703=
85586,2006,05,09,21,00,AAXX 09214 85586 41110 83004 10100 20096 40182 54001 71022 886// 333 56799 88702=
85586,2006,05,10,00,00,AAXX 10004 85586 31/04 90000 10099 20095 40187 52005 74542 89/// 333 10103 89/01=
85586,2006,05,10,12,00,AAXX 10124 85586 11101 80000 10077 20073 40171 56/// 69984 7464/ 886// 333 20077 31/// 50080 55000 56099 70008 88702=
85586,2006,05,10,15,00,AAXX 10154 85586 41104 80000 10084 20079 40180 52009 74644 886// 333 56099 88702=
85586,2006,05,10,21,00,AAXX 10214 85586 41103 80000 10092 20088 40173 53004 74644 886// 333 56099 88703=
85586,2006,05,11,00,00,AAXX 11004 85586 31102 80000 10086 20083 40179 52006 74644 886// 333 10101 56099 88702=
85586,2006,05,11,12,00,AAXX 11124 85586 11106 81204 10080 20077 40199 53/// 69944 7465/ 886// 333 20080 31/// 50040 55000 56099 70004 88703=
85586,2006,05,11,15,00,AAXX 11154 85586 41209 81204 10096 20093 40204 51005 75044 886// 333 56099 88704=
85586,2006,05,11,18,00,AAXX 11184 85586 11320 80904 10108 20102 40186 57016 69911 71054 886// 333 56099 88707=
85586,2006,05,11,21,00,AAXX 11214 85586 41315 82604 10106 20098 40186 56001 71022 886// 333 56099 88708=
85586,2006,05,12,00,00,AAXX 12004 85586 31320 80000 10100 20093 40198 52011 71022 886// 333 10114 56099 88708=
85586,2006,05,12,12,00,AAXX 12124 85586 31420 80103 10104 20079 40209 53/// 7052/ 885// 333 20102 30/// 50110 55000 56799 88612=
85586,2006,05,12,15,00,AAXX 12154 85586 41316 82303 10104 20086 40227 52018 71022 886// 333 56799 88709=
85586,2006,05,12,18,00,AAXX 12184 85586 31330 81807 10119 20085 40202 58024 70522 886// 333 56799 88709=
85586,2006,05,12,21,00,AAXX 12214 85586 41440 71805 10119 20082 40185 56016 70522 87600 333 56700 87615=
85586,2006,05,13,00,00,AAXX 13004 85586 31456 41903 10103 20067 40186 55000 70522 84500 333 10123 56700 84615=
85586,2006,05,13,15,00,AAXX 13154 85586 41216 80703 10092 20078 40182 52014 71044 886// 333 56799 88706=
85586,2006,05,13,18,00,AAXX 13184 85586 31316 80404 10104 20086 40184 56002 71044 886// 333 56799 88707=
85586,2006,05,13,21,00,AAXX 13214 85586 41320 82304 10111 20098 40173 57010 71044 886// 333 56799 88707=
85586,2006,05,14,00,00,AAXX 14004 85586 31430 80000 10111 20079 40175 58002 70522 885// 333 10114 56799 88615=
85586,2006,05,14,12,00,AAXX 14124 85586 31440 80000 10095 20087 40192 53/// 7102/ 885// 333 20095 30/// 50070 55000 56799 88615=
85586,2006,05,14,15,00,AAXX 14154 85586 41430 80604 10113 20089 40190 52009 70522 885// 333 56799 88615=
85586,2006,05,14,18,00,AAXX 14184 85586 31450 80000 10129 20094 40195 58004 70522 885// 333 56799 88617=
85586,2006,05,14,21,00,AAXX 14214 85586 41450 30000 10128 20091 40191 57005 70511 83500 333 56700 83618=
85586,2006,05,15,00,00,AAXX 15004 85586 31440 80000 10100 20085 40198 53006 70522 885// 333 10139 56799 88615=
85586,2006,05,15,12,00,AAXX 15124 85586 31557 70806 10113 20079 40196 54/// 7052/ 87500 333 20092 30/// 50060 55000 56600 87625=
85586,2006,05,15,15,00,AAXX 15154 85586 41559 70000 10133 20096 40205 52009 70522 87500 333 56600 87625=
85586,2006,05,15,18,00,AAXX 15184 85586 32960 43207 10147 20097 40189 58015 83031 333 56066 83365=
85586,2006,05,15,21,00,AAXX 15214 85586 42960 73004 10139 20111 40190 54001 86031 333 56066 86365=
85586,2006,05,16,00,00,AAXX 16004 85586 32960 50000 10128 20110 40194 52003 85030 333 10156 56060 85363=
85586,2006,05,16,12,00,AAXX 16124 85586 32560 51204 10120 20104 40241 52/// 84530 333 20110 31/// 50090 55022 56360 84625=
85586,2006,05,16,15,00,AAXX 16154 85586 41556 22406 10168 20132 40249 51010 70511 82500 333 56500 82623=
85586,2006,05,16,18,00,AAXX 16184 85586 31958 32706 10209 20106 40216 57022 70511 80002 333 56006 83073=
85586,2006,05,16,21,00,AAXX 16214 85586 42960 62508 10162 20109 40219 57009 80002 333 56006 86073=
85586,2006,05,17,00,00,AAXX 17004 85586 32960 60000 10132 20107 40217 56003 80002 333 10213 56006 86073=
85586,2006,05,17,12,00,AAXX 17124 85586 32960 32006 10084 20070 40223 53/// 80001 333 20066 30/// 50130 55076 56006 83073=
85586,2006,05,17,15,00,AAXX 17154 85586 42960 21204 10162 20098 40221 54000 80001 333 56006 82073=
85586,2006,05,17,18,00,AAXX 17184 85586 32960 51506 10206 20048 40204 57015 80001 333 56006 85073=
85586,2006,05,17,21,00,AAXX 17214 85586 42960 42410 10170 20072 40208 53003 80001 333 56006 84075=
85586,2006,05,18,00,00,AAXX 18004 85586 32960 42204 10110 20076 40222 52012 80001 333 10211 56006 84073=
85586,2006,05,18,12,00,AAXX 18124 85586 32960 71903 10087 20054 40226 53/// 80001 333 20079 30/// 50190 55089 56006 87075=
85586,2006,05,18,15,00,AAXX 18154 85586 49260 71606 10158 20054 40217 58007 80001 333 56006 87075=
85586,2006,05,18,18,00,AAXX 18184 85586 32960 72112 10181 20035 40200 57016 80001 333 56006 87075=
85586,2006,05,19,12,00,AAXX 19124 85586 32960 71903 10051 20015 40217 52/// 87030 333 20043 30/// 50210 55051 56060 87362=
85586,2006,05,19,15,00,AAXX 19154 85586 41958 82804 10095 20040 40226 52010 70521 8803/ 333 56069 88362=
85586,2006,05,19,18,00,AAXX 19184 85586 31958 82307 10133 20050 40212 56013 70522 8803/ 333 56069 88365=
85586,2006,05,19,21,00,AAXX 19214 85586 42960 80000 10121 20053 40205 58007 8803/ 333 56069 88365=
85586,2006,05,20,00,00,AAXX 20004 85586 31960 82103 10096 20067 40216 52010 70522 8803/ 333 10135 56069 88365=
85586,2006,05,20,12,00,AAXX 20124 85586 31940 70000 10069 20046 40202 54/// 7052/ 87070 333 20069 30/// 50090 55000 56070 87365=
85586,2006,05,20,15,00,AAXX 20154 85586 42960 71604 10133 20091 40206 52005 86071 333 56076 86365=
85586,2006,05,20,18,00,AAXX 20184 85586 32960 72304 10148 20078 40192 57013 87070 333 56060 87365=
85586,2006,05,20,21,00,AAXX 20214 85586 42960 62004 10148 20080 40188 57004 83036 333 56066 83365 83270=
85586,2006,05,21,00,00,AAXX 21004 85586 32960 00000 10079 20059 40195 52005 333 10153=
85586,2006,05,21,12,00,AAXX 21124 85586 31930 60000 10067 20042 40187 53/// 7102/ 80001 333 20047 30/// 50110 55007 56006 86073=
85586,2006,05,21,15,00,AAXX 21154 85586 41956 60000 10131 20086 40192 52006 70522 80001 333 56006 86073=
85586,2006,05,21,18,00,AAXX 21184 85586 32960 22405 10148 20082 40183 58008 80001 333 56006 82073=
85586,2006,05,21,21,00,AAXX 21214 85586 42960 40000 10142 20102 40172 57011 83031 333 56066 83365=
85586,2006,05,22,00,00,AAXX 22004 85586 32960 30000 10108 20087 40177 57005 82031 333 10162 56066 82365=
85586,2006,05,22,12,00,AAXX 22124 85586 32960 40000 10066 20042 40163 54/// 80001 333 20050 30/// 50140 55072 56006 84075=
85586,2006,05,22,15,00,AAXX 22154 85586 42960 71504 10140 20060 40165 51004 87030 333 56060 87365=
85586,2006,05,22,18,00,AAXX 22184 85586 32960 82610 10174 20078 40155 57009 85032 333 56066 85365 83075=
85586,2006,05,22,21,00,AAXX 22214 85586 42960 82804 10138 20072 40147 57009 84032 333 56066 84365 85075=
85586,2006,05,23,00,00,AAXX 23004 85586 32960 83106 10114 20088 40169 52022 84032 333 10172 56066 84365 85075=
85586,2006,05,23,12,00,AAXX 23124 85586 11960 80910 10144 20075 40176 54/// 69904 7602/ 8803/ 333 20112 31/// 50100 55003 56079 70000 88362=
85586,2006,05,23,15,00,AAXX 23154 85586 41960 83610 10182 20081 40176 54000 70262 85032 333 56076 85362 84075=
85586,2006,05,23,18,00,AAXX 23184 85586 32960 82608 10212 20097 40155 57019 85032 333 56076 85362 84075=
85586,2006,05,23,21,00,AAXX 23214 85586 42960 80000 10156 20122 40171 52014 84032 333 56076 84362 85075=
85586,2006,05,24,00,00,AAXX 24004 85586 32960 80000 10140 20084 40182 52010 85032 333 10260 56066 85362 83075=
85586,2006,05,24,12,00,AAXX 24124 85586 32960 81203 10131 20084 40159 50/// 8803/ 333 20124 30/// 50220 55003 56069 88362=
85586,2006,05,24,15,00,AAXX 24154 85586 41958 83211 10141 20095 40173 53014 72522 8803/ 333 56069 88362=
85586,2006,05,24,18,00,AAXX 24184 85586 11960 81006 10170 20076 40150 57022 69901 8803/ 333 56079 88365=
85586,2006,05,24,21,00,AAXX 24214 85586 41960 80608 10173 20069 40121 57029 70382 8803/ 333 56079 88365=
85586,2006,05,25,00,00,AAXX 25004 85586 32956 63506 10152 20095 40146 53024 70522 86030 333 10181 56070 86365=
85586,2006,05,25,12,00,AAXX 25124 85586 11560 73612 10144 20102 40144 52/// 69904 7802/ 82250 333 20104 30/// 50210 55000 56770 82820 86360=
85586,2006,05,25,15,00,AAXX 25154 85586 41560 80314 10164 20113 40156 51013 78082 882// 333 56899 88820=
85586,2006,05,25,18,00,AAXX 25184 85586 11420 83604 10147 20132 40154 58003 60111 78188 882// 333 56899 88815=
85586,2006,05,25,21,00,AAXX 25214 85586 41540 80206 10150 20129 40153 55001 76288 882// 333 56899 88820=
85586,2006,05,26,00,00,AAXX 26004 85586 11420 83507 10149 20135 40173 52020 60191 76388 882// 333 10167 56899 88815=
85586,2006,05,26,12,00,AAXX 26124 85586 11458 80000 10144 20137 40189 53/// 60364 7102/ 885// 333 20144 32/// 50030 55000 56799 70356 88615=
85586,2006,05,26,15,00,AAXX 26154 85586 41330 83604 10150 20145 40200 52011 75022 886// 333 56799 85707 84615=
85586,2006,05,26,18,00,AAXX 26184 85586 11360 82604 10159 20144 40196 58004 69901 70252 886// 333 56799 83708 85615=
85586,2006,05,26,21,00,AAXX 26214 85586 41130 82404 10151 20146 40190 57006 71042 886// 333 56799 88703=
85586,2006,05,27,00,00,AAXX 27004 85586 31120 80000 10138 20132 40193 52003 71042 886// 333 10165 56799 88703=
85586,2006,05,27,12,00,AAXX 27124 85586 11240 80000 10125 20121 40183 54/// 69904 7102/ 886// 333 20108 31/// 50050 55000 56799 70000 88705=
85586,2006,05,27,15,00,AAXX 27154 85586 42460 51506 10163 20145 40181 54001 82601 333 56606 82710 83073=
85586,2006,05,27,18,00,AAXX 27184 85586 32960 12209 10196 20137 40164 57016 80001 333 56006 81073=
85586,2006,05,27,21,00,AAXX 27214 85586 42960 02505 10165 20132 40154 57014=
85586,2006,05,28,00,00,AAXX 28004 85586 31930 00000 10112 20104 40163 58011 71000 333 10198=
85586,2006,05,28,12,00,AAXX 28124 85586 31106 80604 10098 20092 40167 53/// 7464/ 886// 333 20098 31/// 50120 55075 56199 88703=
85586,2006,05,28,15,00,AAXX 28154 85586 41104 80000 10106 20100 40183 52017 74644 886// 333 56099 88703=
85586,2006,05,28,18,00,AAXX 28184 85586 31213 82704 10108 20102 40180 58003 71044 886// 333 56099 88704=
85586,2006,05,28,21,00,AAXX 28214 85586 41330 80000 10112 20104 40180 54003 71044 886// 333 56099 88707=
85586,2006,05,29,00,00,AAXX 29004 85586 31450 82204 10108 20098 40193 52009 70522 885// 333 10113 56099 88613=
85586,2006,05,29,12,00,AAXX 29124 85586 32560 71204 10110 20093 40191 56/// 82530 333 20108 31/// 50100 55000 56060 82528 85360=
85586,2006,05,29,15,00,AAXX 29154 85586 41558 51206 10140 20113 40196 52006 70522 84501 333 56406 84626=
85586,2006,05,29,18,00,AAXX 29184 85586 32560 62608 10146 20103 40175 58021 81501 333 56506 81626 86075=
85586,2006,05,29,21,00,AAXX 29214 85586 42560 72606 10146 20095 40179 53004 81502 333 56506 81623 87075=
85586,2006,05,30,00,00,AAXX 30004 85586 32960 70000 10104 20086 40189 52009 82032 333 10163 56066 82360 87075=
85586,2006,05,30,15,00,AAXX 30154 85586 41958 30000 10145 20101 40198 50001 70500 80001 333 56006 83075=
85586,2006,05,30,18,00,AAXX 30184 85586 31958 22507 10154 20108 40189 57009 80001 333 56006 82075=
85586,2006,05,30,21,00,AAXX 30214 85586 42960 12703 10149 20093 40169 57020 80001 333 56006 81075=
85586,2006,05,31,00,00,AAXX 31004 85586 31958 40000 10096 20083 40175 50001 70500 80001 333 10165 56006 84075=
85586,2006,05,31,12,00,AAXX 31124 85586 32960 61005 10098 20084 40150 54/// 86030 333 20062 31/// 50160 55090 56070 86362=
85586,2006,05,31,15,00,AAXX 31154 85586 42460 82505 10126 20110 40162 53007 8153/ 333 56779 81615 87362=
85586,2006,05,31,18,00,AAXX 31184 85586 32960 80203 10163 20107 40156 58008 8353/ 333 56779 83515 85362=
85586,2006,05,31,21,00,AAXX 31214 85586 42460 82904 10143 20109 40165 53008 8253/ 333 56779 82612 88362=
85586,2006,06,01,00,00,AAXX 01004 85586 31956 70000 10114 20088 40178 51013 70522 87030 333 10164 56070 87365=
85586,2006,06,01,12,00,AAXX 01124 85586 32960 81404 10110 20097 40180 53/// 8807/ 333 20102 30/// 50070 55018 56069 88365=
85586,2006,06,01,15,00,AAXX 01154 85586 42960 81105 10124 20100 40186 52006 8807/ 333 56069 88365=
85586,2006,06,01,18,00,AAXX 01184 85586 31959 82604 10149 20110 40176 58010 70522 8807/ 333 56069 88365=
85586,2006,06,01,21,00,AAXX 01214 85586 41957 80000 10138 20106 40178 53002 70522 8807/ 333 56069 88365=
85586,2006,06,02,00,00,AAXX 02004 85586 31957 80000 10115 20102 40182 52004 70522 8807/ 333 10153 56069 88365=
85586,2006,06,02,12,00,AAXX 02124 85586 32665 71507 10126 20098 40193 53/// 83570 333 20108 31/// 50090 55000 56660 83640 84363=
85586,2006,06,02,15,00,AAXX 02154 85586 42660 61905 10140 20104 40208 52015 81531 333 56666 81640=
85586,2006,06,02,18,00,AAXX 02184 85586 32960 12710 10164 20127 40188 58019 80001 333 56006 81073=
85586,2006,06,02,21,00,AAXX 02214 85586 42960 02508 10159 20127 40191 54002=
85586,2006,06,03,12,00,AAXX 03124 85586 31101 80000 10058 20054 40189 52/// 7464/ 886// 333 20050 31/// 50110 55069 56099 88702=
85586,2006,06,03,15,00,AAXX 03154 85586 41320 81204 10106 20098 40189 54002 71044 885// 333 56099 88608=
85586,2006,06,03,18,00,AAXX 03184 85586 31558 62706 10146 20103 40213 52024 70522 81531 333 56666 81620 85365=
85586,2006,06,03,21,00,AAXX 03214 85586 42960 82404 10132 20093 40223 52010 8803/ 333 56069 88365=
85586,2006,06,04,00,00,AAXX 04004 85586 32960 80000 10113 20088 40234 51011 8803/ 333 10148 56069 88365=
85586,2006,06,04,12,00,AAXX 04124 85586 32960 31404 10128 20083 40216 57/// 83030 333 20100 31/// 50080 55023 56060 83365=
85586,2006,06,04,15,00,AAXX 04154 85586 42960 11208 10186 20104 40210 56004 81030 333 56060 81365=
85586,2006,06,04,18,00,AAXX 04184 85586 32960 62710 10166 20080 40194 57016 80001 333 56006 86075=
85586,2006,06,04,21,00,AAXX 04214 85586 42960 72904 10146 20083 40190 56005 80001 333 56006 87075=
85586,2006,06,05,00,00,AAXX 05004 85586 32960 70000 10114 20092 40198 53007 80001 333 10206 56006 87075=
85586,2006,06,05,12,00,AAXX 05124 85586 32960 80903 10106 20077 40177 51/// 8153/ 333 20078 31/// 50180 55085 56769 81615 88362=
85586,2006,06,05,15,00,AAXX 05154 85586 41740 80905 10111 20095 40186 51009 76322 8802/ 333 56069 88456=
85586,2006,06,05,18,00,AAXX 05184 85586 11556 80910 10123 20107 40179 58007 60121 78062 8423/ 333 56559 84825 88359=
85586,2006,06,05,21,00,AAXX 05214 85586 41556 80503 10135 20113 40175 56004 78086 8423/ 333 56779 84820 84360=
85586,2006,06,06,00,00,AAXX 06004 85586 11556 80305 10143 20114 40177 52002 69931 78086 882// 333 10145 56799 88820=
85586,2006,06,06,12,00,AAXX 06124 85586 11460 83603 10152 20121 40169 52/// 60134 7602/ 8223/ 333 20128 31/// 50130 55000 5676/ 82815 88359=
85586,2006,06,06,15,00,AAXX 06154 85586 41560 80504 10163 20125 40166 56003 70362 8223/ 333 56769 82820 88360=
85586,2006,06,06,18,00,AAXX 06184 85586 11560 83305 10161 20125 40141 57024 69911 70262 8123/ 333 56779 81220 88362=
85586,2006,06,06,21,00,AAXX 06214 85586 41560 83410 10153 20120 40127 56015 70362 8223/ 333 56779 82220 88362=
85586,2006,06,07,00,00,AAXX 07004 85586 31558 83606 10151 20120 40132 51005 70522 882// 333 10169 56799 88820=
85586,2006,06,07,12,00,AAXX 07124 85586 32560 80207 10151 20129 40122 54/// 8527/ 333 20141 31/// 50070 55000 56889 85825 83362=
85586,2006,06,07,15,00,AAXX 07154 85586 41560 83612 10153 20127 40129 52007 70282=
85586,2006,06,07,18,00,AAXX 07184 85586 11440 83510 10134 20123 40133 52004 60121 76186 885// 333 56899 88617=
85586,2006,06,07,21,00,AAXX 07214 85586 41530 83208 10128 20121 40142 52009 76166 8802/ 333 56079 88520=
85586,2006,06,08,00,00,AAXX 08004 85586 11530 80307 10125 20121 40151 52009 60451 76366 8802/ 333 10158 56079 88520=
85586,2006,06,08,12,00,AAXX 08124 85586 11560 83604 10126 20120 40165 52/// 60844 7606/ 888// 333 20123 32/// 50030 55000 56799 70843 84820 85623=
85586,2006,06,08,15,00,AAXX 08154 85586 41550 82005 10125 20117 40184 52019 76166 888// 333 56799 83820 86623=
85586,2006,06,08,18,00,AAXX 08184 85586 11540 80905 10118 20112 40186 54002 60191 76166 888// 333 56799 82820 86625=
85586,2006,06,08,21,00,AAXX 08214 85586 41560 70205 10127 20116 40199 52012 70162 87800 333 56700 82823 85625=
85586,2006,06,09,00,00,AAXX 09004 85586 11560 71105 10119 20115 40218 52019 69991 78081 87800 333 10128 56700 82825 85627=
85586,2006,06,09,12,00,AAXX 09124 85586 12560 31604 10076 20069 40255 52/// 60244 82801 333 20076 32/// 50030 55001 56406 70236 81820=
85586,2006,06,09,15,00,AAXX 09154 85586 42560 21504 10130 20117 40262 52008 82800 333 56400 81820=
85586,2006,06,09,18,00,AAXX 09184 85586 32560 22606 10160 20097 40239 58021 82800 333 56500 81820=
85586,2006,06,09,21,00,AAXX 09214 85586 42560 22606 10142 20100 40236 56003 81201 333 56606 81820=
85586,2006,06,10,00,00,AAXX 10004 85586 32960 20000 10094 20073 40242 53004 80001 333 10162 56006 82075=
85586,2006,06,10,12,00,AAXX 10124 85586 31001 85586 31001 80000 10066 20062 40250 53/// 7464/ 886// 333 20050 32/// 50070 55086 56099 88///=
85586,2006,06,10,15,00,AAXX 10154 85586 41420 80000 10096 20088 40248 54001 71044 82531 333 56066 82610 84365 85075=
85586,2006,06,10,18,00,AAXX 10184 85586 31440 82604 10122 20110 40242 57005 70522 8553/ 333 56669 85615 87365=
85586,2006,06,11,12,00,AAXX 11124 85586 31908 41205 10067 20056 40195 54/// 7461/ 84030 333 20064 31/// 50130 55060 84362=
85586,2006,06,12,18,00,AAXX 12184 85586 32460 81103 10147 20087 40164 58003 8153/ 333 56689 81615 88362=
85586,2006,06,12,21,00,AAXX 12214 85586 42960 80805 10149 20108 40174 53010 8807/ 333 56069 84362 84465=
85586,2006,06,13,00,00,AAXX 13004 85586 31958 80000 10127 20099 40187 52013 70522 8801/ 333 10154 56069 88462=
85586,2006,06,13,12,00,AAXX 13124 85586 31958 61404 10102 20087 40171 7052/ 86030 333 20100 31/// 50050 55007 56060 86363=
85586,2006,06,13,15,00,AAXX 13154 85586 42970 70000 10128 20103 40198 52027 85031 333 56060 85365=
85586,2006,06,13,18,00,AAXX 13184 85586 32960 53105 10180 20121 40174 58022 83031 333 56066 83365=
85586,2006,06,13,21,00,AAXX 13214 85586 42960 22705 10158 20124 40178 52004 81031 333 56066 81365=
85586,2006,06,14,00,00,AAXX 14004 85586 32960 00000 10107 20095 40197 52017 333 10182=
85586,2006,06,14,12,00,AAXX 14124 85586 31/01 90000 10096 20092 40193 54/// 7454/ 89/// 333 20089 31/// 50080 55044 89/01=
85586,2006,06,14,15,00,AAXX 14154 85586 41930 62606 10130 20112 40193 54000 70542 80001 333 56006 86075=
85586,2006,06,14,18,00,AAXX 14184 85586 31950 62808 10151 20124 40183 57009 70522 80001 333 56006 86075=
85586,2006,06,14,21,00,AAXX 14214 85586 41440 82204 10132 20118 40191 53007 70522 886// 333 56699 88710=
85586,2006,06,15,00,00,AAXX 15004 85586 31202 80504 10118 20111 40198 52007 74642 886// 333 10154 56099 88704=
85586,2006,06,15,12,00,AAXX 15124 85586 11202 81204 10094 20088 40187 55/// 69924 7464/ 886// 333 20086 31/// 50050 55044 56099 70002 88704=
85586,2006,06,15,15,00,AAXX 15154 85586 41304 72404 10122 20114 40180 57006 74622 83601 333 56306 83707 86075=
85586,2006,06,15,18,00,AAXX 15184 85586 31357 42908 10156 20129 40159 57020 70522 82601 333 56606 82707 83075=
85586,2006,06,15,21,00,AAXX 15214 85586 42960 62804 10150 20121 40149 57011 80001 333 56006 86075=
85586,2006,06,16,00,00,AAXX 16004 85586 31920 40000 10112 20105 40147 54002 71011 80001 333 10170 56006 84075=
85586,2006,06,16,12,00,AAXX 16124 85586 11002 81004 10094 20090 40153 53/// 69924 7464/ 886// 333 20094 31/// 50070 55059 56099 70002 88701=
85586,2006,06,16,15,00,AAXX 16154 85586 41002 80000 10112 20108 40165 52013 74644 886// 333 56099 88701=
85586,2006,06,16,18,00,AAXX 16184 85586 31209 83108 10110 20114 40159 58006 74644 886// 333 56099 88704=
85586,2006,06,16,21,00,AAXX 16214 85586 41430 83608 10130 20123 40163 53004 71022 885// 333 56199 88610=
85586,2006,06,17,00,00,AAXX 17004 85586 31450 83604 10126 20111 40175 52013 70522 885// 333 10132 56099 88615=
85586,2006,06,17,12,00,AAXX 17124 85586 12560 80610 10131 20088 40206 52/// 69924 8213/ 333 20124 31/// 50120 55000 56769 82820 86359=
85586,2006,06,17,15,00,AAXX 17154 85586 41556 80907 10134 20102 40221 52015 70562 8215/ 333 56769 82820 88359=
85586,2006,06,17,18,00,AAXX 17184 85586 11556 82607 10154 20111 40211 56009 69901 75262 8465/ 333 56669 84710 88359=
85586,2006,06,17,21,00,AAXX 17214 85586 41558 60904 10147 20115 40218 53007 70156 82501 333 56706 72620 84075=
85586,2006,06,18,00,00,AAXX 18004 85586 11458 42505 10105 20093 40215 53003 69901 70552 82601 333 10167 56606 82710 83075=
85586,2006,06,18,12,00,AAXX 18124 85586 11256 81406 10115 20103 40192 56/// 69904 7052/ 8267/ 333 20099 31/// 50140 50001 56669 84462 84365=
85586,2006,06,18,15,00,AAXX 18154 85586 41556 81503 10141 20116 40183 56008 70522 82531 333 56766 82620 84365 83075=
85586,2006,06,18,18,00,AAXX 18184 85586 31556 82511 10170 20122 40173 57009 70522 81531 333 56766 81620 87075=
85586,2006,06,18,21,00,AAXX 18214 85586 41358 82604 10153 20117 40170 56004 70522 82631 333 56766 81708 85075=
85586,2006,06,19,00,00,AAXX 19004 85586 31558 40000 10118 20092 40178 53008 70522 81530 333 10172 56760 81620 84365=
85586,2006,06,19,12,00,AAXX 19124 85586 32560 70000 10091 20081 40196 53/// 83531 333 20070 31/// 50110 55019 56666 83623=
85586,2006,06,19,15,00,AAXX 19154 85586 42960 71504 10137 20115 40211 52017 84031 333 56066 84365 83073=
85586,2006,06,19,18,00,AAXX 19184 85586 32960 60000 10154 20115 40200 58011 83031 333 56066 83365 83073=
85586,2006,06,19,21,00,AAXX 19214 85586 42560 62405 10146 20126 40210 53010 81101 333 56606 81823 85073=
85586,2006,06,20,00,00,AAXX 20004 85586 32960 41604 10103 20092 40232 52020 80001 333 10158 56006 84073=
85586,2006,06,20,12,00,AAXX 20124 85586 31950 11405 10061 20057 40235 54/// 7100/ 80001 333 20045 31/// 50130 55022 56006 81073=
85586,2006,06,20,15,00,AAXX 20154 85586 42960 51504 10128 20110 40245 52012 80001 333 56006 85073=
85586,2006,06,20,18,00,AAXX 20184 85586 32960 51905 10167 20102 40239 58004 82031 333 56066 82365 83073=
85586,2006,06,20,21,00,AAXX 20214 85586 42960 11705 10161 20108 40243 53003 80001 333 56006 81073=
85586,2006,06,21,00,00,AAXX 21004 85586 32960 31804 10105 20086 40248 52003 80001 333 10170 56006 83073=
85586,2006,06,21,12,00,AAXX 21124 85586 32960 31604 10062 20049 40220 57/// 80001 333 20050 31/// 50100 55058 56006 83075=
85586,2006,06,21,15,00,AAXX 21154 85586 42960 21510 10110 20070 40216 54001 80001 333 56006 82075=
85586,2006,06,21,18,00,AAXX 21184 85586 32960 21906 10164 20052 40196 57020 80001 333 56006 82075=
85586,2006,06,21,21,00,AAXX 21214 85586 42960 41704 10162 20066 40180 57015 80002 333 56006 84073=
85586,2006,06,22,00,00,AAXX 22004 85586 32960 51204 10110 20050 40186 58005 80002 333 10182 56006 85075=
85586,2006,06,22,12,00,AAXX 22124 85586 32960 21508 10062 20041 40165 57/// 80001 333 20042 31/// 50110 55078 56006 82075=
85586,2006,06,22,15,00,AAXX 22154 85586 42960 10000 10130 20087 40176 52013 80001 333 56006 81075=
85586,2006,06,22,18,00,AAXX 22184 85586 32960 42610 10178 20109 40154 58021 80001 333 56006 84075=
85586,2006,06,22,21,00,AAXX 22214 85586 42960 42406 10152 20097 40153 54002 80001 333 56006 84075=
85586,2006,06,23,00,00,AAXX 23004 85586 32960 40804 10086 20062 40158 53004 80001 333 10192 56006 84075=
85586,2006,06,23,12,00,AAXX 23124 85586 31260 61404 10057 20044 40170 52/// 7014/ 81601 333 20034 31/// 50140 55091 56706 81704 86075=
85586,2006,06,23,15,00,AAXX 23154 85586 41560 82905 10121 20095 40187 52019 70342 87201 333 56706 87825=
85586,2006,06,23,18,00,AAXX 23184 85586 31558 83205 10129 20102 40172 58015 70542 882// 333 56799 88820=
85586,2006,06,23,21,00,AAXX 23214 85586 41556 80000 10124 20102 40177 53005 70522 885// 333 56799 88625=
85586,2006,06,24,00,00,AAXX 24004 85586 31456 82604 10118 20094 40183 51006 70522 885// 333 10135 56799 88615=
85586,2006,06,24,12,00,AAXX 24124 85586 11558 80404 10129 20095 40175 52/// 69914 7058/ 8325/ 333 20091 30/// 50120 55012 56779 70001 83820 85362=
85586,2006,06,24,15,00,AAXX 24154 85586 41556 80204 10126 20108 40174 55001 76382 882// 333 56799 88820=
85586,2006,06,24,18,00,AAXX 24184 85586 11320 83606 10127 20116 40177 53003 60131 75386 886// 333 56799 88708=
85586,2006,06,24,21,00,AAXX 24214 85586 41558 80811 10130 20108 40195 52017 70586 882// 333 56899 88825=
85586,2006,06,25,00,00,AAXX 25004 85586 11556 80911 10124 20099 40210 52015 60011 70565 882// 333 10134 56799 88820=
85586,2006,06,25,12,00,AAXX 25124 85586 11908 01304 10067 20063 40219 53/// 60154 7444/ 333 20067 32/// 50040 55000 70153=
85586,2006,06,25,15,00,AAXX 25154 85586 41960 01406 10121 20091 40216 54001 70240=
85586,2006,06,25,18,00,AAXX 25184 85586 31960 12307 10161 20106 40198 57017 70240 80001 333 56005 81075=
85586,2006,06,25,21,00,AAXX 25214 85586 42960 12605 10170 20120 40186 57011 80001 333 56005 81075=
85586,2006,06,26,00,00,AAXX 26004 85586 32960 00000 10102 20094 40190 54002 333 10171=
85586,2006,06,26,12,00,AAXX 26124 85586 32960 01504 10100 20087 40161 57/// 333 20072 31/// 50120 55087=
85586,2006,06,26,15,00,AAXX 26154 85586 42960 01504 10144 20100 40153 57007=
85586,2006,06,26,18,00,AAXX 26184 85586 32960 01810 10193 20109 40131 57021=
85586,2006,06,26,21,00,AAXX 26214 85586 42960 41805 10195 20129 40114 57016 82031 333 56055 82365=
85586,2006,06,27,00,00,AAXX 27004 85586 32960 51504 10161 20125 40113 54002 83031 333 10212 56055 83365=
85586,2006,06,27,12,00,AAXX 27124 85586 32560 70604 10082 20072 40157 52/// 87500 333 20058 31/// 50110 55086 56000 87630=
85586,2006,06,27,15,00,AAXX 27154 85586 42560 83106 10136 20113 40185 52029 885// 333 56699 88630=
85586,2006,06,27,18,00,AAXX 27184 85586 32560 80410 10146 20107 40187 55002 885// 333 56199 88630=
85586,2006,06,27,21,00,AAXX 27214 85586 42560 80000 10146 20100 40186 54001 885// 333 56099 88630=
85586,2006,06,28,00,00,AAXX 28004 85586 32560 80000 10114 20093 40189 54003 81531 333 10152 56066 81630 84365 85075=
85586,2006,06,28,12,00,AAXX 28124 85586 32960 30000 10082 20076 40181 57/// 80001 333 20072 31/// 50080 55000 56006 83075=
85586,2006,06,28,18,00,AAXX 28184 85586 31958 02806 10152 20113 40172 57008 70500=
85586,2006,06,28,21,00,AAXX 28214 85586 42960 02706 10142 20110 40169 55003=
85586,2006,06,29,00,00,AAXX 29004 85586 31920 20000 10088 20072 40172 53002 71000 80001 333 10162 56006 82075=
85586,2006,06,29,15,00,AAXX 29154 85586 41440 80906 10134 20110 40175 51007 70522 8353/ 333 56779 83615 85362=
85586,2006,06,29,18,00,AAXX 29184 85586 31456 80000 10145 20108 40178 51003 70522 8353/ 333 56779 83615 85362=
85586,2006,06,29,21,00,AAXX 29214 85586 41558 71212 10138 20093 40156 58022 78022 872// 333 56799 81215 88725=
85586,2006,06,30,00,00,AAXX 30004 85586 11956 62803 10118 20087 40167 51011 69911 70582 83031 333 10147 56076 83360 83075=
85586,2006,06,30,12,00,AAXX 30124 85586 11220 71005 10081 20067 40182 52/// 69914 7102/ 81630 333 20053 31/// 50070 55000 56760 81704 87362=
85586,2006,06,30,15,00,AAXX 30154 85586 41240 70906 10122 20102 40189 51008 70522 81630 333 56760 81704 86362=
85586,2006,06,30,18,00,AAXX 30184 85586 31256 62505 10147 20110 40186 58003 70522 81630 333 56660 81708 85362=
85586,2006,06,30,21,00,AAXX 30214 85586 41958 72606 10145 20107 40189 53003 70522 81031 333 56066 81362 86075=
85586,2006,07,01,00,00,AAXX 01004 85586 31940 80000 10111 20100 40195 51005 70522 83031 333 10166 56066 83362 85075=
85586,2006,07,01,12,00,AAXX 01124 85586 31958 81206 10111 20100 40203 54/// 7102/ 8802/ 333 20081 31/// 50110 55023 56069 88465=
85586,2006,07,01,15,00,AAXX 01154 85586 41959 72407 10150 20115 40202 54000 70522 85021 333 56066 85465=
85586,2006,07,01,18,00,AAXX 01184 85586 32960 51505 10208 20132 40171 57027 80001 333 56006 85073=
85586,2006,07,01,21,00,AAXX 01214 85586 42960 61704 10205 20147 40178 53004 80001 333 56006 86073=
85586,2006,07,02,00,00,AAXX 02004 85586 32960 50000 10130 20108 40185 52007 80001 333 10220 56006 85073=
85586,2006,07,02,12,00,AAXX 02124 85586 32960 51205 10140 20104 40190 53/// 80001 333 20111 31/// 50170 55027 56006 85073=
85586,2006,07,02,15,00,AAXX 02154 85586 42960 31807 10192 20122 40193 52004 80001 333 56006 83073=
85586,2006,07,02,18,00,AAXX 02184 85586 32960 31204 10244 20096 40174 58018 80001 333 56006 83073=
85586,2006,07,03,00,00,AAXX 03004 85586 32960 50000 10176 20114 40170 53003 80001 333 10270 56006 85073=
85586,2006,07,03,12,00,AAXX 03124 85586 32960 61204 10146 20100 40183 53/// 80001 333 20144 30/// 50120 55082 56006 86075=
85586,2006,07,03,15,00,AAXX 03154 85586 42960 71906 10176 20123 40187 52005 80001 333 56006 87075=
85586,2006,07,03,18,00,AAXX 03184 85586 32960 71806 10227 20119 40178 58007 80001 333 56006 87075=
85586,2006,07,03,21,00,AAXX 03214 85586 42960 71704 10236 20123 40167 56010 80001 333 56006 87075=
85586,2006,07,04,00,00,AAXX 04004 85586 32960 71906 10176 20072 40177 52006 80001 333 10248 56006 87075=
85586,2006,07,04,12,00,AAXX 04124 85586 32960 61406 10106 20078 40155 57/// 80001 333 20106 31/// 50130 55073 56006 86075=
85586,2006,07,04,15,00,AAXX 04154 85586 42960 61204 10180 20111 40147 56007 80001 333 56006 86075=
85586,2006,07,04,18,00,AAXX 04184 85586 32960 73108 10162 20102 40136 57011 80001 333 56006 87075=
85586,2006,07,04,21,00,AAXX 04214 85586 42460 73106 10148 20097 40138 54001 82501 333 56706 82617 87075=
85586,2006,07,05,00,00,AAXX 05004 85586 31940 70000 10110 20073 40141 54003 70522 80001 333 10198 56006 87075=
85586,2006,07,05,12,00,AAXX 05124 85586 31356 31104 10101 20077 40161 52/// 7051/ 83600 333 20083 31/// 50140 55091 56600 83708=
85586,2006,07,05,15,00,AAXX 05154 85586 41340 80703 10128 20106 40171 52011 70511 886// 333 56799 88708=
85586,2006,07,05,18,00,AAXX 05184 85586 31556 83606 10156 20110 40155 58015 70521 885// 333 56799 88620=
85586,2006,07,05,21,00,AAXX 05214 85586 41558 80305 10157 20102 40145 56010 70522 885// 333 56799 88625=
85586,2006,07,06,00,00,AAXX 06004 85586 31556 80507 10154 20098 40155 51009 70522 885// 333 10168 56799 88625=
85586,2006,07,06,12,00,AAXX 06124 85586 32560 83603 10153 20120 40160 53/// 882// 333 20148 31/// 50140 55010 56799 88820=
85586,2006,07,06,15,00,AAXX 06154 85586 41256 80307 10154 20117 40165 53005 70565 882// 333 56799 82706 88820=
85586,2006,07,06,18,00,AAXX 06184 85586 11560 83608 10164 20128 40155 56009 60011 70365 882// 333 56799 88820=
85586,2006,07,06,21,00,AAXX 06214 85586 41340 83618 10149 20136 40157 54001 75065 886// 333 56899 88708=
85586,2006,07,07,00,00,AAXX 07004 85586 11456 70408 10151 20122 40162 53005 60011 70555 87200 333 10167 56800 87815=
85586,2006,07,07,12,00,AAXX 07124 85586 11458 73610 10144 20130 40187 52/// 60164 7802/ 86201 333 20140 32/// 50070 55002 56806 70164 86817=
85586,2006,07,07,15,00,AAXX 07154 85586 41460 73508 10134 20124 40208 52020 78082 85201 333 56806 85817=
85586,2006,07,07,18,00,AAXX 07184 85586 11460 73606 10153 20136 40185 58022 60041 70282 86201 333 56706 86818=
85586,2006,07,07,21,00,AAXX 07214 85586 41460 83005 10131 20119 40188 53003 78082 87201 333 56706 87818=
85586,2006,07,08,00,00,AAXX 08004 85586 11460 70000 10131 20122 40191 54002 60034 70282 85201 333 10158 56706 85818=
85586,2006,07,08,12,00,AAXX 08124 85586 12460 80000 10099 20093 40237 52/// 60084 882// 333 20098 32/// 50040 55003 56799 70080 88815=
85586,2006,07,08,15,00,AAXX 08154 85586 41560 30804 10122 20098 40258 52022 70181 83200 333 56600 83823=
85586,2006,07,08,18,00,AAXX 08184 85586 11565 22805 10146 20085 40248 58009 60021 70280 82200 333 56600 82823=
85586,2006,07,08,21,00,AAXX 08214 85586 42565 22605 10137 20091 40251 53003 82200 333 56600 82825=
85586,2006,07,09,00,00,AAXX 09004 85586 32965 10000 10072 20056 40252 54002 80001 333 10149 56005 81073=
85586,2006,07,09,12,00,AAXX 09124 85586 12560 80000 10080 20068 40221 53/// 60024 8153/ 333 20060 32/// 50040 55070 56069 70022 81620 88362=
85586,2006,07,09,15,00,AAXX 09154 85586 41560 81206 10106 20086 40229 52009 78022 8153/ 333 56069 81620 88359=
85586,2006,07,09,18,00,AAXX 09184 85586 11560 81008 10122 20102 40213 58016 69921 70282 8153/ 333 56069 816326 88359=
85586,2006,07,09,21,00,AAXX 09214 85586 42860 80606 10124 20097 40203 57010 8803/ 333 56069 88357=
85586,2006,07,10,00,00,AAXX 10004 85586 32960 81006 10128 20093 40202 54001 8803/ 333 10142 56069 88359=
85586,2006,07,10,12,00,AAXX 10124 85586 12560 81206 10108 20083 40166 54/// 69924 8153/ 333 20108 32/// 50070 55000 56069 70002 81625 88361=
85586,2006,07,10,15,00,AAXX 10154 85586 42560 72804 10138 20106 40167 54001 81530 333 56060 81625 87361=
85586,2006,07,10,18,00,AAXX 10184 85586 32960 80000 10148 20117 40159 57008 8803/ 333 56069 88361=
85586,2006,07,10,21,00,AAXX 10214 85586 42960 80000 10154 20125 40141 57018 8803/ 333 56069 88362=
85586,2006,07,11,00,00,AAXX 11004 85586 32960 80000 10133 20106 40164 53023 8803/ 333 10154 56069 88362=
85586,2006,07,11,12,00,AAXX 11124 85586 11358 83610 10148 20128 40139 53/// 69924 7052/ 885// 333 20132 31/// 50120 55000 56799 82708 88615=
85586,2006,07,11,15,00,AAXX 11154 85586 41440 80505 10147 20132 40153 52014 78122 882// 333 56899 82815 88820=
85586,2006,07,11,18,00,AAXX 11184 85586 11456 83505 10151 20131 40156 53003 60021 78182 882// 333 56899 82815 88825=
85586,2006,07,11,21,00,AAXX 11214 85586 41556 80511 10147 20128 40122 58034 76188 8327/ 333 56879 83820 84460 84360=
85586,2006,07,12,00,00,AAXX 12004 85586 11540 83520 10151 20131 40112 58019 60111 76388 882// 333 10156 56899 88820=
85586,2006,07,12,12,00,AAXX 12124 85586 11520 82610 10131 20116 40160 52/// 60704 7608/ 882// 333 20126 32/// 50060 55000 56799 88820=
85586,2006,07,12,15,00,AAXX 12154 85586 41320 82405 10123 20113 40195 52034 75186 886// 333 56799 88709=
85586,2006,07,12,18,00,AAXX 12184 85586 11320 82506 10124 20117 40183 56011 60041 75286 886// 333 56799 88708=
85586,2006,07,12,21,00,AAXX 12214 85586 41458 71904 10111 20092 40189 53006 70565 81131 333 56766 81815 85362=
85586,2006,07,13,00,00,AAXX 13004 85586 11958 62203 10104 20087 40211 52020 69971 70555 86030 333 10134 56060 86362=
85586,2006,07,13,12,00,AAXX 13124 85586 12960 20000 10063 20057 40222 53/// 60054 80001 333 20045 32/// 50040 55000 56006 70054 82073=
85586,2006,07,13,15,00,AAXX 13154 85586 42960 51810 10096 20073 40228 52007 80001 333 56006 85073=
85586,2006,07,13,18,00,AAXX 13184 85586 32960 71606 10129 20078 40212 58015 85031 333 56066 85365 82075=
85586,2006,07,13,21,00,AAXX 13214 85586 42960 51704 10137 20071 40198 57013 80001 333 56006 85075=
85586,2006,07,14,00,00,AAXX 14004 85586 32960 21806 10087 20052 40200 54000 80001 333 10138 56006 82075=
85586,2006,07,14,12,00,AAXX 14124 85586 32960 81404 10069 20061 40155 57/// 85031 333 20045 31/// 50070 55026 56066 85365=
85586,2006,07,14,15,00,AAXX 14154 85586 42960 81405 10098 20076 40161 53007 85031 333 56066 85365 83070=
85586,2006,07,14,18,00,AAXX 14184 85586 32960 72408 10142 20104 40148 58012 83031 333 56066 83365 84075=
85586,2006,07,14,21,00,AAXX 14214 85586 42960 52507 10147 20117 40156 52008 82031 333 56066 82365 83075=
85586,2006,07,15,00,00,AAXX 15004 85586 32960 20000 10080 20074 40166 52009 80001 333 10157 56006 82075=
85586,2006,07,15,12,00,AAXX 15124 85586 31203 80906 10084 20073 40204 52/// 7444/ 886// 333 20061 31/// 50070 55041 56799 88704=
85586,2006,07,15,15,00,AAXX 15154 85586 41308 80000 10112 20104 40208 51004 74244 886// 333 56799 88707=
85586,2006,07,15,18,00,AAXX 15184 85586 31320 80605 10123 20107 40200 58008 71044 886// 333 56799 88708=
85586,2006,07,15,21,00,AAXX 15214 85586 41958 72407 10132 20112 40188 56011 70544 87030 333 56060 87365=
85586,2006,07,16,00,00,AAXX 16004 85586 31956 30000 10096 20077 40209 52019 70542 83030 333 10142 56060 83365=
85586,2006,07,16,12,00,AAXX 16124 85586 32960 60000 10084 20078 40205 53/// 82031 333 20066 32/// 50070 55003 56066 82365 85075=
85586,2006,07,16,15,00,AAXX 16154 85586 42960 82404 10122 20110 40216 52011 82032 333 56066 82365 87075=
85586,2006,07,16,18,00,AAXX 16184 85586 32960 71606 10193 20079 40181 57033 80002 333 56006 87075=
85586,2006,07,16,21,00,AAXX 16214 85586 42960 71804 10188 20073 40180 54001 80002 333 56006 87075=
85586,2006,07,17,00,00,AAXX 17004 85586 32960 72004 10122 20081 40189 53008 80002 333 20200 56006 87075=
85586,2006,07,17,12,00,AAXX 17124 85586 32960 71207 10098 20071 40184 52/// 80001 333 20067 31/// 50120 55041 56006 87075=
85586,2006,07,17,15,00,AAXX 17154 85586 42960 71308 10163 20101 40196 51013 80001 333 56006 87075=
85586,2006,07,17,18,00,AAXX 17184 85586 32960 72606 10173 20118 40184 58011 80001 333 56006 87075=
85586,2006,07,17,21,00,AAXX 17214 85586 42960 42704 10179 20127 40181 80001 333 56006 84075=
85586,2006,07,18,00,00,AAXX 18004 85586 31956 02703 10116 20094 40192 52009 70511 333 10198=
85586,2006,07,18,12,00,AAXX 18124 85586 32960 11307 10094 20080 40195 50/// 81030 333 20079 31/// 50140 55092 56060 81365=
85586,2006,07,18,15,00,AAXX 18154 85586 42960 01603 10177 20133 40185 58007=
85586,2006,07,18,18,00,AAXX 18184 85586 32960 02504 10249 20132 40165 52018=
85586,2006,07,18,21,00,AAXX 18214 85586 42960 01905 10237 20132 40149 57015=
85586,2006,07,19,00,00,AAXX 19004 85586 31958 01803 10149 20102 40168 52015 70500 333 10254=
85586,2006,07,19,12,00,AAXX 19124 85586 32960 01304 10115 20102 40140 53/// 333 20110 31/// 50110 55097=
85586,2006,07,19,15,00,AAXX 19154 85586 42960 01905 10170 20118 40148 52009=
85586,2006,07,19,18,00,AAXX 19184 85586 32960 03007 10164 20126 40150 54002=
85586,2006,07,19,21,00,AAXX 19214 85586 41257 73605 10140 20128 40159 52008 71011 87600 333 56700 87705=
85586,2006,07,20,00,00,AAXX 20004 85586 31258 80000 10128 20119 40164 52005 71022 886// 333 10190 56799 88705=
85586,2006,07,20,12,00,AAXX 20124 85586 31104 80704 10107 20100 40186 52/// 7444/ 886// 333 20107 31/// 50110 55073 56799 88703=
85586,2006,07,20,15,00,AAXX 20154 85586 41110 80905 10111 20106 40203 52016 71042 886// 333 56799 88703=
85586,2006,07,20,18,00,AAXX 20184 85586 31458 80000 10147 20127 40195 58007 70542 886// 333 56799 88610=
85586,2006,07,20,21,00,AAXX 20214 85586 42460 70000 10142 20125 40189 57006 87600 333 56700 87610=
85586,2006,07,21,00,00,AAXX 21004 85586 32360 80000 10133 20124 40198 52008 886// 333 10156 56799 88708=
85586,2006,07,21,12,00,AAXX 21124 85586 31002 80000 10109 20103 40177 56/// 7464/ 886// 333 20109 31/// 50070 55003 56099 88701=
85586,2006,07,21,15,00,AAXX 21154 85586 41103 80000 10118 20113 40180 53003 74644 886// 333 56099 88702=
85586,2006,07,21,18,00,AAXX 21184 85586 31215 83104 10127 20122 40177 54003 71044 886// 333 56099 88705=
85586,2006,07,21,21,00,AAXX 21214 85586 41440 83604 10126 20110 40177 54000 70522 8353/ 333 56069 83612 86360=
85586,2006,07,22,00,00,AAXX 22004 85586 32960 80904 10114 20098 40191 52013 8803/ 333 10130 56069 88360=
85586,2006,07,22,12,00,AAXX 22124 85586 12660 80000 10098 20087 40214 52/// 60054 8353/ 333 20098 32/// 50080 55000 56069 70053 83633 88360=
85586,2006,07,22,15,00,AAXX 22154 85586 42560 72004 10120 20087 40226 52013 83830 333 56560 81820 83633 87360=
85586,2006,07,22,18,00,AAXX 22184 85586 32560 71706 10132 20067 40218 58008 83830 333 56060 81820 83633 87360=
85586,2006,07,22,21,00,AAXX 22214 85586 42560 80000 10134 20059 40212 56006 8123/ 333 56069 81820 88360=
85586,2006,07,23,00,00,AAXX 23004 85586 32960 60000 10104 20063 40216 54003 86030 333 10138 56060 86360=
85586,2006,07,23,12,00,AAXX 23124 85586 32960 10000 10026 20016 40202 56/// 81030 333 20026 31/// 50070 55000 56060 81360=
85586,2006,07,23,15,00,AAXX 23154 85586 42960 03104 10106 20063 40203 54004=
85586,2006,07,23,18,00,AAXX 23184 85586 32960 02410 10126 20062 40193 57010=
85586,2006,07,23,21,00,AAXX 23214 85586 42560 12606 10119 20050 40182 57010 81500 333 56600 81630=
85586,2006,07,24,00,00,AAXX 24004 85586 32560 30000 10070 20046 40188 53004 81501 333 10128 56006 81630 83075=
85586,2006,07,24,12,00,AAXX 24124 85586 32560 71303 10056 20045 40161 57/// 82530 333 20054 31/// 50120 55093 82620 85362=
85586,2006,07,24,15,00,AAXX 24154 85586 42560 80000 10105 20065 40165 51004 8253/ 333 56769 82625 86362=
85586,2006,07,24,18,00,AAXX 24184 85586 32560 63109 10125 20064 40154 58011 81130 333 56880 81820 86362=
85586,2006,07,24,21,00,AAXX 24214 85586 42560 73209 10121 20065 40146 56008 85530 333 56880 85625 82362=
85586,2006,07,25,00,00,AAXX 25004 85586 32556 83604 10111 20069 40156 52010 70522 885// 333 10129 56899 88625=
85586,2006,07,25,12,00,AAXX 25124 85586 11550 70000 10123 20099 40136 53/// 60024 7802/ 87200 333 20100 32/// 50100 55016 56800 70015 87830=
85586,2006,07,25,15,00,AAXX 25154 85586 41560 70204 10133 20093 40139 51003 70382 87200 333 56800 87827=
85586,2006,07,25,18,00,AAXX 25184 85586 11556 83607 10117 20106 40132 57007 60041 78082 882// 333 56899 88825=
85586,2006,07,25,21,00,AAXX 25214 85586 41558 80407 10121 20103 40121 57011 78082 882// 333 56899 88827=
85586,2006,07,26,00,00,AAXX 26004 85586 11550 80000 10116 20109 40119 54002 60081 78082 882// 333 10138 56899 88825=
85586,2006,07,26,12,00,AAXX 26124 85586 11560 80904 10069 20057 40167 52/// 60604 7028/ 882// 333 20069 32/// 50060 55009 56899 70597 88827=
85586,2006,07,26,15,00,AAXX 26154 85586 41558 80908 10073 20062 40191 52024 78082 885// 333 56899 88827=
85586,2006,07,26,18,00,AAXX 26184 85586 11540 83304 10075 20063 40201 52010 60121 78182 882// 333 56899 88827=
85586,2006,07,26,21,00,AAXX 26214 85586 41560 71505 10078 20054 40205 52004 70282 87200 333 56700 87825=
85586,2006,07,27,00,00,AAXX 27004 85586 11550 81406 10073 20061 40235 52029 60041 78082 882// 333 10081 56799 88825=
85586,2006,07,27,12,00,AAXX 27124 85586 12560 21206 10040 20028 40236 53/// 60174 81230 333 20040 32/// 50040 55000 56060 70173 81820=
85586,2006,07,27,15,00,AAXX 27154 85586 42560 11204 10110 20062 40239 52006 81500 333 56000 81625=
85586,2006,07,27,21,00,AAXX 27214 85586 42560 32610 10126 20052 40228 56001 81101 333 56606 81820 83075=
85586,2006,07,28,00,00,AAXX 28004 85586 32560 70000 10084 20053 40233 53004 81101 333 10138 56005 81820 87075=
85586,2006,07,28,12,00,AAXX 28124 85586 32560 31804 10042 20030 40249 52/// 81531 333 20042 32/// 50110 55094 56066 81630 83365=
85586,2006,07,28,15,00,AAXX 28154 85586 42960 11406 10116 20063 40262 52016 80001 333 56006 81075=
85586,2006,07,28,18,00,AAXX 28184 85586 32960 01307 10153 20059 40258 58003=
85586,2006,07,28,21,00,AAXX 28214 85586 42960 12410 10132 20073 40253 57006 80002 333 56006 81075=
85586,2006,07,29,00,00,AAXX 29004 85586 32960 01904 10072 20041 40258 54003 333 10157=
85586,2006,07,29,12,00,AAXX 29124 85586 32960 71304 10052 20027 40224 55/// 80001 333 20027 31/// 50110 55097 56006 87075=
85586,2006,07,29,15,00,AAXX 29154 85586 42960 72107 10099 20049 40240 52017 80001 333 56006 87075=
85586,2006,07,29,18,00,AAXX 29184 85586 32960 73004 10134 20057 40228 58011 80001 333 56006 87075=
85586,2006,07,29,21,00,AAXX 29214 85586 42960 42405 10125 20058 40224 56004 82031 333 56066 82365 82075=
85586,2006,07,30,00,00,AAXX 30004 85586 31956 30000 10064 20038 40233 53007 70511 83030 333 10136 56060 83365=
85586,2006,07,30,12,00,AAXX 30124 85586 32960 00904 10019 20004 40231 57/// 333 20003 34/// 50130 55067=
85586,2006,07,30,15,00,AAXX 30154 85586 41960 03404 10106 20068 40222 56006 70500=
85586,2006,07,30,18,00,AAXX 30184 85586 32960 02509 10146 20081 40206 57015=
85586,2006,07,30,21,00,AAXX 30214 85586 42960 52407 10128 20076 40184 57022 80001 333 56006 85075=
85586,2006,07,31,00,00,AAXX 31004 85586 31956 60000 10068 20045 40182 56004 70510 80001 333 10148 56006 86075=
85586,2006,07,31,12,00,AAXX 31124 85586 31958 30000 10025 20020 40201 53/// 7100/ 80001 333 20025 31/// 50100 55089 56005 83075=
85586,2006,07,31,18,00,AAXX 31184 85586 32960 22704 10134 20084 40194 58018 80001 333 56005 82075=
85586,2006,07,31,21,00,AAXX 31214 85586 42960 32607 10128 20073 40193 54001 80001 333 56005 83073=
85586,2006,08,01,00,00,AAXX 01004 85586 32960 20000 10066 20054 40211 52016 80001 333 20138 56005 82073=
85586,2006,08,01,12,00,AAXX 01124 85586 31957 71505 10065 20055 40168 57/// 7102/ 85021 333 20028 31/// 50120 55092 56066 85465=
85586,2006,08,01,15,00,AAXX 01154 85586 41957 81504 10104 20086 40176 52009 70522 85021 333 56066 85465 83070=
85586,2006,08,01,18,00,AAXX 01184 85586 31957 73005 10148 20109 40168 58007 70522 85021 333 56066 85465=
85586,2006,08,01,21,00,AAXX 01214 85586 41940 70000 10128 20105 40168 54000 70522 83021 333 56066 83465 84070=
85586,2006,08,02,00,00,AAXX 02004 85586 31950 70000 10107 20101 40176 57019 71022 83021 333 10151 56066 83465 84070=
85586,2006,08,02,12,00,AAXX 02124 85586 32960 60404 10106 20075 40217 52/// 82031 333 20096 31/// 50070 55017 56066 82365 86075=
85586,2006,08,02,15,00,AAXX 02154 85586 42960 70204 10140 20078 40231 52015 84032 333 56066 84361 86075=
85586,2006,08,02,18,00,AAXX 02184 85586 32960 72906 10156 20088 40226 58005 82032 333 56066 82361 87075=
85586,2006,08,02,21,00,AAXX 02214 85586 42960 83004 10144 20093 40224 56002 82032 333 56066 82365 87075=
85586,2006,08,03,00,00,AAXX 03004 85586 32960 80000 10112 20093 40217 57008 83032 333 10163 56066 83365 87075=
85586,2006,08,03,12,00,AAXX 03124 85586 31930 81204 10080 20072 40169 56/// 7102/ 85032 333 20062 31/// 50100 55038 56076 85365 86075=
85586,2006,08,03,15,00,AAXX 03154 85586 41940 80000 10120 20100 40186 52015 70522 84032 333 56076 84365 86075=
85586,2006,08,03,18,00,AAXX 03184 85586 32960 73010 10154 20120 40180 55003 87030 333 56070 87365=
85586,2006,08,03,21,00,AAXX 03214 85586 42560 62906 10144 20114 40181 54001 83530 333 56670 83625 86365=
85586,2006,08,04,00,00,AAXX 04004 85586 32560 83104 10130 20113 40195 52013 8153/ 333 10172 56679 81625 88365=
85586,2006,08,04,12,00,AAXX 04124 85586 11540 81007 10122 20107 40217 52/// 60044 7808/ 882// 333 20121 32/// 50120 55013 56699 70045 88820=
85586,2006,08,04,15,00,AAXX 04154 85586 41558 71204 10139 20112 40214 58002 70588 84530 333 56660 84625 83365=
85586,2006,08,04,18,00,AAXX 04184 85586 11460 61811 10169 20102 40202 58011 69921 70288 81130 333 56760 81815 85365=
85586,2006,08,04,21,00,AAXX 04214 85586 41560 61805 10164 20108 40194 56008 70181 81130 333 56760 81820 86365=
85586,2006,08,05,00,00,AAXX 05004 85586 31958 51904 10124 20083 40193 56012 70511 85030 333 10171 56060 85365=
85586,2006,08,05,12,00,AAXX 05124 85586 12960 80000 10117 20089 40143 55/// 69924 8807/ 333 20106 31/// 50130 55019 56060 70002 88362=
85586,2006,08,05,15,00,AAXX 05154 85586 41958 83304 10137 20103 40148 51005 70588 8807/ 333 56069 88362=
85586,2006,08,05,18,00,AAXX 05184 85586 31458 82506 10153 20108 40136 56012 70522 8213/ 333 56769 82815 88362=
85586,2006,08,05,21,00,AAXX 05214 85586 41958 83204 10134 20097 40126 56010 70522 8803/ 333 56069 88362=
85586,2006,08,06,00,00,AAXX 06004 85586 31956 80000 10119 20098 40148 52022 70522 8803/ 333 10155 056069 88365=
85586,2006,08,06,12,00,AAXX 06124 85586 32460 80000 10115 20096 40133 53/// 885// 333 20110 31/// 50080 55000 56799 88618=
85586,2006,08,06,15,00,AAXX 06154 85586 42560 80305 10127 20089 40151 52018 8357/ 333 56779 83633 85365=
85586,2006,08,06,18,00,AAXX 06184 85586 32560 80110 10136 20107 40149 54002 8257/ 333 56779 82633 86365=
85586,2006,08,06,21,00,AAXX 06214 85586 41430 83009 10114 20107 40173 52024 76062 885// 333 56799 88615=
85586,2006,08,07,00,00,AAXX 07004 85586 11560 80000 10104 20096 40213 52038 60161 70262 882// 333 10137 56799 88820=
85586,2006,08,07,12,00,AAXX 07124 85586 11907 00000 10050 20046 40215 54/// 60174 7424/ 333 20050 32/// 50050 55000 70167=
85586,2006,08,07,15,00,AAXX 07154 85586 41960 31606 10118 20088 40213 55000 70344 80001 333 56006 83075=
85586,2006,08,07,18,00,AAXX 07184 85586 31960 11708 10150 20075 40182 58030 70240 80001 333 56006 81075=
85586,2006,08,07,21,00,AAXX 07214 85586 42960 42510 10134 20090 40172 57010 80001 333 56006 81075=
85586,2006,08,08,00,00,AAXX 08004 85586 32960 30000 10074 20055 40176 58002 80001 333 10153 56006 83075=
85586,2006,08,08,12,00,AAXX 08124 85586 12560 70204 10064 20053 40150 56/// 69914 81531 333 20024 32/// 50090 55098 56066 70001 81626 84365 85075=
85586,2006,08,08,15,00,AAXX 08154 85586 42560 70110 10125 20076 40100 52012 81531 333 56766 81625 85365=
85586,2006,08,08,18,00,AAXX 08184 85586 11560 73606 10118 20081 40166 51006 69971 72582 84530 333 56760 84625 87362=
85586,2006,08,08,21,00,AAXX 08214 85586 41520 83506 10100 20084 40184 52018 76382=
85586,2006,08,09,00,00,AAXX 09004 85586 11560 70306 10116 20088 40195 52010 60081 70262 83530 333 10132 56770 83620 86359=
85586,2006,08,09,12,00,AAXX 09124 85586 11556 70904 10084 20076 40255 52/// 60224 7606/ 84830 333 20084 32/// 50050 55000 56160 70219 83820 83625 85360=
85586,2006,08,09,15,00,AAXX 09154 85586 41560 60811 10121 20081 40280 52027 70166 82201 333 56706 82820 84075=
85586,2006,08,09,21,00,AAXX 09214 85586 42560 22408 10144 20078 40239 56025 81501 333 56506 81620=
85586,2006,08,10,00,00,AAXX 10004 85586 32960 32206 10096 20072 40235 56005 80001 333 10160 56006 83075=
85586,2006,08,10,12,00,AAXX 10124 85586 12960 81105 10079 20062 40201 55/// 69934 8807/ 333 20054 32/// 50110 55087 56069 70003 88362=
85586,2006,08,10,15,00,AAXX 10154 85586 42560 80804 10113 20077 40206 56004 8257/ 333 56769 82625 88359=
85586,2006,08,10,18,00,AAXX 10184 85586 32560 83105 10138 20088 40182 57023 8153/ 333 56769 81625 88362=
85586,2006,08,10,21,00,AAXX 10214 85586 41560 83506 10127 20077 40182 53009 72522 8227/ 333 56769 82825 87360=
85586,2006,08,11,00,00,AAXX 11004 85586 11540 80506 10114 20074 40185 56006 69981 76388 333 10141 56799 88825=
85586,2006,08,11,12,00,AAXX 11124 85586 12560 80503 10117 20092 40178 52/// 60124 882// 333 20096 32/// 50080 55003 56799 70120 88820=
85586,2006,08,11,15,00,AAXX 11154 85586 42560 33605 10154 20120 40179 54001 82130 333 56760 82820 81362=
85586,2006,08,11,18,00,AAXX 11184 85586 31240 83211 10151 20122 40184 51005 71022 888// 333 56799 82704 86820=
85586,2006,08,11,21,00,AAXX 11214 85586 41460 53303 10151 20118 40188 53004 72022 84130 333 56760 81815 84825 81365=
85586,2006,08,12,00,00,AAXX 12004 85586 11956 40905 10121 20095 40198 51009 69991 70555 84030 333 10165 56060 84365=
85586,2006,08,12,12,00,AAXX 12124 85586 12960 41505 10083 20077 40182 54/// 69994 80001 333 20072 31/// 50070 55029 56066 70009 84073=
85586,2006,08,12,15,00,AAXX 12154 85586 42960 61204 10134 20111 40180 50007 80001 333 56006 86073=
85586,2006,08,12,21,00,AAXX 12214 85586 42960 72404 10140 20104 40156 57019 82011 333 56066 82465 85070=
85586,2006,08,13,00,00,AAXX 13004 85586 32960 50000 10104 20093 40153 57004 80001 333 10153 56006 85070=
85586,2006,08,13,12,00,AAXX 13124 85586 32560 80505 10106 20094 40158 53/// 8252/ 333 20065 31/// 50080 55029 56669 82620 86465=
85586,2006,08,13,15,00,AAXX 13154 85586 41440 80000 10120 20111 40178 52020 78182 8427/ 333 56669 84817 85363=
85586,2006,08,13,18,00,AAXX 13184 85586 11460 80905 10122 20111 40189 52011 60051 70282 8527/ 333 56669 85818 84363=
85586,2006,08,13,21,00,AAXX 13214 85586 41560 70000 10132 20107 40205 52015 78082 84270 333 56660 84820 83365=
85586,2006,08,14,00,00,AAXX 14004 85586 11558 70000 10110 20099 40218 52013 69921 70282 84230 333 10136 56660 84820 83365=
85586,2006,08,14,12,00,AAXX 14124 85586 12460 40000 10060 20052 40235 52/// 60054 84030 333 22050 32/// 50060 55002 56060 70053 84362=
85586,2006,08,14,15,00,AAXX 14154 85586 42460 31610 10124 20102 40237 51004 83530 333 56360 83615=
85586,2006,08,14,18,00,AAXX 14184 85586 32460 31608 10151 20086 40212 57024 83501 333 56306 83615=
85586,2006,08,14,21,00,AAXX 14214 85586 42560 61810 10158 20068 40188 57023 83502 333 56406 83623 85075=
85586,2006,08,15,00,00,AAXX 15004 85586 32960 72308 10110 20082 40182 57009 80002 333 20162 56006 87075=
85586,2006,08,15,12,00,AAXX 15124 85586 32960 10000 10030 20020 40183 53/// 81030 333 20030 32/// 50080 55085 56060 81363=
85586,2006,08,15,15,00,AAXX 15154 85586 42560 12606 10109 20079 40195 52014 81500 333 56600 81620=
85586,2006,08,15,18,00,AAXX 15184 85586 32560 22710 10130 20073 40198 54003 82500 333 56600 82625=
85586,2006,08,15,21,00,AAXX 15214 85586 42560 12508 10122 20068 40214 52016 81500 333 56600 81630=
85586,2006,08,16,00,00,AAXX 16004 85586 32960 00000 10072 20054 40240 52025 333 10134=
85586,2006,08,16,12,00,AAXX 16124 85586 32960 00000 10031 20015 40252 52/// 333 20022 31/// 50120 55111=
85586,2006,08,16,15,00,AAXX 16154 85586 41956 00504 10124 20087 40253 50000 70500=
85586,2006,08,16,18,00,AAXX 16184 85586 32960 02514 10139 20087 40240 58008=
85586,2006,08,16,21,00,AAXX 16214 85586 42960 02411 10134 20114 40228 57013=
85586,2006,08,17,00,00,AAXX 17004 85586 31958 80000 10077 20055 40237 53008 70500 333 10146=
85586,2006,08,17,12,00,AAXX 17124 85586 32960 01105 10053 20040 40216 54/// 333 20014 31/// 50140 55101=
85586,2006,08,17,15,00,AAXX 17154 85586 42960 01606 10136 20074 40219 51006=
85586,2006,08,17,18,00,AAXX 17184 85586 32960 02508 10171 20104 40194 57024=
85586,2006,08,17,21,00,AAXX 17214 85586 42960 02406 10168 20103 40178 57016=
85586,2006,08,18,00,00,AAXX 18004 85586 32958 02006 10118 20061 40183 53004 70500 333 10216=
85586,2006,08,18,12,00,AAXX 18124 85586 32960 01505 10052 20048 40178 52/// 333 20024 31/// 50090 55106=
85586,2006,08,18,15,00,AAXX 18154 85586 42960 00000 10141 20091 40181 52005=
85586,2006,08,18,18,00,AAXX 18184 85586 32960 22508 10191 20124 40166 58016 80001 333 56005 82075=
85586,2006,08,18,21,00,AAXX 18214 85586 42960 11505 10190 20130 40159 57007 80001 333 56005 81075=
85586,2006,08,19,00,00,AAXX 19004 85586 32960 00000 10111 20090 40175 52015 333 10196=
85586,2006,08,19,12,00,AAXX 19124 85586 32960 00000 10077 20057 40181 52/// 333 20068 31/// 50120 55101=
85586,2006,08,19,15,00,AAXX 19154 85586 42960 01505 10181 20110 40185 52006=
85586,2006,08,19,18,00,AAXX 19184 85586 32960 01708 10241 20106 40168 58014=
85586,2006,08,19,21,00,AAXX 19214 85586 42960 01814 10242 20110 40159 57009=
85586,2006,08,20,00,00,AAXX 20004 85586 32960 01805 10181 20129 40170 53008 333 10249=
85586,2006,08,20,12,00,AAXX 20124 85586 32960 01506 10124 20087 40154 56/// 333 20120 31/// 50130 55106=
85586,2006,08,20,15,00,AAXX 20154 85586 42960 01406 10196 20126 40156 53004=
85586,2006,08,20,18,00,AAXX 20184 85586 32960 02606 10198 20126 40142 58014=
85586,2006,08,20,21,00,AAXX 20214 85586 42960 03106 10180 20120 40139 56004=
85586,2006,08,21,00,00,AAXX 21004 85586 32960 00000 10120 20097 40158 52018 333 10218=
85586,2006,08,21,12,00,AAXX 21124 85586 31001 81904 10106 20098 40174 52/// 7464/ 886// 333 20106 31/// 50140 55105 56099 88701=
85586,2006,08,21,15,00,AAXX 21154 85586 41104 80404 10116 20109 40178 54004 74644 886// 333 56099 88703=
85586,2006,08,21,18,00,AAXX 21184 85586 31220 83106 10124 20111 40179 54001 74644 886// 333 56099 88706=
85586,2006,08,21,21,00,AAXX 21214 85586 41320 83104 10126 20112 40185 52006 71022 886// 333 56099 88708=
85586,2006,08,22,00,00,AAXX 22004 85586 31320 80000 10124 20104 40195 52010 71022 886// 333 10128 56099 88707=
85586,2006,08,22,12,00,AAXX 22124 85586 31220 81604 10121 20105 40180 52/// 7102/ 886// 333 20118 31/// 50120 55000 50099 88706=
85586,2006,08,22,15,00,AAXX 22154 85586 41320 80904 10133 20111 40186 51006 71022 886// 333 56799 88708=
85586,2006,08,22,18,00,AAXX 22184 85586 31320 83105 10139 20112 40175 56009 71022 886// 333 56799 88708=
85586,2006,08,22,21,00,AAXX 22214 85586 41320 83006 10127 20104 40174 55001 71022 886// 333 56799 88707=
85586,2006,08,23,00,00,AAXX 23004 85586 11220 83104 10124 20105 40172 50002 69901 75022 886// 333 10143 56799 88706=
85586,2006,08,23,12,00,AAXX 23124 85586 11320 80403 10116 20106 40166 52/// 69944 7505/ 886// 333 20113 31/// 50080 55000 56799 70004 88707=
85586,2006,08,23,15,00,AAXX 23154 85586 41340 80303 10123 20103 40170 51004 72055 886// 333 56799 88709=
85586,2006,08,23,18,00,AAXX 23184 85586 11340 82505 10130 20099 40156 57014 69921 70555 886// 333 56799 88710=
85586,2006,08,23,21,00,AAXX 23214 85586 41340 82404 10131 20098 40151 56005 70552 886// 333 56799 88710=
85586,2006,08,24,00,00,AAXX 24004 85586 31440 82603 10124 20102 40158 52007 70522 885// 333 10133 56799 88615=
85586,2006,08,24,12,00,AAXX 24124 85586 31558 80000 10112 20101 40155 53/// 7102/ 885// 333 20112 31/// 50080 55000 56799 88620=
85586,2006,08,24,15,00,AAXX 24154 85586 41557 82806 10126 20096 40165 52010 70522 885// 333 56799 88620=
85586,2006,08,24,18,00,AAXX 24184 85586 31559 83606 10136 20089 40163 54002 70522 885// 333 56799 88620=
85586,2006,08,24,21,00,AAXX 24214 85586 41557 80000 10128 20103 40157 57007 70522 885// 333 56799 88620=
85586,2006,08,25,00,00,AAXX 25004 85586 31457 80000 10126 20115 40171 53014 71022 885// 333 10137 56799 88618=
85586,2006,08,25,12,00,AAXX 25124 85586 31958 70000 10097 20089 40188 52/// 7102/ 84031 333 20094 31/// 50070 55000 56066 84363 83070=
85586,2006,08,25,15,00,AAXX 25154 85586 41559 70000 10151 20116 40200 52013 70522 85531 333 56666 85627=
85586,2006,08,25,18,00,AAXX 25184 85586 32560 83505 10144 20116 40194 58006 8551/ 333 56669 85627 83365=
85586,2006,08,25,21,00,AAXX 25214 85586 42560 53305 10143 20515 40201 53007 85500 333 56600 85627=
85586,2006,08,26,00,00,AAXX 26004 85586 32560 40000 10110 20100 40200 52008 83501 333 10152 56606 83627=
85586,2006,08,26,12,00,AAXX 26124 85586 32660 70000 10084 20078 40188 56/// 83531 333 20062 31/// 50100 55024 56066 83640 83360 85075=
85586,2006,08,26,15,00,AAXX 26154 85586 42560 52506 10138 20112 40189 54002 83501 333 56606 83625 85075=
85586,2006,08,26,18,00,AAXX 26184 85586 32560 42610 10152 20111 40177 57012 82501 333 56606 82623 83075=
85586,2006,08,26,21,00,AAXX 26214 85586 42960 32606 10154 20110 40172 56005 80001 333 56006 83075=
85586,2006,08,27,00,00,AAXX 27004 85586 32560 40804 10126 20106 40185 52013 84500 333 10164 56000 84623=
85586,2006,08,27,15,00,AAXX 27154 85586 42560 12506 10120 20083 40210 51004 81500 333 56000 81620=
85586,2006,08,27,18,00,AAXX 27184 85586 32560 12512 10156 20094 40192 57017 81500 333 56600 81620=
85586,2006,08,27,21,00,AAXX 27214 85586 42960 02610 10146 20093 40184 56008=
85586,2006,08,28,00,00,AAXX 28004 85586 32960 00000 10100 20079 40185 54000 333 10158=
85586,2006,08,28,12,00,AAXX 28124 85586 32960 31104 10076 20060 40150 52/// 80001 333 20048 31/// 50130 55089 56006 83075=
85586,2006,08,28,15,00,AAXX 28154 85586 41956 42803 10156 20104 40150 54002 70500 80001 333 56006 84075=
85586,2006,08,28,18,00,AAXX 28184 85586 32960 23007 10161 20098 40141 58009 80001 333 56006 82075=
85586,2006,08,28,21,00,AAXX 28214 85586 42960 03807 10144 20102 40149 53007=
85586,2006,08,29,12,00,AAXX 29124 85586 31556 80103 10133 20092 40165 52/// 7052/ 885// 333 20123 31/// 50130 55095 56799 88620=
85586,2006,08,29,15,00,AAXX 29154 85586 41358 80204 10141 20095 40173 51008 70522 888// 333 56799 82808 88620=
85586,2006,08,29,18,00,AAXX 29184 85586 31558 83112 10147 20099 40175 55002 70522 888// 333 56799 88825=
85586,2006,08,29,21,00,AAXX 29214 85586 41458 83305 10134 20102 40176 54001 70522 882// 333 56799 82815 88825=
85586,2006,08,30,00,00,AAXX 30004 85586 31656 80505 10137 20083 40184 51008 70522 885// 333 10149 56799 88625=
85586,2006,08,30,12,00,AAXX 30124 85586 32560 70000 10108 20085 40203 52/// 8553/ 333 20108 31/// 50090 55000 56770 85627=
85586,2006,08,30,15,00,AAXX 30154 85586 42560 83604 10134 20109 40223 52020 8653/ 333 56779 88627=
85586,2006,08,30,18,00,AAXX 30184 85586 32560 83605 10159 20117 40219 58003 8453/ 333 56779 84627 85363=
85586,2006,08,30,21,00,AAXX 30214 85586 42560 83303 10135 20112 40223 53004 8253/ 333 56779 82625 87363=
85586,2006,08,31,00,00,AAXX 31004 85586 32560 80000 10125 20097 40222 54002 8253/ 333 10160 56449 82627 86365=
85586,2006,08,31,12,00,AAXX 31124 85586 32560 80000 10095 20077 40182 57/// 8257/ 333 20080 31/// 50080 55007 56779 82627 87363=
85586,2006,08,31,15,00,AAXX 31154 85586 42560 70604 10149 20096 40183 53002 82171 333 56776 82827 83365=
85586,2006,08,31,18,00,AAXX 31184 85586 11560 73305 10149 20102 40163 58020 69911 72582 84270 333 56770 84827 83365=
85586,2006,08,31,21,00,AAXX 31214 85586 41530 83305 10115 20104 40173 53010 78182 882// 333 56799 88820=
85586,2006,09,01,00,00,AAXX 01004 85586 11558 82305 10117 20092 40206 52032 60171 70588 882// 333 10163 56799 88820=
85586,2006,09,01,12,00,AAXX 01124 85586 11958 11004 10051 20044 40265 52/// 60204 80001 333 20036 32/// 50060 55020 56006 70200 81075=
85586,2006,09,01,15,00,AAXX 01154 85586 42560 11208 10134 20054 40261 56002 81500 333 56300 81625=
85586,2006,09,01,18,00,AAXX 01184 85586 32560 11804 10162 20113 40248 57012 81500 333 56400 81630=
85586,2006,09,01,21,00,AAXX 01214 85586 42960 02310 10164 20059 40232 57016=
85586,2006,09,02,00,00,AAXX 02004 85586 32960 02304 10094 20076 40242 53008 333 10170=
85586,2006,09,02,12,00,AAXX 02124 85586 32960 71904 10066 20053 40227 53/// 80002 333 20042 31/// 50140 55105 56006 87075=
85586,2006,09,02,15,00,AAXX 02154 85586 42960 71708 10132 20070 40224 54001 80002 333 56006 87075=
85586,2006,09,02,18,00,AAXX 02184 85586 32960 62612 10156 20094 40212 57011 80002 333 56006 86075=
85586,2006,09,02,21,00,AAXX 02214 85586 42960 31812 10172 20039 40205 56006 80001 333 56006 83075=
85586,2006,09,03,00,00,AAXX 03004 85586 32960 11804 10104 20058 40212 53004 80001 333 10184 56006 81075=
85586,2006,09,03,12,00,AAXX 03124 85586 32960 01503 10043 20032 40218 53/// 333 20023 31/// 50140 55084=
85586,2006,09,03,15,00,AAXX 03154 85586 42960 02905 10133 20072 40218 51003=
85586,2006,09,03,18,00,AAXX 03184 85586 32960 02714 10141 20077 40210 58007=
85586,2006,09,03,21,00,AAXX 03214 85586 42960 02512 10131 20076 40200 57011=
85586,2006,09,04,00,00,AAXX 04004 85586 32960 00000 10083 20069 40207 51006 333 10146=
85586,2006,09,04,12,00,AAXX 04124 85586 32960 71404 10064 20041 40178 53/// 80001 333 20031 31/// 50140 55107 56006 87075=
85586,2006,09,04,15,00,AAXX 04154 85586 41958 43203 10143 20088 40184 52006 70411 333 56006 84075=
85586,2006,09,04,18,00,AAXX 04184 85586 32960 72608 10158 20095 40169 58006 80001 333 56006 87075=
85586,2006,09,04,21,00,AAXX 04214 85586 42960 72705 10145 20089 40171 55001 80001 333 56006 87075=
85586,2006,09,05,00,00,AAXX 05004 85586 32960 53103 10101 20068 40182 52010 80001 333 10168 56006 85075=
85586,2006,09,05,12,00,AAXX 05124 85586 31958 72504 10068 20060 40184 53/// 7102/ 80001 333 20052 31/// 50130 55101 56006 87075=
85586,2006,09,05,15,00,AAXX 05154 85586 41957 70000 10133 20115 40186 52004 70522 80001 333 56006 87075=
85586,2006,09,05,18,00,AAXX 05184 85586 31959 72405 10150 20104 40186 54000 70522 80001 333 56006 87075=
85586,2006,09,05,21,00,AAXX 05214 85586 42960 70000 10139 20106 40178 57008 84031 333 56066 84365 83073=
85586,2006,09,06,00,00,AAXX 06004 85586 32960 70000 10115 20102 40177 54001 87030 333 10151 56060 87365=
85586,2006,09,06,12,00,AAXX 06124 85586 31959 80000 10088 20080 40175 53/// 7102/ 87031 333 20086 31/// 50100 55029 56066 87365=
85586,2006,09,06,15,00,AAXX 06154 85586 41959 80000 10122 20108 40189 52015 70522 87031 333 56066 87365=
85586,2006,09,06,18,00,AAXX 06184 85586 32560 72609 10137 20107 40195 52006 82131 333 56666 82822 84365=
85586,2006,09,06,21,00,AAXX 06214 85586 42560 40000 10149 20087 40193 54002 81131 333 56066 81823=
85586,2006,09,07,00,00,AAXX 07004 85586 32960 10000 10100 20089 40200 52005 81031 333 56153 56060 81365=
85586,2006,09,07,12,00,AAXX 07124 85586 32960 61304 10064 20045 40185 52/// 80002 333 20064 31/// 50110 50033 56006 86075=
85586,2006,09,07,15,00,AAXX 07154 85586 42960 60000 10136 20082 40192 52007 80002 333 56006 86075=
85586,2006,09,07,18,00,AAXX 07184 85586 32960 52610 10164 20115 40184 58007 80002 333 56006 85075=
85586,2006,09,07,21,00,AAXX 07214 85586 42560 32610 10156 20118 40187 56003 81121 333 56666 81820=
85586,2006,09,08,00,00,AAXX 08004 85586 32960 22306 10120 20108 40203 52014 82030 333 10166 56060 82365=
85586,2006,09,08,12,00,AAXX 08124 85586 32960 31106 10086 20078 40223 52/// 80001 333 20046 31/// 50130 55069 56006 83075=
85586,2006,09,08,15,00,AAXX 08154 85586 42960 41406 10180 20114 40218 58002 80001 333 56006 84075=
85586,2006,09,08,18,00,AAXX 08184 85586 32960 32612 10180 20114 40208 57009 80001 333 56006 83075=
85586,2006,09,08,21,00,AAXX 08214 85586 42960 72508 10184 20104 40207 54000 80001 333 56006 87075=
85586,2006,09,09,00,00,AAXX 09004 85586 32960 70000 10126 20106 40218 51009 80001 333 10200 56006 87075=
85586,2006,09,09,12,00,AAXX 09124 85586 32960 70000 10093 20081 40209 53/// 80001 333 20067 31/// 50170 55092 56006 87075=
85586,2006,09,09,18,00,AAXX 09184 85586 42960 72707 10176 20100 40193 57019 80005 333 56006 87075=
85586,2006,09,10,00,00,AAXX 10004 85586 32960 70000 10128 20096 40161 56007 85031 333 10177 56066 85365 83075=
85586,2006,09,10,12,00,AAXX 10124 85586 32960 71304 10104 20094 40168 53/// 84031 333 20084 31/// 50170 55089 56066 84365 85075=
85586,2006,09,10,15,00,AAXX 10154 85586 42960 73205 10164 20120 40169 51002 81531 333 56766 81625 86365=
85586,2006,09,10,18,00,AAXX 10184 85586 32460 73007 10182 20121 40167 56002 81131 333 56766 81215 83365 85075=
85586,2006,09,10,21,00,AAXX 10214 85586 42460 83007 10164 20132 40173 51006 888// 333 56799 81815 88625=
85586,2006,09,11,00,00,AAXX 11004 85586 11220 83304 10151 20136 40184 52010 69911 75052 886// 333 10184 56799 88706=
85586,2006,09,11,15,00,AAXX 11154 85586 41460 70000 10141 20123 40230 52005 70265 87500 333 56600 87617=
85586,2006,09,11,18,00,AAXX 11184 85586 11560 72407 10161 20125 40231 54001 70265 85201 333 56606 85825=
85586,2006,09,11,21,00,AAXX 11214 85586 42565 62510 10153 20118 40231 54000 84201 333 56606 84827=
85586,2006,09,12,00,00,AAXX 12004 85586 32965 30000 10123 20109 40233 54001 80001 333 10163 56006 83073=
85586,2006,09,12,12,00,AAXX 12124 85586 12965 10000 10092 20079 40212 54/// 60014 80001 333 20072 31/// 50090 55051 56006 70012 81073=
85586,2006,09,12,15,00,AAXX 12154 85586 42970 11512 10154 20093 40201 57009 80001 333 56006 81073=
85586,2006,09,12,18,00,AAXX 12184 85586 42570 12613 10165 20114 40187 57013 81100 333 56600 81825=
85586,2006,09,12,21,00,AAXX 12214 85586 42070 02513 10148 20083 40187 58001=
85586,2006,09,13,00,00,AAXX 13004 85586 32960 00000 10112 20095 40188 54001 333 10187=
85586,2006,09,13,12,00,AAXX 13124 85586 32960 10000 10054 20046 40199 52/// 80001 333 20024 31/// 50160 55110 56006 81075=
85586,2006,09,13,15,00,AAXX 13154 85586 42560 13010 10130 20081 40209 52012 81100 333 56600 81825=
85586,2006,09,13,18,00,AAXX 13184 85586 42570 12509 10142 20097 40208 54000 81100 333 56700 81825=
85586,2006,09,13,21,00,AAXX 13214 85586 42560 12406 10126 20077 40224 52005 81500 333 56600 81625=
85586,2006,09,14,00,00,AAXX 14004 85586 32960 20404 10090 20077 40225 52010 82030 333 10145 56060 82363=
85586,2006,09,14,12,00,AAXX 14124 85586 32960 10000 10066 20057 40234 52/// 81031 333 20048 31/// 50130 55108 56066 81363=
85586,2006,09,14,18,00,AAXX 14184 85586 42970 02512 10148 20098 40237 57004=
85586,2006,09,15,00,00,AAXX 15004 85586 32960 00000 10106 20087 40232 54004 333 10150=
85586,2006,09,15,12,00,AAXX 15124 85586 32960 00000 10081 20062 40217 52/// 333 20054 31/// 50170 55108=
85586,2006,09,15,15,00,AAXX 15154 85586 42960 02506 10174 20102 40207 58007=
85586,2006,09,15,18,00,AAXX 15184 85586 32960 02612 10155 20103 40190 57018=
85586,2006,09,15,21,00,AAXX 15214 85586 42960 02410 10149 20098 40177 57013=
85586,2006,09,16,00,00,AAXX 16004 85586 32960 00904 10114 20094 40180 53003 333 10176=
85586,2006,09,16,12,00,AAXX 16124 85586 31220 80806 10098 20091 40201 52/// 7102/ 886// 333 20083 31/// 50180 55111 56799 88704=
85586,2006,09,16,15,00,AAXX 16154 85586 41440 53008 10143 20112 40203 51004 70522 84101 333 56706 83815 82075=
85586,2006,09,16,18,00,AAXX 16184 85586 32458 62706 10162 20097 40201 58002 81101 333 56706 81815 85075=
85586,2006,09,16,21,00,AAXX 16214 85586 41958 42907 10151 20098 40191 57010 70522 80001 333 56006 84075=
85586,2006,09,17,00,00,AAXX 17004 85586 31956 00000 10101 20072 40195 53002 70511 333 10164=
85586,2006,09,17,12,00,AAXX 17124 85586 32960 01304 10102 20087 40165 54/// 333 20055 31/// 50140 55090=
85586,2006,09,17,15,00,AAXX 17154 85586 42958 00000 10171 20141 40162 54001 70500=
85586,2006,09,17,18,00,AAXX 17184 85586 32960 02706 10172 20102 40162 54000=
85586,2006,09,17,21,00,AAXX 17214 85586 41250 23209 10144 20120 40163 54000 70500 82600 333 56700 82705=
85586,2006,09,18,12,00,AAXX 18124 85586 32560 80000 10124 20110 40175 52/// 885// 333 20116 31/// 50200 55101 56799 88625=
85586,2006,09,18,15,00,AAXX 18154 85586 42560 80204 10139 20111 40187 52012 885// 333 56799 88623=
85586,2006,09,18,18,00,AAXX 18184 85586 32560 83109 10154 20106 40187 54000 885// 333 56799 88625=
85586,2006,09,18,21,00,AAXX 18214 85586 42560 70106 10148 20103 40183 57004 87500 333 56700 87625=
85586,2006,09,19,00,00,AAXX 19004 85586 32560 70000 10141 20113 40211 52028 87500 333 10160 56700 87627=
85586,2006,09,19,12,00,AAXX 19124 85586 12960 40904 10112 20093 40245 52/// 60074 83031 333 20100 31/// 50110 55007 56066 70069 83363 83075=
85586,2006,09,19,15,00,AAXX 19154 85586 42560 32606 10170 20089 40252 51009 83500 333 56600 83625=
85586,2006,09,19,18,00,AAXX 19184 85586 32560 32510 10170 20117 40249 54003 82501 333 56606 82627=
85586,2006,09,19,21,00,AAXX 19214 85586 42960 02510 10172 20097 40234 57015=
85586,2006,09,20,00,00,AAXX 20004 85586 32960 00000 10122 20098 40232 57004 333 10178=
85586,2006,09,20,12,00,AAXX 20124 85586 32960 60000 10090 20082 40192 56/// 83032 333 20064 31/// 50160 55104 56066 83365 85075=
85586,2006,09,20,15,00,AAXX 20154 85586 42960 32806 10152 20112 40193 54003 80001 333 56006 83075=
85586,2006,09,20,18,00,AAXX 20184 85586 42960 22410 10166 20097 40178 57014 81001 333 56007 81075=
85586,2006,09,21,00,00,AAXX 21004 85586 32960 60000 10128 20112 40170 53002 80002 333 10178 56006 86075=
85586,2006,09,21,12,00,AAXX 21124 85586 32260 80804 10112 20095 40182 52/// 8163/ 333 20101 31/// 50180 55083 56769 81704 88358=
85586,2006,09,21,15,00,AAXX 21154 85586 42460 82906 10144 20107 40188 51006 8115/ 333 56769 81815 83358 85362=
85586,2006,09,21,18,00,AAXX 21184 85586 32958 82906 10148 20111 40180 57008 8513/ 333 56769 82815 87362=
85586,2006,09,21,21,00,AAXX 21214 85586 41220 80403 10132 20116 40187 53007 75322 886// 333 56799 88704=
85586,2006,09,22,00,00,AAXX 22004 85586 11240 80000 10125 20110 40198 52010 60021 75052 886// 333 10151 56799 88704=
85586,2006,09,22,12,00,AAXX 22124 85586 12560 41503 10116 20106 40236 52/// 60034 84200 333 20097 31/// 50140 55000 56700 70037 84820=
85586,2006,09,22,15,00,AAXX 22154 85586 42560 13010 10155 20113 40251 52016 81200 333 56700 81820=
85586,2006,09,22,18,00,AAXX 22184 85586 32560 72612 10163 20099 40242 58009 81201 333 56706 81820 87075=
85586,2006,09,23,00,00,AAXX 23004 85586 32960 61704 10132 20085 40236 53002 80001 333 10178 56006 86075=
85586,2006,09,23,12,00,AAXX 23124 85586 32960 51304 10113 20089 40211 53/// 80001 333 20082 31/// 50220 55095 56005 85075=
85586,2006,09,23,15,00,AAXX 23154 85586 42960 51806 10182 20113 40191 58018 80001 333 56005 85073=
85586,2006,09,23,18,00,AAXX 23184 85586 32960 22508 10192 20102 40180 57011 80001 333 56005 82073=
85586,2006,09,23,21,00,AAXX 23214 85586 42960 00000 10173 20122 40172 57008=
85586,2006,09,24,00,00,AAXX 24004 85586 32960 20000 10125 20111 40176 53003 80001 333 10224 56006 82073=
85586,2006,09,24,12,00,AAXX 24124 85586 32960 50000 10119 20103 40145 57/// 80001 333 20078 31/// 50280 55092 56006 85073=
85586,2006,09,24,15,00,AAXX 24154 85586 42960 13004 10241 20097 40139 54002 80001 333 56006 81073=
85586,2006,09,24,18,00,AAXX 24184 85586 32960 22404 10220 20124 40133 57007 80001 333 56006 82073=
85586,2006,09,24,21,00,AAXX 24214 85586 42960 50304 10187 20137 40115 57020 80001 333 56006 85073=
85586,2006,09,25,00,00,AAXX 25004 85586 32960 30000 10138 20113 40115 54001 80001 333 10264 56006 83073=
85586,2006,09,25,12,00,AAXX 25124 85586 31456 60000 10130 20119 40142 52/// 7052/ 83501 333 20111 31/// 50160 55106 56006 83613 85075=
85586,2006,09,25,15,00,AAXX 25154 85586 42460 83408 10156 20122 40156 52015 86502 333 56706 86617 83075=
85586,2006,09,25,18,00,AAXX 25184 85586 32560 83106 10156 20120 40167 52011 8351/ 333 56769 83625 85465=
85586,2006,09,25,21,00,AAXX 25214 85586 41556 82406 10100 20122 40174 51006 70522 886// 333 56599 88710=
85586,2006,09,26,00,00,AAXX 26004 85586 32960 60000 10120 20098 40175 54000 80002 333 10168 56006 86075=
85586,2006,09,26,12,00,AAXX 26124 85586 32560 61204 10092 20082 40218 52/// 81532 333 20080 31/// 50190 55016 56066 81625 85075=
85586,2006,09,26,15,00,AAXX 26154 85586 42460 72406 10158 20093 40219 52003 82502 333 56706 82630 86073=
85586,2006,09,26,18,00,AAXX 26184 85586 32560 62412 10178 20104 40207 57011 81502 333 56606 81630 86075=
85586,2006,09,26,21,00,AAXX 26214 85586 42960 72508 10156 20104 40203 56005 83032 333 56066 83368 87075=
85586,2006,09,27,12,00,AAXX 27124 85586 32960 02005 10116 20088 40195 52/// 333 20063 31/// 50190 55058=
85586,2006,09,27,15,00,AAXX 27154 85586 42960 01811 10199 20088 40189 58004=
85586,2006,09,27,18,00,AAXX 27184 85586 32960 02516 10157 20097 40179 56010=
85586,2006,09,28,00,00,AAXX 28004 85586 32960 00000 10123 20100 40170 58006 333 10201=
85586,2006,09,28,12,00,AAXX 28124 85586 31208 11203 10093 20085 40176 52/// 7460/ 81600 333 20044 31/// 50180 55111 56700 81604=
85586,2006,09,28,15,00,AAXX 28154 85586 41456 12911 10161 20104 40171 58003 70540 81500 333 56700 81615=
85586,2006,09,28,18,00,AAXX 28184 85586 31960 22711 10163 20116 40166 56005 70240 80001 333 56006 82075=
85586,2006,09,28,21,00,AAXX 28214 85586 42960 33006 10166 20125 40156 56010 80001 333 56006 83075=
85586,2006,09,29,00,00,AAXX 29004 85586 31456 60706 10114 20097 40161 53004 70541 82501 333 10171 56706 82015 84075=
85586,2006,09,29,12,00,AAXX 29124 85586 31102 80000 10088 20084 40164 53/// 7444/ 886// 333 20088 31/// 50190 55114 56099 88602=
85586,2006,09,29,15,00,AAXX 29154 85586 42530 70000 10116 20077 40166 51003 87500 333 56600 87520=
85586,2006,09,29,18,00,AAXX 29184 85586 31205 83005 10124 20107 40166 54000 74442 886// 333 56699 88604=
85586,2006,09,29,21,00,AAXX 29214 85586 41457 73004 10134 20093 40166 54000 70522 87600 333 56600 87610=
85586,2006,09,30,00,00,AAXX 30004 85586 31457 80000 10128 20117 40162 57004 71022 886// 333 10152 56799 88710=
85586,2006,09,30,12,00,AAXX 30124 85586 31/01 90000 10105 20101 40164 52/// 7454/ 333 20100 31/// 50150 55019 89/01=
85586,2006,09,30,15,00,AAXX 30154 85586 41115 83004 10120 20113 40172 52009 71042 886// 333 56799 88703=
85586,2006,09,30,18,00,AAXX 30184 85586 31220 83104 10125 20118 40183 52011 71042 866// 333 56799 88704=
85586,2006,09,30,21,00,AAXX 30214 85586 41230 82805 10128 20117 40171 57012 71022 886// 333 56799 88705=
85586,2006,10,01,12,00,AAXX 01124 85586 11215 80000 10116 20107 40213 52/// 69924 7505/ 886// 333 20114 31/// 50110 55001 56099 70002 88706=
85586,2006,10,01,15,00,AAXX 01154 85586 41458 82506 10134 20114 40204 58011 70552 888// 333 56699 82810 88613=
85586,2006,10,01,18,00,AAXX 01184 85586 32460 82410 10146 20107 40197 56006 885// 333 56699 82613 88620=
85586,2006,10,01,21,00,AAXX 01214 85586 42560 72506 10149 20104 40191 56006 81502 333 56606 81627 87075=
85586,2006,10,02,00,00,AAXX 02004 85586 32960 30000 10112 20088 40196 53004 80001 333 10158 56006 83075=
85586,2006,10,02,12,00,AAXX 02124 85586 32960 70000 10096 20081 40162 56/// 87030 333 20076 31/// 50120 55025 56060 87365=
85586,2006,10,02,15,00,AAXX 02154 85586 42960 80504 10146 20090 40166 53005 85032 333 56066 85368 83075=
85586,2006,10,02,18,00,AAXX 02184 85586 32960 72806 10166 20091 40161 58004 83032 333 56066 83367 85075=
85586,2006,10,02,21,00,AAXX 02214 85586 42960 72906 10170 20085 40148 57013 85031 333 56066 85367 83075=
85586,2006,10,03,00,00,AAXX 03004 85586 32960 70000 10122 20091 40155 53006 87030 333 10174 56060 87365=
85586,2006,10,03,12,00,AAXX 03124 85586 31458 80203 10111 20095 40160 52/// 7052/ 886// 333 20083 30/// 50140 55039 56799 88612=
85586,2006,10,03,15,00,AAXX 03154 85586 41458 50206 10144 20097 40171 51011 70522 82130 333 56760 82815 85362=
85586,2006,10,03,18,00,AAXX 03184 85586 32460 32916 10166 20108 40167 58003 81130 333 56760 81815 82365=
85586,2006,10,03,21,00,AAXX 03214 85586 42460 83008 10144 20091 40179 53011 8113/ 333 56769 81815 88362=
85586,2006,10,04,12,00,AAXX 04124 85586 12560 50000 10112 20101 40239 52/// 60054 85200 333 20098 31/// 50150 55045 56700 70051 85820=
85586,2006,10,04,15,00,AAXX 04154 85586 42460 62707 10128 20083 40249 51010 86200 333 56700 81815 86820=
85586,2006,10,04,18,00,AAXX 04184 85586 32565 22511 10155 20093 40238 58010 82200 333 56700 82820=
85586,2006,10,04,21,00,AAXX 04214 85586 42565 12515 10152 20077 40231 53007 81200 333 56600 81825=
85586,2006,10,05,00,00,AAXX 05004 85586 32960 00000 10144 20122 40233 53002 333 10163=
85586,2006,10,05,12,00,AAXX 05124 85586 32960 30000 10098 20067 40172 57/// 80001 333 20071 30/// 50210 55098 56006 83075=
85586,2006,10,05,15,00,AAXX 05154 85586 42965 12506 10184 20094 40158 57012 80001 333 56006 81075=
85586,2006,10,05,18,00,AAXX 05184 85586 32965 62418 10158 20098 40137 57021 85031 333 56066 85365=
85586,2006,10,05,21,00,AAXX 05214 85586 42960 53503 10160 20129 40130 57007 80001 333 56006 85073=
85586,2006,10,06,00,00,AAXX 06004 85586 32960 70000 10126 20085 40149 52018 84031 333 10192 56066 84365 83070=
85586,2006,10,06,12,00,AAXX 06124 85586 32960 40000 10092 20084 40211 52/// 82031 333 20077 30/// 50180 55100 56076 82365 82076=
85586,2006,10,06,15,00,AAXX 06154 85586 42970 02706 10164 20115 40214 51005=
85586,2006,10,06,18,00,AAXX 06184 85586 32970 02411 10171 20110 40200 57013=
85586,2006,10,06,21,00,AAXX 06214 85586 42970 02410 10171 20106 40196 57005=
85586,2006,10,07,00,00,AAXX 07004 85586 32960 00000 10148 20113 40211 53014 333 10176=
85586,2006,10,07,12,00,AAXX 07124 85586 32960 01804 10140 20084 40188 53/// 333 20074 30/// 50220 55108=
85586,2006,10,07,15,00,AAXX 07154 85586 42960 02212 10214 20087 40180 58005=
85586,2006,10,07,18,00,AAXX 07184 85586 42960 02412 10196 20120 40159 57023=
85586,2006,10,07,21,00,AAXX 07214 85586 42960 02406 10188 20100 40144 57016=
85586,2006,10,08,00,00,AAXX 08004 85586 32960 30404 10136 20106 40152 53007 80001 333 10242 56006 83075=
85586,2006,10,08,15,00,AAXX 08154 85586 42960 62510 10166 20092 40168 55002 80001 333 56006 86075=
85586,2006,10,08,18,00,AAXX 08184 85586 32960 72612 10172 20106 40160 57008 80001 333 56006 87075=
85586,2006,10,08,21,00,AAXX 08214 85586 42960 32510 10174 20097 40156 56004 80001 333 56006 83075=
85586,2006,10,09,12,00,AAXX 09124 85586 32960 60000 10141 20107 40140 52/// 80001 333 20074 30/// 50190 55097 56006 86075=
85586,2006,10,09,15,00,AAXX 09154 85586 42260 62512 10156 20118 40136 58003 81601 333 56706 81704 85075=
85586,2006,10,09,18,00,AAXX 09184 85586 31240 82711 10143 20115 40153 53016 886// 333 56799 88706=
85586,2006,10,09,21,00,AAXX 09214 85586 41258 52512 10159 20122 40160 51007 70521 82601 333 56706 82707 84075=
85586,2006,10,10,00,00,AAXX 10004 85586 31456 40410 10127 20109 40185 52015 70522 83501 333 10175 56806 83615 81075=
85586,2006,10,10,12,00,AAXX 10124 85586 31250 80000 10114 20103 40204 51/// 7052/ 886// 333 20111 30/// 50150 55099 56799 88704=
85586,2006,10,10,15,00,AAXX 10154 85586 41220 82803 10136 20106 40212 52009 74022 886// 333 56699 88706=
85586,2006,10,10,18,00,AAXX 10184 85586 31240 82610 10144 20117 40220 58008 70522 886// 333 56799 88706=
85586,2006,10,10,21,00,AAXX 10214 85586 41960 23105 10170 20133 40208 57011 70242 80001 333 56006 82069=
85586,2006,10,11,00,00,AAXX 11004 85586 31258 53603 10121 20108 40210 50000 70521 85600 333 10176 56700 85706=
85586,2006,10,11,12,00,AAXX 11124 85586 31212 72703 10109 20104 40174 57/// 7104/ 83630 333 20098 30/// 50090 55031 56660 83604 85363=
85586,2006,10,11,15,00,AAXX 11154 85586 42960 53007 10171 20120 40163 57010 82036 333 56066 82365 83273=
85586,2006,10,11,18,00,AAXX 11184 85586 32965 42408 10193 20135 40162 54001 80008 333 56006 84275=
85586,2006,10,11,21,00,AAXX 11214 85586 42960 62705 10178 20127 40143 57019 80030 333 56070 86365=
85586,2006,10,12,00,00,AAXX 12004 85586 32960 70904 10140 20123 40150 52011 87020 333 10200 56060 87463=
85586,2006,10,12,12,00,AAXX 12124 85586 32960 80000 10135 20115 40163 53/// 8807/ 333 20126 30/// 50290 55069 56079 88365=
85586,2006,10,12,15,00,AAXX 12154 85586 42460 80000 10148 20117 40165 58002 8177/ 333 56669 81615 88363=
85586,2006,10,12,18,00,AAXX 12184 85586 31459 82704 10156 20123 40163 54001 70222 8377/ 333 56669 83615 88363=
85586,2006,10,12,21,00,AAXX 12214 85586 41459 83604 10152 20130 40162 58002 70222 8757/ 333 56669 87615 86363=
85586,2006,10,13,00,00,AAXX 13004 85586 31958 80000 10142 20129 40163 54001 70522 8807/ 333 10159 56069 88363=
85586,2006,10,13,12,00,AAXX 13124 85586 11415 82907 10135 20129 40130 53/// 60144 7636/ 8802/ 333 20132 32/// 50100 55000 56079 70137 88516=
85586,2006,10,13,15,00,AAXX 13154 85586 41420 83208 10130 20123 40141 52011 76366 8802/ 333 56079 88517=
85586,2006,10,13,18,00,AAXX 13184 85586 11320 83104 10118 20111 40171 52030 60321 76366 8262/ 333 56779 82707 88518=
85586,2006,10,13,21,00,AAXX 13214 85586 41458 80506 10112 20104 40187 52016 70266 888// 333 56179 83810 88623=
85586,2006,10,14,00,00,AAXX 14004 85586 11540 80908 10100 20089 40212 52023 60061 76066 8553/ 333 10135 56279 85623 88358=
85586,2006,10,14,15,00,AAXX 14154 85586 42560 42804 10164 20068 40237 54002 83130 333 56660 83825=
85586,2006,10,14,18,00,AAXX 14184 85586 32560 12810 10164 20096 40236 54001 81100 333 81825=
85586,2006,10,14,21,00,AAXX 14214 85586 42560 12610 10150 20093 40239 53003 81500 333 56600 81625=
85586,2006,10,15,00,00,AAXX 15004 85586 32960 01004 10118 20072 40251 54001 333 10166=
85586,2006,10,15,12,00,AAXX 15124 85586 32960 01807 10126 20092 40211 56/// 333 20063 31/// 50170 55115=
85586,2006,10,15,15,00,AAXX 15154 85586 42980 82006 10194 20122 40190 57019=
85586,2006,10,15,18,00,AAXX 15184 85586 32960 22618 10165 20111 40174 57016 80001 333 56006 82075=
85586,2006,10,16,00,00,AAXX 16004 85586 31958 60503 10132 20107 40171 53006 70500 80001 333 10196 56006 86075=
85586,2006,10,16,12,00,AAXX 16124 85586 31340 80503 10103 20099 40176 52/// 7102/ 886// 333 20092 31/// 50190 55120 56699 88707=
85586,2006,10,16,15,00,AAXX 16154 85586 41557 73005 10145 20117 40192 52017 70522 87501 333 56606 86623=
85586,2006,10,16,18,00,AAXX 16184 85586 32460 62708 10152 20114 40190 58002 82531 333 56676 82620=
85586,2006,10,16,21,00,AAXX 16214 85586 42960 32709 10149 20099 40188 58002 80001 333 56006 83075=
85586,2006,10,17,00,00,AAXX 17004 85586 31956 62704 10120 20097 40186 57002 70522 80001 333 10165 56006 86075=
85586,2006,10,17,12,00,AAXX 17124 85586 31340 60000 10112 20103 40200 52/// 7402/ 83650 333 20098 30/// 50120 55086 56670 83707 83368=
85586,2006,10,17,15,00,AAXX 17154 85586 42560 62705 10140 20094 40202 51004 86600 333 56600 86620=
85586,2006,10,17,18,00,AAXX 17184 85586 32560 82608 10144 20110 40207 52005 886// 333 56699 88625=
85586,2006,10,17,21,00,AAXX 17214 85586 42560 70000 10138 20098 40212 55005 86601 333 56606 86627 81073=
85586,2006,10,18,00,00,AAXX 18004 85586 32560 70000 10127 20094 40125 54002 83530 333 10150 56660 83627 84365=
85586,2006,10,18,12,00,AAXX 18124 85586 32560 70000 10119 20093 40211 52/// 87500 333 20114 30/// 50060 55004 56600 87623=
85586,2006,10,18,15,00,AAXX 18154 85586 42560 72704 10139 20095 40219 52009 87500 333 56600 87630=
85586,2006,10,18,18,00,AAXX 18184 85586 32560 52405 10154 20093 40216 58003 85500 333 56600 85633=
85586,2006,10,18,21,00,AAXX 18214 85586 42560 42505 10151 20094 40219 54003 84500 333 56700 84630=
85586,2006,10,19,00,00,AAXX 19004 85586 32660 60000 10132 20094 40229 52009 86500 333 10158 56600 86634=
85586,2006,10,19,12,00,AAXX 19124 85586 31556 50000 10116 20095 40211 52/// 7052/ 82502 333 20076 30/// 50160 55013 56006 82630 84075=
85586,2006,10,19,15,00,AAXX 19154 85586 41558 42604 10161 20108 40211 54000 70511 82501 333 56006 82626=
85586,2006,10,19,18,00,AAXX 19184 85586 32560 12512 10166 20103 40202 57007 81500 333 56600 81623=
85586,2006,10,19,21,00,AAXX 19214 85586 42560 12508 10160 20101 40201 56002 81500 333 56600 81620=
85586,2006,10,20,00,00,AAXX 20004 85586 32960 03404 10134 20088 40207 53005 333 10174=
85586,2006,10,20,12,00,AAXX 20124 85586 32960 01206 10146 20122 40178 53/// 333 20074 30/// 50220 55108=
85586,2006,10,20,15,00,AAXX 20154 85586 42960 02608 10186 20102 40173 58004=
85586,2006,10,20,18,00,AAXX 20184 85586 32960 02610 10180 20113 40166 57007=
85586,2006,10,20,21,00,AAXX 20214 85586 42960 02510 10170 20107 40162 56004=
85586,2006,10,21,00,00,AAXX 21004 85586 32960 00404 10134 20086 40173 52009 333 10208=
85586,2006,10,21,12,00,AAXX 21124 85586 31956 00000 10134 20122 40175 53/// 7404/ 333 20084 31/// 50230 55110=
85586,2006,10,21,15,00,AAXX 21154 85586 41220 80204 10131 20117 40180 51005 71044 886// 333 56799 88706=
85586,2006,10,21,18,00,AAXX 21184 85586 31458 73006 10161 20122 40179 50000 70544 87500 333 56700 87615=
85586,2006,10,21,21,00,AAXX 21214 85586 41460 43007 10165 20125 40173 56006 70144 84500 333 56700 84015=
85586,2006,10,22,12,00,AAXX 22124 85586 11206 82703 10111 20102 40178 51/// 69904 7504/ 886// 333 20103 31/// 50180 55076 56699 70000 88704=
85586,2006,10,22,15,00,AAXX 22154 85586 41330 82704 10141 20117 40193 52015 70544 886// 333 56699 88707=
85586,2006,10,22,18,00,AAXX 22184 85586 11960 02711 10164 20115 40175 57013 69901 70244=
85586,2006,10,22,21,00,AAXX 22214 85586 41960 02604 10174 20114 40178 57017=
85586,2006,10,23,12,00,AAXX 23124 85586 11958 00000 10127 20111 40148 53/// 69904 7050/ 333 20067 30/// 50110 55070 70000=
85586,2006,10,23,15,00,AAXX 23154 85586 42960 02810 10150 20112 40160 52012=
85586,2006,10,23,18,00,AAXX 23184 85586 32960 02608 10167 20113 40161 54002=
85586,2006,10,23,21,00,AAXX 23214 85586 42360 42704 10160 20124 40159 54002 84600 333 56600 84707=
85586,2006,10,24,00,00,AAXX 24004 85586 32360 72605 10138 20124 40167 52007 87600 333 10170 56700 87709=
85586,2006,10,24,12,00,AAXX 24124 85586 31230 80000 10106 20100 40201 52/// 7102/ 886// 333 20068 30/// 50110 55110 56099 88706=
85586,2006,10,24,15,00,AAXX 24154 85586 42460 12909 10158 20112 40208 51008 81600 333 56600 81710=
85586,2006,10,24,18,00,AAXX 24184 85586 32360 32808 10166 20125 40206 54001 83600 333 56700 83709=
85586,2006,10,24,21,00,AAXX 24214 85586 42960 02611 10168 20125 40202 55004=
85586,2006,10,25,00,00,AAXX 25004 85586 32960 00000 10128 20097 40207 52003 333 10172=
85586,2006,10,25,12,00,AAXX 25124 85586 32960 01510 10134 20087 40184 57/// 333 20078 30/// 50230 55089=
85586,2006,10,25,15,00,AAXX 25154 85586 42960 02106 10200 20097 40154 57028=
85586,2006,10,25,18,00,AAXX 25184 85586 32960 02614 10174 20096 40134 57022=
85586,2006,10,25,21,00,AAXX 25214 85586 42960 12608 10166 20103 40120 57013 80002 333 56006 81075=
85586,2006,10,26,00,00,AAXX 26004 85586 32560 30408 10126 20098 40133 53012 81130 333 10227 56160 81823=
85586,2006,10,26,12,00,AAXX 26124 85586 31558 80404 10130 20108 40160 52/// 7052/ 8453/ 333 20122 30/// 50280 55123 56069 84626 85363=
85586,2006,10,26,15,00,AAXX 26154 85586 41556 80000 10140 20117 40163 54003 70522=
85586,2006,10,26,18,00,AAXX 26184 85586 31556 83304 10144 20118 40165 54002 70522 8553/ 333 56069 85626 86362=
85586,2006,10,26,21,00,AAXX 26214 85586 41560 83608 10146 20111 40184 53019 70562=
85586,2006,10,27,00,00,AAXX 27004 85586 11558 83606 10136 20109 40196 52012 69901 70522 8353/ 333 10152 56069 83620 87362=
85586,2006,10,27,12,00,AAXX 27124 85586 12560 70000 10136 20105 40201 57/// 69904 81530 333 20117 50170 55000 56760 70000 81620 87365=
85586,2006,10,27,15,00,AAXX 27154 85586 42560 52709 10163 20112 40198 56003 82130 333 56760 82820 84365=
85586,2006,10,27,18,00,AAXX 27184 85586 32560 72808 10174 20139 40199 51003 81130 333 56760 81820 87365=
85586,2006,10,27,21,00,AAXX 27214 85586 42960 62406 10161 20116 40198 56003 86030 333 56060 86365=
85586,2006,10,28,00,00,AAXX 28004 85586 31958 60000 10141 20109 40206 53008 70511 86030 333 10179 56060 86365=
85586,2006,10,28,12,00,AAXX 28124 85586 32960 11404 10137 20097 40212 52/// 80001 333 20053 30/// 50210 55070 56006 81075=
85586,2006,10,28,15,00,AAXX 28154 85586 42460 22810 10184 20092 40216 52007 81101 333 56706 81815 82075=
85586,2006,10,28,18,00,AAXX 28184 85586 32560 12714 10177 20120 40220 51004 81100 333 56700 81820=
85586,2006,10,28,21,00,AAXX 28214 85586 42960 02516 10163 20114 40219 58002=
85586,2006,10,29,12,00,AAXX 29124 85586 32960 00000 10125 20088 40184 53/// 333 20064 30/// 50190 55126=
85586,2006,10,29,15,00,AAXX 29154 85586 42960 02708 10166 20119 40185 54002=
85586,2006,10,29,18,00,AAXX 29184 85586 32960 02512 10164 20123 40190 52004=
85586,2006,10,29,21,00,AAXX 29214 85586 42960 02517 10154 20113 40186 57004=
85586,2006,10,30,00,00,AAXX 30004 85586 31558 22608 10126 20101 40201 52014 70511 82500 333 10169 56600 82630=
85586,2006,10,30,12,00,AAXX 30124 85586 32960 00000 10128 20087 40220 52/// 333 20060 30/// 50290 55125=
85586,2006,10,30,15,00,AAXX 30154 85586 42970 02612 10158 20111 40220 54001=
85586,2006,10,30,18,00,AAXX 30184 85586 32370 12511 10160 20126 40213 57007 81100 333 56600 81807=
85586,2006,10,30,21,00,AAXX 30214 85586 42960 02417 10168 20111 40206 57006=
85586,2006,10,31,00,00,AAXX 31004 85586 32960 02504 10128 20093 40218 52010 333 10178=
85586,2006,10,31,12,00,AAXX 31124 85586 32960 00000 10120 20090 40229 52/// 333 20044 30/// 50290 55126=
85586,2006,10,31,15,00,AAXX 31154 85586 42560 12410 10154 20093 40228 54000 81500 333 56500 81630=
85586,2006,10,31,18,00,AAXX 31184 85586 32960 02514 10158 20091 40216 57012=
85586,2006,10,31,21,00,AAXX 31214 85586 42960 02410 10164 20096 40200 57016=
85586,2006,11,01,00,00,AAXX 01004 85586 32960 02504 10126 20077 40213 52012 333 10180=
85586,2006,11,01,12,00,AAXX 01124 85586 32960 82704 10094 20080 40206 52/// 85032 333 20050 30/// 50260 55134 56066 85362 83075=
85586,2006,11,01,15,00,AAXX 01154 85586 42960 42710 10169 20110 40195 58008 82032 333 56066 82362 83075=
85586,2006,11,01,18,00,AAXX 01184 85586 32960 32410 10164 20102 40190 57006 83031 333 56066 83362=
85586,2006,11,01,21,00,AAXX 01214 85586 42960 22410 10160 20099 40180 57009 80002 333 56006 82075=
85586,2006,11,02,12,00,AAXX 02124 85586 32460 81804 10131 20096 40172 55/// 8153/ 333 20091 30/// 50210 55085 56769 81615 88362=
85586,2006,11,02,15,00,AAXX 02154 85586 42960 72506 10199 20104 40172 5200284031 333 56066 84365 84075=
85586,2006,11,02,18,00,AAXX 02184 85586 32960 82514 10165 20105 40168 58005 84031 333 56066 84365 84075=
85586,2006,11,02,21,00,AAXX 02214 85586 42960 82503 10144 20104 40172 53003 8803/ 333 56069 88365=
85586,2006,11,03,00,00,AAXX 03004 85586 31958 70000 10131 20113 40173 50001 70522 87030 333 10202 56060 87365=
85586,2006,11,03,12,00,AAXX 03124 85586 31958 80000 10120 20109 40152 52/// 7052/ 83031 333 20092 30/// 50240 55013 56066 83362 86075=
85586,2006,11,03,15,00,AAXX 03154 85586 41958 22806 10175 20136 40148 51003 70511 82030 333 56060 82362=
85586,2006,11,03,18,00,AAXX 03184 85586 32960 42510 10184 20130 40140 58008 80001 333 56006 84075=
85586,2006,11,03,21,00,AAXX 03214 85586 42960 52604 10172 20124 40128 57012 80001 333 56006 85075=
85586,2006,11,04,00,00,AAXX 04004 85586 32960 40404 10131 20106 40132 51004 84030 333 10186 56060 84362=
85586,2006,11,04,12,00,AAXX 04124 85586 31220 80000 10108 20104 40128 52/// 7102/ 886// 333 20072 30/// 50160 55102 56099 88705=
85586,2006,11,04,15,00,AAXX 04154 85586 41335 83306 10138 20106 40135 52007 71022 886// 333 56799 88707=
85586,2006,11,04,18,00,AAXX 04184 85586 31440 82806 10166 20131 40192 54002 70522 885// 333 56699 88612=
85586,2006,11,04,21,00,AAXX 04214 85586 41457 82707 10135 20111 40126 57007 70522 885// 333 56099 88612=
85586,2006,11,05,00,00,AAXX 05004 85586 31457 80000 10133 20115 40138 52012 70522 885// 333 10154 56699 88613=
85586,2006,11,05,12,00,AAXX 05124 85586 32560 83505 10129 20122 40205 52/// 885// 333 20126 30/// 50180 55000 56799 88625=
85586,2006,11,05,15,00,AAXX 05154 85586 42560 42604 10158 20114 40212 52008 84500 333 56600 84627=
85586,2006,11,05,18,00,AAXX 05184 85586 32660 22410 10167 20116 40215 53004 82100 333 56600 82835=
85586,2006,11,05,21,00,AAXX 05214 85586 42960 02708 10164 20115 40207 57009=
85586,2006,11,06,00,00,AAXX 06004 85586 32960 00000 10130 20112 40205 53003 333 10171=
85586,2006,11,06,12,00,AAXX 06124 85586 32960 01506 10146 20111 40158 56/// 333 20084 30/// 50240 55100=
85586,2006,11,06,15,00,AAXX 06154 85586 42960 01908 10222 20106 40142 57013=
85586,2006,11,06,18,00,AAXX 06184 85586 32960 22610 10212 20108 40132 57010 80001 333 56006 82075=
85586,2006,11,06,21,00,AAXX 06214 85586 42960 22610 10196 20092 40120 57013 80001 333 56006 82075=
85586,2006,11,07,00,00,AAXX 07004 85586 32960 40000 10146 20095 40127 53006 80001 333 10266 56006 84075=
85586,2006,11,07,12,00,AAXX 07124 85586 32960 22704 10132 20085 40146 52/// 80001 333 20078 30/// 50250 55125 56006 82075=
85586,2006,11,07,15,00,AAXX 07154 85586 42960 22708 10160 20087 40161 52016 80001 333 56006 82075=
85586,2006,11,07,18,00,AAXX 07184 85586 32560 22806 10160 20097 40160 51001 81101 333 56606 81823=
85586,2006,11,07,21,00,AAXX 07214 85586 42560 12806 10154 20102 40165 58006 81500 333 56600 81623=
85586,2006,11,08,00,00,AAXX 08004 85586 32560 43106 10120 20104 40164 54001 84500 333 10168 56600 84623=
85586,2006,11,08,12,00,AAXX 08124 85586 31456 80603 10111 20084 40176 52/// 7052/ 885// 333 20087 30/// 50210 55118 56799 88612=
85586,2006,11,08,15,00,AAXX 08154 85586 41458 12906 10151 20103 40180 51004 70522 81500 333 56700 81615=
85586,2006,11,08,18,00,AAXX 08184 85586 32460 50505 10166 20110 40190 52011 85500 333 56700 85615=
85586,2006,11,08,21,00,AAXX 08214 85586 42460 72405 10151 20107 40182 58009 87500 333 56700 87615=
85586,2006,11,09,00,00,AAXX 09004 85586 31256 82105 10134 20105 40186 53004 70522 886// 333 10168 56799 88708=
85586,2006,11,09,12,00,AAXX 09124 85586 31258 50904 10143 20113 40163 55/// 7054/ 81601 333 20104 50220 55064 56706 81704 85075=
85586,2006,11,09,15,00,AAXX 09154 85586 41220 42604 10149 20123 40167 51004 74041 81611 333 56766 81704 82065=
85586,2006,11,09,18,00,AAXX 09184 85586 31220 82707 10150 20119 40175 53008 74044 886// 333 56799 88706=
85586,2006,11,09,21,00,AAXX 09214 85586 41360 60304 10151 20118 40159 58016 70144 86600 333 56700 86709=
85586,2006,11,10,00,00,AAXX 10004 85586 11208 80000 10136 20123 40164 53005 69901 75044 886// 333 10165 56799 88706=
85586,2006,11,10,12,00,AAXX 10124 85586 11220 82705 10121 20117 40152 52/// 69904 7102/ 886// 333 20110 30/// 50200 55065 56699 70000 88704=
85586,2006,11,10,15,00,AAXX 10154 85586 41220 83306 10130 20122 40173 52021 71022 886// 333 56799 88706=
85586,2006,11,10,18,00,AAXX 10184 85586 31440 82807 10144 20125 40170 50003 70522 885// 333 56699 88610=
85586,2006,11,10,21,00,AAXX 10214 85586 41556 82805 10144 20120 40163 57007 70522 885// 333 56699 88615=
85586,2006,11,11,12,00,AAXX 11124 85586 31556 80000 10126 20111 40172 52/// 7052/ 885// 333 20123 30/// 50080 55000 56099 88620=
85586,2006,11,11,15,00,AAXX 11154 85586 41440 83305 10134 20120 40181 52009 70522 885// 333 56799 88615=
85586,2006,11,11,18,00,AAXX 11184 85586 31457 83108 10144 20116 40180 54001 70522 888// 333 56799 83817 88625=
85586,2006,11,11,21,00,AAXX 11214 85586 41458 82705 10141 20113 40172 57008 70522 888// 333 56799 83817 88625=
85586,2006,11,12,00,00,AAXX 12004 85586 31558 80906 10130 20110 40169 56003 70522 885// 333 10146 56099 88623=
85586,2006,11,12,12,00,AAXX 12124 85586 32560 70000 10141 20127 40201 52/// 87500 333 20133 30/// 50190 55000 56600 87630=
85586,2006,11,12,15,00,AAXX 12154 85586 42560 43404 10184 20115 40205 52005 84500 333 56600 84630=
85586,2006,11,12,18,00,AAXX 12184 85586 32560 12707 10190 20132 40194 58011 81500 333 56600 81630=
85586,2006,11,12,21,00,AAXX 12214 85586 42960 02510 10173 20122 40186 57008=
85586,2006,11,13,00,00,AAXX 13004 85586 32960 00000 10145 20124 40184 57003 333 10193=
85586,2006,11,13,12,00,AAXX 13124 85586 32960 00000 10143 20121 40181 52/// 333 20076 30/// 50250 55095=
85586,2006,11,13,15,00,AAXX 13154 85586 42960 02906 10176 20133 40191 52011=
85586,2006,11,13,18,00,AAXX 13184 85586 32460 52509 10176 20144 40197 52006 85500 333 56600 85615=
85586,2006,11,13,21,00,AAXX 13214 85586 42460 13304 10178 20127 40200 52003 81500 333 56600 81615=
85586,2006,11,14,00,00,AAXX 14004 85586 32460 40000 10152 20132 40216 52015 84500 333 10183 56600 84615=
85586,2006,11,14,12,00,AAXX 14124 85586 32460 12207 10156 20120 40193 52/// 81500 333 20074 30/// 50230 55115 56600 81615=
85586,2006,11,14,15,00,AAXX 14154 85586 42960 12518 10183 20122 40185 58007 81100 333 56700 81820=
85586,2006,11,14,18,00,AAXX 14184 85586 32960 02716 10185 20118 40185 57007=
85586,2006,11,14,21,00,AAXX 14214 85586 42960 22517 10179 20113 40170 57008 82010 333 56060 82365=
85586,2006,11,15,12,00,AAXX 15124 85586 32960 02003 10134 20092 40171 52/// 333 20058 30/// 50230 55123=
85586,2006,11,15,15,00,AAXX 15154 85586 42960 02610 10167 20089 40174 51004=
85586,2006,11,15,18,00,AAXX 15184 85586 32970 02418 10170 20101 40165 57009=
85586,2006,11,15,21,00,AAXX 15214 85586 42970 02711 10164 20115 40161 58004=
85586,2006,11,16,00,00,AAXX 16004 85586 32960 02406 10143 20115 40176 52014 333 10182=
85586,2006,11,16,12,00,AAXX 16124 85586 32460 30000 10135 20109 40169 52/// 81101 333 20068 30/// 50280 55125 56606 81815 82075=
85586,2006,11,16,15,00,AAXX 16154 85586 42560 12709 10163 20120 40177 52009 81100 333 56600 81817=
85586,2006,11,16,18,00,AAXX 16184 85586 32970 02618 10160 20107 40185 52006=
85586,2006,11,16,21,00,AAXX 16214 85586 42970 02611 10152 20090 40188 54002=
85586,2006,11,17,00,00,AAXX 17004 85586 32970 02707 10127 20087 40208 52019 333 10168=
85586,2006,11,17,12,00,AAXX 17124 85586 32560 73604 10132 20094 40216 52/// 87500 333 20097 30/// 50280 55124 56600 87626=
85586,2006,11,17,15,00,AAXX 17154 85586 42560 70000 10152 20097 40216 54001 83850 333 56660 81820 82326 87363=
85586,2006,11,17,18,00,AAXX 17184 85586 32460 72710 10160 20104 40217 54002 82550 333 56670 82617 87363=
85586,2006,11,17,21,00,AAXX 17214 85586 42460 72708 10152 20117 40220 54002 82530 333 56660 82617 85363=
85586,2006,11,18,00,00,AAXX 18004 85586 32560 60000 10135 20113 40226 52006 83530 333 10165 56660 83623 83363=
85586,2006,11,18,12,00,AAXX 18124 85586 32960 20000 10146 20093 40243 54/// 80001 333 20092 30/// 50190 55009 56006 82075=
85586,2006,11,18,15,00,AAXX 18154 85586 42560 12508 10178 20088 40228 58004 81500 333 56600 81630=
85586,2006,11,18,18,00,AAXX 18184 85586 32960 02514 10205 20112 40200 57028=
85586,2006,11,18,21,00,AAXX 18214 85586 42960 01810 10212 20108 40159 57042=
85586,2006,11,19,00,00,AAXX 19004 85586 32960 02406 10176 20114 40166 53008 333 10269=
85586,2006,11,19,15,00,AAXX 19154 85586 42960 02508 10214 20130 40121 54003=
85586,2006,11,19,18,00,AAXX 19184 85586 32960 02612 10186 20113 40125 54002=
85586,2006,11,19,21,00,AAXX 19214 85586 42960 02806 10174 20119 40132 52007=
85586,2006,11,20,12,00,AAXX 20124 85586 31340 83305 10136 20114 40182 52/// 7052/ 886// 333 20127 30/// 50240 55128 56799 88708=
85586,2006,11,20,15,00,AAXX 20154 85586 41456 83006 10163 20120 40195 51013 70522 885// 333 56799 88612=
85586,2006,11,20,18,00,AAXX 20184 85586 31458 43109 10176 2013840198 53004 70522 84500 333 56700 84615=
85586,2006,11,20,21,00,AAXX 20214 85586 41558 72510 10163 20124 40191 58008 70522 87500 333 56700 87620=
85586,2006,11,21,00,00,AAXX 21004 85586 31958 00000 10141 20114 40189 56002 70522 333 10182=
85586,2006,11,21,12,00,AAXX 21124 85586 32960 03004 10133 20106 40178 52/// 333 20073 30/// 50210 55036=
85586,2006,11,21,15,00,AAXX 21154 85586 42970 02806 10182 20128 40174 54003=
85586,2006,11,21,18,00,AAXX 21184 85586 32960 02516 10176 20129 40170 58004=
85586,2006,11,21,21,00,AAXX 21214 85586 42960 02708 10182 20122 40150 57020=
85586,2006,11,22,00,00,AAXX 22004 85586 32960 00304 10147 20104 40149 58002 333 10194=
85586,2006,11,22,12,00,AAXX 22124 85586 32260 10000 10134 20112 40156 52/// 81600 333 20096 30/// 50290 55130 56700 81704=
85586,2006,11,22,15,00,AAXX 22154 85586 41357 82908 10144 20124 40171 52015 70522 886// 333 56699 88707=
85586,2006,11,22,18,00,AAXX 22184 85586 31358 82806 10143 20122 40167 57004 70522 886// 333 56699 88708=
85586,2006,11,22,21,00,AAXX 22214 85586 42460 82704 10148 20127 40162 57005 885// 333 56699 88613=
85586,2006,11,23,00,00,AAXX 23004 85586 32460 83305 10123 20113 40164 53002 885// 333 10155 56099 88613=
85586,2006,11,23,12,00,AAXX 23124 85586 32460 80000 10120 20102 40179 51/// 885// 333 20118 30/// 50160 55025 56799 88613=
85586,2006,11,23,15,00,AAXX 23154 85586 42960 02808 10161 20123 40173 57005=
85586,2006,11,23,18,00,AAXX 23184 85586 32970 02805 10178 20107 40169 57004=
85586,2006,11,23,21,00,AAXX 23214 85586 42970 03004 10181 20139 40150 57019=
85586,2006,11,24,00,00,AAXX 24004 85586 32960 00000 10156 20123 40149 54001 333 10194=
85586,2006,11,24,12,00,AAXX 24124 85586 32960 02404 10144 20111 40158 52/// 333 20098 30/// 50240 55097=
85586,2006,11,24,15,00,AAXX 24154 85586 42960 02808 10166 20123 40157 54000=
85586,2006,11,24,18,00,AAXX 24184 85586 32960 12612 10192 20114 40152 57005 80001 333 56006 81075=
85586,2006,11,24,21,00,AAXX 24214 85586 42560 22614 10174 20104 40152 54001 81101 333 56606 81820=
85586,2006,11,25,00,00,AAXX 25004 85586 32960 52404 10140 20100 40163 52011 80001 333 10196 56006 85075=
85586,2006,11,25,12,00,AAXX 25124 85586 32960 03104 10134 20107 40145 56/// 333 20062 30/// 50260 55127=
85586,2006,11,25,15,00,AAXX 25154 85586 42960 02508 10164 20104 40146 54002=
85586,2006,11,25,18,00,AAXX 25184 85586 32960 12614 10170 20097 40146 54000 80001 333 56006 81075=
85586,2006,11,25,21,00,AAXX 25214 85586 42960 12608 10158 20097 40150 52004 80001 333 56006 81075=
85586,2006,11,26,00,00,AAXX 26004 85586 32560 23106 10122 20106 40159 52008 82500 333 10182 56600 82630=
85586,2006,11,26,12,00,AAXX 26124 85586 31456 82704 10126 20098 40178 52/// 7052/ 885// 333 20073 30/// 50230 56799 88612=
85586,2006,11,26,15,00,AAXX 26154 85586 41458 73307 10153 20116 40164 52006 70522 87500 333 56700 87615=
85586,2006,11,26,18,00,AAXX 26184 85586 32560 63007 10165 20114 40191 52008 86500 333 56700 86620=
85586,2006,11,26,21,00,AAXX 26214 85586 42560 62811 10162 20117 40191 50001 84501 333 58706 84620=
85586,2006,11,27,12,00,AAXX 27124 85586 31358 20000 10132 20100 40185 52/// 7050/ 82600 333 20061 30/// 50240 55051 56700 82708=
85586,2006,11,27,15,00,AAXX 27154 85586 42970 02709 10158 20110 40183 54001=
85586,2006,11,27,18,00,AAXX 27184 85586 32960 02712 10173 20118 40180 58003=
85586,2006,11,27,21,00,AAXX 27214 85586 42970 02712 10153 20121 40172 57009=
85586,2006,11,28,00,00,AAXX 28004 85586 31958 00504 10141 20125 40182 53010 70500 333 10174=
85586,2006,11,28,12,00,AAXX 28124 85586 32960 00000 10147 20127 40175 53/// 333 20072 30/// 50290 55125=
85586,2006,11,28,18,00,AAXX 28184 85586 32970 02616 10183 20136 40148 57018=
85586,2006,11,28,21,00,AAXX 28214 85586 42970 02708 10199 20123 40134 57014=
85586,2006,11,29,00,00,AAXX 29004 85586 32960 00000 10155 20119 40137 53003 333 10199=
85586,2006,11,29,12,00,AAXX 29124 85586 32960 00000 10138 20122 40134 52/// 333 20064 30/// 50320 55129=
85586,2006,11,29,15,00,AAXX 29154 85586 42970 02409 10182 20130 40132 54001=
85586,2006,11,29,18,00,AAXX 29184 85586 32970 02608 10184 20117 40124 57008=
85586,2006,11,29,21,00,AAXX 29214 85586 42970 02509 10174 20124 40122 57004=
85586,2006,11,30,00,00,AAXX 30004 85586 32960 00304 10133 20114 40117 55004 333 10190=
85586,2006,11,30,12,00,AAXX 30124 85586 31240 83104 10129 20118 40143 52/// 7102/ 886// 333 20122 30/// 50280 55129 56799 88705=
85586,2006,11,30,15,00,AAXX 30154 85586 41458 83307 10142 20121 40159 52016 70522 885// 333 56799 88513=
85586,2006,11,30,18,00,AAXX 30184 85586 31458 83010 10142 20126 40161 54002 70522 885// 333 56799 88610=
85586,2006,11,30,21,00,AAXX 30214 85586 42460 72907 10144 20120 40158 57003 87500 333 56700 87612=
85586,2006,12,01,00,00,AAXX 01004 85586 32460 82605 10131 20121 40162 52004 885// 333 10151 56799 88615=
85586,2006,12,01,12,00,AAXX 01124 85586 32560 80000 10122 20100 40181 52/// 888// 333 20112 30/// 50210 55001 56099 82820 88630=
85586,2006,12,01,15,00,AAXX 01154 85586 42560 82706 10146 20107 40191 52011 888// 333 56699 83820 88630=
85586,2006,12,01,18,00,AAXX 01184 85586 32560 82408 10164 20104 40191 54000 885// 333 56699 88626=
85586,2006,12,01,21,00,AAXX 01214 85586 42960 62408 10166 20090 40187 54003 83031 333 56066 83365 85075=
85586,2006,12,02,00,00,AAXX 02004 85586 32960 12604 10136 20101 40191 54003 80001 333 10173 56006 81075=
85586,2006,12,02,12,00,AAXX 02124 85586 32960 01204 10156 20106 40168 52/// 333 20056 30/// 50210 55042=
85586,2006,12,02,15,00,AAXX 02154 85586 42960 02410 10172 20099 40170 54002=
85586,2006,12,02,18,00,AAXX 02184 85586 32960 02412 10180 20111 40172 54002=
85586,2006,12,02,21,00,AAXX 02214 85586 42960 02708 10162 20101 40171 54001=
85586,2006,12,03,00,00,AAXX 03004 85586 32960 03108 10126 20093 40179 52007 333 10186=
85586,2006,12,03,12,00,AAXX 03124 85586 31556 80000 10114 20103 40171 52/// 7052/ 885// 333 20086 30/// 50290 55128 56099 88620=
85586,2006,12,03,15,00,AAXX 03154 85586 42970 02805 10162 20107 40159 57009=
85586,2006,12,03,18,00,AAXX 03184 85586 32960 02612 10180 20124 40149 57010=
85586,2006,12,03,21,00,AAXX 03214 85586 42970 02712 10162 20115 40142 57007=
85586,2006,12,04,00,00,AAXX 04004 85586 32960 30406 10134 20111 40141 55002 80001 333 10184 56006 83075=
85586,2006,12,04,12,00,AAXX 04124 85586 32460 60000 10124 20092 40175 52/// 86500 333 20088 30/// 50310 55098 56600 86615=
85586,2006,12,04,15,00,AAXX 04154 85586 42460 22804 10152 20097 40175 54000 82500 333 56700 82615=
85586,2006,12,04,18,00,AAXX 04184 85586 32970 02412 10166 20122 40172 54002=
85586,2006,12,04,21,00,AAXX 04214 85586 42970 22711 10158 20110 40170 54002 80001 333 56006 82075=
85586,2006,12,05,12,00,AAXX 05124 85586 31258 30000 10127 20115 40172 52/// 7051/ 83600 333 20074 30/// 50270 55094 56600 83706=
85586,2006,12,05,15,00,AAXX 05154 85586 42970 02708 10167 20107 40172 54001=
85586,2006,12,05,18,00,AAXX 05184 85586 32970 02612 10184 20111 40166 57006=
85586,2006,12,05,21,00,AAXX 05214 85586 42970 02413 10184 20111 40159 57007=
85586,2006,12,06,12,00,AAXX 06124 85586 32960 00000 10145 20110 40155 52/// 333 20070 30/// 50300 55118=
85586,2006,12,06,15,00,AAXX 06154 85586 42960 02408 10171 20117 40150 58004=
85586,2006,12,06,18,00,AAXX 06184 85586 32960 02514 10188 20129 40138 57012=
85586,2006,12,06,21,00,AAXX 06214 85586 42960 02510 10190 20134 40129 57009=
85586,2006,12,07,12,00,AAXX 07124 85586 32960 02806 10134 20112 40148 52/// 333 20090 30/// 50280 55126=
85586,2006,12,07,15,00,AAXX 07154 85586 41440 62706 10146 20120 40162 52014 70542 86500 333 56600 86614=
85586,2006,12,07,18,00,AAXX 07184 85586 32960 62710 10170 20118 40157 58004 80001 333 56006 86075=
85586,2006,12,07,21,00,AAXX 07214 85586 42560 73010 10156 20110 40169 53012 82502 333 56606 82630 87075=
85586,2006,12,08,12,00,AAXX 08124 85586 32560 80606 10122 20093 40194 52/// 885// 333 20060 30/// 50024 55089 56099 88625=
85586,2006,12,08,15,00,AAXX 08154 85586 42960 02510 10166 20104 40190 54002=
85586,2006,12,08,18,00,AAXX 08184 85586 32960 02608 10174 20103 40182 57008=
85586,2006,12,08,21,00,AAXX 08214 85586 42560 12510 10180 20117 40164 57018 81100 333 56600 81820=
85586,2006,12,09,12,00,AAXX 09124 85586 32960 00000 10148 20107 40184 52/// 333 20090 30/// 50260 55113=
85586,2006,12,09,15,00,AAXX 09154 85586 42970 03010 10167 20127 40191 52008=
85586,2006,12,09,18,00,AAXX 09184 85586 31256 33309 10171 20138 40196 52005 70511 83600 333 56600 83606=
85586,2006,12,09,21,00,AAXX 09214 85586 42260 22809 10169 20137 40189 57007 82600 333 56600 82607=
85586,2006,12,10,12,00,AAXX 10124 85586 31958 00000 10146 20118 40179 53/// 7050/ 333 20106 30/// 50310 55114=
85586,2006,12,10,15,00,AAXX 10154 85586 41258 32707 10160 20111 40185 52007 70533 83600 333 56600 83606=
85586,2006,12,10,18,00,AAXX 10184 85586 31357 62609 10163 20120 40183 57005 70522 86600 333 56600 86608=
85586,2006,12,10,21,00,AAXX 10214 85586 42460 32706 10162 20126 40180 57006 83600 333 56600 83610=
85586,2006,12,11,12,00,AAXX 11124 85586 32460 80000 10138 20121 40191 52/// 885// 333 20128 30/// 50260 55089 56699 88613=
85586,2006,12,11,15,00,AAXX 11154 85586 42460 82708 10158 20117 40197 52006 885// 333 56699 88615=
85586,2006,12,11,18,00,AAXX 11184 85586 32460 22707 10170 20139 40192 57004 83500 333 56600 83613=
85586,2006,12,11,21,00,AAXX 11214 85586 42970 02710 10164 20107 40182 57010=
85586,2006,12,12,12,00,AAXX 12124 85586 32960 01704 10147 20121 40171 53/// 333 20082 30/// 50280 55074=
85586,2006,12,12,15,00,AAXX 12154 85586 42960 03005 10174 20117 40182 52012=
85586,2006,12,12,18,00,AAXX 12184 85586 32960 22508 10178 20118 40170 58012 80001 333 56006 82073=
85586,2006,12,12,21,00,AAXX 12214 85586 42460 63107 10167 20121 40180 53010 84530 333 56660 84615=
85586,2006,12,13,12,00,AAXX 13124 85586 11540 82703 10159 20141 40194 52/// 69914 7802/ 882// 333 20149 30/// 50210 55098 56799 70001 88820=
85586,2006,12,13,15,00,AAXX 13154 85586 41460 52610 10183 20129 40202 52009 70182 85800 333 56700 81815 85625=
85586,2006,12,13,18,00,AAXX 13184 85586 11960 52705 10200 20109 40190 58012 69901 70282 80001 333 56006 85075=
85586,2006,12,13,21,00,AAXX 13214 85586 41460 22511 10189 20130 40182 57008 82501 333 56706 82615=
85586,2006,12,14,12,00,AAXX 14124 85586 12560 70403 10173 20120 40167 53/// 69904 87500 333 20121 30/// 50270 55075 56700 70000 87620=
85586,2006,12,14,15,00,AAXX 14154 85586 42960 42506 10194 20130 40154 58013 80001 333 56006 84075=
85586,2006,12,14,18,00,AAXX 14184 85586 31960 12412 10192 20123 40139 57015 72821 80001 333 56006 81075=
85586,2006,12,14,21,00,AAXX 14214 85586 41960 72909 10193 20123 40133 56006 80001 333 56006 87075=
85586,2006,12,15,12,00,AAXX 15124 85586 31558 80805 10162 20115 40158 51/// 7052/ 885// 333 20107 30/// 50320 55109 56799 88620=
85586,2006,12,15,15,00,AAXX 15154 85586 41958 53112 10201 20122 40168 52011 70522 80001 333 56006 85075=
85586,2006,12,15,18,00,AAXX 15184 85586 32960 13011 10205 20115 40167 54000 80001 333 56006 81075=
85586,2006,12,15,21,00,AAXX 15214 85586 42960 33414 10199 20123 40157 58011 80001 333 56006 83075=
85586,2006,12,16,12,00,AAXX 16124 85586 32560 60000 10179 20132 40172 52/// 81531 333 20119 30/// 50330 55091 56666 81625=
85586,2006,12,16,15,00,AAXX 16154 85586 42560 72605 10204 20126 40174 52005 82501 333 56606 82625 85073=
85586,2006,12,16,18,00,AAXX 16184 85586 32570 43009 10208 20124 40186 52011 81550 333 56660 81627 83367=
85586,2006,12,16,21,00,AAXX 16214 85586 42970 32712 10203 20147 40176 57011 80001 333 56007 83075=
85586,2006,12,17,12,00,AAXX 17124 85586 31358 80000 10156 20146 40178 52/// 7052/ 886// 333 20148 30/// 50290 55110 56699 88708=
85586,2006,12,17,15,00,AAXX 17154 85586 42470 32707 10178 20133 40181 55003 83500 333 56600 83610=
85586,2006,12,17,18,00,AAXX 17184 85586 32970 02710 10191 20140 40182 54001=
85586,2006,12,17,21,00,AAXX 17214 85586 42970 12410 10193 20139 40174 57008 80001 333 56005 81073=
85586,2006,12,18,12,00,AAXX 18124 85586 32960 00000 10159 20123 40160 53/// 333 20082 30/// 50340 55097=
85586,2006,12,18,15,00,AAXX 18154 85586 42960 02408 10191 20129 40168 52008=
85586,2006,12,18,18,00,AAXX 18184 85586 32960 02412 10200 20140 40164 58003=
85586,2006,12,18,21,00,AAXX 18214 85586 42960 02411 10193 20150 40158 57007=
85586,2006,12,19,12,00,AAXX 19124 85586 32960 00000 10174 20121 40157 52/// 333 20097 30/// 50310 55127=
85586,2006,12,19,15,00,AAXX 19154 85586 42960 02711 10201 20128 40165 51008=
85586,2006,12,19,21,00,AAXX 19214 85586 42960 02520 10204 20114 40160 58003=
85586,2006,12,20,12,00,AAXX 20124 85586 32960 02804 10176 20120 40147 52/// 333 20084 30/// 50340 55128=
85586,2006,12,20,15,00,AAXX 20154 85586 42960 32611 10201 20117 40167 52021 80001 333 56006 83075=
85586,2006,12,20,18,00,AAXX 20184 85586 32960 52709 10195 20126 40178 52011 80001 333 56006 85075=
85586,2006,12,20,21,00,AAXX 20214 85586 42960 42711 10176 20115 40175 58004 80001 333 56006 84075=
85586,2006,12,21,12,00,AAXX 21124 85586 32960 01203 10151 20097 40191 52/// 333 20066 30/// 50410 55128=
85586,2006,12,21,15,00,AAXX 21154 85586 42960 02611 10184 20102 40191 54001=
85586,2006,12,21,18,00,AAXX 21184 85586 32970 02718 10186 20122 40195 54004=
85586,2006,12,21,21,00,AAXX 21214 85586 42960 02618 10183 20116 40195 50000=
85586,2006,12,22,12,00,AAXX 22124 85586 31958 00000 10148 20122 40178 52/// 7050/ 333 20080 30/// 50320 55130=
85586,2006,12,22,15,00,AAXX 22154 85586 42960 02805 10186 20122 40182 52005=
85586,2006,12,22,18,00,AAXX 22184 85586 32970 22611 10192 20121 40189 52007 80001 333 56007 82075=
85586,2006,12,22,21,00,AAXX 22214 85586 42960 02910 10183 20145 40182 57005=
85586,2006,12,23,12,00,AAXX 23124 85586 32960 70000 10142 20134 40178 52/// 87030 333 20116 30/// 50340 55115 56060 87365=
85586,2006,12,23,15,00,AAXX 23154 85586 42960 52806 10178 20141 40124 57004 85050 333 56060 85367=
85586,2006,12,23,18,00,AAXX 23184 85586 32460 72609 10191 20161 40182 52009 82530 333 56660 82610 86367=
85586,2006,12,23,21,00,AAXX 23214 85586 42460 72706 10173 20139 40183 54001 83530 333 56660 83610 86367=
85586,2006,12,24,12,00,AAXX 24124 85586 31108 80000 10152 20147 40164 53/// 7444/ 886// 333 20129 30/// 50250 55009 56799 88703=
85586,2006,12,24,15,00,AAXX 24154 85586 41460 63006 10198 20145 40176 52014 70242 86500 333 56700 86617=
85586,2006,12,24,18,00,AAXX 24184 85586 31560 33208 10208 20131 40175 54001 70240 83500 333 56600 83625=
85586,2006,12,24,21,00,AAXX 24214 85586 42560 22908 10210 20147 40174 54001 82500 333 56600 82627=
85586,2006,12,25,12,00,AAXX 25124 85586 32960 00000 10170 20138 40168 53/// 333 20106 30/// 50390 55090=
85586,2006,12,25,15,00,AAXX 25154 85586 42960 02510 10201 20143 40168 54001=
85586,2006,12,25,18,00,AAXX 25184 85586 32960 02518 10196 20130 40177 52009=
85586,2006,12,25,21,00,AAXX 25214 85586 42960 02609 10200 20131 40170 58007=
85586,2006,12,26,12,00,AAXX 26124 85586 32960 02906 10163 20092 40175 52/// 333 20083 30/// 50340 55128=
85586,2006,12,26,15,00,AAXX 26154 85586 42960 02610 10203 20114 40175 54001=
85586,2006,12,26,18,00,AAXX 26184 85586 32960 02512 10212 20124 40169 58005=
85586,2006,12,26,21,00,AAXX 26214 85586 42960 02518 10199 20137 40170 50000=
85586,2006,12,27,12,00,AAXX 27124 85586 32960 01803 10203 20150 40185 51/// 333 20111 30/// 50470 55130=
85586,2006,12,27,15,00,AAXX 27154 85586 42970 02711 10201 20152 40181 57004=
85586,2006,12,27,18,00,AAXX 27184 85586 32970 02611 10206 20137 40173 57007=
85586,2006,12,27,21,00,AAXX 27214 85586 42960 02412 10200 20119 40164 57010=
85586,2006,12,28,12,00,AAXX 28124 85586 32960 00000 10164 20116 40148 52/// 333 20087 30/// 50440 55136=
85586,2006,12,28,15,00,AAXX 28154 85586 42960 02510 10190 20141 40147 54001=
85586,2006,12,28,18,00,AAXX 28184 85586 32970 02708 10201 20121 40146 54000=
85586,2006,12,28,21,00,AAXX 28214 85586 42970 02613 10185 20115 40139 57016=
85586,2006,12,29,12,00,AAXX 29124 85586 32970 00000 10171 20122 40132 52/// 333 20087 30/// 50450 55118=
85586,2006,12,29,15,00,AAXX 29154 85586 42970 02711 10196 20131 40129 54002=
85586,2006,12,29,18,00,AAXX 29184 85586 32970 02709 10203 20142 40122 57007=
85586,2006,12,29,21,00,AAXX 29214 85586 42970 02512 10213 20140 40123 54002=
85586,2006,12,30,12,00,AAXX 30124 85586 31108 80000 10140 20133 40132 53/// 7424/ 886// 333 20130 30/// 50310 55124 56799 88702=
85586,2006,12,30,15,00,AAXX 30154 85586 41120 33004 10152 20131 40132 54000 70542 83600 333 56700 83703=
85586,2006,12,30,18,00,AAXX 30184 85586 31107 82704 10158 20148 40126 57005 74442 886// 333 56799 88703=
85586,2006,12,30,21,00,AAXX 30214 85586 41356 60000 10164 20141 40114 57012 70542 86600 333 56700 86707=
85586,2006,12,31,12,00,AAXX 31124 85586 31208 83603 10135 20121 40121 52/// 7424/ 886// 333 20101 30/// 50370 55043 56799 88704=
85586,2006,12,31,15,00,AAXX 31154 85586 41220 83507 10151 20122 40137 52016 70544 886// 333 56799 88706=
85586,2006,12,31,21,00,AAXX 31214 85586 41440 83207 10172 20135 40153 50001 70544 885// 333 56799 88610=
