85586,2009,01,01,00,00,AAXX 01004 85586 11556 62704 10166 20127 40134 56007 60001 70522 86500 333 10191 56700 86620=
85586,2009,01,01,12,00,AAXX 01124 85586 11458 82504 10159 20109 40144 53008 60004 7052/ 885// 333 20139 30/// 50210 55001 56799 8616=
85586,2009,01,01,15,00,AAXX 01154 85586 42960 02608 10188 20118 40149 51004=
85586,2009,01,01,18,00,AAXX 01184 85586 12460 12608 10203 20116 40156 56009 60001 81100 333 56700 81815=
85586,2009,01,01,21,00,AAXX 01214 85586 42460 12808 10201 20132 40150 58006 81500 333 56700 81615=
85586,2009,01,02,00,00,AAXX 02004 85586 11558 82404 10168 20125 40154 53003 60001 70511 885// 333 10205 56799 88625=
85586,2009,01,02,12,00,AAXX 02124 85586 11240 50000 10150 20133 40151 53004 60004 7052/ 85600 333 20132 30/// 50300 55090 56600 85704=
85586,2009,01,02,15,00,AAXX 02154 85586 41258 21607 10183 20151 40148 54002 70500 81600 333 56600 81705=
85586,2009,01,02,18,00,AAXX 02184 85586 11259 42708 10192 20155 40146 54002 60001 70500 84600 333 56600 84705=
85586,2009,01,02,21,00,AAXX 02214 85586 41358 12809 10190 20146 40138 57008 70511 81600 333 56600 81708=
85586,2009,01,03,00,00,AAXX 03004 85586 11358 22803 10167 20142 40132 57006 60001 70511 82600 333 10199 56600 82708=
85586,2009,01,03,12,00,AAXX 03124 85586 11107 80000 10141 20134 40114 53005 60004 7444/ 886// 333 20130 30/// 50260 55111 56699 88702=
85586,2009,01,03,15,00,AAXX 03154 85586 41460 82809 10183 20149 40116 52003 70142 82600 333 56600 82710=
85586,2009,01,03,18,00,AAXX 03184 85586 11357 32811 10201 20153 40118 52008 60001 70241 80241 333 56600 83708=
85586,2009,01,03,21,00,AAXX 03214 85586 42460 22808 10200 20140 40123 52005 82600 333 56600 82710=
85586,2009,01,04,00,00,AAXX 04004 85586 11456 82705 10177 20153 40132 52008 70522 885// 333 10206 56699 88612=
85586,2009,01,04,12,00,AAXX 04124 85586 11457 82903 10172 20153 40144 53007 60004 7052/ 885// 333 20170 30/// 50300 55094 56699 88613=
85586,2009,01,04,15,00,AAXX 04154 85586 41459 82603 10183 20154 40155 52011 70522 885// 333 56699 88616=
85586,2009,01,04,18,00,AAXX 04184 85586 12560 32608 10204 20148 40157 52003 83500 333 56600 83620=
85586,2009,01,04,21,00,AAXX 04214 85586 42460 62407 10202 20154 40151 58006 86500 333 56600 86618=
85586,2009,01,05,00,00,AAXX 05004 85586 12460 72504 10178 20149 40153 54001 60001 87500 333 10178 56600 87618=
85586,2009,01,05,12,00,AAXX 05124 85586 11430 80000 10154 20144 40165 52007 60004 7102/ 886// 333 20142 30/// 50220 55047 56099 88710=
85586,2009,01,05,15,00,AAXX 05154 85586 41450 22705 10190 20153 40165 54001 70511 82600 333 56600 82710=
85586,2009,01,05,18,00,AAXX 05184 85586 11450 72707 10188 20153 40164 54001 60001 70522 87500 333 56600 87613=
85586,2009,01,05,21,00,AAXX 05214 85586 41457 32809 10186 20143 40154 57010 70522 83500 333 56600 83615=
85586,2009,01,06,00,00,AAXX 06004 85586 12560 10504 10183 20152 40152 54001 60001 81500 333 10196 56800 81620=
85586,2009,01,06,12,00,AAXX 06124 85586 12460 73104 10164 20147 40162 52006 60004 87500 333 20138 30/// 50300 55076 56600 87613=
85586,2009,01,06,18,00,AAXX 06184 85586 12560 12409 10190 20137 40160 54003 60001 81100 333 56600 81820=
85586,2009,01,06,21,00,AAXX 06214 85586 42560 12409 10188 20138 40154 57006 81100 333 56600 81820=
85586,2009,01,07,00,00,AAXX 07004 85586 12560 10404 10164 20128 40155 54001 60001 81100 333 10198 56800 81820=
85586,2009,01,07,12,00,AAXX 07124 85586 12960 00000 10156 20120 40166 52008 60004 333 20112 30/// 50320 55100=
85586,2009,01,07,15,00,AAXX 07154 85586 42960 02506 10186 20138 40169 51003=
85586,2009,01,07,18,00,AAXX 07184 85586 12560 32508 10178 20131 40171 54002 60001 83500 333 56600 83620=
85586,2009,01,07,21,00,AAXX 07214 85586 41457 82606 10174 20141 40165 57006 70522 885// 333 56699 88617=
85586,2009,01,08,12,00,AAXX 08124 85586 12460 20000 10160 20139 40157 53004 60004 82600 333 20142 30/// 50260 55094 56600 82710=
85586,2009,01,08,18,00,AAXX 08184 85586 12360 12507 10200 20152 40153 54001 60001 81600 333 56600 81708=
85586,2009,01,08,21,00,AAXX 08214 85586 42960 02708 10192 20147 40154 54000=
85586,2009,01,09,00,00,AAXX 09004 85586 12460 42606 10159 20139 40166 52012 60001 83501 333 10202 56606 83612=
85586,2009,01,09,12,00,AAXX 09124 85586 12460 70000 10137 20124 40161 54000 60004 87600 333 20130 30/// 50280 55123 56600 87710=
85586,2009,01,09,15,00,AAXX 09154 85586 41458 42705 10168 20138 40165 52005 70500 84600 333 56600 84710=
85586,2009,01,09,18,00,AAXX 09184 85586 12460 42609 10177 20133 40163 58002 60001 84600 333 56600 84710=
85586,2009,01,09,21,00,AAXX 09214 85586 41457 72806 10159 20133 40166 53003 70511 87600 333 56600 87710=
85586,2009,01,10,00,00,AAXX 10004 85586 11458 82505 10149 20135 40170 52003 60001 70522 886// 333 10180 56699 88710=
85586,2009,01,10,12,00,AAXX 10124 85586 11458 80604 10138 20124 40169 57009 60004 7052/ 886// 333 20132 30/// 50260 55064 56699 88710=
85586,2009,01,10,15,00,AAXX 10154 85586 42460 32607 10168 20136 40169 54001 83600 333 56600 83712=
85586,2009,01,10,18,00,AAXX 10184 85586 12460 12607 10178 20122 40171 54002 60001 81600 333 56600 81712=
85586,2009,01,10,21,00,AAXX 10214 85586 42460 22607 10178 20132 40151 57010 82600 333 56600 82712=
85586,2009,01,11,00,00,AAXX 11004 85586 12460 42904 10159 20140 40153 54002 60001 84600 333 10187 56600 84710=
85586,2009,01,11,12,00,AAXX 11124 85586 11457 50000 10146 20132 40148 52005 60004 7052/ 85500 333 20138 30/// 50310 55098 56000 85615=
85586,2009,01,11,15,00,AAXX 11154 85586 41440 52408 10182 20151 40145 58002 70511 85600 333 56600 85710=
85586,2009,01,11,18,00,AAXX 11184 85586 11560 12511 10188 20140 40144 54001 60001 81100 333 56600 81820=
85586,2009,01,11,21,00,AAXX 11214 85586 42460 22412 10170 20137 40138 57006 82500 333 56600 82615=
85586,2009,01,12,00,00,AAXX 12004 85586 11456 12704 10150 20130 40143 53004 60001 70511 81600 333 10192 56600 81710=
85586,2009,01,12,12,00,AAXX 12124 85586 11450 70000 10136 20124 40157 52013 60004 7052/ 87500 333 20122 30/// 50360 55107 56000 87612=
85586,2009,01,12,15,00,AAXX 12154 85586 41457 32606 10168 20132 40156 54000 70511 83500 333 56600 83615=
85586,2009,01,12,18,00,AAXX 12184 85586 11450 62609 10166 20134 40161 52005 60001 70511 86600 333 56600 86710=
85586,2009,01,12,21,00,AAXX 12214 85586 41457 52807 10160 20124 40168 52007 70522 85500 333 56600 85615=
85586,2009,01,13,00,00,AAXX 13004 85586 11457 40406 10136 20118 40158 58011 60001 70522 81501 333 10178 56606 81615 84075=
85586,2009,01,13,12,00,AAXX 13124 85586 12960 00000 10146 20120 40143 52005 60004 333 20082 30/// 50320 55065=
85586,2009,01,13,15,00,AAXX 13154 85586 42960 02706 10178 20125 40140 54002=
85586,2009,01,13,18,00,AAXX 13184 85586 12460 12608 10173 20134 40142 54002 60001 81600 333 56600 81710=
85586,2009,01,13,21,00,AAXX 13214 85586 42960 02809 10184 20138 40142 54000=
85586,2009,01,14,00,00,AAXX 14004 85586 12460 12807 10150 20126 40157 52015 60001 81600 333 10189 56600 81710=
85586,2009,01,14,12,00,AAXX 14124 85586 12460 82403 10140 20126 40190 53027 60004 886// 333 20125 30/// 50280 55123 56699 88710=
85586,2009,01,14,15,00,AAXX 14154 85586 42460 62604 10161 20119 40202 52012 86500 333 56600 86615=
85586,2009,01,14,18,00,AAXX 14184 85586 12960 02509 10183 20127 40201 54000 60001=
85586,2009,01,14,21,00,AAXX 14214 85586 42960 32410 10177 20127 40184 57018 80001 333 56006 83073=
85586,2009,01,15,00,00,AAXX 15004 85586 12960 10000 10161 20117 40182 54001 60001 80001 333 10187 56006 81073=
85586,2009,01,15,12,00,AAXX 15124 85586 12960 10000 10150 20121 40170 53008 60004 80001 333 20090 30/// 50350 55084 56500 81073=
85586,2009,01,15,15,00,AAXX 15154 85586 42960 32806 10193 20113 40163 57006 80001 333 56006 83073=
85586,2009,01,15,18,00,AAXX 15184 85586 12960 22806 10187 20133 40160 57003 60001 80001 333 56006 82073=
85586,2009,01,15,21,00,AAXX 15214 85586 42960 02808 10186 20132 40150 57010=
85586,2009,01,16,00,00,AAXX 16004 85586 12960 02803 10151 20109 40149 57002 60001 333 10194=
85586,2009,01,16,12,00,AAXX 16124 85586 12960 00000 10149 20128 40142 53006 60004 333 20088 30/// 50330 55124=
85586,2009,01,16,15,00,AAXX 16154 85586 42960 03005 10184 20137 40143 52002=
85586,2009,01,16,18,00,AAXX 16184 85586 12960 02708 10183 20128 40146 52003 60001=
85586,2009,01,16,21,00,AAXX 16214 85586 42960 02808 10181 20130 40146 54000=
85586,2009,01,17,00,00,AAXX 17004 85586 12460 33305 10146 20129 40146 54001 60001 83600 333 10188 56600 83710=
85586,2009,01,17,12,00,AAXX 17124 85586 12460 32604 10156 20123 40157 52013 60004 83600 333 20130 30/// 50370 55123 56600 83710=
85586,2009,01,17,15,00,AAXX 17154 85586 42460 53107 10170 20140 40170 52013 85600 333 56600 85712=
85586,2009,01,17,18,00,AAXX 17184 85586 11458 62806 10176 20136 40178 51003 60001 70522 81602 333 56606 81710 86073=
85586,2009,01,17,21,00,AAXX 17214 85586 41456 72807 10166 20136 40174 54001 70522 86501 333 56606 86613 85073=
85586,2009,01,18,00,00,AAXX 18004 85586 11457 42904 10146 20122 40174 54001 60001 70522 82501 333 10184 56606 82615 83075=
85586,2009,01,18,12,00,AAXX 18124 85586 12460 13504 10152 20130 40196 52022 60004 81600 333 20096 30/// 50370 55090 56600 81710=
85586,2009,01,18,15,00,AAXX 18154 85586 42960 03106 10184 20146 40203 52008=
85586,2009,01,18,18,00,AAXX 18184 85586 12560 13207 10190 20143 40198 58005 60001 81500 333 56600 81623=
85586,2009,01,18,21,00,AAXX 18214 85586 42560 12507 10188 20134 40194 56004 81500 333 56600 81623=
85586,2009,01,19,00,00,AAXX 19004 85586 12960 00000 10150 20111 40189 57006 60001 333 10194=
85586,2009,01,19,12,00,AAXX 19124 85586 12960 03304 10156 20109 40179 52014 60004 333 20086 30/// 50340 55090=
85586,2009,01,19,15,00,AAXX 19154 85586 41360 22808 10182 20130 40186 52007 81601 333 56606 81707=
85586,2009,01,19,18,00,AAXX 19184 85586 12960 33107 10196 20145 40175 58010 60001 80001 333 56006 83075=
85586,2009,01,20,00,00,AAXX 20004 85586 12460 23104 10172 20147 40170 53003 60001 81601 333 10204 56606 81710=
85586,2009,01,20,12,00,AAXX 20124 85586 11340 80000 10144 20133 40170 53005 60004 7102/ 886// 333 20112 30/// 50380 55120 56699 88702=
85586,2009,01,20,15,00,AAXX 20154 85586 41457 82807 10175 20149 40185 52016 70522 886// 333 56699 88710=
85586,2009,01,20,18,00,AAXX 20184 85586 11456 82708 10191 20146 40189 52004 60001 70522 885// 333 56699 88615=
85586,2009,01,20,21,00,AAXX 20214 85586 41457 82705 10185 20105 40183 57006 70522 885// 333 56799 88617=
85586,2009,01,21,00,00,AAXX 21004 85586 11456 82704 10168 20143 40185 54002 60001 70522 885// 333 10202 56699 88615=
85586,2009,01,21,12,00,AAXX 21124 85586 11357 80000 10147 20137 40165 54001 60004 70522 886// 333 20142 30/// 50300 55002 56699 88708=
85586,2009,01,21,15,00,AAXX 21154 85586 41458 82806 10165 20142 40170 52006 70522 886// 333 56699 88612=
85586,2009,01,21,18,00,AAXX 21184 85586 11558 82707 10168 20141 40172 54002 60001 70522 886// 333 56699 88620=
85586,2009,01,21,21,00,AAXX 21214 85586 42560 82705 10169 20138 40171 54001 886// 333 56699 88620=
85586,2009,01,22,00,00,AAXX 22004 85586 12560 82704 10162 20135 40170 52001 60001 885// 333 10175 56699 88620=
85586,2009,01,22,12,00,AAXX 22124 85586 11558 80000 10161 20132 40170 54000 60004 7052/ 885// 333 20152 30/// 50180 55000 56799 88620=
85586,2009,01,22,15,00,AAXX 22154 85586 41558 82607 10184 20134 40175 53006 70522 885// 333 56799 88625=
85586,2009,01,22,18,00,AAXX 22184 85586 11558 82806 10189 20141 40180 51005 70522 885// 333 56799 88625=
85586,2009,01,22,21,00,AAXX 22214 85586 41958 73005 10193 20142 40176 58004 70522 87500 333 56700 87625=
85586,2009,01,23,00,00,AAXX 23004 85586 11558 42904 10171 20143 40176 55000 60001 70522 84500 333 10195 56700 84620=
85586,2009,01,23,12,00,AAXX 23124 85586 11340 80000 10166 20137 40161 51004 60004 7052/ 886// 333 20162 30/// 50210 55016 56799 88708=
85586,2009,01,23,15,00,AAXX 23154 85586 41320 82704 10171 20142 40165 51005 71022 886// 333 56799 88708=
85586,2009,01,23,18,00,AAXX 23184 85586 11456 82906 10184 20134 40183 52018 60001 70522 885// 333 56799 88612=
85586,2009,01,23,21,00,AAXX 23214 85586 41458 82706 10176 20139 40184 50001 70522 885// 333 56799 81615 88625=
85586,2009,01,24,00,00,AAXX 24004 85586 11558 82604 10166 20141 40183 55001 60001 70522 885// 333 10186 56799 88625=
85586,2009,01,24,12,00,AAXX 24124 85586 12560 41005 10187 20116 40197 53005 60004 81530 333 20163 30/// 50230 55000 56660 81625 84358=
85586,2009,01,24,15,00,AAXX 24154 85586 42560 12709 10221 20119 40197 54001 81100 333 56600 81820=
85586,2009,01,24,18,00,AAXX 24184 85586 12960 02508 10222 20134 40195 58002 60001=
85586,2009,01,25,00,00,AAXX 25004 85586 12960 02304 10187 20144 40181 55001 60001 333 10225=
85586,2009,01,25,12,00,AAXX 25124 85586 12960 00000 10178 20132 40154 56014 60004 333 20102 30/// 50280 55119=
85586,2009,01,25,15,00,AAXX 25154 85586 42960 02411 10209 20124 40142 58011=
85586,2009,01,25,18,00,AAXX 25184 85586 12960 02411 10201 20113 40146 52004 60001=
85586,2009,01,25,21,00,AAXX 25214 85586 42960 02411 10187 20110 40140 57007=
85586,2009,01,26,00,00,AAXX 26004 85586 12960 02504 10163 20098 40151 52011 60001 333 10216=
85586,2009,01,26,12,00,AAXX 26124 85586 12960 00000 10117 20098 40160 53006 60004 333 20075 30/// 50370 55123=
85586,2009,01,26,15,00,AAXX 26154 85586 42960 02705 10173 20096 40162 52003=
85586,2009,01,26,18,00,AAXX 26184 85586 12960 02413 10180 20118 40168 52006 60001=
85586,2009,01,26,21,00,AAXX 26214 85586 42960 02407 10197 20109 40156 57011=
85586,2009,01,27,12,00,AAXX 27124 85586 12960 00000 10141 20122 40139 56006 60004 333 20073 30/// 50370 55123=
85586,2009,01,27,15,00,AAXX 27154 85586 42960 02706 10187 20121 40139 54001=
85586,2009,01,27,18,00,AAXX 27184 85586 12960 02406 10207 20131 40130 57007 60001=
85586,2009,01,27,21,00,AAXX 27214 85586 42960 02806 10196 20131 40126 57005=
85586,2009,01,28,00,00,AAXX 28004 85586 11458 33104 10150 20117 40136 52008 60001 70511 83500 333 10208 56600 83617=
85586,2009,01,28,12,00,AAXX 28124 85586 11102 80000 10126 20120 40110 54000 60004 7444/ 886// 333 20119 30/// 50330 55121 56799 88702=
85586,2009,01,28,15,00,AAXX 28154 85586 41330 83204 10152 20135 40116 52006 70542 886// 333 56799 88708=
85586,2009,01,28,18,00,AAXX 28184 85586 11457 82908 10165 20140 40130 52015 60001 70542 87600 333 56700 87615=
85586,2009,01,28,21,00,AAXX 28214 85586 41458 72807 10178 20145 40128 58002 70522 87500 333 56700 87617=
85586,2009,01,29,00,00,AAXX 29004 85586 11456 82703 10163 20145 40138 53010 60001 70522 885// 333 10174 56799 88615=
85586,2009,01,29,12,00,AAXX 29124 85586 11440 82804 10149 20117 40147 52012 60004 7052/ 885// 333 20142 30/// 50210 56799 88612=
85586,2009,01,29,15,00,AAXX 29154 85586 41456 83005 10163 20120 40163 51012 70522 885// 333 56799 88612=
85586,2009,01,29,18,00,AAXX 29184 85586 12560 12709 10197 20132 40172 51009 81500 333 56000 81625=
85586,2009,01,29,21,00,AAXX 29214 85586 42460 12606 10191 20127 40175 51003 81100 333 56600 81815=
85586,2009,01,30,00,00,AAXX 30004 85586 11558 82704 10161 20127 40176 54001 70500 885// 333 10199 56699 88620=
85586,2009,01,30,12,00,AAXX 30124 85586 11220 82704 10151 20128 40185 52022 60004 7102/ 886// 333 20144 30/// 50230 55055 56799 88706=
85586,2009,01,30,15,00,AAXX 30154 85586 41320 82604 10159 20123 40193 52017 71022 886// 333 56799 88708=
85586,2009,01,30,18,00,AAXX 30184 85586 11458 42906 10192 20142 40184 58008 60001 70522 84500 333 56600=
85586,2009,01,30,21,00,AAXX 30214 85586 41456 82605 10167 20128 40177 56007 70521 885// 333 56799 88615=
85586,2009,01,31,00,00,AAXX 31004 85586 11340 80000 10158 20131 40159 57018 60001 70522 886// 333 10196 56799 88709=
85586,2009,01,31,12,00,AAXX 31124 85586 11203 50000 10134 20125 40146 54000 60004 7424/ 85600 333 20102 30/// 50230 55029 56700 85704=
85586,2009,01,31,15,00,AAXX 31154 85586 41220 12907 10184 20134 40158 52012 74044 81600 333 56700 81704=
85586,2009,01,31,18,00,AAXX 31184 85586 12960 02809 10194 20132 40172 51014 60001=
85586,2009,01,31,21,00,AAXX 31214 85586 42960 62507 10193 20124 40168 58004 80001 333 56006 86075=
85586,2009,02,01,00,00,AAXX 01004 85586 12960 42305 10153 20110 40167 54001 60001 80001 333 10203 56006 84075=
85586,2009,02,01,12,00,AAXX 01124 85586 11457 70000 10120 20102 40148 54000 60004 7052/ 87600 333 20097 30/// 50280 55109 56600 87710=
85586,2009,02,01,15,00,AAXX 01154 85586 42460 42606 10151 20100 40149 54001 84500 333 56600 84617=
85586,2009,02,01,18,00,AAXX 01184 85586 12560 22708 10165 20098 40153 52005 60001 82500 333 56600 82620=
85586,2009,02,01,21,00,AAXX 01214 85586 42560 32707 10164 20111 40154 54002 83500 333 56600 83520=
85586,2009,02,02,00,00,AAXX 02004 85586 12460 70000 10142 20100 40152 54001 60001 87500 333 10178 56600 87615=
85586,2009,02,02,12,00,AAXX 02124 85586 12460 30703 10125 20109 40142 54000 60004 81530 333 20092 30/// 50290 55078 56660 81615=
85586,2009,02,02,15,00,AAXX 02154 85586 42960 32805 10161 20104 40153 52012 80001 333 56006 83070=
85586,2009,02,02,18,00,AAXX 02184 85586 12960 42707 10169 20112 40157 52004 60001 80001 333 56006 84070=
85586,2009,02,02,21,00,AAXX 02214 85586 42960 32506 10171 20111 40153 57004 80001 333 56006 83070=
85586,2009,02,03,00,00,AAXX 03004 85586 12960 20000 10153 20120 40157 55003 60001 80001 333 10182 56006 82070=
85586,2009,02,03,12,00,AAXX 03124 85586 12960 00000 10151 20128 40146 52003 60004 333 20095 30/// 50330 55116=
85586,2009,02,03,15,00,AAXX 03154 85586 42960 02409 10201 20146 40156 52008=
85586,2009,02,03,18,00,AAXX 03184 85586 11120 42411 10190 20156 40157 52004 60001 71011 84600 333 56600 84703=
85586,2009,02,03,21,00,AAXX 03214 85586 41960 02609 10198 20152 40159 57007 70240=
85586,2009,02,04,00,00,AAXX 04004 85586 11960 03105 10172 20153 40153 53003 60001 70240 333 10230=
85586,2009,02,04,12,00,AAXX 04124 85586 12960 02304 10169 20133 40150 53012 60004 333 20106 30/// 50260 55123=
85586,2009,02,04,15,00,AAXX 04154 85586 42960 02606 10195 20161 40153 51004=
85586,2009,02,04,18,00,AAXX 04184 85586 12260 12508 10198 20134 40167 51015 60001 81600 333 86600 81704=
85586,2009,02,04,21,00,AAXX 04214 85586 42260 12510 10184 20135 40178 53010 81600 333 56600 81706=
85586,2009,02,05,00,00,AAXX 05004 85586 12460 20000 10165 20141 40187 53009 60001 82600 333 10200 56600 82710=
85586,2009,02,05,12,00,AAXX 05124 85586 12960 00000 10178 20129 40193 53010 60004 333 20111 30/// 50290 55109=
85586,2009,02,05,15,00,AAXX 05154 85586 42960 02408 10216 20149 40187 58005=
85586,2009,02,05,18,00,AAXX 05184 85586 12960 02314 10221 20127 40178 57009 60001=
85586,2009,02,05,21,00,AAXX 05214 85586 42960 02316 10224 20103 40165 57013=
85586,2009,02,06,00,00,AAXX 06004 85586 12960 00000 10183 20089 40173 53007 60001 333 10235=
85586,2009,02,06,12,00,AAXX 06124 85586 12960 01505 10191 20081 40140 55001 60004 333 20091 30/// 50340 55121=
85586,2009,02,06,15,00,AAXX 06154 85586 42960 02314 10189 20105 40135 58004=
85586,2009,02,06,18,00,AAXX 06184 85586 12960 02312 10186 20088 40143 53007 60001=
85586,2009,02,06,21,00,AAXX 06214 85586 42960 02508 10197 20100 40135 58007=
85586,2009,02,07,00,00,AAXX 07004 85586 11458 13304 10141 20108 40150 53012 60001 70500 81500 333 10205 56700 81615=
85586,2009,02,07,12,00,AAXX 07124 85586 12460 40503 10147 20119 40169 53014 60004 84600 333 20127 30/// 50350 55126 56700 84710=
85586,2009,02,07,15,00,AAXX 07154 85586 42960 02607 10167 20117 40183 52015=
85586,2009,02,07,18,00,AAXX 07184 85586 12460 12809 10172 20123 40179 57004 60001 81600 333 56600 81708=
85586,2009,02,07,21,00,AAXX 07214 85586 42360 32706 10171 20128 40176 58003 83600 333 56600 83707=
85586,2009,02,08,00,00,AAXX 08004 85586 12960 20000 10141 20111 40173 57004 60001 80001 333 10184 56007 82073=
85586,2009,02,08,12,00,AAXX 08124 85586 12960 00000 10132 20110 40151 53007 60004 333 20075 30/// 50350 55119=
85586,2009,02,08,15,00,AAXX 08154 85586 42960 02405 10182 20110 40149 54001=
85586,2009,02,08,18,00,AAXX 08184 85586 12960 02409 10189 20114 40139 57010 60001=
85586,2009,02,08,21,00,AAXX 08214 85586 42960 02609 10176 20112 40124 57015=
85586,2009,02,09,00,00,AAXX 09004 85586 12960 03605 10148 20110 40121 54004 60001 333 10202=
85586,2009,02,09,12,00,AAXX 09124 85586 11257 60000 10130 20117 40123 53008 60004 7051/ 81631 333 20100 30/// 50300 55118 56666 81704 83365=
85586,2009,02,09,15,00,AAXX 09154 85586 42960 53208 10181 20138 40133 52011 85030 333 56060 85363=
85586,2009,02,09,18,00,AAXX 09184 85586 12960 63010 10174 20139 40139 52006 86030 333 56060 86363=
85586,2009,02,09,21,00,AAXX 09214 85586 42960 73005 10164 20141 40142 52003 87030 333 56060 87363=
85586,2009,02,10,00,00,AAXX 10004 85586 12960 60000 10150 20129 40152 52009 60001 86030 333 10184 56060 86363=
85586,2009,02,10,12,00,AAXX 10124 85586 12960 00000 10154 20127 40175 52018 60004 333 20097 30/// 50230 55037=
85586,2009,02,10,15,00,AAXX 10154 85586 42960 02609 10199 20127 40178 51005=
85586,2009,02,10,18,00,AAXX 10184 85586 12960 02309 10217 20128 40175 58003 60001=
85586,2009,02,10,21,00,AAXX 10214 85586 42960 02409 10192 20133 40171 56005=
85586,2009,02,11,00,00,AAXX 11004 85586 11958 02604 10153 20125 40178 53007 60001 70500 333 10217=
85586,2009,02,11,12,00,AAXX 11124 85586 12960 01504 10182 20120 40161 52000 60004 333 20101 30/// 50280 55119=
85586,2009,02,11,15,00,AAXX 11154 85586 42960 02310 10226 20123 40157 54001=
85586,2009,02,11,18,00,AAXX 11184 85586 12960 02415 10223 20115 40143 58013 60001=
85586,2009,02,12,00,00,AAXX 12004 85586 12960 00104 10176 20097 40135 55001 60001 333 10251=
85586,2009,02,12,12,00,AAXX 12124 85586 12960 00000 10143 20098 40123 53012 60004 333 20076 30/// 50280 55120=
85586,2009,02,12,15,00,AAXX 12154 85586 42960 03105 10191 20119 40135 52012=
85586,2009,02,12,18,00,AAXX 12184 85586 12960 02612 10181 20116 40145 52011 60001=
85586,2009,02,12,21,00,AAXX 12214 85586 42360 22910 10178 20117 40148 51003 82600 333 56600 82709=
85586,2009,02,13,12,00,AAXX 13124 85586 12960 00000 10128 20110 40153 53005 60004 333 20075 30/// 50360 55112=
85586,2009,02,13,15,00,AAXX 13154 85586 42960 02804 10179 20122 40148 57004=
85586,2009,02,13,18,00,AAXX 13184 85586 12960 02409 10189 20135 40140 57008 60001=
85586,2009,02,13,21,00,AAXX 13214 85586 42960 22407 10218 20141 40110 57028 80001 333 56006 82073=
85586,2009,02,14,00,00,AAXX 14004 85586 12960 00403 10178 20145 40107 55005 60001 333 10222=
85586,2009,02,14,12,00,AAXX 14124 85586 11957 00000 10146 20129 40116 54000 60004 7050/ 333 20122 30/// 50300 55114=
85586,2009,02,14,15,00,AAXX 14154 85586 41959 02806 10175 20127 40111 57004 70500=
85586,2009,02,14,18,00,AAXX 14184 85586 11250 33209 10176 20128 40115 52004 60001 70511 83600 333 56600 83706=
85586,2009,02,14,21,00,AAXX 14214 85586 42960 03007 10180 20133 40114 54001=
85586,2009,02,15,00,00,AAXX 15004 85586 11456 60000 10158 20136 40126 52012 60001 70522 86600 333 10189 56600 86710=
85586,2009,02,15,12,00,AAXX 15124 85586 11456 80000 10161 20143 40135 53005 60004 7052/ 885// 333 20151 30/// 50270 55111 56699 88615=
85586,2009,02,15,15,00,AAXX 15154 85586 42560 63008 10186 20150 40150 52015 86500 333 56600 86620=
85586,2009,02,15,18,00,AAXX 15184 85586 12960 02910 10204 20157 40149 54000 60001=
85586,2009,02,15,21,00,AAXX 15214 85586 41215 82806 10173 20160 40161 52011 71022 886// 333 56699 83704 85613=
85586,2009,02,16,00,00,AAXX 16004 85586 11330 72804 10151 20144 40167 52005 60001 71052 87600 333 10205 56600 87707=
85586,2009,02,16,12,00,AAXX 16124 85586 12340 81904 10158 20137 40173 53006 69914 7052/ 886// 333 20147 30/// 50210 55048 56699 88708=
85586,2009,02,16,15,00,AAXX 16154 85586 42958 02706 10204 2013940172 50001 70522=
85586,2009,02,16,18,00,AAXX 16184 85586 11220 62412 10197 20140 40165 58007 60001 74022 82601 333 56606 82704 84075=
85586,2009,02,16,21,00,AAXX 16214 85586 42960 02311 10204 20141 40143 57021=
85586,2009,02,17,00,00,AAXX 17004 85586 11958 00305 10176 20128 40139 56005 60001 70500 333 10206=
85586,2009,02,17,12,00,AAXX 17124 85586 12960 00000 10155 20131 40125 52014 60004 333 20108 30/// 50240 55088=
85586,2009,02,17,18,00,AAXX 17184 85586 12960 02907 10198 20116 40123 54001 60001=
85586,2009,02,17,21,00,AAXX 17214 85586 42960 02706 10194 20132 58007=
85586,2009,02,18,00,00,AAXX 18004 85586 12960 00000 10156 20121 40121 53004 60001 333 10218=
85586,2009,02,18,12,00,AAXX 18124 85586 11440 80000 10153 20127 40165 53006 60004 7052/ 886// 333 20112 30/// 50260 55113 56699 88615=
85586,2009,02,18,15,00,AAXX 18154 85586 42960 02707 10198 20137 40174 53009=
85586,2009,02,18,18,00,AAXX 18184 85586 12960 02808 10207 20143 40164 58010 60001=
85586,2009,02,18,21,00,AAXX 18214 85586 42560 62305 10192 20132 40161 56004 86500 333 56600 86620=
85586,2009,02,19,00,00,AAXX 19004 85586 12960 02104 10172 20124 40157 53007 60001 82500 333 10214 56600 82625=
85586,2009,02,19,12,00,AAXX 19124 85586 11430 80000 10142 20132 40163 52005 60004 7102/ 886// 333 20096 30/// 50300 50078 56699 88710=
85586,2009,02,19,15,00,AAXX 19154 85586 41450 72806 10139 20139 40175 52013 70522 87500 333 56000 87614=
85586,2009,02,19,18,00,AAXX 19184 85586 12460 42607 10182 20135 40170 58005 60001 83501 333 56606 83615=
85586,2009,02,19,21,00,AAXX 19214 85586 41458 52607 10172 20142 40164 56006 85500 333 56600 85615=
85586,2009,02,20,00,00,AAXX 20004 85586 11458 20000 10156 20134 40154 57010 60001 70511 81501 333 10184 56606 81615=
85586,2009,02,20,12,00,AAXX 20124 85586 12960 00000 10130 20119 40138 53005 60004 333 20090 30/// 50270 55053=
85586,2009,02,20,15,00,AAXX 20154 85586 42960 02410 10196 20113 40138 54002=
85586,2009,02,20,18,00,AAXX 20184 85586 12960 02412 10178 20096 40132 57007 60001=
85586,2009,02,20,21,00,AAXX 20214 85586 42960 02410 10174 20095 40121 57012=
85586,2009,02,21,00,00,AAXX 21004 85586 12960 00505 10140 20094 40123 54001 60001 333 10200=
85586,2009,02,21,06,00,AAXX 21064 85586 12960 00000 10162 20058 39515 40117 54001 60001=
85586,2009,02,21,12,00,AAXX 21124 85586 11456 80000 10134 20114 40163 52015 60004 7052/ 885// 333 20112 30/// 50340 55117 56099 88612=
85586,2009,02,21,15,00,AAXX 21154 85586 42960 02807 10166 20121 40172 52010=
85586,2009,02,21,18,00,AAXX 21184 85586 12560 12410 10172 20120 40172 54000 60001 81500 333 56600 81620=
85586,2009,02,21,21,00,AAXX 21214 85586 42560 12409 10164 20121 40162 57010 81500 333 56600 81620=
85586,2009,02,22,00,00,AAXX 22004 85586 12460 10000 10128 20108 40165 54001 60001 81500 333 10180 56600 81615=
85586,2009,02,22,12,00,AAXX 22124 85586 12960 01105 10132 20096 40145 54001 60001 333 20081 30/// 50230 55100=
85586,2009,02,22,18,00,AAXX 22184 85586 12960 02316 10199 20142 40137 58008 60001=
85586,2009,02,22,21,00,AAXX 22214 85586 42960 02307 10196 20138 40121 57016=
85586,2009,02,23,00,00,AAXX 23004 85586 12960 00104 10162 20112 40117 56006 60001 333 10241=
85586,2009,02,23,12,00,AAXX 23124 85586 12960 00000 10134 20114 40128 51006 60001 333 20084 30/// 55280 55113=
85586,2009,02,23,15,00,AAXX 23154 85586 41956 03205 10184 20128 40140 52013 74000=
85586,2009,02,23,18,00,AAXX 23184 85586 12460 42908 10173 20126 40156 52015 60001 84600 333 56600 84615=
85586,2009,02,23,21,00,AAXX 23214 85586 41458 83106 10171 20134 40157 54001 70541 886// 333 56699 88615=
85586,2009,02,24,00,00,AAXX 24004 85586 11456 80000 10163 20131 40153 56004 60001 70522 885// 333 10186 56799 88612=
85586,2009,02,24,12,00,AAXX 24124 85586 11340 80000 10152 20124 40157 54000 60004 7052/ 886// 333 20149 30/// 50230 55082 56799 88709=
85586,2009,02,24,15,00,AAXX 24154 85586 41356 83005 10163 20131 40169 53013 70522 887// 333 56799 82709 88615=
85586,2009,02,24,18,00,AAXX 24184 85586 12560 12909 10193 20132 40165 58003 60001 81100 333 56600 81820=
85586,2009,02,24,21,00,AAXX 24214 85586 42560 82806 10181 20132 40154 57012 885// 333 56799 88620=
85586,2009,02,25,00,00,AAXX 25004 85586 11456 82604 10163 20136 40151 56003 70522 885// 333 10199 56799 88612=
85586,2009,02,25,12,00,AAXX 25124 85586 11210 80000 10090 20084 40152 54002 60004 7102/ 886// 333 20086 30/// 50220 55025 56099 88605=
85586,2009,02,25,15,00,AAXX 25154 85586 41440 83404 10136 20112 40158 52007 70522 885// 333 56799 88612=
85586,2009,02,25,18,00,AAXX 25184 85586 11440 82707 10168 20143 40155 54002 60001 70522 886// 333 56699 88712=
85586,2009,02,25,21,00,AAXX 25214 85586 41458 82805 10165 20137 40145 57010 70522 885// 333 56699 88615=
85586,2009,02,26,00,00,AAXX 26004 85586 11440 80000 10146 20132 40146 54000 60001 70522 885// 333 10174 56099 88610=
85586,2009,02,26,12,00,AAXX 26124 85586 11207 83304 10122 20116 40146 54007 60004 7464/ 886// 333 20122 30/// 50210 55000 56099 88704=
85586,2009,02,26,15,00,AAXX 26154 85586 41315 82804 10136 20129 40154 52008 71044 886// 333 56699 88708=
85586,2009,02,26,18,00,AAXX 26184 85586 11457 82605 10161 20136 40149 57004 60001 70522 885// 333 56699 88615=
85586,2009,02,26,21,00,AAXX 26214 85586 41450 82804 10164 20135 40142 57007 70522 886// 333 56699 88712=
85586,2009,02,27,00,00,AAXX 27004 85586 11456 82804 10150 20129 40141 54001 60001 70522 886// 333 10171 56099 88712=
85586,2009,02,27,12,00,AAXX 27124 85586 11320 83304 10148 20139 40131 52006 60004 7102/ 886// 333 20144 30/// 50180 56000 56099 88707=
85586,2009,02,27,15,00,AAXX 27154 85586 41440 83104 10164 20135 40137 52007 70522 886// 333 56699 88710=
85586,2009,02,27,18,00,AAXX 27184 85586 11457 53011 10180 20140 40140 51003 60001 70522 85500 333 56600 82615 83620=
85586,2009,02,27,21,00,AAXX 27214 85586 41457 32809 10180 20136 40130 57010 70511 81501 333 56600 81617 83075=
85586,2009,02,28,00,00,AAXX 28004 85586 11457 40000 10148 20127 40133 54002 60001 70511 82501 333 10190 56606 82613 83075=
85586,2009,02,28,12,00,AAXX 28124 85586 11340 80000 10164 20126 40135 52014 60001 7052/ 886// 333 20154 30/// 50230 55052 56799 88708=
85586,2009,02,28,18,00,AAXX 28184 85586 12460 43012 10205 20140 40148 58005 60001 84600 333 56600 81615 84625=
85586,2009,02,28,21,00,AAXX 28214 85586 42460 43109 10184 20130 40144 56004 81501 333 56606 81615 84075=
85586,2009,03,01,00,00,AAXX 01004 85586 11558 33404 10169 20139 40140 56004 60001 70500 81501 333 10217 56606 81620=
85586,2009,03,01,12,00,AAXX 01124 85586 12560 10000 10149 20127 40144 53006 60001 81500 333 20102 30/// 50240 55027 56600 81620=
85586,2009,03,01,15,00,AAXX 01154 85586 42460 83005 10193 20128 40152 53008 885// 333 56799 81615 88625=
85586,2009,03,01,18,00,AAXX 01184 85586 12960 02809 10211 20149 40145 58006 60001=
85586,2009,03,01,21,00,AAXX 01214 85586 42960 02911 10204 20133 40135 56010=
85586,2009,03,02,00,00,AAXX 02004 85586 11958 00000 10172 20137 40138 53002 60001 70500 333 10215=
85586,2009,03,02,12,00,AAXX 02124 85586 11208 80000 10131 20124 40128 52013 60004 7444/ 886// 333 20109 30/// 50210 55081 56799 88704=
85586,2009,03,02,15,00,AAXX 02154 85586 41340 82704 10167 20144 40149 52021 7054/ 885// 333 56799 88612=
85586,2009,03,02,18,00,AAXX 02184 85586 12560 72607 10197 20142 40146 50001 60001 87500 333 56700 87625=
85586,2009,03,02,21,00,AAXX 02214 85586 42460 22506 10186 20145 40133 57013 82100 333 56600 82815=
85586,2009,03,03,00,00,AAXX 03004 85586 11456 82304 10163 20131 40135 60001 70511 885// 333 10206 56799 88615=
85586,2009,03,03,12,00,AAXX 03124 85586 11330 80000 10144 20135 40167 52012 60004 7102/ 886// 333 20144 30/// 50190 55034 56099 88708=
85586,2009,03,03,15,00,AAXX 03154 85586 41320 82404 10152 20143 40176 52009 75022 886// 333 56699 88708=
85586,2009,03,03,18,00,AAXX 03184 85586 11450 73104 10178 20136 30102 40191 51016 69931 70552 87800 333 56600 81810 83615 87620=
85586,2009,03,03,21,00,AAXX 03214 85586 42460 42608 10194 20141 40193 54001 82502 333 56606 81615=
85586,2009,03,04,00,00,AAXX 04004 85586 12560 70000 10158 20123 40204 52011 60001 87500 333 10222 56600 87525=
85586,2009,03,04,12,00,AAXX 04124 85586 12960 00000 10124 20114 40196 57006 69934 333 20092 30/// 50200 50038 70003=
85586,2009,03,04,15,00,AAXX 04154 85586 41958 02209 10194 20138 40190 57006 70500=
85586,2009,03,04,18,00,AAXX 04184 85586 42960 02310 10190 20137 40178 57001 6000/=
85586,2009,03,04,21,00,AAXX 04214 85586 42960 02414 10190 20110 40153 57024=
85586,2009,03,05,00,00,AAXX 05004 85586 12960 00000 10162 20126 40154 54000 60001 333 10198=
85586,2009,03,05,12,00,AAXX 05124 85586 12960 00000 10106 20093 40142 53004 60004 333 20066 30/// 50280 55104=
85586,2009,03,05,15,00,AAXX 05154 85586 42960 02705 10208 20138 40158 52015=
85586,2009,03,05,18,00,AAXX 05184 85586 12960 02309 10214 20111 40133 57024 60001=
85586,2009,03,05,21,00,AAXX 05214 85586 42960 02704 10214 20123 40135 52002=
85586,2009,03,06,00,00,AAXX 06004 85586 12960 00000 10176 20119 40146 52011 60001 333 20223=
85586,2009,03,06,12,00,AAXX 06124 85586 12960 60000 10152 20124 40126 53012 60001 80001 333 20101 30/// 50230 55102 56006 86075=
85586,2009,03,06,15,00,AAXX 06154 85586 42960 22604 10229 20119 40134 53010 80001 333 56006 82075=
85586,2009,03,07,00,00,AAXX 07004 85586 12960 03607 10156 20115 40153 52008 60001 333 10230=
85586,2009,03,07,12,00,AAXX 07124 85586 12960 00000 10139 20093 40142 58006 60004 333 20081 30/// 50230 55104=
85586,2009,03,07,15,00,AAXX 07154 85586 42960 02406 10215 20122 40145 51005=
85586,2009,03,07,18,00,AAXX 07184 85586 12960 02410 10232 20119 40131 58014 60001=
85586,2009,03,07,21,00,AAXX 07214 85586 42960 02416 10213 20118 40130 50001=
85586,2009,03,08,00,00,AAXX 08004 85586 11958 00000 10161 20121 40147 53016 60001 70500 333 10243=
85586,2009,03,08,12,00,AAXX 08124 85586 11100 80000 10126 20116 40136 56004 60004 7464/ 886// 333 20124 30/// 50230 55115 56799 88703=
85586,2009,03,08,15,00,AAXX 08154 85586 41940 02706 10172 20127 40139 53004 74044=
85586,2009,03,08,18,00,AAXX 08184 85586 11206 82608 10154 20127 40132 58007 60001 74644 886// 333 56799 88706=
85586,2009,03,08,21,00,AAXX 08214 85586 41320 82806 10154 20132 40123 57009 71044 886// 333 56799 88707=
85586,2009,03,09,00,00,AAXX 09004 85586 11320 82504 10142 20128 40131 53007 60001 886// 333 10194 56799 88709=
85586,2009,03,09,12,00,AAXX 09124 85586 11320 80000 10136 20127 40119 53005 60004 7102/ 886// 333 20132 30/// 50170 55051 56099 88707=
85586,2009,03,09,15,00,AAXX 09154 85586 41430 83104 10152 20125 40123 54004 70522 885// 333 56699 88610=
85586,2009,03,09,18,00,AAXX 09184 85586 11458 72706 10176 20157 30039 54005 60001 70522 875//=
85586,2009,03,09,21,00,AAXX 09214 85586 41458 82707 10166 20136 30033 57006 70522 88500 333 56699 88613=
85586,2009,03,10,00,00,AAXX 10004 85586 11450 83104 10154 20140 40128 52006 60001 70522 885// 333 10182 56799 88610=
85586,2009,03,10,12,00,AAXX 10124 85586 11420 80000 10150 20136 40131 54002 60004 7102/ 886// 333 20148 30/// 50170 55001 56099 88710=
85586,2009,03,10,15,00,AAXX 10154 85586 41420 83305 10172 20136 30049 52007 70522 885// 333 56799 88612=
85586,2009,03,10,18,00,AAXX 10184 85586 11458 82707 10180 20136 30056 52007 60001 70522 885// 333 56699 82612 88615=
85586,2009,03,10,21,00,AAXX 10214 85586 41458 53109 10178 20138 40141 57004 70522 85500 333 56700 81615 85625=
85586,2009,03,11,00,00,AAXX 11004 85586 11456 80000 10156 20139 40145 53004 60001 70522 885// 333 10184 56099 88615=
85586,2009,03,11,12,00,AAXX 11124 85586 11440 81504 10164 20136 40131 54002 60004 7052/ 886// 333 10152 30/// 50140 55019 56099 88712=
85586,2009,03,11,15,00,AAXX 11154 85586 41450 82506 10176 20139 40139 51008 70522 885// 333 56699 88615=
85586,2009,03,11,18,00,AAXX 11184 85586 11456 82409 10188 20138 40140 54001 60001 70522 885// 333 56699 88615=
85586,2009,03,11,21,00,AAXX 11214 85586 41440 82405 10164 20144 40141 54001 70522 886// 333 56699 88712=
85586,2009,03,12,00,00,AAXX 12004 85586 11330 80000 10146 20132 40145 52004 69901 71052 886// 333 10196 56099 88707=
85586,2009,03,12,15,00,AAXX 12154 85586 42206 80000 10150 20134 40153 51007 74444 886// 333 56799 88704=
85586,2009,03,12,18,00,AAXX 12184 85586 11208 82806 10156 20141 40154 57003 60001 74444 886// 333 56799 88704=
85586,2009,03,12,21,00,AAXX 12214 85586 41102 82704 10148 20134 40153 54002 74444 886// 333 56699 88603=
85586,2009,03,13,00,00,AAXX 13004 85586 11340 82904 10153 20128 40157 53002 60001 70544 886// 333 10164 57999 88709=
85586,2009,03,13,12,00,AAXX 13124 85586 11208 80000 10137 20126 40147 57003 60004 7444/ 886// 333 20134 30/// 50160 55003 56799 88706=
85586,2009,03,13,15,00,AAXX 13154 85586 41320 70000 10158 20127 40158 52011 70544 87600 333 56700 87708=
85586,2009,03,13,18,00,AAXX 13184 85586 11320 82606 10173 20132 40160 51002 74044 88600 333 56700 85708=
85586,2009,03,13,21,00,AAXX 13214 85586 41240 22704 10172 20124 40153 57008 70544 82600 333 56600 82706=
85586,2009,03,14,00,00,AAXX 14004 85586 11956 00304 10151 20114 40147 56005 60001 70541 333 10180=
85586,2009,03,14,12,00,AAXX 14124 85586 12960 00000 10127 20115 40151 53005 60004 333 20081 30/// 50160 55063=
85586,2009,03,14,15,00,AAXX 14154 85586 42960 01818 10288 20097 40150 51004=
85586,2009,03,14,18,00,AAXX 14184 85586 12960 02412 10226 20125 40141 58010 6001=
85586,2009,03,14,21,00,AAXX 14214 85586 42960 02312 10233 20106 40128 57013=
85586,2009,03,15,00,00,AAXX 15004 85586 11956 03504 10169 20107 40142 53012 60001 70500 333 10291=
85586,2009,03,15,12,00,AAXX 15124 85586 12960 40000 10116 20083 40136 54002 60001 80001 333 20092 30/// 50220 55112 56006 84075=
85586,2009,03,15,15,00,AAXX 15154 85586 42960 62608 10208 20098 40140 52006 80001 333 56006 86075=
85586,2009,03,15,18,00,AAXX 15184 85586 12960 62607 10180 20114 40150 52007 60001 80001 333 56006 86075=
85586,2009,03,15,21,00,AAXX 15214 85586 42960 63107 10170 20109 40164 52014 80001 333 56006 86075=
85586,2009,03,16,00,00,AAXX 16004 85586 12560 23104 10140 20113 40173 52009 60001 81501 333 10224 56606 81620=
85586,2009,03,16,12,00,AAXX 16124 85586 12460 22307 10114 20103 40175 54002 60004 82600 333 20096 30/// 50240 55111 56600 82710=
85586,2009,03,16,15,00,AAXX 16154 85586 42960 02804 10200 20104 40178 51003=
85586,2009,03,16,18,00,AAXX 16184 85586 12960 12409 10182 20135 40168 57009 80001 333 56006 81075=
85586,2009,03,16,21,00,AAXX 16214 85586 42960 12308 10193 20126 40161 57008 80001 333 56006 81075=
85586,2009,03,17,00,00,AAXX 17004 85586 12960 00000 10158 20114 40166 53005 60001 333 10214=
85586,2009,03,17,12,00,AAXX 17124 85586 12960 01208 10160 20081 40120 57012 60004 333 20092 30/// 50230 55104=
85586,2009,03,17,15,00,AAXX 17154 85586 42960 02208 10198 20123 40126 52006 70200=
85586,2009,03,17,18,00,AAXX 17184 85586 12960 02408 10178 20108 40109 58017 60001=
85586,2009,03,17,21,00,AAXX 17214 85586 42960 03105 10168 20106 40104 56005=
85586,2009,03,18,00,00,AAXX 18004 85586 12960 02704 10152 20124 40121 52016 60001 70200 333 10218=
85586,2009,03,18,12,00,AAXX 18124 85586 12960 00000 10112 20093 40118 53012 60004 333 20081 30/// 50190 55111=
85586,2009,03,18,15,00,AAXX 18154 85586 42456 72607 10152 20133 40135 52009 70500 87400 333 56600 87612=
85586,2009,03,18,18,00,AAXX 18184 85586 31458 13009 10186 20109 40145 52011 60001 70500 81500 333 56600 81612=
85586,2009,03,18,21,00,AAXX 18214 85586 42460 33008 10174 20130 40158 52013 70200 83500 333 56600 83615=
85586,2009,03,19,00,00,AAXX 19004 85586 11457 80000 10154 20132 40162 54003 60001 70522 88500 333 10194 56699 88615=
85586,2009,03,19,12,00,AAXX 19124 85586 11208 80000 10138 20127 40183 52021 69914 7504/ 886// 333 20136 31/// 50180 55082 56799 88704=
85586,2009,03,19,15,00,AAXX 19154 85586 41208 82205 10146 20133 40193 52010 74654 886// 333 56599 88707=
85586,2009,03,19,18,00,AAXX 19184 85586 11340 82305 10160 20124 40194 54002 69901 70502 886// 333 56599 88709=
85586,2009,03,19,21,00,AAXX 19214 85586 41456 72305 10164 20118 40182 57006 70522 87600 333 56600 82615 87620=
85586,2009,03,20,00,00,AAXX 20004 85586 11456 80000 10134 20113 40185 54002 60001 70522 886// 333 10180 56699 88612=
85586,2009,03,20,12,00,AAXX 20124 85586 11103 80000 10115 20106 40166 53003 69914 7465/ 886// 333 20112 50160 55000 56799 70001 88703=
85586,2009,03,20,15,00,AAXX 20154 85586 41206 80000 10128 20114 40172 51006 74454 886// 333 56799 88704=
85586,2009,03,20,18,00,AAXX 20184 85586 11208 82705 10130 20114 40170 54002 60001 74422 886// 333 56699 88706=
85586,2009,03,20,21,00,AAXX 20214 85586 41208 83004 10131 20124 40150 57019 74644 886// 333 56799 88706=
85586,2009,03,21,00,00,AAXX 21004 85586 11208 80000 10120 20101 40163 52013 60001 74644 886// 333 10140 56799 88706=
85586,2009,03,21,12,00,AAXX 21124 85586 11204 80000 10104 20096 40138 57012 60004 7464/ 886// 333 20100 30/// 50160 55000 56099 88704=
85586,2009,03,21,15,00,AAXX 21154 85586 41204 82804 10121 20113 40146 53010 74644 886// 333 56099 88705=
85586,2009,03,21,18,00,AAXX 21184 85586 11312 82806 10134 20125 40150 51003 60001 71044 886// 333 56699 88708=
85586,2009,03,21,21,00,AAXX 21214 85586 41450 52705 10146 20107 40146 54003 70522 85500 333 56600 85615=
85586,2009,03,22,00,00,AAXX 22004 85586 11457 20000 10124 20108 40146 54000 60001 70522 82612 333 10150 56000 82712=
85586,2009,03,22,12,00,AAXX 22124 85586 11202 80000 10088 20082 40154 54003 60004 7464/ 886// 333 20046 31/// 50130 55014 56099 88705=
85586,2009,03,22,15,00,AAXX 22154 85586 41356 12605 10143 20113 40151 56003 70541 81600 333 56600 81708=
85586,2009,03,22,18,00,AAXX 22184 85586 12960 02806 10168 20112 40144 57006 60001=
85586,2009,03,22,21,00,AAXX 22214 85586 42960 03105 10174 20108 40134 57010=
85586,2009,03,23,00,00,AAXX 23004 85586 12960 00504 10138 20104 40135 54001 60001 333 10178=
85586,2009,03,23,12,00,AAXX 23124 85586 11202 80000 10086 20078 40136 56003 60004 7464/ 886// 333 20042 31/// 50170 55093 56099 88704=
85586,2009,03,23,15,00,AAXX 23154 85586 41440 23204 10134 20107 40156 52021 70544 82600 333 56700 82710=
85586,2009,03,23,18,00,AAXX 23184 85586 11440 43206 10154 20114 40148 52007 70522 84600 333 56700 84712=
85586,2009,03,23,21,00,AAXX 23214 85586 41315 82804 10126 20104 40156 52008 71022 886// 333 56699 88708=
85586,2009,03,24,00,00,AAXX 24004 85586 11315 80000 10116 20108 40165 52009 60001 71022 886// 333 10156 56699 88708=
85586,2009,03,24,12,00,AAXX 24124 85586 11430 80104 10117 20097 40161 54000 60004 7052/ 885// 333 20105 30/// 50160 55039 56799 88612=
85586,2009,03,24,15,00,AAXX 24154 85586 41440 82704 10130 20107 40165 53004 70522 885// 333 56699 88615=
85586,2009,03,24,18,00,AAXX 24184 85586 11460 82705 10151 20119 40168 54002 60004 70522 885// 333 56699 88645=
85586,2009,03,24,21,00,AAXX 24214 85586 41458 22705 10142 20117 40168 54001 70522 885// 333 56699 82612 88615=
85586,2009,03,25,00,00,AAXX 25004 85586 11458 80000 10132 20114 40164 54003 60001 70522 885// 333 10168 56699 88612=
85586,2009,03,25,12,00,AAXX 25124 85586 11220 80000 10122 20106 40169 53003 60004 7102/ 886// 333 20118 30/// 50160 55015 56699 88704=
85586,2009,03,25,15,00,AAXX 25154 85586 41220 80000 10134 20111 40175 51006 71042 886// 333 56799 88705=
85586,2009,03,25,18,00,AAXX 25184 85586 11330 82505 10143 20112 40164 58011 60001 70542 886// 333 56799 88708=
85586,2009,03,25,21,00,AAXX 25214 85586 41208 82204 10124 20111 40142 57021 74622 886// 333 56699 88704=
85586,2009,03,26,00,00,AAXX 26004 85586 11203 80000 10122 20113 40145 53003 74644 886// 333 10149 56699 88703=
85586,2009,03,26,12,00,AAXX 26124 85586 11103 80000 10108 20100 40126 53004 69934=
85586,2009,03,26,15,00,AAXX 26154 85586 41103 80000 10124 20110 40129 52032 74654 886// 333 56799 88703=
85586,2009,03,26,18,00,AAXX 26184 85586 11208 82806 10136 20118 40144 53005 60001 74644 886// 333 56799 88704=
85586,2009,03,26,21,00,AAXX 26214 85586 41208 83204 10138 20128 40144 58019 74644 886// 333 56799 88704=
85586,2009,03,27,00,00,AAXX 27004 85586 11220 80000 10137 20118 40155 52010 60001 71044 886// 333 10145 56799 88706=
85586,2009,03,27,12,00,AAXX 27124 85586 11440 80000 10126 20115 40180 52020 60004 7052/ 88612 333 20116 30/// 50120 55000 56099 88612=
85586,2009,03,27,15,00,AAXX 27154 85586 41450 80000 10136 20110 40191 52011 70522 885// 333 56099 88612=
85586,2009,03,27,18,00,AAXX 27184 85586 11450 82805 10150 20111 40187 58004 60001 70522 885// 333 56699 88615=
85586,2009,03,27,21,00,AAXX 27214 85586 41458 72605 10146 20104 40183 56004 70522 87500 333 56600 87618=
85586,2009,03,28,00,00,AAXX 28004 85586 11458 80000 10130 20107 40188 53005 60001 70522 885// 333 10157 56099 88617=
85586,2009,03,28,12,00,AAXX 28124 85586 11201 80000 10100 20094 40169 56003 60004 7464/ 886// 333 20096 30/// 50130 55000 56099 88704=
85586,2009,03,28,15,00,AAXX 28154 85586 41960 00000 10160 20110 40163 57005 70142=
85586,2009,03,28,18,00,AAXX 28184 85586 11308 52407 10156 20130 40156 57007 60001 74622 85600 333 56600 85708=
85586,2009,03,28,21,00,AAXX 28214 85586 41305 82806 10154 20146 40156 54000 74622 886// 333 56699 88707=
85586,2009,03,29,00,00,AAXX 29004 85586 11203 82904 10146 20139 40163 53007 69901 75042 886// 333 10164 56699 88706=
85586,2009,03,29,12,00,AAXX 29124 85586 11457 80000 10144 20135 40158 54003 69944 7052/ 885// 333 20136 31/// 50140 55048 56099 70004 88613=
85586,2009,03,29,15,00,AAXX 29154 85586 41457 80000 10150 20136 40169 52011 70522 885// 333 56099 88615=
85586,2009,03,29,21,00,AAXX 29214 85586 41204 82704 10160 20151 40155 57007 74644 886// 333 56699 88706=
85586,2009,03,30,00,00,AAXX 30004 85586 11203 80505 10144 20137 40156 54001 60001 74644 886// 333 10182 56099 88706=
85586,2009,03,30,12,00,AAXX 30124 85586 11956 00000 10122 20115 40165 50000 69914 7114/ 333 20107 31/// 50160 55015 70001=
85586,2009,03,30,15,00,AAXX 30154 85586 41950 03003 10190 20131 40170 51015 70544=
85586,2009,03,30,18,00,AAXX 30184 85586 12958 22408 10192 20114 40165 54005 60001 70300 80001 333 56006 82070=
85586,2009,03,30,21,00,AAXX 30214 85586 41960 22707 10206 20113 40146 57016 70300 80001 333 56006 82070=
85586,2009,03,31,00,00,AAXX 31004 85586 11958 20000 10148 20110 40156 53007 60001 70500 80001 333 10224 56006 82075=
85586,2009,03,31,12,00,AAXX 31124 85586 12960 01904 10168 20104 40154 54000 60004 333 20101 30/// 50180 55098=
85586,2009,03,31,15,00,AAXX 31154 85586 42960 01312 10268 20163 40143 57009=
85586,2009,03,31,18,00,AAXX 31184 85586 12960 02210 10250 20142 40132 57009 60001=
85586,2009,03,31,21,00,AAXX 31214 85586 42960 32208 10234 20117 40117 57018 333 56006 83075=
85586,2009,04,01,00,00,AAXX 01004 85586 11958 00000 10172 20092 40128 53011 60001 70500 333 10314=
85586,2009,04,01,12,00,AAXX 01124 85586 11240 31104 10131 20118 40153 52016 60004 7052/ 81601 333 20108 30/// 50240 55112 56706 81706 80375=
85586,2009,04,01,15,00,AAXX 01154 85586 42960 02605 10185 20112 40150 58004=
85586,2009,04,01,18,00,AAXX 01184 85586 12460 32908 10181 20125 40148 55000 60001 83500 333 56600 83615=
85586,2009,04,01,21,00,AAXX 01214 85586 42460 12906 10176 20128 40157 53009 81500 333 56600 81615=
85586,2009,04,02,00,00,AAXX 02004 85586 11458 40000 10151 20132 40180 52022 60001 70511 845// 333 10188 56600 84615=
85586,2009,04,02,12,00,AAXX 02124 85586 11360 20000 10110 20100 40181 54002 60004 81601 333 20090 30/// 50180 55092 56606 81707=
85586,2009,04,02,15,00,AAXX 02154 85586 41158 22805 10174 20139 40179 52008 71000 82600 333 56600 82702=
85586,2009,04,02,18,00,AAXX 02184 85586 12360 12707 10182 20127 40177 54001 60001 81600 333 56600 81707=
85586,2009,04,02,21,00,AAXX 02214 85586 42360 42406 10182 20140 40179 54002 84600 333 56600 84708=
85586,2009,04,03,12,00,AAXX 03124 85586 12460 71204 10152 20130 40169 56002 60004 87500 333 20144 30/// 50170 55089 56099 87618=
85586,2009,04,03,15,00,AAXX 03154 85586 42560 42604 10200 20138 40172 53003 81530 333 56660 81620 83365=
85586,2009,04,03,18,00,AAXX 03184 85586 12460 72606 10188 20142 40175 54003 60001 83530 333 56660 81610 83623 86365=
85586,2009,04,03,21,00,AAXX 03214 85586 41306 82405 10156 20148 40178 54003 74622 886// 333 56599 88707=
85586,2009,04,04,00,00,AAXX 04004 85586 11209 80000 10142 20136 40183 52005 60001 74644 886// 333 10212 56099 88704=
85586,2009,04,04,12,00,AAXX 04124 85586 12960 20000 10104 20097 40159 56003 60004 80002 333 20080 30/// 50140 55050 56006 82075=
85586,2009,04,04,15,00,AAXX 04154 85586 42960 32410 10196 20126 40164 53005 80001 333 56006 83075=
85586,2009,04,04,18,00,AAXX 04184 85586 12960 32412 10196 20113 40156 58008 60001 81031 333 56066 81365 83075=
85586,2009,04,04,21,00,AAXX 04214 85586 42960 22411 10182 20066 40159 53003 80001 333 56006 82075=
85586,2009,04,05,00,00,AAXX 05004 85586 12960 10000 10140 20061 40172 52013 60001 80001 333 10210 56006 81075=
85586,2009,04,05,12,00,AAXX 05124 85586 12960 01904 10089 20059 40166 54000 60004 333 20051 30/// 50180 55101=
85586,2009,04,05,15,00,AAXX 05154 85586 42960 01406 10229 20093 40157 56005=
85586,2009,04,05,18,00,AAXX 05184 85586 12960 02314 10203 20099 40151 57009 60001=
85586,2009,04,05,21,00,AAXX 05214 85586 42960 02409 10211 20152 40139 57009=
85586,2009,04,06,00,00,AAXX 06004 85586 12960 00000 10154 20115 40147 58006 60001 333 10233=
85586,2009,04,06,12,00,AAXX 06124 85586 12960 00000 10111 20089 40146 54000 60004 333 20081 30/// 50190 55107=
85586,2009,04,06,15,00,AAXX 06154 85586 42960 22407 10200 20132 40150 54003 80001 333 56600 82075=
85586,2009,04,06,18,00,AAXX 06184 85586 12160 32306 10172 20118 40142 57007 60001 83600 333 56600 83702=
85586,2009,04,06,21,00,AAXX 06214 85586 42960 03007 10180 20132 40132 57010 70200=
85586,2009,04,07,00,00,AAXX 07004 85586 11958 00000 10156 20141 40135 54002 60001 70500 333 10204=
85586,2009,04,07,12,00,AAXX 07124 85586 11908 00000 10114 20105 40142 54000 7424/ 333 20081 30/// 50170 55105=
85586,2009,04,07,15,00,AAXX 07154 85586 21958 02706 10170 20130 40152 52009 70500=
85586,2009,04,07,18,00,AAXX 07184 85586 11250 32806 10173 20134 40148 58003 60001 70500 83600 333 56600 83703=
85586,2009,04,07,21,00,AAXX 07214 85586 21240 52304 10160 20135 40154 52006 70500 85600 333 56600 85703=
85586,2009,04,08,00,00,AAXX 08004 85586 11240 80000 10138 20124 40135 57019 60001 70500 88700 333 10190 56000 88603=
85586,2009,04,08,12,00,AAXX 08124 85586 11210 80000 10084 20078 40158 53010 60004 7102/ 887// 333 20080 30/// 50130 55071 56799 88706=
85586,2009,04,08,15,00,AAXX 08154 85586 41330 80000 10151 20134 40169 52012 70522 887// 333 56799 88709=
85586,2009,04,08,18,00,AAXX 08184 85586 11458 82805 10151 20134 40171 52002 60001 70522 887// 333 56799 88711=
85586,2009,04,08,21,00,AAXX 08214 85586 41458 82905 10152 20134 40159 58012 887// 333 56799 88712=
85586,2009,04,09,00,00,AAXX 09004 85586 11330 80000 10145 20131 40172 53013 60001 70522 887// 333 10160 56799 88707=
85586,2009,04,09,12,00,AAXX 09124 85586 11315 80000 10124 20117 40161 53006 7102/ 886// 333 20124 31/// 50130 55071 56099 88707=
85586,2009,04,09,15,00,AAXX 09154 85586 41315 82704 10140 20124 40184 52023 71022 886// 333 56699 88707=
85586,2009,04,09,18,00,AAXX 09184 85586 11440 82706 10154 20134 30099 40190 53005 60001 70522 886// 333 56699 88710=
85586,2009,04,09,21,00,AAXX 09214 85586 41457 72905 10158 20131 40176 57013 70522 877// 333 56600 87615=
85586,2009,04,10,00,00,AAXX 10004 85586 11350 80000 10140 20126 40179 54003 60001 70522 887// 333 10162 56699 88613=
85586,2009,04,10,12,00,AAXX 10124 85586 11440 80804 10130 20119 40176 54002 60004 7052/ 885// 333 20118 30/// 50120 55003 56099 88613=
85586,2009,04,10,15,00,AAXX 10154 85586 41440 80000 10148 20127 40192 52016 70522 885// 333 56099 88613=
85586,2009,04,10,18,00,AAXX 10184 85586 11456 82906 10168 20125 40184 58008 60001 70522 885// 333 56699 88616=
85586,2009,04,10,21,00,AAXX 10214 85586 42560 12404 10180 20110 40167 57017 81500 333 56600 81623=
85586,2009,04,11,00,00,AAXX 11004 85586 11960 00000 10128 20097 40162 57005 60001 333 10184=
85586,2009,04,11,12,00,AAXX 11124 85586 12460 80000 10105 20099 40169 53011 60004 885// 333 20073 30/// 50140 55024 56699 88618=
85586,2009,04,11,15,00,AAXX 11154 85586 42460 80000 10153 20131 40181 52013 885// 333 56699 88618=
85586,2009,04,11,18,00,AAXX 11184 85586 12560 82604 10167 20120 40172 58008 60001 885// 333 56699 88620=
85586,2009,04,11,21,00,AAXX 11214 85586 42560 32304 10176 20117 40167 57005 83500 333 56600 83622=
85586,2009,04,12,00,00,AAXX 12004 85586 12960 00704 10073 20055 40143 54000 60004 333 20054 30/// 50170 55098=
85586,2009,04,12,12,00,AAXX 12124 85586 12960 00000 10076 20065 40093 52022 60004 333 20062 30/// 50160 55011=
85586,2009,04,12,15,00,AAXX 12154 85586 42958 02606 10178 20118 40198 52007 70500=
85586,2009,04,12,18,00,AAXX 12184 85586 12960 02507 10193 20108 40198 51009 60001=
85586,2009,04,12,21,00,AAXX 12214 85586 42960 02506 10181 20108 40191 56007=
85586,2009,04,13,00,00,AAXX 13004 85586 11956 00000 10131 20107 40201 53011 60001 70500 333 10195=
85586,2009,04,13,12,00,AAXX 13124 85586 11906 00000 10089 20080 40194 53007 60004 7424/ 333 20073 50160 55104=
85586,2009,04,13,15,00,AAXX 13154 85586 41957 02705 10178 20122 40193 54001 70500=
85586,2009,04,13,18,00,AAXX 13184 85586 11958 02407 10184 20118 40190 54002 60001 70500=
85586,2009,04,13,21,00,AAXX 13214 85586 41958 02206 10182 20121 40174 57022 70500=
85586,2009,04,14,00,00,AAXX 14004 85586 11956 00000 10141 20120 40171 54003 60001 70500 333 10188=
85586,2009,04,14,12,00,AAXX 14124 85586 11940 01004 10095 20084 40148 54000 60004 7050/ 333 20073 30/// 50180 55099=
85586,2009,04,14,15,00,AAXX 14154 85586 41108 82706 10152 20142 40156 52009 74422 886// 333 56699 88702=
85586,2009,04,14,18,00,AAXX 14184 85586 11112 82705 10154 20132 40168 52012 71022 886// 333 56699 88703=
85586,2009,04,14,21,00,AAXX 14214 85586 41220 82804 10148 20132 40168 54000 70522 886// 333 56699 88704=
85586,2009,04,15,00,00,AAXX 15004 85586 42060 02304 10182 20097 40139 57013=
85586,2009,04,16,18,00,AAXX 16184 85586 11108 82605 10134 20116 40188 52005 60001 74422 886// 333 56699 88703=
85586,2009,04,17,12,00,AAXX 17124 85586 11202 80000 10901 20083 40175 54002 60004 7464/ 886// 333 20058 31/// 50120 55000 56099 88704=
85586,2009,04,17,15,00,AAXX 17154 85586 41103 82308 10138 20128 40186 52011 74622 886// 333 56699 88702=
85586,2009,04,17,18,00,AAXX 17184 85586 11158 22211 10176 20130 40173 57002 60001 70522 82600 333 56600 82702=
85586,2009,04,18,00,00,AAXX 18004 85586 12060 02204 10184 20096 40134 54001 60001=
85586,2009,04,18,12,00,AAXX 18124 85586 12960 01006 10134 20090 40146 56012 60004 333 20084 30/// 50140 55084=
85586,2009,04,18,15,00,AAXX 18154 85586 42960 12407 10200 20093 40133 56012 80001 333 56006 81075=
85586,2009,04,18,18,00,AAXX 18184 85586 12960 42412 10180 20098 40116 57017 60001 80001 333 56006 84075=
85586,2009,04,19,00,00,AAXX 19004 85586 12960 40000 10130 20095 40137 52016 60001 80001 333 10214 56006 84075=
85586,2009,04,19,12,00,AAXX 19124 85586 12960 52402 10060 20049 40137 54001 60004 80001 333 20050 30/// 50150 55100 56006 85075=
85586,2009,04,19,15,00,AAXX 19154 85586 42960 52505 10177 20089 40144 53008 80001 333 56006 85075=
85586,2009,04,19,18,00,AAXX 19184 85586 12960 22411 10174 20102 40132 58012 60001 8001 333 56006 80075=
85586,2009,04,19,21,00,AAXX 19214 85586 42960 62804 10162 20107 40137 53005 80001 333 56006 86075=
85586,2009,04,20,00,00,AAXX 20004 85586 12958 00206 10126 20105 40153 52014 60001 70511 333 10194=
85586,2009,04,20,12,00,AAXX 20124 85586 12960 00704 10073 20055 40143 54000 60004 333 20054 30/// 50170 55098=
85586,2009,04,20,15,00,AAXX 20154 85586 42060 02304 10182 20097 40139 57013=
85586,2009,04,20,18,00,AAXX 20184 85586 12060 02204 10184 20096 40134 54001 60001=
85586,2009,04,21,00,00,AAXX 21004 85586 12960 00000 10140 20107 40139 52013 60001 333 10206=
85586,2009,04,21,06,00,AAXX 21064 85586 NIL=
85586,2009,04,21,12,00,AAXX 21124 85586 12960 01204 10107 20091 40160 53006 60004 333 20089 30/// 50180 55102=
85586,2009,04,21,15,00,AAXX 21154 85586 42960 02407 10226 20114 40168 52009=
85586,2009,04,21,18,00,AAXX 21184 85586 12960 02205 10204 20126 40163 54005 60001=
85586,2009,04,22,00,00,AAXX 22004 85586 12060 02704 10148 20136 40148 57007 60001 333 10232=
85586,2009,04,22,06,00,AAXX 22064 85586 NIL=
85586,2009,04,22,12,00,AAXX 22124 85586 11001 80000 10096 20092 40170 53016 60004 7444/ 886// 333 20078 30/// 50150 55090 56099 88701=
85586,2009,04,22,18,00,AAXX 22184 85586 11106 83105 10119 20113 40182 58006 60001 74444 886// 333 56099 88702=
85586,2009,04,22,21,00,AAXX 22214 85586 41105 82904 10129 20123 40186 53004 74642 886// 333 56099 88702=
85586,2009,04,23,00,00,AAXX 23004 85586 11104 80505 10130 20126 40195 52008 60001 74442 886// 333 10132 56099 88702=
85586,2009,04,23,06,00,AAXX 23064 85586 NIL=
85586,2009,04,23,12,00,AAXX 23124 85586 11950 00000 10104 20096 4206 54002 60004 7100/ 333 20082 30/// 50100 55000=
85586,2009,04,23,15,00,AAXX 23154 85586 42960 00907 10198 20118 40198 57008=
85586,2009,04,23,18,00,AAXX 23184 85586 12960 02209 10204 20107 40174 57024 60001=
85586,2009,04,23,21,00,AAXX 23214 85586 42960 02412 10182 20088 40168 56006=
85586,2009,04,24,00,00,AAXX 24004 85586 12960 02202 10142 20121 40164 54003 60001 333 10226=
85586,2009,04,24,12,00,AAXX 24124 85586 12960 00000 10038 20031 40174 54002 60004 333 20032 30/// 50140 55092=
85586,2009,04,24,15,00,AAXX 24154 85586 41958 02304 10148 20068 40183 50009 70500=
85586,2009,04,24,18,00,AAXX 24184 85586 12960 02408 10161 20082 40171 58012=
85586,2009,04,25,00,00,AAXX 25004 85586 12960 03204 10114 20084 40171 54003 60001 333 10176=
85586,2009,04,25,06,00,AAXX 25064 85586 NIL=
85586,2009,04,25,12,00,AAXX 25124 85586 12960 01504 10030 20022 40176 52004 60004 333 20020 30/// 50130 55093=
85586,2009,04,25,18,00,AAXX 25184 85586 12960 02407 10168 20091 40166 57013 60001=
85586,2009,04,26,00,00,AAXX 26004 85586 12960 00000 10102 20078 40157 52004 60001 333 10184=
85586,2009,04,26,06,00,AAXX 26064 85586 NIL=
85586,2009,04,26,12,00,AAXX 26124 85586 12960 00000 10041 20031 40150 53003 60004 333 20031 30/// 50160 55094=
85586,2009,04,26,18,00,AAXX 26184 85586 12440 63109 10146 20108 40155 50002 60001 70540 86500 333 56700 86615=
85586,2009,04,27,00,00,AAXX 27004 85586 11956 00000 10088 20071 40156 51013 60001 70500 333 10153=
85586,2009,04,27,03,00,AAXX 27034 85586 0300 NIL=
85586,2009,04,27,06,00,AAXX 27064 85586 NIL=
85586,2009,04,27,12,00,AAXX 27124 85586 11208 80000 10112 20101 40165 52014 60004 7424/ 886// 333 20061 30/// 50016 55098 56799 87004=
85586,2009,04,27,18,00,AAXX 27184 85586 11340 82705 10138 20092 40176 54000 60001 70522 886// 333 56699 88707=
85586,2009,04,27,21,00,AAXX 27214 85586 41340 82303 10132 20104 40176 54000 70522 886// 333 56699 88707=
85586,2009,04,28,00,00,AAXX 28004 85586 11250 80000 10123 20095 40166 56010 60001 70522 886// 333 10144 56799 88706=
85586,2009,04,28,06,00,AAXX 28064 85586 NIL=
85586,2009,04,28,12,00,AAXX 28124 85586 11106 80904 10099 20089 40165 53006 69914 7504/ 886// 333 20096 50130 55000 56799 88703=
85586,2009,04,28,18,00,AAXX 28184 85586 11250 82603 10124 20097 40168 57010 69921 70522 886// 333 56699 88706=
85586,2009,04,29,00,00,AAXX 29004 85586 11230 80000 10108 20099 40170 54001 60001 70522 886// 333 10126 56699 88704=
85586,2009,04,29,06,00,AAXX 29064 85586 NIL=
85586,2009,04,29,12,00,AAXX 29124 85586 11430 80000 10106 20098 40160 53005 69914 7105/ 886// 333 20098 31/// 50100 55000 56099 70001 88710=
85586,2009,04,29,18,00,AAXX 29184 85586 11456 82503 10124 20111 40175 58007 60001 70522 885// 333 56099 88613=
85586,2009,04,30,00,00,AAXX 30004 85586 11450 80000 10118 20109 40179 52010 60001 71022 885// 333 10125 56099 88613=
85586,2009,04,30,06,00,AAXX 30064 85586 NIL=
85586,2009,04,30,12,00,AAXX 30124 85586 11450 80000 10112 20095 40184 54000 60004 7052/ 886// 333 20112 30/// 50070 55000 56099 88710=
85586,2009,04,30,18,00,AAXX 30184 85586 11340 80000 10116 20098 40195 54003 60001 70522 886// 333 56699 88710=
85586,2009,05,01,00,00,AAXX 01004 85586 11450 80000 10114 20088 40184 54003 60001 70522 886// 333 10134 56699 88715=
85586,2009,05,01,06,00,AAXX 01064 85586 NIL=
85586,2009,05,01,12,00,AAXX 01124 85586 11420 81504 10111 20085 40018 54000 60004 7104/ 885// 333 20107 50130 55000 56799 88612=
85586,2009,05,01,18,00,AAXX 01184 85586 11340 12409 10143 20087 40177 58010 60001 70522 81600 333 56700 81709=
85586,2009,05,02,00,00,AAXX 02004 85586 11440 83604 10113 20090 40208 53016 60001 70522 885// 333 10151 56799 88615=
85586,2009,05,02,06,00,AAXX 02064 85586 NIL=
85586,2009,05,02,12,00,AAXX 02124 85586 11420 80604 10103 20086 40221 52024 60004 7102/ 885// 333 20101 30/// 50140 55034 56799 88612=
85586,2009,05,02,18,00,AAXX 02184 85586 11440 83104 10133 20082 40227 58005 60001 70522 885// 333 56799 88615=
85586,2009,05,03,00,00,AAXX 03004 85586 11556 80000 10121 20089 40220 53004 60001 70522 885// 333 10135 56799 88620=
85586,2009,05,03,06,00,AAXX 03064 85586 NIL=
85586,2009,05,03,12,00,AAXX 03124 85586 11450 20805 10092 20068 40205 58005 60004 7051/ 333 20086 30/// 50120 55000 56606 81610=
85586,2009,05,03,18,00,AAXX 03184 85586 11950 82706 10140 20084 40218 52006 60001 70522 8803/ 333 56069 88362=
85586,2009,05,04,00,00,AAXX 04004 85586 11950 80000 10110 20104 40239 52013 60031 71062 8803/ 333 10156 56069 88359=
85586,2009,05,04,06,00,AAXX 04064 85586 NIL=
85586,2009,05,04,12,00,AAXX 04124 85586 11460 11806 10086 20062 40221 57012 60034 7016/ 81500 333 20078 31/// 50110 55038 56600 70033 81613=
85586,2009,05,04,18,00,AAXX 04184 85586 12960 02011 10214 20090 30096 40186 57027 60001=
85586,2009,05,05,00,00,AAXX 05004 85586 12060 09901 10142 20094 40181 54000 60001 333 10216=
85586,2009,05,05,06,00,AAXX 05064 85586 NIL=
85586,2009,05,05,12,00,AAXX 05124 85586 12960 40000 10040 20033 40169 57012 60004 80001 333 20040 31/// 50130 55097 56006 84075=
85586,2009,05,05,18,00,AAXX 05184 85586 12960 52306 10152 20089 40144 57030 85001 333 56600 85175=
85586,2009,05,06,00,00,AAXX 06004 85586 12960 69902 10110 20093 40168 52014 60001 86010 333 10164 56060 56465=
85586,2009,05,06,06,00,AAXX 06064 85586 NIL=
85586,2009,05,06,12,00,AAXX 06124 85586 11920 70000 10100 20094 40173 57010 60004 7102/ 87010 333 20096 30/// 50090 55071 56006 87465=
85586,2009,05,06,18,00,AAXX 06184 85586 11457 82705 10134 20104 40199 54003 60001 70522 886// 333 56699 88715=
85586,2009,05,06,21,00,AAXX 06214 85586 41458 70000 10140 20108 40188 57011 70522 87500 333 56600 87617=
85586,2009,05,07,00,00,AAXX 07004 85586 11457 60000 10122 20098 40101 54003 60001 70522 86700 333 10146 56600 86715=
85586,2009,05,07,06,00,AAXX 07064 85586 NIL=
85586,2009,05,07,12,00,AAXX 07124 85586 11530 80000 10110 20104 40198 53005 60004 7102/ 885// 333 20064 30/// 50080 55000 56699 88623=
85586,2009,05,07,18,00,AAXX 07184 85586 11458 82704 10156 20090 40204 57006 60001 71022 886// 333 56699 88618=
85586,2009,05,08,00,00,AAXX 08004 85586 NIL=
85586,2009,05,08,06,00,AAXX 08064 85586 NIL=
85586,2009,05,08,12,00,AAXX 08124 85586 11940 21504 10081 20066 40174 58004 60001 7101/ 80001 333 20063 31/// 50140 55009 56006 82075=
85586,2009,05,08,18,00,AAXX 08184 85586 11440 32607 10147 20106 40177 58011 60001 70500 83500 333 56700 83612=
85586,2009,05,09,00,00,AAXX 09004 85586 11456 80000 10124 20094 40181 50001 60001 70522 885// 333 10158 56799 88612=
85586,2009,05,09,06,00,AAXX 09064 85586 NIL=
85586,2009,05,09,12,00,AAXX 09124 85586 11456 80705 10121 20093 40191 53008 60004 7052/ 885// 333 20118 30/// 50140 55067 56799 88615=
85586,2009,05,09,18,00,AAXX 09184 85586 12460 72706 10156 20104 40192 58010 60001 81501 333 56706 81615 87075=
85586,2009,05,10,00,00,AAXX 10004 85586 11958 20000 10104 20078 40199 53012 60001 70511 80001 333 10164 56006 82075=
85586,2009,05,10,06,00,AAXX 10064 85586 NIL=
85586,2009,05,10,12,00,AAXX 10124 85586 12960 51006 10094 20083 40175 54002 60004 80001 333 20066 30/// 50130 55047 56006 85075=
85586,2009,05,10,18,00,AAXX 10184 85586 12960 82604 10174 20111 40175 58010 60001 84032 333 56066 84367 84075=
85586,2009,05,11,00,00,AAXX 11004 85586 11957 80000 10140 20110 40175 53004 60001 70522 84032 333 10180 56006 84365 86075=
85586,2009,05,11,06,00,AAXX 11064 85586 NIL=
85586,2009,05,11,12,00,AAXX 11124 85586 11957 80000 10126 20110 40169 57010 60004 70522 86032 333 20116 30/// 50120 55000 56066 86365 83075=
85586,2009,05,11,18,00,AAXX 11184 85586 12960 72305 10211 20128 40158 58020 60001 87030 333 56060 87365=
85586,2009,05,12,00,00,AAXX 12004 85586 11358 30000 10152 20129 40162 52012 60001 70522 83630 333 10222 56600 83608 83365=
85586,2009,05,12,06,00,AAXX 12064 85586 NIL=
85586,2009,05,12,12,00,AAXX 12124 85586 11402 80000 10134 20125 40150 56004 60004 7464/ 886// 333 20118 31/// 50110 55020 56099 88704=
85586,2009,05,12,18,00,AAXX 12184 85586 11208 82404 10142 20133 40168 52022 60001 74222 886// 333 56699 88704=
85586,2009,05,13,00,00,AAXX 13004 85586 11108 80204 10126 20120 40163 54000 60001 76122 886// 333 10152 56699 88702=
85586,2009,05,13,06,00,AAXX 13064 85586 NIL=
85586,2009,05,13,12,00,AAXX 13124 85586 11220 80000 10152 20146 40162 53003 60024 7515/ 886// 333 20121 32/// 50050 55000 56099 70015 88706=
85586,2009,05,13,18,00,AAXX 13184 85586 11220 83005 10145 20141 40170 54002 60041 75152 886// 333 56099 88705=
85586,2009,05,14,00,00,AAXX 14004 85586 11208 80000 10134 20130 40182 52011 69921 74454 886// 333 10150 56099 88703=
85586,2009,05,14,06,00,AAXX 14064 85586 NIL=
85586,2009,05,14,12,00,AAXX 14124 85586 11330 81905 10145 20141 40185 57003 60044 7102/ 886// 333 20134 31/// 50030 55000 56099 70044 88708=
85586,2009,05,14,18,00,AAXX 14184 85586 11357 82208 10150 20138 40180 58011 60001 70522 886// 333 56699 88709=
85586,2009,05,15,00,00,AAXX 15004 85586 12960 01905 10120 20111 40174 52017 60001 333 10160=
85586,2009,05,15,06,00,AAXX 15064 85586 NIL=
85586,2009,05,15,12,00,AAXX 15124 85586 11220 72606 10106 20098 40171 53005 60004 7100/ 87600 333 20081 31/// 50140 55006 56700 87704=
85586,2009,05,15,18,00,AAXX 15184 85586 12960 52407 10175 20103 40160 57012 60001 85001 333 56699 85075=
85586,2009,05,16,00,00,AAXX 16004 85586 12960 00000 10114 20100 40154 54003 60001 333 10188=
85586,2009,05,16,06,00,AAXX 16064 85586 NIL=
85586,2009,05,16,12,00,AAXX 16124 85586 12960 40000 10088 20074 40143 53012 600004 80001 333 20082 31/// 50160 55077 56006 84075=
85586,2009,05,16,18,00,AAXX 16184 85586 11458 52304 10164 20133 40167 54001 60001 70522 85401 333 56600 85617=
85586,2009,05,17,00,00,AAXX 17004 85586 12960 50000 10130 20122 40161 54003 60001 85030 333 10166 56060 85365=
85586,2009,05,17,06,00,AAXX 17064 85586 NIL=
85586,2009,05,17,12,00,AAXX 17124 85586 12960 70602 10116 20107 40183 53003 60004 87030 333 20116 31/// 50110 55027 56060 87363=
85586,2009,05,17,18,00,AAXX 17184 85586 11320 80000 10140 20133 40189 54001 69934 75052 886// 333 56699 85707 83630=
85586,2009,05,18,00,00,AAXX 18004 85586 11456 82104 10130 20119 40192 54002 69921 70522 885// 333 10153 56599 88613=
85586,2009,05,18,06,00,AAXX 18064 85586 NIL=
85586,2009,05,18,12,00,AAXX 18124 85586 12960 20000 10084 20076 40202 54003 69954 80001 333 20048 31/// 50100 55000 56006 70001 82075=
85586,2009,05,18,18,00,AAXX 18184 85586 12960 50910 10200 20093 40166 57040 80001 333 56006 85075=
85586,2009,05,18,21,00,AAXX 18214 85586 22960 62206 10154 20098 40133 57032 80001 333 56006 86073=
85586,2009,05,19,00,00,AAXX 19004 85586 12960 20000 10118 20102 40166 57022 60001 80001 333 10212 56006 82073=
85586,2009,05,19,06,00,AAXX 19064 85586 NIL=
85586,2009,05,19,12,00,AAXX 19124 85586 12960 61404 10080 20072 40145 56003 60004 80002 333 20028 31/// 50140 55085 56006 86066=
85586,2009,05,19,18,00,AAXX 19184 85586 11957 62603 10152 20089 40153 57008 60001 70522 80001 333 56006 86072=
85586,2009,05,20,00,00,AAXX 20004 85586 12960 60000 10095 20077 40159 54005 60001 80001 333 10155 56006 86072=
85586,2009,05,20,12,00,AAXX 20124 85586 11957 20000 10038 20034 40178 53010 60004 7050/ 80001 333 20038 30/// 50110 55081 56006 82073=
85586,2009,05,20,18,00,AAXX 20184 85586 12960 32903 10157 20123 40180 58009 60001 80001 333 56006 83073=
85586,2009,05,21,00,00,AAXX 21004 85586 12960 20000 10113 20100 40166 54001 60001 80001 333 10193 56006 82073=
85586,2009,05,21,06,00,AAXX 21064 85586 NIL=
85586,2009,05,21,12,00,AAXX 21124 85586 12960 10000 10098 20082 40159 58006 60004 80001 333 20084 30/// 50120 55091 56006 81073=
85586,2009,05,21,18,00,AAXX 21184 85586 12960 62308 10207 20137 40143 58006 60001 80001 333 56006 86075  DUPE=
85586,2009,05,22,00,00,AAXX 22004 85586 11956 00000 10144 20132 40153 53011 60001 70500 80001 333 10213=
85586,2009,05,22,06,00,AAXX 22064 85586 NIL=
85586,2009,05,22,12,00,AAXX 22124 85586 12960 10000 10081 20067 40147 53002 60004 80001 333 20075 31/// 50170 55094 56006 81075=
85586,2009,05,22,18,00,AAXX 22184 85586 12258 12408 10173 20136 40149 58011 60001 70540 81600 333 56700 81704=
85586,2009,05,23,00,00,AAXX 23004 85586 11956 00000 10134 20114 40167 55011 70500 333 10212=
85586,2009,05,23,06,00,AAXX 23064 85586 NIL=
85586,2009,05,23,12,00,AAXX 23124 85586 11102 80000 10124 20118 40172 53003 60004 7414/ 886// 333 20091 31/// 50180 55079 56799 88703=
85586,2009,05,23,18,00,AAXX 23184 85586 11320 83104 10151 20135 40171 58007 60001 71044 886// 333 56799 88707=
85586,2009,05,24,00,00,AAXX 24004 85586 11102 80000 10129 20121 40173 58003 60001 74144 886// 333 10163 56799 88603=
85586,2009,05,24,06,00,AAXX 24064 85586 NIL=
85586,2009,05,24,12,00,AAXX 24124 85586 11203 80000 10116 20108 40175 53006 60004 7464/ 886// 333 20102 31/// 50110 55002 56099 88704=
85586,2009,05,24,18,00,AAXX 24184 85586 11308 82705 10150 20140 40182 58009 60001 74644 886// 333 56699 88707=
85586,2009,05,25,00,00,AAXX 25004 85586 11204 80000 10134 20127 40184 54000 69901 74654 886// 333 10152 56099 88704=
85586,2009,05,25,06,00,AAXX 25064 85586 NIL=
85586,2009,05,25,12,00,AAXX 25124 85586 11306 82404 10126 20118 40198 54002 60024 7466/ 886// 333 20126 32/// 50100 55000 56099 70024 88707=
85586,2009,05,25,18,00,AAXX 25184 85586 11458 72203 10150 20132 40218 54000 60001 70522 87600 333 56600 87613=
85586,2009,05,26,00,00,AAXX 26004 85586 12960 00000 10114 20103 40219 54001 60001 333 10164=
85586,2009,05,26,06,00,AAXX 26064 85586 NIL=
85586,2009,05,26,12,00,AAXX 26124 85586 12460 40000 10044 20033 40199 56003 60004 81501 333 20044 31/// 50120 55015 56006 81610 84075=
85586,2009,05,26,15,00,AAXX 26154 85586 42960 31704 10132 20074 40199 54000 333 56006 83075=
85586,2009,05,26,18,00,AAXX 26184 85586 12960 02311 10144 20084 40194 57005 60001=
85586,2009,05,27,00,00,AAXX 27004 85586 12960 00000 10084 20067 40200 52009 60001 333 10150=
85586,2009,05,27,06,00,AAXX 27064 85586 NIL=
85586,2009,05,27,12,00,AAXX 27124 85586 11930 20000 10000 21004 40182 57010 60004 7100/ 80001 333 21002 34/// 50090 55080 56006 82073=
85586,2009,05,27,18,00,AAXX 27184 85586 12960 42506 10126 20089 40166 57005 60001 80001 333 56006 84073=
85586,2009,05,28,00,00,AAXX 28004 85586 12960 50000 10066 20057 40163 54000 60001 82011 333 10127 56066 82465 83073=
85586,2009,05,28,06,00,AAXX 28064 85586 NIL=
85586,2009,05,28,12,00,AAXX 28124 85586 11430 80000 10073 20068 40160 54000 60004 7102/ 885// 333 20052 30/// 50080 55071 56099 88616=
85586,2009,05,28,18,00,AAXX 28184 85586 11440 82704 10120 20086 40166 57010 60001 70522 885// 333 56699 88618=
85586,2009,05,29,00,00,AAXX 29004 85586 12960 20000 10088 20076 40171 54002 60001 80001 333 10126 56006 82073=
85586,2009,05,29,06,00,AAXX 29064 85586 NIL=
85586,2009,05,29,12,00,AAXX 29124 85586 12960 70000 10066 20057 40207 52012 60004 81531 333 20042 31/// 50120 55000 56066 81630 83365 85075=
85586,2009,05,29,15,00,AAXX 29154 85586 42560 40000 10106 20087 40217 52009 84530 333 56660 82630 84365=
85586,2009,05,29,18,00,AAXX 29184 85586 12560 62704 10144 20085 40215 54001 81530 333 56660 81620 85363=
85586,2009,05,30,00,00,AAXX 30004 85586 12960 40000 10098 20080 40234 54001 60001 84030 333 10150 56060 84365=
85586,2009,05,30,06,00,AAXX 30064 85586 NIL=
85586,2009,05,30,12,00,AAXX 30124 85586 11960 80904 10078 20065 40239 52012 69924 7026/ 8807/ 333 20060 31/// 50100 55012 56069 70002 85460 83360=
85586,2009,05,30,18,00,AAXX 30184 85586 12960 62305 10150 20094 40243 54005 60001 86030 333 56060 86363=
85586,2009,05,31,00,00,AAXX 31004 85586 12960 00000 10093 20079 40250 54000 60001 333 10156=
85586,2009,05,31,06,00,AAXX 31064 85586 NIL=
85586,2009,05,31,12,00,AAXX 31124 85586 12960 01504 10072 20061 40244 55000 60004 333 20043 31/// 50140 55025=
85586,2009,05,31,18,00,AAXX 31184 85586 12960 02307 10179 20095 40214 58026 60001=
85586,2009,06,01,00,00,AAXX 01004 85586 12956 00000 10096 20074 40209 56002 60001 70500 333 10201=
85586,2009,06,01,06,00,AAXX 01064 85586 NIL=
85586,2009,06,01,12,00,AAXX 01124 85586 12960 31106 10102 20060 40175 56006 60004 333 20056 31/// 50160 55095=
85586,2009,06,01,18,00,AAXX 01184 85586 12960 02305 10180 20104 40157 57015 60001=
85586,2009,06,02,00,00,AAXX 02004 85586 12960 00404 10110 20097 40161 54002 60001 333 10182=
85586,2009,06,02,06,00,AAXX 02064 85586 NIL=
85586,2009,06,02,12,00,AAXX 02124 85586 11908 10000 10038 20028 40171 53004 7414/ 80001 333 20036 31/// 50140 55093 56799 81075=
85586,2009,06,02,18,00,AAXX 02184 85586 11205 82704 10114 20114 40164 57013 60001 74622 886// 333 56699 88705=
85586,2009,06,03,00,00,AAXX 03004 85586 11102 80000 10090 20083 40164 57010 60001 74222 886// 333 10116 56699 88702=
85586,2009,06,03,06,00,AAXX 03064 85586 NIL=
85586,2009,06,03,12,00,AAXX 03124 85586 11001 80000 10073 20071 40157 54000 60004 7444/ 886// 333 20070 30/// 50040 55012 56099 88701=
85586,2009,06,03,18,00,AAXX 03184 85586 11104 80000 10108 20104 40155 58008 60001 74244 886// 333 56699 88702=
85586,2009,06,04,00,00,AAXX 04004 85586 11105 80904 10080 20075 40170 52011 60001 74642 886// 333 10110 56699 88702=
85586,2009,06,04,06,00,AAXX 04064 85586 NIL=
85586,2009,06,04,12,00,AAXX 04124 85586 11930 11205 10070 20068 40168 54000 60004 7100/ 80001 333 20067 30/// 50070 55000 56006 81073=
85586,2009,06,04,15,00,AAXX 04154 85586 41940 11403 10153 20131 40187 52021 70500 80001 333 56006 81073=
85586,2009,06,04,18,00,AAXX 04184 85586 11958 02405 10178 20094 40169 58017 60001 70500=
85586,2009,06,05,00,00,AAXX 05004 85586 12960 40000 10126 20098 40170 52010 60001 80001 333 10218 56006 84073=
85586,2009,06,05,06,00,AAXX 05064 85586 NIL=
85586,2009,06,05,12,00,AAXX 05124 85586 12960 11406 10096 20073 40151 56006 60004 80001 333 20092 30/// 50140 55079 56006 81075=
85586,2009,06,05,18,00,AAXX 05184 85586 12960 02605 10224 20087 40143 57013 60001=
85586,2009,06,06,00,00,AAXX 06004 85586 12960 00000 10094 20080 40158 51006 60001 333 10224=
85586,2009,06,06,06,00,AAXX 06064 85586 NIL=
85586,2009,06,06,12,00,AAXX 06124 85586 11330 80404 10092 20078 40167 54002 60004 7102/ 886// 333 20086 30/// 50150 55092 56199 88708=
85586,2009,06,06,18,00,AAXX 06184 85586 11450 80000 10114 20079 40180 51004 60001 70522 886// 333 56099 88710=
85586,2009,06,07,00,00,AAXX 07004 85586 11456 80000 10118 20085 40189 52009 60001 70522 885// 333 10123 56099 88610=
85586,2009,06,07,06,00,AAXX 07064 85586 NIL=
85586,2009,06,07,12,00,AAXX 07124 85586 11520 80505 10114 20085 40192 52014 60004 7102/ 885// 333 20106 30/// 50120 55000 56799 88620=
85586,2009,06,07,18,00,AAXX 07184 85586 11556 83204 10143 20077 40190 58012 60001 70522 885// 333 56799 88625=
85586,2009,06,08,00,00,AAXX 08004 85586 11540 80000 10123 20086 40194 53003 60001 70522 885// 333 10146 56799 88625=
85586,2009,06,08,06,00,AAXX 08064 85586 NIL=
85586,2009,06,08,12,00,AAXX 08124 85586 11920 01105 10078 20060 40220 52016 60001 7100/ 333 20078 50120 55000=
85586,2009,06,08,18,00,AAXX 08184 85586 12960 02305 10170 20067 40213 54000 60001=
85586,2009,06,09,00,00,AAXX 09004 85586 12960 00000 10097 20077 40213 54002 60001 333 10172=
85586,2009,06,09,06,00,AAXX 09064 85586 NIL=
85586,2009,06,09,12,00,AAXX 09124 85586 11908 01104 10035 20025 40191 58012 60004 74100 333 20032 50140 55085=
85586,2009,06,09,18,00,AAXX 09184 85586 11950 02206 10142 20077 40181 57020 60001 70500=
85586,2009,06,10,00,00,AAXX 10004 85586 12960 00000 10078 20062 40180 52010 60001 333 10154=
85586,2009,06,10,06,00,AAXX 10064 85586 NIL=
85586,2009,06,10,12,00,AAXX 10124 85586 11940 00000 10010 20005 40187 54000 60004 7100/ 333 20010 50080 55085=
85586,2009,06,10,18,00,AAXX 10184 85586 11950 02407 10137 20086 40180 58018 60001 70500=
85586,2009,06,11,00,00,AAXX 11004 85586 11958 10000 10058 20042 40183 54002 60001 70500 80001 333 10139 56006 81073=
85586,2009,06,11,06,00,AAXX 11064 85586 NIL=
85586,2009,06,11,12,00,AAXX 11124 85586 11930 01403 10008 20004 40175 53003 60004 7100/ 333 20008 34/// 50070 55090=
85586,2009,06,11,15,00,AAXX 11154 85586 41940 00000 10124 20053 40183 52012 70500=
85586,2009,06,11,18,00,AAXX 11184 85586 11950 02407 10142 20077 40183 54001 60001 70500=
85586,2009,06,12,00,00,AAXX 12004 85586 11950 00000 10084 20073 40185 54000 60001 70500 333 10144=
85586,2009,06,12,12,00,AAXX 12124 85586 11420 80904 10094 20074 40190 54002 60004 7052/ 885// 333 20074 30/// 50140 55087 56199 88710=
85586,2009,06,13,00,00,AAXX 13004 85586 11450 83004 10102 20075 40199 54002 60001 70522 886// 333 10126 56799 88610=
85586,2009,06,13,12,00,AAXX 13124 85586 11540 80605 10100 20058 40185 54002 60004 7052/ 885// 333 20096 30/// 50120 55000 56199 88620=
85586,2009,06,14,18,00,AAXX 14184 85586 11458 83304 10136 20114 40193 58012 60031 70565 888// 333 56799 82815 88625=
85586,2009,06,16,12,00,AAXX 16124 85586 11920 71105 10075 20067 40217 58008 60001 7102/ 87030 333 20064 50140 55049 56060 87362=
85586,2009,06,16,15,00,AAXX 16154 85586 41920 70903 10104 20093 40208 57009 87030 333 56060 87362=
85586,2009,06,17,12,00,AAXX 17124 85586 11950 80000 10099 20084 40182 58006 60004 7052/ 8807/ 333 20082 31/// 50070 55005 56069 88363=
85586,2009,06,17,21,00,AAXX 17214 85586 41957 80804 10128 20101 40192 54001 70522 8807/ 333 56069 88363=
85586,2009,06,18,00,00,AAXX 18004 85586 11957 80000 10116 20091 40181 57010 60001 70522 8807/ 333 10138 56069 88363=
85586,2009,06,18,12,00,AAXX 18124 85586 12960 80703 10117 20089 40161 57005 69924 8807/ 333 20101 31/// 50060 55000 56069 70002 88362=
85586,2009,06,18,18,00,AAXX 18184 85586 12960 82804 10130 20108 40138 57023 60001 8870/ 333 56069 88360=
85586,2009,06,20,00,00,AAXX 20004 85586 11460 82109 10104 20094 40134 54001 60091 70262 886// 333 10135 56699 88610=
85586,2009,06,20,18,00,AAXX 20184 85586 12560 32407 10124 20058 40229 58012 60001 83500 333 56500 83620=
85586,2009,06,21,00,00,AAXX 21004 85586 12560 31806 10076 20055 40234 53014 60001 83500 333 10137 56400 83623=
85586,2009,06,21,18,00,AAXX 21184 85586 12960 41608 10138 20049 40226 58016 80001 333 56006 84075=
85586,2009,06,22,18,00,AAXX 22184 85586 12960 71810 10110 20063 40212 54001 60001 80001 333 56006 87075=
85586,2009,06,23,00,00,AAXX 23004 85586 12960 00000 10058 20038 40211 52009 60001 333 10112=
85586,2009,06,24,12,00,AAXX 24124 85586 11930 00000 10011 20006 40209 57006 60004 7100/ 333 20003 34/// 50060 55089=
85586,2009,06,24,18,00,AAXX 24184 85586 11957 02904 10125 20079 40206 58015 70500=
85586,2009,06,25,00,00,AAXX 25004 85586 11956 50000 10064 20052 40197 54000 60001 70522 80001 333 10127 56006 85073=
85586,2009,06,26,00,00,AAXX 26004 85586 11950 71004 10085 20077 40220 52015 60001 70522 8703/ 333 10120 56069 87365=
85586,2009,06,27,00,00,AAXX 27004 85586 11950 70000 10092 20082 40176 52014 60001 70522 8703/ 333 10134 56069 87363=
85586,2009,06,27,12,00,AAXX 27124 85586 12960 70000 10066 20049 40121 56014 60004 85031 333 20052 31/// 50070 55000 56066 85363 83075=
85586,2009,06,28,12,00,AAXX 28124 85586 11656 80204 10114 20096 40155 52024 60384 7606/ 8802/ 333 20112 32/// 50120 55041 56079 70391 88530=
85586,2009,06,28,18,00,AAXX 28184 85586 11556 83608 10121 20097 40187 51005 60021 70582 882// 333 56799 88825=
85586,2009,06,28,21,00,AAXX 28214 85586 41558 80204 10115 20095 40208 52021 70582 882// 333 56799 88820=
85586,2009,06,29,00,00,AAXX 29004 85586 11556 40706 10108 20087 40239 52031 60041 70582 84200 333 10154 56700 84820=
85586,2009,06,29,12,00,AAXX 29124 85586 12960 01104 10071 20050 40253 52013 60064 333 20069 31/// 50110 55009 70060=
85586,2009,06,29,18,00,AAXX 29184 85586 32960 61905 10171 20072 40207 57034 60001 80001 333 56006 86075=
85586,2009,06,30,12,00,AAXX 30124 85586 12960 80804 10082 20074 40168 53012 60004 8803/ 333 20069 31/// 56069 83062=
85586,2009,06,30,15,00,AAXX 30154 85586 41540 81105 10104 20096 40188 52020 78082 882// 333 56699 88820=
85586,2009,06,30,18,00,AAXX 30184 85586 11560 80707 10116 20094 40178 58009 60041 70282 882// 333 56699 88820=
85586,2009,06,30,21,00,AAXX 30214 85586 41540 80306 10103 20097 40185 53007 76063 885// 333 56699 85710 84617=
85586,2009,07,01,12,00,AAXX 01124 85586 11930 71106 10075 20069 40237 52013 60114 7102/ 87030 333 20072 32/// 50040 55000 56060 70108 87363=
85586,2009,07,01,18,00,AAXX 01184 85586 12560 22505 10145 20109 40223 58023 69901 82100 333 56600 82818=
85586,2009,07,02,00,00,AAXX 02004 85586 12960 20000 10092 20084 40243 52011 60001 80001 333 10152 56006 82073=
85586,2009,07,02,12,00,AAXX 02124 85586 12960 50903 10083 20077 40243 57006 60004 85030 333 20070 31/// 50080 55069 56060 85365=
85586,2009,07,02,18,00,AAXX 02184 85586 12960 02105 10184 20080 40215 57025 60001=
85586,2009,07,03,18,00,AAXX 03184 85586 12960 62704 10150 20102 40167 57006 60001 86030 333 56060 86362=
85586,2009,07,04,12,00,AAXX 04124 85586 12560 80505 10133 20107 40172 53007 60004 885// 333 20122 31/// 50120 55032 56799 88620=
85586,2009,07,04,21,00,AAXX 04214 85586 41340 83405 10141 20112 40190 53017 75052 886// 333 56799 88709=
85586,2009,07,06,00,00,AAXX 06004 85586 11308 60000 10124 20118 40218 53012 60001 74622 86600 333 10174 56000 86707=
85586,2009,07,06,21,00,AAXX 06214 85586 41102 80000 10120 20112 40224 52021 74622 886// 333 56099 88703=
85586,2009,07,07,00,00,AAXX 07004 85586 11450 40000 10100 20093 40234 52008 60001 70522 84100 333 10170 56099 84813=
85586,2009,07,07,12,00,AAXX 07124 85586 12360 21804 10064 20056 40200 56004 60004 82600 333 20064 31/// 50080 55045 56400 82607=
85586,2009,07,07,18,00,AAXX 07184 85586 12960 51206 10156 20089 40195 57012 82031 333 56066 82366 83073=
85586,2009,07,08,12,00,AAXX 08124 85586 12960 01707 10048 20039 40232 53004 60004 333 20048 31/// 50080 55058=
85586,2009,07,08,18,00,AAXX 08184 85586 12960 01810 10149 20071 40214 58020=
85586,2009,07,09,00,00,AAXX 09004 85586 12960 01604 10091 20051 40216 53009 60001 333 10160=
85586,2009,07,10,15,00,AAXX 10154 85586 42460 22305 10132 20097 40249 52014 82500 333 56699 82613=
85586,2009,07,10,18,00,AAXX 10184 85586 12960 02310 10146 20106 40231 57020 60001=
85586,2009,07,11,12,00,AAXX 11124 85586 12960 01605 10064 20043 40222 58008 60004 333 20049 31/// 50130 55093=
85586,2009,07,11,18,00,AAXX 11184 85586 12960 01411 10193 20049 40181 57034 60001=
85586,2009,07,12,00,00,AAXX 12004 85586 11958 00000 10114 20041 40169 55000 70500 333 10197=
85586,2009,07,12,12,00,AAXX 12124 85586 12960 60000 10049 20026 40142 53013 60001 86030 333 20044 31/// 50140 55093 56060 86365=
85586,2009,07,12,18,00,AAXX 12184 85586 12960 72704 10126 20093 40174 52003 60001 87030 333 56060 87365=
85586,2009,07,13,12,00,AAXX 13124 85586 12960 01206 10072 20054 40235 53004 60004 333 20038 31/// 50090 55000=
85586,2009,07,13,18,00,AAXX 13184 85586 12960 01808 10170 20087 40209 57020 60001=
85586,2009,07,13,21,00,AAXX 13214 85586 42960 01810 10170 20078 40172 57037=
85586,2009,07,14,12,00,AAXX 14124 85586 12960 60904 10061 20043 40139 54001 60004 86010 333 20034 31/// 50100 55092 56060 86465=
85586,2009,07,14,15,00,AAXX 14154 85586 42960 51008 10130 20070 40151 52014 85010 333 56060 85465=
85586,2009,07,14,18,00,AAXX 14184 85586 12960 52708 10132 20114 40167 52014 60001 85010 333 56060 85465=
85586,2009,07,15,00,00,AAXX 15004 85586 12560 52708 10112 20096 40209 52041 60001 85430 333 10144 56660 82620 85365=
85586,2009,07,15,12,00,AAXX 15124 85586 12960 10000 10066 20056 40233 60004 80001 333 20064 31/// 50090 55020 56006 81073=
85586,2009,07,16,00,00,AAXX 16004 85586 12960 00000 10091 20076 40198 57005 60001 333 10177=
85586,2009,07,16,15,00,AAXX 16154 85586 41950 30000 10128 20081 40156 52014 70500 80001 333 56006 83073=
85586,2009,07,17,18,00,AAXX 17184 85586 12960 83007 10143 20084 40147 58007 60001 8114/ 333 56769=
85586,2009,07,18,00,00,AAXX 18004 85586 11956 00506 10103 20067 40164 53016 60001 70500 333 10154=
85586,2009,07,18,18,00,AAXX 18184 85586 11460 50511 10153 20103 40222 58015 60021 70165 85800 333 56700 81815 8625=
85586,2009,07,19,00,00,AAXX 19004 85586 11956 00000 10094 20052 40209 53004 60001 70500 333 10170=
85586,2009,07,19,18,00,AAXX 19184 85586 12960 50604 10116 20099 40200 57004 60001 83032 333 56066 83362=
85586,2009,07,20,00,00,AAXX 20004 85586 12960 32304 10076 20062 40172 57013 60001 81032 333 10152 56066 81362 83075=
85586,2009,07,20,18,00,AAXX 20184 85586 11957 40000 10138 20081 40149 54003 60001 70522 84032 333 56066 84365 83075=
85586,2009,07,21,12,00,AAXX 21124 85586 12560 60604 10076 20068 40204 52014 60004 84530 333 20052 31/// 50080 55028 56160 84615 83363=
85586,2009,07,21,15,00,AAXX 21154 85586 41360 80000 10102 20082 40214 52009 79562 889// 333 56600 86817 82925=
85586,2009,07,23,12,00,AAXX 23124 85586 12970 01204 10016 21007 40265 54002 60004 333 20002 31/// 50120 55090=
85586,2009,07,24,00,00,AAXX 24004 85586 12960 00000 10068 20036 40255 57007 60001 333 10140=
85586,2009,07,24,12,00,AAXX 24124 85586 12960 01305 10028 21008 40218 57017 60004 333 20011 31/// 50110 55091=
85586,2009,07,24,15,00,AAXX 24154 85586 42960 00905 10114 20031 40219 54005=
85586,2009,07,24,18,00,AAXX 24184 85586 12960 02005 10172 20063 40223 54002 60001=
85586,2009,07,24,21,00,AAXX 24214 85586 42960 02307 10130 20071 40194 57028 70200=
85586,2009,07,25,12,00,AAXX 25124 85586 12960 20000 10027 20000 40191 53007 60004 80001 333 20003 34/// 50140 55095 56006 82075=
85586,2009,07,25,18,00,AAXX 25184 85586 32960 11711 10161 20042 40194 58013 60001 80001 333 56006 81075=
85586,2009,07,25,21,00,AAXX 25214 85586 42960 02407 10141 20085 40196 53002=
85586,2009,07,26,12,00,AAXX 26124 85586 12960 00904 10006 21002 40217 54002 60004 333 20012 31/// 50120 55095=
85586,2009,07,26,15,00,AAXX 26154 85586 42960 12804 10106 20056 40221 53004 80001 333 56006 81075=
85586,2009,07,26,18,00,AAXX 26184 85586 12960 72407 10146 20081 40201 58020 60001 80001 333 56006 87075=
85586,2009,07,26,21,00,AAXX 26214 85586 42960 72409 10122 20081 40200 56011 80001 333 56006 87075=
85586,2009,07,27,00,00,AAXX 27004 85586 12960 72104 10066 20056 40200 52010 60001 80001 333 10152 56006 87075=
85586,2009,07,27,18,00,AAXX 27184 85586 11958 72704 10114 20059 40219 52015 60001 70522 87030 333 56060 87365=
85586,2009,07,28,18,00,AAXX 28184 85586 12960 01508 10190 20081 40205 57016 60001=
85586,2009,07,29,00,00,AAXX 29004 85586 12960 01806 10124 20069 40192 54003 60001 333 10192=
85586,2009,07,29,12,00,AAXX 29124 85586 12960 01203 10046 20030 40153 57011 60004 333 20018 31/// 50110 55095=
85586,2009,07,29,18,00,AAXX 29184 85586 12960 02606 10130 20051 40153 54002 60001=
85586,2009,07,30,00,00,AAXX 30004 85586 12960 00000 10058 20041 40159 52003 333 10140=
85586,2009,07,30,18,00,AAXX 30184 85586 11902 30000 10024 20019 40177 53010 60004 7444/ 80001 333 20021 31/// 50120 55096 56006 83073=
85586,2009,07,31,12,00,AAXX 31124 85586 11240 70000 10068 20058 40212 52006 60004 7502/ 85630 333 20064 31/// 50110 55050 56660 70000 85706 83363=
85586,2009,08,01,12,00,AAXX 01124 85586 11202 81205 10050 20043 40233 54002 60004 7464/ 886// 333 20050 31/// 50070 55000 56299 88706=
85586,2009,08,02,12,00,AAXX 02124 85586 12960 60000 10034 20022 40188 53008 60004 80001 333 20032 31/// 50130 55082 56006 86075=
85586,2009,08,03,12,00,AAXX 03124 85586 11103 80904 10059 20047 40162 53004 60004 7424/ 886// 333 20041 31/// 50120 55075 56799 88703=
85586,2009,08,04,00,00,AAXX 04004 85586 11220 80000 10106 20096 40175 52031 69951 75352 886// 333 10118 56699 88706=
85586,2009,08,04,12,00,AAXX 04124 85586 11460 60307 10104 20079 40192 53005 69974 81530 333 20103 31/// 50110 55008 70007 81615 86362=
85586,2009,08,04,18,00,AAXX 04184 85586 12560 83007 10150 20089 40196 54003 60001 885// 333 56799 88720=
85586,2009,08,04,21,00,AAXX 04214 85586 42120 81004 10114 20097 40198 54000 71022 885// 333 56799 88706=
85586,2009,08,05,12,00,AAXX 05124 85586 11103 80903 10082 20078 40243 53014 60064 7444/ 886// 333 20056 31/// 50030 55001 56099 70055 88702=
85586,2009,08,05,18,00,AAXX 05184 85586 11560 12504 10158 20059 40250 58008 60001 70140 81100 333 56000 81820=
85586,2009,08,06,12,00,AAXX 06124 85586 12960 70000 10060 20045 40184 55005 60004 87010 333 20040 31/// 50080 55073 56060 87465=
85586,2009,08,06,15,00,AAXX 06154 85586 42960 81004 10080 20057 40190 54003 8801/ 333 56069 88465=
85586,2009,08,07,00,00,AAXX 07004 85586 12960 51803 10096 20066 40200 52015 60001 8501/ 333 10126 56069 85465=
85586,2009,08,07,12,00,AAXX 07124 85586 12960 11905 10014 20007 40223 52013 60004 81030 333 20006 31/// 50070 55002 56060 81363=
85586,2009,08,07,18,00,AAXX 07184 85586 12960 01910 10146 20042 40231 54000 60001=
85586,2009,08,09,00,00,AAXX 09004 85586 12960 10000 10074 20058 40261 52014 60001 80001 333 10150 56006 81075=
85586,2009,08,09,21,00,AAXX 09214 85586 41960 02211 10134 20083 40255 57023=
85586,2009,08,10,00,00,AAXX 10004 85586 11956 00000 10076 20054 40268 53011 60001 70500 333 10144=
85586,2009,08,10,12,00,AAXX 10124 85586 12960 40804 10059 20036 40227 57021 60004 80001 333 20048 31/// 50120 55085 56006 84075=
85586,2009,08,11,00,00,AAXX 11004 85586 12960 40000 10130 20094 40188 57006 60001 333 10186 56006 84075=
85586,2009,08,11,12,00,AAXX 11124 85586 12960 00000 10091 20052 40152 58004 60004 333 20079 31/// 50130 55083=
85586,2009,08,11,18,00,AAXX 11184 85586 11960 72903 10153 20120 40142 58014 70340 83031 333 56066 83365 84073=
85586,2009,08,12,00,00,AAXX 12004 85586 11220 80905 10098 20090 40137 57010 60001 71022 886// 333 10172 56699 88706=
85586,2009,08,12,12,00,AAXX 12124 85586 12460 80000 10104 20096 40193 53021 60004 885// 333 20078 31/// 50090 55073 56699 88618=
85586,2009,08,13,00,00,AAXX 13004 85586 11120 80000 10111 20107 40217 52013 60041 71065 886// 333 10130 56699 88702=
85586,2009,08,13,12,00,AAXX 13124 85586 11/01 91003 10090 20086 40174 54000 60054 7454/ 333 20080 31/// 50030 55000 70051 89/00=
85586,2009,08,14,12,00,AAXX 14124 85586 12960 73604 10126 20091 40081 57011 60004 87030 333 20100 31/// 50090 55037 56080 87363=
85586,2009,08,14,18,00,AAXX 14184 85586 12560 73414 10130 20110 40111 52017 60001 87430 333 56669 85620=
85586,2009,08,15,00,00,AAXX 15004 85586 11430 83512 10112 20106 40107 52010 60421 76362 884// 333 10154 56899 88617=
85586,2009,08,15,15,00,AAXX 15154 85586 41958 70904 10104 20089 40164 52010 70566 87030 333 56040 87361=
85586,2009,08,15,18,00,AAXX 15184 85586 11560 36064 10110 20086 40175 52010 69961 8583/ 333 56769 81820 85630 87362=
85586,2009,08,16,00,00,AAXX 16004 85586 12460 30905 10080 20051 40194 52010 60001 81130 333 10116 56660 81815 83362=
85586,2009,08,16,12,00,AAXX 16124 85586 12960 01004 10043 20030 40233 52022 69964 333 20041 31/// 50090 55007=
85586,2009,08,16,18,00,AAXX 16184 85586 12460 12608 10146 20074 40236 58008 81100 333 56700 81815=
85586,2009,08,17,00,00,AAXX 17004 85586 11958 00000 10087 20054 40231 58004 60001 70500 333 10147=
85586,2009,08,18,12,00,AAXX 18124 85586 11756 83605 10092 20075 40175 52022 60024 7616/ 8802/ 333 20091 50130 55009 56079 88450=
85586,2009,08,18,15,00,AAXX 18154 85586 41656 80211 10098 20094 40171 57009 76362 8803/ 333 56079 85450 88358=
85586,2009,08,19,00,00,AAXX 19004 85586 12560 40904 10090 20080 40160 52011 60271 88440 333 10115 56200 84620=
85586,2009,08,19,15,00,AAXX 19154 85586 41560 73205 10148 20116 40196 52014 78022 87200 333 56700 87825=
85586,2009,08,20,12,00,AAXX 20124 85586 12560 51003 10099 20093 40232 53013 69914 85100 333 20062 31/// 50070 55049 56600 70001 85827=
85586,2009,08,20,15,00,AAXX 20154 85586 42560 40000 10140 20098 40233 54002 84100 333 56600 84825=
85586,2009,08,20,18,00,AAXX 20184 85586 12560 42209 10160 20118 40229 57012 60001 84101 333 56606 82820 84073=
85586,2009,08,20,21,00,AAXX 20214 85586 42960 72408 10134 20110 40203 52019 8703/ 333 56609 87362=
85586,2009,08,21,00,00,AAXX 21004 85586 12960 50000 10112 20104 40206 54004 60001 8503/ 333 10162 56069 85362=
85586,2009,08,21,12,00,AAXX 21124 85586 11450 82404 10106 20098 40181 54002 60004 7102/ 8123/ 333 20094 32/// 50110 55052 56669 81815 88360=
85586,2009,08,21,15,00,AAXX 21154 85586 41956 82704 10122 20108 40182 54002 76022 8803/ 333 56069 88360=
85586,2009,08,22,00,00,AAXX 22004 85586 11956 60000 10110 20092 40201 52011 60001 70522 86030 333 10144 56069 83630=
85586,2009,08,22,12,00,AAXX 22124 85586 11202 70000 10080 20071 40203 52004 60004 7464/ 87600 333 20075 32/// 50060 55000 56000 87704=
85586,2009,08,24,00,00,AAXX 24004 85586 11956 70000 10103 20080 40217 53004 60001 70522 80001 333 10152 56006 87075=
85586,2009,08,24,12,00,AAXX 24124 85586 11958 80000 10088 20077 40213 53012 60004 7052/ 8003/ 333 20083 31/// 50130 55011 56069 88362=
85586,2009,08,25,00,00,AAXX 25004 85586 12960 30000 10110 20093 40188 57008 60001 80001 333 10174 56006 83073=
85586,2009,08,25,12,00,AAXX 25124 85586 12960 51108 10103 20080 40184 58003 60004 82031 333 20061 31/// 50130 55022 56066 82365 83075=
85586,2009,08,25,18,00,AAXX 25184 85586 12960 52310 10180 20114 40188 54004 60001 80001 333 56006 85073=
85586,2009,08,26,12,00,AAXX 26124 85586 12960 51204 10106 20087 40171 58004 60004 80001 333 20080 31/// 50110 55066 56006 85073=
85586,2009,08,27,18,00,AAXX 27184 85586 12960 42903 10163 20133 40147 58010 60001 80001 333 56006 84073=
85586,2009,08,29,00,00,AAXX 29004 85586 11312 82504 10100 20094 40152 54000 60001 71044 886// 333 10118 56699 88707=
85586,2009,08,30,00,00,AAXX 30004 85586 12960 30000 10100 20085 40189 52010 60001 83030 333 10154 56060 83368=
85586,2009,08,30,12,00,AAXX 30124 85586 11958 70000 10086 20075 40177 58012 60004 7054/ 80001 333 20072 31/// 50130 55063 56006 80075=
85586,2009,08,31,00,00,AAXX 31004 85586 11956 70000 10134 20110 40193 56004 60001 70522 87030 333 10154 56060 87365=
85586,2009,09,01,00,00,AAXX 01004 85586 11956 70000 10115 20092 40197 53011 60001 70511 83031 333 10146 56066 83365 84075=
85586,2009,09,01,12,00,AAXX 01124 85586 11958 50000 10063 20053 55000 60004 7051/ 81031 333 20057 31/// 56066 81365 85075=
85586,2009,09,01,18,00,AAXX 01184 85586 12560 32407 10150 20095 40184 58006 60001 81101 333 56606 81820=
85586,2009,09,02,00,00,AAXX 02004 85586 12960 40000 10112 20094 40193 50013 60001 80001 333 10153 56006 84073=
85586,2009,09,02,18,00,AAXX 02184 85586 12560 82305 10108 20082 40237 54002 60001 87530 333 56669 83620 88360=
85586,2009,09,03,18,00,AAXX 03184 85586 12560 22308 10150 20070 40224 57016 60001 8240/ 333 56500 82625=
85586,2009,09,04,00,00,AAXX 04004 85586 12960 00000 10094 20064 40244 54002 60001 333 10152=
85586,2009,09,04,12,00,AAXX 04124 85586 11958 71404 10072 20064 40189 57023 60004 7051/ 87030 333 20029 31/// 56060 83065=
85586,2009,09,04,18,00,AAXX 04184 85586 11958 72703 10140 20074 40216 52011 60001 70500 87030 333 56069 87365=
85586,2009,09,05,00,00,AAXX 05004 85586 11950 80000 10110 20096 40199 54001 69901 76062 8803/ 333 10142 56069 88362=
85586,2009,09,05,18,00,AAXX 05184 85586 11858 82604 10146 20095 40209 58014 69941 70566 8802/ 333 56069 88458=
85586,2009,09,05,21,00,AAXX 05214 85586 41540 80504 10135 20123 40206 56003 78066 882// 333 56799 88820=
85586,2009,09,06,12,00,AAXX 06124 85586 11506 83106 10130 20124 40199 56001 60414 7636/ 8802/ 333 20116 32/// 50040 55000 56069 70414 88523=
85586,2009,09,06,18,00,AAXX 06184 85586 11304 82805 10137 20130 40208 54000 69961 74654 886// 333 56699 88708=
85586,2009,09,07,00,00,AAXX 07004 85586 11456 50000 10116 20098 40220 52013 60001 70522 81130 333 10140 56660 81810 85360=
85586,2009,09,07,12,00,AAXX 07124 85586 12960 00000 10038 20027 40227 52009 69964 333 20012 32/// 50070 55000 70006=
85586,2009,09,07,18,00,AAXX 07184 85586 12560 12411 10128 20060 40233 58007 60001 81100 333 56400 81820=
85586,2009,09,08,00,00,AAXX 08004 85586 12960 12310 10084 20052 40234 52006 60001 81030 333 10142 56060 81360=
85586,2009,09,09,00,00,AAXX 09004 85586 12960 01905 10100 20066 40229 52006 60001 333 10132=
85586,2009,09,09,12,00,AAXX 09124 85586 12960 01605 10058 20019 40261 53020 60004 333 20008 31/// 50150 55104=
85586,2009,09,09,18,00,AAXX 09184 85586 12960 01810 10154 20062 40255 57010 60001=
85586,2009,09,10,00,00,AAXX 10004 85586 12960 01907 10100 20071 40239 54002 60001 333 10156=
85586,2009,09,10,18,00,AAXX 10184 85586 12960 02411 10140 20084 40220 57015 60001=
85586,2009,09,11,12,00,AAXX 11124 85586 11960 00000 10063 20048 40233 53006 60004 333 20029 50130 55103=
85586,2009,09,12,12,00,AAXX 12124 85586 11220 21108 10089 20081 40180 57021 60004 7104/ 82600 333 20075 31/// 50130 55104 56700 82704=
85586,2009,09,12,18,00,AAXX 12184 85586 11320 83005 10121 20097 40204 51006 60001 70544 886// 333 56799 88707=
85586,2009,09,13,00,00,AAXX 13004 85586 11440 82904 10115 20088 40198 55001 60001 70522 885// 333 10136 56799 88612=
85586,2009,09,13,18,00,AAXX 13184 85586 11450 83104 10130 20085 40178 58023 60001 70522 885// 333 56099 88615=
85586,2009,09,13,21,00,AAXX 13214 85586 41456 82406 10122 20078 40186 53008 70522 885// 333 56099 88613=
85586,2009,09,14,12,00,AAXX 14124 85586 11957 70000 10078 20062 40193 52009 60004 7052/ 82032 333 20072 31/// 50090 55003 56066 82363 87075=
85586,2009,09,14,18,00,AAXX 14184 85586 11958 62408 10150 20105 40204 54000 60001 70522 8603/ 333 56069 86365=
85586,2009,09,15,00,00,AAXX 15004 85586 11957 50000 10120 20106 40199 54000 60001 70500 85031 333 10154 56066 85365=
85586,2009,09,15,12,00,AAXX 15124 85586 12960 70000 10076 20064 40201 54001 60004 87030 333 20066 31/// 50110 55040 56060 87363=
85586,2009,09,15,15,00,AAXX 15154 85586 41558 62205 10122 20094 40215 52014 70522 86430 333 56669 81620 86365=
85586,2009,09,16,12,00,AAXX 16124 85586 11957 30000 10051 20042 40220 58003 7050/ 81031 333 20038 31/// 50140 55006 81365=
85586,2009,09,16,18,00,AAXX 16184 85586 12960 02407 10138 20089 40201 57014 60001=
85586,2009,09,17,00,00,AAXX 17004 85586 12460 20000 10108 20090 40207 57009 60001 82500 333 10142 56600 87615=
85586,2009,09,18,12,00,AAXX 18124 85586 12960 01206 10099 20080 40227 54000 60004 333 20049 31/// 50130 55003=
85586,2009,09,19,00,00,AAXX 19004 85586 11958 00000 10116 20089 40194 58003 60001 70500 333 10185=
85586,2009,09,20,18,00,AAXX 20184 85586 12960 02510 10150 20088 40187 58017 60001=
85586,2009,09,21,00,00,AAXX 21004 85586 12960 20000 10112 20098 40182 53006 60001 80002 333 10168 56006 82075=
85586,2009,09,21,12,00,AAXX 21124 85586 11440 82804 10102 20094 40186 52010 69904 7502/ 886// 333 20068 31/// 50150 55106 56699 70000 88712=
85586,2009,09,21,18,00,AAXX 21184 85586 11450 82404 10108 20095 40202 54002 69921 70522 885// 333 56699 88615=
85586,2009,09,22,00,00,AAXX 22004 85586 12460 40000 10082 20057 40221 52015 60001 84800 333 10132 56000 82815 83620=
85586,2009,09,22,18,00,AAXX 22184 85586 12960 02310 10153 20086 40218 58025 60001=
85586,2009,09,24,00,00,AAXX 24004 85586 12960 30000 10110 20083 40162 52006 60001 80001 333 10164 56006 83073=
85586,2009,09,25,18,00,AAXX 25184 85586 11450 82708 10116 20093 40196 52006 60001 70522 886// 333 56699 88710=
85586,2009,09,26,00,00,AAXX 26004 85586 12460 22304 10100 20077 40207 52029 60001 82400 333 10128 56600 82615=
85586,2009,09,27,12,00,AAXX 27124 85586 12960 40000 10072 20061 40222 54002 60001 84030 333 20042 31/// 50130 55071 56060 84363=
85586,2009,09,27,15,00,AAXX 27154 85586 42460 42507 10130 20052 40222 54000 83101 333 56606 83817=
85586,2009,09,27,18,00,AAXX 27184 85586 12460 42507 10124 20058 40225 54003 60001 83801 333 56606 82817 83640=
85586,2009,09,27,21,00,AAXX 27214 85586 42560 42407 10126 20047 40231 52006 81530 333 56660 81623 85360=
85586,2009,09,28,00,00,AAXX 28004 85586 12960 50000 10094 20048 40239 52008 60001 85030 333 10133 56060 85362=
85586,2009,09,28,12,00,AAXX 28124 85586 12960 01004 10064 20045 40211 57006 60004 333 20036 31/// 50120 55084=
85586,2009,09,28,15,00,AAXX 28154 85586 42560 22408 10134 20032 40220 52008 82400 333 56600 82620=
85586,2009,09,29,18,00,AAXX 29184 85586 12960 02312 10150 20083 40195 54005 60001=
85586,2009,09,30,18,00,AAXX 30184 85586 12560 52407 10150 20076 40215 54000 60001 85500 333 56600 85620=
85586,2009,10,01,00,00,AAXX 01004 85586 12960 00000 10105 20078 40214 54002 60001 333 10150=
85586,2009,10,01,12,00,AAXX 01124 85586 11958 10000 10092 20070 40204 56010 60004 7050/ 80001 333 20034 30/// 50250 55072 56006 81075=
85586,2009,10,01,18,00,AAXX 01184 85586 12960 12309 10161 20116 40183 57014 60001 80001 333 56006 81075=
85586,2009,10,03,12,00,AAXX 03124 85586 12960 30000 10082 20072 40163 54003 60004 80001 333 20028 30/// 30/// 50150 55104 56006 83075=
85586,2009,10,04,00,00,AAXX 04004 85586 12960 70000 10120 20109 40144 54000 60001 80002 333 10160 56006 87070=
85586,2009,10,04,15,00,AAXX 04154 85586 42560 73104 10134 20090 40174 52025 87500 333 56600 87620=
85586,2009,10,04,21,00,AAXX 04214 85586 42560 63306 10136 20088 40189 58010 81530 333 56660 81626 86362=
85586,2009,10,06,00,00,AAXX 06004 85586 12560 30000 10130 20104 40188 54005 60001 80001 333 10175 56006 83073=
85586,2009,10,06,12,00,AAXX 06124 85586 12960 61406 10126 20081 40158 56004 60004 80001 333 20086 30/// 50140 55108 56006 86073=
85586,2009,10,07,00,00,AAXX 07004 85586 12960 40000 10120 20092 40166 52009 60001 80001 333 10204 56006 84073=
85586,2009,10,07,12,00,AAXX 07124 85586 12960 60904 10107 20088 40178 54000 60004 80001 333 20048 50280 55103 56005 86070=
85586,2009,10,07,15,00,AAXX 07154 85586 42960 42605 10180 20110 40170 57007 80001 333 56005 84070=
85586,2009,10,08,18,00,AAXX 08184 85586 12960 22408 10172 20104 40188 54000 60001 80001 333 56006 82073=
85586,2009,10,09,18,00,AAXX 09184 85586 12260 72809 10150 20127 40151 54004 60001 87400 333 56600 87605=
85586,2009,10,09,21,00,AAXX 09214 85586 42460 62406 10140 20106 40151 54000 86400 333 56600 86615=
85586,2009,10,10,00,00,AAXX 10004 85586 12360 80000 10126 20108 40158 52006 60001 88400 333 10164 56600 88615=
85586,2009,10,10,12,00,AAXX 10124 85586 11340 82108 10131 20122 40170 52024 60044 7105/ 886// 333 20126 31/// 55076 56799 88708=
85586,2009,10,10,18,00,AAXX 10184 85586 12460 22411 10158 20110 40187 54000 69901 82100 333 56600 82820=
85586,2009,10,11,12,00,AAXX 11124 85586 12960 10000 10090 20063 40241 52012 60004 80001 333 20032 30/// 5//// 55083 56006 81075=
85586,2009,10,11,18,00,AAXX 11184 85586 12560 22313 10152 20077 40245 54000 60001 81101 333 56606 81823=
85586,2009,10,12,00,00,AAXX 12004 85586 12960 01504 10106 20082 40237 57006 60004 333 10168=
85586,2009,10,12,12,00,AAXX 12124 85586 12960 00000 10090 20074 40196 57008 60004 333 20040 30/// 5//// 55111=
85586,2009,10,12,21,00,AAXX 12214 85586 42960 02308 10150 20102 40156 57010=
85586,2009,10,13,12,00,AAXX 13124 85586 11120 80000 10090 20082 40157 52018 60004 7104/ 886// 333 20054 30/// 55110 56099 88703=
85586,2009,10,13,18,00,AAXX 13184 85586 12560 72809 10143 20101 40106 53006 60001 83506 333 56606 83620 84273=
85586,2009,10,13,21,00,AAXX 13214 85586 41558 82405 10122 20094 40167 54002 70522 884// 333 56699 88620=
85586,2009,10,14,00,00,AAXX 14004 85586 12560 50000 10104 20086 40170 54003 60001 85500 333 10148 56600 85620=
85586,2009,10,14,12,00,AAXX 14124 85586 12960 70000 10109 20091 40180 52009 60004 87020 333 20070 30/// 50270 55031 56060 87465=
85586,2009,10,14,18,00,AAXX 14184 85586 12560 52507 10163 20092 40179 58008 60001 84501 333 56606 84625=
85586,2009,10,14,21,00,AAXX 14214 85586 42960 02407 10158 20092 40169 57010=
85586,2009,10,15,12,00,AAXX 15124 85586 12960 30000 10084 20064 40145 52020 60004 80009 333 20043 30/// 50280 55064 56006 83273=
85586,2009,10,16,12,00,AAXX 16124 85586 12560 31204 10122 20096 40202 52010 60004 81530 333 20050 30/// 50130 55046 56360 81633 83360=
85586,2009,10,16,18,00,AAXX 16184 85586 12960 02314 10152 20095 40203 58005 60001=
85586,2009,10,17,12,00,AAXX 17124 85586 12560 20902 10102 20088 40205 52009 60004 82500 333 20048 30/// 50200 55108 56000 82620=
85586,2009,10,17,18,00,AAXX 17184 85586 12560 82410 10134 20091 40205 54002 60001 885// 333 56699 88623=
85586,2009,10,18,12,00,AAXX 18124 85586 11958 80000 10115 20092 40227 53024 60004 7052/ 8803/ 333 20082 30/// 50150 55014 56069 88362=
85586,2009,10,18,18,00,AAXX 18184 85586 12960 02315 10158 20082 56009 60001=
85586,2009,10,19,18,00,AAXX 19184 85586 12960 02314 10172 20110 40157 57011 6001=
85586,2009,10,21,00,00,AAXX 21004 85586 12960 20504 10110 20091 40208 52011 60001 80001 333 10163 56006 82073=
85586,2009,10,21,12,00,AAXX 21124 85586 12960 51003 10085 20071 40203 53013 60004 80001 333 20036 30/// 50230 55091 56006 85070=
85586,2009,10,21,18,00,AAXX 21184 85586 12960 62409 10177 20125 40204 52003 60001 80009 333 56006 86170=
85586,2009,10,22,12,00,AAXX 22124 85586 12960 60000 10143 20109 40168 54000 60004 80001 333 20102 30/// 50290 55028 56006 86070=
85586,2009,10,23,00,00,AAXX 23004 85586 12960 60000 10132 20120 40156 55008 60001 83031 333 10204 56066 83363 85075=
85586,2009,10,23,12,00,AAXX 23124 85586 11320 80000 10136 20129 40173 52013 69904 7502/ 886// 333 20104 31/// 50130 55038 56099 70000 88707=
85586,2009,10,24,18,00,AAXX 24184 85586 12960 62314 10154 20080 40179 57013 60001 84032 333 56066 84363 83075=
85586,2009,10,24,21,00,AAXX 24214 85586 42960 62511 10166 20078 40173 56006 83032 333 56066 83363 85075=
85586,2009,10,25,00,00,AAXX 25004 85586 12960 72403 10128 20076 40178 53005 60001 80002 333 10180 56006 87073=
85586,2009,10,25,12,00,AAXX 25124 85586 12960 61211 10132 20068 40188 51018 60004 80001 333 20068 30/// 50180 55055 56006 86075=
85586,2009,10,25,18,00,AAXX 25184 85586 12960 52315 10173 20084 40163 57018 60001 80001 333 56006 85075=
85586,2009,10,26,00,00,AAXX 26004 85586 12960 00000 10128 20082 53013 60001 333 10216=
85586,2009,10,26,18,00,AAXX 26184 85586 12960 32409 10170 20102 40145 54000 60001 80001 333 56006 83073=
85586,2009,10,27,00,00,AAXX 27004 85586 11960 20000 10126 20085 40142 52010 70500 80001 333 10185 56006 82075=
85586,2009,10,27,12,00,AAXX 27124 85586 12960 70704 10119 20085 40152 52023 60004 87030 333 20071 30/// 50260 55122 56060 87365=
85586,2009,10,28,18,00,AAXX 28184 85586 12960 02410 10200 20143 40147 57012 80001 333 56006 84073=
85586,2009,10,29,00,00,AAXX 29004 85586 12960 50000 10161 20125 40135 53004 60001 80001 333 10254 56006 85073=
85586,2009,10,29,12,00,AAXX 29124 85586 12960 10000 10155 20122 40138 52012 60004 80001 333 20100 30/// 50370 55110 56006 81073=
85586,2009,10,29,18,00,AAXX 29184 85586 12960 42306 10190 20144 40143 54005 60001 80001 333 56006 84073=
85586,2009,10,30,00,00,AAXX 30004 85586 12360 50305 10130 20120 40137 54001 60001 81601 333 10204 56006 81707 85075=
85586,2009,10,30,12,00,AAXX 30124 85586 11320 52402 10110 20103 40130 52010 60004 7104/ 82601 333 20092 30/// 55106 56606 82707 85075=
85586,2009,10,30,18,00,AAXX 30184 85586 11105 52708 10165 20138 40132 53005 60001 74040 82601 333 56606 82702 83073=
85586,2009,10,31,00,00,AAXX 31004 85586 11350 73505 10130 20117 40136 56006 60001 71022 87600 333 10195 56800 87708=
85586,2009,10,31,12,00,AAXX 31124 85586 11330 83604 10120 20111 40150 52014 60004 7102/ 886// 333 20110 30/// 50220 55079 56099 88708=
85586,2009,10,31,18,00,AAXX 31184 85586 12460 73107 10164 20109 40175 51002 60001 85502 333 56606 85617 83075=
85586,2009,11,01,00,00,AAXX 01004 85586 12960 60000 10130 20110 40162 54002 60001 83032 333 10168 56066 83365 85070=
85586,2009,11,01,12,00,AAXX 01124 85586 11240 80000 10115 20099 40157 55002 60004 7052/ 886// 333 20092 30/// 50170 55034 56799 88706=
85586,2009,11,01,18,00,AAXX 01184 85586 12460 82805 10158 20120 40167 58003 60001 885// 333 56799 88615=
85586,2009,11,02,00,00,AAXX 02004 85586 11456 80000 10132 20117 40171 53004 60001 70522 885// 333 10164 56799 88715=
85586,2009,11,02,12,00,AAXX 02124 85586 11220 82306 10132 20123 40209 52024 69934 7505/ 887// 333 20128 31/// 50160 55008 56799 70003 88704=
85586,2009,11,02,18,00,AAXX 02184 85586 12460 82307 10134 20114 40236 52010 69961 886// 333 56699 88710=
85586,2009,11,02,21,00,AAXX 02214 85586 42460 52410 10140 20106 40217 57020 85460 333 56660 82612 85365=
85586,2009,11,03,00,00,AAXX 03004 85586 12960 60000 10121 20089 40222 53005 60001 80001 333 10173 56006 86075=
85586,2009,11,03,12,00,AAXX 03124 85586 12960 11408 10142 20067 40201 52022 60001 80001 333 20075 30/// 50170 55000 56006 81075=
85586,2009,11,03,18,00,AAXX 03184 85586 12960 02315 10160 20081 40198 54003 60001=
85586,2009,11,03,21,00,AAXX 03214 85586 42960 02215 10150 20084 40184 57014=
85586,2009,11,04,00,00,AAXX 04004 85586 12960 01904 10109 20077 40192 53007 60001 333 10174=
85586,2009,11,04,12,00,AAXX 04124 85586 12960 01005 10118 20065 40218 52015 60004 333 20020 30/// 50330 55118=
85586,2009,11,04,18,00,AAXX 04184 85586 12560 12411 10163 20106 40220 54002 60001 333 56600 81830=
85586,2009,11,05,00,00,AAXX 05004 85586 12960 01903 10120 20085 40215 54001 60001 333 10180=
85586,2009,11,05,12,00,AAXX 05124 85586 12960 00000 10114 20088 40203 53010 60004 333 20036 30/// 50410 55125=
85586,2009,11,05,18,00,AAXX 05184 85586 12960 02212 10158 20068 40209 52009 60001=
85586,2009,11,06,00,00,AAXX 06004 85586 12960 02408 10110 20069 40199 52011 60001 333 10163=
85586,2009,11,06,12,00,AAXX 06124 85586 12960 10000 10108 20069 40213 52012 60004 80002 333 20020 30/// 50290 55124 56006 81075=
85586,2009,11,06,18,00,AAXX 06184 85586 12560 52415 10150 20093 40223 54004 60001 85403 333 56606 82620 85070=
85586,2009,11,07,00,00,AAXX 07004 85586 12960 12206 10110 20077 40199 57019 60001 80001 333 10158 56006 81075=
85586,2009,11,07,12,00,AAXX 07124 85586 12960 01805 10114 20025 40214 52010 60004 333 20031 30/// 50320 55124=
85586,2009,11,07,18,00,AAXX 07184 85586 12960 02414 10146 20055 40208 54003 60001=
85586,2009,11,08,00,00,AAXX 08004 85586 12960 42405 10110 20075 40202 53007 60001 80001 333 10150 56006 84075=
85586,2009,11,08,12,00,AAXX 08124 85586 12960 00000 10117 20066 40233 53014 60004 333 20036 30/// 50170 55113=
85586,2009,11,08,18,00,AAXX 08184 85586 12960 02312 10161 20069 40220 58003=
85586,2009,11,09,00,00,AAXX 09004 85586 12960 52309 10118 20061 40214 55001 60001 80001 333 10165 56006 85075=
85586,2009,11,09,12,00,AAXX 09124 85586 12960 71607 10116 20052 40215 52024 60004 82031 333 20078 30/// 50180 55116 56066 82365 87075=
85586,2009,11,09,18,00,AAXX 09184 85586 12960 52319 10172 20077 40203 57011 60001 80001 333 56006 85075=
85586,2009,11,10,00,00,AAXX 10004 85586 12960 02504 10127 20065 40192 53006 60001 333 10208=
85586,2009,11,10,12,00,AAXX 10124 85586 12960 01305 10111 20052 40167 52005 60004 333 20033 30/// 50240 55095=
85586,2009,11,10,15,00,AAXX 10154 85586 42960 02314 10158 20069 40160 56006=
85586,2009,11,10,18,00,AAXX 10184 85586 12960 02315 10166 20079 40151 56009 60001=
85586,2009,11,11,00,00,AAXX 11004 85586 12960 03504 10131 20071 40152 53008 60001 333 10176=
85586,2009,11,11,12,00,AAXX 11124 85586 12960 03405 10125 20090 40151 52024 60004 333 20038 30/// 50240 55127=
85586,2009,11,11,18,00,AAXX 11184 85586 12960 42211 10171 20082 40142 56003 60001 333 56006 84075=
85586,2009,11,12,00,00,AAXX 12004 85586 10960 00306 10123 20087 40141 53015 60001 333 10175=
85586,2009,11,12,12,00,AAXX 12124 85586 11002 80000 10092 20084 40144 52021 60004 7444/ 886// 333 20061 30/// 50310 55125 56099 88701=
85586,2009,11,12,18,00,AAXX 12184 85586 11360 42608 10148 20113 40156 52004 60001 70141 83601 333 56606 83709 81073=
85586,2009,11,13,00,00,AAXX 13004 85586 12460 30103 10113 20100 40154 53005 60001 83600 333 10154 56600 83710=
85586,2009,11,13,12,00,AAXX 13124 85586 12460 70803 10110 20086 40181 52022 60004 87500 333 20099 30/// 50300 55086 56600 87617=
85586,2009,11,13,18,00,AAXX 13184 85586 12960 02509 10150 20101 40189 54002 60001=
85586,2009,11,14,00,00,AAXX 14004 85586 12960 00000 10122 20096 40185 54002 60001 333 10159=
85586,2009,11,14,12,00,AAXX 14124 85586 12960 02503 10124 20097 40200 52015 60004 333 20042 30/// 50330 55091=
85586,2009,11,14,18,00,AAXX 14184 85586 12960 42316 10176 20097 40191 58009 60001 80001 333 56006 84075=
85586,2009,11,15,00,00,AAXX 15004 85586 12960 00000 10134 20073 40196 52008 60001 333 10178=
85586,2009,11,15,12,00,AAXX 15124 85586 12960 01409 10178 20068 40162 51008 60004 333 20053 30/// 50250 55127=
85586,2009,11,16,00,00,AAXX 16004 85586 12960 03506 10147 20085 40129 52005 60001 333 10275=
85586,2009,11,16,06,31,AAXX 16074 85586 12960 62407 10167 20121 40158 52007 60001 93031 333 56066 83363 83073=
85586,2009,11,16,12,00,AAXX 16124 85586 12960 73504 10116 20098 40135 52022 60004 83032 333 20060 30/// 50290 55129 56066 83362 85073=
85586,2009,11,17,00,00,AAXX 17004 85586 12960 80304 10128 20110 40153 54003 60001 83032 333 10186 56066 83363 86073=
85586,2009,11,17,06,31,AAXX 17074 85586 12960 62407 10167 20121 40158 52007 60001 93031 333 56066 83363 83073=
85586,2009,11,17,12,00,AAXX 17124 85586 12960 80000 10106 20089 40155 52013 60004 8803/ 333 20070 30/// 50210 55058 56069 88363=
85586,2009,11,17,15,00,AAXX 17154 85586 42960 80302 10152 20080 40161 52008 8803/ 333 56069 88363=
85586,2009,11,17,18,00,AAXX 17184 85586 12960 72603 10168 20110 40157 58003 60001 87030 333 56060 87363=
85586,2009,11,17,21,00,AAXX 17214 85586 42960 72306 10142 20116 40152 57006 87030 333 56060 87363=
85586,2009,11,18,00,00,AAXX 18004 85586 12960 70000 10137 20112 40138 57018 60001 87030 333 10182 56060 87363=
85586,2009,11,18,12,00,AAXX 18124 85586 11356 83109 10126 20120 40126 52022 60004 7052/ 886// 333 20094 30/// 50290 55007 56799 88708=
85586,2009,11,18,18,00,AAXX 18184 85586 12560 73314 10152 20124 40168 52025 60001 86201 333 56706 86825=
85586,2009,11,19,00,00,AAXX 19004 85586 11460 53404 10132 20120 40204 52026 69951 70262 84201 333 10178 56706 84818=
85586,2009,11,19,12,00,AAXX 19124 85586 12960 11604 10148 20107 40183 57003 69954 80001 333 20078 31/// 50270 55013 56006 70005 81075=
85586,2009,11,19,18,00,AAXX 19184 85586 12960 72316 10171 20106 40190 52007 87030 333 56060 87365=
85586,2009,11,20,00,00,AAXX 20004 85586 12960 30000 10148 20074 56008 60001 80001 333 10187 56006 83075=
85586,2009,11,20,12,00,AAXX 20124 85586 12960 82304 10131 20092 40146 52016 60004 8803/ 333 20084 30/// 50240 55085 56069 88365=
85586,2009,11,20,18,00,AAXX 20184 85586 12460 82315 10170 20101 40156 53010 60001 8153/ 333 56769 81615 88365=
85586,2009,11,21,00,00,AAXX 21004 85586 12960 70000 10147 20099 40147 57006 60001 87030 333 10214 56060 87365=
85586,2009,11,21,12,00,AAXX 21124 85586 12960 22407 10129 20096 40136 52024 60004 80001 333 20053 30/// 50240 56006 82075=
85586,2009,11,21,18,00,AAXX 21184 85586 12960 52409 10171 20102 40133 55001 60001 85030 333 56060 85365=
85586,2009,11,22,00,00,AAXX 22004 85586 12960 02305 10131 20084 40143 53015 60001 333 10188=
85586,2009,11,22,12,00,AAXX 22124 85586 12960 70602 10116 20095 40121 56004 60004 85032 333 20076 30/// 50290 55119 56066 85365 83075=
85586,2009,11,22,18,00,AAXX 22184 85586 12960 62406 10176 20119 40129 51003 60001 85032 333 56066 85365=
85586,2009,11,23,00,00,AAXX 23004 85586 12960 73204 10136 20116 40140 52006 60001 85032 333 10190 56066 85365=
85586,2009,11,23,12,00,AAXX 23124 85586 12960 12403 10136 20107 40125 52011 60004 80001 333 20066 30/// 50240 55039 56006 81075=
85586,2009,11,23,18,00,AAXX 23184 85586 12960 12407 10180 20090 40137 54001 60001 80001 333 56006 81073=
85586,2009,11,24,00,00,AAXX 24004 85586 12960 40000 10150 20093 40142 54001 60001 80002 333 10182 56006 84070=
85586,2009,11,24,12,00,AAXX 24124 85586 11320 80000 10120 20109 40169 52016 69944 7505/ 886// 333 20076 31/// 50280 55115 56099 70004 88708=
85586,2009,11,24,18,00,AAXX 24184 85586 12560 72307 10188 20142 40173 57009 69931 87460 333 56669 84620 87362=
85586,2009,11,25,00,00,AAXX 25004 85586 12960 12960 52406 10152 20120 40168 57006 60001 84032 333 10190 56066 84362 83075=
85586,2009,11,25,12,00,AAXX 25124 85586 11958 80000 10128 20101 40178 52028 60024 7052/ 8803/ 333 20083 30/// 50240 55009 56069 88362=
85586,2009,11,25,18,00,AAXX 25184 85586 12460 12316 10184 20098 40187 53004 60001 81100 333 56700 81815=
85586,2009,11,26,00,00,AAXX 26004 85586 12960 00000 10144 20081 40158 57014 60001 333 10191=
85586,2009,11,26,12,00,AAXX 26124 85586 12960 63604 10139 20101 40150 52028 60004 80001 333 20063 50250 55089 56006 86075=
85586,2009,11,26,18,00,AAXX 26184 85586 12960 52312 10184 20103 40162 54001 60001 80001 333 56006 85073=
85586,2009,11,27,00,00,AAXX 27004 85586 12960 20504 10135 20090 40152 53006 60001 80001 333 10186 86006 82075=
85586,2009,11,27,12,00,AAXX 27124 85586 12960 00000 10147 20103 40152 52017 60004 333 20044 50270 55105=
85586,2009,11,27,18,00,AAXX 27184 85586 12960 02417 10182 20114 40146 54002 60001=
85586,2009,11,28,00,00,AAXX 28004 85586 12960 00407 10132 20088 40148 53003 60001 333 10192=
85586,2009,11,28,12,00,AAXX 28124 85586 11440 60204 10108 20095 40156 52009 60004 7052/ 86600 333 20054 30/// 50290 55127 56000 86710=
85586,2009,11,28,18,00,AAXX 28184 85586 12960 32510 10166 20098 40159 54001 60001 80002 333 56006 83073=
85586,2009,11,29,00,00,AAXX 29004 85586 12960 12405 10124 20081 40152 54001 60001 80001 333 10172 56006 81075=
85586,2009,11,29,12,00,AAXX 29124 85586 12960 70000 10100 20081 40177 51010 60004 87030 333 20046 30/// 50260 55108 56060 87365=
85586,2009,11,29,18,00,AAXX 29184 85586 12960 12413 10182 20097 40178 58011 60001 81030 333 56060 81365=
85586,2009,11,30,00,00,AAXX 30004 85586 12960 12406 10138 20073 40173 53004 60001 81030 333 10186 56060 81365=
85586,2009,11,30,12,00,AAXX 30124 85586 12960 02704 10134 20093 40173 52009 60004 333 20038 30/// 50250 55074=
85586,2009,11,30,18,00,AAXX 30184 85586 12960 02315 10170 20090 40153 57020 60001=
85586,2009,12,01,00,00,AAXX 01004 85586 12960 22406 10136 20078 40147 52012 60001 80002 333 10192 56006 82075=
85586,2009,12,01,12,00,AAXX 01124 85586 12960 10000 10113 20096 40162 52013 60004 80001 333 20040 30/// 50300 55124 56005 81075=
85586,2009,12,01,18,00,AAXX 01184 85586 12960 22215 10190 20106 40163 52007 60001 333 56006 82073=
85586,2009,12,02,00,00,AAXX 02004 85586 12960 02205 10138 20102 40165 54001 60001 333 10192=
85586,2009,12,02,12,00,AAXX 02124 85586 12960 01607 10174 20092 53004 60004 333 20054 30/// 50250 55117=
85586,2009,12,02,18,00,AAXX 02184 85586 12960 02318 10186 20099 40146 57010 60001=
85586,2009,12,02,21,00,AAXX 02214 85586 42960 02212 10209 20094 40133 57012=
85586,2009,12,03,00,00,AAXX 03004 85586 12960 00104 10153 20091 40141 53006 60001 333 10211=
85586,2009,12,03,12,00,AAXX 03124 85586 12960 02804 10151 20101 40127 52018 60004 333 20061 30/// 50270 55126=
85586,2009,12,03,18,00,AAXX 03184 85586 12960 02216 10170 20104 40121 54002 60001=
85586,2009,12,03,21,00,AAXX 03214 85586 42960 02810 10160 20102 40124 54003=
85586,2009,12,04,00,00,AAXX 04004 85586 12960 03308 10131 20096 40133 53008 60001 333 10194=
85586,2009,12,04,12,00,AAXX 04124 85586 11450 83604 10120 20108 40142 52010 60004 7052/ 886// 333 20116 30/// 50290 55126 56899 88710=
85586,2009,12,04,15,00,AAXX 04154 85586 41450 82806 10130 20116 40142 54000 70522 886// 333 56699 88712=
85586,2009,12,04,18,00,AAXX 04184 85586 11457 82810 10150 20114 40147 52006 60001 70522 887// 333 56699 88617=
85586,2009,12,04,21,00,AAXX 04214 85586 41458 82506 10136 20109 40147 54001 70522 885// 333 56699 88615=
85586,2009,12,05,00,00,AAXX 05004 85586 11450 82405 10124 20098 40153 53004 60001 70522 885// 333 10152 56699 88612=
85586,2009,12,05,12,00,AAXX 05124 85586 11558 82302 10124 20078 40183 52012 60004 7052/ 885// 333 20120 30/// 50230 55000 56099 88623=
85586,2009,12,05,15,00,AAXX 05154 85586 42960 02410 10152 20086 40180 54003=
85586,2009,12,05,18,00,AAXX 05184 85586 12960 02411 10164 20097 40173 57007 60001=
85586,2009,12,05,21,00,AAXX 05214 85586 42960 02412 10152 20101 40161 57012=
85586,2009,12,06,00,00,AAXX 06004 85586 12960 10404 10128 20108 40152 57009 60001 80001 333 10170 56006 81075=
85586,2009,12,06,12,00,AAXX 06124 85586 11206 80000 10116 20107 40158 53006 60004 7417/ 886// 333 20059 30/// 50240 55081 56799 88704=
85586,2009,12,06,15,00,AAXX 06154 85586 41320 82508 10131 20118 40161 53003 71044 886// 333 56799 88708=
85586,2009,12,06,18,00,AAXX 06184 85586 11456 82812 10153 20109 40163 51002 60001 70544 885// 333 56799 88612=
85586,2009,12,06,21,00,AAXX 06214 85586 41456 72607 10141 20097 40166 53003 70522 87500 333 56700 87612=
85586,2009,12,07,00,00,AAXX 07004 85586 11458 72408 10127 20095 40175 52009 60001 70522 87500 333 10156 56700 87615=
85586,2009,12,07,12,00,AAXX 07124 85586 12960 00604 10152 20075 40197 52021 60004 333 20117 30/// 50210 55000=
85586,2009,12,07,18,00,AAXX 07184 85586 12960 02510 10174 20084 40195 52006 60001=
85586,2009,12,08,00,00,AAXX 08004 85586 12960 00000 10143 20105 40182 53007 60001 333 10187=
85586,2009,12,08,12,00,AAXX 08124 85586 12960 30000 10134 20096 40187 52027 60004 83500 333 20076 30/// 50260 55116 56700 83615=
85586,2009,12,08,18,00,AAXX 08184 85586 12960 02212 10176 10104 53003 60001=
85586,2009,12,09,00,00,AAXX 09004 85586 12960 00000 10142 20104 55001 60001 333 10182=
85586,2009,12,09,12,00,AAXX 09124 85586 11240 82504 10133 20104 40170 52024 60004 7051/ 886// 333 20071 50260 55118 56799 88706=
85586,2009,12,09,15,00,AAXX 09154 85586 41320 83004 10134 20111 40182 52012 71022 886// 333 56799 88707=
85586,2009,12,09,18,00,AAXX 09184 85586 11440 82509 10148 20111 40177 58007 60001 70522 885// 333 56799 88611=
85586,2009,12,10,00,00,AAXX 10004 85586 11456 83005 10133 20111 40157 53010 60001 70522 885// 333 10153 56799 88615=
85586,2009,12,10,12,00,AAXX 10124 85586 11457 83505 10134 20114 40169 52011 60004 7052/ 885// 333 20116 30/// 50300 55012 56899 88612=
85586,2009,12,10,18,00,AAXX 10184 85586 12560 42810 10172 20117 40183 54003 60001 84500 333 56799 84620=
85586,2009,12,11,00,00,AAXX 11004 85586 12460 52603 10144 20116 40183 54001 60001 85500 333 10182 56600 85615=
85586,2009,12,11,12,00,AAXX 11124 85586 11558 82404 10124 20098 40193 52014 60004 7052/ 885// 333 20118 30/// 50260 55063 56099 88623=
85586,2009,12,11,18,00,AAXX 11184 85586 12960 02510 10170 20113 40196 54000 60001=
85586,2009,12,12,00,00,AAXX 12004 85586 11350 82604 10130 20119 40197 54001 60001 71022 886// 333 10177 56699 88710=
85586,2009,12,12,12,00,AAXX 12124 85586 11430 81003 10120 20111 40176 53007 60004 7102/ 886// 333 20110 30/// 50230 55050 56099 88710=
85586,2009,12,12,18,00,AAXX 12184 85586 12960 02706 10180 20123 40155 57013 60001=
85586,2009,12,13,00,00,AAXX 13004 85586 12960 60404 10140 20117 40143 54003 60001 80002 333 10182 56006 86075=
85586,2009,12,13,12,00,AAXX 13124 85586 12960 60902 10146 20114 40137 58004 60004 80002 333 20092 30/// 50310 55090 56006 86075=
85586,2009,12,13,18,00,AAXX 13184 85586 12960 02319 10196 20122 40131 58003 60001=
85586,2009,12,14,00,00,AAXX 14004 85586 11958 00304 10154 20112 40133 53005 60001 70500 333 10199=
85586,2009,12,14,12,00,AAXX 14124 85586 12960 02604 10168 20122 40120 55000 60004 333 20074 30/// 50240 55116=
85586,2009,12,14,18,00,AAXX 14184 85586 12960 02409 10220 20114 40129 54002 60001=
85586,2009,12,15,00,00,AAXX 15004 85586 12960 00106 10138 20107 40112 58019 60001 333 10223=
85586,2009,12,15,12,00,AAXX 15124 85586 11220 12804 10135 20111 40128 52026 60004 7104/ 81600 333 20073 30/// 50270 55128 56700 81704=
85586,2009,12,15,18,00,AAXX 15184 85586 12960 02510 10182 20142 40143 54000 60001=
85586,2009,12,16,00,00,AAXX 16004 85586 12960 03507 10148 20098 40130 56005 60001 333 10184=
85586,2009,12,16,12,00,AAXX 16124 85586 12960 23604 10154 20102 40116 54002 60004 80001 333 20070 30/// 50320 55115 56006 82075=
85586,2009,12,16,18,00,AAXX 16184 85586 12960 12610 10178 20122 40120 53007 60001 80001 333 56006 81075=
85586,2009,12,17,00,00,AAXX 17004 85586 12960 13606 10138 20116 40114 54003 60001 80002 333 10213 56006 81075=
85586,2009,12,17,12,00,AAXX 17124 85586 12460 52604 10138 20113 40135 52009 60004 83530 333 20100 30/// 50290 55113 56660 83615 85365=
85586,2009,12,18,00,00,AAXX 18004 85586 12560 30406 10138 20118 40139 56006 60001 81102 333 10172 56106 81820 83073=
85586,2009,12,18,12,00,AAXX 18124 85586 12960 12403 10148 20116 40141 52013 60004 80002 333 20080 30/// 50250 55076 56006 81075=
85586,2009,12,18,18,00,AAXX 18184 85586 12960 32710 10176 20126 40167 52005 60001 80001 333 56006 83070=
85586,2009,12,19,00,00,AAXX 19004 85586 12960 22208 10141 20079 40181 52007 60001 80001 333 10192 56006 82075=
85586,2009,12,19,12,00,AAXX 19124 85586 12960 72504 10139 20072 40186 52027 60004 7022/ 80001 333 20069 30/// 50240 55127 56006 87075=
85586,2009,12,19,18,00,AAXX 19184 85586 12960 32319 10178 20090 40175 58008 80001 333 56006 83075=
85586,2009,12,20,00,00,AAXX 20004 85586 12960 00000 10163 20099 40172 55002 60001 333 10202=
85586,2009,12,20,12,00,AAXX 20124 85586 12960 02504 10144 20098 40173 52028 60004 333 20052 30/// 50290 55094=
85586,2009,12,20,18,00,AAXX 20184 85586 12960 02412 10188 20106 40175 54001 60001=
85586,2009,12,21,00,00,AAXX 21004 85586 12960 02105 10147 20088 40186 53013 60001 333 10195=
85586,2009,12,21,12,00,AAXX 21124 85586 12960 00000 10142 20097 40183 52016 60004 333 20052 30/// 50330 55129=
85586,2009,12,21,18,00,AAXX 21184 85586 12960 02411 10192 20104 40177 57015 60001=
85586,2009,12,22,00,00,AAXX 22004 85586 12960 60000 10148 20103 40182 52021 60001 82032 333 10192 56066 82365 86075=
85586,2009,12,22,12,00,AAXX 22124 85586 12460 23602 10140 20111 40184 52014 60004 82500 333 20104 30/// 50300 55115 56800 82615=
85586,2009,12,22,18,00,AAXX 22184 85586 11458 32408 10165 20117 40189 54002 60001 70500 83400 333 56600 83615=
85586,2009,12,23,00,00,AAXX 23004 85586 12960 12804 10140 20113 40182 52009 60001 80001 333 10182 56006 81075=
85586,2009,12,23,12,00,AAXX 23124 85586 12960 23504 10136 20102 40188 52024 60004 820600 333 20083 30/// 50240 55114 56700 82709=
85586,2009,12,23,15,00,AAXX 23154 85586 42960 02708 10184 20097 40178 57009=
85586,2009,12,23,18,00,AAXX 23184 85586 12960 02410 10180 20120 40180 54003 60001=
85586,2009,12,24,00,00,AAXX 24004 85586 12360 12704 10154 20132 40187 56006 81600 333 10193 56700 81708=
85586,2009,12,24,12,00,AAXX 24124 85586 12960 02505 10165 20116 40166 52017 60004 333 20083 30/// 50270 55117=
85586,2009,12,24,18,00,AAXX 24184 85586 12360 32610 10178 20125 40168 58001 60001 83600 333 56700 83709=
85586,2009,12,25,00,00,AAXX 25004 85586 12960 00000 10170 20137 40148 57005 60001 333 10190=
85586,2009,12,25,12,00,AAXX 25124 85586 12460 13303 10152 20128 40150 51006 60004 81600 333 20092 30/// 50320 55116 56600 81710=
85586,2009,12,25,15,00,AAXX 25154 85586 42960 02607 10190 20137 40156 52006=
85586,2009,12,25,18,00,AAXX 25184 85586 12960 02411 10178 20120 40157 54001 60001=
85586,2009,12,26,00,00,AAXX 26004 85586 12960 02504 10150 20083 40162 52008 60001 333 10192=
85586,2009,12,26,12,00,AAXX 26124 85586 12960 12404 10146 20098 40184 52011 60004 80001 333 20070 30/// 50360 55125 56001 81075=
85586,2009,12,26,18,00,AAXX 26184 85586 12960 02411 10188 20116 40171 57009 60001=
85586,2009,12,27,00,00,AAXX 27004 85586 12960 02406 10170 20122 40166 53008 60001 333 10200=
85586,2009,12,27,12,00,AAXX 27124 85586 12960 40000 10150 20124 40158 52008 60004 80002 333 20096 30/// 50340 55125 56006 84073=
85586,2009,12,28,00,00,AAXX 28004 85586 12560 13004 10144 20123 40170 52006 60001 81500 333 10198 56600 81620=
85586,2009,12,28,12,00,AAXX 28124 85586 12560 30000 10151 20116 40187 52019 60004 82501 333 20088 30/// 50310 55114 56605 82630=
85586,2009,12,28,15,00,AAXX 28154 85586 42560 22408 10192 20116 40193 52007 82200 333 56600 82820=
85586,2009,12,28,18,00,AAXX 28184 85586 12960 22409 10200 20103 40192 54001 60001 80001 333 56006 82073=
85586,2009,12,28,21,00,AAXX 28214 85586 42960 42310 10174 20128 40191 54001 80001 333 56006 84073=
85586,2009,12,29,00,00,AAXX 29004 85586 12460 72506 10167 20159 57009 60001 87500 333 10208 56600 87613=
85586,2009,12,29,12,00,AAXX 29124 85586 11960 00000 10169 20132 40192 52027 60004 7024/ 333 20088 30/// 50290 55123=
85586,2009,12,29,18,00,AAXX 29184 85586 12960 02313 10190 20133 40193 54000 60001=
85586,2009,12,29,21,00,AAXX 29214 85586 42960 02214 10184 20137 40189 54003=
85586,2009,12,30,00,00,AAXX 30004 85586 12960 02307 10162 20130 40181 53008 60001 333 10202=
85586,2009,12,30,12,00,AAXX 30124 85586 12960 02604 10164 20089 40172 52024 6004 333 20089 30/// 50310 55125=
85586,2009,12,30,18,00,AAXX 30184 85586 12960 02314 10202 20125 40171 56004 60001=
85586,2009,12,31,00,00,AAXX 31004 85586 12560 82906 10166 20134 40175 53015 60001 885// 333 10204 56699 88620=
85586,2009,12,31,12,00,AAXX 31124 85586 11458 80000 10154 20124 40182 52027 60004 7052/ 885// 333 20117 30/// 50320 55122 56699 83615 88620=
85586,2009,12,31,18,00,AAXX 31184 85586 12960 22412 10193 20108 40188 55001 60001 80001 333 56006 82075=
