85586,2018,01,01,00,00,AAXX 01004 85586 14460 22805 10149 20128 30092 40179 52005 60001 70122 82500 333 10182 566// 82615=
85586,2018,01,01,12,00,AAXX 01124 85586 14360 80405 10139 20113 30094 40181 52012 60001 70222 886// 333 20095 30/// 55029 70000 88709=
85586,2018,01,01,15,00,AAXX 01154 85586 42360 53009 10152 20112 30104 40191 52012 85600 333 566// 85709==
85586,2018,01,01,18,00,AAXX 01184 85586 14460 22809 10179 20120 30108 40194 52003 60001 70111 82500 333 566// 82613=
85586,2018,01,01,21,00,AAXX 01214 85586 42360 43208 10180 20129 30101 40187 56006 81601 333 566/6 81708 84075==
85586,2018,01,02,00,00,AAXX 02004 85586 14460 72605 10146 20114 30103 40190 53002 60001 70222 82702 333 10184 566/6 82610 86073=
85586,2018,01,02,12,00,AAXX 02124 85586 14260 20705 10136 20113 30094 40185 50004 60001 70100 82500 333 20098 30/// 55105 566// 70000 82606=
85586,2018,01,02,15,00,AAXX 02154 85586 42/60 22507 10169 20112 30101 40191 51008 333 56//6 82074==
85586,2018,01,02,18,00,AAXX 02184 85586 14960 52708 10167 20121 30105 40195 51005 60001 70100 80004 333 56//6 85075=
85586,2018,01,02,21,00,AAXX 02214 85586 42/60 42709 10167 20121 30094 40184 58013 333 56//6 84074==
85586,2018,01,03,00,00,AAXX 03004 85586 14460 23008 10145 20119 30091 40182 56003 60001 70100 82500 333 10182 566// 82611=
85586,2018,01,03,12,00,AAXX 03124 85586 14960 0//// 10160 20112 30073 40163 53005 60001 70000 80000 333 20084 30/// 55119 70000=
85586,2018,01,03,15,00,AAXX 03154 85586 41120 62806 10155 20125 30081 40172 50006 71000 86600 333 566// 86703==
85586,2018,01,03,18,00,AAXX 03184 85586 14358 32809 10176 20138 30076 40166 58003 60001 70500 83600 333 566// 83707=
85586,2018,01,03,21,00,AAXX 03214 85586 42260 52613 10164 20137 30061 40147 57018 84601 333 566// 84704 83075==
85586,2018,01,04,00,00,AAXX 04004 85586 14258 40404 10160 20142 30062 40148 54000 60001 70510 84700 333 10186 561// 84705=
85586,2018,01,04,12,00,AAXX 04124 85586 14104 52702 10146 20144 30070 40158 52008 60001 74142 85600 333 20127 30/// 55114 566// 70000 85703=
85586,2018,01,04,15,00,AAXX 04154 85586 41157 32507 10182 20147 30075 40161 51004 70542 82601 333 566// 82703 81075==
85586,2018,01,04,18,00,AAXX 04184 85586 14150 62512 10179 20150 30074 40160 55000 60001 70521 86600 333 566// 86703=
85586,2018,01,04,21,00,AAXX 04214 85586 42260 42611 10185 20150 30066 40155 56005 84501 333 565/5 84605 81075==
85586,2018,01,05,00,00,AAXX 05004 85586 14150 82309 10163 20153 30070 40160 53004 60001 70500 885// 333 10209 565// 88603=
85586,2018,01,05,12,00,AAXX 05124 85586 14957 42505 10166 20133 30090 40180 53017 60001 70522 80001 333 20133 30/// 55108 56//5 70000 84075=
85586,2018,01,05,15,00,AAXX 05154 85586 42/60 22508 10194 20123 30086 40175 56003 333 56//5 82075==
85586,2018,01,05,18,00,AAXX 05184 85586 14960 32418 10213 20109 30085 40169 58004 60001 70222 80001 333 56//6 83075=
85586,2018,01,05,21,00,AAXX 05214 85586 42/60 32418 10198 20106 30073 40158 57013 333 56//6 83075==
85586,2018,01,06,00,00,AAXX 06004 85586 14960 02709 10166 20107 30081 40167 53009 60001 70200 80000 333 10222=
85586,2018,01,06,12,00,AAXX 06124 85586 14960 01804 10209 20096 30068 40153 51009 60001 70200 80000 333 20099 30/// 55124 70000=
85586,2018,01,06,15,00,AAXX 06154 85586 42960 02514 10205 20104 30057 40142 57011==
85586,2018,01,06,18,00,AAXX 06184 85586 14960 02417 10199 20104 30038 40127 58016 60001 70000 80000=
85586,2018,01,06,21,00,AAXX 06214 85586 42960 02705 10220 20106 30021 40109 57017==
85586,2018,01,07,00,00,AAXX 07004 85586 14960 00106 10173 20105 30022 40112 53002 60001 70000 80000 333 10250=
85586,2018,01,07,12,00,AAXX 07124 85586 14960 0//// 10173 20121 30061 40151 51028 60001 70000 80000 333 20112 30/// 55128 70000=
85586,2018,01,07,15,00,AAXX 07154 85586 42960 03211 10198 20134 30074 40163 53014==
85586,2018,01,07,18,00,AAXX 07184 85586 14960 03015 10198 20127 30069 40158 58005 60001 70000 80000=
85586,2018,01,07,21,00,AAXX 07214 85586 41958 02909 10195 20135 30058 40143 57015 70400==
85586,2018,01,08,00,00,AAXX 08004 85586 14958 03004 10165 20138 30047 40133 56012 60001 70400 80000 333 10208=
85586,2018,01,08,12,00,AAXX 08124 85586 14560 20000 10181 20137 30082 40169 51024 60001 70300 82500 333 20131 30/// 55128 561// 79999 82625=
85586,2018,01,08,15,00,AAXX 08154 85586 42560 33110 10207 20133 30086 40171 52003 82101 333 567// 82830 81075==
85586,2018,01,08,18,00,AAXX 08184 85586 14960 13113 10209 20132 30079 40167 58004 60001 70100 80001 333 56//7 81075=
85586,2018,01,08,21,00,AAXX 08214 85586 42/60 32708 10199 20137 30063 40152 58015 333 56//7 83072==
85586,2018,01,09,00,00,AAXX 09004 85586 14960 42606 10171 20139 30061 40151 55003 60001 70300 80004 333 10214 56//5 84072=
85586,2018,01,09,12,00,AAXX 09124 85586 14220 8//// 10152 20138 30066 40157 53017 60001 71022 885// 333 20125 30/// 55124 70000 88604=
85586,2018,01,09,15,00,AAXX 09154 85586 41357 62607 10174 20141 30070 40160 52004 70522 86500 333 565// 86607==
85586,2018,01,09,18,00,AAXX 09184 85586 14360 52611 10186 20141 30073 40159 57001 60001 70222 85600 333 566// 85707=
85586,2018,01,09,21,00,AAXX 09214 85586 42360 32608 10183 20145 30063 40149 56010 83600 333 566// 83708==
85586,2018,01,10,00,00,AAXX 10004 85586 14160 82704 10154 20143 30062 40148 55001 60001 70222 886// 333 10196 88703=
85586,2018,01,10,12,00,AAXX 10124 85586 14150 80106 10136 20134 30051 40138 52014 60001 71022 886// 333 20134 30/// 55076 70000 88702=
85586,2018,01,10,15,00,AAXX 10154 85586 42260 83406 10159 20132 30067 40153 52017 886// 333 88705==
85586,2018,01,10,18,00,AAXX 10184 85586 14258 83211 10176 20147 30080 40170 52017 60001 70522 885// 333 566// 88605=
85586,2018,01,10,21,00,AAXX 10214 85586 42360 83109 10176 20149 30076 40166 58004 885// 333 566// 88609==
85586,2018,01,11,00,00,AAXX 11004 85586 14256 82504 10162 20149 30069 40159 55006 60001 71022 888// 333 10190 566// 82805 88608=
85586,2018,01,11,12,00,AAXX 11124 85586 14118 82703 10140 20137 30077 40168 52018 60001 71022 886// 333 20137 30/// 55005 566// 70000 88703=
85586,2018,01,11,15,00,AAXX 11154 85586 41256 82805 10154 20143 30087 40178 51010 71022 886// 333 566// 88704==
85586,2018,01,11,18,00,AAXX 11184 85586 14357 82306 10168 20136 30088 40178 50003 60001 70522 885// 333 566// 88608=
85586,2018,01,11,21,00,AAXX 11214 85586 42460 72408 10187 20132 30077 40163 58015 87800 333 566// 82613 87617==
85586,2018,01,12,00,00,AAXX 12004 85586 14460 82406 10155 20127 30071 40158 55006 60001 70222 886// 333 10188 566// 88612=
85586,2018,01,12,12,00,AAXX 12124 85586 14356 80000 10150 20132 30076 40163 51016 60001 72052 885// 333 20137 31/// 55006 567// 70000 88707=
85586,2018,01,12,15,00,AAXX 12154 85586 41457 82605 10168 20132 30078 40164 53002 70522 885// 333 566// 82612 88614==
85586,2018,01,12,18,00,AAXX 12184 85586 14460 72608 10182 20136 30075 40161 57003 60001 70222 87500 333 566// 87617=
85586,2018,01,12,21,00,AAXX 12214 85586 42460 82807 10173 20133 30062 40152 57009 885// 333 565// 88614==
85586,2018,01,13,00,00,AAXX 13004 85586 14460 62703 10161 20131 30062 40152 53000 60001 70122 86501 333 10190 565/5 82610 84613 82075=
85586,2018,01,13,12,00,AAXX 13124 85586 14457 83304 10165 20140 30061 40151 51011 60001 70522 885// 333 20149 30/// 55000 567// 70000 88615=
85586,2018,01,13,15,00,AAXX 13154 85586 41458 82808 10181 20143 30064 40154 53004 70522 885// 333 565// 88616==
85586,2018,01,13,18,00,AAXX 13184 85586 14460 82908 10188 20147 30066 40151 58003 60001 70222 83502 333 566/6 83610 87074=
85586,2018,01,13,21,00,AAXX 13214 85586 42460 72907 10189 20142 30058 40143 58007 85502 333 566/6 85612 87074==
85586,2018,01,14,00,00,AAXX 14004 85586 14360 83003 10167 20144 30058 40144 54000 60001 70222 886// 333 10197 88709=
85586,2018,01,14,12,00,AAXX 14124 85586 14112 82603 10148 20145 30058 40145 53015 69901 75022 886// 333 20144 31/// 55000 79999 88703=
85586,2018,01,14,15,00,AAXX 14154 85586 41115 83109 10150 20147 30071 40158 53013 75055 886// 333 88702==
85586,2018,01,14,18,00,AAXX 14184 85586 14360 83008 10165 20145 30066 40156 58001 69941 70222 885// 333 566// 88607=
85586,2018,01,14,21,00,AAXX 14214 85586 42460 83106 10167 20138 30063 40153 58003 885// 333 566// 88613==
85586,2018,01,15,00,00,AAXX 15004 85586 14560 83105 10163 20138 30069 40159 53006 60001 70222 888// 333 10173 566// 85822 88629=
85586,2018,01,15,12,00,AAXX 15124 85586 14220 82905 10155 20146 30086 40177 53018 69901 71022 886// 333 20155 30/// 55000 566// 70004 88706=
85586,2018,01,15,15,00,AAXX 15154 85586 42460 83307 10176 20137 30099 40189 51013 885// 333 566// 88618==
85586,2018,01,15,18,00,AAXX 15184 85586 14660 72811 10193 20138 30100 40186 58002 60001 70122 84501 333 567// 84640 84073=
85586,2018,01,15,21,00,AAXX 15214 85586 42660 62808 10190 20135 30096 40182 58003 82104 333 566// 82840 86075==
85586,2018,01,16,00,00,AAXX 16004 85586 14960 62803 10171 20117 30090 40185 53002 60001 70222 86030 333 10207 86367=
85586,2018,01,16,12,00,AAXX 16124 85586 14560 72502 10158 20124 30100 40187 53014 60001 70222 87500 333 20103 30/// 55051 566// 70000 87625=
85586,2018,01,16,15,00,AAXX 16154 85586 41558 82508 10174 20136 30107 40193 50007 70522 885// 333 566// 88627==
85586,2018,01,16,18,00,AAXX 16184 85586 14960 02513 10184 20131 30099 40189 57004 60001 70100 80000=
85586,2018,01,16,21,00,AAXX 16214 85586 42960 02513 10182 20129 30093 40183 57006==
85586,2018,01,17,00,00,AAXX 17004 85586 14360 72707 10160 20139 30091 40182 55002 60001 70300 87500 333 10199 565// 87609=
85586,2018,01,17,12,00,AAXX 17124 85586 14950 0//// 10145 20142 30078 40169 53005 60001 70511 80000 333 20109 30/// 55072 70000=
85586,2018,01,17,15,00,AAXX 17154 85586 41240 12608 10174 20140 30078 40168 54000 71000 81500 333 565// 81604==
85586,2018,01,17,18,00,AAXX 17184 85586 14960 02611 10203 20143 30073 40158 58009 60001 70200 80000=
85586,2018,01,17,21,00,AAXX 17214 85586 42960 02411 10201 20139 30054 40139 58018==
85586,2018,01,18,00,00,AAXX 18004 85586 14960 00000 10184 20133 30059 40144 53004 60001 70200 80000 333 10208=
85586,2018,01,18,15,00,AAXX 18154 85586 42260 12807 10177 20139 30064 40150 57004 81600 333 566// 81704==
85586,2018,01,18,18,00,AAXX 18184 85586 14360 22711 10189 20144 30059 40148 57001 60001 70100 82500 333 566// 82607=
85586,2018,01,18,21,00,AAXX 18214 85586 42460 22908 10180 20134 30051 40141 58007 82500 333 566// 82610==
85586,2018,01,19,00,00,AAXX 19004 85586 14360 53005 10157 20134 30046 40136 55004 60001 70100 85500 333 10196 566// 85609=
85586,2018,01,19,12,00,AAXX 19124 85586 14360 83407 10156 20136 30041 40131 53017 60001 70222 886// 333 20149 30/// 55098 566// 70000 88708=
85586,2018,01,19,15,00,AAXX 19154 85586 42460 83310 10181 20145 30050 40140 52011 888// 333 566// 82814 88616==
85586,2018,01,19,18,00,AAXX 19184 85586 14560 13115 10199 20148 30052 40137 58003 60001 70121 81100 333 567// 81825=
85586,2018,01,19,21,00,AAXX 19214 85586 42560 43013 10189 20150 30044 40129 58007 82104 333 567// 82825 84075==
85586,2018,01,20,00,00,AAXX 20004 85586 14460 43005 10172 20147 30044 40130 50001 60001 70211 82501 333 10207 566// 82617 82075=
85586,2018,01,20,12,00,AAXX 20124 85586 14450 82905 10167 20140 30046 40132 53019 60001 70522 885// 333 20164 30/// 55078 566// 70000 84610 88613=
85586,2018,01,20,15,00,AAXX 20154 85586 41450 82905 10177 20144 30051 40137 53005 70522 885// 333 566// 88616==
85586,2018,01,20,18,00,AAXX 20184 85586 14560 83110 10194 20149 30043 40132 58003 60001 70222 885// 333 567// 88626=
85586,2018,01,20,21,00,AAXX 20214 85586 42460 52909 10198 20149 30036 40125 56007 82131 333 56555 82811 84628 84368 81075==
85586,2018,01,21,00,00,AAXX 21004 85586 14360 63002 10171 20149 30040 40130 52003 60001 70211 86501 333 10202 82609 85623 81075=
85586,2018,01,21,12,00,AAXX 21124 85586 14457 8//// 10169 20142 30040 40130 53017 60001 70522 885// 333 20165 30/// 55018 70000 88613=
85586,2018,01,21,15,00,AAXX 21154 85586 41450 82806 10178 20145 30058 40148 51018 70522 885// 333 566// 83610 88624==
85586,2018,01,21,18,00,AAXX 21184 85586 14460 83006 10185 20142 30057 40147 58001 60001 70222 885// 333 567// 85614 88625=
85586,2018,01,21,21,00,AAXX 21214 85586 42560 82806 10189 20148 30043 40132 58014 885// 333 566// 88628==
85586,2018,01,22,00,00,AAXX 22004 85586 14560 82405 10176 20138 30040 40130 55003 60001 70222 885// 333 10195 567// 88625=
85586,2018,01,22,12,00,AAXX 22124 85586 14550 8//// 10173 20157 30024 40114 53016 60001 71022 885// 333 20167 30/// 55000 70000 88621=
85586,2018,01,22,15,00,AAXX 22154 85586 41557 82705 10183 20154 30030 40119 53006 70522 885// 333 566// 88621==
85586,2018,01,22,18,00,AAXX 22184 85586 14560 82607 10194 20153 30035 40120 52001 60001 70222 885// 333 88626=
85586,2018,01,22,21,00,AAXX 22214 85586 42260 82707 10174 20151 30033 40119 57002 886// 333 88705==
85586,2018,01,23,00,00,AAXX 23004 85586 14560 82505 10158 20138 30034 40120 53001 60001 70222 885// 333 10206 88621=
85586,2018,01,23,12,00,AAXX 23124 85586 14357 83403 10151 20132 30048 40134 52022 60001 70522 886// 333 20146 30/// 55011 70000 88708=
85586,2018,01,23,15,00,AAXX 23154 85586 42460 83006 10176 20128 30057 40143 54000 885// 333 566// 83615 88622==
85586,2018,01,23,18,00,AAXX 23184 85586 14560 82908 10192 20141 30054 40143 50001 60001 70222 885// 333 566// 88627=
85586,2018,01,23,21,00,AAXX 23214 85586 42960 02408 10192 20139 30040 40129 57014==
85586,2018,01,24,00,00,AAXX 24004 85586 14460 12605 10167 20137 30038 40128 55004 60001 70100 81500 333 10204 566// 81617=
85586,2018,01,24,12,00,AAXX 24124 85586 14257 83404 10155 20142 30037 40127 51018 60001 71022 886// 333 20119 30/// 55053 566// 70000 88705=
85586,2018,01,24,15,00,AAXX 24154 85586 41357 83008 10166 20141 30053 40143 52016 70522 886// 333 566// 88707==
85586,2018,01,24,18,00,AAXX 24184 85586 14460 32909 10192 20135 30053 40142 50003 60001 70100 83500 333 566// 83616=
85586,2018,01,24,21,00,AAXX 24214 85586 42460 72807 10181 20141 30049 40134 57008 87500 333 566// 87613==
85586,2018,01,25,00,00,AAXX 25004 85586 14460 62805 10166 20136 30046 40132 55003 60001 70222 86500 333 10204 566// 86613=
85586,2018,01,25,12,00,AAXX 25124 85586 14460 82504 10152 20122 30065 40152 52015 60001 70222 885// 333 20149 30/// 55039 566// 70000 88613=
85586,2018,01,25,15,00,AAXX 25154 85586 41457 82405 10162 20120 30073 40159 51008 70522 885// 333 566// 88614==
85586,2018,01,25,18,00,AAXX 25184 85586 14460 32510 10180 20116 30069 40154 58004 60001 70122 83500 333 566// 83617=
85586,2018,01,25,21,00,AAXX 25214 85586 42460 42512 10171 20121 30055 40141 57013 84500 333 565// 84614==
85586,2018,01,26,00,00,AAXX 26004 85586 14460 52509 10146 20118 30056 40143 55001 60001 70221 85500 333 10190 566// 85612=
85586,2018,01,26,12,00,AAXX 26124 85586 14960 02105 10143 20106 30068 40155 51014 60001 70200 80000 333 20082 30/// 55063 70000=
85586,2018,01,26,15,00,AAXX 26154 85586 42560 12609 10174 20111 30072 40158 50004 81500 333 566// 81623==
85586,2018,01,26,18,00,AAXX 26184 85586 14960 02517 10183 20117 30073 40159 50003 60001 70200 80000=
85586,2018,01,26,21,00,AAXX 26214 85586 42960 02515 10178 20121 30059 40145 58013==
85586,2018,01,27,00,00,AAXX 27004 85586 14960 02303 10156 20114 30058 40144 55002 60001 70200 80000 333 10189=
85586,2018,01,27,12,00,AAXX 27124 85586 14960 01003 10152 20110 30056 40142 53011 60001 70200 80000 333 20080 30/// 55114 70000=
85586,2018,01,27,15,00,AAXX 27154 85586 42960 02707 10199 20127 30051 40136 57005==
85586,2018,01,27,18,00,AAXX 27184 85586 44960 02415 10212 20130 30035 40123 58011 70000 80000=
85586,2018,01,27,21,00,AAXX 27214 85586 42960 02416 10214 20134 30018 40106 56017==
85586,2018,01,28,00,00,AAXX 28004 85586 14960 02408 10174 20132 30021 40110 53002 60001 70000 80000 333 10226=
85586,2018,01,28,12,00,AAXX 28124 85586 14960 0//// 10168 20132 30008 40098 53004 60001 70000 80000 333 20086 30/// 55121 70000=
85586,2018,01,28,15,00,AAXX 28154 85586 42960 02413 10193 20126 30001 40089 57006==
85586,2018,01,28,18,00,AAXX 28184 85586 14960 02414 10206 20119 39993 40077 58012 60001 70000 80000=
85586,2018,01,28,21,00,AAXX 28214 85586 42960 02411 10200 20119 39980 40064 56015==
85586,2018,01,29,00,00,AAXX 29004 85586 14960 00205 10164 20122 39984 40069 53004 60001 70000 80000 333 10212=
85586,2018,01,29,12,00,AAXX 29124 85586 14350 83507 10143 20124 30005 40091 53023 60001 70522 886// 333 20131 30/// 55131 560// 70000 88707=
85586,2018,01,29,15,00,AAXX 29154 85586 41350 83010 10153 20121 30022 40108 53017 70522 886// 333 567// 85707 88612==
85586,2018,01,29,18,00,AAXX 29184 85586 14456 62709 10171 20125 30027 40113 50004 60001 70522 86500 333 566// 86611=
85586,2018,01,29,21,00,AAXX 29214 85586 41456 82608 10157 20121 30025 40111 54001 70522 886// 333 566// 88710==
85586,2018,01,30,00,00,AAXX 30004 85586 14456 82506 10139 20113 30031 40118 53006 60001 70522 886// 333 10178 566// 88611=
85586,2018,01,30,12,00,AAXX 30124 85586 14460 8//// 10139 20100 30053 40144 53010 60001 70222 885// 333 20130 30/// 55007 70000 88616=
85586,2018,01,30,15,00,AAXX 30154 85586 42960 02608 10168 20105 30051 40141 58002==
85586,2018,01,30,18,00,AAXX 30184 85586 14960 02509 10197 20118 30041 40130 57008 60001 70200 80000=
85586,2018,01,30,21,00,AAXX 30214 85586 42960 02908 10183 20131 30022 40111 58019==
85586,2018,01,31,00,00,AAXX 31004 85586 14960 00308 10173 20129 30012 40101 56013 60001 70200 80000 333 10199=
85586,2018,01,31,12,00,AAXX 31124 85586 14958 0//// 10149 20124 30026 40116 52011 60001 70500 80000 333 20087 30/// 55106 70000=
85586,2018,01,31,15,00,AAXX 31154 85586 41958 02807 10175 20133 30029 40119 53002 70500==
85586,2018,01,31,18,00,AAXX 31184 85586 14960 02711 10175 20122 30030 40116 56002 60001 70200 80000=
85586,2018,01,31,21,00,AAXX 31214 85586 42960 02808 10170 20107 30025 40111 57005==
85586,2018,02,01,00,00,AAXX 01004 85586 14960 03005 10148 20108 30023 40109 55002 60001 70200 80000 333 10191=
85586,2018,02,01,12,00,AAXX 01124 85586 14960 10603 10151 20121 30039 40125 53013 60001 70200 80001 333 20095 30/// 55124 56//6 70000 81075=
85586,2018,02,01,15,00,AAXX 01154 85586 42460 13109 10179 20126 30043 40128 51003 81500 333 566// 81613==
85586,2018,02,01,18,00,AAXX 01184 85586 14460 33010 10188 20137 30035 40124 58003 60001 70111 83500 333 566// 83612=
85586,2018,02,01,21,00,AAXX 01214 85586 42460 53010 10184 20139 30020 40109 57013 85500 333 566// 85611==
85586,2018,02,02,00,00,AAXX 02004 85586 14460 83106 10164 20135 30016 40106 55005 60001 70222 885// 333 10200 566// 88612=
85586,2018,02,02,12,00,AAXX 02124 85586 14450 8//// 10162 20133 30046 40136 52014 60001 71022 885// 333 20156 30/// 55100 566// 70000 88612=
85586,2018,02,02,15,00,AAXX 02154 85586 41457 83005 10178 20136 30054 40144 51009 70522 885// 333 566// 88614==
85586,2018,02,02,18,00,AAXX 02184 85586 14357 62810 10191 20146 30045 40130 58012 60001 70522 86500 333 566// 82608 85623=
85586,2018,02,02,21,00,AAXX 02214 85586 41457 82807 10182 20142 30033 40118 57011 70522 885// 333 566// 88619==
85586,2018,02,03,00,00,AAXX 03004 85586 14557 22904 10166 20141 30029 40115 55005 60001 70521 82500 333 10201 562// 82620=
85586,2018,02,03,12,00,AAXX 03124 85586 14340 80203 10155 20144 30058 40144 51014 60001 72022 887// 333 20153 31/// 55029 560// 70000 86707 88710=
85586,2018,02,03,15,00,AAXX 03154 85586 41456 82605 10176 20143 30063 40149 52005 70522 887// 333 566// 88614==
85586,2018,02,03,18,00,AAXX 03184 85586 14357 72708 10186 20147 30054 40143 58003 60001 70522 87500 333 565// 82609 87619=
85586,2018,02,03,21,00,AAXX 03214 85586 42460 42707 10194 20147 30042 40131 58013 82101 333 565/5 82814 82175==
85586,2018,02,04,00,00,AAXX 04004 85586 14960 52306 10166 20146 30039 40129 55002 60001 70200 80001 333 10202 56//5 85175=
85586,2018,02,04,12,00,AAXX 04124 85586 14130 82504 10153 20145 30068 40159 51019 60001 71022 886// 333 20152 30/// 55030 565// 70000 88703=
85586,2018,02,04,15,00,AAXX 04154 85586 41250 82505 10164 20146 30067 40157 58001 71022 886// 333 565// 88705==
85586,2018,02,04,18,00,AAXX 04184 85586 14360 82707 10181 20146 30065 40151 57007 60001 70222 886// 333 88709=
85586,2018,02,04,21,00,AAXX 04214 85586 42260 82506 10171 20153 30058 40144 56007 886// 333 88706==
85586,2018,02,05,00,00,AAXX 05004 85586 14260 82903 10165 20150 30059 40145 53001 60001 70222 886// 333 10188 88706=
85586,2018,02,05,12,00,AAXX 05124 85586 14257 83604 10161 20151 30073 40159 53021 60001 70522 886// 333 20160 30/// 55000 70000 88706=
85586,2018,02,05,15,00,AAXX 05154 85586 42360 83006 10184 20151 30072 40158 50000 885// 333 566// 85709 88611==
85586,2018,02,05,18,00,AAXX 05184 85586 14260 82808 10186 20155 30061 40150 58007 60001 70222 886// 333 566// 88706=
85586,2018,02,05,21,00,AAXX 05214 85586 42360 82706 10178 20158 30047 40137 56014 886// 333 566// 88707==
85586,2018,02,06,00,00,AAXX 06004 85586 14360 83204 10168 20152 30043 40133 56006 60001 70222 886// 333 10193 566// 88708=
85586,2018,02,06,12,00,AAXX 06124 85586 14356 82902 10161 20146 30062 40152 51018 60001 71022 888// 333 20159 30/// 55000 566// 70000 82808 88612=
85586,2018,02,06,15,00,AAXX 06154 85586 41458 82705 10183 20146 30073 40163 51011 70522 885// 333 566// 88612==
85586,2018,02,06,18,00,AAXX 06184 85586 14460 72309 10201 20143 30071 40156 58006 60001 70222 87500 333 566// 87618=
85586,2018,02,06,21,00,AAXX 06214 85586 42460 12414 10189 20140 30057 40142 56014 81100 333 566// 81811==
85586,2018,02,07,00,00,AAXX 07004 85586 14360 20405 10167 20147 30050 40136 56009 60001 70110 82500 333 10212 561// 82607=
85586,2018,02,07,12,00,AAXX 07124 85586 14357 83506 10155 20137 30068 40154 52018 60001 70522 886// 333 20131 30/// 55045 560// 70000 88707=
85586,2018,02,07,15,00,AAXX 07154 85586 41458 83208 10177 20144 30079 40165 51011 70522 885// 333 567// 85611 88613==
85586,2018,02,07,18,00,AAXX 07184 85586 14460 22811 10192 20147 30076 40165 50002 60001 70122 82100 333 567// 82812=
85586,2018,02,07,21,00,AAXX 07214 85586 42360 82809 10182 20153 30065 40155 57011 885// 333 565// 88609==
85586,2018,02,08,00,00,AAXX 08004 85586 14357 72605 10154 20134 30064 40154 55002 60001 70522 87500 333 10202 565// 87607=
85586,2018,02,08,12,00,AAXX 08124 85586 14350 80307 10152 20131 30052 40142 53015 60001 70522 885// 333 20146 30/// 55032 563// 70000 88608=
85586,2018,02,08,15,00,AAXX 08154 85586 42460 63107 10178 20136 30064 40154 53011 86500 333 567// 86610==
85586,2018,02,08,18,00,AAXX 08184 85586 14460 52810 10189 20144 30072 40157 53005 60001 70300 85500 333 566// 85610=
85586,2018,02,08,21,00,AAXX 08214 85586 42960 02809 10188 20141 30060 40146 58011==
85586,2018,02,09,00,00,AAXX 09004 85586 14960 00705 10172 20141 30053 40139 55009 60001 70200 80000 333 10194=
85586,2018,02,09,12,00,AAXX 09124 85586 14150 30000 10147 20141 30057 40144 53015 60001 71000 82601 333 20099 30/// 55082 566/6 70000 82703 82075=
85586,2018,02,09,15,00,AAXX 09154 85586 42960 02513 10213 20120 30065 40150 51006==
85586,2018,02,09,18,00,AAXX 09184 85586 14960 02419 10204 20120 30060 40149 50001 60001 70000 80000=
85586,2018,02,09,21,00,AAXX 09214 85586 42960 02415 10206 20122 30048 40137 57012==
85586,2018,02,10,00,00,AAXX 10004 85586 14960 0//// 10169 20115 30055 40145 53007 60001 70000 80000 333 10225=
85586,2018,02,10,12,00,AAXX 10124 85586 14960 01705 10176 20072 30054 40144 53011 60001 70000 80000 333 20099 30/// 55120 70000=
85586,2018,02,10,15,00,AAXX 10154 85586 42/60 21708 10253 20062 30048 40135 57004 333 56//6 82073==
85586,2018,02,10,18,00,AAXX 10184 85586 14960 42418 10191 20107 30055 40144 53007 60001 70100 80004 333 56//6 84074=
85586,2018,02,10,21,00,AAXX 10214 85586 42/60 62416 10200 20105 30043 40132 56013 333 56//6 86074==
85586,2018,02,11,00,00,AAXX 11004 85586 14960 22404 10155 20099 30059 40149 53015 69901 70100 80004 333 10274 56//6 82074=
85586,2018,02,11,12,00,AAXX 11124 85586 14960 0//// 10130 20079 30065 40156 52007 60001 70000 80000 333 20060 30/// 55131 79999=
85586,2018,02,11,15,00,AAXX 11154 85586 42960 02509 10192 20092 30073 40162 53007==
85586,2018,02,11,18,00,AAXX 11184 85586 14960 02513 10194 20105 30075 40160 52001 60001 70000 80000=
85586,2018,02,11,21,00,AAXX 11214 85586 41958 02810 10170 20107 30067 40153 56008 70400==
85586,2018,02,12,00,00,AAXX 12004 85586 14958 03607 10139 20105 30067 40154 54000 60001 70400 80000 333 10202=
85586,2018,02,12,12,00,AAXX 12124 85586 14960 00000 10155 20097 30028 40114 57002 60001 70000 80000 333 20071 30/// 55125 70000=
85586,2018,02,12,15,00,AAXX 12154 85586 42960 03007 10189 20108 30025 40110 55004==
85586,2018,02,12,18,00,AAXX 12184 85586 14960 03010 10187 20130 30036 40121 51011 60001 70000 80000=
85586,2018,02,12,21,00,AAXX 12214 85586 42960 02910 10183 20128 30023 40108 57012==
85586,2018,02,13,00,00,AAXX 13004 85586 14960 03303 10153 20121 30025 40111 53001 60001 70000 80000 333 10216=
85586,2018,02,13,12,00,AAXX 13124 85586 14230 70503 10138 20129 30056 40143 52030 60001 71010 87600 333 20091 30/// 55124 561// 70000 87706=
85586,2018,02,13,15,00,AAXX 13154 85586 41458 13111 10187 20136 30070 40156 51015 70510 81100 333 567// 81810==
85586,2018,02,13,18,00,AAXX 13184 85586 14960 12913 10198 20136 30069 40158 53003 60001 70200 80001 333 56//7 81075=
85586,2018,02,13,21,00,AAXX 13214 85586 42460 32909 10188 20141 30060 40149 58008 81101 333 566/6 81810 82075==
85586,2018,02,14,00,00,AAXX 14004 85586 14460 32904 10163 20143 30057 40147 55005 60001 70200 81101 333 10201 566/6 81810 82075=
85586,2018,02,14,12,00,AAXX 14124 85586 14457 80103 10161 20132 30071 40161 51012 60001 70522 885// 333 20130 30/// 55110 70000 88612=
85586,2018,02,14,15,00,AAXX 14154 85586 41458 32907 10189 20136 30067 40156 58003 70522 82101 333 567/7 82819 81075==
85586,2018,02,14,18,00,AAXX 14184 85586 14360 42409 10187 20144 30063 40152 55003 60001 70300 84500 333 566// 84608=
85586,2018,02,14,21,00,AAXX 14214 85586 42460 22506 10184 20129 30047 40136 58017 82100 333 566// 82814==
85586,2018,02,15,00,00,AAXX 15004 85586 14460 62405 10150 20123 30047 40137 53001 60001 70311 86500 333 10197 565// 86612=
85586,2018,02,15,12,00,AAXX 15124 85586 14340 80000 10147 20131 30065 40156 52016 60001 71022 885// 333 20137 30/// 55058 70000 88607=
85586,2018,02,15,15,00,AAXX 15154 85586 41350 83004 10154 20135 30073 40163 53007 71044 885// 333 567// 88608==
85586,2018,02,15,18,00,AAXX 15184 85586 14230 82706 10162 20146 30071 40161 57002 60001 71022 886// 333 566// 88704=
85586,2018,02,15,21,00,AAXX 15214 85586 41330 82705 10162 20141 30064 40154 58008 71022 886// 333 566// 88707==
85586,2018,02,16,00,00,AAXX 16004 85586 14350 82804 10157 20137 30065 40155 53001 60001 71022 886// 333 10173 566// 88708=
85586,2018,02,16,12,00,AAXX 16124 85586 14210 8//// 10141 20132 30078 40169 53016 60001 71022 886// 333 20138 30/// 55000 566// 70000 88704=
85586,2018,02,16,15,00,AAXX 16154 85586 41220 83205 10154 20134 30090 40181 51014 71022 886// 333 566// 88705==
85586,2018,02,16,18,00,AAXX 16184 85586 14357 82808 10170 20138 30092 40182 53003 60001 70522 886// 333 566// 88707=
85586,2018,02,16,21,00,AAXX 16214 85586 41258 82706 10156 20136 30085 40176 58007 70522 886// 333 566// 88705==
85586,2018,02,17,00,00,AAXX 17004 85586 14240 83403 10150 20136 30090 40181 53004 60001 71022 886// 333 10180 566// 88706=
85586,2018,02,17,12,00,AAXX 17124 85586 14107 8//// 10137 20131 30057 40148 52008 60001 72822 886// 333 20133 30/// 55002 566// 70000 88702=
85586,2018,02,17,15,00,AAXX 17154 85586 41357 52907 10163 20131 30057 40147 55001 70522 85600 333 566// 85707==
85586,2018,02,17,18,00,AAXX 17184 85586 14125 82807 10161 20136 30059 40145 58002 60001 70522 887// 333 566// 88703=
85586,2018,02,17,21,00,AAXX 17214 85586 41458 22514 10183 20146 30042 40127 58018 70522 82500 333 566// 82710==
85586,2018,02,18,00,00,AAXX 18004 85586 14256 83305 10157 20146 30054 40140 53013 60001 70521 886// 333 10190 567// 88704=
85586,2018,02,18,12,00,AAXX 18124 85586 14460 53402 10175 20139 30047 40133 53002 60001 70121 83531 333 20143 30/// 55038 560// 70000 83613 81365 82075=
85586,2018,02,18,15,00,AAXX 18154 85586 42460 32904 10193 20144 30050 40135 51005 81201 333 566// 81815 82075==
85586,2018,02,18,18,00,AAXX 18184 85586 14460 22808 10199 20154 30044 40129 56006 60001 70210 82201 333 566// 82815 81075=
85586,2018,02,18,21,00,AAXX 18214 85586 41108 82608 10174 20164 30042 40128 57002 74721 886// 333 566// 88702==
85586,2018,02,19,00,00,AAXX 19004 85586 14106 82705 10164 20161 30051 40137 53009 60001 74342 886// 333 10205 566// 88701=
85586,2018,02,19,12,00,AAXX 19124 85586 14103 80000 10136 20134 30056 40143 53008 60001 74254 886// 333 20132 31/// 55060 70002 88702=
85586,2018,02,19,15,00,AAXX 19154 85586 41112 82904 10146 20144 30054 40141 57001 71042 886// 333 567// 88702==
85586,2018,02,19,18,00,AAXX 19184 85586 14257 62709 10168 20139 30049 40135 57005 60001 70542 86600 333 566// 86705=
85586,2018,02,19,21,00,AAXX 19214 85586 42460 72606 10172 20140 30046 40136 53001 87500 333 566// 87610==
85586,2018,02,20,00,00,AAXX 20004 85586 14460 62905 10163 20136 30059 40149 53011 60001 70222 86530 333 10181 5677/ 86613 81364=
85586,2018,02,20,12,00,AAXX 20124 85586 14960 61103 10153 20133 30073 40164 53012 60001 70222 86030 333 20129 30/// 55007 70000 86360=
85586,2018,02,20,15,00,AAXX 20154 85586 42960 02509 10219 20134 30073 40162 50003==
85586,2018,02,20,18,00,AAXX 20184 85586 14960 02413 10213 20141 30071 40160 50001 60001 70000 80000=
85586,2018,02,20,21,00,AAXX 20214 85586 42960 02512 10205 20164 30066 40155 58006==
85586,2018,02,21,00,00,AAXX 21004 85586 14260 63104 10170 20155 30072 40162 53006 60001 70311 86500 333 10229 567// 86606=
85586,2018,02,21,12,00,AAXX 21124 85586 14258 50000 10160 20150 30076 40166 53018 60001 70500 85500 333 20119 30/// 55112 70000 85604=
85586,2018,02,21,15,00,AAXX 21154 85586 41258 12906 10186 20151 30081 40171 51012 70500 81500 333 81605==
85586,2018,02,21,18,00,AAXX 21184 85586 14260 32610 10188 20155 30082 40172 51012 60001 70100 83600 333 566// 83706=
85586,2018,02,21,21,00,AAXX 21214 85586 42/60 22611 10188 20137 30069 40159 57014 333 56//6 82074==
85586,2018,02,22,00,00,AAXX 22004 85586 14960 33006 10154 20131 30072 40163 53004 60001 70100 80004 333 10203 56//6 83075=
85586,2018,02,22,12,00,AAXX 22124 85586 14960 4//// 10156 20116 30069 40159 53013 60001 70100 80004 333 20106 30/// 55095 56//6 70000 84074=
85586,2018,02,22,15,00,AAXX 22154 85586 42/60 12606 10194 20130 30073 40162 52004 333 56//6 81075==
85586,2018,02,22,18,00,AAXX 22184 85586 14360 22709 10189 20140 30067 40156 58006 60001 70100 82600 333 566// 82708=
85586,2018,02,22,21,00,AAXX 22214 85586 42260 72608 10168 20143 30067 40157 52001 87600 333 566// 87706==
85586,2018,02,23,00,00,AAXX 23004 85586 14160 82707 10160 20158 30068 40158 50001 60001 70222 886// 333 10201 566// 88702=
85586,2018,02,23,12,00,AAXX 23124 85586 14110 80505 10151 20149 30062 40153 53013 69921 71022 886// 333 20148 31/// 55074 566// 70002 88702=
85586,2018,02,23,15,00,AAXX 23154 85586 42260 72908 10180 20155 30067 40157 52004 87600 333 566// 87705==
85586,2018,02,23,18,00,AAXX 23184 85586 14257 82707 10173 20151 30070 40160 52004 60001 70522 886// 333 566// 88704=
85586,2018,02,23,21,00,AAXX 23214 85586 41108 82507 10161 20151 30070 40156 55004 74142 886// 333 566// 88701==
85586,2018,02,24,00,00,AAXX 24004 85586 14250 80306 10155 20146 30077 40164 53007 60001 70542 886// 333 10190 566// 88704=
85586,2018,02,24,12,00,AAXX 24124 85586 14250 80204 10138 20124 30083 40170 51017 60001 70522 886// 333 20134 30/// 55001 566// 70000 88705=
85586,2018,02,24,15,00,AAXX 24154 85586 41458 43307 10177 20133 30091 40177 51008 70522 84500 333 567// 84612==
85586,2018,02,24,18,00,AAXX 24184 85586 14460 32413 10183 20134 30095 40181 51004 60001 70121 83200 333 566// 83812=
85586,2018,02,24,21,00,AAXX 24214 85586 42460 52510 10184 20133 30092 40178 57003 85500 333 566// 85613==
85586,2018,02,25,00,00,AAXX 25004 85586 14460 82705 10165 20138 30097 40183 53005 60001 70321 885// 333 10195 566// 88612=
85586,2018,02,25,12,00,AAXX 25124 85586 14240 81201 10136 20125 30086 40173 53012 60001 70522 886// 333 20112 30/// 55071 566// 70000 88705=
85586,2018,02,25,15,00,AAXX 25154 85586 41357 82706 10152 20127 30096 40183 52010 70522 886// 333 566// 88707==
85586,2018,02,25,18,00,AAXX 25184 85586 14460 12609 10190 20134 30092 40178 56004 60001 70121 81100 333 566// 81815=
85586,2018,02,25,21,00,AAXX 25214 85586 42460 42708 10191 20134 30081 40171 56007 82101 333 566/6 82815 82075==
85586,2018,02,26,00,00,AAXX 26004 85586 14460 82405 10168 20137 30081 40171 53001 60001 70311 885// 333 10196 565// 88614=
85586,2018,02,26,12,00,AAXX 26124 85586 14250 80504 10147 20136 30072 40163 53014 60001 71022 886// 333 20144 30/// 55054 70000 88705=
85586,2018,02,26,15,00,AAXX 26154 85586 41257 83206 10159 20143 30083 40174 52011 70522 885// 333 567// 88605==
85586,2018,02,26,18,00,AAXX 26184 85586 14256 83007 10176 20147 30085 40175 50002 60001 70522 886// 333 566// 88706=
85586,2018,02,26,21,00,AAXX 26214 85586 41358 83306 10171 20148 30081 40171 55004 70522 886// 333 566// 88708==
85586,2018,02,27,00,00,AAXX 27004 85586 14360 83105 10164 20149 30084 40174 53003 60001 70222 888// 333 10181 566// 85809 88613=
85586,2018,02,27,12,00,AAXX 27124 85586 14460 8//// 10157 20141 30082 40173 50009 60001 70222 885// 333 20147 30/// 55000 566// 70000 88617=
85586,2018,02,27,15,00,AAXX 27154 85586 42460 82604 10177 20139 30087 40177 52006 888// 333 566// 82815 88620==
85586,2018,02,27,18,00,AAXX 27184 85586 14560 82707 10187 20138 30089 40175 57020 60001 70222 885// 333 88620=
85586,2018,02,27,21,00,AAXX 27214 85586 42460 82507 10176 20142 30083 40169 57006 885// 333 88619==
85586,2018,02,28,00,00,AAXX 28004 85586 14460 72603 10167 20127 30087 40173 53005 60001 70222 87500 333 10189 566// 87618=
85586,2018,02,28,12,00,AAXX 28124 85586 14460 80603 10156 20126 30084 40171 53014 60001 70222 885// 333 20138 30/// 55000 70000 88614=
85586,2018,02,28,15,00,AAXX 28154 85586 42460 83005 10167 20129 30093 40179 52009 885// 333 88615==
85586,2018,02,28,18,00,AAXX 28184 85586 14460 72906 10182 20138 30091 40177 58002 60001 70222 87500 333 567// 81615 87617=
85586,2018,02,28,21,00,AAXX 28214 85586 42460 22411 10187 20142 30078 40164 56013 82100 333 566// 82815==
85586,2018,03,01,00,00,AAXX 01004 85586 14460 82205 10167 20138 30081 40167 53003 60001 70421 887// 333 10202 565// 88713=
85586,2018,03,01,12,00,AAXX 01124 85586 14225 80802 10148 20139 30078 40165 53011 60001 70522 886// 333 20148 31/// 55032 561// 70000 88705=
85586,2018,03,01,15,00,AAXX 01154 85586 41230 82703 10160 20140 30088 40176 51011 70522 886// 333 566// 88706==
85586,2018,03,01,18,00,AAXX 01184 85586 14357 82609 10179 20144 30079 40169 57006 60001 70522 885// 333 566// 88607=
85586,2018,03,01,21,00,AAXX 01214 85586 41357 82605 10172 20145 30069 40159 56010 70522 885// 333 566// 88608==
85586,2018,03,02,00,00,AAXX 02004 85586 14460 83303 10167 20146 30076 40166 53007 60001 70222 885// 333 10184 567// 88610=
85586,2018,03,02,12,00,AAXX 02124 85586 14120 83104 10139 20133 30073 40164 52017 60001 71022 886// 333 20137 30/// 55000 70000 88702=
85586,2018,03,02,15,00,AAXX 02154 85586 41230 83106 10154 20138 30083 40174 51010 71022 886// 333 567// 88704==
85586,2018,03,02,18,00,AAXX 02184 85586 14240 82807 10165 20144 30079 40169 58004 60001 71022 886// 333 566// 88706=
85586,2018,03,02,21,00,AAXX 02214 85586 41256 82508 10163 20143 30068 40158 56011 70522 886// 333 566// 88706==
85586,2018,03,03,00,00,AAXX 03004 85586 14360 43304 10149 20135 30061 40152 56010 60001 70222 84600 333 10170 566// 84708=
85586,2018,03,03,12,00,AAXX 03124 85586 14240 8//// 10139 20128 30065 40156 53017 60001 71022 886// 333 20098 30/// 55000 566// 70000 88706=
85586,2018,03,03,15,00,AAXX 03154 85586 41357 82706 10150 20123 30078 40169 53014 70522 885// 333 566// 88609==
85586,2018,03,03,18,00,AAXX 03184 85586 14460 82809 10175 20125 30082 40168 54000 60001 70222 885// 333 88616=
85586,2018,03,03,21,00,AAXX 03214 85586 42460 82509 10167 20127 30073 40159 56006 885// 333 88613==
85586,2018,03,04,00,00,AAXX 04004 85586 14460 82906 10157 20136 30077 40163 53003 60001 70222 885// 333 10192 88612=
85586,2018,03,04,12,00,AAXX 04124 85586 14960 00000 10129 20113 30071 40158 53008 60001 70200 80000 333 20081 30/// 55020 70000=
85586,2018,03,04,15,00,AAXX 04154 85586 42960 02508 10186 20129 30069 40154 57001==
85586,2018,03,04,18,00,AAXX 04184 85586 14960 02415 10191 20129 30061 40146 57008 60001 70000 80000=
85586,2018,03,04,21,00,AAXX 04214 85586 42960 02310 10207 20140 30046 40131 56015==
85586,2018,03,05,00,00,AAXX 05004 85586 14960 03503 10160 20140 30054 40140 53009 60001 70000 80000 333 10211=
85586,2018,03,05,12,00,AAXX 05124 85586 14150 20000 10132 20130 30042 40129 53008 60001 70542 82600 333 20093 31/// 55113 70002 82703=
85586,2018,03,05,15,00,AAXX 05154 85586 42960 02507 10193 20114 30047 40132 52005==
85586,2018,03,05,18,00,AAXX 05184 85586 14960 02414 10186 20120 30038 40123 56009 60001 70110 80000=
85586,2018,03,05,21,00,AAXX 05214 85586 42960 02811 10177 20112 30033 40119 55004==
85586,2018,03,06,12,00,AAXX 06124 85586 14160 80204 10123 20112 30030 40117 53011 60001 70310 886// 333 20069 30/// 55116 560// 70000 88703=
85586,2018,03,07,21,00,AAXX 07214 85586 42560 12606 10191 20131 30058 40143 55008 81500 333 566// 81620==
85586,2018,03,08,00,00,AAXX 08004 85586 14960 00000 10151 20123 30053 40139 58005 60001 70200 80000 333 10199=
85586,2018,03,08,12,00,AAXX 08124 85586 14460 80000 10149 20130 30067 40154 53017 60001 70222 885// 333 20104 30/// 55041 70000 88616=
85586,2018,03,08,15,00,AAXX 08154 85586 42460 83106 10166 20134 30086 40172 53019 885// 333 88614==
85586,2018,03,08,18,00,AAXX 08184 85586 14460 83106 10178 20138 30082 40172 50000 60001 70222 885// 333 567// 82614 88623=
85586,2018,03,08,21,00,AAXX 08214 85586 42560 42607 10191 20131 30071 40160 56011 84100 333 566// 84825==
85586,2018,03,09,00,00,AAXX 09004 85586 14960 02002 10152 20132 30065 40156 56006 60001 70000 80000 333 10194=
85586,2018,03,09,12,00,AAXX 09124 85586 14460 1//// 10129 20123 30056 40147 53005 60001 70300 81100 333 20090 30/// 55020 566// 70000 81810=
85586,2018,03,09,15,00,AAXX 09154 85586 42960 02308 10187 20132 30058 40147 53003==
85586,2018,03,09,18,00,AAXX 09184 85586 14460 12709 10197 20137 30059 40148 54000 60001 70300 81100 333 566// 81815=
85586,2018,03,09,21,00,AAXX 09214 85586 42460 22808 10196 20134 30054 40143 56005 82100 333 566// 82819==
85586,2018,03,10,00,00,AAXX 10004 85586 14960 0//// 10164 20134 30060 40150 53006 60001 70000 80000 333 10206=
85586,2018,03,10,12,00,AAXX 10124 85586 14960 0//// 10168 20126 30078 40168 53007 60001 70000 80000 333 20117 30/// 55106 70000=
85586,2018,03,10,15,00,AAXX 10154 85586 42960 02412 10198 20134 30079 40168 50001==
85586,2018,03,10,18,00,AAXX 10184 85586 14960 02316 10200 20131 30071 40160 57008 60001 70000 80000=
85586,2018,03,10,21,00,AAXX 10214 85586 42960 02315 10199 20120 30061 40150 58009==
85586,2018,03,11,00,00,AAXX 11004 85586 14960 02503 10158 20102 30073 40163 53011 60001 70000 80000 333 10209=
85586,2018,03,11,12,00,AAXX 11124 85586 14960 0//// 10144 20077 30052 40143 56003 60001 70000 80000 333 20073 30/// 55112 70000=
85586,2018,03,11,15,00,AAXX 11154 85586 42960 01708 10239 20085 30048 40136 58004==
85586,2018,03,11,18,00,AAXX 11184 85586 14960 02514 10211 20098 30039 40123 55013 60001 70200 80000=
85586,2018,03,11,21,00,AAXX 11214 85586 42960 02315 10216 20100 30025 40109 56014==
85586,2018,03,12,00,00,AAXX 12004 85586 14960 02703 10165 20100 30029 40115 53004 60001 70200 80000 333 10261=
85586,2018,03,12,12,00,AAXX 12124 85586 14960 30000 10117 20103 30042 40129 53017 60001 70211 80001 333 20075 30/// 55114 56//6 70000 83075=
85586,2018,03,12,15,00,AAXX 12154 85586 42/60 22509 10193 20119 30054 40139 51013 333 56//6 82075==
85586,2018,03,12,18,00,AAXX 12184 85586 14960 22416 10214 20113 30043 40131 57008 60001 70200 80001 333 56//5 82075=
85586,2018,03,12,21,00,AAXX 12214 85586 42/60 12316 10208 20118 30031 40120 56012 333 56//5 81075==
85586,2018,03,13,00,00,AAXX 13004 85586 14960 0//// 10167 20119 30035 40125 53003 60001 70000 80000 333 10230=
85586,2018,03,13,12,00,AAXX 13124 85586 14960 02003 10135 20086 30038 40130 53010 60001 70000 80000 333 20084 30/// 55110 70000=
85586,2018,03,13,15,00,AAXX 13154 85586 42960 02510 10198 20089 30042 40131 50003==
85586,2018,03,13,18,00,AAXX 13184 85586 14960 02414 10178 20085 30050 40140 51008 60001 70200 80000=
85586,2018,03,13,21,00,AAXX 13214 85586 42960 02413 10172 20084 30049 40139 52001==
85586,2018,03,14,00,00,AAXX 14004 85586 14960 00506 10130 20089 30058 40149 53009 60001 70200 80000 333 10214=
85586,2018,03,14,12,00,AAXX 14124 85586 14960 00000 10087 20076 30080 40173 53016 60001 70000 80000 333 20046 30/// 55109 70000=
85586,2018,03,14,15,00,AAXX 14154 85586 42960 02807 10156 20091 30096 40187 52016==
85586,2018,03,14,18,00,AAXX 14184 85586 14960 02512 10187 20093 30094 40184 58002 60001 70000 80000=
85586,2018,03,14,21,00,AAXX 14214 85586 42960 02314 10198 20106 30079 40168 56016==
85586,2018,03,15,00,00,AAXX 15004 85586 14960 0//// 10164 20108 30073 40163 55006 60001 70000 80000 333 10210=
85586,2018,03,15,12,00,AAXX 15124 85586 14960 0//// 10126 20096 30043 40134 55003 60001 70000 80000 333 20084 30/// 55107 70000=
85586,2018,03,15,15,00,AAXX 15154 85586 42960 02412 10174 20115 30043 40133 55001==
85586,2018,03,15,18,00,AAXX 15184 85586 14960 02509 10173 20107 30052 40138 50005 60001 70200 80000=
85586,2018,03,15,21,00,AAXX 15214 85586 42960 02411 10161 20100 30051 40137 55001==
85586,2018,03,16,00,00,AAXX 16004 85586 14960 03606 10127 20099 30054 40141 50003 60001 70200 80000 333 10188=
85586,2018,03,16,12,00,AAXX 16124 85586 14960 01203 10098 20087 30066 40153 52006 60001 70200 80000 333 20053 30/// 55106 70000=
85586,2018,03,16,15,00,AAXX 16154 85586 42960 03005 10173 20098 30080 40166 51015==
85586,2018,03,16,18,00,AAXX 16184 85586 14960 02809 10184 20116 30065 40155 56011 60001 70000 80000=
85586,2018,03,16,21,00,AAXX 16214 85586 42960 02807 10176 20121 30058 40148 57008==
85586,2018,03,17,00,00,AAXX 17004 85586 14460 23603 10150 20136 30069 40160 53011 60001 70300 82500 333 10197 567// 82610=
85586,2018,03,17,12,00,AAXX 17124 85586 14960 1//// 10126 20098 30068 40159 53003 60001 70300 80001 333 20085 30/// 55111 56//6 70002 81075=
85586,2018,03,17,15,00,AAXX 17154 85586 42/60 43211 10188 20115 30083 40173 52015 82031 333 56//7 82362 83075==
85586,2018,03,17,18,00,AAXX 17184 85586 14458 82608 10166 20137 30083 40173 54000 60001 71521 888// 333 567// 84815 88620=
85586,2018,03,17,21,00,AAXX 17214 85586 41440 82204 10148 20135 30090 40177 51003 76052 888// 333 565// 82813 85620 88630==
85586,2018,03,18,00,00,AAXX 18004 85586 14558 80803 10144 20138 30100 40187 52010 60011 76162 885// 333 10215 562// 84620 88640=
85586,2018,03,18,12,00,AAXX 18124 85586 14460 11403 10128 20123 30100 40188 57007 60001 70121 81100 333 20100 31/// 55049 563// 70026 81810=
85586,2018,03,18,15,00,AAXX 18154 85586 42960 01808 10184 20111 30092 40178 58007==
85586,2018,03,18,18,00,AAXX 18184 85586 14960 02414 10194 20123 30069 40154 58024 60001 70000 80000=
85586,2018,03,18,21,00,AAXX 18214 85586 42960 02412 10201 20117 30051 40136 56018==
85586,2018,03,19,00,00,AAXX 19004 85586 14960 02002 10161 20098 30051 40137 53000 60001 70000 80000 333 10218=
85586,2018,03,19,12,00,AAXX 19124 85586 14960 00000 10095 20091 30051 40143 53010 60001 70000 80000 333 20061 30/// 55106 70000=
85586,2018,03,19,15,00,AAXX 19154 85586 42960 02805 10162 20108 30061 40151 51009==
85586,2018,03,19,18,00,AAXX 19184 85586 14960 02510 10165 20104 30070 40156 53006 60001 70200 80000=
85586,2018,03,19,21,00,AAXX 19214 85586 42960 02610 10160 20117 30064 40150 56006==
85586,2018,03,20,00,00,AAXX 20004 85586 14960 03004 10126 20107 30069 40156 53005 60001 70200 80000 333 10179=
85586,2018,03,20,12,00,AAXX 20124 85586 14960 01203 10113 20101 30054 40142 54000 60001 70200 80000 333 20077 30/// 55107 70000=
85586,2018,03,20,15,00,AAXX 20154 85586 42960 02409 10174 20108 30055 40141 53002==
85586,2018,03,20,18,00,AAXX 20184 85586 14960 02410 10182 20116 30041 40130 56011 60001 70000 80000=
85586,2018,03,20,21,00,AAXX 20214 85586 42960 02606 10169 20123 30035 40125 55006==
85586,2018,03,21,00,00,AAXX 21004 85586 14960 03404 10140 20126 30044 40135 52009 60001 70100 80000 333 10201=
85586,2018,03,21,12,00,AAXX 21124 85586 14250 82403 10127 20118 30043 40134 53006 60001 71022 885// 333 20095 30/// 55108 565// 70000 88605=
85586,2018,03,21,15,00,AAXX 21154 85586 41257 82707 10132 20113 30055 40146 53012 70522 885// 333 565// 88605==
85586,2018,03,21,18,00,AAXX 21184 85586 14256 82706 10144 20123 30053 40144 57002 60001 70522 885// 333 566// 88606=
85586,2018,03,21,21,00,AAXX 21214 85586 42460 22708 10157 20115 30054 40140 55003 82100 333 566// 82811==
85586,2018,03,22,00,00,AAXX 22004 85586 14960 03102 10127 20111 30057 40144 50003 60001 70010 80000 333 10170=
85586,2018,03,22,12,00,AAXX 22124 85586 14160 11004 10088 20085 30085 40173 53012 60001 70100 81600 333 20063 31/// 55040 562// 70000 81703=
85586,2018,03,22,15,00,AAXX 22154 85586 42960 02509 10176 20106 30084 40170 55000==
85586,2018,03,22,18,00,AAXX 22184 85586 14960 02508 10192 20108 30065 40154 58012 60001 70000 80000=
85586,2018,03,22,21,00,AAXX 22214 85586 42960 02606 10182 20138 30045 40134 56020==
85586,2018,03,23,00,00,AAXX 23004 85586 14160 82505 10158 20150 30057 40147 53010 60001 70100 886// 333 10203 566// 88703=
85586,2018,03,23,12,00,AAXX 23124 85586 14960 0//// 10140 20134 30078 40169 53009 60001 70000 80000 333 20118 30/// 55106 70000=
85586,2018,03,23,15,00,AAXX 23154 85586 42960 02509 10197 20135 30078 40167 55001==
85586,2018,03,23,18,00,AAXX 23184 85586 14960 02413 10197 20150 30083 40168 54000 60001 70200 80000=
85586,2018,03,23,21,00,AAXX 23214 85586 42/60 32411 10190 20145 30081 40167 54001 333 56//6 83075==
85586,2018,03,24,00,00,AAXX 24004 85586 14960 01203 10148 20118 30091 40178 53009 60001 70200 80000 333 10213=
85586,2018,03,24,12,00,AAXX 24124 85586 14960 01606 10148 20114 30105 40192 52016 60001 70200 80000 333 20086 30/// 55103 70000=
85586,2018,03,24,15,00,AAXX 24154 85586 42960 01507 10226 20118 30107 40192 50003==
85586,2018,03,24,18,00,AAXX 24184 85586 14960 12412 10212 20105 30085 40174 57019 60001 70200 80001 333 56//6 81075=
85586,2018,03,24,21,00,AAXX 24214 85586 42960 02310 10215 20099 30073 40162 58011==
85586,2018,03,25,00,00,AAXX 25004 85586 14960 00203 10141 20104 30086 40177 53012 60001 70200 80000 333 10266=
85586,2018,03,25,12,00,AAXX 25124 85586 14960 0//// 10105 20076 30058 40150 53001 60001 70000 80000 333 20066 30/// 55106 70000=
85586,2018,03,25,15,00,AAXX 25154 85586 42960 02609 10195 20100 30059 40148 52001==
85586,2018,03,25,18,00,AAXX 25184 85586 14960 02411 10171 20101 30049 40139 58010 60001 70000 80000=
85586,2018,03,25,21,00,AAXX 25214 85586 42960 02408 10168 20108 30039 40129 55009==
85586,2018,03,26,00,00,AAXX 26004 85586 14960 30704 10123 20097 30043 40134 53003 60001 70100 80004 333 10219 56//6 83074=
85586,2018,03,26,12,00,AAXX 26124 85586 14960 62103 10089 20083 30046 40138 50007 60001 70100 86030 333 20080 30/// 55097 56/6/ 70000 86363=
85586,2018,03,26,15,00,AAXX 2615/ 85586 41/58 2//// 10166 20114 30052 40142 52005 70500 333 56//6 82073==
85586,2018,03,26,18,00,AAXX 26184 85586 14960 02608 10162 20106 30055 40145 50004 60001 70000 80000=
85586,2018,03,26,21,00,AAXX 26214 85586 42960 02906 10156 20106 30047 40137 58009==
85586,2018,03,27,00,00,AAXX 27004 85586 14960 00507 10126 20105 30045 40136 50001 60001 70000 80000 333 10178=
85586,2018,03,27,12,00,AAXX 27124 85586 14220 20000 10091 20088 30040 40132 51009 60001 71000 82600 333 20057 30/// 55092 70000 82704=
85586,2018,03,27,15,00,AAXX 27154 85586 42/60 32508 10155 20099 30047 40133 52004 333 56//6 83075==
85586,2018,03,27,18,00,AAXX 27184 85586 14960 12413 10175 20122 30041 40127 56007 60001 70200 80001 333 56//6 81075=
85586,2018,03,27,21,00,AAXX 27214 85586 42960 02810 10151 20113 30039 40125 55002==
85586,2018,03,28,00,00,AAXX 28004 85586 14960 00409 10132 20114 30048 40135 53009 60001 70200 80000 333 10182=
85586,2018,03,28,12,00,AAXX 28124 85586 14130 52103 10090 20087 30062 40150 53013 60001 71000 85600 333 20057 30/// 55102 566// 70000 85703=
85586,2018,03,28,15,00,AAXX 28154 85586 41230 52806 10140 20114 30072 40159 50012 71022 85600 333 566// 85704==
85586,2018,03,28,18,00,AAXX 28184 85586 14140 83007 10135 20112 30065 40152 57006 60001 70522 886// 333 567// 88703=
85586,2018,03,28,21,00,AAXX 28214 85586 41110 82804 10129 20116 30057 40144 55010 74121 886// 333 567// 88702==
85586,2018,03,29,00,00,AAXX 29004 85586 14256 80207 10142 20126 30063 40150 53006 60001 70522 886// 333 10159 561// 88706=
85586,2018,03,29,12,00,AAXX 29124 85586 14102 82003 10097 20096 30063 40150 53006 60001 74642 886// 333 20082 31/// 565// 70000 88702=
85586,2018,03,29,15,00,AAXX 29154 85586 41157 22507 10149 20115 30060 40147 57001 70542 82700 333 566// 82703==
85586,2018,03,29,18,00,AAXX 29184 85586 14960 02907 10173 20131 30052 40138 58009 60001 70141 80000=
85586,2018,03,29,21,00,AAXX 29214 85586 42960 00108 10180 20129 30036 40125 56012==
85586,2018,03,30,00,00,AAXX 30004 85586 14960 0//// 10148 20114 30047 40138 53010 60001 70000 80000 333 10191=
85586,2018,03,30,12,00,AAXX 30124 85586 14960 4//// 10096 20093 30045 40137 51007 60001 70300 80001 333 20071 30/// 55094 70000 84075=
85586,2018,03,30,15,00,AAXX 30154 85586 42/60 22410 10190 20104 30048 40137 50003 333 56//5 82075==
85586,2018,03,30,18,00,AAXX 30184 85586 14960 52413 10208 20101 30034 40123 58013 60001 70200 80001 333 56//5 85075=
85586,2018,03,30,21,00,AAXX 30214 85586 42/60 12409 10211 20110 30023 40111 56011 333 56//5 81075==
85586,2018,03,31,00,00,AAXX 31004 85586 14960 00204 10154 20122 30038 40128 53012 60001 70000 80000 333 10215=
85586,2018,03,31,12,00,AAXX 31124 85586 14105 82306 10097 20097 30059 40151 53015 60001 72800 886// 333 20085 30/// 55097 565// 70000 88602=
85586,2018,03,31,15,00,AAXX 31154 85586 41206 83306 10116 20116 30073 40165 51014 74444 886// 333 567// 88704==
85586,2018,03,31,18,00,AAXX 31184 85586 14157 83005 10138 20119 30073 40160 58002 60001 70522 886// 333 88703=
85586,2018,03,31,21,00,AAXX 31214 85586 41257 82905 10134 20120 30068 40155 56005 70522 886// 333 88705==
85586,2018,04,01,00,00,AAXX 01004 85586 14257 83203 10133 20122 30073 40160 52005 60001 70522 886// 333 10148 88706=
85586,2018,04,01,12,00,AAXX 01124 85586 14250 80803 10125 20114 30062 40149 53007 60001 71022 886// 333 20124 30/// 55005 70000 88706=
85586,2018,04,01,15,00,AAXX 01154 85586 41110 82905 10125 20122 30065 40152 52003 71022 886// 333 88702==
85586,2018,04,01,18,00,AAXX 01184 85586 14130 82707 10131 20118 30060 40147 56005 69901 70552 886// 333 566// 88703=
85586,2018,04,01,21,00,AAXX 01214 85586 41230 83005 10124 20113 30055 40142 56005 70522 886// 333 567// 88704==
85586,2018,04,02,00,00,AAXX 02004 85586 14360 83203 10124 20110 30064 40151 53008 60001 70522 886// 333 10135 567// 88707=
85586,2018,04,02,12,00,AAXX 02124 85586 14211 80604 10114 20109 30076 40164 53011 60001 75022 886// 333 20114 31/// 55000 561// 79999 88704=
85586,2018,04,02,15,00,AAXX 02154 85586 41350 80303 10137 20116 30081 40168 50005 70552 886// 333 561// 88709==
85586,2018,04,02,18,00,AAXX 02184 85586 14458 83004 10155 20121 30074 40161 58007 60001 70552 888// 333 567// 82810 88615=
85586,2018,04,02,21,00,AAXX 02214 85586 42560 82605 10150 20122 30068 40155 56006 885// 333 566// 88620==
85586,2018,04,03,00,00,AAXX 03004 85586 14458 83003 10140 20127 30072 40159 53003 60001 70522 888// 333 10164 562// 82810 88620=
85586,2018,04,03,12,00,AAXX 03124 85586 14457 81601 10133 20119 30077 40164 53011 60001 70522 885// 333 20111 30/// 55000 563// 70000 88613=
85586,2018,04,03,15,00,AAXX 03154 85586 41458 82606 10157 20121 30086 40173 52009 70522 885// 333 566// 88615==
85586,2018,04,03,18,00,AAXX 03184 85586 14460 22509 10163 20115 30079 40169 58003 60001 70111 82100 333 566// 82815=
85586,2018,04,03,21,00,AAXX 03214 85586 41357 72706 10143 20118 30069 40160 56010 70522 87500 333 566// 87608==
85586,2018,04,04,00,00,AAXX 04004 85586 14250 82505 10126 20118 30072 40163 53002 60001 71022 885// 333 10176 566// 88604=
85586,2018,04,04,12,00,AAXX 04124 85586 14320 8//// 10116 20116 30089 40181 51017 69921 71055 885// 333 20111 31/// 55048 567// 70004 88608=
85586,2018,04,04,15,00,AAXX 04154 85586 41250 82703 10131 20123 30092 40184 50002 71022 885// 333 566// 88606==
85586,2018,04,04,18,00,AAXX 04184 85586 14260 82608 10134 20111 30088 40175 58007 60001 70222 886// 333 88706=
85586,2018,04,04,21,00,AAXX 04214 85586 41157 82705 10125 20117 30082 40170 55006 71022 886// 333 88703==
85586,2018,04,05,00,00,AAXX 05004 85586 14112 83603 10125 20123 30088 40176 51006 60001 71022 886// 333 10140 88702=
85586,2018,04,05,12,00,AAXX 05124 85586 14405 81203 10118 20118 30075 40163 53007 60001 74644 886// 333 20116 31/// 55000 70000 88713=
85586,2018,04,05,15,00,AAXX 05154 85586 41156 23004 10157 20137 30078 40165 50003 70522 81602 333 566/6 81702 82075==
85586,2018,04,05,18,00,AAXX 05184 85586 14960 02411 10175 20107 30059 40149 58015 60001 70000 80000=
85586,2018,04,05,21,00,AAXX 05214 85586 42/60 22607 10169 20101 30057 40147 55001 333 56//6 82074==
85586,2018,04,06,00,00,AAXX 06004 85586 14960 40309 10134 20101 30062 40153 53005 60001 70200 80004 333 10184 56//6 84074=
85586,2018,04,06,12,00,AAXX 06124 85586 14957 72904 10129 20115 30080 40171 53010 60001 70511 87030 333 20121 30/// 55078 56/6/ 70000 87364=
85586,2018,04,06,15,00,AAXX 06154 85586 41458 72807 10150 20122 30086 40177 53005 70522 85530 333 5666/ 85618 87364==
85586,2018,04,06,18,00,AAXX 06184 85586 14458 82308 10151 20111 30080 40171 55006 60001 70522 885// 333 566// 88613=
85586,2018,04,06,21,00,AAXX 06214 85586 41457 82406 10136 20102 30088 40179 53008 70522 888// 333 566// 84817 88623==
85586,2018,04,07,00,00,AAXX 07004 85586 14560 82306 10129 20110 30083 40174 55005 60001 70222 885// 333 10175 566// 88625=
85586,2018,04,07,12,00,AAXX 07124 85586 14556 80000 10112 20091 30066 40158 57003 60001 70522 885// 333 20109 30/// 55007 566// 70000 88626=
85586,2018,04,07,15,00,AAXX 07154 85586 41558 22506 10150 20088 30072 40163 51006 70500 81501 333 566/6 81621 82073==
85586,2018,04,07,18,00,AAXX 07184 85586 14560 12608 10157 20099 30070 40161 57002 60001 70100 81100 333 566// 81820=
85586,2018,04,07,21,00,AAXX 07214 85586 42560 22605 10154 20098 30074 40161 53001 82100 333 566// 82820==
85586,2018,04,08,00,00,AAXX 08004 85586 14460 82602 10133 20094 30076 40163 53001 60001 70310 885// 333 10163 566// 88618=
85586,2018,04,08,12,00,AAXX 08124 85586 14960 00000 10083 20082 30081 40169 53015 60001 70000 80000 333 20061 30/// 55072 70000=
85586,2018,04,08,15,00,AAXX 08154 85586 42960 02805 10163 20091 30088 40174 50010==
85586,2018,04,08,18,00,AAXX 08184 85586 14960 02608 10172 20097 30076 40166 58007 60001 70000 80000=
85586,2018,04,08,21,00,AAXX 08214 85586 42960 02807 10164 20116 30068 40158 57008==
85586,2018,04,09,00,00,AAXX 09004 85586 14960 00000 10113 20099 30065 40157 56004 60001 70000 80000 333 10181=
85586,2018,04,09,12,00,AAXX 09124 85586 14460 80505 10133 20107 30072 40163 53014 60001 70222 885// 333 20083 30/// 55100 567// 70000 88619=
85586,2018,04,09,15,00,AAXX 09154 85586 41558 83504 10159 20115 30083 40174 51011 70522 885// 333 567// 88620==
85586,2018,04,09,18,00,AAXX 09184 85586 14460 83308 10181 20124 30089 40175 50002 60001 70222 885// 333 566// 83612 88632=
85586,2018,04,09,21,00,AAXX 09214 85586 42560 73505 10182 20121 30078 40164 57010 87500 333 566// 87632==
85586,2018,04,10,00,00,AAXX 10004 85586 14960 33203 10148 20127 30087 40174 53008 60001 70111 80001 333 10192 56//6 83075=
85586,2018,04,10,12,00,AAXX 10124 85586 14660 81004 10119 20110 30088 40176 53008 60001 70222 885// 333 20095 30/// 55006 70000 88640=
85586,2018,04,10,15,00,AAXX 10154 85586 42560 83206 10189 20113 30093 40179 50006 885// 333 566// 84629 88642==
85586,2018,04,10,18,00,AAXX 10184 85586 14660 83009 10183 20145 30081 40171 57008 60001 70222 885// 333 566// 85645 88648=
85586,2018,04,10,21,00,AAXX 10214 85586 42/60 83207 10168 20141 30069 40159 57011 8803/ 333 56/6/ 88362==
85586,2018,04,11,00,00,AAXX 11004 85586 14560 33007 10165 20147 30081 40171 53010 60001 70111 83500 333 10193 566// 83625=
85586,2018,04,11,12,00,AAXX 11124 85586 14460 73404 10160 20142 30095 40186 53013 69921 70222 87500 333 20153 31/// 55000 566// 70002 87615=
85586,2018,04,11,15,00,AAXX 11154 85586 42460 43308 10188 20149 30106 40196 53012 84500 333 566// 84619 84625==
85586,2018,04,11,18,00,AAXX 11184 85586 14560 43111 10195 20150 30109 40199 50003 60001 70111 84500 333 566// 84627=
85586,2018,04,11,21,00,AAXX 11214 85586 42460 62308 10161 20121 30126 40213 53014 86800 333 565// 83817 83625==
85586,2018,04,12,00,00,AAXX 12004 85586 14760 31204 10137 20107 30134 40222 51008 60001 70121 83500 333 10204 563// 83650=
85586,2018,04,12,12,00,AAXX 12124 85586 14960 01404 10106 20073 30118 40205 57002 60001 70000 80000 333 20087 30/// 55046 70000=
85586,2018,04,12,15,00,AAXX 12154 85586 42960 01706 10185 20104 30094 40180 58023==
85586,2018,04,12,18,00,AAXX 12184 85586 14960 02414 10170 20102 30060 40153 57027 60001 70000 80000=
85586,2018,04,12,21,00,AAXX 12214 85586 42960 02411 10158 20104 30055 40145 56008==
85586,2018,04,13,00,00,AAXX 13004 85586 14960 00604 10116 20097 30059 40151 53003 60001 70000 80000 333 10206=
85586,2018,04,13,12,00,AAXX 13124 85586 14357 83503 10119 20107 30084 40176 53014 60001 70522 885// 333 20104 30/// 55102 70000 88607=
85586,2018,04,13,15,00,AAXX 1315/ 85586 41457 7//// 10133 20103 30102 40194 51018 70522 87500 333 566// 85610 87612==
85586,2018,04,13,18,00,AAXX 13184 85586 14560 12511 10161 20105 30102 40189 54000 60001 70122 81500 333 566// 81626=
85586,2018,04,13,21,00,AAXX 13214 85586 42960 02510 10146 20100 30099 40186 57003==
85586,2018,04,14,00,00,AAXX 14004 85586 14960 00000 10113 20089 30098 40186 56002 60001 70200 80000 333 10169=
85586,2018,04,14,12,00,AAXX 14124 85586 14960 00000 10074 20073 30096 40184 52008 60001 70200 80000 333 20040 30/// 55054 70000=
85586,2018,04,14,15,00,AAXX 14154 85586 42960 02707 10148 20099 30103 40190 52008==
85586,2018,04,14,18,00,AAXX 14184 85586 14960 02508 10161 20105 30091 40182 58008 60001 70000 80000=
85586,2018,04,14,21,00,AAXX 14214 85586 42960 02410 10157 20117 30088 40179 55004==
85586,2018,04,15,00,00,AAXX 15004 85586 14960 00306 10125 20111 30086 40178 54001 60001 70000 80000 333 10172=
85586,2018,04,15,12,00,AAXX 15124 85586 14930 30903 10068 20067 30072 40165 50001 60001 71000 80004 333 20046 30/// 55099 56//6 70000 83073=
85586,2018,04,15,15,00,AAXX 15154 85586 41120 52605 10140 20117 30071 40162 57001 71000 85604 333 566/6 85702 82073==
85586,2018,04,15,18,00,AAXX 15184 85586 14240 52908 10154 20120 30063 40149 58012 60001 70521 85700 333 566// 85706=
85586,2018,04,15,21,00,AAXX 15214 85586 41230 72906 10149 20131 30072 40159 53009 70521 87600 333 567// 87706==
85586,2018,04,16,00,00,AAXX 16004 85586 14450 73404 10148 20132 30093 40180 51021 60001 70522 87500 333 10165 567// 87610=
85586,2018,04,16,12,00,AAXX 16124 85586 14125 62003 10108 20107 30089 40176 53008 60001 71062 83601 333 20089 31/// 55053 564// 70002 83702 85075=
85586,2018,04,16,15,00,AAXX 16154 85586 41340 72104 10147 20121 30096 40183 50006 70522 84601 333 565// 84709 86075==
85586,2018,04,16,18,00,AAXX 16184 85586 14257 72708 10155 20123 30090 40177 58003 60001 70522 84604 333 84705 85070=
85586,2018,04,16,21,00,AAXX 16214 85586 42/60 72504 10162 20135 30077 40167 56010 82054 333 56/77 82365 87071==
85586,2018,04,17,00,00,AAXX 17004 85586 14960 5//// 10140 20131 30089 40180 53013 60001 70122 80004 333 10180 85072=
85586,2018,04,17,12,00,AAXX 17124 85586 14405 20000 10087 20086 30091 40184 50008 60001 72841 82501 333 20076 30/// 55019 70000 82610 81075=
85586,2018,04,17,15,00,AAXX 17154 85586 41/57 12706 10183 20143 30090 40180 58001 70500 333 56//6 81075==
85586,2018,04,17,18,00,AAXX 17184 85586 14960 02416 10180 20114 30084 40170 58009 60001 70200 80000=
85586,2018,04,17,21,00,AAXX 17214 85586 42960 02411 10163 20102 30080 40166 56005==
85586,2018,04,18,00,00,AAXX 18004 85586 14960 00703 10120 20092 30086 40174 53005 60001 70200 80000 333 10193=
85586,2018,04,18,12,00,AAXX 18124 85586 14960 00000 10067 20064 30075 40163 53001 60001 70200 80000 333 20053 30/// 55089 70000=
85586,2018,04,18,15,00,AAXX 18154 85586 42960 02707 10153 20100 30069 40156 58004==
85586,2018,04,18,18,00,AAXX 18184 85586 14960 52311 10157 20097 30052 40142 58013 60001 70111 80004 333 56//6 85072=
85586,2018,04,18,21,00,AAXX 1821/ 85586 42/60 5//// 10142 20106 30046 40137 58006 333 56//6 85075==
85586,2018,04,19,00,00,AAXX 19004 85586 14960 30308 10126 20096 30057 40148 52011 60001 70100 83030 333 10168 56/6/ 83364=
85586,2018,04,19,12,00,AAXX 19124 85586 14960 0//// 10071 20070 30078 40171 53006 60001 70000 80000 333 20056 30/// 55084 70000=
85586,2018,04,19,15,00,AAXX 19154 85586 41958 02506 10160 20106 30073 40163 58005 70500==
85586,2018,04,19,18,00,AAXX 19184 85586 14960 02413 10163 20115 30058 40148 58015 60001 70000 80000=
85586,2018,04,19,21,00,AAXX 19214 85586 42960 02507 10163 20119 30058 40144 56004==
85586,2018,04,20,00,00,AAXX 20004 85586 14958 00603 10120 20109 30069 40157 53011 60001 70500 80000 333 10174=
85586,2018,04,20,12,00,AAXX 20124 85586 14115 30000 10068 20067 30081 40169 52011 60001 71010 83600 333 20054 30/// 55087 70000 83702=
85586,2018,04,20,15,00,AAXX 20154 85586 41020 42406 10142 20116 30090 40177 51011 70521 84700 333 566// 82701 82615==
85586,2018,04,20,18,00,AAXX 20184 85586 14250 12606 10156 20122 30077 40168 58009 60001 70500 81500 333 565// 81604=
85586,2018,04,20,21,00,AAXX 20214 85586 42960 02605 10164 20122 30067 40157 56010==
85586,2018,04,21,00,00,AAXX 21004 85586 14960 00904 10123 20109 30069 40161 53001 60001 70000 80000 333 10176=
85586,2018,04,21,12,00,AAXX 21124 85586 14930 00000 10073 20072 30054 40147 50005 60001 71000 80000 333 20061 30/// 55075 70000=
85586,2018,04,21,15,00,AAXX 21154 85586 41940 02706 10152 20114 30064 40155 52010 70544==
85586,2018,04,21,18,00,AAXX 21184 85586 14112 82707 10139 20121 30057 40144 58010 60001 71022 886// 333 88703=
85586,2018,04,21,21,00,AAXX 21214 85586 41112 83006 10123 20118 30060 40147 53002 71022 886// 333 566// 85702 88604==
85586,2018,04,22,00,00,AAXX 22004 85586 14130 80406 10125 20123 30062 40149 53002 60001 71022 886// 333 10165 88702=
85586,2018,04,22,12,00,AAXX 22124 85586 14103 80000 10077 20077 30094 40182 52012 60001 74644 886// 333 20066 30/// 55038 70000 88702=
85586,2018,04,22,15,00,AAXX 22154 85586 42160 13403 10163 20121 30099 40186 50007 81600 333 566// 81702==
85586,2018,04,22,18,00,AAXX 22184 85586 14110 42706 10146 20118 30080 40171 58016 60001 71011 84600 333 566// 84702=
85586,2018,04,22,21,00,AAXX 22214 85586 42/60 22504 10174 20130 30070 40160 57010 333 56//6 82074==
85586,2018,04,23,00,00,AAXX 23004 85586 14960 00000 10127 20121 30074 40165 53004 60001 70000 80000 333 10184=
85586,2018,04,23,12,00,AAXX 23124 85586 14912 40000 10065 20065 30069 40162 53007 60001 74100 80004 333 20056 31/// 55065 56//6 70002 84073=
85586,2018,04,23,15,00,AAXX 2315/ 85586 41/56 6//// 10140 20137 30077 40168 51008 71022 333 56//6 86074==
85586,2018,04,23,18,00,AAXX 23184 85586 14957 52510 10152 20116 30073 40164 58004 60001 70522 80004 333 56//6 85074=
85586,2018,04,23,21,00,AAXX 23214 85586 41/58 53004 10150 20108 30081 40168 52004 70522 82031 333 82365 83075==
85586,2018,04,24,00,00,AAXX 24004 85586 14956 40307 10116 20100 30090 40178 53008 60001 70510 81031 333 10169 81363 83075=
85586,2018,04,24,12,00,AAXX 24124 85586 14120 70000 10073 20072 30112 40201 53019 60001 74120 87600 333 20055 30/// 55038 563// 70000 87702=
85586,2018,04,24,15,00,AAXX 24154 85586 41235 32603 10141 20111 30120 40207 50010 70542 83600 333 566// 83704==
85586,2018,04,24,18,00,AAXX 24184 85586 14240 22411 10139 20107 30110 40197 57011 60001 70541 82700 333 565// 82704=
85586,2018,04,24,21,00,AAXX 24214 85586 42960 02507 10139 20098 30101 40192 55004==
85586,2018,04,25,00,00,AAXX 25004 85586 14960 00705 10105 20091 30101 40193 53001 60001 70000 80000 333 10159=
85586,2018,04,25,12,00,AAXX 25124 85586 14960 00000 10053 20052 30074 40168 50004 60001 70000 80000 333 20041 30/// 55069 70000=
85586,2018,04,25,15,00,AAXX 25154 85586 42960 02505 10164 20108 30065 40155 58008==
85586,2018,04,25,18,00,AAXX 25184 85586 14960 02509 10152 20106 30055 40145 58012 60001 70000 80000=
85586,2018,04,25,21,00,AAXX 25214 85586 42560 12510 10139 20111 30061 40148 53002 81500 333 566// 81620==
85586,2018,04,26,00,00,AAXX 26004 85586 14460 53403 10116 20100 30070 40158 53009 60001 70311 81502 333 10173 566/6 81613 85074=
85586,2018,04,26,12,00,AAXX 26124 85586 14260 10000 10083 20083 30099 40187 51009 60001 70200 81600 333 20055 30/// 55068 566// 70000 81705=
85586,2018,04,26,15,00,AAXX 26154 85586 42/60 11305 10176 20103 30107 40193 50008 333 56//6 81075==
85586,2018,04,26,18,00,AAXX 26184 85586 14960 22609 10206 20105 30088 40177 57015 60001 70100 80004 333 56//6 82073=
85586,2018,04,26,21,00,AAXX 26214 85586 42/60 32408 10181 20110 30089 40179 53001 333 56//6 83075==
85586,2018,04,27,00,00,AAXX 27004 85586 14960 30000 10122 20105 30100 40192 51011 60001 70100 80004 333 10223 56//6 83075=
85586,2018,04,27,12,00,AAXX 27124 85586 14220 50000 10100 20099 30092 40184 52010 60001 71011 81604 333 20082 31/// 55081 566/6 70000 81704 85073=
85586,2018,04,27,15,00,AAXX 27154 85586 41/58 60604 10159 20119 30089 40180 55005 70500 333 56//6 82073 86175==
85586,2018,04,27,18,00,AAXX 27184 85586 14960 52508 10177 20124 30067 40157 58021 60001 70100 80009 333 56//6 85173=
85586,2018,04,27,21,00,AAXX 27214 85586 42/60 42411 10156 20112 30068 40154 56005 333 84075==
85586,2018,04,28,00,00,AAXX 28004 85586 14960 50405 10124 20098 30074 40162 51007 60001 70321 81031 333 10201 81365 85075=
85586,2018,04,28,12,00,AAXX 28124 85586 14940 70000 10086 20083 30053 40141 50003 60001 71022 82036 333 20068 30/// 55064 70000 82365 85075=
85586,2018,04,28,15,00,AAXX 28154 85586 41/50 60503 10163 20107 30068 40154 50014 70522 333 86073==
85586,2018,04,28,18,00,AAXX 28184 85586 14950 72804 10150 20098 30071 40158 51003 60001 70522 80006 333 87075=
85586,2018,04,28,21,00,AAXX 28214 85586 41/56 72706 10133 20103 30080 40167 53008 70522 333 87075==
85586,2018,04,29,00,00,AAXX 29004 85586 14950 60904 10110 20096 30092 40180 52014 60001 70522 80006 333 10165 86075=
85586,2018,04,29,12,00,AAXX 29124 85586 14458 80703 10124 20101 30101 40193 51004 60001 70522 885// 333 20090 30/// 55025 70000 88617=
85586,2018,04,29,15,00,AAXX 29154 85586 42460 82805 10138 20097 30111 40202 53010 885// 333 566// 88618==
85586,2018,04,29,18,00,AAXX 29184 85586 14560 82705 10143 20094 30103 40194 58008 60001 70222 885// 333 566// 88622=
85586,2018,04,29,21,00,AAXX 29214 85586 42/60 52706 10142 20091 30083 40174 56020 81031 333 56/66 81356 84075==
85586,2018,04,30,00,00,AAXX 30004 85586 14960 10000 10080 20071 30087 40180 53004 60001 70100 80001 333 10155 81075=
85586,2018,04,30,12,00,AAXX 30124 85586 14457 80804 10103 20087 30092 40184 51013 60001 70522 885// 333 20036 30/// 55008 70000 88614=
85586,2018,04,30,15,00,AAXX 3015/ 85586 42560 8//// 10133 20088 30109 40201 52017 885// 333 88620==
85586,2018,04,30,18,00,AAXX 30184 85586 14958 33007 10158 20088 30103 40194 58006 60001 70500 80004 333 56//6 83074=
85586,2018,04,30,21,00,AAXX 30214 85586 42/60 22807 10144 20099 30108 40199 53005 333 56//6 82075==
85586,2018,05,01,00,00,AAXX 01004 85586 14960 00000 10083 20074 30117 40210 53008 60001 70000 80000 333 10162=
85586,2018,05,01,12,00,AAXX 01124 85586 14956 21303 10067 20064 30100 40194 53005 60001 71000 80004 333 20062 31/// 55053 56//6 70002 82074=
85586,2018,05,01,15,00,AAXX 0115/ 85586 41/57 3//// 10160 20104 30101 40192 58001 70500 333 56//6 83074==
85586,2018,05,01,18,00,AAXX 01184 85586 14460 32409 10156 20118 30085 40176 58016 60001 70100 83504 333 566/6 83610 83075=
85586,2018,05,01,21,00,AAXX 01214 85586 41115 82506 10122 20117 30092 40180 53005 74142 886// 333 566// 88701==
85586,2018,05,02,00,00,AAXX 02004 85586 14130 82602 10124 20121 30098 40186 53004 60001 70622 886// 333 10168 566// 88703=
85586,2018,05,02,12,00,AAXX 02124 85586 14260 71801 10112 20109 30113 40200 53002 69901 70162 87800 333 20112 32/// 55048 564// 70004 85606 84656=
85586,2018,05,02,15,00,AAXX 02154 85586 42360 51103 10158 20126 30121 40208 50009 82630 333 562// 82609 83366==
85586,2018,05,02,18,00,AAXX 02184 85586 14960 22414 10162 20120 30107 40194 57013 60001 70200 80002 333 56//6 82072=
85586,2018,05,02,21,00,AAXX 02214 85586 42/60 52410 10153 20123 30099 40186 56009 333 56//6 85073==
85586,2018,05,03,00,00,AAXX 03004 85586 14960 61003 10119 20111 30096 40184 55003 60001 70222 80002 333 10192 56//6 86075=
85586,2018,05,03,12,00,AAXX 03124 85586 14960 11003 10086 20082 30093 40181 54000 60001 70200 80001 333 20065 30/// 55073 56//6 70000 81075=
85586,2018,05,03,15,00,AAXX 03154 85586 42/60 11603 10190 20114 30091 40177 58001 333 56//6 81075==
85586,2018,05,03,18,00,AAXX 03184 85586 14960 22410 10184 20106 30063 40153 58024 60001 70200 80001 333 56//6 82075=
85586,2018,05,03,21,00,AAXX 03214 85586 42/60 42312 10150 20123 30059 40150 55004 333 56//5 84075==
85586,2018,05,04,00,00,AAXX 04004 85586 14960 40603 10123 20110 30063 40154 53004 60001 70111 80001 333 10207 84075=
85586,2018,05,04,12,00,AAXX 04124 85586 14960 1//// 10091 20088 30059 40152 50004 60001 70200 80001 333 20063 30/// 55068 56//5 70000 81075=
85586,2018,05,04,15,00,AAXX 04154 85586 42/60 10000 10201 20112 30054 40143 58005 333 81075==
85586,2018,05,04,18,00,AAXX 04184 85586 14960 02606 10174 20117 30043 40133 58011 60001 70000 80000=
85586,2018,05,04,21,00,AAXX 04214 85586 42960 02505 10166 20112 30037 40127 56009==
85586,2018,05,05,00,00,AAXX 05004 85586 14960 00000 10111 20100 30041 40133 53005 60001 70000 80000 333 10212=
85586,2018,05,05,12,00,AAXX 05124 85586 14/02 7//// 10103 20103 30055 40147 51012 60001 74344 333 20068 31/// 55076 70002=
85586,2018,05,05,15,00,AAXX 05154 85586 41240 52407 10131 20115 30066 40157 55010 71022 85600 333 566// 85704==
85586,2018,05,05,18,00,AAXX 05184 85586 14230 83006 10130 20117 30068 40155 58001 60001 71022 887// 333 567// 88704=
85586,2018,05,05,21,00,AAXX 05214 85586 41235 83007 10127 20118 30068 40155 54000 71022 886// 333 567// 88704==
85586,2018,05,06,00,00,AAXX 06004 85586 14256 82906 10133 20124 30082 40169 53013 60001 70522 886// 333 10135 566// 88706=
85586,2018,05,06,12,00,AAXX 06124 85586 14335 80401 10109 20108 30082 40170 53006 60001 71022 886// 333 20069 31/// 55004 561// 70000 88707=
85586,2018,05,06,15,00,AAXX 06154 85586 41240 81202 10136 20117 30097 40184 51012 70522 885// 333 563// 88606==
85586,2018,05,06,18,00,AAXX 06184 85586 14360 23504 10159 20117 30087 40174 58007 60001 70122 82601 333 566/6 82709 81075=
85586,2018,05,06,21,00,AAXX 06214 85586 42260 82904 10138 20124 30096 40183 53008 886// 333 88705==
85586,2018,05,07,00,00,AAXX 07004 85586 14460 60000 10129 20121 30098 40186 50003 60001 70222 85501 333 10174 566/6 85617 85070=
85586,2018,05,07,12,00,AAXX 07124 85586 14520 80000 10134 20131 30111 40199 53012 69921 75022 885// 333 20104 31/// 55023 566// 70002 85621 88634=
85586,2018,05,07,15,00,AAXX 07154 85586 42260 83105 10154 20148 30116 40203 51005 885// 333 566// 83606 83624 88642==
85586,2018,05,07,18,00,AAXX 07184 85586 14360 62706 10167 20140 30103 40193 58008 69901 70222 86500 333 566// 84607 86624=
85586,2018,05,07,21,00,AAXX 07214 85586 41257 72306 10139 20130 30094 40185 56010 70522 87500 333 565// 87604==
85586,2018,05,08,00,00,AAXX 08004 85586 14116 80000 10126 20124 30089 40181 58005 60001 71044 886// 333 10172 88702=
85586,2018,05,08,12,00,AAXX 08124 85586 14108 8//// 10118 20118 30074 40166 53009 69901 72844 886// 333 20109 31/// 55026 70002 88702=
85586,2018,05,08,15,00,AAXX 0815/ 85586 41235 8//// 10133 20133 30083 40174 51009 71044 885// 333 567// 84605 88609==
85586,2018,05,08,18,00,AAXX 08184 85586 14345 82305 10146 20127 30076 40167 57007 60001 71022 886// 333 566// 88708=
85586,2018,05,08,21,00,AAXX 08214 85586 41358 82304 10138 20120 30075 40166 55001 70522 885// 333 566// 88607==
85586,2018,05,09,00,00,AAXX 09004 85586 14360 8//// 10134 20120 30081 40172 51005 60001 70222 885// 333 10150 566// 88608=
85586,2018,05,09,12,00,AAXX 09124 85586 14960 60000 10103 20099 30094 40186 53006 60001 70200 80004 333 20098 30/// 55000 56//6 70000 86073=
85586,2018,05,09,15,00,AAXX 09154 85586 42460 62004 10149 20108 30109 40200 51015 86800 333 566// 82816 86619==
85586,2018,05,09,18,00,AAXX 09184 85586 14960 52608 10164 20108 30103 40194 56006 60001 70200 80004 333 56//6 85073=
85586,2018,05,09,21,00,AAXX 09214 85586 42460 62305 10137 20118 30118 40206 53011 81131 333 567// 81810 82365 85070==
85586,2018,05,10,00,00,AAXX 10004 85586 14960 61102 10099 20094 30134 40222 53015 60001 70222 83031 333 10179 83365 85075=
85586,2018,05,10,12,00,AAXX 10124 85586 14106 81102 10070 20070 30161 40250 53013 69921 74442 886// 333 20068 31/// 562// 70002 88701=
85586,2018,05,10,15,00,AAXX 10154 85586 41960 01302 10155 20107 30168 40255 50006 70142==
85586,2018,05,10,18,00,AAXX 10184 85586 14960 12410 10170 20109 30160 40247 58007 60001 70200 80001 333 56//6 81075=
85586,2018,05,11,00,00,AAXX 11004 85586 14960 01003 10108 20097 30148 40236 50003 60001 70200 80000 333 10175=
85586,2018,05,11,12,00,AAXX 11124 85586 14960 21804 10098 20081 30103 40191 55004 60001 70200 80002 333 20066 30/// 55065 56//6 70000 82075=
85586,2018,05,11,15,00,AAXX 11154 85586 42/60 21604 10187 20096 30095 40181 58007 333 56//6 82075==
85586,2018,05,11,18,00,AAXX 11184 85586 14960 12411 10179 20115 30062 40152 58028 60001 70200 80001 333 56//5 81075=
85586,2018,05,11,21,00,AAXX 11214 85586 42/60 32605 10174 20117 30050 40140 56012 333 56//6 83075==
85586,2018,05,12,00,00,AAXX 12004 85586 14960 40000 10113 20102 30051 40143 51001 60001 70100 80001 333 10219 84075=
85586,2018,05,12,12,00,AAXX 12124 85586 14957 00000 10048 20047 30060 40154 53012 60001 70500 80000 333 20040 30/// 55076 79999=
85586,2018,05,12,15,00,AAXX 12154 85586 41250 63207 10137 20112 30081 40172 53025 70500 86500 333 567// 86606==
85586,2018,05,12,18,00,AAXX 12184 85586 14240 72907 10143 20117 30077 40168 58004 60001 71022 87800 333 566// 85806 87610=
85586,2018,05,12,21,00,AAXX 12214 85586 41440 83305 10138 20117 30082 40173 51005 70522 885// 333 566// 88610==
85586,2018,05,13,00,00,AAXX 13004 85586 14550 8//// 10133 20119 30088 40179 52005 60001 71022 885// 333 10150 566// 88624=
85586,2018,05,13,12,00,AAXX 13124 85586 14958 40000 10087 20083 30087 40180 53006 60001 70500 80009 333 20082 30/// 55010 56//6 70000 84173=
85586,2018,05,13,15,00,AAXX 13154 85586 42/60 50000 10152 20092 30089 40180 50002 333 56//6 83073 85174==
85586,2018,05,13,18,00,AAXX 13184 85586 14960 42806 10165 20097 30082 40172 56006 60001 70100 80004 333 56//6 84074=
85586,2018,05,13,21,00,AAXX 13214 85586 42/60 62805 10142 20110 30088 40175 53001 82036 333 82367 85073==
85586,2018,05,14,00,00,AAXX 14004 85586 14960 60000 10111 20100 30096 40184 53007 60001 70222 82036 333 10169 82365 85073=
85586,2018,05,14,12,00,AAXX 14124 85586 14460 60000 10120 20111 30104 40192 53012 60001 70222 86500 333 20084 30/// 55045 563// 70000 83616 84650=
85586,2018,05,14,15,00,AAXX 14154 85586 42460 72407 10154 20116 30113 40200 53009 84406 333 566// 81815 83650 85070==
85586,2018,05,14,18,00,AAXX 14184 85586 14560 61805 10176 20119 30099 40185 57014 60001 70222 81106 333 564// 81822 85070=
85586,2018,05,14,21,00,AAXX 14214 85586 42/60 72407 10160 20112 30090 40177 55009 333 56//6 87072==
85586,2018,05,15,00,00,AAXX 15004 85586 14960 71503 10131 20107 30102 40190 52012 60001 70222 80002 333 10182 56//6 87072=
85586,2018,05,15,12,00,AAXX 15124 85586 14960 82203 10098 20087 30096 40184 53003 60001 70222 8803/ 333 20080 30/// 55001 70000 88367=
85586,2018,05,15,15,00,AAXX 15154 85586 42/60 80604 10136 20108 30104 40191 51009 8803/ 333 88367==
85586,2018,05,15,18,00,AAXX 15184 85586 14960 8//// 10158 20112 30089 40180 56013 60001 70222 8805/ 333 56/5/ 88368=
85586,2018,05,15,21,00,AAXX 1521/ 85586 42/60 8//// 10154 20111 30086 40177 58002 8805/ 333 56/5/ 88366==
85586,2018,05,16,00,00,AAXX 16004 85586 14958 6//// 10127 20110 30095 40187 53008 60001 70522 86050 333 10167 86364=
85586,2018,05,16,12,00,AAXX 16124 85586 14960 8//// 10116 20102 30083 40175 53004 60001 70222 8805/ 333 20112 30/// 55000 56/5/ 70000 88363=
85586,2018,05,16,15,00,AAXX 16154 85586 42/60 73603 10144 20099 30081 40172 57002 87030 333 87366==
85586,2018,05,16,18,00,AAXX 16184 85586 14960 62506 10151 20101 30080 40171 55001 60001 70222 86030 333 56/6/ 86365=
85586,2018,05,16,21,00,AAXX 16214 85586 42/60 82505 10132 20106 30089 40180 53006 8803/ 333 56/6/ 88363==
85586,2018,05,17,00,00,AAXX 17004 85586 14960 40710 10124 20098 30078 40170 58011 60001 70111 84030 333 10173 56/6/ 84363=
85586,2018,05,17,12,00,AAXX 17124 85586 14960 2//// 10048 20042 30087 40182 50001 60001 70100 82030 333 20034 30/// 55013 56/6/ 70000 82363=
85586,2018,05,17,15,00,AAXX 17154 85586 42/60 10000 10172 20059 30096 40186 51007 333 56//6 81073==
85586,2018,05,17,18,00,AAXX 17184 85586 14960 02608 10171 20055 30091 40181 58005 60001 70000 80000=
85586,2018,05,17,21,00,AAXX 17214 85586 42960 02408 10151 20101 30093 40184 53001==
85586,2018,05,18,00,00,AAXX 18004 85586 14960 00904 10107 20101 30107 40199 53013 60001 70000 80000 333 10183=
85586,2018,05,18,12,00,AAXX 18124 85586 14960 00000 10073 20072 30124 40218 53004 60001 70000 80000 333 20066 30/// 55069 70000=
85586,2018,05,18,15,00,AAXX 18154 85586 42960 01406 10158 20097 30125 40216 50001==
85586,2018,05,18,18,00,AAXX 18184 85586 14960 12507 10193 20109 30114 40200 58016 60001 70200 80001 333 56//6 81075=
85586,2018,05,18,21,00,AAXX 18214 85586 42/60 21607 10216 20030 30112 40197 57001 333 56//6 82075==
85586,2018,05,19,12,00,AAXX 19124 85586 14960 21205 10087 20055 30107 40195 53007 60001 70200 80001 333 20076 30/// 55069 56//6 70000 82075=
85586,2018,05,19,15,00,AAXX 19154 85586 42/60 31705 10188 20061 30109 40195 51003 333 56//6 83075==
85586,2018,05,19,18,00,AAXX 19184 85586 14960 52606 10190 20090 30088 40174 58021 60001 70211 80001 333 56//6 85075=
85586,2018,05,19,21,00,AAXX 19214 85586 42/60 62803 10176 20098 30083 40169 55005 333 56//6 86075==
85586,2018,05,20,00,00,AAXX 20004 85586 14960 50000 10094 20080 30096 40184 53012 60001 70222 80002 333 10206 56//6 85072=
85586,2018,05,20,12,00,AAXX 20124 85586 14960 31203 10033 20018 30092 40182 53006 60001 70211 80002 333 20027 30/// 55058 56//6 70000 83075=
85586,2018,05,20,15,00,AAXX 20154 85586 42/60 21303 10179 20056 30096 40182 52005 333 56//6 82075==
85586,2018,05,20,18,00,AAXX 20184 85586 14960 32409 10190 20084 30077 40167 57015 60001 70200 80001 333 56//5 83075=
85586,2018,05,20,21,00,AAXX 20214 85586 42/60 32406 10173 20118 30074 40164 55004 333 56//5 83075==
85586,2018,05,21,00,00,AAXX 21004 85586 14960 10203 10117 20112 30089 40181 53016 60001 70200 80001 333 10196 81075=
85586,2018,05,21,12,00,AAXX 21124 85586 149// 30000 10039 20039 30108 40203 52008 60001 71100 80001 333 20035 31/// 55069 56//5 70002 83075=
85586,2018,05,21,15,00,AAXX 21154 85586 41256 22505 10122 20117 30114 40206 50006 70544 81501 333 565/5 81606 81075==
85586,2018,05,21,18,00,AAXX 21184 85586 14960 42410 10142 20101 30100 40191 58013 60001 70300 80001 333 56//5 84075=
85586,2018,05,21,21,00,AAXX 21214 85586 42/60 52406 10139 20096 30096 40187 56004 333 56//5 85075==
85586,2018,05,22,00,00,AAXX 22004 85586 14960 20000 10085 20078 30103 40196 53006 60001 70100 80001 333 10151 82075=
85586,2018,05,22,12,00,AAXX 22124 85586 14950 11203 10038 20037 30086 40181 53001 60001 71000 80001 333 20012 30/// 55064 56//5 70000 81075=
85586,2018,05,22,15,00,AAXX 22154 85586 41958 02603 10129 20090 30086 40178 50000 70544==
85586,2018,05,22,18,00,AAXX 22184 85586 14960 02509 10138 20093 30072 40163 56014 60001 70000 80000=
85586,2018,05,22,21,00,AAXX 22214 85586 42960 02704 10133 20088 30070 40161 56004==
85586,2018,05,23,00,00,AAXX 23004 85586 14960 01002 10069 20062 30078 40171 52008 60001 70000 80000 333 10163=
85586,2018,05,23,12,00,AAXX 23124 85586 14960 01102 10021 20012 30099 40194 53011 60001 70000 80000 333 20004 31/// 55062 70000=
85586,2018,05,23,15,00,AAXX 2315/ 85586 42960 0//// 10136 20067 30103 40194 50004==
85586,2018,05,23,18,00,AAXX 23184 85586 14960 02506 10141 20077 30097 40188 58007 60001 70000 80000=
85586,2018,05,23,21,00,AAXX 23214 85586 42/60 12507 10131 20080 30097 40185 55004 81030 333 81365==
85586,2018,05,24,00,00,AAXX 24004 85586 14960 00905 10075 20064 30105 40193 51007 60001 70000 80000 333 10159=
85586,2018,05,24,12,00,AAXX 24124 85586 14958 11103 10041 20028 30097 40186 51007 60001 70500 80001 333 20007 31/// 55077 70000 81075=
85586,2018,05,24,15,00,AAXX 24154 85586 41/56 10000 10151 20075 30100 40187 53004 70500 333 81075==
85586,2018,05,24,18,00,AAXX 24184 85586 14956 02307 10153 20069 30082 40169 56018 60001 70500 80000=
85586,2018,05,24,21,00,AAXX 24214 85586 42/60 32904 10137 20098 30074 40161 55007 333 56//6 83075==
85586,2018,05,25,00,00,AAXX 25004 85586 14960 30000 10072 20063 30080 40168 51004 60001 70200 80001 333 10181 56//6 83075=
85586,2018,05,25,15,00,AAXX 25154 85586 41108 80203 10095 20091 30094 40182 52009 74622 886// 333 566// 85702 88705==
85586,2018,05,25,18,00,AAXX 25184 85586 14115 82808 10111 20100 30067 40159 57022 60001 71011 885// 333 565// 88602=
85586,2018,05,25,21,00,AAXX 25214 85586 41340 82905 10110 20094 30064 40156 55003 71022 885// 333 565// 88607==
85586,2018,05,26,00,00,AAXX 26004 85586 14130 80505 10097 20094 30071 40163 51008 60001 71022 885// 333 10132 561// 88603=
85586,2018,05,26,12,00,AAXX 26124 85586 14560 80000 10101 20081 30093 40185 53008 60001 70222 885// 333 20097 30/// 55021 70000 88622=
85586,2018,05,26,15,00,AAXX 26154 85586 42560 80705 10132 20083 30106 40198 51015 885// 333 561// 88626==
85586,2018,05,26,18,00,AAXX 26184 85586 14560 4//// 10156 20077 30102 40193 58003 60001 70111 84500 333 566// 84631=
85586,2018,05,26,21,00,AAXX 2621/ 85586 42/60 2//// 10172 20074 30090 40180 57015 333 56//6 82074==
85586,2018,05,27,00,00,AAXX 27004 85586 14960 01502 10102 20076 30093 40185 53003 60001 70000 80000 333 10177=
85586,2018,05,27,12,00,AAXX 27124 85586 14940 5//// 10058 20046 30085 40179 55005 60001 71000 80004 333 20049 30/// 55029 56//6 70000 85074=
85586,2018,05,27,15,00,AAXX 2715/ 85586 41/40 7//// 10127 20068 30086 40178 50002 70500 333 56//6 87274==
85586,2018,05,27,18,00,AAXX 27184 85586 14935 62803 10162 20075 30071 40157 57020 60001 70522 80006 333 86073=
85586,2018,05,28,00,00,AAXX 28004 85586 14956 60000 10090 20084 30090 40178 52014 60001 70522 81036 333 10179 81365 85273=
85586,2018,05,28,12,00,AAXX 28124 85586 14456 82303 10114 20103 30093 40181 53010 60001 70522 82536 333 20089 30/// 565// 70000 82615 85363 85073=
85586,2018,05,28,15,00,AAXX 28154 85586 41/58 82406 10125 20104 30088 40176 55003 70522 8803/ 333 88361==
85586,2018,05,28,18,00,AAXX 28184 85586 14358 82906 10131 20118 30090 40177 53001 60001 70522 8353/ 333 83608 88362=
85586,2018,05,28,21,00,AAXX 28214 85586 42/60 80505 10146 20107 30077 40164 58025 8803/ 333 88362==
85586,2018,05,29,00,00,AAXX 29004 85586 14660 83204 10125 20116 30080 40168 53003 60001 70222 8553/ 333 10148 566// 85640 88363=
85586,2018,05,29,12,00,AAXX 29124 85586 14340 80504 10135 20133 30097 40184 53013 60221 76366 885// 333 20119 33/// 55000 562// 70460 85709 88625=
85586,2018,05,29,15,00,AAXX 29154 85586 41125 83504 10139 20137 30117 40204 51020 76366 885// 333 564// 85702 85611 88622==
85586,2018,05,29,18,00,AAXX 29184 85586 14150 80604 10142 20140 30106 40197 58008 69901 71066 885// 333 565// 84603 88650=
85586,2018,05,29,21,00,AAXX 29214 85586 41140 82004 10133 20131 30116 40208 51012 71055 885// 333 565// 85602 87605 88647==
85586,2018,05,30,00,00,AAXX 30004 85586 14450 8//// 10122 20120 30133 40225 51015 60011 75855 885// 333 10144 565// 86615 88633=
85586,2018,05,30,12,00,AAXX 30124 85586 14960 62203 10095 20087 30130 40218 53003 60001 70222 85071 333 20093 32/// 55000 56/55 70174 85366 81073=
85586,2018,05,30,15,00,AAXX 30154 85586 42460 41707 10127 20097 30130 40222 52005 83101 333 566/6 83815 81073==
85586,2018,05,30,18,00,AAXX 30184 85586 14560 31707 10152 20090 30117 40208 58013 60001 70100 83100 333 566// 83824=
85586,2018,05,30,21,00,AAXX 30214 85586 42660 21707 10154 20077 30118 40209 53001 82500 333 566// 82636==
85586,2018,05,31,00,00,AAXX 31004 85586 14960 00000 10093 20066 30126 40219 51007 60001 70000 80000 333 10165=
85586,2018,05,31,12,00,AAXX 31124 85586 14960 01605 10054 20041 30129 40223 53004 60001 70000 80000 333 20030 31/// 55052 70000=
85586,2018,05,31,15,00,AAXX 31154 85586 42960 01605 10107 20055 30134 40227 52006==
85586,2018,05,31,18,00,AAXX 31184 85586 14660 12411 10118 20063 30117 40208 58017 60001 70000 81100 333 566// 81835=
85586,2018,05,31,21,00,AAXX 31214 85586 42960 02308 10119 20068 30105 40193 56016==
85586,2018,06,01,00,00,AAXX 01004 85586 14958 00000 10057 20035 30108 40197 53002 60001 70400 80000 333 10131=
85586,2018,06,01,12,00,AAXX 01124 85586 14940 01102 10015 20012 30083 40173 53000 60001 71000 80000 333 20012 34/// 55055 70000=
85586,2018,06,01,15,00,AAXX 01154 85586 41958 00000 10104 20050 30092 40179 51010 70500==
85586,2018,06,01,18,00,AAXX 01184 85586 14960 02606 10119 20062 30080 40168 58011 60001 70200 80000=
85586,2018,06,01,21,00,AAXX 01214 85586 42960 02406 10107 20069 30077 40165 55003==
85586,2018,06,02,00,00,AAXX 02004 85586 14960 01003 10044 20038 30099 40186 53020 60001 70200 80000 333 10126=
85586,2018,06,02,12,00,AAXX 02124 85586 14960 01203 10015 20012 30106 40196 52008 60001 70200 80000 333 20010 31/// 55060 70000=
85586,2018,06,02,15,00,AAXX 02154 85586 42960 00904 10090 20058 30113 40201 50011==
85586,2018,06,02,18,00,AAXX 02184 85586 14960 02510 10118 20072 30093 40185 56017 60001 70000 80000=
85586,2018,06,02,21,00,AAXX 02214 85586 42960 02307 10113 20069 30085 40177 57008==
85586,2018,06,03,00,00,AAXX 03004 85586 14960 00000 10066 20059 30091 40185 53006 60001 70000 80000 333 10128=
85586,2018,06,03,12,00,AAXX 03124 85586 14960 01203 10039 20035 30134 40229 53012 60001 70200 80000 333 20032 31/// 55061 70000=
85586,2018,06,03,15,00,AAXX 0315/ 85586 42960 0//// 10124 20067 30154 40246 52020==
85586,2018,06,03,18,00,AAXX 03184 85586 14660 12508 10142 20040 30149 40241 58005 60001 70100 81100 333 566// 81842=
85586,2018,06,03,21,00,AAXX 03214 85586 42960 02308 10125 20066 30147 40239 55002==
85586,2018,06,04,00,00,AAXX 04004 85586 14960 01807 10097 20066 30167 40260 53021 60001 70000 80000 333 10145=
85586,2018,06,04,12,00,AAXX 04124 85586 14960 61003 10039 20023 30152 40247 50000 60001 70500 80006 333 20017 32/// 70000 86073=
85586,2018,06,04,15,00,AAXX 04154 85586 41/58 61703 10096 20040 30162 40250 52002 70522 84031 333 84367 85073==
85586,2018,06,04,18,00,AAXX 04184 85586 14958 51705 10157 20015 30152 40239 58008 60001 70522 85031 333 85367 82073=
85586,2018,06,04,21,00,AAXX 04214 85586 42/60 51604 10138 20036 30164 40252 53010 85031 333 85363 82173==
85586,2018,06,05,00,00,AAXX 05004 85586 14960 21504 10079 20022 30171 40260 52007 60001 70121 82030 333 10167 82363=
85586,2018,06,05,12,00,AAXX 05124 85586 14960 71203 10037 20007 30147 40237 53006 60001 70222 83036 333 20006 31/// 55041 70000 83367 86270=
85586,2018,06,05,15,00,AAXX 05154 85586 41/58 81103 10070 20015 30153 40242 53005 70522 8803/ 333 88363==
85586,2018,06,05,18,00,AAXX 05184 85586 14958 81303 10088 20024 30140 40228 56014 60001 70522 8803/ 333 88361=
85586,2018,06,05,21,00,AAXX 05214 85586 41/60 81405 10094 20038 30134 40222 55005 70262 8803/ 333 88357==
85586,2018,06,06,00,00,AAXX 06004 85586 14760 81205 10124 20026 30120 40208 58012 69921 70222 8553/ 333 10125 566// 85756 88360=
85586,2018,06,06,12,00,AAXX 06124 85586 14960 11303 10034 20018 30115 40205 52005 60001 70200 80001 333 20027 31/// 55000 56//6 70002 81075=
85586,2018,06,06,15,00,AAXX 06154 85586 42/60 21706 10127 20049 30112 40200 58002 333 56//6 82075==
85586,2018,06,06,18,00,AAXX 06184 85586 14960 11508 10191 20083 30097 40183 58014 60001 70200 80001 333 56//6 81075=
85586,2018,06,06,21,00,AAXX 06214 85586 42/60 11710 10183 20060 30087 40173 55010 333 56//6 81075==
85586,2018,06,07,00,00,AAXX 07004 85586 14960 02405 10107 20049 30104 40191 51012 60001 70200 80000 333 10199=
85586,2018,06,07,12,00,AAXX 07124 85586 14960 32105 10052 20035 30092 40181 57006 60001 70200 80001 333 20051 31/// 55073 56//6 70000 83075=
85586,2018,06,07,15,00,AAXX 07154 85586 42960 01204 10142 20064 30095 40182 50004==
85586,2018,06,07,18,00,AAXX 07184 85586 14960 41604 10201 20035 30076 40165 57015 60001 70100 80004 333 56//6 84074=
85586,2018,06,07,21,00,AAXX 07214 85586 42/60 12406 10149 20087 30084 40175 53008 333 56//6 81074==
85586,2018,06,08,00,00,AAXX 08004 85586 14960 0//// 10095 20066 30089 40182 52005 60001 70000 80000 333 10202=
85586,2018,06,08,12,00,AAXX 08124 85586 14960 4//// 10071 20048 30084 40177 53001 60001 70111 84034 333 20068 31/// 55048 56/66 70000 83361 82073=
85586,2018,06,08,15,00,AAXX 08154 85586 41/58 60000 10142 20068 30087 40178 52003 70500 333 56//6 86074==
85586,2018,06,08,18,00,AAXX 08184 85586 14958 72410 10158 20102 30067 40157 56019 60001 70511 80004 333 56//6 87074=
85586,2018,06,08,21,00,AAXX 08214 85586 42/60 62704 10132 20111 30050 40141 56018 83034 333 56/66 83363 86074==
85586,2018,06,09,00,00,AAXX 09004 85586 11109 80203 10119 20116 30043 40134 58004 60001 72811 886// 333 10182 566// 88702==
85586,2018,06,09,12,00,AAXX 09124 85586 12460 80000 10099 20099 30008 40100 52008 60004 888// 333 20081 31/// 55030 566// 70000 82817 85820 88634==
85586,2018,06,09,15,00,AAXX 09154 85586 42460 80109 10137 20109 30008 40099 58001 885// 333 566// 85616 88631==
85586,2018,06,09,18,00,AAXX 09184 85586 12460 83615 10148 20112 39991 40077 56020 60001 888// 333 561// 85818 88640==
85586,2018,06,09,21,00,AAXX 09214 85586 41120 82915 10107 20104 30005 40092 53013 76386 8872/ 333 5600/ 82702 88508==
85586,2018,06,10,00,00,AAXX 10004 85586 11450 80207 10103 20100 30029 40117 51023 60191 76386 8452/ 333 10159 5600/ 84610 88540==
85586,2018,06,10,12,00,AAXX 10124 85586 11560 80206 10107 20074 30054 40142 53007 60244 76186 8252/ 333 20087 32/// 55000 5611/ 70238 82620 88540==
85586,2018,06,10,15,00,AAXX 10154 85586 41560 83407 10118 20083 30069 40157 53016 71582 888// 333 560// 84820 87630==
85586,2018,06,10,18,00,AAXX 10184 85586 11450 83610 10105 20094 30054 40142 57016 69941 78086 888// 333 560// 84810 88625==
85586,2018,06,10,21,00,AAXX 10214 85586 41560 63410 10128 20097 30040 40131 56010 70266 86531 333 567/7 82624 86357 81075==
85586,2018,06,11,00,00,AAXX 11004 85586 11560 63609 10123 20093 30042 40133 52001 69921 75822 86500 333 10143 567// 82622 86638==
85586,2018,06,11,12,00,AAXX 11124 85586 14340 80108 10069 20063 30100 40194 53043 60051 76366 885// 333 20066 32/// 55022 567// 70292 86707 88720=
85586,2018,06,11,15,00,AAXX 11154 85586 42560 70204 10097 20073 30142 40235 51042 86501 333 567/7 82622 86650 81073==
85586,2018,06,11,18,00,AAXX 11184 85586 14460 81403 10066 20056 30161 40250 52014 60031 76066 885// 333 565// 82612 88635=
85586,2018,06,11,21,00,AAXX 11214 85586 42660 20707 10094 20056 30170 40258 53008 82500 333 565// 82640==
85586,2018,06,12,00,00,AAXX 12004 85586 14960 01203 10058 20046 30193 40283 51024 60001 70200 80000 333 10116=
85586,2018,06,12,12,00,AAXX 12124 85586 14960 01304 10030 20021 30202 40293 55001 60001 70200 80000 333 20029 31/// 55026 70026=
85586,2018,06,12,15,00,AAXX 12154 85586 42960 01204 10101 20051 30202 40290 52006==
85586,2018,06,12,18,00,AAXX 12184 85586 14960 01607 10131 20038 30176 40268 56021 60001 70000 80000=
85586,2018,06,12,21,00,AAXX 12214 85586 42960 02206 10125 20070 30160 40252 56018==
85586,2018,06,13,00,00,AAXX 13004 85586 14960 01903 10055 20035 30160 40255 52001 60001 70000 80000 333 10140=
85586,2018,06,13,12,00,AAXX 13124 85586 46/// ///// 48/// 333 70000=
85586,2018,06,13,15,00,AAXX 13154 85586 42/60 21403 10093 20035 30156 40249 51005 333 56//6 82075==
85586,2018,06,13,18,00,AAXX 13184 85586 14960 31704 10137 20044 30140 40232 57015 60001 70100 80004 333 56//6 83075=
85586,2018,06,13,21,00,AAXX 13214 85586 42/60 62307 10124 20075 30139 40231 55003 83034 333 56/66 83363 86073==
85586,2018,06,14,00,00,AAXX 14004 85586 14960 5//// 10100 20029 30144 40237 51006 60001 70222 85030 333 10149 56/6/ 85364=
85586,2018,06,14,12,00,AAXX 14124 85586 14960 11103 10021 20012 30157 40248 52006 60001 70100 80001 333 20004 31/// 55055 70000 81073=
85586,2018,06,14,18,00,AAXX 14184 85586 14960 62309 10132 20064 30149 40237 56013 60001 70210 80006 333 86075=
85586,2018,06,15,00,00,AAXX 15004 85586 14958 71402 10084 20035 30147 40235 50000 60001 70522 84036 333 10138 84367 86073=
85586,2018,06,15,12,00,AAXX 15124 85586 14960 81604 10096 20034 30126 40214 55010 60001 70222 8803/ 333 20060 31/// 55045 70000 88362=
85586,2018,06,15,15,00,AAXX 15154 85586 42/60 81803 10107 20046 30136 40224 51016 8803/ 333 56/6/ 83361 88365==
85586,2018,06,15,18,00,AAXX 15184 85586 14960 70303 10159 20053 30124 40211 58013 60001 70222 87030 333 56/6/ 87363=
85586,2018,06,15,21,00,AAXX 15214 85586 42/60 62707 10130 20057 30112 40200 54002 86030 333 56/6/ 86363==
85586,2018,06,16,00,00,AAXX 16004 85586 14960 60000 10082 20063 30127 40215 57003 60001 70222 86030 333 10168 56/6/ 86364=
85586,2018,06,16,12,00,AAXX 16121 85586 46/// ///// 48/// 333 70000=
85586,2018,06,16,15,00,AAXX 16154 85586 42/60 11004 10140 20069 30118 40205 53003 333 81075==
85586,2018,06,16,18,00,AAXX 16184 85586 14960 01907 10202 20067 30097 40186 58016 60001 70000 80000=
85586,2018,06,16,21,00,AAXX 16214 85586 42960 02603 10158 20112 30093 40184 56005==
85586,2018,06,17,00,00,AAXX 17004 85586 14957 00000 10087 20083 30098 40191 51004 60001 71000 80000 333 10206=
85586,2018,06,17,12,00,AAXX 17124 85586 14960 11203 10055 20048 30098 40192 53004 60001 70100 80001 333 20038 31/// 55061 56//6 70000 81074=
85586,2018,06,17,15,00,AAXX 1715/ 85586 42960 0//// 10143 20087 30108 40199 52011==
85586,2018,06,17,18,00,AAXX 17184 85586 14957 03005 10142 20089 30097 40188 58011 60001 70500 80000=
85586,2018,06,17,21,00,AAXX 17214 85586 41102 82705 10102 20097 30088 40180 55009 72800 886// 333 566// 88701==
85586,2018,06,18,00,00,AAXX 18004 85586 14001 8//// 10087 20086 30091 40184 50003 60001 72844 886// 333 10148 566// 88701=
85586,2018,06,18,12,00,AAXX 18124 85586 14102 8//// 10021 20021 30068 40163 56005 60001 72822 886// 333 20021 31/// 55050 566// 70000 88701=
85586,2018,06,18,15,00,AAXX 1815/ 85586 41/08 3//// 10088 20088 30069 40162 53001 72822 333 56//6 83074==
85586,2018,06,18,18,00,AAXX 18184 85586 14135 42504 10117 20089 30058 40146 58015 60021 70522 82606 333 566// 82702 84075=
85586,2018,06,18,21,00,AAXX 18214 85586 41102 83306 10096 20095 30086 40173 53024 75122 887// 333 567// 88702==
85586,2018,06,19,00,00,AAXX 19004 85586 14220 83202 10097 20097 30095 40183 51010 60001 71054 886// 333 10134 567// 88704=
85586,2018,06,19,12,00,AAXX 19124 85586 14335 80504 10093 20085 30120 40208 53011 60001 71022 886// 333 20093 31/// 55028 561// 79999 88707=
85586,2018,06,19,15,00,AAXX 19154 85586 41220 81002 10100 20091 30136 40224 52017 71022 886// 333 562// 88705==
85586,2018,06,19,18,00,AAXX 19184 85586 14340 80602 10107 20090 30132 40220 58004 69921 70522 887// 333 562// 88709=
85586,2018,06,19,21,00,AAXX 19214 85586 41440 82402 10114 20095 30118 40205 56014 70522 885// 333 566// 88612==
85586,2018,06,20,00,00,AAXX 20004 85586 14450 40000 10087 20083 30123 40211 52005 60001 71021 84500 333 10115 563// 84614=
85586,2018,06,20,12,00,AAXX 20124 85586 14108 80503 10074 20073 30130 40219 53013 60001 74022 886// 333 20065 31/// 55000 561// 70002 88702=
85586,2018,06,20,15,00,AAXX 20154 85586 41218 81502 10085 20076 30140 40228 52010 71022 886// 333 563// 88705==
85586,2018,06,20,18,00,AAXX 20184 85586 14457 72005 10111 20083 30136 40223 58003 60001 70522 87500 333 566// 87611=
85586,2018,06,20,21,00,AAXX 20214 85586 42/60 21706 10122 20089 30141 40228 53003 333 56//6 82075==
85586,2018,06,21,00,00,AAXX 21004 85586 14960 02004 10081 20074 30165 40254 51023 60001 70200 80000 333 10126=
85586,2018,06,21,12,00,AAXX 21124 85586 14960 31806 10065 20042 30157 40246 55001 60001 70200 80001 333 20059 31/// 55034 56//6 70000 83075=
85586,2018,06,21,15,00,AAXX 21154 85586 42/60 61607 10104 20052 30147 40235 58008 333 56//6 86075==
85586,2018,06,21,18,00,AAXX 21184 85586 14960 61604 10160 20068 30114 40201 56034 60001 70222 80002 333 56//6 86075=
85586,2018,06,21,21,00,AAXX 21214 85586 42/60 62206 10148 20051 30104 40191 55011 333 56//6 86075==
85586,2018,06,22,00,00,AAXX 22004 85586 14960 61806 10116 20029 30107 40195 50004 60001 70222 80002 333 10178 56//6 86073=
85586,2018,06,22,12,00,AAXX 22124 85586 14960 60000 10030 20023 30095 40185 56011 60001 70222 80002 333 20030 31/// 55047 56//6 70000 86073=
85586,2018,06,22,15,00,AAXX 22154 85586 42/60 61606 10110 20051 30113 40200 51020 333 56//6 86073==
85586,2018,06,22,18,00,AAXX 22184 85586 14960 51807 10138 20047 30096 40187 58011 60001 70222 80004 333 56//6 85074=
85586,2018,06,22,21,00,AAXX 22214 85586 42/60 31706 10145 20028 30091 40182 55006 333 56//6 83074==
85586,2018,06,23,00,00,AAXX 23004 85586 14960 3//// 10091 20056 30106 40199 52016 60001 70111 80004 333 10156 56//6 83075=
85586,2018,06,23,12,00,AAXX 23124 85586 14957 3//// 10019 20015 30119 40215 53012 69901 71000 80004 333 20017 31/// 55046 56//6 79999 83075=
85586,2018,06,23,15,00,AAXX 2315/ 85586 41/58 3//// 10097 20049 30128 40221 51010 70500 333 56//6 83075==
85586,2018,06,23,18,00,AAXX 23184 85586 14957 31606 10157 20051 30106 40197 58020 60001 70500 80004 333 56//6 83074=
85586,2018,06,23,21,00,AAXX 23214 85586 42/60 12405 10142 20095 30095 40186 55013 333 56//6 81075==
85586,2018,06,24,00,00,AAXX 24004 85586 14960 01605 10105 20065 30095 40187 53001 60001 70000 80000 333 10170=
85586,2018,06,24,12,00,AAXX 24124 85586 14460 80703 10089 20074 30107 40195 53021 69921 70222 885// 333 20046 31/// 55057 566// 70004 88610=
85586,2018,06,24,15,00,AAXX 24154 85586 41557 80604 10106 20092 30122 40215 51023 78022 888// 333 566// 85822 88632==
85586,2018,06,24,18,00,AAXX 24184 85586 14560 72905 10121 20095 30128 40216 52003 69941 70222 86531 333 566// 86622 84360 82075=
85586,2018,06,24,21,00,AAXX 24214 85586 42460 63604 10122 20096 30132 40220 50003 82530 333 561// 82813 84620 82365==
85586,2018,06,25,00,00,AAXX 25004 85586 14458 50000 10104 20087 30144 40232 53010 60001 70522 85600 333 10130 562// 85617=
85586,2018,06,25,12,00,AAXX 25124 85586 14104 71102 10054 20054 30144 40233 50001 69921 74652 87630 333 20037 31/// 55011 562// 70006 87703 82365=
85586,2018,06,25,15,00,AAXX 2515/ 85586 41230 7//// 10100 20097 30153 40241 51010 71021 86630 333 563// 86704 82365==
85586,2018,06,25,18,00,AAXX 25184 85586 14957 42411 10129 20092 30135 40223 58016 60001 70542 84030 333 84367=
85586,2018,06,25,21,00,AAXX 25214 85586 42/60 62406 10130 20095 30130 40218 55005 85031 333 85367 82072==
85586,2018,06,26,00,00,AAXX 26004 85586 14958 60902 10084 20080 30133 40221 53003 60001 70522 82036 333 10155 82367 86273=
85586,2018,06,26,12,00,AAXX 26124 85586 14935 52203 10064 20060 30123 40212 53004 60001 71021 82031 333 20053 31/// 55039 70000 82364 84075=
85586,2018,06,26,15,00,AAXX 26154 85586 41/58 60000 10129 20092 30132 40220 52010 70522 83032 333 83365 85070==
85586,2018,06,26,18,00,AAXX 26184 85586 14960 71505 10145 20081 30118 40204 58014 60001 70222 86031 333 86365 83070=
85586,2018,06,26,21,00,AAXX 26214 85586 42/// 81906 10141 20077 30108 40195 57011 8803/ 333 88365==
85586,2018,06,27,00,00,AAXX 27004 85586 14960 80000 10119 20074 30114 40202 53002 60001 70222 8803/ 333 10165 88362=
85586,2018,06,27,12,00,AAXX 27124 85586 14960 11403 10067 20063 30105 40194 53004 60001 70200 80002 333 20046 31/// 55005 56//6 70000 81073=
85586,2018,06,27,15,00,AAXX 27154 85586 42960 01804 10156 20082 30100 40187 58004==
85586,2018,06,27,18,00,AAXX 27184 85586 14960 02409 10160 20120 30073 40159 58026 60001 70200 80000=
85586,2018,06,27,21,00,AAXX 27214 85586 42960 02405 10163 20119 30059 40145 56016==
85586,2018,06,28,00,00,AAXX 28004 85586 14960 00000 10101 20096 30058 40146 54000 60001 70200 80000 333 10194=
85586,2018,06,28,12,00,AAXX 28124 85586 14107 80905 10090 20090 30079 40167 51022 60001 74644 886// 333 20056 31/// 55053 70000 88702=
85586,2018,06,28,18,00,AAXX 28184 85586 14113 83006 10114 20114 30111 40198 51008 69921 71022 886// 333 566// 88702=
85586,2018,06,28,21,00,AAXX 28214 85586 41230 82402 10109 20108 30124 40211 53013 71022 886// 333 566// 88704==
85586,2018,06,29,00,00,AAXX 29004 85586 14340 80000 10110 20109 30133 40225 52013 60001 71022 886// 333 10115 566// 88708=
85586,2018,06,29,12,00,AAXX 29124 85586 14122 80000 10086 20086 30110 40203 55002 60001 71022 886// 333 20059 31/// 55000 566// 70002 88703=
85586,2018,06,29,15,00,AAXX 29154 85586 41/50 71403 10109 20109 30109 40201 55001 71022 87030 333 56/6/ 87363==
85586,2018,06,29,18,00,AAXX 29184 85586 14456 22507 10152 20116 30082 40173 58024 60001 70522 82500 333 566// 82614=
85586,2018,06,30,00,00,AAXX 30004 85586 14120 80506 10103 20102 30062 40154 58006 60001 71022 886// 333 10181 566// 88702=
85586,2018,06,30,12,00,AAXX 30124 85586 14102 83603 10101 20101 30075 40167 53012 69921 72422 886// 333 20088 31/// 55058 566// 70004 88701=
85586,2018,06,30,15,00,AAXX 30154 85586 41213 80104 10105 20105 30086 40177 50012 71022 886// 333 566// 88705==
85586,2018,06,30,18,00,AAXX 30184 85586 14340 80603 10115 20109 30071 40159 58017 69941 71152 885// 333 562// 84808 88620=
85586,2018,06,30,21,00,AAXX 30214 85586 41556 70704 10119 20093 30059 40147 56018 70522 87800 333 562// 82820 87630==
85586,2018,07,01,00,00,AAXX 01004 85586 14556 81102 10111 20094 30063 40151 52005 60001 70522 885// 333 10126 562// 88630=
85586,2018,07,01,12,00,AAXX 01124 85586 14560 80205 10124 20071 30055 40142 53012 69921 70252 8253/ 333 20101 31/// 55000 561// 70006 82630 84360 88367=
85586,2018,07,01,15,00,AAXX 01154 85586 41430 81402 10110 20101 30071 40159 53016 76182 8352/ 333 5633/ 83815 88540==
85586,2018,07,01,18,00,AAXX 01184 85586 14535 80705 10124 20103 30063 40150 58008 60061 76186 8442/ 333 5621/ 84630 87556=
85586,2018,07,01,21,00,AAXX 01214 85586 41540 80805 10122 20101 30067 40155 50004 76162 8452/ 333 5622/ 84620 88540==
85586,2018,07,02,12,00,AAXX 02124 85586 14960 30802 10092 20086 30108 40196 53001 60001 70121 81031 333 20091 31/// 55000 70072 81365 82075=
85586,2018,07,02,15,00,AAXX 02154 85586 42/60 61002 10142 20106 30105 40192 56002 84031 333 84365 85073==
85586,2018,07,02,18,00,AAXX 02184 85586 14960 72704 10155 20111 30081 40168 57023 60001 70222 80002 333 56//6 87073=
85586,2018,07,02,21,00,AAXX 02214 85586 42/60 72303 10138 20110 30063 40150 56019 333 56//6 87071==
85586,2018,07,03,00,00,AAXX 03004 85586 14960 70000 10106 20103 30049 40137 56012 60001 70222 80002 333 10171 56//6 87071=
85586,2018,07,03,12,00,AAXX 03124 85586 14956 81003 10106 20105 30036 40124 51005 69921 71062 8803/ 333 20083 31/// 55011 70002 88367=
85586,2018,07,03,15,00,AAXX 03154 85586 42460 70000 10131 20110 30058 40145 51023 87500 333 566// 83611 83630 87650==
85586,2018,07,03,18,00,AAXX 03184 85586 14560 83505 10137 20118 30040 40127 56017 60001 70222 86502 333 566/6 81623 85650 87073=
85586,2018,07,03,21,00,AAXX 03214 85586 41460 80108 10150 20108 30035 40121 58008 70262 815// 333 566// 81615 88650==
85586,2018,07,04,00,00,AAXX 04004 85586 14960 80406 10143 20106 30025 40111 58009 69921 70222 8803/ 333 10152 88360=
85586,2018,07,04,12,00,AAXX 04124 85586 14560 80312 10139 20111 30007 40093 51011 60001 70222 8753/ 333 20125 31/// 55000 566// 70002 84626 85656 88361=
85586,2018,07,04,15,00,AAXX 04154 85586 41765 80314 10159 20094 39993 40083 58007 76062 8447/ 333 5666/ 84656 85359==
85586,2018,07,04,18,00,AAXX 04184 85586 14440 83607 10122 20114 30005 40096 51009 60061 76488 888// 333 566// 84811 88615=
85586,2018,07,04,21,00,AAXX 04214 85586 41458 80212 10139 20113 30027 40118 53020 78022 885// 333 566// 88618==
85586,2018,07,05,00,00,AAXX 05004 85586 14560 70315 10125 20102 30049 40140 53022 60041 78022 87800 333 10161 566// 82829 86635=
85586,2018,07,06,12,00,AAXX 06124 85586 14460 83309 10131 20123 30084 40171 51025 60021 70222 888// 333 20113 32/// 55000 566// 70022 86811 88622=
85586,2018,07,06,15,00,AAXX 06154 85586 42260 53411 10149 20135 30098 40189 51019 84800 333 566// 82805 84621==
85586,2018,07,06,18,00,AAXX 06184 85586 14460 43311 10159 20131 30094 40185 58003 69921 70222 84800 333 566// 82817 84621=
85586,2018,07,06,21,00,AAXX 06214 85586 42360 53307 10145 20126 30105 40192 53006 84230 333 567// 81808 83815 82365==
85586,2018,07,07,00,00,AAXX 07004 85586 14115 80000 10121 20119 30117 40205 52012 60001 74121 886// 333 10162 567// 88701=
85586,2018,07,07,12,00,AAXX 07124 85586 14104 81104 10083 20083 30131 40213 51009 60001 74442 886// 333 20064 31/// 55044 562// 70002 88702=
85586,2018,07,07,15,00,AAXX 07154 85586 41225 31103 10113 20113 30135 40222 53004 71042 83600 333 562// 83704==
85586,2018,07,07,18,00,AAXX 07184 85586 14460 11205 10164 20110 30110 40197 56023 60001 70142 81100 333 562// 81810=
85586,2018,07,07,21,00,AAXX 07214 85586 42/60 11607 10169 20082 30097 40183 56013 81030 333 81365==
85586,2018,07,08,00,00,AAXX 08004 85586 14460 21903 10102 20093 30090 40177 58007 60001 70200 81630 333 10179 81710 81365=
85586,2018,07,08,12,00,AAXX 08124 85586 14335 40903 10052 20051 30084 40173 52012 60001 71010 81601 333 20051 31/// 70000 81708 84075=
85586,2018,07,08,15,00,AAXX 08154 85586 41/58 52405 10126 20098 30095 40183 51013 70521 333 85075==
85586,2018,07,08,18,00,AAXX 08184 85586 14960 12408 10138 20091 30085 40172 58010 60001 70200 80001 333 56//6 81075=
85586,2018,07,09,00,00,AAXX 09004 85586 14960 01203 10084 20081 30098 40186 51015 60001 70200 80000 333 10163=
85586,2018,07,09,12,00,AAXX 09124 85586 14907 21203 10043 20043 30086 40175 55004 60001 74600 80001 333 20034 31/// 55061 56//6 70000 82075=
85586,2018,07,09,18,00,AAXX 09184 85586 14250 83306 10113 20099 30074 40166 57013 60001 71040 885// 333 567// 88606=
85586,2018,07,09,21,00,AAXX 09214 85586 41356 83105 10110 20096 30070 40162 57004 71022 885// 333 567// 88608==
85586,2018,07,10,00,00,AAXX 10004 85586 14357 83503 10108 20097 30073 40165 53002 60001 70522 885// 333 10126 567// 88607=
85586,2018,07,10,12,00,AAXX 10124 85586 14457 80604 10103 20092 30079 40171 51010 60001 70522 885// 333 20103 30/// 55010 567// 70000 88612=
85586,2018,07,10,15,00,AAXX 10154 85586 41457 80703 10110 20091 30086 40178 51007 70522 885// 333 567// 88614==
85586,2018,07,10,18,00,AAXX 10184 85586 14457 83303 10118 20092 30091 40183 50005 60001 70522 888// 333 566// 85812 88619=
85586,2018,07,10,21,00,AAXX 10214 85586 42460 82503 10112 20086 30092 40184 53002 888// 333 566// 84815 88620==
85586,2018,07,11,00,00,AAXX 11004 85586 14560 80000 10106 20089 30106 40198 52013 60001 70222 885// 333 10119 566// 88622=
85586,2018,07,11,12,00,AAXX 11124 85586 14560 81503 10104 20068 30118 40206 53008 60001 70222 885// 333 20097 31/// 55000 566// 70000 88626=
85586,2018,07,11,15,00,AAXX 1115/ 85586 41557 8//// 10112 20066 30123 40215 51011 70522 885// 333 566// 88623==
85586,2018,07,11,18,00,AAXX 11184 85586 14960 31404 10134 20066 30106 40194 58022 60001 70210 80001 333 83075=
85586,2018,07,11,21,00,AAXX 11214 85586 42/60 12310 10120 20079 30109 40197 52003 333 81075==
85586,2018,07,12,00,00,AAXX 12004 85586 14956 21301 10071 20064 30122 40211 50013 60001 70500 80001 333 10146 82075=
85586,2018,07,12,12,00,AAXX 12124 85586 14935 61403 10059 20055 30129 40218 53020 60001 71022 81036 333 20044 30/// 55049 70000 81365 85075=
85586,2018,07,12,15,00,AAXX 12154 85586 42/60 31505 10123 20074 30131 40219 50007 333 56//6 83075==
85586,2018,07,12,18,00,AAXX 12184 85586 14960 71909 10170 20077 30107 40193 56025 60001 70222 80002 333 56//6 87075=
85586,2018,07,12,21,00,AAXX 12214 85586 42/60 72505 10154 20112 30101 40188 55007 333 56//6 87073==
85586,2018,07,13,00,00,AAXX 13004 85586 14960 31903 10107 20085 30104 40191 53003 60001 70111 80002 333 10183 56//6 83074=
85586,2018,07,13,12,00,AAXX 13124 85586 14960 31203 10062 20055 30089 40178 55003 60001 70211 80001 333 20062 31/// 55024 56//6 70000 83075=
85586,2018,07,13,15,00,AAXX 13154 85586 42/60 41703 10165 20088 30087 40173 58001 333 56//6 84075==
85586,2018,07,13,18,00,AAXX 13184 85586 14960 42410 10161 20109 30065 40155 58018 60001 70200 80001 333 56//5 84075=
85586,2018,07,13,21,00,AAXX 13214 85586 42/60 42604 10137 20116 30059 40150 55005 333 56//5 84075==
85586,2018,07,14,00,00,AAXX 14004 85586 14150 80105 10118 20115 30073 40165 53013 60001 71022 885// 333 10201 567// 88603=
85586,2018,07,14,12,00,AAXX 14124 85586 14120 81804 10101 20101 30085 40177 53010 60001 71022 885// 333 20082 31/// 55061 565// 70002 88602=
85586,2018,07,14,15,00,AAXX 14154 85586 41250 70000 10121 20121 30096 40188 51011 71022 87500 333 567// 85605 87610==
85586,2018,07,14,18,00,AAXX 14184 85586 14160 72507 10133 20127 30089 40180 58007 60001 70222 87800 333 566// 85803 87606=
85586,2018,07,14,21,00,AAXX 14214 85586 42560 32507 10138 20117 30088 40179 55001 83504 333 566/6 83627 81073==
85586,2018,07,15,00,00,AAXX 15004 85586 14160 63003 10120 20118 30094 40186 53007 69901 70222 86600 333 10148 566// 86703=
85586,2018,07,15,12,00,AAXX 15124 85586 14560 52203 10073 20073 30102 40196 53009 60001 70111 85800 333 20061 31/// 55019 566// 79999 82824 85633=
85586,2018,07,15,15,00,AAXX 15154 85586 42660 60000 10125 20086 30106 40198 50004 86500 333 566// 86637==
85586,2018,07,15,18,00,AAXX 15184 85586 14560 62409 10161 20100 30094 40181 58015 60001 70122 84101 333 565// 84825 83075=
85586,2018,07,15,21,00,AAXX 15214 85586 42660 51607 10162 20083 30089 40175 55005 82201 333 82840 83075==
85586,2018,07,16,00,00,AAXX 16004 85586 14960 32005 10108 20079 30093 40180 53003 60001 70210 80001 333 10176 83075=
85586,2018,07,16,12,00,AAXX 16124 85586 14958 41607 10064 20052 30089 40178 53010 60001 70511 82031 333 20062 30/// 55048 56/4/ 70000 82365 83075=
85586,2018,07,16,15,00,AAXX 16154 85586 42/60 41906 10122 20071 30095 40183 53009 333 84075==
85586,2018,07,16,18,00,AAXX 16184 85586 14960 32512 10141 20083 30083 40170 58012 60001 70200 80001 333 83075=
85586,2018,07,16,21,00,AAXX 16214 85586 42/60 42409 10132 20089 30083 40171 53002 81031 333 82360 83075==
85586,2018,07,17,00,00,AAXX 17004 85586 14957 40000 10087 20075 30091 40179 53005 60001 70510 82031 333 10158 82360 84075=
85586,2018,07,17,12,00,AAXX 17124 85586 14960 70802 10056 20047 30106 40195 53011 60001 70222 87031 333 20056 31/// 55069 70000 83360 87365 81075=
85586,2018,07,17,15,00,AAXX 17154 85586 42/60 72003 10086 20057 30123 40211 52017 86031 333 83360 85365 83075==
85586,2018,07,17,18,00,AAXX 17184 85586 14460 62707 10113 20050 30119 40206 58004 60001 70222 82131 333 82817 83365 81075=
85586,2018,07,17,21,00,AAXX 17214 85586 42/70 22408 10111 20050 30120 40212 51005 82030 333 56/6/ 82366==
85586,2018,07,18,00,00,AAXX 18004 85586 14960 02103 10074 20036 30125 40219 52006 60001 70200 80000 333 10121=
85586,2018,07,18,12,00,AAXX 18124 85586 14960 11003 11010 21012 30142 40234 53013 60001 70200 80001 333 21012 31/// 55042 56//6 70000 81075=
85586,2018,07,18,15,00,AAXX 18154 85586 42/60 12503 10088 20041 30154 40242 51012 333 56//6 81075==
85586,2018,07,18,18,00,AAXX 18184 85586 14560 12609 10109 20032 30142 40230 58011 60001 70200 81500 333 566// 81620=
85586,2018,07,18,21,00,AAXX 18214 85586 42960 02409 10107 20053 30142 40230 53001==
85586,2018,07,19,00,00,AAXX 19004 85586 14960 00000 10047 20035 30153 40243 53011 60001 70200 80000 333 10118=
85586,2018,07,19,12,00,AAXX 19124 85586 14960 10000 10003 21011 30162 40253 52009 60001 70200 80001 333 21009 31/// 55062 56//6 70000 81075=
85586,2018,07,19,15,00,AAXX 19154 85586 42960 02503 10078 20025 30172 40261 52011==
85586,2018,07,19,18,00,AAXX 19184 85586 14960 02509 10106 20030 30159 40252 58008 60001 70000 80000=
85586,2018,07,19,21,00,AAXX 19214 85586 42960 02412 10106 20025 30168 40261 53008==
85586,2018,07,20,00,00,AAXX 20004 85586 14960 00000 10043 20025 30189 40284 51022 60001 70000 80000 333 10115=
85586,2018,07,20,12,00,AAXX 20124 85586 14960 01104 10012 21003 30201 40298 51015 60001 70000 80000 333 20000 31/// 55052 70000=
85586,2018,07,20,15,00,AAXX 20154 85586 42960 00803 10110 20021 30194 40287 58007==
85586,2018,07,20,18,00,AAXX 20184 85586 14960 01305 10156 21004 30158 40249 58034 60001 70000 80000=
85586,2018,07,20,21,00,AAXX 20214 85586 42960 01506 10163 21017 30131 40222 58029==
85586,2018,07,21,00,00,AAXX 21004 85586 14960 41504 10116 21018 30117 40209 58015 60001 70100 80004 333 10171 56//6 84074=
85586,2018,07,21,12,00,AAXX 21124 85586 14960 51604 10037 20002 30064 40158 53014 60001 70100 80004 333 20017 31/// 55069 56//6 70000 85073=
85586,2018,07,21,15,00,AAXX 21154 85586 42/60 62604 10102 20028 30075 40167 53011 333 56//6 86074==
85586,2018,07,21,18,00,AAXX 21184 85586 14960 72806 10126 20022 30072 40163 58003 60001 70222 80004 333 56//6 87074=
85586,2018,07,21,21,00,AAXX 21214 85586 42/60 72307 10114 20068 30084 40172 53008 333 87070==
85586,2018,07,22,00,00,AAXX 22004 85586 14956 71301 10086 20061 30108 40196 53023 60001 70522 83032 333 10131 83360 85270=
85586,2018,07,22,12,00,AAXX 22124 85586 14960 20000 10059 20043 30153 40246 60001 70100 80001 333 20051 30/// 70000 82075=
85586,2018,07,22,15,00,AAXX 22154 85586 42560 21508 10121 20054 30150 40241 57003 81101 333 81820 81075==
85586,2018,07,22,18,00,AAXX 22184 85586 14960 11514 10155 20001 30124 40214 60001 70100 80001 333 81075=
85586,2018,07,22,21,00,AAXX 22214 85586 42960 01714 10135 21017 30117 40207==
85586,2018,07,23,00,00,AAXX 23004 85586 14960 01603 10087 20000 30126 40218 60001 70000 80000 333 10156=
85586,2018,07,23,12,00,AAXX 23124 85586 14960 01403 10031 20010 30095 40188 60001 70000 80000 333 20023 30/// 55065 70000=
85586,2018,07,23,15,00,AAXX 23154 85586 42960 02903 10117 20048 30074 40165==
85586,2018,07,23,18,00,AAXX 23184 85586 14960 02510 10120 20050 30084 40172 52010 60001 70200 80000=
85586,2018,07,23,21,00,AAXX 23214 85586 42960 02410 10110 20058 30075 40163 55009==
85586,2018,07,24,00,00,AAXX 24004 85586 14960 01003 10040 20031 30085 40174 52009 60001 70200 80000 333 10137=
85586,2018,07,24,12,00,AAXX 24124 85586 14960 00000 11003 21004 30119 40210 53015 60001 70200 80000 333 21009 34/// 55070 70000=
85586,2018,07,24,15,00,AAXX 24154 85586 42460 23505 10102 20060 30138 40226 51019 82500 333 566// 82616==
85586,2018,07,24,18,00,AAXX 24184 85586 14560 22908 10114 20060 30125 40217 58006 60001 70100 82500 333 566// 82620=
85586,2018,07,24,21,00,AAXX 24214 85586 42460 12905 10111 20063 30131 40223 53005 81100 333 566// 81818==
85586,2018,07,25,00,00,AAXX 25004 85586 14960 01102 10046 20037 30136 40231 51007 60001 70000 80000 333 10120=
85586,2018,07,25,12,00,AAXX 25124 85586 14103 8//// 10025 20025 30136 40231 53002 69921 72822 886// 333 20009 31/// 55066 566// 70004 88701=
85586,2018,07,25,15,00,AAXX 25154 85586 41/50 11003 10068 20068 30139 40228 55004 71022 333 56//6 81073==
85586,2018,07,25,18,00,AAXX 25184 85586 14958 52608 10109 20081 30117 40207 56021 60001 70522 80001 333 85075=
85586,2018,07,25,21,00,AAXX 25214 85586 41/56 62704 10108 20084 30100 40187 56015 70522 333 86075==
85586,2018,07,26,00,00,AAXX 26004 85586 14230 60000 10072 20071 30108 40197 53008 60001 71022 85601 333 10123 567// 85706 82075=
85586,2018,07,26,12,00,AAXX 26124 85586 14430 80701 10084 20070 30086 40174 55002 60001 71022 886// 333 20065 30/// 55047 561// 70000 88610=
85586,2018,07,26,15,00,AAXX 26154 85586 41325 81502 10086 20069 30093 40180 58008 70522 886// 333 563// 88708==
85586,2018,07,26,18,00,AAXX 26184 85586 14445 81904 10092 20070 30068 40161 56019 60001 70544 885// 333 565// 88610=
85586,2018,07,26,21,00,AAXX 26214 85586 41450 80000 10092 20068 30067 40160 55003 70522 885// 333 88610==
85586,2018,07,27,00,00,AAXX 27004 85586 14450 83605 10091 20066 30086 40179 53020 60001 70522 885// 333 10095 567// 88619=
85586,2018,07,27,12,00,AAXX 27124 85586 14557 80404 10092 20060 30118 40211 53035 60001 70522 885// 333 20084 30/// 55000 567// 79999 85631 88646=
85586,2018,07,27,15,00,AAXX 27154 85586 42660 80506 10113 20063 30147 40240 51030 885// 333 567// 82845 88650==
85586,2018,07,27,18,00,AAXX 27184 85586 14660 83610 10111 20067 30155 40248 51010 69921 72122 885// 333 567// 88637=
85586,2018,07,27,21,00,AAXX 27214 85586 42660 80505 10106 20076 30170 40258 52009 885// 333 88640==
85586,2018,07,28,00,00,AAXX 28004 85586 14560 81003 10089 20077 30183 40272 53013 69981 70262 885// 333 10125 566// 83624 85629 85641=
85586,2018,07,28,12,00,AAXX 28124 85586 14920 01204 10033 20033 30179 40270 55002 60001 71022 80000 333 20031 31/// 55000 70010=
85586,2018,07,28,15,00,AAXX 28154 85586 42960 01203 10100 20078 30178 40266 54000==
85586,2018,07,28,18,00,AAXX 28184 85586 14960 02409 10132 20085 30161 40253 58012 69901 70000 80000=
85586,2018,07,28,21,00,AAXX 28214 85586 42960 02208 10127 20080 30146 40234 56017==
85586,2018,07,29,00,00,AAXX 29004 85586 14960 40000 10074 20062 30140 40234 55004 60001 70100 80004 333 10146 56//6 84073=
85586,2018,07,29,12,00,AAXX 29124 85586 14960 50000 10019 20019 30119 40214 53006 60001 70100 80004 333 20015 31/// 55066 56//6 79999 85073=
85586,2018,07,29,15,00,AAXX 29154 85586 42/60 30000 10116 20075 30133 40225 52014 333 56//6 83074==
85586,2018,07,29,18,00,AAXX 29184 85586 14460 32506 10126 20085 30120 40212 58012 60001 70100 83100 333 566// 83818=
85586,2018,07,29,21,00,AAXX 29214 85586 42560 12308 10117 20084 30124 40211 55002 81100 333 565// 81820==
85586,2018,07,30,00,00,AAXX 30004 85586 14957 00000 10067 20061 30134 40223 53009 60001 70500 80000 333 10134=
85586,2018,07,30,12,00,AAXX 30124 85586 14958 01305 10036 20032 30139 40229 53008 60001 70500 80000 333 20014 34/// 55078 70000=
85586,2018,07,30,15,00,AAXX 30154 85586 42960 01606 10121 20058 30143 40230 50004==
85586,2018,07,30,18,00,AAXX 30184 85586 14960 01709 10162 20053 30121 40208 57020 60001 70000 80000=
85586,2018,07,30,21,00,AAXX 30214 85586 42960 02311 10133 20096 30113 40201 55009==
85586,2018,07,31,00,00,AAXX 31004 85586 14958 02002 10071 20062 30118 40207 52004 60001 70500 80000 333 10180=
85586,2018,07,31,12,00,AAXX 31124 85586 14950 11203 11001 21002 30101 40192 53007 60001 71022 80002 333 21009 31/// 55074 56//6 70000 81075=
85586,2018,07,31,15,00,AAXX 31154 85586 42960 02203 10093 20055 30101 40189 54000==
85586,2018,07,31,18,00,AAXX 31184 85586 14960 02606 10113 20065 30088 40176 56011 60001 70200 80000=
85586,2018,07,31,21,00,AAXX 31214 85586 42960 02505 10121 20070 30090 40178 54000==
85586,2018,08,01,00,00,AAXX 01004 85586 14960 00903 10062 20056 30097 40186 52006 60001 70200 80000 333 10124=
85586,2018,08,01,12,00,AAXX 01124 85586 14920 30000 10008 20007 30110 40201 53012 60001 71000 80001 333 21002 31/// 55073 56//6 70000 83075=
85586,2018,08,01,15,00,AAXX 01154 85586 41/57 60803 10097 20066 30117 40205 52006 70522 333 56//6 86074==
85586,2018,08,01,18,00,AAXX 01184 85586 14960 62707 10106 20064 30110 40197 58007 60001 70222 80002 333 56//6 86073=
85586,2018,08,01,21,00,AAXX 01214 85586 42/60 62406 10102 20048 30106 40194 55005 333 56//6 86074==
85586,2018,08,02,00,00,AAXX 02004 85586 14960 21003 10043 20034 30108 40198 50002 60001 70111 80001 333 10118 56//6 82075=
85586,2018,08,02,12,00,AAXX 02124 85586 14457 81203 10067 20061 30116 40205 52013 60001 71022 885// 333 20011 31/// 55046 70000 88615=
85586,2018,08,02,15,00,AAXX 02154 85586 41450 80000 10082 20067 30130 40218 52014 71022 885// 333 88619==
85586,2018,08,02,18,00,AAXX 02184 85586 14660 83406 10109 20044 30132 40219 51003 60001 70222 885// 333 88633=
85586,2018,08,02,21,00,AAXX 02214 85586 42660 83305 10106 20054 30139 40227 53006 885// 333 88635==
85586,2018,08,03,00,00,AAXX 03004 85586 14660 80605 10094 20046 30139 40227 50003 60001 70222 8353/ 333 10113 5666/ 83637 88367=
85586,2018,08,03,12,00,AAXX 03124 85586 14535 51202 10041 20032 30169 40259 53006 60001 71011 84501 333 20039 31/// 55000 70000 84626 82075=
85586,2018,08,03,15,00,AAXX 03154 85586 41/56 11405 10126 20049 30171 40258 50002 70510 333 81075==
85586,2018,08,03,18,00,AAXX 03184 85586 14960 02007 10165 20070 30141 40228 58027 60001 70000 80000=
85586,2018,08,03,21,00,AAXX 03214 85586 42960 02309 10135 20092 30133 40221 55010==
85586,2018,08,04,00,00,AAXX 04004 85586 14958 02503 10073 20066 30135 40224 52001 60001 70500 80000 333 10168=
85586,2018,08,04,12,00,AAXX 04124 85586 14950 31402 10040 20028 30121 40211 53008 60001 70510 80001 333 20031 30/// 55074 70000 83072=
85586,2018,08,04,15,00,AAXX 04154 85586 42/60 51906 10136 20076 30109 40197 57009 81011 333 81367 85074==
85586,2018,08,04,18,00,AAXX 04184 85586 14960 72411 10133 20078 30096 40183 57013 60001 70321 87031 333 87368 81072=
85586,2018,08,04,21,00,AAXX 04214 85586 41/58 72205 10125 20088 30103 40191 53007 70522 85031 333 85367 84070==
85586,2018,08,05,00,00,AAXX 05004 85586 14956 60000 10105 20079 30114 40201 50009 60001 70522 85031 333 10160 85366 83070=
85586,2018,08,05,12,00,AAXX 05124 85586 14960 72802 10065 20050 30118 40207 53003 60001 70222 85032 333 20050 30/// 55087 70000 85368 84273=
85586,2018,08,05,15,00,AAXX 05154 85586 42/60 82305 10112 20073 30131 40218 53011 85032 333 85368 84270==
85586,2018,08,05,18,00,AAXX 05184 85586 14960 83402 10149 20080 30116 40203 58013 60001 70222 85031 333 85367 85270=
85586,2018,08,05,21,00,AAXX 05214 85586 42/60 72105 10147 20089 30116 40203 50002 83032 333 83367 84075==
85586,2018,08,06,00,00,AAXX 06004 85586 14956 61302 10091 20083 30115 40203 55002 60001 70522 80002 333 10159 86073=
85586,2018,08,06,12,00,AAXX 06124 85586 14104 80000 10089 20089 30090 40178 53005 60001 74644 886// 333 20080 31/// 55010 70000 88702=
85586,2018,08,06,15,00,AAXX 06154 85586 41225 80604 10103 20103 30086 40173 54000 71022 886// 333 88704==
85586,2018,08,06,18,00,AAXX 06184 85586 14350 82704 10121 20105 30058 40145 58025 60001 70522 8263/ 333 567// 82707 88367=
85586,2018,08,06,21,00,AAXX 06214 85586 41157 83403 10107 20104 30062 40150 53001 71022 886// 333 88702==
85586,2018,08,07,00,00,AAXX 07004 85586 14560 80903 10108 20102 30078 40166 51016 60001 70222 8553/ 333 10131 567// 85626 88366=
85586,2018,08,07,12,00,AAXX 07124 85586 14557 40000 10062 20061 30157 40246 53040 60041 71066 84500 333 20061 32/// 55000 566// 70136 84629=
85586,2018,08,07,15,00,AAXX 07154 85586 42460 52406 10128 20104 30184 40271 51027 85500 333 566// 83614 85623==
85586,2018,08,07,18,00,AAXX 07184 85586 14460 32507 10141 20102 30173 40261 58008 60001 70211 83500 333 566// 81613 83620=
85586,2018,08,07,21,00,AAXX 07214 85586 42960 02408 10144 20105 30170 40258 57005==
85586,2018,08,08,00,00,AAXX 08004 85586 14960 01706 10122 20065 30178 40258 58002 60001 70200 80000 333 10159=
85586,2018,08,08,12,00,AAXX 08124 85586 14960 01407 10068 20038 30110 40199 58028 60001 70200 80000 333 20058 31/// 55075 70000=
85586,2018,08,08,15,00,AAXX 08154 85586 42/60 51806 10141 20045 30090 40177 57022 333 56//6 85075==
85586,2018,08,08,18,00,AAXX 08184 85586 14960 41706 10211 20048 30052 40137 58035 60001 70222 80002 333 56//6 84075=
85586,2018,08,08,21,00,AAXX 08214 85586 42960 02204 10204 20061 30039 40124 56012==
85586,2018,08,09,00,00,AAXX 09004 85586 14960 20000 10123 20066 30047 40134 53009 60001 70200 80001 333 10221 82075=
85586,2018,08,09,12,00,AAXX 09124 85586 14960 61004 10065 20051 30063 40151 52007 60001 70222 80001 333 20048 30/// 55084 70000 86075=
85586,2018,08,09,15,00,AAXX 0915/ 85586 42/60 6//// 10151 20084 30069 40156 50006 333 86075==
85586,2018,08,09,18,00,AAXX 09184 85586 14960 73104 10155 20099 30063 40149 58004 60001 70222 80001 333 87075=
85586,2018,08,09,21,00,AAXX 09214 85586 42/60 70204 10133 20107 30067 40154 50003 333 87075==
85586,2018,08,10,00,00,AAXX 10004 85586 14256 70103 10103 20098 30091 40178 53026 60001 70522 84601 333 10175 560// 84704 86075=
85586,2018,08,10,12,00,AAXX 10124 85586 14312 71201 10044 20044 30080 40169 52004 60001 74122 84602 333 20043 30/// 55039 563// 70000 84708 83075=
85586,2018,08,10,15,00,AAXX 10154 85586 41350 60902 10099 20099 30086 40173 52009 70542 82601 333 562// 82708 84075==
85586,2018,08,10,18,00,AAXX 10184 85586 14960 72605 10153 20107 30056 40142 58029 60001 70242 80001 333 87075=
85586,2018,08,10,21,00,AAXX 10214 85586 42/60 72409 10135 20096 30052 40139 55005 333 87075==
85586,2018,08,11,00,00,AAXX 11004 85586 14958 70406 10102 20088 30066 40153 51013 60001 70522 80001 333 10169 87075=
85586,2018,08,11,12,00,AAXX 11124 85586 14105 80803 10082 20082 30089 40177 53016 69901 74442 887// 333 20046 30/// 55050 562// 79999 88702=
85586,2018,08,11,15,00,AAXX 11154 85586 41107 82308 10090 20089 30105 40193 53016 74652 887// 333 565// 88702==
85586,2018,08,11,18,00,AAXX 11184 85586 14250 82408 10113 20096 30107 40194 51002 69921 70554 886// 333 565// 88705=
85586,2018,08,11,21,00,AAXX 11214 85586 41150 83303 10105 20099 30106 40193 50001 70522 886// 333 566// 88703==
85586,2018,08,12,00,00,AAXX 12004 85586 14230 80803 10098 20094 30101 40189 58005 60001 71022 84601 333 10127 562// 84804 86075=
85586,2018,08,12,12,00,AAXX 12124 85586 14102 81203 10067 20067 30112 40201 53015 60001 74644 886// 333 20064 31/// 55021 70002 88702=
85586,2018,08,12,15,00,AAXX 12154 85586 41103 82403 10084 20084 30124 40212 51013 74644 886// 333 88703==
85586,2018,08,12,18,00,AAXX 12184 85586 14240 82806 10105 20105 30113 40201 58011 60001 71044 886// 333 88705=
85586,2018,08,12,21,00,AAXX 12214 85586 41256 82805 10101 20092 30113 40201 55001 71022 886// 333 88704==
85586,2018,08,13,00,00,AAXX 13004 85586 14360 80000 10110 20101 30133 40221 52019 60001 70222 886// 333 10122 88707=
85586,2018,08,13,12,00,AAXX 13124 85586 14960 30804 10077 20071 30178 40267 51023 60001 70211 83030 333 20061 31/// 55012 56/6/ 70000 83360=
85586,2018,08,13,15,00,AAXX 13154 85586 42560 12403 10139 20073 30206 40293 51028 81500 333 566// 81627==
85586,2018,08,13,18,00,AAXX 13184 85586 14560 12410 10151 20097 30190 40278 58014 60001 70200 81500 333 566// 81630=
85586,2018,08,13,21,00,AAXX 13214 85586 42/60 12309 10145 20102 30173 40261 56017 333 56//6 81075==
85586,2018,08,14,00,00,AAXX 14004 85586 14960 01406 10126 20062 30170 40257 58004 60001 70200 80000 333 10180=
85586,2018,08,14,12,00,AAXX 14124 85586 14960 31306 10081 20038 30116 40204 56011 60001 70200 80001 333 20065 31/// 55070 56//6 70000 83075=
85586,2018,08,14,15,00,AAXX 14154 85586 42/60 31506 10145 20048 30120 40207 50005 333 56//6 83075==
85586,2018,08,14,18,00,AAXX 14184 85586 14960 21707 10195 20001 30089 40173 58031 60001 70200 80001 333 56//6 82075=
85586,2018,08,14,21,00,AAXX 14214 85586 42/60 12007 10198 20014 30074 40159 56015 333 56//6 81075==
85586,2018,08,15,00,00,AAXX 15004 85586 14960 12405 10106 20079 30082 40169 53007 60001 70200 80001 333 10208 56//6 81075=
85586,2018,08,15,12,00,AAXX 15124 85586 14960 20000 10048 20030 30095 40184 51007 60001 70110 80001 333 20047 30/// 55090 70000 82075=
85586,2018,08,15,15,00,AAXX 15154 85586 42/60 11605 10179 20062 30090 40176 58003 333 81075==
85586,2018,08,15,18,00,AAXX 15184 85586 14960 02410 10153 20095 30079 40166 56011 60001 70000 80000=
85586,2018,08,15,21,00,AAXX 15214 85586 42/60 13404 10143 20092 30077 40164 55003 333 81075==
85586,2018,08,16,00,00,AAXX 16004 85586 14960 10603 10099 20082 30088 40175 52010 60001 70200 80001 333 10200 81075=
85586,2018,08,16,12,00,AAXX 16124 85586 14104 80903 10078 20078 30118 40206 53016 60001 74542 886// 333 20045 31/// 55089 562// 70000 88702=
85586,2018,08,16,15,00,AAXX 1615/ 85586 41235 7//// 10096 20096 30128 40216 51012 71042 87600 333 562// 87705==
85586,2018,08,16,18,00,AAXX 16184 85586 14960 22506 10124 20098 30111 40199 55015 60001 70142 80001 333 82075=
85586,2018,08,16,21,00,AAXX 16214 85586 42/60 52507 10125 20097 30108 40196 55004 333 85075==
85586,2018,08,17,00,00,AAXX 17004 85586 14356 60405 10097 20091 30118 40206 51009 69991 70522 83601 333 10137 561// 83708 85075=
85586,2018,08,17,12,00,AAXX 17124 85586 14103 81402 10071 20071 30129 40218 51007 60001 74442 886// 333 20069 31/// 55058 563// 70000 88701=
85586,2018,08,17,15,00,AAXX 17154 85586 41250 70901 10101 20101 30138 40226 51009 70542 84601 333 562// 84706 87075==
85586,2018,08,17,18,00,AAXX 17184 85586 14960 62605 10130 20097 30133 40221 58003 60001 70222 80001 333 86075=
85586,2018,08,17,21,00,AAXX 17214 85586 42260 82603 10123 20109 30139 40227 52004 85631 333 566// 85706 85368 83073==
85586,2018,08,18,00,00,AAXX 18004 85586 14356 70603 10112 20106 30152 40240 51013 60001 70522 82702 333 10139 561// 82708 87070=
85586,2018,08,18,12,00,AAXX 18124 85586 14660 51904 10105 20072 30175 40263 53013 60001 70222 85500 333 20103 30/// 55020 566// 70000 85640=
85586,2018,08,18,15,00,AAXX 18154 85586 42660 21710 10146 20072 30179 40267 50004 81501 333 566/6 81646 82075==
85586,2018,08,18,18,00,AAXX 18184 85586 14560 21815 10164 20036 30165 40252 58013 60001 70200 81501 333 566/6 81626 81075=
85586,2018,08,18,21,00,AAXX 18214 85586 42960 01813 10161 20007 30162 40249 55004==
85586,2018,08,19,00,00,AAXX 19004 85586 14960 01607 10116 21008 30175 40263 52013 60001 70200 80000 333 10177=
85586,2018,08,19,12,00,AAXX 19124 85586 14960 01605 10038 20012 30132 40224 58009 60001 70200 80000 333 20032 30/// 55075 70000=
85586,2018,08,19,15,00,AAXX 19154 85586 42960 01603 10121 20046 30115 40203 58019==
85586,2018,08,19,18,00,AAXX 19184 85586 14960 02514 10124 20065 30084 40172 58030 60001 70200 80000=
85586,2018,08,19,21,00,AAXX 19214 85586 42960 02411 10125 20076 30072 40159 56013==
85586,2018,08,20,00,00,AAXX 20004 85586 14960 00703 10082 20063 30071 40159 55002 60001 70200 80000 333 10156=
85586,2018,08,20,12,00,AAXX 20124 85586 14360 11203 10036 20033 30092 40182 52016 60001 70200 81600 333 20014 30/// 55086 566// 70000 81707=
85586,2018,08,20,15,00,AAXX 20154 85586 42360 32406 10112 20088 30109 40196 51017 83600 333 566// 83707==
85586,2018,08,20,18,00,AAXX 20184 85586 14360 53207 10123 20092 30106 40194 54000 60001 70311 85600 333 566// 85709=
85586,2018,08,20,21,00,AAXX 20214 85586 42460 43106 10118 20090 30109 40197 53002 84500 333 566// 84610==
85586,2018,08,21,00,00,AAXX 21004 85586 14360 50000 10093 20084 30116 40204 53006 60001 70222 85500 333 10131 566// 85609=
85586,2018,08,21,12,00,AAXX 21124 85586 14108 81202 10065 20065 30111 40200 52011 60001 74622 886// 333 20062 30/// 55046 562// 70000 88701=
85586,2018,08,21,15,00,AAXX 21154 85586 41114 80902 10082 20082 30123 40211 51014 71042 886// 333 560// 88703==
85586,2018,08,21,18,00,AAXX 21184 85586 14350 82805 10102 20083 30119 40207 56005 60001 70522 886// 333 566// 88709=
85586,2018,08,21,21,00,AAXX 21214 85586 41356 82905 10105 20081 30105 40192 57014 70522 886// 333 566// 84709 88612==
85586,2018,08,22,00,00,AAXX 22004 85586 14450 82203 10097 20071 30106 40194 53001 60001 70522 886// 333 10110 565// 88714=
85586,2018,08,22,12,00,AAXX 22124 85586 14440 80503 10085 20065 30106 40194 53009 60001 70522 885// 333 20079 30/// 55000 561// 70000 88613=
85586,2018,08,22,15,00,AAXX 22154 85586 41440 80103 10094 20063 30118 40206 53013 70522 885// 333 560// 88714==
85586,2018,08,22,18,00,AAXX 22184 85586 14450 83107 10101 20066 30108 40196 58015 60001 70522 885// 333 567// 88615=
85586,2018,08,22,21,00,AAXX 22214 85586 42460 83009 10101 20070 30096 40189 55002 885// 333 567// 88615==
85586,2018,08,23,00,00,AAXX 23004 85586 14560 70105 10100 20064 30110 40203 51013 60001 70222 87500 333 10105 567// 87626=
85586,2018,08,23,12,00,AAXX 23124 85586 14340 6//// 10083 20083 30124 40217 51013 69981 71022 86501 333 20082 31/// 55000 567/7 70044 82608 86615 81075=
85586,2018,08,23,15,00,AAXX 23154 85586 41330 73209 10112 20103 30139 40232 51016 78022 87500 333 567// 85609 87618==
85586,2018,08,23,18,00,AAXX 23184 85586 14340 82315 10088 20074 30152 40245 52011 60021 78022 885// 333 565// 88609=
85586,2018,08,23,21,00,AAXX 23214 85586 41460 60803 10091 20064 30171 40265 51020 78066 86500 333 561// 81815 86640==
85586,2018,08,24,00,00,AAXX 24004 85586 14560 61303 10076 20061 30198 40291 53028 60031 70322 86500 333 10134 563// 84630 86642=
85586,2018,08,24,12,00,AAXX 24124 85586 14980 01405 10029 20020 30205 40301 54000 60001 70200 80000 333 20018 31/// 55027 70046=
85586,2018,08,24,15,00,AAXX 24154 85586 42960 01510 10099 20037 30200 40289 57009==
85586,2018,08,24,18,00,AAXX 24184 85586 14960 01610 10155 20032 30173 40260 58024 60001 70200 80000=
85586,2018,08,24,21,00,AAXX 24214 85586 42960 01610 10160 21006 30162 40249 56013==
85586,2018,08,25,00,00,AAXX 25004 85586 14960 01605 10107 20031 30171 40259 51007 60001 70200 80000 333 10164=
85586,2018,08,25,12,00,AAXX 25124 85586 14960 01607 10069 20033 30145 40234 52001 60001 70200 80000 333 20060 31/// 55091 70000=
85586,2018,08,25,15,00,AAXX 25154 85586 42960 01803 10149 20032 30132 40219 58011==
85586,2018,08,25,18,00,AAXX 25184 85586 14960 01613 10204 20033 30087 40176 58042 60001 70000 80000=
85586,2018,08,25,21,00,AAXX 25214 85586 42960 01810 10208 20061 30064 40153 56023==
85586,2018,08,26,00,00,AAXX 26004 85586 14960 00000 10122 20091 30069 40161 53005 60001 70000 80000 333 10213=
85586,2018,08,26,12,00,AAXX 26124 85586 14960 50000 10081 20057 30058 40151 53003 60001 70100 80004 333 20066 31/// 55096 56//6 70000 85074=
85586,2018,08,26,15,00,AAXX 26154 85586 42/60 33304 10166 20091 30064 40154 50006 333 56//6 83074==
85586,2018,08,26,18,00,AAXX 26184 85586 14250 43108 10135 20107 30061 40152 58003 60001 70500 84500 333 567// 84605=
85586,2018,08,26,21,00,AAXX 26214 85586 41357 33008 10129 20106 30057 40148 55004 70500 81501 333 567/7 81807 82075==
85586,2018,08,27,00,00,AAXX 27004 85586 14357 52503 10106 20098 30067 40159 53010 60001 70500 85501 333 10170 565/5 83607 85617 81075=
85586,2018,08,27,12,00,AAXX 27124 85586 14440 80403 10106 20100 30086 40178 53019 60001 71022 885// 333 20102 30/// 55089 567// 70000 88610=
85586,2018,08,27,15,00,AAXX 2715/ 85586 41356 8//// 10124 20101 30105 40197 51019 70522 885// 333 567// 83608 88612==
85586,2018,08,27,18,00,AAXX 27184 85586 14457 82606 10128 20100 30107 40199 51003 60001 70522 885// 333 567// 88618=
85586,2018,08,27,21,00,AAXX 27214 85586 41558 82504 10124 20101 30104 40192 56006 70522 885// 333 565// 88620==
85586,2018,08,28,00,00,AAXX 28004 85586 14558 82203 10113 20102 30102 40190 55004 60001 70522 885// 333 10133 565// 88621=
85586,2018,08,28,12,00,AAXX 28124 85586 14458 80000 10110 20088 30097 40184 50004 60001 70522 885// 333 20096 30/// 55000 563// 70000 88615=
85586,2018,08,28,15,00,AAXX 28154 85586 41458 51904 10137 20086 30103 40190 50005 70522 85500 333 564// 85616==
85586,2018,08,28,18,00,AAXX 28184 85586 14360 62414 10128 20095 30098 40186 58005 60001 70222 86500 333 566// 83708 84622=
85586,2018,08,28,21,00,AAXX 28214 85586 42560 22409 10125 20094 30092 40180 55005 82500 333 566// 82620==
85586,2018,08,29,00,00,AAXX 29004 85586 14960 00703 10091 20083 30098 40186 52005 60001 70200 80000 333 10147=
85586,2018,08,29,12,00,AAXX 29124 85586 14110 80000 10074 20074 30097 40185 53010 60001 71022 886// 333 20034 31/// 55066 70000 88702=
85586,2018,08,29,15,00,AAXX 29154 85586 41240 81504 10101 20096 30099 40186 50002 71022 886// 333 566// 82705 87708==
85586,2018,08,29,18,00,AAXX 29184 85586 14958 62508 10123 20095 30079 40171 58014 69921 70522 85031 333 56/66 85361 81072=
85586,2018,08,29,21,00,AAXX 29214 85586 42/60 62505 10122 20106 30072 40164 55008 86034 333 56/66 85360 85073==
85586,2018,08,30,00,00,AAXX 30004 85586 14960 40000 10112 20103 30075 40167 53003 60001 70222 84030 333 10161 56/6/ 84363=
85586,2018,08,30,12,00,AAXX 30124 85586 14956 6//// 10093 20089 30073 40166 51004 60001 71022 86070 333 20089 31/// 55026 56/6/ 70002 82362 86364=
85586,2018,08,30,15,00,AAXX 30154 85586 41240 73205 10124 20110 30092 40184 50020 71022 87600 333 566// 87706==
85586,2018,08,30,18,00,AAXX 30184 85586 14357 62808 10134 20110 30083 40174 56009 60001 70522 86531 333 5677/ 84609 85365 81075=
85586,2018,08,30,21,00,AAXX 30214 85586 41257 73008 10126 20112 30092 40184 53008 70522 87501 333 567/7 87605 81075==
85586,2018,08,31,12,00,AAXX 31124 85586 14940 80000 10103 20098 30078 40170 55006 60001 71022 8803/ 333 20083 30/// 55010 70000 88365=
85586,2018,08,31,15,00,AAXX 31154 85586 41557 80503 10131 20107 30100 40192 51020 70522 87550 333 5666/ 83625 85634 87463==
85586,2018,08,31,18,00,AAXX 31184 85586 14460 82705 10140 20097 30098 40185 58004 60001 70222 8683/ 333 562// 82815 85640 88363=
85586,2018,08,31,21,00,AAXX 31214 85586 42560 72407 10127 20106 30103 40191 53004 85830 333 566// 82827 83650 85363==
85586,2018,09,01,00,00,AAXX 01004 85586 14457 50000 10099 20094 30116 40204 53013 60001 70511 83530 333 10143 567// 83816 83362=
85586,2018,09,01,12,00,AAXX 01124 85586 14104 71004 10068 20068 30146 40235 53020 69901 74452 87600 333 20053 31/// 55000 562// 79999 87701=
85586,2018,09,01,15,00,AAXX 01154 85586 41257 41302 10118 20118 30155 40242 52009 70542 84700 333 562// 84706==
85586,2018,09,01,18,00,AAXX 01184 85586 14460 12413 10144 20105 30145 40233 58008 60001 70121 81100 333 565// 81815=
85586,2018,09,01,21,00,AAXX 01214 85586 42960 02508 10138 20108 30136 40224 55010==
85586,2018,09,02,00,00,AAXX 02004 85586 14960 00704 10099 20094 30150 40238 53013 60001 70200 80000 333 10155=
85586,2018,09,02,12,00,AAXX 02124 85586 14960 00000 10048 20048 30150 40240 53009 60001 70200 80000 333 20031 31/// 55073 70000=
85586,2018,09,02,15,00,AAXX 02154 85586 42960 03403 10164 20105 30149 40236 54000==
85586,2018,09,02,18,00,AAXX 02184 85586 14960 12414 10153 20107 30124 40215 58021 69921 70100 80001 333 56//6 81075=
85586,2018,09,02,21,00,AAXX 02214 85586 42960 02309 10159 20107 30114 40205 56010==
85586,2018,09,03,00,00,AAXX 03004 85586 14960 0//// 10113 20098 30119 40211 53005 60001 70000 80000 333 10181=
85586,2018,09,03,12,00,AAXX 03124 85586 14960 01403 10106 20064 30092 40184 55003 60001 70000 80000 333 20073 31/// 55105 70002=
85586,2018,09,03,15,00,AAXX 0315/ 85586 42960 0//// 10193 20072 30079 40168 58013==
85586,2018,09,03,18,00,AAXX 03184 85586 14960 01709 10266 20063 30045 40132 58033 60001 70000 80000=
85586,2018,09,03,21,00,AAXX 03214 85586 42960 01609 10272 20068 30028 40115 56018==
85586,2018,09,04,00,00,AAXX 04004 85586 14960 00000 10155 20099 30033 40123 53005 60001 70000 80000 333 10280=
85586,2018,09,04,12,00,AAXX 04124 85586 14960 0//// 10101 20084 30015 40107 52003 60001 70000 80000 333 20078 30/// 55105 70000=
85586,2018,09,04,15,00,AAXX 04154 85586 42/60 11606 10219 20099 30013 40101 58002 333 56//5 81075==
85586,2018,09,04,18,00,AAXX 04184 85586 14960 13110 10154 20116 30026 40116 53012 60001 70200 80001 333 56//7 81075=
85586,2018,09,04,21,00,AAXX 04214 85586 42360 42711 10140 20115 30049 40136 53018 84100 333 566// 82808 83819==
85586,2018,09,05,00,00,AAXX 05004 85586 14958 03208 10124 20111 30067 40154 53019 60001 70510 80000 333 10233=
85586,2018,09,05,12,00,AAXX 05124 85586 14460 81502 10103 20098 30115 40203 53022 60001 70222 885// 333 20065 30/// 55101 563// 70000 85615 88629=
85586,2018,09,05,15,00,AAXX 05154 85586 41558 82603 10128 20100 30122 40210 51010 70522 888// 333 567// 81820 88630==
85586,2018,09,05,18,00,AAXX 05184 85586 14560 52307 10139 20100 30117 40204 58005 60001 70222 85800 333 565// 81820 85632=
85586,2018,09,05,21,00,AAXX 05214 85586 42/60 22411 10127 20088 30109 40197 56009 333 82075==
85586,2018,09,06,00,00,AAXX 06004 85586 14958 01905 10105 20077 30123 40211 53013 60001 70500 80000 333 10149=
85586,2018,09,06,12,00,AAXX 06124 85586 14958 01704 10090 20079 30125 40213 51005 60001 70500 80000 333 20045 30/// 55047 70000=
85586,2018,09,06,15,00,AAXX 06154 85586 42460 11610 10162 20097 30118 40205 58006 81100 333 563// 81815==
85586,2018,09,06,18,00,AAXX 06184 85586 14960 02411 10171 20113 30098 40184 58021 60001 70000 80000=
85586,2018,09,06,21,00,AAXX 06214 85586 42960 02311 10157 20099 30082 40173 56011==
85586,2018,09,07,00,00,AAXX 07004 85586 14960 00000 10111 20089 30089 40181 53006 60001 70000 80000 333 10197=
85586,2018,09,07,12,00,AAXX 07124 85586 14960 00000 10063 20054 30107 40201 53024 60001 70000 80000 333 20040 31/// 55077 70000=
85586,2018,09,07,15,00,AAXX 07154 85586 42960 02607 10131 20074 30127 40219 52020==
85586,2018,09,07,18,00,AAXX 07184 85586 14960 02413 10138 20087 30123 40215 58004 60001 70000 80000=
85586,2018,09,07,21,00,AAXX 07214 85586 42960 02409 10138 20085 30118 40210 55005==
85586,2018,09,08,00,00,AAXX 08004 85586 14960 00903 10092 20073 30122 40215 53003 60001 70000 80000 333 10148=
85586,2018,09,08,12,00,AAXX 08124 85586 14960 10000 10047 20041 30106 40200 54002 60001 70100 80001 333 20016 31/// 55091 56//6 70000 81074=
85586,2018,09,08,15,00,AAXX 08154 85586 42/60 12705 10152 20076 30105 40196 50002 333 56//6 81075==
85586,2018,09,08,18,00,AAXX 08184 85586 14960 12314 10147 20087 30086 40177 58019 60001 70000 80001 333 56//6 81075=
85586,2018,09,08,21,00,AAXX 08214 85586 42960 02606 10147 20096 30075 40166 56011==
85586,2018,09,09,00,00,AAXX 09004 85586 14960 00103 10111 20083 30077 40169 53002 60001 70000 80000 333 10178=
85586,2018,09,09,12,00,AAXX 09124 85586 14960 00000 10050 20050 30091 40185 52019 60001 70000 80000 333 20014 30/// 55104 70000=
85586,2018,09,09,15,00,AAXX 09154 85586 41120 32307 10098 20086 30104 40197 53013 71000 83500 333 565// 83601==
85586,2018,09,09,18,00,AAXX 09184 85586 14957 22506 10132 20091 30099 40190 58005 60001 70511 80001 333 56//5 82075=
85586,2018,09,09,21,00,AAXX 09214 85586 42/60 32406 10135 20100 30090 40181 56009 333 56//5 83075==
85586,2018,09,10,00,00,AAXX 10004 85586 14960 10504 10093 20087 30091 40184 50001 60001 70100 80001 333 10143 56//7 81075=
85586,2018,09,10,12,00,AAXX 10124 85586 14957 0//// 10070 20069 30079 40172 53006 60001 70500 80000 333 20039 30/// 55092 70000=
85586,2018,09,10,15,00,AAXX 10154 85586 42/60 12903 10181 20110 30068 40158 58010 333 56//7 81075==
85586,2018,09,10,18,00,AAXX 10184 85586 14960 12413 10151 20111 30062 40149 56010 60001 70110 80001 333 81075=
85586,2018,09,10,21,00,AAXX 10214 85586 42/60 30105 10179 20113 30061 40147 55003 333 83073==
85586,2018,09,11,00,00,AAXX 11004 85586 14958 40604 10112 20095 30074 40162 52013 60001 70510 80001 333 10190 84074=
85586,2018,09,11,12,00,AAXX 11124 85586 14950 61401 10064 20063 30094 40183 52019 60001 70522 83031 333 20043 30/// 55103 70000 83367 83075=
85586,2018,09,11,15,00,AAXX 11154 85586 41/57 33005 10136 20095 30103 40190 50010 70510 333 83075==
85586,2018,09,11,18,00,AAXX 11184 85586 14958 32410 10155 20101 30096 40183 58006 60001 70510 80001 333 56//6 83075=
85586,2018,09,11,21,00,AAXX 11214 85586 41/58 52410 10154 20102 30087 40178 56006 70500 333 56//6 85074==
85586,2018,09,12,00,00,AAXX 12004 85586 14960 20303 10102 20088 30106 40199 53019 60001 70100 80004 333 10169 56//6 82074=
85586,2018,09,12,12,00,AAXX 12124 85586 14103 80901 10074 20074 30112 40206 53008 60001 72822 886// 333 20039 31/// 55096 566// 70002 88702=
85586,2018,09,12,15,00,AAXX 12154 85586 41257 32605 10134 20101 30110 40202 58003 70522 81130 333 5666/ 81806 83363==
85586,2018,09,12,18,00,AAXX 12184 85586 14960 22413 10148 20101 30092 40183 58017 60001 70200 80001 333 56//6 82073=
85586,2018,09,12,21,00,AAXX 12214 85586 42/60 12410 10142 20097 30089 40176 55007 333 56//6 81072==
85586,2018,09,13,00,00,AAXX 13004 85586 14960 00903 10102 20086 30100 40187 53011 60001 70200 80000 333 10159=
85586,2018,09,13,12,00,AAXX 13124 85586 14156 71003 10064 20063 30092 40181 53010 60001 71000 87600 333 20030 31/// 55093 566// 70000 87703=
85586,2018,09,13,15,00,AAXX 13154 85586 41340 83003 10115 20093 30094 40182 50003 70522 886// 333 88707==
85586,2018,09,13,18,00,AAXX 13184 85586 14360 12808 10125 20086 30088 40180 56002 60001 70111 81100 333 567// 81808=
85586,2018,09,13,21,00,AAXX 13214 85586 42460 12808 10123 20078 30091 40183 53003 81100 333 567// 81812==
85586,2018,09,14,00,00,AAXX 14004 85586 14460 10000 10087 20072 30101 40194 53010 60001 70200 81100 333 10135 567// 81813=
85586,2018,09,14,12,00,AAXX 14124 85586 14430 82703 10104 20088 30089 40181 53008 60001 71022 885// 333 20073 30/// 55067 567// 70000 88610=
85586,2018,09,14,15,00,AAXX 14154 85586 41340 83004 10108 20092 30100 40192 51012 71022 885// 333 567// 88608==
85586,2018,09,14,18,00,AAXX 14184 85586 14456 82804 10115 20089 30092 40180 58011 60001 70522 885// 333 566// 88710=
85586,2018,09,14,21,00,AAXX 14214 85586 41456 82804 10115 20087 30086 40174 55005 70522 885// 333 567// 84616 88620==
85586,2018,09,15,00,00,AAXX 15004 85586 14450 83003 10110 20091 30088 40176 53001 60001 70622 886// 333 10118 567// 85710 88615=
85586,2018,09,15,12,00,AAXX 15124 85586 14225 80000 10100 20097 30083 40170 53011 60001 71022 887// 333 20098 31/// 55000 567// 70000 82706 85610 88625=
85586,2018,09,15,15,00,AAXX 15154 85586 41456 83305 10112 20090 30105 40192 51021 70522 885// 333 567// 84613 88623==
85586,2018,09,15,18,00,AAXX 15184 85586 14460 83108 10117 20093 30113 40201 52008 69921 72022 886// 333 567// 84713 88623=
85586,2018,09,15,21,00,AAXX 15214 85586 42660 83103 10127 20078 30111 40203 53001 885// 333 566// 88635==
85586,2018,09,16,00,00,AAXX 16004 85586 14760 6//// 10113 20087 30119 40211 50007 60001 70222 86500 333 10128 566// 86650=
85586,2018,09,16,12,00,AAXX 16124 85586 14957 21203 10083 20077 30128 40221 51014 60001 71000 80004 333 20058 31/// 55000 56//6 70002 82074=
85586,2018,09,16,15,00,AAXX 16154 85586 41558 22706 10140 20085 30128 40220 54000 70500 81101 333 566/6 81820 81074==
85586,2018,09,16,18,00,AAXX 16184 85586 14960 72511 10142 20082 30129 40216 58003 60001 70222 80002 333 56//6 87070=
85586,2018,09,16,21,00,AAXX 16214 85586 42/60 72508 10126 20089 30128 40218 55002 333 56//6 87070==
85586,2018,09,17,00,00,AAXX 17004 85586 14460 62003 10110 20098 30135 40223 51006 60001 70222 82630 333 10151 5666/ 82611 86368=
85586,2018,09,17,12,00,AAXX 17124 85586 14960 80000 10088 20084 30111 40199 52006 60001 70222 8803/ 333 20072 30/// 55071 56/6/ 70000 85362 87364=
85586,2018,09,17,15,00,AAXX 17154 85586 42/60 82408 10123 20095 30109 40197 53001 8803/ 333 88365==
85586,2018,09,17,18,00,AAXX 17184 85586 14960 72507 10135 20102 30083 40174 56023 60001 70222 87050 333 56/7/ 83361 87365=
85586,2018,09,17,21,00,AAXX 17214 85586 42/60 82707 10127 20101 30068 40159 57014 8805/ 333 56/6/ 88361==
85586,2018,09,18,00,00,AAXX 18004 85586 14960 80104 10119 20107 30071 40164 53002 60001 70222 8803/ 333 10170 56/7/ 88362=
85586,2018,09,18,12,00,AAXX 18124 85586 14330 83405 10124 20119 30085 40177 53007 60021 78082 885// 333 20112 31/// 55003 567// 70112 85609 88614=
85586,2018,09,18,15,00,AAXX 18154 85586 41250 73010 10135 20126 30095 40186 50009 71022 87500 333 567// 85604 87611==
85586,2018,09,18,18,00,AAXX 18184 85586 14360 72909 10144 20118 30109 40196 52012 60001 70182 86801 333 567// 84809 85618 83075=
85586,2018,09,18,21,00,AAXX 18214 85586 42460 23006 10143 20102 30108 40195 55001 82100 333 567// 82814==
85586,2018,09,19,00,00,AAXX 19004 85586 14960 00000 10103 20095 30121 40209 53012 60001 70010 80000 333 10150=
85586,2018,09,19,12,00,AAXX 19124 85586 14160 71402 10072 20072 30121 40210 52003 60001 70222 81702 333 20057 31/// 55070 563// 70000 81702 86070=
85586,2018,09,19,15,00,AAXX 19154 85586 42/60 70000 10136 20106 30121 40209 55000 333 87070==
85586,2018,09,19,18,00,AAXX 19184 85586 14960 72208 10147 20113 30104 40191 57015 60001 70222 80002 333 87071=
85586,2018,09,19,21,00,AAXX 19214 85586 42/60 62310 10132 20106 30105 40197 53004 333 56//6 86074==
85586,2018,09,20,00,00,AAXX 20004 85586 14956 50402 10115 20106 30102 40194 58006 60001 71022 80002 333 10180 56//6 85074=
85586,2018,09,20,12,00,AAXX 20124 85586 14960 50000 10100 20099 30093 40186 52009 60001 70222 85030 333 20085 31/// 55013 56/6/ 70000 85363=
85586,2018,09,20,15,00,AAXX 2015/ 85586 42/60 5//// 10161 20111 30101 40192 50008 333 56//6 85073==
85586,2018,09,20,18,00,AAXX 20184 85586 14960 72607 10164 20096 30102 40189 58003 60001 70222 80002 333 56//6 87074=
85586,2018,09,20,21,00,AAXX 20214 85586 42/60 72308 10177 20040 30097 40183 55005 333 56//6 87074==
85586,2018,09,21,00,00,AAXX 21004 85586 14960 30000 10114 20085 30098 40186 53001 60001 70222 80001 333 10181 56//6 83075=
85586,2018,09,21,12,00,AAXX 21124 85586 14960 20000 10129 20090 30058 40145 58007 60001 70200 80001 333 20063 31/// 55058 56//6 70000 82075=
85586,2018,09,21,15,00,AAXX 21154 85586 42/60 12507 10186 20124 30048 40133 58008 333 56//6 81075==
85586,2018,09,21,18,00,AAXX 21184 85586 14960 32509 10166 20124 30033 40119 57016 60001 70200 80001 333 56//6 83075=
85586,2018,09,21,21,00,AAXX 21214 85586 41109 83004 10125 20117 30046 40133 53014 74611 886// 333 88702==
85586,2018,09,22,00,00,AAXX 22004 85586 14130 82605 10112 20110 30072 40160 51025 60001 71022 886// 333 10208 566// 85702 88705=
85586,2018,09,22,12,00,AAXX 22124 85586 14135 81603 10107 20107 30088 40175 53017 60001 71022 886// 333 20086 31/// 55078 70000 88702=
85586,2018,09,22,18,00,AAXX 22184 85586 14215 72606 10146 20127 30100 40187 50001 60001 74042 87601 333 566// 85704 86640 83075=
85586,2018,09,22,21,00,AAXX 22214 85586 41108 82705 10130 20124 30099 40187 55001 74622 886// 333 567// 88702==
85586,2018,09,23,00,00,AAXX 23004 85586 14120 80000 10123 20121 30101 40181 51002 69921 75154 886// 333 10155 566// 88702=
85586,2018,09,23,12,00,AAXX 23124 85586 14102 80000 10088 20088 30131 40219 55021 69901 75055 886// 333 20077 31/// 55025 565// 70002 88701=
85586,2018,09,23,15,00,AAXX 23154 85586 42460 42509 10144 20107 30129 40216 50002 81101 333 565// 81815 83075==
85586,2018,09,23,18,00,AAXX 23184 85586 14960 42316 10166 20107 30109 40196 58020 60001 70121 80001 333 84075=
85586,2018,09,23,21,00,AAXX 23214 85586 42/60 52314 10164 20096 30100 40186 55010 333 85075==
85586,2018,09,24,00,00,AAXX 24004 85586 14960 40000 10122 20083 30103 40191 53003 60001 70210 80001 333 10179 84075=
85586,2018,09,24,12,00,AAXX 24124 85586 14960 71103 10104 20080 30076 40163 51004 60001 70222 82032 333 20071 31/// 55095 70000 82367 86071=
85586,2018,09,24,15,00,AAXX 24154 85586 42/60 71609 10153 20090 30081 40168 50007 85032 333 85365 86070==
85586,2018,09,24,18,00,AAXX 24184 85586 14960 61709 10187 20046 30070 40160 58009 60001 70222 84032 333 56/66 84362 85073=
85586,2018,09,24,21,00,AAXX 24214 85586 42/60 42411 10166 20109 30066 40156 55005 333 56//6 84074==
85586,2018,09,25,00,00,AAXX 25004 85586 14960 22104 10115 20091 30073 40165 51008 60001 70022 80002 333 10205 56//6 82074=
85586,2018,09,25,12,00,AAXX 25124 85586 14960 7//// 10102 20078 30064 40156 52004 60001 70222 84032 333 20074 31/// 55015 56/66 70000 84362 86074=
85586,2018,09,25,15,00,AAXX 25154 85586 42/60 71808 10164 20082 30072 40162 51008 83032 333 56/66 83362 87073==
85586,2018,09,25,18,00,AAXX 25184 85586 14960 71707 10194 20073 30059 40148 58012 60001 70222 83032 333 56/66 83364 87073=
85586,2018,09,25,21,00,AAXX 25214 85586 42/60 72506 10160 20099 30053 40143 56006 333 56//6 87074==
85586,2018,09,26,00,00,AAXX 26004 85586 14960 42305 10130 20095 30054 40145 53001 60001 70222 80002 333 10196 56//6 84074=
85586,2018,09,26,12,00,AAXX 26124 85586 14957 72104 10112 20096 30041 40133 51008 69901 71022 83072 333 20093 31/// 55001 56/66 79999 83363 86074=
85586,2018,09,26,15,00,AAXX 26154 85586 44960 70105 10159 20094 30035 40125 58009 70222 82032 333 56/66 82363 87073=
85586,2018,09,26,18,00,AAXX 26184 85586 14257 82908 10135 20116 30060 40147 53022 60001 70522 8563/ 333 5666/ 85705 86367=
85586,2018,09,26,21,00,AAXX 26214 85586 44357 82906 10130 20117 30071 40158 53011 71022 886// 333 88709=
85586,2018,09,27,00,00,AAXX 27004 85586 14260 80303 10123 20115 30090 40178 51022 60001 70222 8453/ 333 10173 566// 81705 83707 88364=
85586,2018,09,27,12,00,AAXX 27124 85586 14650 80904 10121 20113 30077 40165 50006 60001 71022 8353/ 333 20114 31/// 55001 5666/ 70000 83640 83358 88360=
85586,2018,09,27,15,00,AAXX 27154 85586 44960 82808 10136 20113 30082 40169 53002 70222 8803/ 333 88361=
85586,2018,09,27,18,00,AAXX 27184 85586 14360 82908 10144 20121 30075 40162 58007 60001 70222 8363/ 333 566// 83707 88361=
85586,2018,09,27,21,00,AAXX 27214 85586 44960 73010 10135 20117 30074 40161 54000 70222 87030 333 56/6/ 87359=
85586,2018,09,28,00,00,AAXX 28004 85586 14260 80000 10122 20116 30081 40169 50007 60001 70222 8563/ 333 10150 566// 85705 88359=
85586,2018,09,28,12,00,AAXX 28124 85586 14460 80903 10129 20103 30063 40150 50005 60001 70222 885// 333 20091 31/// 55000 566// 70000 83615 88650=
85586,2018,09,28,15,00,AAXX 28154 85586 44460 83006 10139 20116 30080 40167 51017 70222 885// 333 566// 83612 88617=
85586,2018,09,28,18,00,AAXX 28184 85586 14560 82809 10144 20125 30078 40165 55002 69901 72162 8653/ 333 82630 85640 88359=
85586,2018,09,28,21,00,AAXX 28214 85586 44260 83006 10137 20128 30074 40161 58004 70222 887// 333 567// 88705=
85586,2018,09,29,00,00,AAXX 29004 85586 14108 82805 10129 20127 30084 40171 53010 60001 74642 886// 333 10160 567// 88701=
85586,2018,09,29,12,00,AAXX 29124 85586 14109 80802 10128 20128 30093 40181 51013 69941 75154 886// 333 20120 31/// 55000 561// 70008 88701=
85586,2018,09,29,15,00,AAXX 29154 85586 44360 72406 10161 20127 30098 40185 50006 70142 85831 333 565// 82808 83820 85357 83075=
85586,2018,09,29,18,00,AAXX 29184 85586 14460 72509 10158 20118 30094 40181 58004 69921 70254 85131 333 566// 82810 83820 83357 82367=
85586,2018,09,29,21,00,AAXX 29214 85586 44460 72408 10143 20111 30090 40177 55004 70222 84131 333 565// 82811 82640 85360 84075=
85586,2018,09,30,00,00,AAXX 30004 85586 14460 70000 10128 20117 30100 40188 52011 60001 70222 82830 333 10165 567// 82810 85359 85468=
85586,2018,09,30,12,00,AAXX 30124 85586 14560 71301 10115 20107 30105 40193 51012 60001 70222 87831 333 20107 31/// 55054 563// 70002 82820 87640 81363 81075=
85586,2018,09,30,15,00,AAXX 30154 85586 44460 72105 10139 20098 30110 40197 50004 70222 86830 333 564// 83812 84616 85365=
85586,2018,09,30,18,00,AAXX 30184 85586 14560 62415 10149 20091 30111 40198 50003 60001 70122 85831 333 565// 84825 81640 82367 83075=
85586,2018,09,30,21,00,AAXX 30214 85586 44560 72315 10130 20068 30112 40204 53004 70222 83104 333 566/6 83828 86072=
85586,2018,10,01,00,00,AAXX 01004 85586 14560 61904 10112 20047 30138 40231 53026 60001 70222 86500 333 10158 566// 86628=
85586,2018,10,01,12,00,AAXX 01124 85586 14960 11103 10090 20040 30135 40228 57001 60001 70100 80001 333 20045 31/// 55028 56//6 70000 81074=
85586,2018,10,01,15,00,AAXX 01154 85586 44960 01808 10150 20050 30124 40215 58010 70000 80000=
85586,2018,10,01,18,00,AAXX 01184 85586 14960 01910 10188 20047 30106 40196 56019 60001 70000 80000=
85586,2018,10,01,21,00,AAXX 01214 85586 44960 02211 10152 20076 30094 40185 56012 70000 80000=
85586,2018,10,02,00,00,AAXX 02004 85586 14960 0//// 10106 20073 30103 40195 53009 60001 70000 80000 333 10189=
85586,2018,10,02,12,00,AAXX 02124 85586 14960 21504 10094 20034 30112 40205 51008 60001 70100 80001 333 20043 31/// 55080 56//6 70000 82073=
85586,2018,10,02,15,00,AAXX 02154 85586 44960 32008 10168 20061 30113 40204 50001 70100 80002 333 56//6 83074=
85586,2018,10,02,18,00,AAXX 02184 85586 14960 12413 10162 20087 30112 40199 56005 60001 70200 80002 333 56//6 81075=
85586,2018,10,02,21,00,AAXX 02214 85586 44960 02412 10162 20090 30105 40192 55006 70200 80000=
85586,2018,10,03,00,00,AAXX 03004 85586 14960 01906 10117 20076 30119 40206 52013 60001 70200 80000 333 10188=
85586,2018,10,03,12,00,AAXX 03124 85586 14960 01503 10132 20061 30102 40190 53008 60001 70200 80000 333 20063 30/// 55112 70000=
85586,2018,10,03,15,00,AAXX 03154 85586 44960 01707 10194 20070 30093 40178 58011 70200 80000=
85586,2018,10,03,18,00,AAXX 03184 85586 14960 02110 10227 20082 30068 40152 58025 60001 70200 80000=
85586,2018,10,03,21,00,AAXX 03214 85586 44960 02309 10195 20098 30052 40137 56014 70200 80000=
85586,2018,10,04,00,00,AAXX 04004 85586 14960 00000 10120 20090 30063 40151 53010 60001 70200 80000 333 10247=
85586,2018,10,04,12,00,AAXX 04124 85586 14960 60903 10113 20071 30049 40137 53015 60001 70222 80001 333 20046 30/// 55115 56//6 70000 86075=
85586,2018,10,04,15,00,AAXX 04154 85586 44960 73308 10146 20099 30068 40155 51019 70222 80002 333 56//6 87074=
85586,2018,10,04,18,00,AAXX 04184 85586 14358 52712 10156 20118 30070 40156 50002 60001 70510 83601 333 566// 83709 84075=
85586,2018,10,04,21,00,AAXX 04214 85586 44460 43111 10146 20110 30077 40164 53007 70110 81101 333 567// 81810 83075=
85586,2018,10,05,00,00,AAXX 05004 85586 14458 43104 10119 20107 30088 40176 53011 60001 70510 81109 333 10162 567// 81810 83170=
85586,2018,10,05,12,00,AAXX 05124 85586 14335 80404 10112 20106 30091 40179 51009 69901 71052 886// 333 20088 31/// 55100 561// 79999 88707=
85586,2018,10,05,15,00,AAXX 05154 85586 44456 82805 10134 20101 30099 40186 50007 70522 87800 333 564// 84811 87617=
85586,2018,10,05,18,00,AAXX 05184 85586 14460 32512 10149 20095 30094 40184 56003 60001 70210 83100 333 565// 83818=
85586,2018,10,05,21,00,AAXX 05214 85586 44960 32706 10136 20093 30084 40175 58007 70100 80001 333 56//6 83074=
85586,2018,10,06,00,00,AAXX 06004 85586 14960 00000 10085 20075 30091 40184 53004 60001 70000 80000 333 10150=
85586,2018,10,06,12,00,AAXX 06124 85586 14220 81505 10094 20086 30073 40166 52004 60001 71022 886// 333 20081 30/// 55047 566// 70000 88704=
85586,2018,10,06,15,00,AAXX 06154 85586 44360 82204 10122 20092 30075 40167 50004 70222 886// 333 566// 88709=
85586,2018,10,06,18,00,AAXX 06184 85586 14460 22411 10147 20104 30063 40154 56012 60001 70100 81601 333 565/5 81610 81075=
85586,2018,10,06,21,00,AAXX 06214 85586 44960 22705 10139 20098 30055 40146 58008 70100 80001 333 56//5 82074=
85586,2018,10,07,00,00,AAXX 07004 85586 14358 82406 10112 20096 30074 40166 53020 60001 70511 885// 333 10152 565// 88608=
85586,2018,10,07,12,00,AAXX 07124 85586 14350 83203 10107 20091 30076 40168 53013 60001 71022 885// 333 20104 30/// 55068 567// 70000 88608=
85586,2018,10,07,15,00,AAXX 07154 85586 44457 83104 10120 20089 30082 40174 51007 70522 885// 333 567// 85612 88616=
85586,2018,10,07,18,00,AAXX 07184 85586 14460 82906 10126 20089 30084 40172 55002 60001 70222 885// 333 566// 83614 88618=
85586,2018,10,07,21,00,AAXX 07214 85586 44460 82906 10120 20087 30089 40177 53004 70222 885// 333 88616=
85586,2018,10,08,00,00,AAXX 08004 85586 14560 83203 10116 20088 30102 40190 51012 60001 70222 885// 333 10136 88621=
85586,2018,10,08,12,00,AAXX 08124 85586 14460 80000 10113 20094 30125 40212 53017 69901 76062 885// 333 20101 30/// 55000 566// 79999 85619 85626 88631=
85586,2018,10,08,15,00,AAXX 08154 85586 44157 83603 10117 20112 30137 40224 53011 71066 886// 333 566// 83703 85705 88711=
85586,2018,10,08,18,00,AAXX 08184 85586 14460 72803 10153 20117 30136 40223 50000 60021 70162 87800 333 85813 86640=
85586,2018,10,08,21,00,AAXX 08214 85586 44460 72309 10141 20111 30138 40226 50003 70322 87800 333 565// 82817 87625=
85586,2018,10,09,00,00,AAXX 09004 85586 14560 72304 10114 20093 30146 40233 53006 60001 70321 87500 333 10158 565// 87624=
85586,2018,10,09,12,00,AAXX 09124 85586 14660 71805 10105 20078 30134 40222 55000 60001 70222 83601 333 20074 30/// 55013 564// 70018 83635 86075=
85586,2018,10,09,15,00,AAXX 09154 85586 44560 71508 10158 20086 30132 40219 50000 70222 81101 333 564// 81830 87075=
85586,2018,10,09,18,00,AAXX 09184 85586 14960 72415 10159 20094 30119 40206 58013 60001 70222 80001 333 87075=
85586,2018,10,09,21,00,AAXX 09214 85586 44960 62311 10149 20091 30109 40200 55006 70222 80002 333 56//6 86075=
85586,2018,10,10,00,00,AAXX 10004 85586 14960 02004 10111 20080 30110 40202 53001 60001 70000 80000 333 10182=
85586,2018,10,10,12,00,AAXX 10124 85586 14960 70000 10076 20059 30081 40174 58009 60001 70100 80004 333 20046 31/// 55064 56//6 70000 87074=
85586,2018,10,10,15,00,AAXX 10154 85586 44960 72505 10124 20075 30078 40170 58003 70222 82032 333 56/66 82363 87073=
85586,2018,10,10,18,00,AAXX 10184 85586 14960 82409 10127 20078 30068 40159 58009 60001 70222 87034 333 56/55 87366 81074=
85586,2018,10,10,21,00,AAXX 10214 85586 44960 8//// 10127 20090 30062 40153 55005 70222 87051 333 56/55 87365 81073=
85586,2018,10,11,00,00,AAXX 11004 85586 14960 80308 10113 20091 30069 40161 53005 60001 70222 8805/ 333 10138 56/7/ 88363=
85586,2018,10,11,12,00,AAXX 11124 85586 14350 83405 10117 20098 30089 40181 53022 60001 71022 885// 333 20083 30/// 55003 567// 70000 88609=
85586,2018,10,11,15,00,AAXX 11154 85586 44560 83007 10148 20092 30108 40199 50019 70222 885// 333 567// 88622=
85586,2018,10,11,18,00,AAXX 11184 85586 14560 62810 10155 20111 30113 40204 52007 60001 70111 85631 333 5677/ 82630 84362 81073=
85586,2018,10,11,21,00,AAXX 11214 85586 44460 12411 10138 20101 30112 40199 55006 70111 81500 333 566// 81610=
85586,2018,10,12,00,00,AAXX 12004 85586 14960 02404 10101 20084 30128 40216 53015 60001 70200 80000 333 10158=
85586,2018,10,12,12,00,AAXX 12124 85586 14560 81503 10096 20079 30153 40241 52015 60001 70222 885// 333 20046 30/// 55058 70000 88624=
85586,2018,10,12,15,00,AAXX 12154 85586 44560 82508 10117 20076 30158 40245 50004 70222 885// 333 88623=
85586,2018,10,12,18,00,AAXX 12184 85586 14560 82413 10131 20078 30150 40238 57006 60001 70222 885// 333 88630=
85586,2018,10,12,21,00,AAXX 12214 85586 44660 52410 10125 20072 30143 40231 56008 70222 82502 333 566/6 84640 85075=
85586,2018,10,13,00,00,AAXX 13004 85586 14960 42303 10097 20063 30150 40238 53005 60001 70211 80002 333 10141 56//6 84070=
85586,2018,10,13,12,00,AAXX 13124 85586 14660 80000 10100 20071 30144 40232 52015 60001 70222 885// 333 20068 30/// 55011 70000 88637=
85586,2018,10,13,15,00,AAXX 13154 85586 44560 32806 10131 20067 30145 40233 50002 70122 83500 333 566// 81620 83640=
85586,2018,10,13,18,00,AAXX 13184 85586 14560 12509 10143 20094 30134 40225 58007 60001 70100 81100 333 566// 81827=
85586,2018,10,13,21,00,AAXX 13214 85586 44960 02411 10143 20096 30131 40222 57002 70000 80000=
85586,2018,10,14,00,00,AAXX 14004 85586 14960 02408 10109 20095 30131 40224 54001 60001 70000 80000 333 10148=
85586,2018,10,14,12,00,AAXX 14124 85586 14357 80704 10101 20087 30146 40239 53008 60001 70522 885// 333 20070 30/// 55076 567// 70000 88609=
85586,2018,10,14,15,00,AAXX 14154 85586 44460 12508 10132 20095 30141 40233 58004 70111 81600 333 565// 81812=
85586,2018,10,14,18,00,AAXX 14184 85586 14360 12413 10139 20099 30120 40211 58022 60001 70200 81100 333 565// 81808=
85586,2018,10,14,21,00,AAXX 14214 85586 44360 22413 10126 20100 30105 40197 56015 70300 82500 333 565// 82607=
85586,2018,10,15,00,00,AAXX 15004 85586 14460 12103 10103 20092 30108 40201 53003 60001 70200 81500 333 10146 567// 81610=
85586,2018,10,15,12,00,AAXX 15124 85586 14960 00503 10100 20078 30072 40165 53011 60001 70000 80000 333 20034 31/// 55098 70000=
85586,2018,10,15,15,00,AAXX 15154 85586 44460 42808 10131 20092 30093 40184 51021 70100 84500 333 566// 84611=
85586,2018,10,15,18,00,AAXX 15184 85586 14460 62708 10130 20089 30100 40192 51009 60001 70222 86501 333 565/5 86612 81073=
85586,2018,10,15,21,00,AAXX 15214 85586 44460 72508 10123 20082 30093 40185 56008 70222 86501 333 565/5 86616 81073=
85586,2018,10,16,00,00,AAXX 16004 85586 14460 82504 10116 20088 30092 40184 50001 60001 70222 885// 333 10141 567// 88614=
85586,2018,10,16,12,00,AAXX 16124 85586 14460 8//// 10107 20098 30078 40170 55000 60001 70222 8553/ 333 20093 30/// 55061 5655/ 70002 85616 83363=
85586,2018,10,16,15,00,AAXX 16154 85586 44460 82906 10131 20105 30083 40174 51004 70222 83530 333 5655/ 83613 88368=
85586,2018,10,16,18,00,AAXX 16184 85586 14460 82808 10144 20107 30079 40170 58003 60001 70222 82530 333 5677/ 82615 88367=
85586,2018,10,16,21,00,AAXX 16214 85586 44360 72805 10127 20111 30080 40172 53001 70222 84530 333 5666/ 84607 87362=
85586,2018,10,17,00,00,AAXX 17004 85586 14260 83303 10124 20113 30086 40178 53006 60001 70222 885// 333 10153 567// 88606=
85586,2018,10,17,12,00,AAXX 17124 85586 14460 80504 10125 20111 30097 40185 52019 69921 70266 885// 333 20108 31/// 55001 566// 70002 83619 85636 88645=
85586,2018,10,17,15,00,AAXX 17154 85586 44360 72711 10138 20110 30108 40195 53012 70222 87500 333 566// 82707 83620 86640=
85586,2018,10,17,18,00,AAXX 17184 85586 14560 33210 10173 20107 30102 40188 58006 60001 70111 83500 333 566// 81620 82646=
85586,2018,10,17,21,00,AAXX 17214 85586 44560 23113 10148 20118 30106 40193 53003 70200 82500 333 566// 81626 82646=
85586,2018,10,18,00,00,AAXX 18004 85586 14960 03404 10125 20111 30117 40205 52012 60001 70200 80000 333 10179=
85586,2018,10,18,12,00,AAXX 18124 85586 14960 00903 10123 20090 30109 40197 50002 60001 70200 80000 333 20061 30/// 55085 70000=
85586,2018,10,18,15,00,AAXX 18154 85586 44560 12511 10168 20091 30107 40193 58002 70200 81500 333 566// 81623=
85586,2018,10,18,18,00,AAXX 18184 85586 14960 12416 10165 20117 30105 40191 55003 60001 70200 80001 333 56//6 81075=
85586,2018,10,18,21,00,AAXX 18214 85586 44960 72412 10150 20112 30099 40186 56006 70311 80001 333 56//6 87075=
85586,2018,10,19,00,00,AAXX 19004 85586 14960 51903 10128 20073 30107 40195 53007 60001 70222 80001 333 10179 56//6 85075=
85586,2018,10,19,12,00,AAXX 19124 85586 14960 00903 10117 20067 30095 40183 53009 60001 70200 80000 333 20039 30/// 55107 70000=
85586,2018,10,19,15,00,AAXX 19154 85586 44960 02707 10141 20077 30107 40194 53012 70200 80000=
85586,2018,10,19,18,00,AAXX 19184 85586 14560 22414 10155 20105 30106 40197 50003 60001 70100 81101 333 566/6 81820 81074=
85586,2018,10,19,21,00,AAXX 19214 85586 44960 02414 10144 20103 30102 40193 57003 70000 80000=
85586,2018,10,20,00,00,AAXX 20004 85586 14960 02409 10116 20092 30111 40203 52008 60001 70000 80000 333 10164=
85586,2018,10,20,12,00,AAXX 20124 85586 14960 00905 10109 20067 30110 40202 50008 60001 70000 80000 333 20034 31/// 55114 70000=
85586,2018,10,20,15,00,AAXX 20154 85586 44960 02414 10150 20088 30119 40210 53008 70000 80000=
85586,2018,10,20,18,00,AAXX 20184 85586 149// 02416 10161 20091 30102 40193 58016 60001 70000 80000=
85586,2018,10,20,21,00,AAXX 20214 85586 44960 02314 10163 20081 30095 40186 57005 70000 80000=
85586,2018,10,21,00,00,AAXX 21004 85586 14960 01904 10119 20066 30105 40197 53009 60001 70000 80000 333 10170=
85586,2018,10,21,12,00,AAXX 21124 85586 14960 01505 10129 20072 30106 40198 51011 60001 70000 80000 333 20047 30/// 55109 70000=
85586,2018,10,21,15,00,AAXX 21154 85586 44960 02409 10180 20097 30095 40185 57009 70000 80000=
85586,2018,10,21,18,00,AAXX 21184 85586 14960 52416 10178 20100 30081 40170 57014 60001 70300 80004 333 56//5 85075=
85586,2018,10,21,21,00,AAXX 21214 85586 44960 62313 10178 20095 30060 40150 56021 70222 80004 333 56//5 86075=
85586,2018,10,22,00,00,AAXX 22004 85586 14960 52702 10121 20086 30061 40152 53001 60001 70222 80004 333 10194 56//5 85075=
85586,2018,10,22,12,00,AAXX 22124 85586 14960 4//// 10111 20071 30064 40156 53010 60001 70200 80004 333 20053 30/// 55109 70000 84075=
85586,2018,10,22,15,00,AAXX 22154 85586 44960 32408 10166 20071 30068 40158 50003 70200 80009 333 56//5 83175=
85586,2018,10,22,18,00,AAXX 22184 85586 14960 42414 10159 20096 30064 40154 55004 60001 70200 80009 333 56//5 84173=
85586,2018,10,22,21,00,AAXX 22214 85586 44960 32509 10157 20097 30059 40149 58004 70100 80009 333 56//5 83171=
85586,2018,10,23,00,00,AAXX 23004 85586 14960 20306 10122 20085 30062 40154 53003 60001 70100 80009 333 10187 56//7 82173=
85586,2018,10,23,12,00,AAXX 23124 85586 14360 40306 10120 20094 30073 40165 53014 60001 70200 81104 333 20066 30/// 55097 565/5 70000 81807 83073=
85586,2018,10,23,15,00,AAXX 23154 85586 44360 73110 10135 20105 30078 40169 53005 70322 84531 333 56777 84609 86368 81073=
85586,2018,10,23,18,00,AAXX 23184 85586 14460 82707 10138 20106 30092 40179 52010 60001 70222 885// 333 88613=
85586,2018,10,23,21,00,AAXX 23214 85586 44460 82807 10135 20109 30107 40194 50016 70222 8553/ 333 566// 82610 85623 88363=
85586,2018,10,24,00,00,AAXX 24004 85586 14960 80000 10125 20104 30106 40194 58002 60001 70222 8803/ 333 10148 88364=
85586,2018,10,24,12,00,AAXX 24124 85586 14960 30903 10130 20111 30121 40209 52002 60001 70211 80001 333 20078 30/// 55017 56//6 70000 83075=
85586,2018,10,24,15,00,AAXX 24154 85586 44960 62412 10160 20090 30116 40203 58004 70222 80002 333 56//6 86075=
85586,2018,10,24,18,00,AAXX 24184 85586 14960 72413 10154 20102 30108 40195 56007 60001 70222 80002 333 56//6 87073=
85586,2018,10,24,21,00,AAXX 24214 85586 44960 72510 10144 20102 30102 40189 55007 70222 80002 333 56//6 87070=
85586,2018,10,25,00,00,AAXX 25004 85586 14960 50606 10126 20100 30106 40194 50002 60001 70222 80002 333 10173 56//6 85070=
85586,2018,10,25,12,00,AAXX 25124 85586 14960 20000 10135 20100 30099 40186 53008 60001 70200 80002 333 20081 30/// 55057 56//6 70000 82073=
85586,2018,10,25,15,00,AAXX 25154 85586 44960 42808 10158 20122 30102 40189 53004 70200 80002 333 56//6 84073=
85586,2018,10,25,18,00,AAXX 25184 85586 14960 72609 10158 20114 30099 40190 50002 60001 70222 84032 333 56/66 84364 87073=
85586,2018,10,25,21,00,AAXX 25214 85586 44960 52610 10160 20110 30093 40184 58007 70222 83034 333 56/66 83363 85074=
85586,2018,10,26,00,00,AAXX 26004 85586 14960 40203 10125 20101 30100 40192 53009 60001 70111 80002 333 10170 56//6 84073=
85586,2018,10,26,12,00,AAXX 26124 85586 14960 71003 10117 20089 30106 40198 51006 60001 70222 80009 333 20067 30/// 55078 56//6 70000 87174=
85586,2018,10,26,15,00,AAXX 26154 85586 44960 12411 10167 20092 30098 40188 58007 70100 80001 333 56//6 81074=
85586,2018,10,26,18,00,AAXX 26184 85586 14960 32413 10172 20111 30082 40172 56018 60001 70100 80001 333 56//6 83075=
85586,2018,10,26,21,00,AAXX 26214 85586 44960 62411 10174 20099 30063 40153 58018 70222 80001 333 56//6 86073=
85586,2018,10,27,00,00,AAXX 27004 85586 14960 70000 10137 20098 30072 40163 53009 60001 70222 80004 333 10189 56//6 87073=
85586,2018,10,27,12,00,AAXX 27124 85586 14960 70000 10136 20104 30072 40163 50016 60001 70222 87050 333 20112 30/// 55091 56/5/ 79999 85364 87368=
85586,2018,10,27,15,00,AAXX 27154 85586 44960 22806 10183 20119 30069 40159 58004 70111 80009 333 56//5 82172=
85586,2018,10,27,18,00,AAXX 27184 85586 14960 42511 10175 20135 30070 40160 52001 60001 70100 80002 333 56//6 84074=
85586,2018,10,27,21,00,AAXX 27214 85586 44960 22609 10158 20126 30066 40156 55002 70100 80001 333 56//6 82074=
85586,2018,10,28,00,00,AAXX 28004 85586 14960 00000 10134 20121 30081 40172 53011 60001 70000 80000 333 10185=
85586,2018,10,28,03,00,AAXX 28034 85586 44960 20604 10122 20114 30087 40179 51010 70100 80001 333 56//6 82074=
85586,2018,10,28,12,00,AAXX 28124 85586 14160 60804 10126 20121 30069 40160 50010 60001 70222 85604 333 20093 30/// 55106 566/6 70000 85702 85074=
85586,2018,10,28,15,00,AAXX 28154 85586 44960 8//// 10166 20130 30061 40151 58009 70222 87074 333 56/66 83362 87364 82074=
85586,2018,10,28,18,00,AAXX 28184 85586 14108 72410 10140 20119 30064 40155 51002 60001 72822 87600 333 566// 87703=
85586,2018,10,28,21,00,AAXX 28214 85586 44105 82408 10134 20129 30070 40161 53006 72822 886// 333 566// 88701=
85586,2018,10,29,00,00,AAXX 29004 85586 14260 70404 10132 20126 30067 40158 58003 60001 70222 87600 333 10186 566// 87704=
85586,2018,10,29,12,00,AAXX 29124 85586 14130 8//// 10127 20127 30058 40149 52003 60001 71022 885// 333 20118 30/// 55022 567// 70000 88602=
85586,2018,10,29,15,00,AAXX 29154 85586 44260 73010 10157 20129 30053 40143 57006 70222 85501 333 565/5 82606 85640 86074=
85586,2018,10,29,18,00,AAXX 29184 85586 14260 83306 10156 20133 30064 40150 53006 60001 70222 885// 333 566// 85704 86711 88634=
85586,2018,10,29,21,00,AAXX 29214 85586 44140 83308 10147 20142 30062 40149 55002 78166 886// 333 88703=
85586,2018,10,30,00,00,AAXX 30004 85586 14158 83206 10139 20139 30076 40163 53014 60071 76066 885// 333 10177 567// 85702 88610=
85586,2018,10,30,12,00,AAXX 30124 85586 14230 71003 10142 20140 30107 40194 52019 69921 71066 87500 333 20128 31/// 55010 566// 70102 85704 87638=
85586,2018,10,30,15,00,AAXX 30154 85586 44560 22508 10173 20139 30105 40191 58002 70111 82500 333 566// 82620=
85586,2018,10,30,18,00,AAXX 30184 85586 14460 32414 10181 20141 30101 40187 57004 60001 70200 81101 333 566/6 81815 83075=
85586,2018,10,30,21,00,AAXX 30214 85586 44960 42411 10176 20126 30090 40176 55011 70211 80001 333 56//6 84075=
85586,2018,10,31,00,00,AAXX 31004 85586 14960 62403 10144 20119 30095 40182 53005 60001 70222 80002 333 10188 56//6 86074=
85586,2018,10,31,12,00,AAXX 31124 85586 14108 80000 10117 20117 30109 40197 53014 60001 74644 886// 333 20101 31/// 55092 566// 70000 85702 88704=
85586,2018,10,31,15,00,AAXX 31154 85586 44250 82506 10138 20122 30114 40201 50007 71022 886// 333 88704=
85586,2018,10,31,18,00,AAXX 31184 85586 14960 22417 10160 20128 30097 40188 57013 60001 70100 80001 333 56//6 82074=
85586,2018,10,31,21,00,AAXX 31214 85586 44960 42415 10163 20113 30094 40185 56003 70100 80004 333 56//6 84075=
85586,2018,11,01,00,00,AAXX 01004 85586 14960 02506 10123 20106 30100 40192 52006 60001 70000 80000 333 10170=
85586,2018,11,01,12,00,AAXX 01124 85586 14960 6//// 10106 20103 30077 40169 55001 60001 70222 80004 333 20070 31/// 55074 56//6 70000 86074=
85586,2018,11,01,15,00,AAXX 01154 85586 44958 72508 10145 20100 30070 40161 58007 70522 87030 333 56/6/ 87365=
85586,2018,11,01,18,00,AAXX 01184 85586 14960 62409 10161 20094 30058 40148 58011 60001 70222 83034 333 56/66 83363 86074=
85586,2018,11,01,21,00,AAXX 01214 85586 44960 62411 10144 20107 30045 40136 55014 70222 86030 333 56/6/ 86364=
85586,2018,11,02,00,00,AAXX 02004 85586 14960 42505 10123 20100 30050 40141 53004 60001 70111 84030 333 10168 56/6/ 84364=
85586,2018,11,02,12,00,AAXX 02124 85586 14460 82604 10142 20103 30070 40161 53018 60001 70222 888// 333 20109 30/// 55031 566// 70000 85819 88624=
85586,2018,11,02,15,00,AAXX 02154 85586 44560 83211 10172 20122 30090 40180 53019 70222 888// 333 566// 83820 85626 88643=
85586,2018,11,02,18,00,AAXX 02184 85586 14560 72910 10175 20129 30096 40186 50007 60001 70222 82100 333 567// 82828 87635=
85586,2018,11,02,21,00,AAXX 02214 85586 44660 42807 10171 20114 30093 40183 57003 70111 82101 333 567/7 82835 82070=
85586,2018,11,03,00,00,AAXX 03004 85586 14657 22403 10130 20116 30101 40193 53008 60001 70500 82500 333 10191 565// 82635=
85586,2018,11,03,12,00,AAXX 03124 85586 14460 1//// 10128 20109 30076 40167 50002 60001 70210 81100 333 20059 30/// 55059 565// 70000 81810=
85586,2018,11,03,15,00,AAXX 03154 85586 44360 12410 10154 20120 30083 40174 51006 70300 81100 333 565// 81809=
85586,2018,11,03,18,00,AAXX 03184 85586 14960 02414 10166 20110 30087 40177 51005 60001 70000 80000=
85586,2018,11,03,21,00,AAXX 03214 85586 44360 32412 10153 20115 30092 40183 53004 70300 83500 333 565// 83608=
85586,2018,11,04,00,00,AAXX 04004 85586 14460 22404 10123 20100 30105 40197 53014 60001 70200 82500 333 10172 565// 82615=
85586,2018,11,04,12,00,AAXX 04124 85586 14960 1//// 10126 20095 30104 40196 53013 60001 70200 80001 333 20047 30/// 55124 70000 81075=
85586,2018,11,04,15,00,AAXX 04154 85586 44960 12609 10160 20102 30107 40198 50003 70200 80001 333 56//5 81075=
85586,2018,11,04,18,00,AAXX 04184 85586 14960 12513 10169 20117 30105 40191 57006 60001 70200 80001 333 56//6 81075=
85586,2018,11,04,21,00,AAXX 04214 85586 44960 02415 10164 20130 30098 40184 56007 70200 80000=
85586,2018,11,05,00,00,AAXX 05004 85586 14960 02606 10137 20128 30102 40189 53007 60001 70200 80000 333 10179=
85586,2018,11,05,12,00,AAXX 05124 85586 14950 23403 10160 20118 30097 40184 53009 60001 70500 80002 333 20075 30/// 55126 56//6 70000 82075=
85586,2018,11,05,15,00,AAXX 05154 85586 44960 52413 10184 20125 30098 40184 53001 70211 80002 333 56//6 85075=
85586,2018,11,05,18,00,AAXX 05184 85586 14960 52417 10197 20128 30087 40172 58011 60001 70211 80001 333 56//6 85075=
85586,2018,11,05,21,00,AAXX 05214 85586 44960 22415 10207 20115 30069 40154 57018 70200 80001 333 56//6 82075=
85586,2018,11,06,00,00,AAXX 06004 85586 14960 02004 10174 20104 30077 40163 53006 60001 70200 80000 333 10220=
85586,2018,11,06,12,00,AAXX 06124 85586 14960 00000 10172 20104 30071 40157 50004 60001 70200 80000 333 20085 30/// 55125 70000=
85586,2018,11,06,15,00,AAXX 06154 85586 44960 12413 10195 20092 30070 40155 58001 70200 80002 333 56//6 81075=
85586,2018,11,06,18,00,AAXX 06184 85586 14960 32412 10182 20104 30065 40151 55005 60001 70200 80001 333 83075=
85586,2018,11,06,21,00,AAXX 06214 85586 44960 53306 10183 20102 30055 40140 57010 70211 80001 333 85075=
85586,2018,11,07,00,00,AAXX 07004 85586 14960 50104 10149 20104 30058 40145 53003 60001 70211 80004 333 10212 85075=
85586,2018,11,07,12,00,AAXX 07124 85586 14960 00403 10154 20101 30044 40130 50006 60001 70000 80000 333 20073 30/// 55121 70000=
85586,2018,11,07,15,00,AAXX 07154 85586 44960 02707 10196 20127 30026 40115 56013 70000 80000=
85586,2018,11,07,18,00,AAXX 07184 85586 14360 12513 10180 20140 30034 40119 51003 60001 70110 81100 333 566// 81808=
85586,2018,11,07,21,00,AAXX 07214 85586 44960 02808 10167 20131 30023 40113 56007 70000 80000=
85586,2018,11,08,00,00,AAXX 08004 85586 14360 43505 10146 20128 30032 40122 53009 60001 70222 84600 333 10213 566// 84708=
85586,2018,11,08,12,00,AAXX 08121 85586 14250 5//// 10132 20114 30033 40124 53003 60001 71022 85600 333 20113 30/// 55112 566// 70000 85704=
85586,2018,11,08,15,00,AAXX 08154 85586 44360 22508 10157 20123 30038 40128 53005 70100 82100 333 566// 82808=
85586,2018,11,08,18,00,AAXX 08184 85586 14460 12709 10168 20122 30041 40131 52003 60001 70100 81100 333 566// 81810=
85586,2018,11,08,21,00,AAXX 08214 85586 44960 02708 10163 20109 30045 40135 52004 70000 80000=
85586,2018,11,09,00,00,AAXX 09004 85586 14960 1//// 10134 20102 30056 40147 53010 60001 70300 80001 333 10183 56//5 81075=
85586,2018,11,09,12,00,AAXX 09124 85586 14120 8//// 10107 20102 30057 40149 52008 60001 71022 886// 333 20060 30/// 55110 565// 70000 88702=
85586,2018,11,09,15,00,AAXX 09154 85586 44260 23006 10156 20110 30055 40145 58001 70311 81504 333 565/5 81605 82073=
85586,2018,11,09,18,00,AAXX 09184 85586 14160 72509 10153 20128 30064 40151 53005 60001 70222 85602 333 566/6 85703 85070=
85586,2018,11,09,21,00,AAXX 09214 85586 44360 82706 10147 20131 30069 40156 52004 70222 886// 333 88707=
85586,2018,11,10,00,00,AAXX 10004 85586 14460 82503 10146 20132 30075 40162 51008 60001 70222 886// 333 10174 88710=
85586,2018,11,10,12,00,AAXX 10124 85586 14250 80903 10123 20123 30061 40148 53014 60001 71022 886// 333 20098 30/// 55046 70000 88705=
85586,2018,11,10,15,00,AAXX 10154 85586 44260 72805 10166 20136 30074 40160 51014 70122 85500 333 566// 83606 83615 85640=
85586,2018,11,10,18,00,AAXX 10184 85586 14560 72708 10194 20139 30068 40153 58007 60001 70122 83800 333 566// 83825 85650=
85586,2018,11,10,21,00,AAXX 10214 85586 44660 53008 10182 20144 30059 40145 58009 70310 85831 333 567// 82835 83650 81367 81075=
85586,2018,11,11,00,00,AAXX 11004 85586 14260 43002 10150 20141 30061 40148 52002 60001 70211 84800 333 10202 567// 83706 82656=
85586,2018,11,11,12,00,AAXX 11124 85586 14560 70704 10147 20128 30068 40155 52015 60001 70222 87800 333 20107 30/// 55045 562// 70000 83820 86650=
85586,2018,11,11,15,00,AAXX 11154 85586 44660 32609 10189 20118 30071 40157 52003 70121 83800 333 566// 83835 81656=
85586,2018,11,11,18,00,AAXX 11184 85586 14660 12708 10191 20129 30068 40153 58003 60001 70110 81100 333 566// 81840=
85586,2018,11,11,21,00,AAXX 11214 85586 44460 22509 10178 20136 30056 40146 56008 70100 82100 333 566// 82812=
85586,2018,11,12,00,00,AAXX 12004 85586 14960 02604 10150 20134 30061 40152 52004 60001 70000 80000 333 10199=
85586,2018,11,12,12,00,AAXX 12124 85586 14460 40103 10159 20136 30090 40181 51023 60001 70111 84800 333 20122 30/// 55111 566// 70000 82815 84629=
85586,2018,11,12,15,00,AAXX 12154 85586 44460 22810 10180 20125 30101 40191 53011 70100 82100 333 566// 82812=
85586,2018,11,12,18,00,AAXX 12184 85586 14560 42711 10183 20132 30103 40193 53002 60001 70200 82101 333 567/7 82825 82075=
85586,2018,11,12,21,00,AAXX 12214 85586 44460 42810 10184 20129 30100 40190 58003 70200 82101 333 567/7 82818 82074=
85586,2018,11,13,00,00,AAXX 13004 85586 14460 50000 10152 20129 30110 40201 53009 60001 70200 82104 333 10195 565/5 82715 84072=
85586,2018,11,13,12,00,AAXX 13124 85586 14960 4//// 10158 20116 30117 40208 53013 60001 70200 80001 333 20087 30/// 55107 56//5 70000 84071=
85586,2018,11,13,15,00,AAXX 13154 85586 44560 32609 10184 20113 30125 40215 53008 70300 82131 333 56555 82820 81363 81071=
85586,2018,11,13,18,00,AAXX 13184 85586 14460 22414 10184 20131 30133 40219 51005 60001 70200 81101 333 566/6 81815 81075=
85586,2018,11,13,21,00,AAXX 13214 85586 44560 12509 10186 20120 30133 40219 57001 70200 81100 333 566// 81820=
85586,2018,11,14,00,00,AAXX 14004 85586 14960 02310 10153 20121 30136 40223 53004 60001 70200 80000 333 10196=
85586,2018,11,14,12,00,AAXX 14124 85586 14960 11003 10166 20103 30101 40188 54000 60001 70200 80001 333 20083 30/// 55113 56//6 70000 81075=
85586,2018,11,14,15,00,AAXX 14154 85586 44960 02414 10188 20115 30094 40180 55007 70200 80000=
85586,2018,11,14,18,00,AAXX 14184 85586 14960 12315 10207 20120 30082 40167 58012 60001 70210 80001 333 81075=
85586,2018,11,14,21,00,AAXX 14214 85586 44960 62415 10191 20126 30065 40150 56017 70321 84031 333 84367 84075=
85586,2018,11,15,00,00,AAXX 15004 85586 14960 22405 10148 20118 30068 40155 53003 60001 70110 81031 333 10210 81367 81075=
85586,2018,11,15,12,00,AAXX 15124 85586 14960 10501 10163 20111 30074 40160 51006 60001 70110 81030 333 20074 30/// 55131 70000 81367=
85586,2018,11,15,15,00,AAXX 15154 85586 44960 12609 10191 20126 30076 40161 52002 70110 81030 333 81367=
85586,2018,11,15,18,00,AAXX 15184 85586 14960 02414 10196 20120 30061 40150 58010 60001 70000 80000=
85586,2018,11,15,21,00,AAXX 15214 85586 44960 02412 10194 20136 30053 40142 55009 70000 80000=
85586,2018,11,16,00,00,AAXX 16004 85586 14960 02306 10149 20128 30061 40152 53007 60001 70000 80000 333 10209=
85586,2018,11,16,12,00,AAXX 16124 85586 14360 10403 10149 20117 30072 40163 51009 60001 70100 81100 333 20084 30/// 55119 566// 70000 81809=
85586,2018,11,16,15,00,AAXX 16154 85586 44960 02414 10168 20111 30077 40167 53005 70000 80000=
85586,2018,11,16,18,00,AAXX 16184 85586 14960 02512 10175 20114 30075 40165 57002 60001 70000 80000=
85586,2018,11,16,21,00,AAXX 16214 85586 44960 12609 10168 20111 30075 40161 58004 70110 80001 333 81075=
85586,2018,11,17,00,00,AAXX 17004 85586 14960 32804 10142 20112 30084 40175 51012 60001 70300 80001 333 10181 56//5 83075=
85586,2018,11,17,12,00,AAXX 17124 85586 14460 42005 10170 20130 30109 40199 53011 60001 70200 83501 333 20099 30/// 55124 565/5 70000 83614 81074=
85586,2018,11,17,15,00,AAXX 17154 85586 44560 22512 10179 20135 30116 40206 53006 70111 82100 333 565// 82820=
85586,2018,11,17,18,00,AAXX 17184 85586 14560 12416 10180 20100 30120 40206 50003 60001 70200 81500 333 566// 81625=
85586,2018,11,17,21,00,AAXX 17214 85586 44960 02415 10187 20118 30109 40195 57010 70200 80000=
85586,2018,11,18,00,00,AAXX 18004 85586 14960 03003 10147 20115 30110 40197 55001 60001 70200 80000 333 10197=
85586,2018,11,18,12,00,AAXX 18124 85586 14960 11506 10178 20105 30078 40164 50003 60001 70200 80001 333 20077 30/// 55123 56//6 70000 81075=
85586,2018,11,18,15,00,AAXX 18154 85586 44960 02412 10198 20114 30068 40153 56011 70200 80000=
85586,2018,11,18,18,00,AAXX 18184 85586 14960 02419 10200 20121 30050 40135 58019 60001 70000 80000=
85586,2018,11,18,21,00,AAXX 18214 85586 44960 02315 10207 20117 30036 40121 56014 70000 80000=
85586,2018,11,19,00,00,AAXX 19004 85586 14560 10000 10153 20113 30043 40129 52008 60001 70300 81100 333 10236 560// 81830=
85586,2018,11,19,12,00,AAXX 19124 85586 14960 02406 10157 20125 30055 40141 51013 60001 70000 80000 333 20082 30/// 55129 70000=
85586,2018,11,19,15,00,AAXX 19154 85586 44960 02411 10180 20116 30060 40146 53005 70000 80000=
85586,2018,11,19,18,00,AAXX 19184 85586 14960 02512 10191 20117 30054 40139 58004 60001 70000 80000=
85586,2018,11,19,21,00,AAXX 19214 85586 44960 02606 10200 20116 30040 40129 56011 70000 80000=
85586,2018,11,20,00,00,AAXX 20004 85586 14958 00408 10150 20114 30055 40146 53014 60001 70500 80000 333 10203=
85586,2018,11,20,12,00,AAXX 20124 85586 14960 2//// 10158 20114 30065 40155 51015 60001 70100 80002 333 20080 30/// 55116 56//6 70000 82074=
85586,2018,11,20,15,00,AAXX 20154 85586 44960 02707 10168 20118 30079 40169 53013 70000 80000=
85586,2018,11,20,18,00,AAXX 20184 85586 14960 02511 10188 20122 30073 40163 58005 60001 70000 80000=
85586,2018,11,20,21,00,AAXX 20214 85586 44960 02412 10194 20118 30056 40145 57018 70000 80000=
85586,2018,11,21,00,00,AAXX 21004 85586 14960 1//// 10154 20110 30061 40151 53004 60001 70300 80001 333 10200 56//5 81075=
85586,2018,11,21,12,00,AAXX 21124 85586 14960 00405 10151 20119 30080 40171 51020 60001 70011 80000 333 20080 30/// 55125 70000=
85586,2018,11,21,15,00,AAXX 21154 85586 44960 02510 10172 20126 30085 40175 53005 70000 80000=
85586,2018,11,21,18,00,AAXX 21184 85586 14960 02415 10193 20138 30086 40171 57002 60001 70200 80000=
85586,2018,11,21,21,00,AAXX 21214 85586 44360 22612 10175 20141 30088 40174 50002 70200 82600 333 566// 82707=
85586,2018,11,22,00,00,AAXX 22004 85586 14960 12507 10150 20131 30094 40181 52005 60001 70200 80001 333 10200 56//6 81075=
85586,2018,11,22,12,00,AAXX 22124 85586 14960 30503 10180 20134 30086 40172 50010 60001 70200 80002 333 20098 30/// 55112 56//6 70000 83075=
85586,2018,11,22,15,00,AAXX 22154 85586 44260 22311 10178 20136 30088 40174 50001 70200 81602 333 566/6 81706 82073=
85586,2018,11,22,18,00,AAXX 22184 85586 14560 42416 10175 20131 30075 40165 57008 69981 70210 81101 333 81820 83073=
85586,2018,11,22,21,00,AAXX 22214 85586 44960 52512 10171 20123 30074 40160 57007 70321 80001 333 85075=
85586,2018,11,23,00,00,AAXX 23004 85586 14960 30106 10144 20110 30073 40160 53000 60001 70110 80001 333 10192 83075=
85586,2018,11,23,12,00,AAXX 23124 85586 14960 30203 10161 20117 30075 40161 51018 60001 70110 80001 333 20083 30/// 55126 70008 83070=
85586,2018,11,23,15,00,AAXX 23154 85586 44959 12706 10183 20130 30077 40163 52002 70500 80001 333 81075=
85586,2018,11,23,18,00,AAXX 23184 85586 14460 22512 10189 20108 30071 40156 57006 60001 70200 82200 333 82817=
85586,2018,11,23,21,00,AAXX 23214 85586 44960 03007 10178 20100 30053 40143 56014 70000 80000=
85586,2018,11,24,00,00,AAXX 24004 85586 14960 20307 10150 20100 30058 40149 53005 60001 70100 80001 333 10199 56//6 82074=
85586,2018,11,24,12,00,AAXX 24124 85586 14960 32504 10146 20104 30056 40147 52008 60001 70100 80004 333 20068 30/// 55120 56//6 70000 83074=
85586,2018,11,24,15,00,AAXX 24154 85586 44960 12507 10186 20100 30054 40143 57001 70100 80001 333 56//6 81074=
85586,2018,11,24,18,00,AAXX 24184 85586 14960 02411 10190 20109 30048 40137 58006 60001 70000 80000=
85586,2018,11,24,21,00,AAXX 24214 85586 44960 12410 10204 20092 30035 40124 57013 70300 80001 333 56//7 81075=
85586,2018,11,25,00,00,AAXX 25004 85586 14960 20505 10143 20096 30046 40137 53008 60001 70300 80001 333 10209 56//7 82073=
85586,2018,11,25,12,00,AAXX 25124 85586 14960 23103 10146 20095 30064 40155 51011 60001 70100 80001 333 20083 30/// 55121 56//5 70000 82075=
85586,2018,11,25,15,00,AAXX 25154 85586 44960 12510 10166 20118 30060 40150 55004 70200 80001 333 56//5 81075=
85586,2018,11,25,18,00,AAXX 25184 85586 14960 02610 10177 20120 30056 40142 58008 60001 70200 80000=
85586,2018,11,25,21,00,AAXX 25214 85586 44960 02414 10179 20111 30046 40132 58011 70200 80000=
85586,2018,11,26,00,00,AAXX 26004 85586 14960 00705 10142 20103 30054 40141 53007 60001 70200 80000 333 10189=
85586,2018,11,26,12,00,AAXX 26124 85586 14260 10306 10151 20113 30080 40167 51015 60001 70200 81600 333 20104 30/// 55123 566// 70000 81706=
85586,2018,11,26,15,00,AAXX 26154 85586 44960 03007 10166 20120 30087 40173 50007 70200 80000=
85586,2018,11,26,18,00,AAXX 26184 85586 14460 12512 10172 20124 30086 40172 56001 60001 70200 81100 333 81815=
85586,2018,11,26,21,00,AAXX 26214 85586 44960 12514 10167 20108 30076 40162 56010 70200 80001 333 81075=
85586,2018,11,27,00,00,AAXX 27004 85586 14960 13602 10134 20106 30085 40172 53009 60001 70200 80001 333 10184 81075=
85586,2018,11,27,12,00,AAXX 27124 85586 14960 00000 10146 20105 30075 40158 50001 60001 70000 80000 333 20062 30/// 55128 70000=
85586,2018,11,27,15,00,AAXX 27154 85586 44958 02608 10167 20115 30066 40152 57004 70500 80000=
85586,2018,11,27,18,00,AAXX 27184 85586 14960 02512 10187 20118 30055 40144 57007 60001 70000 80000=
85586,2018,11,27,21,00,AAXX 27214 85586 44960 02413 10178 20112 30047 40137 57010 70000 80000=
85586,2018,11,28,00,00,AAXX 28004 85586 14960 00208 10136 20110 30053 40144 53006 60001 70000 80000 333 10189=
85586,2018,11,28,12,00,AAXX 28124 85586 14460 83406 10140 20114 30079 40170 51019 60001 70222 885// 333 20127 30/// 55128 566// 70000 88611=
85586,2018,11,28,15,00,AAXX 28154 85586 44360 72809 10157 20121 30081 40172 53003 70222 87800 333 566// 83808 87616=
85586,2018,11,28,18,00,AAXX 28184 85586 14360 72709 10160 20120 30080 40170 58002 60001 70222 87500 333 565// 84609 87614=
85586,2018,11,28,21,00,AAXX 28214 85586 44457 82507 10143 20111 30078 40169 57002 70522 885// 333 565// 88610=
85586,2018,11,29,00,00,AAXX 29004 85586 14457 82604 10132 20106 30081 40172 53003 60001 70522 885// 333 10170 565// 88611=
85586,2018,11,29,12,00,AAXX 29124 85586 14460 8//// 10137 20103 30104 40195 51015 60001 70222 885// 333 20125 30/// 55007 565// 79999 88614=
85586,2018,11,29,15,00,AAXX 29154 85586 44460 82607 10149 20102 30110 40201 51007 70222 885// 333 565// 88617=
85586,2018,11,29,18,00,AAXX 29184 85586 14460 22509 10167 20113 30107 40193 58007 60001 70200 82500 333 566// 82614=
85586,2018,11,29,21,00,AAXX 29214 85586 44460 72609 10148 20114 30098 40185 57009 70311 87500 333 566// 87612=
85586,2018,11,30,00,00,AAXX 30004 85586 14360 82505 10135 20114 30098 40185 54000 60001 70222 886// 333 10176 88709=
85586,2018,11,30,12,00,AAXX 30124 85586 14460 80000 10131 20107 30091 40178 51013 60001 70311 85502 333 20101 30/// 55038 566/6 70000 85610 85075=
85586,2018,11,30,15,00,AAXX 30154 85586 44960 52707 10165 20117 30084 40170 57008 70222 80002 333 56//6 85071=
85586,2018,11,30,18,00,AAXX 30184 85586 14360 72808 10152 20116 30078 40165 58006 60001 70321 83631 333 566// 83707 85367 83070=
85586,2018,11,30,21,00,AAXX 30214 85586 44360 62608 10166 20134 30070 40156 56008 70221 83731 333 566// 83707 85367 82075=
85586,2018,12,01,00,00,AAXX 01004 85586 14360 73206 10142 20126 30076 40163 53007 60001 70322 87630 333 10174 567// 87708 82367=
85586,2018,12,01,12,00,AAXX 01124 85586 14260 80304 10141 20123 30070 40157 53012 60001 70222 886// 333 20110 30/// 55067 561// 70000 88706=
85586,2018,12,01,15,00,AAXX 01154 85586 44360 32909 10178 20132 30072 40158 53001 70121 83701 333 567// 83709 81075=
85586,2018,12,01,18,00,AAXX 01184 85586 14360 73010 10178 20138 30072 40158 50000 60001 70221 87600 333 567// 87709=
85586,2018,12,01,21,00,AAXX 01214 85586 44360 83006 10162 20137 30065 40155 57005 70222 886// 333 566// 88707=
85586,2018,12,02,00,00,AAXX 02004 85586 14360 63305 10152 20132 30072 40163 53007 60001 70222 86601 333 10187 566/6 86708 81074=
85586,2018,12,02,12,00,AAXX 02124 85586 14460 83604 10155 20121 30080 40171 51011 60001 70222 888// 333 20144 30/// 55042 566// 70000 83812 88615=
85586,2018,12,02,15,00,AAXX 02154 85586 44560 52708 10170 20116 30080 40170 50001 70122 85131 333 56666 81825 85364 81074=
85586,2018,12,02,18,00,AAXX 02184 85586 14460 62609 10186 20122 30073 40162 58007 60001 70300 86500 333 565// 86616=
85586,2018,12,02,21,00,AAXX 02214 85586 44460 82708 10171 20121 30062 40152 56011 70222 885// 333 566// 88618=
85586,2018,12,03,00,00,AAXX 03004 85586 14560 33004 10153 20119 30059 40149 56003 60001 70100 81109 333 10194 566/6 81820 82173=
85586,2018,12,03,12,00,AAXX 03124 85586 14458 83203 10155 20123 30078 40169 51018 60001 70522 885// 333 20115 30/// 55054 566// 70000 88616=
85586,2018,12,03,15,00,AAXX 03154 85586 44458 82906 10164 20128 30082 40172 52005 70522 885// 333 566// 85614 88618=
85586,2018,12,03,18,00,AAXX 03184 85586 14560 82708 10167 20135 30082 40168 58004 60001 70222 885// 333 566// 85620 88626=
85586,2018,12,03,21,00,AAXX 03214 85586 44560 82606 10170 20130 30070 40156 56011 70222 885// 333 88629=
85586,2018,12,04,00,00,AAXX 04004 85586 14560 82704 10157 20130 30058 40154 54001 60001 70222 885// 333 10186 88628=
85586,2018,12,04,12,00,AAXX 04124 85586 14660 70403 10166 20118 30081 40167 53013 60001 70222 84502 333 20138 30/// 55002 566/6 70000 84640 85071=
85586,2018,12,04,15,00,AAXX 04154 85586 44660 73206 10199 20115 30087 40172 51007 70222 85501 333 566/6 85633 83075=
85586,2018,12,04,18,00,AAXX 04184 85586 14660 72405 10181 20128 30091 40177 53004 60001 70222 85630 333 566// 85640 86368=
85586,2018,12,04,21,00,AAXX 04214 85586 44560 72409 10182 20138 30084 40170 58008 70222 84830 333 566// 82820 83650 85365=
85586,2018,12,05,00,00,AAXX 05004 85586 14760 62504 10162 20135 30089 40175 53005 60001 70122 83531 333 10216 566// 83650 85365 82075=
85586,2018,12,05,12,00,AAXX 05124 85586 14960 60704 10176 20123 30074 40160 57001 60001 70222 82032 333 20126 30/// 55028 70000 82367 85070=
85586,2018,12,05,15,00,AAXX 05154 85586 44460 42413 10199 20135 30077 40162 53003 70121 82101 333 566// 82815 84075=
85586,2018,12,05,18,00,AAXX 05184 85586 14560 62414 10198 20143 30074 40159 58003 60001 70122 82101 333 565// 82820 84075=
85586,2018,12,05,21,00,AAXX 05214 85586 44960 42414 10194 20139 30064 40153 55007 70100 80004 333 56//6 84074=
85586,2018,12,06,00,00,AAXX 06004 85586 14960 43105 10153 20132 30077 40168 51013 60001 70100 80004 333 10207 56//6 84074=
85586,2018,12,06,12,00,AAXX 06124 85586 14360 83304 10156 20136 30090 40181 53015 60001 70222 885// 333 20145 30/// 55111 566// 70000 88608=
85586,2018,12,06,15,00,AAXX 06154 85586 44457 72707 10181 20143 30092 40182 50001 70522 87500 333 566// 87610=
85586,2018,12,06,18,00,AAXX 06184 85586 14457 82909 10176 20138 30093 40183 51003 60001 70522 885// 333 566// 88612=
85586,2018,12,06,21,00,AAXX 06214 85586 44458 82706 10172 20138 30093 40183 55001 70522 885// 333 566// 88612=
85586,2018,12,07,00,00,AAXX 07004 85586 14457 83003 10166 20143 30090 40180 57003 60001 70522 885// 333 10197 567// 88610=
85586,2018,12,07,12,00,AAXX 07124 85586 14440 8//// 10156 20138 30090 40181 51009 60001 71022 885// 333 20145 30/// 55016 566// 70000 84810 88613=
85586,2018,12,07,15,00,AAXX 07154 85586 44460 82805 10174 20138 30099 40189 53009 70222 885// 333 566// 85615 88620=
85586,2018,12,07,18,00,AAXX 07184 85586 14460 82808 10181 20132 30107 40193 50004 60001 70222 885// 333 566// 85618 88624=
85586,2018,12,07,21,00,AAXX 07214 85586 44560 62708 10187 20132 30099 40185 58008 70222 86500 333 566// 86624=
85586,2018,12,08,00,00,AAXX 08004 85586 14960 02803 10159 20119 30099 40186 54000 60001 70111 80000 333 10192=
85586,2018,12,08,12,00,AAXX 08124 85586 14560 10604 10175 20120 30107 40193 52009 60001 70200 81500 333 20110 30/// 55031 566// 70000 81623=
85586,2018,12,08,15,00,AAXX 08154 85586 44560 12810 10194 20120 30115 40201 53008 70200 81500 333 566// 81626=
85586,2018,12,08,18,00,AAXX 08184 85586 14560 22710 10202 20120 30112 40197 56003 60001 70110 81101 333 566// 81820 81075=
85586,2018,12,08,21,00,AAXX 08214 85586 44460 12809 10193 20133 30099 40185 58013 70200 81100 333 566// 81817=
85586,2018,12,09,00,00,AAXX 09004 85586 14560 12704 10167 20142 30093 40179 55006 60001 70200 81100 333 10211 566// 81820=
85586,2018,12,09,12,00,AAXX 09124 85586 14960 10903 10171 20110 30095 40181 53009 60001 70200 80001 333 20100 30/// 55124 70000 81075=
85586,2018,12,09,15,00,AAXX 09154 85586 44960 02413 10201 20127 30088 40173 58007 70100 80000=
85586,2018,12,09,18,00,AAXX 09184 85586 14960 02317 10203 20121 30074 40163 58010 60001 70000 80000=
85586,2018,12,09,21,00,AAXX 09214 85586 44960 02315 10195 20148 30063 40152 57010 70000 80000=
85586,2018,12,10,00,00,AAXX 10004 85586 14960 22510 10166 20145 30065 40155 53001 60001 70100 80002 333 10213 56//6 82074=
85586,2018,12,10,12,00,AAXX 10124 85586 14960 12603 10156 20114 30077 40168 52022 60001 70100 80001 333 20107 30/// 55124 56//6 70000 81074=
85586,2018,12,10,15,00,AAXX 10154 85586 44960 02409 10186 20124 30081 40171 53004 70000 80000=
85586,2018,12,10,18,00,AAXX 10184 85586 14960 32417 10194 20132 30083 40173 51003 60001 70400 80001 333 56//5 83075=
85586,2018,12,10,21,00,AAXX 10214 85586 44960 52315 10184 20142 30078 40168 56005 70300 80001 333 56//5 85075=
85586,2018,12,11,00,00,AAXX 11004 85586 14460 72607 10158 20138 30089 40180 53010 60001 70222 82104 333 10204 565/5 82810 87272=
85586,2018,12,11,12,00,AAXX 11124 85586 14960 3//// 10151 20130 30115 40206 53013 60001 70200 80001 333 20098 30/// 55117 56//5 70000 83075=
85586,2018,12,11,15,00,AAXX 11154 85586 44960 12510 10195 20135 30115 40205 55000 70100 80001 333 56//5 81075=
85586,2018,12,11,18,00,AAXX 11184 85586 14560 12414 10213 20150 30115 40200 57004 60001 70200 81500 333 566// 81620=
85586,2018,12,11,21,00,AAXX 11214 85586 44960 12315 10206 20157 30099 40184 58015 70200 80001 333 56//6 81075=
85586,2018,12,12,00,00,AAXX 12004 85586 14960 12205 10178 20136 30096 40182 55002 60001 70200 80001 333 10215 56//6 81075=
85586,2018,12,12,15,00,AAXX 12154 85586 44960 02414 10197 20130 30062 40147 56011 70200 80000=
85586,2018,12,12,18,00,AAXX 12184 85586 14960 12418 10188 20133 30061 40146 54001 60001 70200 80001 333 81070=
85586,2018,12,12,21,00,AAXX 12214 85586 44960 12414 10184 20125 30058 40144 56002 70200 80001 333 81070=
85586,2018,12,13,00,00,AAXX 13004 85586 14460 32509 10147 20117 30080 40167 53020 60001 70300 81130 333 10203 81817 83365=
85586,2018,12,13,12,00,AAXX 13124 85586 14560 20903 10152 20092 30099 40186 51018 60001 70200 81130 333 20076 30/// 55126 70000 81820 81363=
85586,2018,12,13,15,00,AAXX 13154 85586 44760 32809 10181 20085 30107 40193 51009 70200 83400 333 566// 83650=
85586,2018,12,13,18,00,AAXX 13184 85586 14560 22610 10191 20100 30113 40199 52006 60001 70200 82101 333 566// 82825 81075=
85586,2018,12,13,21,00,AAXX 13214 85586 44960 02411 10182 20102 30102 40192 56007 70000 80000=
85586,2018,12,14,00,00,AAXX 14004 85586 14960 02205 10158 20108 30113 40204 53011 60001 70000 80000 333 10198=
85586,2018,12,14,12,00,AAXX 14124 85586 14960 2//// 10173 20108 30112 40202 52008 60001 70100 80001 333 20080 30/// 55115 56//6 70000 82074=
85586,2018,12,14,15,00,AAXX 14154 85586 44960 62315 10191 20113 30101 40191 56011 70111 80004 333 56//6 86074=
85586,2018,12,14,18,00,AAXX 14184 85586 14960 72317 10188 20105 30095 40185 55005 60001 70222 80008 333 56//5 87275=
85586,2018,12,14,21,00,AAXX 14214 85586 44960 62314 10179 20106 30091 40181 58005 70222 80008 333 56//5 86274=
85586,2018,12,15,00,00,AAXX 15004 85586 14960 32303 10157 20105 30093 40184 53003 60001 70122 80001 333 10200 56//5 83073=
85586,2018,12,15,12,00,AAXX 15124 85586 14960 02703 10153 20109 30093 40184 52016 60001 70000 80000 333 20072 30/// 55120 70000=
85586,2018,12,15,15,00,AAXX 15154 85586 44960 02409 10183 20112 30093 40183 57001 70000 80000=
85586,2018,12,15,18,00,AAXX 15184 85586 14960 02415 10183 20115 30088 40174 58008 60001 70200 80000=
85586,2018,12,15,21,00,AAXX 15214 85586 44960 02413 10179 20108 30074 40160 58015 70200 80000=
85586,2018,12,16,00,00,AAXX 16004 85586 14960 00204 10152 20106 30075 40162 53001 60001 70200 80000 333 10193=
85586,2018,12,16,12,00,AAXX 16124 85586 14960 00000 10152 20098 30084 40171 52012 60001 70200 80000 333 20079 30/// 55127 70000=
85586,2018,12,16,15,00,AAXX 16154 85586 44960 02608 10166 20112 30083 40169 54000 70200 80000=
85586,2018,12,16,18,00,AAXX 16184 85586 14960 02415 10178 20132 30076 40162 58006 60001 70100 80000=
85586,2018,12,16,21,00,AAXX 16214 85586 44960 02810 10171 20129 30060 40146 58017 70000 80000=
85586,2018,12,17,00,00,AAXX 17004 85586 14460 12904 10158 20131 30057 40143 55003 60001 70200 81500 333 10187 567// 81612=
85586,2018,12,17,12,00,AAXX 17124 85586 14360 50107 10156 20131 30061 40147 52012 60001 70122 85600 333 20129 30/// 55128 561// 70000 85708=
85586,2018,12,17,15,00,AAXX 17154 85586 44260 73409 10167 20135 30073 40159 51012 70222 87600 333 87706=
85586,2018,12,17,18,00,AAXX 17184 85586 14350 82909 10166 20136 30070 40160 50002 60001 70522 886// 333 566// 88707=
85586,2018,12,17,21,00,AAXX 17214 85586 44360 22808 10167 20131 30065 40155 58005 70122 82101 333 566// 81809 82074=
85586,2018,12,18,00,00,AAXX 18004 85586 14460 13004 10147 20126 30066 40157 53001 60001 70100 81100 333 10179 566// 81811=
85586,2018,12,18,12,00,AAXX 18124 85586 14240 70105 10143 20122 30053 40144 51017 60001 71022 87600 333 20095 30/// 55045 566// 70000 87706=
85586,2018,12,18,15,00,AAXX 18154 85586 44360 62908 10168 20134 30060 40150 52007 70111 86600 333 566// 86707=
85586,2018,12,18,18,00,AAXX 18184 85586 14358 62911 10178 20140 30058 40148 55002 60001 70511 86500 333 566// 86609=
85586,2018,12,18,21,00,AAXX 18214 85586 44350 83006 10167 20138 30062 40152 53004 70522 885// 333 566// 88609=
85586,2018,12,19,00,00,AAXX 19004 85586 14457 82605 10160 20133 30068 40158 53006 60001 70522 885// 333 10195 566// 88612=
85586,2018,12,19,12,00,AAXX 19124 85586 14457 82404 10149 20119 30080 40171 53013 60001 70522 885// 333 20143 30/// 55060 565// 70000 88612=
85586,2018,12,19,15,00,AAXX 19154 85586 44460 82407 10152 20122 30091 40182 53011 70222 885// 333 565// 88612=
85586,2018,12,19,18,00,AAXX 19184 85586 14460 62609 10172 20116 30092 40178 58003 60001 70222 86500 333 566// 86616=
85586,2018,12,19,21,00,AAXX 19214 85586 44560 42909 10173 20116 30087 40173 58005 70311 84500 333 566// 84620=
85586,2018,12,20,00,00,AAXX 20004 85586 14460 72607 10150 20123 30091 40178 53004 60001 70222 87500 333 10184 566// 87616=
85586,2018,12,20,12,00,AAXX 20124 85586 14460 82105 10142 20117 30082 40169 53004 60001 70222 885// 333 20102 30/// 55022 70000 88610=
85586,2018,12,20,15,00,AAXX 20154 85586 44560 12803 10184 20122 30079 40165 58002 70111 81500 333 566// 81623=
85586,2018,12,20,18,00,AAXX 20184 85586 14960 32313 10176 20119 30071 40157 55009 60001 70110 80001 333 83075=
85586,2018,12,20,21,00,AAXX 20214 85586 44960 02513 10180 20123 30057 40143 58013 70100 80000=
85586,2018,12,21,00,00,AAXX 21004 85586 14960 00305 10155 20117 30057 40143 55001 60001 70000 80000 333 10192=
85586,2018,12,21,12,00,AAXX 21124 85586 14260 32802 10148 20125 30048 40135 51007 60001 70211 83600 333 20085 30/// 55089 70000 83705=
85586,2018,12,21,15,00,AAXX 21154 85586 44235 22807 10167 20124 30048 40134 54000 70541 82600 333 566// 82704=
85586,2018,12,21,18,00,AAXX 21184 85586 14260 62709 10164 20134 30050 40136 50002 60001 70222 86600 333 566// 86706=
85586,2018,12,21,21,00,AAXX 21214 85586 44356 82608 10152 20127 30050 40140 52004 70522 886// 333 566// 88707=
85586,2018,12,22,00,00,AAXX 22004 85586 14458 82605 10146 20121 30062 40153 53010 60001 70522 885// 333 10181 566// 88610=
85586,2018,12,22,12,00,AAXX 22124 85586 14457 82404 10149 20117 30085 40176 53007 60001 70522 885// 333 20141 30/// 55058 566// 70000 88615=
85586,2018,12,22,15,00,AAXX 22154 85586 44460 82605 10167 20129 30097 40187 51012 70222 885// 333 566// 84615 88617=
85586,2018,12,22,18,00,AAXX 22184 85586 14460 82309 10170 20126 30100 40190 50004 60001 70222 888// 333 566// 83611 88624=
85586,2018,12,22,21,00,AAXX 22214 85586 44560 12412 10172 20122 30088 40178 58012 70100 81100 333 566// 81820=
85586,2018,12,23,00,00,AAXX 23004 85586 14460 52308 10145 20119 30086 40177 55003 60001 70222 85500 333 10187 566// 85611=
85586,2018,12,23,12,00,AAXX 23124 85586 14360 8//// 10139 20118 30078 40165 50004 60001 70222 886// 333 20133 30/// 55046 70000 88709=
85586,2018,12,23,15,00,AAXX 23154 85586 44360 42509 10172 20128 30073 40159 56007 70311 84600 333 566// 84708=
85586,2018,12,23,18,00,AAXX 23184 85586 14260 72409 10162 20132 30068 40154 58014 60001 70311 87600 333 566// 87706=
85586,2018,12,23,21,00,AAXX 23214 85586 44260 82707 10150 20131 30053 40140 57015 70222 886// 333 88705=
85586,2018,12,24,00,00,AAXX 24004 85586 14360 83007 10151 20132 30049 40135 55004 60001 70222 886// 333 10175 88708=
85586,2018,12,24,12,00,AAXX 24124 85586 143// 83204 10143 20127 30037 40124 53011 60001 70222 886// 333 20138 30/// 55032 70000 88707=
85586,2018,12,24,15,00,AAXX 24154 85586 44460 42809 10174 20136 30038 40124 52002 70111 84500 333 566// 84610=
85586,2018,12,24,18,00,AAXX 24184 85586 14457 73009 10183 20139 30035 40124 50000 60001 70522 87500 333 567// 87610=
85586,2018,12,24,21,00,AAXX 24214 85586 44358 83007 10172 20149 30027 40117 57007 70522 885// 333 566// 88608=
85586,2018,12,25,00,00,AAXX 25004 85586 14360 83006 10163 20142 30030 40120 53003 60001 70222 885// 333 10196 567// 88609=
85586,2018,12,25,12,00,AAXX 25124 85586 14340 82403 10149 20138 30037 40127 52013 60001 71022 886// 333 20145 30/// 55030 565// 70000 88707=
85586,2018,12,25,15,00,AAXX 25154 85586 44460 82606 10166 20134 30047 40137 53010 70222 885// 333 565// 84610 88615=
85586,2018,12,25,18,00,AAXX 25184 85586 14460 62608 10191 20142 30043 40132 57004 60001 70222 86500 333 565// 86613=
85586,2018,12,25,21,00,AAXX 25214 85586 44460 32809 10187 20136 30033 40122 56010 70211 83100 333 567// 83814=
85586,2018,12,26,00,00,AAXX 26004 85586 14460 82605 10164 20135 30043 40133 53010 60001 70222 885// 333 10199 567// 88613=
85586,2018,12,26,12,00,AAXX 26121 85586 14360 8//// 10149 20133 30054 40145 51012 60001 70222 887// 333 20145 30/// 55053 560// 70000 88708=
85586,2018,12,26,15,00,AAXX 26154 85586 44460 82406 10167 20127 30066 40152 53008 70252 885// 333 566// 88612=
85586,2018,12,26,18,00,AAXX 26184 85586 14560 72513 10183 20136 30076 40158 52006 60001 70222 87500 333 566// 87621=
85586,2018,12,26,21,00,AAXX 26214 85586 44460 12610 10176 20132 30054 40144 58014 70100 81500 333 566// 81616=
85586,2018,12,27,00,00,AAXX 27004 85586 14960 02307 10166 20132 30054 40144 55002 60001 70000 80000 333 10190=
85586,2018,12,27,12,00,AAXX 27124 85586 14957 0//// 10157 20121 30053 40143 51009 60001 70500 80000 333 20090 30/// 55050 70000=
85586,2018,12,27,15,00,AAXX 27154 85586 44960 02509 10183 20119 30053 40143 52001 70000 80000=
85586,2018,12,27,18,00,AAXX 27184 85586 14960 02517 10184 20131 30054 40139 58003 60001 70200 80000=
85586,2018,12,27,21,00,AAXX 27214 85586 44960 02515 10178 20132 30041 40127 58012 70200 80000=
85586,2018,12,28,00,00,AAXX 28004 85586 14960 00000 10156 20120 30039 40125 55002 60001 70200 80000 333 10193=
85586,2018,12,28,12,00,AAXX 28124 85586 14360 82803 10143 20120 30055 40142 53016 60001 70211 886// 333 20098 30/// 55125 70000 88709=
85586,2018,12,28,15,00,AAXX 28154 85586 44260 72808 10148 20125 30059 40146 51006 70222 87600 333 566// 87704=
85586,2018,12,28,18,00,AAXX 28184 85586 14360 42710 10166 20126 30051 40137 58008 60001 70211 84600 333 566// 84709=
85586,2018,12,28,21,00,AAXX 28214 85586 44960 02710 10171 20123 30038 40124 58011 70200 80000=
85586,2018,12,29,00,00,AAXX 29004 85586 14960 02605 10152 20116 30046 40132 53008 60001 70200 80000 333 10178=
85586,2018,12,29,12,00,AAXX 29124 85586 14960 00303 10145 20108 30073 40160 53021 60001 70200 80000 333 20089 30/// 55081 70000=
85586,2018,12,29,15,00,AAXX 29154 85586 44960 02509 10174 20108 30084 40170 52011 70200 80000=
85586,2018,12,29,18,00,AAXX 29184 85586 14960 02417 10186 20120 30089 40179 52009 60001 70020 80000=
85586,2018,12,29,21,00,AAXX 29214 85586 44960 02316 10192 20118 30074 40164 58015 70000 80000=
85586,2018,12,30,00,00,AAXX 30004 85586 14960 02309 10166 20112 30078 40168 53004 60001 70000 80000 333 10201=
85586,2018,12,30,12,00,AAXX 30124 85586 14960 00304 10171 20105 30056 40146 51013 60001 70000 80000 333 20093 30/// 55126 70000=
85586,2018,12,30,15,00,AAXX 30154 85586 44960 02512 10178 20121 30057 40147 52001 70000 80000=
85586,2018,12,30,18,00,AAXX 30184 85586 14960 02416 10188 20122 30054 40139 57004 60001 70000 80000=
85586,2018,12,30,21,00,AAXX 30214 85586 44960 02414 10188 20105 30029 40114 58024 70000 80000=
85586,2018,12,31,00,00,AAXX 31004 85586 14960 02404 10153 20099 30036 40122 53006 60001 70000 80000 333 10198=
85586,2018,12,31,12,00,AAXX 31124 85586 14960 00402 10153 20103 30046 40132 52014 60001 70000 80000 333 20070 30/// 55124 70000=
85586,2018,12,31,15,00,AAXX 31154 85586 44958 02707 10167 20104 30049 40135 52003 70500 80000=
85586,2018,12,31,18,00,AAXX 31184 85586 14960 02412 10173 20116 30043 40133 55002 60001 70000 80000=
85586,2018,12,31,21,00,AAXX 31214 85586 44960 02414 10187 20109 30021 40110 58021 70000 80000=
