85586,2003,01,01,00,00,AAXX 01004 85586 NIL=
85586,2003,01,01,03,00,AAXX 01034 85586 NIL=
85586,2003,01,01,06,00,AAXX 01064 85586 NIL=
85586,2003,01,01,09,00,AAXX 01094 85586 NIL=
85586,2003,01,01,12,00,AAXX 01124 85586 31320 32905 10162 20134 40147 52/// 7100/ 83600 333 20093 30/// 50410 55098 56700 83707=
85586,2003,01,01,15,00,AAXX 01154 85586 41358 12709 10171 20129 40152 52005 70500 81600 333 56700 81707=
85586,2003,01,01,18,00,AAXX 01184 85586 32960 02512 10189 20127 40153 50001=
85586,2003,01,01,21,00,AAXX 01214 85586 42960 02618 10183 20127 40142 57011=
85586,2003,01,02,00,00,AAXX 02004 85586 NIL=
85586,2003,01,02,03,00,AAXX 02034 85586 NIL=
85586,2003,01,02,06,00,AAXX 02064 85586 NIL=
85586,2003,01,02,09,00,AAXX 02094 85586 NIL=
85586,2003,01,02,12,00,AAXX 02124 85586 31450 83108 10141 20116 40155 52/// 7052/ 885// 333 20129 30/// 50400 55124 56799 88612=
85586,2003,01,02,15,00,AAXX 02154 85586 41458 83006 10162 20121 40157 50003 70522 885// 333 56799 88614=
85586,2003,01,02,18,00,AAXX 02184 85586 32565 42612 10183 20120 40148 58009 84500 333 56700 84620=
85586,2003,01,02,21,00,AAXX 02214 85586 41540 82806 10165 20127 40144 57004 70522 885// 333 56799 88620=
85586,2003,01,03,00,00,AAXX 03004 85586 NIL=
85586,2003,01,03,03,00,AAXX 03034 85586 NIL=
85586,2003,01,03,06,00,AAXX 03064 85586 NIL=
85586,2003,01,03,09,00,AAXX 03094 85586 NIL=
85586,2003,01,03,10,00,AAXX 04214 85586 42460 63106 10163 20124 40153 57007 86500 333 56700 86615=
85586,2003,01,03,12,00,AAXX 03124 85586 31357 83603 10136 20122 40157 7052/ 886// 333 20133 30/// 50180 55037 56699 88708=
85586,2003,01,03,15,00,AAXX 03154 85586 42460 52710 10169 20128 40152 58004 85500 333 56700 85617=
85586,2003,01,03,18,00,AAXX 03184 85586 32460 53208 10163 20124 40155 53003 85500 333 56700 85615=
85586,2003,01,03,21,00,AAXX 03214 85586 42460 32806 10170 20133 40151 58004 83500 333 56700 83615=
85586,2003,01,04,00,00,AAXX 04004 85586 NIL=
85586,2003,01,04,03,00,AAXX 04034 85586 NIL=
85586,2003,01,04,06,00,AAXX 04064 85586 NIL=
85586,2003,01,04,09,00,AAXX 04094 85586 NIL=
85586,2003,01,04,12,00,AAXX 04124 85586 32460 73605 10151 20116 40162 52/// 87500 333 20122 30/// 50240 55069 56700 87615=
85586,2003,01,04,15,00,AAXX 04154 85586 42460 33009 10171 20127 40160 54001 83500 333 56700 83615=
85586,2003,01,04,18,00,AAXX 04184 85586 32460 52712 10179 20130 40160 54000 85500 333 56700 85615=
85586,2003,01,04,21,00,AAXX 04214 85586 42460 63106 10163 20124 40153 57007 86500 333 56700 86615=
85586,2003,01,05,00,00,AAXX 05004 85586 NIL=
85586,2003,01,05,03,00,AAXX 05034 85586 NIL=
85586,2003,01,05,06,00,AAXX 05064 85586 NIL=
85586,2003,01,05,09,00,AAXX 05094 85586 NIL=
85586,2003,01,05,12,00,AAXX 05124 85586 32460 40000 10152 20122 40155 51/// 84500 333 20137 30/// 50430 55079 56700 84615=
85586,2003,01,05,15,00,AAXX 05154 85586 42960 02610 10178 20126 40152 55002=
85586,2003,01,05,18,00,AAXX 05184 85586 32960 02810 10193 20124 40146 58006=
85586,2003,01,05,21,00,AAXX 05214 85586 42960 02909 10194 20140 40140 57006=
85586,2003,01,06,00,00,AAXX 06004 85586 NIL=
85586,2003,01,06,03,00,AAXX 06034 85586 NIL=
85586,2003,01,06,06,00,AAXX 06064 85586 NIL=
85586,2003,01,06,09,00,AAXX 06094 85586 NIL=
85586,2003,01,06,12,00,AAXX 06124 85586 31340 80304 10156 20133 40139 52/// 7052/ 886// 333 20132 30/// 50460 55112 56799 88707=
85586,2003,01,06,15,00,AAXX 06154 85586 41456 83112 10177 20137 40144 51005 70522 885// 333 56799 88615=
85586,2003,01,06,18,00,AAXX 06184 85586 31458 83012 10188 20140 40151 53007 70522 885// 333 56799 88616=
85586,2003,01,06,21,00,AAXX 06214 85586 42460 83212 10183 20143 40149 58002 885// 333 56799 88617=
85586,2003,01,07,00,00,AAXX 07004 85586 NIL=
85586,2003,01,07,03,00,AAXX 07034 85586 NIL=
85586,2003,01,07,06,00,AAXX 07064 85586 NIL=
85586,2003,01,07,09,00,AAXX 07094 85586 NIL=
85586,2003,01,07,12,00,AAXX 07124 85586 32560 82802 10164 20130 40171 53/// 885// 333 20158 50240 55000 56999 88623=
85586,2003,01,07,15,00,AAXX 07154 85586 42560 73007 10177 20132 40177 52006 87500 333 56600 87625=
85586,2003,01,07,18,00,AAXX 07184 85586 32560 12312 10194 20139 40180 52003 81500 333 56600 81625=
85586,2003,01,07,21,00,AAXX 07214 85586 42960 02508 10190 20147 40173 58007=
85586,2003,01,08,00,00,AAXX 08004 85586 NIL=
85586,2003,01,08,03,00,AAXX 08034 85586 NIL=
85586,2003,01,08,06,00,AAXX 08064 85586 NIL=
85586,2003,01,08,09,00,AAXX 08094 85586 NIL=
85586,2003,01,08,12,00,AAXX 08124 85586 32960 00000 10149 20130 40145 53/// 333 20090 30/// 50330 55076=
85586,2003,01,08,15,00,AAXX 08154 85586 42960 02409 10181 20129 40161 52017=
85586,2003,01,08,18,00,AAXX 08184 85586 32960 02412 10189 20142 40165 52004=
85586,2003,01,08,21,00,AAXX 08214 85586 42460 12408 10188 20142 40157 58008 81500 333 56600 81617=
85586,2003,01,09,00,00,AAXX 09004 85586 NIL=
85586,2003,01,09,03,00,AAXX 09034 85586 NIL=
85586,2003,01,09,06,00,AAXX 09064 85586 NIL=
85586,2003,01,09,09,00,AAXX 09094 85586 NIL=
85586,2003,01,09,12,00,AAXX 09124 85586 31240 62204 10152 20130 40147 52/// 7050/ 86600 333 20088 30/// 50430 55125 56700 86706=
85586,2003,01,09,15,00,AAXX 09154 85586 41940 02706 10186 20134 40143 50003 74122=
85586,2003,01,09,18,00,AAXX 09184 85586 32965 12710 10212 20143 40141 54000 80001 333 56006 81075=
85586,2003,01,09,21,00,AAXX 09214 85586 42965 02512 10214 20138 40131 58010=
85586,2003,01,10,00,00,AAXX 10004 85586 NIL=
85586,2003,01,10,03,00,AAXX 10034 85586 NIL=
85586,2003,01,10,06,00,AAXX 10064 85586 NIL=
85586,2003,01,10,09,00,AAXX 10094 85586 NIL=
85586,2003,01,10,12,00,AAXX 10124 85586 32965 00000 10173 20131 40156 52/// 333 20099 30/// 50460 55110=
85586,2003,01,10,15,00,AAXX 10154 85586 42960 02818 10184 20132 40162 52006=
85586,2003,01,10,18,00,AAXX 10184 85586 32960 02425 10202 20113 40158 50003=
85586,2003,01,10,21,00,AAXX 10214 85586 42965 02520 10178 20116 40157 50002=
85586,2003,01,11,00,00,AAXX 11004 85586 NIL=
85586,2003,01,11,03,00,AAXX 11034 85586 NIL=
85586,2003,01,11,06,00,AAXX 11064 85586 NIL=
85586,2003,01,11,09,00,AAXX 11094 85586 NIL=
85586,2003,01,11,12,00,AAXX 11124 85586 32960 00000 10159 20132 40157 53/// 333 20075 30/// 50400 55126=
85586,2003,01,11,15,00,AAXX 11154 85586 42960 03004 10185 20135 40162 52005=
85586,2003,01,11,18,00,AAXX 11184 85586 32970 03015 10197 20135 40166 52005=
85586,2003,01,11,21,00,AAXX 11214 85586 42965 02910 10183 20126 40158 58009=
85586,2003,01,12,00,00,AAXX 12004 85586 NIL=
85586,2003,01,12,03,00,AAXX 12034 85586 NIL=
85586,2003,01,12,06,00,AAXX 12064 85586 NIL=
85586,2003,01,12,09,00,AAXX 12094 85586 NIL=
85586,2003,01,12,12,00,AAXX 12124 85586 32960 00000 10147 20128 40146 53/// 333 20082 30/// 50380 55124=
85586,2003,01,12,15,00,AAXX 12154 85586 42960 03005 10206 20130 40138 58005=
85586,2003,01,12,18,00,AAXX 12184 85586 32960 02513 10207 20133 40133 57005=
85586,2003,01,12,21,00,AAXX 12214 85586 42960 02410 10202 20151 40122 57012=
85586,2003,01,13,00,00,AAXX 13004 85586 NIL=
85586,2003,01,13,03,00,AAXX 13034 85586 NIL=
85586,2003,01,13,06,00,AAXX 13064 85586 NIL=
85586,2003,01,13,09,00,AAXX 13094 85586 NIL=
85586,2003,01,13,12,00,AAXX 13124 85586 31340 80504 10143 20122 40140 52/// 7052/ 886// 333 20119 30/// 50400 55124 56799 88607=
85586,2003,01,13,15,00,AAXX 13154 85586 41320 83308 10153 20134 40152 52012 74022 886// 333 56799 88607=
85586,2003,01,13,18,00,AAXX 13184 85586 31340 82907 10162 20140 40156 51005 70522 886// 333 56799 88608=
85586,2003,01,13,21,00,AAXX 13214 85586 41340 82604 10161 20148 40149 58007 71022 886// 333 56799 88607=
85586,2003,01,14,00,00,AAXX 14004 85586 NIL=
85586,2003,01,14,03,00,AAXX 14034 85586 NIL=
85586,2003,01,14,06,00,AAXX 14064 85586 NIL=
85586,2003,01,14,09,00,AAXX 14094 85586 NIL=
85586,2003,01,14,12,00,AAXX 14124 85586 31220 80000 10145 20131 40159 51/// 7102/ 886// 333 20138 30/// 50210 55011 56099 88606=
85586,2003,01,14,15,00,AAXX 14154 85586 41220 82905 10159 20146 40160 53003 71022 886// 333 56799 88606=
85586,2003,01,14,18,00,AAXX 14184 85586 31240 83005 10154 20133 40173 52012 70522 886// 333 56799 88607=
85586,2003,01,14,21,00,AAXX 14214 85586 41220 83310 10161 20149 40166 58006 71022 886// 333 56799 88708=
85586,2003,01,15,00,00,AAXX 15004 85586 NIL=
85586,2003,01,15,03,00,AAXX 15034 85586 NIL=
85586,2003,01,15,06,00,AAXX 15064 85586 NIL=
85586,2003,01,15,09,00,AAXX 15094 85586 NIL=
85586,2003,01,15,12,00,AAXX 15124 85586 31458 80000 10141 20130 40163 53/// 7102/ 886// 333 20135 30/// 50240 55002 56699 88710=
85586,2003,01,15,15,00,AAXX 15154 85586 42960 02907 10184 20129 40160 54002=
85586,2003,01,15,18,00,AAXX 15184 85586 32260 32907 10182 20128 40163 53003 83600 333 56600 83704=
85586,2003,01,15,21,00,AAXX 15214 85586 42260 22908 10170 20137 40160 57003 82600 333 56600 82705=
85586,2003,01,16,00,00,AAXX 16004 85586 NIL=
85586,2003,01,16,03,00,AAXX 16034 85586 NIL=
85586,2003,01,16,06,00,AAXX 16064 85586 NIL=
85586,2003,01,16,09,00,AAXX 16094 85586 NIL=
85586,2003,01,16,12,00,AAXX 16124 85586 32460 73605 10146 20131 40164 52/// 87700 333 20105 30/// 50290 55093 56700 88710=
85586,2003,01,16,15,00,AAXX 16154 85586 42460 42808 10171 20132 40172 52009 84600 333 56700 84710=
85586,2003,01,16,18,00,AAXX 16184 85586 32460 62909 10183 20151 40172 54000 86600 333 56700 86710=
85586,2003,01,16,21,00,AAXX 16214 85586 42460 52808 10188 20149 40166 57006 85600 333 56700 85710=
85586,2003,01,17,00,00,AAXX 17004 85586 NIL=
85586,2003,01,17,03,00,AAXX 17034 85586 NIL=
85586,2003,01,17,06,00,AAXX 17064 85586 NIL=
85586,2003,01,17,09,00,AAXX 17094 85586 NIL=
85586,2003,01,17,12,00,AAXX 17124 85586 31240 30603 10147 20137 40190 51/// 7104/ 83600 333 20101 30/// 50360 55064 56700 83705=
85586,2003,01,17,15,00,AAXX 17154 85586 42960 02505 10205 20142 40190 50002=
85586,2003,01,17,18,00,AAXX 17184 85586 32965 02420 10211 20114 40184 58005=
85586,2003,01,17,21,00,AAXX 17214 85586 42970 02218 10199 20102 40166 57019=
85586,2003,01,18,00,00,AAXX 18004 85586 NIL=
85586,2003,01,18,03,00,AAXX 18034 85586 NIL=
85586,2003,01,18,06,00,AAXX 18064 85586 NIL=
85586,2003,01,18,09,00,AAXX 18094 85586 NIL=
85586,2003,01,18,12,00,AAXX 18124 85586 31256 13206 10151 20123 40162 52/// 7050/ 81600 333 20084 30/// 50480 55117 56700 81706=
85586,2003,01,18,15,00,AAXX 18154 85586 41958 03114 10178 20129 40175 52014 70500=
85586,2003,01,18,18,00,AAXX 18184 85586 32960 02809 10193 20132 40177 50002=
85586,2003,01,18,21,00,AAXX 18214 85586 42965 02712 10183 20122 40171 57006=
85586,2003,01,19,00,00,AAXX 19004 85586 NIL=
85586,2003,01,19,03,00,AAXX 19034 85586 NIL=
85586,2003,01,19,06,00,AAXX 19064 85586 NIL=
85586,2003,01,19,09,00,AAXX 19094 85586 NIL=
85586,2003,01,19,12,00,AAXX 19124 85586 32960 01202 10140 20115 40195 53/// 333 10048 30/// 50400 55125=
85586,2003,01,19,15,00,AAXX 19154 85586 42960 02508 10202 20113 40190 58004=
85586,2003,01,19,18,00,AAXX 19184 85586 32960 02512 10203 20134 40187 54002=
85586,2003,01,19,21,00,AAXX 19214 85586 42960 02411 10202 20148 40175 57012=
85586,2003,01,20,00,00,AAXX 20004 85586 NIL=
85586,2003,01,20,03,00,AAXX 20034 85586 NIL=
85586,2003,01,20,06,00,AAXX 20064 85586 NIL=
85586,2003,01,20,09,00,AAXX 20094 85586 NIL=
85586,2003,01,20,12,00,AAXX 20124 85586 31230 70801 10166 20159 40188 53/// 7102/ 86601 333 20158 30/// 50430 55128 56606 86705=
85586,2003,01,20,15,00,AAXX 20154 85586 41230 73009 10184 20170 40193 52005 76142 82670 333 56760 82705 85362=
85586,2003,01,20,18,00,AAXX 20184 85586 11460 63104 10199 20166 40203 52010 69941 70264 82571 333 56666 82617 83363=
85586,2003,01,20,21,00,AAXX 20214 85586 42460 73106 10188 20142 40200 58003 81571 333 56666 81617 85363=
85586,2003,01,21,00,00,AAXX 21004 85586 NIL=
85586,2003,01,21,03,00,AAXX 21034 85586 NIL=
85586,2003,01,21,06,00,AAXX 21064 85586 NIL=
85586,2003,01,21,09,00,AAXX 21094 85586 NIL=
85586,2003,01,21,12,00,AAXX 21124 85586 11208 80000 10170 20160 40184 52/// 60014 7424/ 886// 333 20164 31/// 50310 55035 56799 70010 88705=
85586,2003,01,21,15,00,AAXX 21154 85586 41560 62810 10216 20163 40182 54000 70142 81131 333 56766 81820 84357=
85586,2003,01,21,18,00,AAXX 21184 85586 32960 72515 10204 20148 40181 58002 80031 333 56076 83360 84075=
85586,2003,01,21,21,00,AAXX 21214 85586 42965 72509 10183 20147 40172 57010 87030 333 56070 87360=
85586,2003,01,22,00,00,AAXX 22004 85586 NIL=
85586,2003,01,22,03,00,AAXX 22034 85586 NIL=
85586,2003,01,22,06,00,AAXX 22064 85586 NIL=
85586,2003,01,22,09,00,AAXX 22094 85586 NIL=
85586,2003,01,22,12,00,AAXX 22124 85586 12960 71004 10173 20142 40169 53/// 69904 87030 333 20141 30/// 50320 55036 56070 70000 87360=
85586,2003,01,22,15,00,AAXX 22154 85586 42960 62710 10209 20132 40175 52008 81130 333 56770 81820 86360=
85586,2003,01,22,18,00,AAXX 22184 85586 32565 12322 10203 20140 40181 52005 81100 333 56700 81820=
85586,2003,01,22,21,00,AAXX 22214 85586 42565 12518 10198 20126 40181 55000 81100 333 56700 81820=
85586,2003,01,23,00,00,AAXX 23004 85586 NIL=
85586,2003,01,23,03,00,AAXX 23034 85586 NIL=
85586,2003,01,23,06,00,AAXX 23064 85586 NIL=
85586,2003,01,23,09,00,AAXX 23094 85586 NIL=
85586,2003,01,23,12,00,AAXX 23124 85586 32960 01607 10192 20089 40180 53/// 333 20112 30/// 50380 55084=
85586,2003,01,23,15,00,AAXX 23154 85586 42960 01206 10273 20110 40167 58010=
85586,2003,01,23,18,00,AAXX 23184 85586 32960 02517 10248 20113 40150 57017=
85586,2003,01,23,21,00,AAXX 23214 85586 42960 02512 10248 20121 40132 57018=
85586,2003,01,24,00,00,AAXX 24004 85586 NIL=
85586,2003,01,24,03,00,AAXX 24034 85586 NIL=
85586,2003,01,24,06,00,AAXX 24064 85586 NIL=
85586,2003,01,24,09,00,AAXX 24094 85586 NIL=
85586,2003,01,24,12,00,AAXX 24124 85586 32960 02903 10169 20100 40113 53/// 333 20098 30/// 50440 55132=
85586,2003,01,24,15,00,AAXX 24154 85586 NIL=
85586,2003,01,24,18,00,AAXX 24184 85586 32960 03109 10184 20123 40133 52013=
85586,2003,01,24,21,00,AAXX 24214 85586 42960 03008 10185 20120 40123 58010=
85586,2003,01,25,00,00,AAXX 25004 85586 NIL=
85586,2003,01,25,03,00,AAXX 25034 85586 NIL=
85586,2003,01,25,06,00,AAXX 25064 85586 NIL=
85586,2003,01,25,09,00,AAXX 25094 85586 NIL=
85586,2003,01,25,12,00,AAXX 25124 85586 32960 03203 10167 20139 40156 52/// 333 20140 30/// 50400 55127=
85586,2003,01,25,15,00,AAXX 25154 85586 42460 22907 10189 20142 40175 52019 82600 333 56700 82712=
85586,2003,01,25,18,00,AAXX 25184 85586 32960 02709 10199 20149 40172 54002=
85586,2003,01,25,21,00,AAXX 25214 85586 42460 13107 10198 20155 40159 57013 81500 333 56700 81617=
85586,2003,01,26,00,00,AAXX 26004 85586 NIL=
85586,2003,01,26,03,00,AAXX 26034 85586 NIL=
85586,2003,01,26,06,00,AAXX 26064 85586 NIL=
85586,2003,01,26,09,00,AAXX 26094 85586 NIL=
85586,2003,01,26,12,00,AAXX 26124 85586 31220 81204 10146 20130 40153 52/// 7102/ 826// 333 20136 30/// 50430 55115=
85586,2003,01,26,15,00,AAXX 26154 85586 41220 82908 10172 20144 40155 51003 71022 886// 333 56799 88706=
85586,2003,01,26,18,00,AAXX 26184 85586 32260 12707 10183 20135 40148 50007 81500 333 56700 81612=
85586,2003,01,26,21,00,AAXX 26214 85586 41440 82710 10166 20145 40138 57010 70522 885// 333 56799 88612=
85586,2003,01,27,00,00,AAXX 27004 85586 NIL=
85586,2003,01,27,03,00,AAXX 27034 85586 NIL=
85586,2003,01,27,06,00,AAXX 27064 85586 NIL=
85586,2003,01,27,09,00,AAXX 27094 85586 NIL=
85586,2003,01,27,12,00,AAXX 27124 85586 31956 00000 10173 20145 40135 52/// 7050/ 333 20112 30/// 50340 55050=
85586,2003,01,27,15,00,AAXX 27154 85586 42965 03009 10213 20149 40138 51005=
85586,2003,01,27,18,00,AAXX 27184 85586 32965 02414 10216 20147 40139 54001=
85586,2003,01,27,21,00,AAXX 27214 85586 42965 02415 10242 20152 40120 57018=
85586,2003,01,28,00,00,AAXX 28004 85586 NIL=
85586,2003,01,28,03,00,AAXX 28034 85586 NIL=
85586,2003,01,28,06,00,AAXX 28064 85586 NIL=
85586,2003,01,28,09,00,AAXX 28094 85586 NIL=
85586,2003,01,28,12,00,AAXX 28124 85586 32960 00000 10161 20139 40134 53/// 333 20102 30/// 50430 55128=
85586,2003,01,28,15,00,AAXX 28154 85586 42960 02408 10200 20144 40132 54001=
85586,2003,01,28,18,00,AAXX 28184 85586 32960 02415 10215 20133 40122 57009=
85586,2003,01,28,21,00,AAXX 28214 85586 42960 02410 10247 20094 40105 57016=
85586,2003,01,29,00,00,AAXX 29004 85586 NIL=
85586,2003,01,29,03,00,AAXX 29034 85586 NIL=
85586,2003,01,29,06,00,AAXX 29064 85586 NIL=
85586,2003,01,29,09,00,AAXX 29094 85586 NIL=
85586,2003,01,29,12,00,AAXX 29124 85586 32960 02605 10206 20107 40112 51/// 333 20118 30/// 50470 55123=
85586,2003,01,29,15,00,AAXX 29154 85586 42970 01718 10333 20107 40101 56008=
85586,2003,01,29,18,00,AAXX 29184 85586 32970 02413 10258 20114 40091 57012=
85586,2003,01,29,21,00,AAXX 29214 85586 42970 02315 10271 20097 40086 57014=
85586,2003,01,30,00,00,AAXX 30004 85586 NIL=
85586,2003,01,30,03,00,AAXX 30034 85586 NIL=
85586,2003,01,30,06,00,AAXX 30064 85586 NIL=
85586,2003,01,30,09,00,AAXX 30094 85586 NIL=
85586,2003,01,30,12,00,AAXX 30124 85586 32960 03204 10164 20126 40114 52/// 333 20087 30/// 50580 55129=
85586,2003,01,30,15,00,AAXX 30154 85586 42960 03314 10183 20131 40130 52016=
85586,2003,01,30,18,00,AAXX 30184 85586 32960 03010 10204 20142 40137 51004=
85586,2003,01,30,21,00,AAXX 30214 85586 42960 03109 10196 20142 40124 57009=
85586,2003,01,31,00,00,AAXX 31004 85586 NIL=
85586,2003,01,31,03,00,AAXX 31034 85586 NIL=
85586,2003,01,31,06,00,AAXX 31064 85586 NIL=
85586,2003,01,31,09,00,AAXX 31094 85586 NIL=
85586,2003,01,31,12,00,AAXX 31124 85586 31907 02702 10136 20129 40144 52/// 7424/ 333 20110 30/// 50360 55127=
85586,2003,01,31,15,00,AAXX 31154 85586 41257 43012 10174 20143 40158 52015 70541 84600 333 56700 84705=
85586,2003,01,31,18,00,AAXX 31184 85586 31358 23606 10170 20127 40162 52004 82600 333 56700 82708=
85586,2003,01,31,21,00,AAXX 31214 85586 42960 02809 10182 20132 40163 54001=
85586,2003,02,01,00,00,AAXX 01004 85586 NIL=
85586,2003,02,01,03,00,AAXX 01034 85586 NIL=
85586,2003,02,01,06,00,AAXX 01064 85586 NIL=
85586,2003,02,01,09,00,AAXX 01094 85586 NIL=
85586,2003,02,01,12,00,AAXX 01124 85586 32960 01503 10161 20108 40126 53/// 333 20080 30/// 50400 55092=
85586,2003,02,01,15,00,AAXX 01154 85586 42960 03009 10189 20129 40132 52006=
85586,2003,02,01,18,00,AAXX 01184 85586 32960 12911 10195 20126 40140 52009 80001 333 56005 81075=
85586,2003,02,01,21,00,AAXX 01214 85586 42960 02807 10187 20139 40172 52031=
85586,2003,02,02,00,00,AAXX 02004 85586 NIL=
85586,2003,02,02,03,00,AAXX 02034 85586 NIL=
85586,2003,02,02,06,00,AAXX 02064 85586 NIL=
85586,2003,02,02,09,00,AAXX 02094 85586 NIL=
85586,2003,02,02,12,00,AAXX 02124 85586 32960 00904 10154 20125 40172 51/// 333 20088 30/// 50430 55124=
85586,2003,02,02,15,00,AAXX 02154 85586 42960 03006 10193 20140 40174 51003=
85586,2003,02,02,18,00,AAXX 02184 85586 32970 02517 10213 20137 40168 50004=
85586,2003,02,02,21,00,AAXX 02214 85586 42970 02418 10222 20151 40156 57012=
85586,2003,02,03,00,00,AAXX 03004 85586 NIL=
85586,2003,02,03,03,00,AAXX 03034 85586 NIL=
85586,2003,02,03,06,00,AAXX 03064 85586 NIL=
85586,2003,02,03,09,00,AAXX 03094 85586 NIL=
85586,2003,02,03,12,00,AAXX 03124 85586 32960 00000 10161 20129 40141 52/// 333 20104 30/// 50450 55125=
85586,2003,02,03,15,00,AAXX 03154 85586 42960 03009 10194 20132 40143 51002=
85586,2003,02,03,18,00,AAXX 03184 85586 32970 02418 10202 20138 40136 57006=
85586,2003,02,03,21,00,AAXX 03214 85586 42965 02618 10202 20123 40126 57010=
85586,2003,02,04,00,00,AAXX 04004 85586 NIL=
85586,2003,02,04,03,00,AAXX 04034 85586 NIL=
85586,2003,02,04,06,00,AAXX 04064 85586 NIL=
85586,2003,02,04,09,00,AAXX 04094 85586 NIL=
85586,2003,02,04,12,00,AAXX 04124 85586 32960 02704 10146 20134 40128 52/// 333 20104 30/// 50410 55124=
85586,2003,02,04,15,00,AAXX 04154 85586 42260 13104 10178 20138 40133 51006 81600 333 56700 81704=
85586,2003,02,04,18,00,AAXX 04184 85586 32960 02804 10202 20139 40125 57008=
85586,2003,02,04,21,00,AAXX 04214 85586 42960 02414 10206 20128 40113 57010=
85586,2003,02,05,00,00,AAXX 05004 85586 NIL=
85586,2003,02,05,03,00,AAXX 05034 85586 NIL=
85586,2003,02,05,06,00,AAXX 05064 85586 NIL=
85586,2003,02,05,09,00,AAXX 05094 85586 NIL=
85586,2003,02,05,12,00,AAXX 05124 85586 32960 02702 10147 20126 40109 53/// 333 20112 30/// 50380 55115=
85586,2003,02,05,15,00,AAXX 05154 85586 42960 02810 10198 20122 40114 52007=
85586,2003,02,05,18,00,AAXX 05184 85586 32960 02608 10186 20134 40126 52011=
85586,2003,02,05,21,00,AAXX 05214 85586 42960 02712 10182 20126 40122 58004=
85586,2003,02,06,00,00,AAXX 06004 85586 NIL=
85586,2003,02,06,03,00,AAXX 06034 85586 NIL=
85586,2003,02,06,06,00,AAXX 06064 85586 NIL=
85586,2003,02,06,09,00,AAXX 06094 85586 NIL=
85586,2003,02,06,12,00,AAXX 06124 85586 32965 02203 10154 20114 40134 51/// 333 20091 30/// 50430 55121=
85586,2003,02,06,15,00,AAXX 06154 85586 42965 02908 10194 20121 40138 52005=
85586,2003,02,06,18,00,AAXX 06184 85586 32970 02418 10206 20112 40134 50002=
85586,2003,02,06,21,00,AAXX 06214 85586 42970 02512 10206 20108 40124 57010=
85586,2003,02,07,00,00,AAXX 07004 85586 NIL=
85586,2003,02,07,03,00,AAXX 07034 85586 NIL=
85586,2003,02,07,06,00,AAXX 07064 85586 NIL=
85586,2003,02,07,09,00,AAXX 07094 85586 NIL=
85586,2003,02,07,12,00,AAXX 07124 85586 32965 00000 10144 20112 40124 52/// 333 20079 30/// 50460 55122=
85586,2003,02,07,15,00,AAXX 07154 85586 42965 03205 10193 20108 40138 52015=
85586,2003,02,07,18,00,AAXX 07184 85586 32970 02516 10184 20109 40138 50000=
85586,2003,02,07,21,00,AAXX 07214 85586 42960 02610 10182 20109 40132 57006=
85586,2003,02,08,00,00,AAXX 08004 85586 NIL=
85586,2003,02,08,03,00,AAXX 08034 85586 NIL=
85586,2003,02,08,06,00,AAXX 08064 85586 NIL=
85586,2003,02,08,09,00,AAXX 08094 85586 NIL=
85586,2003,02,08,12,00,AAXX 08124 85586 32460 70404 10130 20119 40154 52/// 87600 333 20118 30/// 50360 55118 56000 87610=
85586,2003,02,08,15,00,AAXX 08154 85586 42460 12807 10164 20121 40166 52013 81600 333 56600 81710=
85586,2003,02,08,18,00,AAXX 08184 85586 32460 13008 10164 20123 40165 54001 81600 333 56600 81710=
85586,2003,02,08,21,00,AAXX 08214 85586 42460 23106 10162 20124 40157 57008 82600 333 56600 82710=
85586,2003,02,09,00,00,AAXX 09004 85586 NIL=
85586,2003,02,09,03,00,AAXX 09034 85586 NIL=
85586,2003,02,09,06,00,AAXX 09064 85586 NIL=
85586,2003,02,09,09,00,AAXX 09094 85586 NIL=
85586,2003,02,09,12,00,AAXX 09124 85586 32460 80000 10134 20125 40161 53/// 885// 333 20114 30/// 50360 55109 56699 88610=
85586,2003,02,09,15,00,AAXX 09154 85586 42460 53106 10168 20125 40162 54002 85600 333 56600 85710=
85586,2003,02,09,18,00,AAXX 09184 85586 32460 22704 10170 20129 40163 54001 82600 333 56600 82710=
85586,2003,02,09,21,00,AAXX 09214 85586 41320 22906 10147 20130 40159 57005 71022 886// 333 56699 88708=
85586,2003,02,10,00,00,AAXX 10004 85586 NIL=
85586,2003,02,10,03,00,AAXX 10034 85586 NIL=
85586,2003,02,10,06,00,AAXX 10064 85586 NIL=
85586,2003,02,10,09,00,AAXX 10094 85586 NIL=
85586,2003,02,10,12,00,AAXX 10124 85586 31220 83604 10136 20123 40149 52/// 7102/ 886// 333 20129 30/// 50360 55070 56799 88705=
85586,2003,02,10,15,00,AAXX 10154 85586 41220 83007 10149 20138 40160 52011 75022 886// 333 56799 88705=
85586,2003,02,10,18,00,AAXX 10184 85586 32460 82806 10172 20139 40156 50003 885// 333 56799 88614=
85586,2003,02,10,21,00,AAXX 10214 85586 41456 82906 10164 20144 40156 54000 70522 885// 333 56799 88611=
85586,2003,02,11,00,00,AAXX 11004 85586 NIL=
85586,2003,02,11,03,00,AAXX 11034 85586 NIL=
85586,2003,02,11,06,00,AAXX 11064 85586 NIL=
85586,2003,02,11,09,00,AAXX 11094 85586 NIL=
85586,2003,02,11,12,00,AAXX 11124 85586 11356 82403 10145 20121 40154 51/// 69904 7052/ 886// 333 20139 30/// 50340 55000 56799 70000 88707=
85586,2003,02,11,15,00,AAXX 11154 85586 41358 82905 10156 20122 40161 52008 70522 885// 333 56799 88609=
85586,2003,02,11,18,00,AAXX 11184 85586 32560 62709 10179 20119 40157 58004 86500 333 56700 86620=
85586,2003,02,11,21,00,AAXX 11214 85586 41558 72507 10164 20123 40154 56003 70522 87500 333 56700 87620=
85586,2003,02,12,00,00,AAXX 12004 85586 NIL=
85586,2003,02,12,03,00,AAXX 12034 85586 NIL=
85586,2003,02,12,06,00,AAXX 12064 85586 NIL=
85586,2003,02,12,09,00,AAXX 12094 85586 NIL=
85586,2003,02,12,12,00,AAXX 12124 85586 31330 80000 10122 20116 40155 52/// 71022 886// 333 20120 30/// 50300 55016 56099 88707=
85586,2003,02,12,15,00,AAXX 12154 85586 42960 02706 10174 20130 40154 50000=
85586,2003,02,12,18,00,AAXX 12184 85586 31440 72106 10162 20137 40150 56004 70522 87600 333 56500 87710=
85586,2003,02,12,21,00,AAXX 12214 85586 42460 23107 10174 20146 40138 57012 82500 333 56600 82610=
85586,2003,02,13,00,00,AAXX 13004 85586 NIL=
85586,2003,02,13,03,00,AAXX 13034 85586 NIL=
85586,2003,02,13,06,00,AAXX 13064 85586 NIL=
85586,2003,02,13,09,00,AAXX 13094 85586 NIL=
85586,2003,02,13,12,00,AAXX 13124 85586 31102 83102 10124 20118 40117 52/// 7464/ 886// 333 20086 30/// 50260 55406 56099 88703=
85586,2003,02,13,15,00,AAXX 13154 85586 41320 83308 10152 20140 40129 52012 71044 886// 333 56799 88708=
85586,2003,02,13,18,00,AAXX 13184 85586 31440 83106 10166 20139 40138 52009 70522 886// 333 56799 88710=
85586,2003,02,13,21,00,AAXX 13214 85586 41457 83108 10172 20146 40136 56004 70522 885// 333 56799 88613=
85586,2003,02,14,00,00,AAXX 14004 85586 NIL=
85586,2003,02,14,03,00,AAXX 14034 85586 NIL=
85586,2003,02,14,06,00,AAXX 14064 85586 NIL=
85586,2003,02,14,09,00,AAXX 14094 85586 NIL=
85586,2003,02,14,12,00,AAXX 14124 85586 32560 72006 10145 20101 40180 52/// 87500 333 20124 30/// 50360 55000 56700 88625=
85586,2003,02,14,15,00,AAXX 14154 85586 42960 02712 10176 20108 40185 52006=
85586,2003,02,14,18,00,AAXX 14184 85586 32970 02514 10189 20117 40186 50001=
85586,2003,02,14,21,00,AAXX 14214 85586 42970 02406 10196 20118 40168 57017=
85586,2003,02,15,00,00,AAXX 15004 85586 NIL=
85586,2003,02,15,03,00,AAXX 15034 85586 NIL=
85586,2003,02,15,06,00,AAXX 15064 85586 NIL=
85586,2003,02,15,09,00,AAXX 15094 85586 NIL=
85586,2003,02,15,12,00,AAXX 15124 85586 32970 01812 10173 20062 40156 53/// 333 20088 30/// 50390 55105=
85586,2003,02,15,15,00,AAXX 15154 85586 42970 02009 10246 20069 40149 58004=
85586,2003,02,15,18,00,AAXX 15184 85586 32970 02522 10189 20107 40143 57009=
85586,2003,02,15,21,00,AAXX 15214 85586 42970 02418 10183 20104 40134 57009=
85586,2003,02,16,00,00,AAXX 16004 85586 NIL=
85586,2003,02,16,03,00,AAXX 16034 85586 NIL=
85586,2003,02,16,06,00,AAXX 16064 85586 NIL=
85586,2003,02,16,09,00,AAXX 16094 85586 NIL=
85586,2003,02,16,12,00,AAXX 16124 85586 32960 00402 10117 20106 40133 52/// 333 20054 30/// 50400 55124=
85586,2003,02,16,15,00,AAXX 16154 85586 42960 03306 10186 20104 40136 51004=
85586,2003,02,16,18,00,AAXX 16184 85586 32960 02606 10190 20124 40140 51004=
85586,2003,02,16,21,00,AAXX 16214 85586 42960 02806 10170 20125 40138 54002=
85586,2003,02,17,00,00,AAXX 17004 85586 NIL=
85586,2003,02,17,03,00,AAXX 17034 85586 NIL=
85586,2003,02,17,06,00,AAXX 17064 85586 NIL=
85586,2003,02,17,09,00,AAXX 17094 85586 NIL=
85586,2003,02,17,12,00,AAXX 17124 85586 31102 82204 10116 20111 40155 52/// 7464/ 886// 333 20088 30/// 50380 55119 56099 88702=
85586,2003,02,17,15,00,AAXX 17154 85586 41308 82806 10135 20123 40164 52009 74644 886// 333 56699 88707=
85586,2003,02,17,18,00,AAXX 17184 85586 31460 42806 10152 20117 40163 54001 70142 84600 333 56600 84712=
85586,2003,02,17,21,00,AAXX 17214 85586 42460 23006 10166 20123 40161 54001 82600 333 56600 82713=
85586,2003,02,18,00,00,AAXX 18004 85586 NIL=
85586,2003,02,18,03,00,AAXX 18034 85586 NIL=
85586,2003,02,18,06,00,AAXX 18064 85586 NIL=
85586,2003,02,18,09,00,AAXX 18094 85586 NIL=
85586,2003,02,18,12,00,AAXX 18124 85586 32970 00904 10131 20092 40162 52/// 333 20065 30/// 50340 55085=
85586,2003,02,18,15,00,AAXX 18154 85586 42965 02804 10183 20120 40160 50001=
85586,2003,02,18,18,00,AAXX 18184 85586 32970 02322 10203 20126 40157 57002=
85586,2003,02,18,21,00,AAXX 18214 85586 42965 02518 10191 20120 40154 57004=
85586,2003,02,19,00,00,AAXX 19004 85586 NIL=
85586,2003,02,19,03,00,AAXX 19034 85586 NIL=
85586,2003,02,19,06,00,AAXX 19064 85586 NIL=
85586,2003,02,19,09,00,AAXX 19094 85586 NIL=
85586,2003,02,19,12,00,AAXX 19124 85586 32960 01706 10127 20075 40184 51/// 333 20048 30/// 50430 55122=
85586,2003,02,19,15,00,AAXX 19154 85586 42970 01607 10215 20056 40172 57009=
85586,2003,02,19,18,00,AAXX 19184 85586 32965 02523 10188 20072 40165 56009=
85586,2003,02,19,21,00,AAXX 19214 85586 42965 02425 10188 20062 40153 57012=
85586,2003,02,20,00,00,AAXX 20004 85586 NIL=
85586,2003,02,20,03,00,AAXX 20034 85586 NIL=
85586,2003,02,20,06,00,AAXX 20064 85586 NIL=
85586,2003,02,20,09,00,AAXX 20094 85586 NIL=
85586,2003,02,20,12,00,AAXX 20124 85586 32960 00000 10092 20060 40179 52/// 333 20032 30/// 50370 55117=
85586,2003,02,20,15,00,AAXX 20154 85586 42960 03402 10176 20015 40185 52008=
85586,2003,02,20,18,00,AAXX 20184 85586 32960 02806 10182 20023 40182 58003=
85586,2003,02,20,21,00,AAXX 20214 85586 42960 02808 10160 20066 40174 57008=
85586,2003,02,21,00,00,AAXX 21004 85586 NIL=
85586,2003,02,21,03,00,AAXX 21034 85586 NIL=
85586,2003,02,21,06,00,AAXX 21064 85586 NIL=
85586,2003,02,21,09,00,AAXX 21094 85586 NIL=
85586,2003,02,21,12,00,AAXX 21124 85586 32960 00000 10107 20074 40168 52/// 333 20050 30/// 50430 55116=
85586,2003,02,21,15,00,AAXX 21154 85586 42960 03008 10180 20088 40167 54001=
85586,2003,02,21,18,00,AAXX 21184 85586 32960 02804 10176 20119 40161 57006=
85586,2003,02,21,21,00,AAXX 21214 85586 42960 02806 10182 20132 40154 57007=
85586,2003,02,22,00,00,AAXX 22004 85586 NIL=
85586,2003,02,22,03,00,AAXX 22034 85586 NIL=
85586,2003,02,22,06,00,AAXX 22064 85586 NIL=
85586,2003,02,22,09,00,AAXX 22094 85586 NIL=
85586,2003,02,22,12,00,AAXX 22124 85586 31103 80000 10112 20103 40155 52/// 7444/ 886// 333 20068 30/// 50390 55117 56799 88703=
85586,2003,02,22,15,00,AAXX 22154 85586 42356 22704 10144 20112 40170 52015 71044 82600 333 56700 82707=
85586,2003,02,22,18,00,AAXX 22184 85586 31260 13204 10166 20119 40170 50001 70142 81600 333 56700 81705=
85586,2003,02,22,21,00,AAXX 22214 85586 42260 42310 10172 20129 40164 56006 84600 333 56700 84707=
85586,2003,02,23,00,00,AAXX 23004 85586 NIL=
85586,2003,02,23,03,00,AAXX 23034 85586 NIL=
85586,2003,02,23,06,00,AAXX 23064 85586 NIL=
85586,2003,02,23,09,00,AAXX 23094 85586 NIL=
85586,2003,02,23,12,00,AAXX 23124 85586 31102 80000 10109 20100 40145 52/// 7444/ 886// 333 20084 30/// 50360 55104 56799 88703=
85586,2003,02,23,15,00,AAXX 23154 85586 41220 83307 10134 20122 40162 52017 71044 886// 333 56799 88706=
85586,2003,02,23,18,00,AAXX 23184 85586 31458 72507 10154 20130 40169 51007 70542 87600 333 56700 87710=
85586,2003,02,23,21,00,AAXX 23214 85586 42460 82906 10147 20126 40166 58003 885// 333 56799 88612=
85586,2003,02,24,00,00,AAXX 24004 85586 NIL=
85586,2003,02,24,03,00,AAXX 24034 85586 NIL=
85586,2003,02,24,06,00,AAXX 24064 85586 NIL=
85586,2003,02,24,09,00,AAXX 24094 85586 NIL=
85586,2003,02,24,12,00,AAXX 24124 85586 31102 83103 10116 20111 40144 52/// 7464/ 886// 333 20114 30/// 50280 55004 56099 88701=
85586,2003,02,24,15,00,AAXX 24154 85586 41209 83209 10126 20117 40157 52013 74644 886// 333 56799 88706=
85586,2003,02,24,18,00,AAXX 24184 85586 31209 83006 10148 20133 40161 52004 74644 886// 333 56799 88706=
85586,2003,02,24,21,00,AAXX 24214 85586 41340 02704 10150 20130 40151 57010 70522 886// 333 56699 88707=
85586,2003,02,25,00,00,AAXX 25004 85586 NIL=
85586,2003,02,25,03,00,AAXX 25034 85586 NIL=
85586,2003,02,25,06,00,AAXX 25064 85586 NIL=
85586,2003,02,25,09,00,AAXX 25094 85586 NIL=
85586,2003,02,25,12,00,AAXX 25124 85586 31330 80000 10118 20113 40147 52/// 7102/ 886// 333 20102 30/// 50200 55000 56099 88708=
85586,2003,02,25,15,00,AAXX 25154 85586 41446 72804 10156 20120 40161 52015 70522 87500 333 56600 87612=
85586,2003,02,25,18,00,AAXX 25184 85586 32460 52910 10166 20122 40173 52012 82501 333 56606 82612 83075=
85586,2003,02,25,21,00,AAXX 25214 85586 42460 42808 10178 20137 40168 58005 81501 333 56606 81613 83075=
85586,2003,02,26,00,00,AAXX 26004 85586 NIL=
85586,2003,02,26,03,00,AAXX 26034 85586 NIL=
85586,2003,02,26,06,00,AAXX 26064 85586 NIL=
85586,2003,02,26,09,00,AAXX 26094 85586 NIL=
85586,2003,02,26,12,00,AAXX 26124 85586 32960 10000 10134 20105 40153 52/// 81030 333 20087 30/// 50390 55070 81362=
85586,2003,02,26,15,00,AAXX 26154 85586 42970 12812 10191 20133 40161 52009 81030 333 56070 81362=
85586,2003,02,26,18,00,AAXX 26184 85586 32265 12607 10194 20152 40166 52005 81600 333 56700 81705=
85586,2003,02,26,21,00,AAXX 26214 85586 42360 52614 10193 20168 40162 58004 85600 333 56700 85708=
85586,2003,02,27,00,00,AAXX 27004 85586 NIL=
85586,2003,02,27,03,00,AAXX 27034 85586 NIL=
85586,2003,02,27,06,00,AAXX 27064 85586 NIL=
85586,2003,02,27,09,00,AAXX 27094 85586 NIL=
85586,2003,02,27,12,00,AAXX 27124 85586 31930 00000 10137 20122 40158 51/// 7104/ 333 20113 30/// 50420 55093=
85586,2003,02,27,15,00,AAXX 27154 85586 41960 12709 10173 20138 40165 52008 70340 81600 333 56700 81708=
85586,2003,02,27,18,00,AAXX 27184 85586 32960 02712 10187 20126 40173 51008=
85586,2003,02,27,21,00,AAXX 27214 85586 42965 03012 10176 20112 40169 57004=
85586,2003,02,28,00,00,AAXX 28004 85586 NIL=
85586,2003,02,28,06,00,AAXX 28064 85586 NIL=
85586,2003,02,28,09,00,AAXX 28094 85586 NIL=
85586,2003,02,28,12,00,AAXX 28124 85586 32960 00000 10118 20111 40170 52/// 333 20060 30/// 50360 55111=
85586,2003,02,28,15,00,AAXX 28154 85586 42960 02804 10174 20126 40179 52010=
85586,2003,02,28,18,00,AAXX 28184 85586 42960 02710 10184 20113 40181 54002=
85586,2003,02,28,21,00,AAXX 28214 85586 NIL=
85586,2003,03,01,00,00,AAXX 01004 85586 NIL=
85586,2003,03,01,03,00,AAXX 01034 85586 NIL=
85586,2003,03,01,06,00,AAXX 01064 85586 NIL=
85586,2003,03,01,12,00,AAXX 01124 85586 32960 00000 10112 20093 40157 53/// 333 20062 30/// 50380 55112=
85586,2003,03,01,15,00,AAXX 01154 85586 42960 02806 10168 20122 40166 52010=
85586,2003,03,01,18,00,AAXX 01184 85586 32960 02710 10176 20129 40165 54001=
85586,2003,03,01,21,00,AAXX 01214 85586 42960 02908 10176 20116 40152 57013=
85586,2003,03,02,00,00,AAXX 02004 85586 NIL=
85586,2003,03,02,03,00,AAXX 02034 85586 NIL=
85586,2003,03,02,06,00,AAXX 02064 85586 NIL=
85586,2003,03,02,09,00,AAXX 02094 85586 NIL=
85586,2003,03,02,12,00,AAXX 02124 85586 32360 10000 10110 20104 40130 53/// 81600 333 20058 30/// 50340 55121 56800 81707=
85586,2003,03,02,15,00,AAXX 02154 85586 41312 62406 10146 20125 40141 52011 70521 86600 333 56500 86707=
85586,2003,03,02,18,00,AAXX 02184 85586 32360 32406 10162 20133 40142 54002 83600 333 56500 83707=
85586,2003,03,02,21,00,AAXX 02214 85586 42460 12804 10164 20126 40137 57005 81500 333 56500 81610=
85586,2003,03,03,00,00,AAXX 03004 85586 NIL=
85586,2003,03,03,03,00,AAXX 03034 85586 NIL=
85586,2003,03,03,06,00,AAXX 03064 85586 NIL=
85586,2003,03,03,09,00,AAXX 03094 85586 NIL=
85586,2003,03,03,12,00,AAXX 03124 85586 31001 80703 10111 20109 40104 53/// 7444/ 886// 333 20082 30/// 50290 55098 56699 88701=
85586,2003,03,03,15,00,AAXX 03154 85586 41120 83309 10144 20133 40114 52010 71042 886// 333 56799 88703=
85586,2003,03,03,18,00,AAXX 03184 85586 31459 52913 10160 20126 40115 54002 70542 85600 333 56700 85710=
85586,2003,03,03,21,00,AAXX 03214 85586 42460 33008 10172 20147 40104 57011 83600 333 56700 83712=
85586,2003,03,04,00,00,AAXX 04004 85586 NIL=
85586,2003,03,04,03,00,AAXX 04034 85586 NIL=
85586,2003,03,04,06,00,AAXX 04064 85586 NIL=
85586,2003,03,04,09,00,AAXX 04094 85586 NIL=
85586,2003,03,04,12,00,AAXX 04124 85586 32460 80000 10152 20140 40133 52/// 885// 333 20135 30/// 50230 55044 56799 88618=
85586,2003,03,04,15,00,AAXX 04154 85586 42560 83206 10172 20140 40151 52019 885// 333 56799 88625=
85586,2003,03,04,18,00,AAXX 04184 85586 32560 73010 10183 20146 40149 54001 87500 333 56700 87625=
85586,2003,03,04,21,00,AAXX 04214 85586 42560 23106 10180 20144 40145 57007 82500 333 56700 82625=
85586,2003,03,05,00,00,AAXX 05004 85586 NIL=
85586,2003,03,05,03,00,AAXX 05034 85586 NIL=
85586,2003,03,05,06,00,AAXX 05064 85586 NIL=
85586,2003,03,05,09,00,AAXX 05094 85586 NIL=
85586,2003,03,05,12,00,AAXX 05124 85586 32560 82702 10156 20129 40166 53/// 885// 333 20100 30/// 50250 55025 56799 88625=
85586,2003,03,05,15,00,AAXX 05154 85586 42560 82505 10174 20137 40175 52009 885// 333 56799 88627=
85586,2003,03,05,18,00,AAXX 05184 85586 32560 72404 10183 20146 40171 58004 82531 333 56766 82627 83363=
85586,2003,03,05,21,00,AAXX 05214 85586 42560 62410 10186 20144 40157 57004 81531 333 56766 81627=
85586,2003,03,06,00,00,AAXX 06004 85586 NIL=
85586,2003,03,06,03,00,AAXX 06034 85586 NIL=
85586,2003,03,06,06,00,AAXX 06064 85586 NIL=
85586,2003,03,06,09,00,AAXX 06094 85586 NIL=
85586,2003,03,06,12,00,AAXX 06124 85586 31103 80000 10126 20119 40109 57/// 7464/ 886// 333 20122 30/// 50200 55000 56099 88702=
85586,2003,03,06,15,00,AAXX 06154 85586 41103 83104 10138 20131 40114 53005 74644 886// 333 56699 88702=
85586,2003,03,06,18,00,AAXX 06184 85586 31208 82806 10150 20138 40113 54001 74644 886// 333 56699 88704=
85586,2003,03,06,21,00,AAXX 06214 85586 41340 83006 10150 20136 40114 57009 71044 886// 333 56799 88708=
85586,2003,03,07,00,00,AAXX 07004 85586 NIL=
85586,2003,03,07,03,00,AAXX 07034 85586 NIL=
85586,2003,03,07,06,00,AAXX 07064 85586 NIL=
85586,2003,03,07,09,00,AAXX 07094 85586 NIL=
85586,2003,03,07,12,00,AAXX 07124 85586 31230 80904 10144 20137 40124 52/// 7102/ 886// 333 20134 30/// 50160 55000 56099 88706=
85586,2003,03,07,15,00,AAXX 07154 85586 41450 83507 10162 20154 40141 52018 71044 885// 333 56699 88610=
85586,2003,03,07,18,00,AAXX 07184 85586 32460 83110 10180 20144 40145 52004 885// 333 56699 88615=
85586,2003,03,07,21,00,AAXX 07214 85586 42460 83308 10184 20148 40141 58004 885// 333 56699 88615=
85586,2003,03,08,00,00,AAXX 08004 85586 NIL=
85586,2003,03,08,03,00,AAXX 08034 85586 NIL=
85586,2003,03,08,06,00,AAXX 08064 85586 NIL=
85586,2003,03,08,09,00,AAXX 08094 85586 NIL=
85586,2003,03,08,12,00,AAXX 08124 85586 31556 80000 10164 20156 40135 52/// 7102/ 885// 333 20160 30/// 50220 55006 56099 88620=
85586,2003,03,08,15,00,AAXX 08154 85586 41456 80000 10176 20150 40144 52009 70522 885// 333 56099 88615=
85586,2003,03,08,18,00,AAXX 08184 85586 32460 82806 10194 20142 40140 58004 87500 333 56600 87617=
85586,2003,03,08,21,00,AAXX 08214 85586 42560 42604 10196 20139 40135 57005 84500 333 56600 84625=
85586,2003,03,09,00,00,AAXX 09004 85586 NIL=
85586,2003,03,09,03,00,AAXX 09034 85586 NIL=
85586,2003,03,09,06,00,AAXX 09064 85586 NIL=
85586,2003,03,09,09,00,AAXX 09094 85586 NIL=
85586,2003,03,09,12,00,AAXX 09124 85586 31106 60000 10133 20128 40128 53/// 7444/ 86600 333 20103 30/// 50200 55024 56700 86702=
85586,2003,03,09,15,00,AAXX 09154 85586 41360 42703 10177 20150 40132 52005 70141 84600 333 56700 84709=
85586,2003,03,09,18,00,AAXX 09184 85586 31460 32507 10192 20143 40135 52003 70241 83600 333 56700 83712=
85586,2003,03,09,21,00,AAXX 09214 85586 42460 52405 10170 20145 40128 57007 85500 333 56700 85615=
85586,2003,03,10,00,00,AAXX 10004 85586 NIL=
85586,2003,03,10,03,00,AAXX 10034 85586 NIL=
85586,2003,03,10,06,00,AAXX 10064 85586 NIL=
85586,2003,03,10,09,00,AAXX 10094 85586 NIL=
85586,2003,03,10,12,00,AAXX 10124 85586 31358 80000 10136 20125 40134 53/// 7102/ 886// 333 20078 30/// 50200 55040 56799 88707=
85586,2003,03,10,15,00,AAXX 10154 85586 42460 72407 10161 20139 40137 52004 87600 333 56700 87710=
85586,2003,03,10,18,00,AAXX 10184 85586 32460 72507 10166 20140 40133 58004 87600 333 56700 87710=
85586,2003,03,10,21,00,AAXX 10214 85586 42360 42707 10170 20137 40121 57012 84600 333 56700 84708=
85586,2003,03,11,00,00,AAXX 11004 85586 NIL=
85586,2003,03,11,03,00,AAXX 11034 85586 NIL=
85586,2003,03,11,06,00,AAXX 11064 85586 NIL=
85586,2003,03,11,09,00,AAXX 11094 85586 NIL=
85586,2003,03,11,12,00,AAXX 11124 85586 31240 83502 10138 20133 40124 53/// 7102/ 886// 333 20064 30/// 50180 55033 56799 88705=
85586,2003,03,11,15,00,AAXX 11154 85586 41356 83306 10148 20135 40142 52018 70522 886// 333 56799 88707=
85586,2003,03,11,18,00,AAXX 11184 85586 31357 83007 10160 20126 40147 52006 70522 886// 333 56799 88709=
85586,2003,03,11,21,00,AAXX 11214 85586 41459 82906 10158 20139 40146 54001 70522 886// 333 56799 88712=
85586,2003,03,12,00,00,AAXX 12004 85586 NIL=
85586,2003,03,12,03,00,AAXX 12034 85586 NIL=
85586,2003,03,12,06,00,AAXX 12064 85586 NIL=
85586,2003,03,12,09,00,AAXX 12094 85586 NIL=
85586,2003,03,12,12,00,AAXX 12124 85586 31458 81005 10126 20110 40149 52/// 7052/ 886// 333 20124 30/// 50170 55000 56799 88710=
85586,2003,03,12,15,00,AAXX 12154 85586 42460 82905 10144 20121 40158 52009 885// 333 56799 88614=
85586,2003,03,12,18,00,AAXX 12184 85586 32460 82405 10157 20128 40151 57006 885// 333 56799 88617=
85586,2003,03,12,21,00,AAXX 12214 85586 42460 82906 10151 20124 40144 57008 885// 333 56799 88615=
85586,2003,03,13,00,00,AAXX 13004 85586 NIL=
85586,2003,03,13,03,00,AAXX 13034 85586 NIL=
85586,2003,03,13,06,00,AAXX 13064 85586 NIL=
85586,2003,03,13,09,00,AAXX 13094 85586 NIL=
85586,2003,03,13,12,00,AAXX 13124 85586 31004 80000 10114 20109 40115 52/// 7464/ 886// 333 20092 30/// 50160 55000 56099 88701=
85586,2003,03,13,15,00,AAXX 13154 85586 41320 83106 10144 20127 40136 52021 71044 886// 333 56799 88707=
85586,2003,03,13,18,00,AAXX 13184 85586 32460 53112 10168 20123 40136 54001 85500 333 56700 85615=
85586,2003,03,13,21,00,AAXX 13214 85586 41456 82808 10152 20122 40140 54003 70522 885// 333 56799 88615=
85586,2003,03,14,00,00,AAXX 14004 85586 NIL=
85586,2003,03,14,03,00,AAXX 14034 85586 NIL=
85586,2003,03,14,06,00,AAXX 14064 85586 NIL=
85586,2003,03,14,09,00,AAXX 14094 85586 NIL=
85586,2003,03,14,12,00,AAXX 14124 85586 32560 40000 10106 20091 40171 52/// 84500 333 20106 30/// 50190 55019 56600 84620=
85586,2003,03,14,15,00,AAXX 14154 85586 42960 22606 10164 20100 40177 52007 80001 333 56006 82075=
85586,2003,03,14,18,00,AAXX 14184 85586 32960 22807 10172 20102 40176 54001 80001 333 56006 82075=
85586,2003,03,14,21,00,AAXX 14214 85586 42960 12608 10174 20123 40166 57010 80001 333 56006 81075=
85586,2003,03,15,00,00,AAXX 15004 85586 NIL=
85586,2003,03,15,03,00,AAXX 15034 85586 NIL=
85586,2003,03,15,06,00,AAXX 15064 85586 NIL=
85586,2003,03,15,09,00,AAXX 15094 85586 NIL=
85586,2003,03,15,12,00,AAXX 15124 85586 32960 20000 10100 20094 40183 52/// 80001 333 20064 30/// 50270 55104 56006 82075=
85586,2003,03,15,15,00,AAXX 15154 85586 42960 02706 10180 20121 40194 52013=
85586,2003,03,15,18,00,AAXX 15184 85586 32960 02804 10186 20133 40189 58005=
85586,2003,03,15,21,00,AAXX 15214 85586 NIL=
85586,2003,03,16,00,00,AAXX 16004 85586 NIL=
85586,2003,03,16,03,00,AAXX 16034 85586 NIL=
85586,2003,03,16,06,00,AAXX 16064 85586 NIL=
85586,2003,03,16,09,00,AAXX 16094 85586 NIL=
85586,2003,03,16,12,00,AAXX 16124 85586 32960 00000 10121 20111 40150 54/// 333 20080 30/// 50220 55072=
85586,2003,03,16,15,00,AAXX 16154 85586 41960 02905 10181 20144 40164 52015 70240=
85586,2003,03,16,18,00,AAXX 16184 85586 31960 02804 10200 20144 40152 58011 70240=
85586,2003,03,16,21,00,AAXX 16214 85586 32960 03305 10189 20142 40144 57009=
85586,2003,03,17,00,00,AAXX 17004 85586 NIL=
85586,2003,03,17,03,00,AAXX 17034 85586 NIL=
85586,2003,03,17,06,00,AAXX 17064 85586 NIL=
85586,2003,03,17,09,00,AAXX 17094 85586 NIL=
85586,2003,03,17,12,00,AAXX 17124 85586 31359 73203 10145 20131 40153 52/// 7052/ 87600 333 20102 30/// 50190 55108 56700 87707=
85586,2003,03,17,15,00,AAXX 17154 85586 42460 13011 10184 20130 40170 52018 81600 333 56700 81712=
85586,2003,03,17,18,00,AAXX 17184 85586 32960 03109 10193 20145 40166 58004=
85586,2003,03,17,21,00,AAXX 17214 85586 42960 03212 10190 20143 40158 57008=
85586,2003,03,18,00,00,AAXX 18004 85586 NIL=
85586,2003,03,18,03,00,AAXX 18034 85586 NIL=
85586,2003,03,18,06,00,AAXX 18064 85586 NIL=
85586,2003,03,18,09,00,AAXX 18094 85586 NIL=
85586,2003,03,18,12,00,AAXX 18124 85586 11430 80000 10144 20140 40170 52/// 69914 7505/ 886// 333 20120 31/// 50230 55097 56099 70001 88710=
85586,2003,03,18,15,00,AAXX 18154 85586 41450 83106 10157 20146 40172 54003 71052 886// 333 56699 88710=
85586,2003,03,18,18,00,AAXX 18184 85586 12460 82905 10174 20134 40167 57005 69901 885// 333 56699 88613=
85586,2003,03,18,21,00,AAXX 18214 85586 42460 82406 10172 20136 40159 57009 885// 333 56699 88613=
85586,2003,03,19,00,00,AAXX 19004 85586 NIL=
85586,2003,03,19,03,00,AAXX 19034 85586 NIL=
85586,2003,03,19,06,00,AAXX 19064 85586 NIL=
85586,2003,03,19,09,00,AAXX 19094 85586 NIL=
85586,2003,03,19,12,00,AAXX 19124 85586 12460 80000 10148 20134 40187 52/// 69904 885// 333 20144 30/// 50200 55000 56099 70000 88615=
85586,2003,03,19,15,00,AAXX 19154 85586 42460 82506 10166 20134 40201 52014 885// 333 56699 88617=
85586,2003,03,19,18,00,AAXX 19184 85586 32460 82604 10162 20126 40204 51003 885// 333 56699 88617=
85586,2003,03,19,21,00,AAXX 19214 85586 42460 82406 10174 20134 40196 57008 885// 333 56699 88617=
85586,2003,03,20,00,00,AAXX 20004 85586 NIL=
85586,2003,03,20,03,00,AAXX 20034 85586 NIL=
85586,2003,03,20,06,00,AAXX 20064 85586 NIL=
85586,2003,03,20,09,00,AAXX 20094 85586 NIL=
85586,2003,03,20,12,00,AAXX 20124 85586 31958 00000 10107 20094 40186 53/// 7050/ 333 20088 30/// 50170 55000=
85586,2003,03,20,15,00,AAXX 20154 85586 42960 02705 10190 20141 40191 52006=
85586,2003,03,20,18,00,AAXX 20184 85586 31140 32706 10187 20160 40192 54001 70522 83600 333 56600 83703=
85586,2003,03,20,21,00,AAXX 20214 85586 31130 83107 10162 20148 40186 57006 70522 886// 333 56799 88703=
85586,2003,03,21,00,00,AAXX 21004 85586 NIL=
85586,2003,03,21,03,00,AAXX 21034 85586 NIL=
85586,2003,03,21,06,00,AAXX 21064 85586 NIL=
85586,2003,03,21,09,00,AAXX 21094 85586 NIL=
85586,2003,03,21,12,00,AAXX 21124 85586 31104 80000 10130 20126 40158 54/// 7444/ 886// 333 20111 30/// 50160 55062 56799 88702=
85586,2003,03,21,15,00,AAXX 21154 85586 41256 83207 10159 20144 40167 52010 70542 886// 333 56799 88705=
85586,2003,03,21,18,00,AAXX 21184 85586 31460 53213 10185 20144 40166 54001 70242 87600 333 56700 85711=
85586,2003,03,21,21,00,AAXX 21214 85586 42460 73007 10170 20145 40161 57005 87600 333 56700 87710=
85586,2003,03,22,00,00,AAXX 22004 85586 NIL=
85586,2003,03,22,06,00,AAXX 22064 85586 NIL=
85586,2003,03,22,12,00,AAXX 22124 85586 31558 83104 10160 20143 40167 52/// 7102/ 885// 333 20150 30/// 50250 55026 56699 88620=
85586,2003,03,22,18,00,AAXX 22184 85586 32960 43116 10194 20131 40167 58006 80002 333 56006 84075=
85586,2003,03,23,00,00,AAXX 23004 85586 NIL=
85586,2003,03,23,06,00,AAXX 23064 85586 NIL=
85586,2003,03,23,12,00,AAXX 23124 85586 32560 80000 10152 20142 40175 52/// 885// 333 20142 30/// 50260 55083 56099 88625=
85586,2003,03,23,18,00,AAXX 23184 85586 32960 23106 10208 20097 40181 54000 80001 333 56006 82075=
85586,2003,03,24,00,00,AAXX 24004 85586 NIL=
85586,2003,03,24,06,00,AAXX 24064 85586 NIL=
85586,2003,03,24,12,00,AAXX 24124 85586 32960 00000 10135 20119 40186 53/// 333 20086 30/// 50250 55094=
85586,2003,03,24,18,00,AAXX 24184 85586 NIL=
85586,2003,03,25,00,00,AAXX 25004 85586 NIL=
85586,2003,03,25,06,00,AAXX 25064 85586 NIL=
85586,2003,03,25,12,00,AAXX 25124 85586 31103 80000 10129 20125 40168 53/// 7444/ 886// 333 20070 30/// 50240 55104 56799 88702=
85586,2003,03,25,18,00,AAXX 25184 85586 31240 42704 10175 20142 40166 58009 70541 83601 333 56706 83705=
85586,2003,03,25,21,00,AAXX 25214 85586 41240 82906 10154 20144 40169 54002 71022 886// 333 56799 88705=
85586,2003,03,26,00,00,AAXX 26004 85586 NIL=
85586,2003,03,26,03,00,AAXX 26034 85586 NIL=
85586,2003,03,26,06,00,AAXX 26064 85586 NIL=
85586,2003,03,26,12,00,AAXX 26124 85586 31960 40000 10130 20123 40156 56/// 7014/ 80002 333 20114 30/// 50210 55044 56006 84075=
85586,2003,03,26,15,00,AAXX 26154 85586 42960 62510 10180 20144 40159 53004 80002 333 56006 86075=
85586,2003,03,26,18,00,AAXX 26184 85586 32360 53006 10182 20135 40154 58004 81602 333 56706 81707 85075=
85586,2003,03,26,21,00,AAXX 26214 85586 41308 83002 10166 20158 40147 57007 74622 886// 333 56799 88707=
85586,2003,03,27,00,00,AAXX 27004 85586 NIL=
85586,2003,03,27,06,00,AAXX 27064 85586 NIL=
85586,2003,03,27,09,00,AAXX 27094 85586 NIL=
85586,2003,03,27,12,00,AAXX 27124 85586 11340 80000 10146 20138 40160 52/// 69984 7102/ 885/? 333 20144 31/// 50170 55060 56099 70008 88608=
85586,2003,03,27,18,00,AAXX 27184 85586 31315 82704 10166 20157 40166 54000 71022 886// 333 56699 88707=
85586,2003,03,27,21,00,AAXX 27214 85586 41208 82806 10150 20142 40170 54003 74622 886// 333 56699 88706=
85586,2003,03,28,00,00,AAXX 28004 85586 NIL=
85586,2003,03,28,03,00,AAXX 28034 85586 NIL=
85586,2003,03,28,06,00,AAXX 28064 85586 NIL=
85586,2003,03,28,09,00,AAXX 28094 85586 NIL=
85586,2003,03,28,12,00,AAXX 28124 85586 31903 00000 10096 20088 40182 52/// 7464/ 333 20086 31/// 50160 55000=
85586,2003,03,28,15,00,AAXX 28154 85586 41960 02706 10178 20133 40185 51005 70244=
85586,2003,03,28,18,00,AAXX 28184 85586 32960 02712 10186 20134 40177 57008=
85586,2003,03,28,21,00,AAXX 28214 85586 42960 22514 10188 20126 40166 57011 80001 333 56006 82075=
85586,2003,03,29,00,00,AAXX 29004 85586 NIL=
85586,2003,03,29,03,00,AAXX 29034 85586 NIL=
85586,2003,03,29,06,00,AAXX 29064 85586 NIL=
85586,2003,03,29,09,00,AAXX 29094 85586 NIL=
85586,2003,03,29,12,00,AAXX 29124 85586 32960 20000 10088 20084 40171 52/// 80001 333 20062 30/// 50220 55091 56005 82075=
85586,2003,03,29,15,00,AAXX 29154 85586 42960 03207 10169 20119 40178 52009=
85586,2003,03,29,18,00,AAXX 29184 85586 32960 02708 10176 20132 40174 58004=
85586,2003,03,29,21,00,AAXX 29214 85586 NIL=
85586,2003,03,30,00,00,AAXX 30004 85586 NIL=
85586,2003,03,30,03,00,AAXX 30034 85586 NIL=
85586,2003,03,30,06,00,AAXX 30064 85586 NIL=
85586,2003,03,30,09,00,AAXX 30094 85586 NIL=
85586,2003,03,30,12,00,AAXX 30124 85586 32460 80000 10121 20103 40166 54/// 885// 333 20118 30/// 50180 55075 56799 88615=
85586,2003,03,30,15,00,AAXX 30154 85586 42560 32303 10152 20110 40164 54002 81501 333 56605 81620=
85586,2003,03,30,18,00,AAXX 30184 85586 32960 12410 10165 20113 40153 57010 80001 333 56005 81075=
85586,2003,03,30,21,00,AAXX 30214 85586 42960 32706 10157 20128 40152 54001 80001 333 56005 83075=
85586,2003,03,31,00,00,AAXX 31004 85586 NIL=
85586,2003,03,31,03,00,AAXX 31034 85586 NIL=
85586,2003,03,31,06,00,AAXX 31064 85586 NIL=
85586,2003,03,31,09,00,AAXX 31094 85586 NIL=
85586,2003,03,31,12,00,AAXX 31124 85586 32560 61208 10114 20107 40159 52/// 86500 333 20114 30/// 50200 55083 56300 86620=
85586,2003,03,31,15,00,AAXX 31154 85586 NIL=
85586,2003,03,31,18,00,AAXX 31184 85586 32560 32410 10162 20123 40147 57014 81501 333 56606 81620 83075=
85586,2003,03,31,21,00,AAXX 31214 85586 42360 82806 10148 20127 40152 53004 886// 333 56699 88710=
85586,2003,04,01,00,00,AAXX 01004 85586 NIL=
85586,2003,04,01,03,00,AAXX 01034 85586 NIL=
85586,2003,04,01,06,00,AAXX 01064 85586 NIL=
85586,2003,04,01,09,00,AAXX 01094 85586 NIL=
85586,2003,04,01,12,00,AAXX 01124 85586 32430 83003 10126 20118 40164 52/// 7102/ 886// 333 20124 30/// 50180 55065 56699 88710=
85586,2003,04,01,15,00,AAXX 01154 85586 41330 83108 10140 20126 40180 52016 71022 886// 333 56799 88710=
85586,2003,04,01,18,00,AAXX 01184 85586 31440 83106 10156 20126 40183 51004 70522 886// 333 56799 88712=
85586,2003,04,01,21,00,AAXX 01214 85586 41456 82706 10153 20127 40181 58003 70522 886// 333 56699 88715=
85586,2003,04,02,00,00,AAXX 02004 85586 31556 80000 10146 20134 40186 71022 885// 333 10170 56099 88620=
85586,2003,04,02,03,00,AAXX 02034 85586 NIL=
85586,2003,04,02,06,00,AAXX 02064 85586 NIL=
85586,2003,04,02,09,00,AAXX 02094 85586 NIL=
85586,2003,04,02,12,00,AAXX 02124 85586 31520 80000 10139 20114 40175 51/// 7052/ 88?/ 333 20136 30/// 50340 55000 56099 88620=
85586,2003,04,02,15,00,AAXX 02154 85586 41530 82704 10148 20116 40187 51012 70522 885// 333 56799 88620=
85586,2003,04,02,18,00,AAXX 02184 85586 31556 80000 10163 20112 40184 50002 70522 885// 333 56799 88620=
85586,2003,04,02,21,00,AAXX 02214 85586 41540 82604 10157 20115 40176 57008 70522 885// 333 56799 88620=
85586,2003,04,03,00,00,AAXX 03004 85586 31540 62305 10143 20114 40184 53007 70522 86500 333 10163 56700 86620=
85586,2003,04,03,03,00,AAXX 03034 85586 NIL=
85586,2003,04,03,06,00,AAXX 03064 85586 NIL=
85586,2003,04,03,09,00,AAXX 03094 85586 NIL=
85586,2003,04,03,12,00,AAXX 03124 85586 31908 01205 10101 20096 40171 52/// 7424/ 333 20073 30/// 50320 55000=
85586,2003,04,03,15,00,AAXX 03154 85586 41956 02904 10175 20124 40168 50001 70544=
85586,2003,04,03,18,00,AAXX 03184 85586 32960 02614 10173 20131 40161 57007=
85586,2003,04,03,21,00,AAXX 03214 85586 42960 02410 10173 20132 40152 57009=
85586,2003,04,04,00,00,AAXX 04004 85586 31956 00000 10142 20119 40161 53008 70500 333 10188=
85586,2003,04,04,03,00,AAXX 04034 85586 NIL=
85586,2003,04,04,06,00,AAXX 04064 85586 NIL=
85586,2003,04,04,09,00,AAXX 04094 85586 NIL=
85586,2003,04,04,12,00,AAXX 04124 85586 31957 00000 10078 20074 40159 53/// 7100/ 333 20069 30/// 50260 55098=
85586,2003,04,04,15,00,AAXX 04154 85586 42960 02412 10205 20096 40159 54003=
85586,2003,04,04,18,00,AAXX 04184 85586 32960 02415 10192 20129 40151 57009=
85586,2003,04,04,21,00,AAXX 04214 85586 42960 02413 10195 20147 40141 57009=
85586,2003,04,05,00,00,AAXX 05004 85586 32960 03602 10143 20120 40167 53024 333 10208=
85586,2003,04,05,03,00,AAXX 05034 85586 NIL=
85586,2003,04,05,06,00,AAXX 05064 85586 NIL=
85586,2003,04,05,09,00,AAXX 05094 85586 NIL=
85586,2003,04,05,12,00,AAXX 05124 85586 32960 00000 10096 20076 40152 54/// 7020/ 333 20077 30/// 50380 55104=
85586,2003,04,05,15,00,AAXX 05154 85586 42965 02408 10232 20096 40145 58005=
85586,2003,04,05,18,00,AAXX 05184 85586 32970 02512 10206 20109 40138 58007=
85586,2003,04,05,21,00,AAXX 05214 85586 42965 02706 10206 20120 40132 56006=
85586,2003,04,06,00,00,AAXX 06004 85586 31956 00000 10136 20114 40146 53011 70500 333 10234=
85586,2003,04,06,03,00,AAXX 06034 85586 NIL=
85586,2003,04,06,06,00,AAXX 06064 85586 NIL=
85586,2003,04,06,09,00,AAXX 06094 85586 NIL=
85586,2003,04,06,12,00,AAXX 06124 85586 32960 01802 10102 20095 40158 52/// 333 20068 30/// 50240 55102=
85586,2003,04,06,15,00,AAXX 06154 85586 42960 02510 10194 20087 40158 54002=
85586,2003,04,06,18,00,AAXX 06184 85586 32960 22404 10192 20103 40151 57008 80001 333 56006 82075=
85586,2003,04,06,21,00,AAXX 06214 85586 42960 32404 10198 20103 40136 57013 80001 333 56006 83075=
85586,2003,04,07,00,00,AAXX 07004 85586 32960 10000 10150 20119 40145 53007 80001 333 10220 56006 81075=
85586,2003,04,07,03,00,AAXX 07034 85586 NIL=
85586,2003,04,07,06,00,AAXX 07064 85586 NIL=
85586,2003,04,07,09,00,AAXX 07094 85586 NIL=
85586,2003,04,07,12,00,AAXX 07124 85586 32960 00000 10078 20072 40145 54/// 333 20058 30/// 50220 55105=
85586,2003,04,07,15,00,AAXX 07154 85586 42960 02608 10194 20097 40135 57008=
85586,2003,04,07,18,00,AAXX 07184 85586 32960 02512 10168 20091 40123 57012=
85586,2003,04,07,21,00,AAXX 07214 85586 42960 03606 10178 20082 40123 54000=
85586,2003,04,08,00,00,AAXX 08004 85586 32960 30000 10120 20090 40133 53009 80001 333 10204 56006 83075=
85586,2003,04,08,03,00,AAXX 08034 85586 NIL=
85586,2003,04,08,06,00,AAXX 08064 85586 NIL=
85586,2003,04,08,09,00,AAXX 08094 85586 NIL=
85586,2003,04,08,12,00,AAXX 08124 85586 32960 00000 10056 20036 40147 52/// 333 20038 30/// 50380 55104=
85586,2003,04,08,15,00,AAXX 08154 85586 41958 02506 10171 20102 40139 58005 70500=
85586,2003,04,08,18,00,AAXX 08184 85586 32965 62612 10182 20103 40138 50001 80001 333 56006 86075=
85586,2003,04,08,21,00,AAXX 08214 85586 42965 12604 10194 20093 40135 56003 333 56006 81075=
85586,2003,04,09,00,00,AAXX 09004 85586 31956 00000 10143 20103 40149 52013 70500 333 10194=
85586,2003,04,09,03,00,AAXX 09034 85586 NIL=
85586,2003,04,09,06,00,AAXX 09064 85586 NIL=
85586,2003,04,09,09,00,AAXX 09094 85586 NIL=
85586,2003,04,09,12,00,AAXX 09124 85586 31958 00000 10078 20060 40158 53/// 7050/ 333 20047 30/// 50320 55105=
85586,2003,04,09,15,00,AAXX 09154 85586 42970 02505 10187 20109 40159 51003=
85586,2003,04,09,18,00,AAXX 09184 85586 32970 02412 10183 20126 40151 58008=
85586,2003,04,09,21,00,AAXX 09214 85586 42965 02903 10165 20123 40156 53005=
85586,2003,04,10,00,00,AAXX 10004 85586 NIL=
85586,2003,04,10,03,00,AAXX 10034 85586 NIL=
85586,2003,04,10,06,00,AAXX 10064 85586 NIL=
85586,2003,04,10,09,00,AAXX 10094 85586 NIL=
85586,2003,04,10,12,00,AAXX 10124 85586 31102 80000 10078 20072 40156 53/// 7444/ 886// 333 20055 30/// 50270 55104 56799 88702=
85586,2003,04,10,15,00,AAXX 10154 85586 41108 72602 10124 20117 40163 52008 74444 87600 333 56700 87703=
85586,2003,04,10,18,00,AAXX 10184 85586 31109 82708 10129 20118 40163 54000 74444 886// 333 56799 88703=
85586,2003,04,10,21,00,AAXX 10214 85586 41112 83207 10126 20117 40159 57004 71044 886// 333 56799 88703=
85586,2003,04,11,00,00,AAXX 11004 85586 31120 83103 10115 20109 40170 53011 71042 886// 333 10131 56799 88703=
85586,2003,04,11,03,00,AAXX 11034 85586 NIL=
85586,2003,04,11,06,00,AAXX 11064 85586 NIL=
85586,2003,04,11,09,00,AAXX 11094 85586 NIL=
85586,2003,04,11,12,00,AAXX 11124 85586 31340 80000 10112 20103 40171 53/// 7102/ 886// 333 20110 30/// 50160 55011 56799 88707=
85586,2003,04,11,15,00,AAXX 11154 85586 41340 83603 10119 20104 40180 52009 70522 886// 333 56799 88707=
85586,2003,04,11,18,00,AAXX 11184 85586 31458 72705 10134 20107 40171 58009 70522 87600 333 56700 87710=
85586,2003,04,11,21,00,AAXX 11214 85586 41458 82702 10125 20109 40173 54002 70522 886// 333 56799 88710=
85586,2003,04,12,00,00,AAXX 12004 85586 31357 80000 10125 20112 40174 54001 70522 886// 333 10138 56799 88707=
85586,2003,04,12,03,00,AAXX 12034 85586 NIL=
85586,2003,04,12,06,00,AAXX 12064 85586 NIL=
85586,2003,04,12,09,00,AAXX 12094 85586 NIL=
85586,2003,04,12,12,00,AAXX 12124 85586 31107 80000 10096 20091 40170 57/// 7464/ 886// 333 20096 30/// 50200 55002 56099 88702=
85586,2003,04,12,15,00,AAXX 12154 85586 41212 80000 10104 20097 40178 53008 71044 886// 333 56099 88705=
85586,2003,04,12,18,00,AAXX 12184 85586 31320 82604 10114 20103 40177 54000 71042 886// 333 56699 88707=
85586,2003,04,12,21,00,AAXX 12214 85586 41312 83102 10118 20111 40184 53007 71022 886// 333 56699 88707=
85586,2003,04,13,00,00,AAXX 13004 85586 31208 80000 10110 20102 40192 52007 74642 886// 333 10124 56099 88705=
85586,2003,04,13,03,00,AAXX 13034 85586 NIL=
85586,2003,04,13,06,00,AAXX 13064 85586 NIL=
85586,2003,04,13,09,00,AAXX 13094 85586 NIL=
85586,2003,04,13,12,00,AAXX 13124 85586 31320 80000 10100 20092 40193 53/// 7102/ 886// 333 20098 30/// 50160 55000 56099 88707=
85586,2003,04,13,15,00,AAXX 13154 85586 41440 80303 10112 20103 40197 52005 71022 885// 333 56099 88610=
85586,2003,04,13,18,00,AAXX 13184 85586 31440 82504 10122 20102 40191 58006 70522 885// 333 56099 88610=
85586,2003,04,13,21,00,AAXX 13214 85586 41440 82906 10120 20105 40190 54000 71022 885// 333 56099 88610=
85586,2003,04,14,00,00,AAXX 14004 85586 31430 83102 10118 20111 40196 53005 71022 885// 333 10125 56099 88610=
85586,2003,04,14,03,00,AAXX 14034 85586 NIL=
85586,2003,04,14,06,00,AAXX 14064 85586 NIL=
85586,2003,04,14,09,00,AAXX 14094 85586 NIL=
85586,2003,04,14,12,00,AAXX 14124 85586 11556 80000 10124 20104 40221 52/// 69914 7052/ 885// 333 20116 31/// 50250 55000 56099 70001 88620=
85586,2003,04,14,15,00,AAXX 14154 85586 41556 80903 10139 20099 40219 50001 70522 885// 333 56799 88620=
85586,2003,04,14,18,00,AAXX 14184 85586 31558 82505 10141 20109 40213 56006 70522 885// 333 56799 88620=
85586,2003,04,15,00,00,AAXX 15004 85586 31540 82310 10126 20106 40212 53003 70522 885// 333 10145 56799 88620=
85586,2003,04,15,06,00,AAXX 15064 85586 NIL=
85586,2003,04,15,09,00,AAXX 15094 85586 NIL=
85586,2003,04,15,12,00,AAXX 15124 85586 31540 80000 10119 20096 40180 56/// 7052/ 885// 333 20071 30/// 50260 55000 56799 88620=
85586,2003,04,15,15,00,AAXX 15154 85586 41556 82704 10146 20101 40188 51008 70522 885// 333 56799 88620=
85586,2003,04,15,18,00,AAXX 15184 85586 31558 73208 10154 20102 40181 58007 70522 84501 333 56706 84620 83075=
85586,2003,04,15,21,00,AAXX 15214 85586 41556 82908 10146 20122 40190 53009 70522 885// 333 56799 88620=
85586,2003,04,16,00,00,AAXX 16004 85586 31540 70000 10131 20111 40192 54001 70522 83501 333 10159 56706 83520 84075=
85586,2003,04,16,03,00,AAXX 16034 85586 NIL=
85586,2003,04,16,06,00,AAXX 16064 85586 NIL=
85586,2003,04,16,09,00,AAXX 16094 85586 NIL=
85586,2003,04,16,12,00,AAXX 16124 85586 31550 80000 10125 20112 40177 54/// 7052/ 885// 333 20102 30/// 50190 55000 56799 88625=
85586,2003,04,16,15,00,AAXX 16154 85586 41550 80000 10152 20132 40189 52012 70522 885// 333 56799 88625=
85586,2003,04,16,18,00,AAXX 16184 85586 31357 72705 10175 20105 40167 58011 70522 87500 333 56700 87625=
85586,2003,04,16,21,00,AAXX 16214 85586 41558 62903 10156 20107 40173 57004 70522 83501 333 56706 83625 83075=
85586,2003,04,17,00,00,AAXX 17004 85586 31540 60000 10104 20084 40163 57012 70522 82501 333 10176 56706 82625=
85586,2003,04,17,03,00,AAXX 17034 85586 NIL=
85586,2003,04,17,06,00,AAXX 17064 85586 NIL=
85586,2003,04,17,09,00,AAXX 17094 85586 NIL=
85586,2003,04,17,12,00,AAXX 17124 85586 31756 30000 10094 20074 40189 51/// 7051/ 81031 333 20074 30/// 50250 55005 56066 81356 82075=
85586,2003,04,17,15,00,AAXX 17154 85586 41756 72503 10158 20107 40194 52007 70522 87030 333 56060 87355=
85586,2003,04,17,18,00,AAXX 17184 85586 32760 43206 10184 20106 40194 50000 84030 333 56060 84356=
85586,2003,04,18,00,00,AAXX 18004 85586 31958 00000 10121 20101 40199 51005 70511 333 10194=
85586,2003,04,18,06,00,AAXX 18064 85586 NIL=
85586,2003,04,18,09,00,AAXX 18094 85586 NIL=
85586,2003,04,18,12,00,AAXX 18124 85586 32960 00000 10060 20054 40205 53/// 333 20050 30/// 50240 55052=
85586,2003,04,18,15,00,AAXX 18154 85586 42960 42004 10164 20098 40206 54001 80001 333 56006 84075=
85586,2003,04,18,18,00,AAXX 18184 85586 32960 02616 10172 20106 40199 57006=
85586,2003,04,18,21,00,AAXX 18214 85586 42960 02410 10164 20119 40191 57008=
85586,2003,04,19,00,00,AAXX 19004 85586 32960 00903 10120 20107 40204 52013 333 10174=
85586,2003,04,19,03,00,AAXX 19034 85586 NIL=
85586,2003,04,19,06,00,AAXX 19064 85586 NIL=
85586,2003,04,19,09,00,AAXX 19094 85586 NIL=
85586,2003,04,19,12,00,AAXX 19124 85586 32960 20000 10060 20054 40215 52/// 80001 333 20044 30/// 50230 55095 56006 82075=
85586,2003,04,19,15,00,AAXX 19154 85586 42960 12406 10182 20091 40208 58003 80001 333 56006 81075=
85586,2003,04,19,18,00,AAXX 19184 85586 32960 12512 10174 20110 40191 57017 80001 333 56006 81075=
85586,2003,04,19,21,00,AAXX 19214 85586 42960 12804 10168 20109 40171 57020 80001 333 56006 81075=
85586,2003,04,20,00,00,AAXX 20004 85586 32960 00000 10116 20103 40170 54004 333 10184=
85586,2003,04,20,03,00,AAXX 20034 85586 NIL=
85586,2003,04,20,06,00,AAXX 20064 85586 NIL=
85586,2003,04,20,09,00,AAXX 20094 85586 NIL=
85586,2003,04,20,12,00,AAXX 20124 85586 32960 60806 10094 20081 4013 333 20054 30/// 50210 55100 56066 85365=
85586,2003,04,20,15,00,AAXX 20154 85586 42960 62804 10151 20102 40149 52014 82031 333 56066 82365 84075=
85586,2003,04,20,18,00,AAXX 20184 85586 32960 32505 10173 20118 40145 58003 80001 333 56006 83075=
85586,2003,04,20,21,00,AAXX 20214 85586 42960 52806 10161 20127 40148 53003 83031 333 56066 83365=
85586,2003,04,21,00,00,AAXX 21004 85586 32960 70000 10146 20132 40162 52013 85031 333 10176 56066 85365=
85586,2003,04,21,03,00,AAXX 21034 85586 NIL=
85586,2003,04,21,06,00,AAXX 21064 85586 NIL=
85586,2003,04,21,09,00,AAXX 21094 85586 NIL=
85586,2003,04,21,12,00,AAXX 21124 85586 31103 80000 10140 20136 40170 52/// 7444/ 886// 333 20120 30/// 50170 55084 56699 88702=
85586,2003,04,21,15,00,AAXX 21154 85586 41160 72405 10160 20144 40179 52010 87500 333 56600 82703 85615=
85586,2003,04,21,18,00,AAXX 21184 85586 31560 32309 10170 20123 40169 58010 70141 81501 333 56606 81620=
85586,2003,04,21,21,00,AAXX 21214 85586 42960 52510 10148 20117 40162 57008 82031 333 56066 82365 83075=
85586,2003,04,22,00,00,AAXX 22004 85586 32960 40000 10120 20109 40167 53005 83031 333 10173 56066 82365=
85586,2003,04,22,03,00,AAXX 22034 85586 NIL=
85586,2003,04,22,06,00,AAXX 22064 85586 NIL=
85586,2003,04,22,09,00,AAXX 22094 85586 NIL=
85586,2003,04,22,12,00,AAXX 22124 85586 32960 20000 10060 20056 40168 53/// 80001 333 20049 30/// 50190 55050 56006 82075=
85586,2003,04,22,15,00,AAXX 22154 85586 42960 42602 10159 20114 40171 52006 80001 333 56006 84075=
85586,2003,04,22,18,00,AAXX 22184 85586 32960 52409 10172 20132 40164 58007 80001 333 56006 85075=
85586,2003,04,22,21,00,AAXX 22214 85586 42960 52508 10164 20123 40157 57007 80001 333 56006 85075=
85586,2003,04,23,00,00,AAXX 23004 85586 32960 50000 10107 20088 40180 52022 80001 333 10178 56006 85075=
85586,2003,04,23,03,00,AAXX 23034 85586 NIL=
85586,2003,04,23,06,00,AAXX 23064 85586 NIL=
85586,2003,04,23,09,00,AAXX 23094 85586 NIL=
85586,2003,04,23,12,00,AAXX 23124 85586 32960 70000 10073 20066 40200 52/// 83031 333 20070 30/// 50180 55083 56066 83365 84070=
85586,2003,04,23,15,00,AAXX 23154 85586 42960 72504 10135 20113 40203 52006 83031 333 56066 83365 84070=
85586,2003,04,23,18,00,AAXX 23184 85586 32960 72410 10160 20116 40188 58014 83031 333 56066 83365 84070=
85586,2003,04,23,21,00,AAXX 23214 85586 42960 62406 10144 20108 40187 54002 83031 333 56066 83365 83070=
85586,2003,04,24,00,00,AAXX 24004 85586 32960 50000 10100 20084 40198 52009 82031 333 10165 56066 82365 83073=
85586,2003,04,24,03,00,AAXX 24034 85586 NIL=
85586,2003,04,24,06,00,AAXX 24064 85586 NIL=
85586,2003,04,24,09,00,AAXX 24094 85586 NIL=
85586,2003,04,24,12,00,AAXX 24124 85586 32960 00000 10046 20039 40187 54/// 333 20034 30/// 50230 55034=
85586,2003,04,24,15,00,AAXX 24154 85586 42960 32704 10146 20086 40187 54002 80001 333 56006 83075=
85586,2003,04,24,18,00,AAXX 24184 85586 32960 52510 10158 20089 40169 57017 80001 333 56006 85075=
85586,2003,04,24,21,00,AAXX 24214 85586 42960 52404 10147 20085 40164 56006 84031 333 56066 84366=
85586,2003,04,25,00,00,AAXX 25004 85586 32960 70000 10110 20097 40170 53006 85032 333 10162 56066 85366=
85586,2003,04,25,03,00,AAXX 25034 85586 NIL=
85586,2003,04,25,06,00,AAXX 25064 85586 NIL=
85586,2003,04,25,09,00,AAXX 25094 85586 NIL=
85586,2003,04,25,12,00,AAXX 25124 85586 32960 60000 10086 20080 40160 53/// 86030 333 20084 30/// 50190 55083 56060 86365=
85586,2003,04,25,15,00,AAXX 25154 85586 41956 63304 10130 20101 40176 52017 70522 86030 333 56060 86365=
85586,2003,04,25,18,00,AAXX 25184 85586 32960 22707 10154 20084 40173 58003 80002 333 56006 82075=
85586,2003,04,25,21,00,AAXX 25214 85586 42960 02510 10141 20101 40175 54002=
85586,2003,04,26,00,00,AAXX 26004 85586 32960 00000 10100 20092 40173 54001 333 10158=
85586,2003,04,26,03,00,AAXX 26034 85586 NIL=
85586,2003,04,26,06,00,AAXX 26064 85586 NIL=
85586,2003,04,26,09,00,AAXX 26094 85586 NIL=
85586,2003,04,26,12,00,AAXX 26124 85586 31908 00000 10034 20030 40177 52/// 7114/ 333 20022 30/// 50270 55055=
85586,2003,04,26,15,00,AAXX 26154 85586 41958 02503 10134 20096 40188 52014 70544=
85586,2003,04,26,18,00,AAXX 26184 85586 32960 02404 10154 20086 40185 50003=
85586,2003,04,26,21,00,AAXX 26214 85586 42960 02412 10143 20099 40190 53005=
85586,2003,04,27,00,00,AAXX 27004 85586 31940 00000 10087 20070 40199 52007 70500 333 10155=
85586,2003,04,27,03,00,AAXX 27034 85586 NIL=
85586,2003,04,27,06,00,AAXX 27064 85586 NIL=
85586,2003,04,27,09,00,AAXX 27094 85586 NIL=
85586,2003,04,27,12,00,AAXX 27124 85586 31920 00000 10036 20026 40216 53/// 7110/ 333 20029 30/// 50250 55100=
85586,2003,04,27,15,00,AAXX 27154 85586 42960 02506 10146 20084 40213 50001=
85586,2003,04,27,18,00,AAXX 27184 85586 32960 02612 10159 20074 40205 57008=
85586,2003,04,27,21,00,AAXX 27214 85586 42960 02509 10151 20087 40192 57013=
85586,2003,04,28,00,00,AAXX 28004 85586 31940 00000 10087 20067 40193 54001 70500 333 10164=
85586,2003,04,28,03,00,AAXX 28034 85586 NIL=
85586,2003,04,28,06,00,AAXX 28064 85586 NIL=
85586,2003,04,28,09,00,AAXX 28094 85586 NIL=
85586,2003,04,28,12,00,AAXX 28124 85586 32960 51103 10040 20035 40169 57/// 80001 333 20017 30/// 50150 55099 56005 85073=
85586,2003,04,28,15,00,AAXX 28154 85586 42960 52905 10136 20107 40168 54002 80001 333 56005 85073=
85586,2003,04,28,18,00,AAXX 28184 85586 32960 42307 10159 20096 40155 57012 80001 333 56005 84073=
85586,2003,04,28,21,00,AAXX 28214 85586 42960 22906 10152 20097 40153 57003 80001 333 56005 82073=
85586,2003,04,29,00,00,AAXX 29004 85586 32960 10000 10109 20096 40165 53012 80001 333 10163 56005 81073=
85586,2003,04,29,03,00,AAXX 29034 85586 NIL=
85586,2003,04,29,06,00,AAXX 29064 85586 NIL=
85586,2003,04,29,09,00,AAXX 29094 85586 NIL=
85586,2003,04,29,12,00,AAXX 29124 85586 32560 81103 10084 20066 40183 52/// 885// 333 20054 30/// 50180 55090 56699 88620=
85586,2003,04,29,15,00,AAXX 29154 85586 42460 70000 10158 20124 40192 52010 87500 333 56600 87617=
85586,2003,04,29,18,00,AAXX 29184 85586 32560 52905 10172 20117 40190 54001 81531 333 56666 81620 83365=
85586,2003,04,29,21,00,AAXX 29214 85586 42560 12605 10167 20121 40194 52004 81500 333 56600 81620=
85586,2003,04,30,00,00,AAXX 30004 85586 32960 00000 10108 20097 40197 54001 333 10180=
85586,2003,04,30,03,00,AAXX 30034 85586 NIL=
85586,2003,04,30,06,00,AAXX 30064 85586 NIL=
85586,2003,04,30,09,00,AAXX 30094 85586 NIL=
85586,2003,04,30,12,00,AAXX 30124 85586 32960 61802 10073 20064 40194 53/// 80002 333 20068 30/// 50180 55061 56006 86070=
85586,2003,04,30,15,00,AAXX 30154 85586 42960 61502 10162 20066 40201 52010 80002 333 56006 86070=
85586,2003,04,30,18,00,AAXX 30184 85586 32960 22412 10170 20105 40192 58008 80001 333 56006 82073=
85586,2003,04,30,21,00,AAXX 30214 85586 42960 12408 10164 20119 40188 56004 80001 333 56006 81075=
85586,2003,05,01,00,00,AAXX 01004 85586 32960 00000 10110 20097 40200 53010 333 10192=
85586,2003,05,01,03,00,AAXX 01034 85586 NIL=
85586,2003,05,01,06,00,AAXX 01064 85586 NIL=
85586,2003,05,01,09,00,AAXX 01094 85586 NIL=
85586,2003,05,01,12,00,AAXX 01124 85586 32960 00000 10048 20042 40207 57/// 333 20040 30/// 50200 55089=
85586,2003,05,01,15,00,AAXX 01154 85586 42960 02608 10170 20089 40204 540016=
85586,2003,05,01,18,00,AAXX 01184 85586 32965 02512 10193 20096 40195 58009=
85586,2003,05,01,21,00,AAXX 01214 85586 42960 02602 10174 20086 40187 57008=
85586,2003,05,02,00,00,AAXX 02004 85586 32960 00000 10096 20081 40192 54002 333 10216=
85586,2003,05,02,03,00,AAXX 02034 85586 NIL=
85586,2003,05,02,06,00,AAXX 02064 85586 NIL=
85586,2003,05,02,09,00,AAXX 02094 85586 NIL=
85586,2003,05,02,12,00,AAXX 02124 85586 32965 71205 10114 20056 40142 57/// 80001 333 20038 30/// 50310 55097 56006 87075=
85586,2003,05,02,15,00,AAXX 02154 85586 42960 72502 10206 20076 40129 57010 80001 333 56006 87075=
85586,2003,05,02,18,00,AAXX 02184 85586 32965 72703 10183 20090 40120 57011 80001 333 56006 87075=
85586,2003,05,02,21,00,AAXX 02214 85586 42965 50204 10182 20108 40111 57011 80001 333 56006 85075=
85586,2003,05,03,00,00,AAXX 03004 85586 31940 40000 10114 20091 40120 53008 70522 80001 333 10226 56006 84075=
85586,2003,05,03,03,00,AAXX 03034 85586 NIL=
85586,2003,05,03,06,00,AAXX 03064 85586 NIL=
85586,2003,05,03,09,00,AAXX 03094 85586 NIL=
85586,2003,05,03,12,00,AAXX 03124 85586 31940 50000 10073 20065 40141 52/// 7112/ 80001 333 20063 30/// 50320 55097 56006 85075=
85586,2003,05,03,15,00,AAXX 03154 85586 42960 52805 10152 20108 40160 52021 80001 333 56006 85075=
85586,2003,05,03,18,00,AAXX 03184 85586 32960 73214 10157 20109 40163 51004 80001 333 56006 87075=
85586,2003,05,03,21,00,AAXX 03214 85586 42965 33214 10154 20115 40178 52014 80001 333 56006 83075=
85586,2003,05,04,00,00,AAXX 04004 85586 31940 63603 10136 20114 40187 51009 70521 86030 333 10171 56070 86360=
85586,2003,05,04,03,00,AAXX 04034 85586 NIL=
85586,2003,05,04,06,00,AAXX 04064 85586 NIL=
85586,2003,05,04,09,00,AAXX 04094 85586 NIL=
85586,2003,05,04,12,00,AAXX 04124 85586 32960 51202 10080 20070 40188 53/// 83031 333 20072 30/// 50230 55074 56066 83365=
85586,2003,05,04,15,00,AAXX 04154 85586 42960 43107 10149 20110 40195 52008 82031 333 56066 82365=
85586,2003,05,04,18,00,AAXX 04184 85586 32960 02605 10161 20122 40180 57014=
85586,2003,05,04,21,00,AAXX 04214 85586 42960 02505 10157 20128 40175 57005=
85586,2003,05,05,00,00,AAXX 05004 85586 32960 00000 10108 20095 40182 53006 333 10172=
85586,2003,05,05,03,00,AAXX 05034 85586 NIL=
85586,2003,05,05,06,00,AAXX 05064 85586 NIL=
85586,2003,05,05,09,00,AAXX 05094 85586 NIL=
85586,2003,05,05,12,00,AAXX 05124 85586 32960 01002 10108 20097 40178 53/// 333 20060 30/// 50180 55081=
85586,2003,05,05,15,00,AAXX 05154 85586 42960 02406 10150 20129 40175 58003=
85586,2003,05,05,18,00,AAXX 05184 85586 32260 22510 10156 20124 40163 57009 82600 333 56700 82704=
85586,2003,05,05,21,00,AAXX 05214 85586 42960 00000 10145 20124 40161 57005=
85586,2003,05,06,00,00,AAXX 06004 85586 31208 80000 10086 20082 40163 54001 74442 886// 333 10161 56799 88704=
85586,2003,05,06,03,00,AAXX 06034 85586 NIL=
85586,2003,05,06,06,00,AAXX 06064 85586 NIL=
85586,2003,05,06,09,00,AAXX 06094 85586 NIL=
85586,2003,05,06,12,00,AAXX 06124 85586 32960 11202 10036 20032 40148 57/// 80001 333 20032 30/// 50220 55093 56006 81075=
85586,2003,05,06,15,00,AAXX 06154 85586 42960 03002 10160 20135 40141 57003=
85586,2003,05,06,18,00,AAXX 06184 85586 32960 23106 10172 20098 40131 57010 80001 333 56006 82075=
85586,2003,05,06,21,00,AAXX 06214 85586 42960 20406 10164 20100 40125 57006 80001 333 56006 82075=
85586,2003,05,07,00,00,AAXX 07004 85586 32960 00000 10084 20073 40132 53005 80001 333 10174 56006 82075=
85586,2003,05,07,03,00,AAXX 07034 85586 NIL=
85586,2003,05,07,06,00,AAXX 07064 85586 NIL=
85586,2003,05,07,09,00,AAXX 07094 85586 NIL=
85586,2003,05,07,12,00,AAXX 07124 85586 31440 80000 10108 20100 40151 52/// 885// 333 20048 30/// 50180 55091 56099 88613=
85586,2003,05,07,15,00,AAXX 07154 85586 41440 80904 10127 20098 40163 51012 71022 885// 333 56099 88610=
85586,2003,05,07,18,00,AAXX 07184 85586 31440 83112 10142 20110 40156 57007 70522 885// 333 56799 88610=
85586,2003,05,07,21,00,AAXX 07214 85586 41430 83103 10136 20106 40155 54001 70522 885// 333 56799 88613=
85586,2003,05,08,00,00,AAXX 08004 85586 31456 83106 10132 20109 40186 52021 70522 885// 333 10147 56799 88615=
85586,2003,05,08,03,00,AAXX 08034 85586 NIL=
85586,2003,05,08,06,00,AAXX 08064 85586 NIL=
85586,2003,05,08,09,00,AAXX 08094 85586 NIL=
85586,2003,05,08,12,00,AAXX 08124 85586 31556 80000 10133 20104 40189 52/// 7052/ 885// 333 20131 30/// 50220 55000 56799 88620=
85586,2003,05,08,15,00,AAXX 08154 85586 41556 80604 10152 20092 40185 50004 70522 885// 333 56099 88620=
85586,2003,05,08,18,00,AAXX 08184 85586 31556 80506 10166 20090 40179 58005 70522 885// 333 56799 88620=
85586,2003,05,08,21,00,AAXX 08214 85586 41556 83004 10159 20084 40178 54001 70522 885// 333 56799 88620=
85586,2003,05,09,00,00,AAXX 09004 85586 31940 30000 10106 20079 40176 57003 70511 80001 333 10167 56006 83075=
85586,2003,05,09,03,00,AAXX 09034 85586 NIL=
85586,2003,05,09,06,00,AAXX 09064 85586 NIL=
85586,2003,05,09,09,00,AAXX 09094 85586 NIL=
85586,2003,05,09,12,00,AAXX 09124 85586 31940 80806 10099 20080 40179 51/// 7052/ 84031 333 20077 30/// 50230 55000 56076 84360 84075=
85586,2003,05,09,15,00,AAXX 09154 85586 41956 80000 10136 20096 40185 51007 70522 83031 333 56076 83360 85075=
85586,2003,05,09,18,00,AAXX 09184 85586 31958 42804 10153 20104 40172 57013 70521 84030 333 56070 84360=
85586,2003,05,09,21,00,AAXX 09214 85586 42960 22605 10162 20102 40176 53005 82030 333 56070 82360=
85586,2003,05,10,00,00,AAXX 10004 85586 31940 00000 10092 20072 40194 52015 70510 333 10164=
85586,2003,05,10,03,00,AAXX 10034 85586 NIL=
85586,2003,05,10,06,00,AAXX 10064 85586 NIL=
85586,2003,05,10,09,00,AAXX 10094 85586 NIL=
85586,2003,05,10,12,00,AAXX 10124 85586 31550 11404 10080 20070 40204 53/// 7100/ 81500 333 20061 50200 55033 56000 81633=
85586,2003,05,10,15,00,AAXX 10154 85586 41940 01106 10156 20099 40205 52003 70500=
85586,2003,05,10,18,00,AAXX 10184 85586 31230 22609 10150 20129 40189 58016 70500 82600 333 56700 82704=
85586,2003,05,10,21,00,AAXX 10214 85586 41956 02412 10141 20115 40184 56005 70500=
85586,2003,05,11,00,00,AAXX 11004 85586 31956 00703 10083 20073 40195 52009 71000 333 10172=
85586,2003,05,11,03,00,AAXX 11034 85586 NIL=
85586,2003,05,11,06,00,AAXX 11064 85586 NIL=
85586,2003,05,11,09,00,AAXX 11094 85586 NIL=
85586,2003,05,11,12,00,AAXX 11124 85586 31957 20000 10032 20022 40184 53/// 7100/ 80001 333 20020 30/// 50170 55086 56005 82073=
85586,2003,05,11,15,00,AAXX 11154 85586 41959 53102 10128 20105 40181 54000 70511 80001 333 56005 85073=
85586,2003,05,11,18,00,AAXX 11184 85586 32960 72512 10151 20096 40168 57013 80001 333 56005 87073=
85586,2003,05,11,21,00,AAXX 11214 85586 42960 72406 10142 20098 40163 57005 80001 333 56006 87073=
85586,2003,05,12,00,00,AAXX 12004 85586 32960 60000 10074 20065 40181 52016 80001 333 10160 56005 86073=
85586,2003,05,12,03,00,AAXX 12034 85586 NIL=
85586,2003,05,12,06,00,AAXX 12064 85586 NIL=
85586,2003,05,12,09,00,AAXX 12094 85586 NIL=
85586,2003,05,12,12,00,AAXX 12124 85586 32960 50000 10034 20029 40202 52/// 80001 333 20020 30/// 50170 55068 56006 85075=
85586,2003,05,12,15,00,AAXX 12154 85586 41956 72606 10118 20084 40211 52013 70522 80002 333 56006 87075=
85586,2003,05,12,18,00,AAXX 12184 85586 32960 42905 10139 20077 40199 57012 80002 333 56006 84075=
85586,2003,05,12,21,00,AAXX 12214 85586 42960 22604 10136 20088 40199 54000 80001 333 56006 82075=
85586,2003,05,13,00,00,AAXX 13004 85586 32960 10904 10070 20060 40194 57008 80001 333 10142 56006 81075=
85586,2003,05,13,03,00,AAXX 13034 85586 NIL=
85586,2003,05,13,06,00,AAXX 13064 85586 NIL=
85586,2003,05,13,09,00,AAXX 13094 85586 NIL=
85586,2003,05,13,12,00,AAXX 13124 85586 31930 20000 10018 20013 40177 56/// 7101/ 80001 333 20018 30/// 50160 55060 56006 82075=
85586,2003,05,13,15,00,AAXX 13154 85586 42960 12806 10134 20085 40171 56003 80001 333 56006 81075=
85586,2003,05,13,18,00,AAXX 13184 85586 32960 72807 10134 20104 40182 52011 87030 333 56060 87366=
85586,2003,05,13,21,00,AAXX 13214 85586 42560 73104 10126 20110 40189 52007 84530 333 56760 84620 85365=
85586,2003,05,14,00,00,AAXX 14004 85586 31940 40000 10080 20068 40196 52005 71022 82031 333 10146 56066 82365 83075=
85586,2003,05,14,03,00,AAXX 14034 85586 NIL=
85586,2003,05,14,06,00,AAXX 14064 85586 NIL=
85586,2003,05,14,09,00,AAXX 14094 85586 NIL=
85586,2003,05,14,12,00,AAXX 14124 85586 32960 00907 10051 20034 40180 51/// 333 20046 30/// 50210 55042=
85586,2003,05,14,15,00,AAXX 14154 85586 42965 00903 10147 20074 40199 50002=
85586,2003,05,14,18,00,AAXX 14184 85586 32970 02512 10168 20060 40181 57017=
85586,2003,05,14,21,00,AAXX 14214 85586 42970 02310 10146 20102 40177 56005=
85586,2003,05,15,00,00,AAXX 15004 85586 31956 00000 10078 20061 40188 51010 70500 333 10175=
85586,2003,05,15,03,00,AAXX 15034 85586 NIL=
85586,2003,05,15,06,00,AAXX 15064 85586 NIL=
85586,2003,05,15,09,00,AAXX 15094 85586 NIL=
85586,2003,05,15,12,00,AAXX 15124 85586 32960 01003 10041 20034 40180 52/// 333 20021 30/// 50250 55096=
85586,2003,05,15,15,00,AAXX 15154 85586 41958 01805 10148 20056 40178 54001 70500=
85586,2003,05,15,18,00,AAXX 15184 85586 31958 62312 10158 20089 40164 58013 70510 82031 333 56076 82360 84075=
85586,2003,05,15,21,00,AAXX 15214 85586 41956 70000 10144 20091 40161 56004 70522 81031 333 56076 81360 86073=
85586,2003,05,16,00,00,AAXX 16004 85586 31956 40000 10102 20072 40163 54001 70521 84030 333 10163 56070 84360=
85586,2003,05,16,03,00,AAXX 16034 85586 NIL=
85586,2003,05,16,06,00,AAXX 16064 85586 NIL=
85586,2003,05,16,09,00,AAXX 16094 85586 NIL=
85586,2003,05,16,12,00,AAXX 16124 85586 32960 10000 10010 20003 40170 53/// 81030 333 20009 30/// 50150 55057 56600 81365=
85586,2003,05,16,15,00,AAXX 16154 85586 42960 12302 10142 20084 40171 52005 81030 333 56600 81365=
85586,2003,05,16,18,00,AAXX 16184 85586 32960 12410 10134 20090 40158 58013 81030 333 56600 81365=
85586,2003,05,16,21,00,AAXX 16214 85586 42960 12307 10125 20088 40155 57003 81030 333 56600 81365=
85586,2003,05,17,00,00,AAXX 17004 85586 32960 10000 10054 20045 40173 52016 81030 333 10144 56600 81365=
85586,2003,05,17,03,00,AAXX 17034 85586 NIL=
85586,2003,05,17,06,00,AAXX 17064 85586 NIL=
85586,2003,05,17,09,00,AAXX 17094 85586 NIL=
85586,2003,05,17,12,00,AAXX 17124 85586 32960 00000 10030 20025 40212 52/// 333 20015 30/// 50130 55082=
85586,2003,05,17,15,00,AAXX 17154 85586 42960 02702 10120 20092 40214 52005=
85586,2003,05,17,18,00,AAXX 17184 85586 32960 32510 10136 20080 40197 58016 80001 333 56005 83075=
85586,2003,05,17,21,00,AAXX 17214 85586 42960 30000 10134 20102 40191 57007 80001 333 56005 83075=
85586,2003,05,18,00,00,AAXX 18004 85586 32960 10000 10046 20032 40194 54001 80001 333 10142 56005 81075=
85586,2003,05,18,03,00,AAXX 18034 85586 NIL=
85586,2003,05,18,06,00,AAXX 18064 85586 NIL=
85586,2003,05,18,09,00,AAXX 18094 85586 NIL=
85586,2003,05,18,12,00,AAXX 18124 85586 31940 61206 10026 20019 40165 56/? 7102/ 84031 333 21002 30/// 50150 55084 56066 84363 83075=
85586,2003,05,18,15,00,AAXX 18154 85586 41930 81204 10076 20023 40162 54001 70522 84032 333 56066 84363 85073=
85586,2003,05,18,18,00,AAXX 18184 85586 31940 80000 10114 20036 40151 57010 70522 83032 333 56066 83363 85073=
85586,2003,05,18,21,00,AAXX 18214 85586 41956 72506 10114 20074 40146 56005 70522 85032 333 56066 85363 83075=
85586,2003,05,19,00,00,AAXX 19004 85586 32960 70000 10070 20058 40150 54002 87030 333 10121 56060 87636=
85586,2003,05,19,03,00,AAXX 19034 85586 NIL=
85586,2003,05,19,06,00,AAXX 19064 85586 NIL=
85586,2003,05,19,09,00,AAXX 19094 85586 NIL=
85586,2003,05,19,12,00,AAXX 19124 85586 31956 80000 10048 20032 40168 52/// 7052/ 8803/ 333 20016 30/// 50130 55000 56069 88363=
85586,2003,05,19,15,00,AAXX 19154 85586 41930 80905 10104 20060 40193 52025 70522 8803/ 333 56069 88362=
85586,2003,05,19,18,00,AAXX 19184 85586 31956 83306 10132 20092 40188 58003 70522 8803/ 333 56069 88362=
85586,2003,05,19,21,00,AAXX 19214 85586 41956 83308 10124 20091 40164 57024 70522 8803/ 333 56069 88362=
85586,2003,05,20,00,00,AAXX 20004 85586 31956 80000 10094 20078 40151 57014 70522 8803/ 333 10139 56069 88360=
85586,2003,05,20,03,00,AAXX 20034 85586 NIL=
85586,2003,05,20,06,00,AAXX 20064 85586 NIL=
85586,2003,05,20,09,00,AAXX 20094 85586 NIL=
85586,2003,05,20,12,00,AAXX 20124 85586 11556 80906 10123 20099 40160 51/// 69914 7052/ 8422/ 333 20101 31/// 50180 55000 56779 70001 84820 84440=
85586,2003,05,20,15,00,AAXX 20154 85586 41640 80409 10128 20117 40122 58008 76322 8802/ 333 56079 88440=
85586,2003,05,20,18,00,AAXX 20184 85586 11640 80309 10123 20114 40097 57025 62331 76366 8802/ 333 56079 88440=
85586,2003,05,20,21,00,AAXX 20214 85586 41656 80314 10123 20111 40064 57032 76166 8802/ 333 56079 88440=
85586,2003,05,21,00,00,AAXX 21004 85586 11520 80218 10126 20117 40082 53018 60471 78266 882// 333 10128 56799 88820=
85586,2003,05,21,03,00,AAXX 21034 85586 NIL=
85586,2003,05,21,06,00,AAXX 21064 85586 NIL=
85586,2003,05,21,09,00,AAXX 21094 85586 NIL=
85586,2003,05,21,12,00,AAXX 21124 85586 12565 63607 10143 20118 40109 51/// 60954 81120 333 20109 32/// 50170 55000 56870 70957 81820 85530=
85586,2003,05,21,15,00,AAXX 21154 85586 42565 83414 10163 20125 40126 52018 882// 333 56799 88820=
85586,2003,05,21,18,00,AAXX 21184 85586 11560 83322 10160 20131 40125 54001 69921 78022 8322/ 333 56779 83820 85440=
85586,2003,05,21,21,00,AAXX 21214 85586 41520 83316 10146 20132 40131 53005 76582 8802/ 333 56079 88530=
85586,2003,05,22,00,00,AAXX 22004 85586 11620 83406 10147 20133 40143 52012 60081 76066 8802/ 333 10166 56079 88440=
85586,2003,05,22,03,00,AAXX 22034 85586 NIL=
85586,2003,05,22,06,00,AAXX 22064 85586 NIL=
85586,2003,05,22,09,00,AAXX 22094 85586 NIL=
85586,2003,05,22,12,00,AAXX 22124 85586 11540 81204 10131 20118 40197 51/// 60124 7808/ 882// 333 20126 32/// 50130 55008 56799 88820=
85586,2003,05,22,15,00,AAXX 22154 85586 NIL=
85586,2003,05,22,18,00,AAXX 22184 85586 32565 52705 10171 20127 40212 54000 85200 333 56700 85822=
85586,2003,05,22,21,00,AAXX 22214 85586 42565 22505 10155 20131 40214 54001 82200 333 56700 82822=
85586,2003,05,23,00,00,AAXX 23004 85586 31957 00000 10110 20104 40224 52009 71000 333 10180=
85586,2003,05,23,03,00,AAXX 23034 85586 NIL=
85586,2003,05,23,06,00,AAXX 23064 85586 NIL=
85586,2003,05,23,09,00,AAXX 23094 85586 NIL=
85586,2003,05,23,12,00,AAXX 23124 85586 32965 11804 10104 20096 40210 53/// 80001 333 20073 31/// 50110 55055 56005 81075=
85586,2003,05,23,15,00,AAXX 23154 85586 42965 11804 10156 20129 40210 54002 80001 333 56005 81075=
85586,2003,05,23,18,00,AAXX 23184 85586 32965 01810 10201 20104 40192 57019=
85586,2003,05,23,21,00,AAXX 23214 85586 42965 02307 10167 20121 40170 57010=
85586,2003,05,24,00,00,AAXX 24004 85586 32965 01405 10134 20109 40191 53009 333 10207=
85586,2003,05,24,03,00,AAXX 24034 85586 NIL=
85586,2003,05,24,06,00,AAXX 24064 85586 NIL=
85586,2003,05,24,09,00,AAXX 24094 85586 NIL=
85586,2003,05,24,12,00,AAXX 24124 85586 32960 12004 10096 20081 40184 54/// 80001 333 20092 31/// 50150 55085 56006 81075=
85586,2003,05,24,15,00,AAXX 24154 85586 42960 31808 10163 20076 40177 57005 80001 333 56006 83075=
85586,2003,05,24,18,00,AAXX 24184 85586 32960 31604 10206 20076 40153 57022 80001 333 56006 83075=
85586,2003,05,24,21,00,AAXX 24214 85586 42960 21510 10200 20042 40145 57009 80001 333 56006 82075=
85586,2003,05,25,00,00,AAXX 25004 85586 32960 01904 10140 20070 40147 54000 333 10219=
85586,2003,05,25,03,00,AAXX 25034 85586 NIL=
85586,2003,05,25,06,00,AAXX 25064 85586 NIL=
85586,2003,05,25,09,00,AAXX 25094 85586 NIL=
85586,2003,05,25,12,00,AAXX 25124 85586 32960 41204 10046 20039 40168 52/// 80001 333 20042 31/// 50200 55087 56006 84075=
85586,2003,05,25,15,00,AAXX 25154 85586 42960 62406 10126 20082 40183 52017 80002 333 56006 86075=
85586,2003,05,25,18,00,AAXX 25184 85586 32960 72608 10148 20092 40169 58014 80002 333 56006 87075=
85586,2003,05,25,21,00,AAXX 25214 85586 42960 72404 10140 20104 40177 53008 80002 333 56006 87075=
85586,2003,05,26,00,00,AAXX 26004 85586 32960 70000 10089 20077 40188 53010 80002 333 10160 56006 87075=
85586,2003,05,26,03,00,AAXX 26034 85586 NIL=
85586,2003,05,26,06,00,AAXX 26064 85586 NIL=
85586,2003,05,26,09,00,AAXX 26094 85586 NIL=
85586,2003,05,26,12,00,AAXX 26124 85586 32960 01604 10066 20056 40206 54/// 333 20042 31/// 50160 55044=
85586,2003,05,26,15,00,AAXX 26154 85586 42960 01606 10136 20063 40210 52007=
85586,2003,05,26,18,00,AAXX 26184 85586 32965 01709 10196 20065 40185 57023=
85586,2003,05,26,21,00,AAXX 26214 85586 42960 02306 10164 20102 40181 56005=
85586,2003,05,27,00,00,AAXX 27004 85586 NIL=
85586,2003,05,27,03,00,AAXX 27034 85586 NIL=
85586,2003,05,27,06,00,AAXX 27064 85586 NIL=
85586,2003,05,27,09,00,AAXX 27094 85586 NIL=
85586,2003,05,27,12,00,AAXX 27124 85586 32960 10000 10051 20038 40202 53/// 80001 333 20034 31/// 50240 55088 56006 81075=
85586,2003,05,27,15,00,AAXX 27154 85586 42960 12604 10136 20083 40203 51004 80001 333 56006 81075=
85586,2003,05,27,18,00,AAXX 27184 85586 32960 22507 10163 20078 40183 58019 80001 333 56006 82075=
85586,2003,05,27,21,00,AAXX 27214 85586 42960 40000 10157 20097 40172 57011 80001 333 56006 84075=
85586,2003,05,28,00,00,AAXX 28004 85586 31940 40000 10093 20075 40181 53007 70511 80001 333 10173 56006 84075=
85586,2003,05,28,03,00,AAXX 28034 85586 NIL=
85586,2003,05,28,06,00,AAXX 28064 85586 NIL=
85586,2003,05,28,09,00,AAXX 28094 85586 NIL=
85586,2003,05,28,12,00,AAXX 28124 85586 31956 42305 10053 20046 40179 53/// 7100/ 80001 333 20040 31/// 50130 55080 56005 84075=
85586,2003,05,28,15,00,AAXX 28154 85586 41957 51802 10124 20106 40182 52005 70511 80001 333 56005 85075=
85586,2003,05,28,18,00,AAXX 28184 85586 31957 52605 10143 20102 40169 52013 70511 80001 333 56005 85075=
85586,2003,05,28,21,00,AAXX 28214 85586 41440 82905 10128 20108 40172 51003 70522 8453/ 333 56679 84615 84365=
85586,2003,05,29,00,00,AAXX 29004 85586 31440 80704 10114 20095 40174 51002 70522 886// 333 10153 56699 88710=
85586,2003,05,29,03,00,AAXX 29034 85586 NIL=
85586,2003,05,29,06,00,AAXX 29064 85586 NIL=
85586,2003,05,29,09,00,AAXX 29094 85586 NIL=
85586,2003,05,29,12,00,AAXX 29124 85586 31440 80000 10109 20101 40187 53/// 7102/ 886// 333 20106 31/// 50110 55038 56699 88710=
85586,2003,05,29,15,00,AAXX 29154 85586 41440 80705 10113 20103 40197 52009 71022 886// 333 56699 88710=
85586,2003,05,29,18,00,AAXX 29184 85586 31440 80000 10120 20102 40196 54001 70522 886// 333 56699 88710=
85586,2003,05,29,21,00,AAXX 29214 85586 41440 82505 10122 20104 40193 55002 70522 886// 333 56699 88710=
85586,2003,05,30,00,00,AAXX 30004 85586 31440 80000 10115 20102 40197 52003 70522 886// 333 10122 56699 88710=
85586,2003,05,30,03,00,AAXX 30034 85586 NIL=
85586,2003,05,30,06,00,AAXX 30064 85586 NIL=
85586,2003,05,30,09,00,AAXX 30094 85586 NIL=
85586,2003,05,30,12,00,AAXX 30124 85586 32560 82306 10106 20089 40210 54/// 885// 333 20106 31/// 50150 55000 56009 88620=
85586,2003,05,30,15,00,AAXX 30154 85586 41440 81404 10112 20088 40218 52008 70522 885// 333 56099 88617=
85586,2003,05,30,18,00,AAXX 30184 85586 31430 82405 10118 20088 40206 58012 70522 885// 333 56099 88617=
85586,2003,05,30,21,00,AAXX 30214 85586 41440 42507 10112 20082 40204 54002 70522 84500 333 56500 84617=
85586,2003,05,31,00,00,AAXX 31004 85586 31456 30000 10074 20067 40203 54003 70511 83500 333 10124 56500 83617=
85586,2003,05,31,03,00,AAXX 31034 85586 NIL=
85586,2003,05,31,06,00,AAXX 31064 85586 NIL=
85586,2003,05,31,09,00,AAXX 31094 85586 NIL=
85586,2003,05,31,12,00,AAXX 31124 85586 31106 81402 10067 20061 40177 57/// 7444/ 886// 333 20030 31/// 50130 55000 56799 88702=
85586,2003,05,31,15,00,AAXX 31154 85586 41150 41202 10110 20095 40186 53011 70511 81601 333 56705 81703 83075=
85586,2003,05,31,18,00,AAXX 31184 85586 31957 42805 10173 20125 40163 58022 70541 80001 333 56005 84075=
85586,2003,05,31,21,00,AAXX 31214 85586 41958 40000 10154 20129 40158 53014 70511 80001 333 56005 84075=
85586,2003,06,01,00,00,AAXX 01004 85586 31958 40000 10111 20094 40157 54001 70511 80001 333 10175 56005 84075=
85586,2003,06,01,03,00,AAXX 01034 85586 NIL=
85586,2003,06,01,06,00,AAXX 01064 85586 NIL=
85586,2003,06,01,09,00,AAXX 01094 85586 NIL=
85586,2003,06,01,12,00,AAXX 01124 85586 31940 70000 10082 20064 40133 55/// 7052/ 80001 333 20067 31/// 50210 55056 56006 87075=
85586,2003,06,01,15,00,AAXX 01154 85586 41920 70104 10117 20088 40146 52014 70522 87030 333 56060 87362=
85586,2003,06,01,18,00,AAXX 01184 85586 31440 83205 10131 20108 40147 50001 70522 885// 333 56699 88615=
85586,2003,06,01,21,00,AAXX 01214 85586 41520 83206 10131 20108 40151 53004 70522 885// 333 56699 88620=
85586,2003,06,02,00,00,AAXX 02004 85586 31540 80000 10121 20097 40162 52011 70522 885// 333 10135 56699 88620=
85586,2003,06,02,03,00,AAXX 02034 85586 NIL=
85586,2003,06,02,06,00,AAXX 02064 85586 NIL=
85586,2003,06,02,09,00,AAXX 02094 85586 NIL=
85586,2003,06,02,12,00,AAXX 02124 85586 31856 80807 10127 20105 40208 52/// 7052/ 8803/ 333 20116 31/// 50170 55000 56089 88357=
85586,2003,06,02,15,00,AAXX 02154 85586 42565 20204 10173 20098 40225 52018 82100 333 56800 81820=
85586,2003,06,02,18,00,AAXX 02184 85586 32560 22506 10178 20098 40224 50000 82200 333 56800 82820=
85586,2003,06,02,21,00,AAXX 02214 85586 42565 12403 10176 20084 40226 52002 81100 333 56800 81820=
85586,2003,06,03,00,00,AAXX 03004 85586 31956 30000 10113 20091 40231 53005 70500 80001 333 10183 56006 83075=
85586,2003,06,03,03,00,AAXX 03034 85586 NIL=
85586,2003,06,03,06,00,AAXX 03064 85586 NIL=
85586,2003,06,03,09,00,AAXX 03094 85586 NIL=
85586,2003,06,03,12,00,AAXX 03124 85586 31957 01204 10070 20064 40173 57/// 7100/ 333 20060 31/// 50140 55077=
85586,2003,06,03,15,00,AAXX 03154 85586 42960 00000 10145 20119 40181 53010=
85586,2003,06,03,18,00,AAXX 03184 85586 32960 03505 10165 20109 40167 58013=
85586,2003,06,03,21,00,AAXX 03214 85586 42960 52703 10135 20108 40167 54001 80001 333 56005 85075=
85586,2003,06,04,00,00,AAXX 04004 85586 32960 50000 10087 20073 40170 54002 80001 333 20173 56005 85075=
85586,2003,06,04,03,00,AAXX 04034 85586 NIL=
85586,2003,06,04,06,00,AAXX 04064 85586 NIL=
85586,2003,06,04,09,00,AAXX 04094 85586 NIL=
85586,2003,06,04,12,00,AAXX 04124 85586 31450 80000 10102 20096 40202 52/// 7102/ 85601 333 20056 31/// 50100 55071 56706 85710 83073=
85586,2003,06,04,15,00,AAXX 04154 85586 41450 80807 10124 20106 40188 58012 70522 82631 333 56766 82710 85365=
85586,2003,06,04,18,00,AAXX 04184 85586 31956 82905 10133 20110 40192 53003 70522 86031 333 56066 86363=
85586,2003,06,05,00,00,AAXX 05004 85586 32560 81215 10121 20100 40186 58014 8257/ 333 20135 56769 82620 88362=
85586,2003,06,05,06,00,AAXX 05064 85586 NIL=
85586,2003,06,05,12,00,AAXX 05124 85586 11420 81802 10106 20098 40197 52/// 60074 7606/ 885// 333 20106 32/// 50100 55000 56499 70074 88610=
85586,2003,06,05,18,00,AAXX 05184 85586 11540 80908 10126 20117 40198 58007 60091 76066 885// 333 56299 88620=
85586,2003,06,06,00,00,AAXX 06004 85586 12560 81007 10130 20121 40218 52014 60051 885// 333 10134 56099 88625=
85586,2003,06,06,06,00,AAXX 06064 85586 NIL=
85586,2003,06,06,12,00,AAXX 06124 85586 12560 81804 10112 20103 40204 55/// 60144 8253/ 333 20112 32/// 50110 55000 56069 70143 82626 88365=
85586,2003,06,06,18,00,AAXX 06184 85586 32460 71806 10158 20117 40194 58017 82532 333 56466 82615 85075=
85586,2003,06,07,00,00,AAXX 07004 85586 32460 81806 10120 20098 40180 56004 81502 333 10160 56406 81615 87075=
85586,2003,06,07,06,00,AAXX 07064 85586 NIL=
85586,2003,06,07,12,00,AAXX 07124 85586 31856 71205 10096 20078 40151 57/// 7052/ 87030 333 20071 31/// 50220 55028 56060 87358=
85586,2003,06,07,18,00,AAXX 07184 85586 31958 52903 10166 20115 40136 58011 70511 80001 333 56006 85075=
85586,2003,06,08,00,00,AAXX 08004 85586 31856 80000 10122 20102 40147 53011 70522 84031 333 10169 56066 84358 84075=
85586,2003,06,08,06,00,AAXX 08064 85586 NIL=
85586,2003,06,08,12,00,AAXX 08124 85586 NIL=
85586,2003,06,08,18,00,AAXX 08184 85586 31106 93103 10127 20118 40133 51011 74722 89/// 333 56999=
85586,2003,06,09,00,00,AAXX 09004 85586 11940 80905 10134 20114 40125 57007 69941 76162 8802/ 333 10156 56079 88459=
85586,2003,06,09,06,00,AAXX 09064 85586 NIL=
85586,2003,06,09,12,00,AAXX 09124 85586 12560 80000 10146 20113 40122 53/// 69954 8557/ 333 20127 31/// 50080 55007 56779 70005 85620 84360=
85586,2003,06,09,15,00,AAXX 09154 85586 42560 80510 10158 20127 40133 52012=
85586,2003,06,09,18,00,AAXX 09184 85586 32560 83307 10165 20116 40131 54002 8457/ 333 56779 84622 85362=
85586,2003,06,09,21,00,AAXX 09214 85586 42560 83615 10159 20132 40129 57003 8657/ 333 56779 86622 83362=
85586,2003,06,10,00,00,AAXX 10004 85586 32560 80307 10155 20101 40121 57007 885// 333 10168 56799 88622=
85586,2003,06,10,03,00,AAXX 10034 85586 NIL=
85586,2003,06,10,06,00,AAXX 10064 85586 NIL=
85586,2003,06,10,09,00,AAXX 10094 85586 NIL=
85586,2003,06,10,12,00,AAXX 10124 85586 11565 83412 10145 20128 40172 52/// 60154 7808/ 8627/ 333 20128 32/// 50090 55001 56779 70150 86827 83362=
85586,2003,06,10,15,00,AAXX 10154 85586 41565 73617 10161 20135 40192 52020 72588 87200 333 56700 87825=
85586,2003,06,10,18,00,AAXX 10184 85586 11560 73607 10149 20134 40193 54001 60011 70282 96201 333 56706 86825=
85586,2003,06,10,21,00,AAXX 10214 85586 42560 73407 10151 20124 40206 52013 87200 333 56700 87827=
85586,2003,06,11,00,00,AAXX 11004 85586 32560 70000 10138 20126 40212 52006 87500 333 10163 56700 87625=
85586,2003,06,11,03,00,AAXX 11034 85586 NIL=
85586,2003,06,11,06,00,AAXX 11064 85586 NIL=
85586,2003,06,11,09,00,AAXX 11094 85586 NIL=
85586,2003,06,11,12,00,AAXX 11124 85586 32960 70000 10118 20107 40156 57/// 81530 333 20116 31/// 50120 55008 56760 81630 87362=
85586,2003,06,11,15,00,AAXX 11154 85586 42960 82805 10154 20130 40156 54001 84031 333 56076 84362 85075=
85586,2003,06,11,18,00,AAXX 11184 85586 31920 80000 10134 20125 40150 56005 71022 85032 333 56066 85362 85075=
85586,2003,06,11,21,00,AAXX 11214 85586 41520 80000 10134 20127 40143 57007 71022 8353/ 333 56069 83625 86360=
85586,2003,06,12,00,00,AAXX 12004 85586 NIL=
85586,2003,06,12,03,00,AAXX 12034 85586 NIL=
85586,2003,06,12,06,00,AAXX 12064 85586 NIL=
85586,2003,06,12,09,00,AAXX 12094 85586 NIL=
85586,2003,06,12,12,00,AAXX 12124 85586 11558 83104 10136 20124 40153 53/// 60044 7106/ 8553/ 333 20124 32/// 50100 55001 56079 70038 85625 85360=
85586,2003,06,12,15,00,AAXX 12154 85586 41460 83606 10148 20134 40172 52019 70282=
85586,2003,06,12,18,00,AAXX 12184 85586 11458 83108 10148 20134 40166 58007 76022 8523/ 333 56879 85815 87360=
85586,2003,06,12,21,00,AAXX 12214 85586 41456 83105 10144 20131 40176 53011 76062 8423/ 333 56879 84813 88359=
85586,2003,06,13,00,00,AAXX 13004 85586 11456 80403 10138 20129 40187 52011 60021 76062 8423/ 333 10158 56779 84813 88359=
85586,2003,06,13,03,00,AAXX 13034 85586 NIL=
85586,2003,06,13,06,00,AAXX 13064 85586 NIL=
85586,2003,06,13,09,00,AAXX 13094 85586 NIL=
85586,2003,06,13,12,00,AAXX 13124 85586 11930 80903 10115 20104 40178 52/// 60044 7102/ 8803/ 333 20107 32/// 50120 55000 56079 70042 88362=
85586,2003,06,13,15,00,AAXX 13154 85586 41830 82206 10134 20118 40179 51001 71022 8807/ 333 56079 83358 85460=
85586,2003,06,13,18,00,AAXX 13184 85586 31420 81803 10138 20125 40171 57008 71022 8123/ 333 56879 81815 87357=
85586,2003,06,13,21,00,AAXX 13214 85586 41440 81709 10136 20114 40167 58004 70522 8127/ 333 56879 81815 87356=
85586,2003,06,14,00,00,AAXX 14004 85586 31856 80000 10122 20102 40168 50001 70522 84031 333 10139 56076 84358 84075=
85586,2003,06,14,03,00,AAXX 14034 85586 NIL=
85586,2003,06,14,06,00,AAXX 14064 85586 NIL=
85586,2003,06,14,09,00,AAXX 14094 85586 NIL=
85586,2003,06,14,12,00,AAXX 14124 85586 11556 80205 10132 20105 40126 56/// 69934 7058/ 8225/ 333 20117 32/// 50140 55000 56879 70003 82820 86360=
85586,2003,06,14,15,00,AAXX 14154 85586 41558 83614 10146 20109 40118 58008 78088=
85586,2003,06,14,18,00,AAXX 14184 85586 11456 83618 10143 20118 40096 57022 69961 76188 333 56879 82815 86440=
85586,2003,06,14,21,00,AAXX 14214 85586 41456 83607 10132 20117 40144 52048 76188 8222/ 333 56879 82815 86440=
85586,2003,06,15,00,00,AAXX 15004 85586 11558 23312 10134 20114 40195 52050 60391 70588 82200 333 10148 56800 82820=
85586,2003,06,15,03,00,AAXX 15034 85586 NIL=
85586,2003,06,15,06,00,AAXX 15064 85586 NIL=
85586,2003,06,15,09,00,AAXX 15094 85586 NIL=
85586,2003,06,15,12,00,AAXX 15124 85586 NIL=
85586,2003,06,15,15,00,AAXX 15154 85586 NIL=
85586,2003,06,15,18,00,AAXX 15184 85586 32965 52506 10155 20121 40233 57014 80001 333 56005 85075=
85586,2003,06,15,21,00,AAXX 15214 85586 42965 52205 10135 20103 40222 57011 80001 333 56005 85075=
85586,2003,06,16,00,00,AAXX 16004 85586 32960 60000 10105 20090 40223 54001 80001 333 10165 56005 86075=
85586,2003,06,16,03,00,AAXX 16034 85586 NIL=
85586,2003,06,16,06,00,AAXX 16064 85586 NIL=
85586,2003,06,16,09,00,AAXX 16094 85586 NIL=
85586,2003,06,16,12,00,AAXX 16124 85586 32960 20905 10074 20066 40213 54/// 80001 333 20060 31/// 50100 55059 56005 82075=
85586,2003,06,16,15,00,AAXX 16154 85586 42960 31404 10121 20087 40207 57004 80001 333 56005 83075=
85586,2003,06,16,18,00,AAXX 16184 85586 32960 11507 10163 20091 40170 57035 80001 333 56005 81075=
85586,2003,06,16,21,00,AAXX 16214 85586 42960 40000 10155 20121 40160 57010 80001 333 56005 84075=
85586,2003,06,17,00,00,AAXX 17004 85586 32960 30000 10094 20078 40174 53012 80001 333 10179 56005 83075=
85586,2003,06,17,03,00,AAXX 17034 85586 NIL=
85586,2003,06,17,06,00,AAXX 17064 85586 NIL=
85586,2003,06,17,09,00,AAXX 17094 85586 NIL=
85586,2003,06,17,12,00,AAXX 17124 85586 32560 81003 10054 20046 40190 53/// 81532 333 20034 31/// 50110 55066 81630 83362 85075=
85586,2003,06,17,15,00,AAXX 17154 85586 41940 82904 10100 20092 40205 52015 71022 82032 333 56066 82362 87075=
85586,2003,06,17,18,00,AAXX 17184 85586 31956 80000 10122 20094 40197 58007 70522 84032 333 56066 84362 87075=
85586,2003,06,17,21,00,AAXX 17214 85586 NIL=
85586,2003,06,18,00,00,AAXX 18004 85586 31920 70000 10080 20072 40209 53007 71022 85032 333 10134 56066 85360 85073=
85586,2003,06,18,03,00,AAXX 18034 85586 NIL=
85586,2003,06,18,06,00,AAXX 18064 85586 NIL=
85586,2003,06,18,09,00,AAXX 18094 85586 NIL=
85586,2003,06,18,12,00,AAXX 18124 85586 31940 70000 10080 20072 40219 52/// 7102/ 87030 333 20076 31/// 50120 55000 56060 87360=
85586,2003,06,18,15,00,AAXX 18154 85586 41956 70000 10122 20096 40226 52008 70522 87030 333 56060 87360=
85586,2003,06,18,18,00,AAXX 18184 85586 31958 71205 10166 20091 40216 58008 70522 87030 333 56060 87360=
85586,2003,06,18,21,00,AAXX 18214 85586 42960 60000 10174 20089 40208 57008 86030 333 56060 86360=
85586,2003,06,19,00,00,AAXX 19004 85586 32960 80000 10118 20097 40223 52013 84032 333 10180 56066 84360 85075=
85586,2003,06,19,03,00,AAXX 19034 85586 NIL=
85586,2003,06,19,06,00,AAXX 19064 85586 NIL=
85586,2003,06,19,09,00,AAXX 19094 85586 NIL=
85586,2003,06,19,12,00,AAXX 19124 85586 31958 20000 10098 20074 40200 55/// 7050/ 82030 333 20079 31/// 50230 55029 56060 82362=
85586,2003,06,19,15,00,AAXX 19154 85586 41956 50000 10169 20100 40197 50000 70500 80001 333 56006 85075=
85586,2003,06,19,18,00,AAXX 19184 85586 32960 62506 10172 20124 40185 57012 80001 333 56006 86075=
85586,2003,06,19,21,00,AAXX 19214 85586 41208 72405 10144 20126 40184 55002 74241 83601 333 56806 83704 84075=
85586,2003,06,20,00,00,AAXX 20004 85586 31920 70000 10131 20114 40170 58014 71044 80001 333 10184 56006 87075=
85586,2003,06,20,03,00,AAXX 20034 85586 NIL=
85586,2003,06,20,06,00,AAXX 20064 85586 NIL=
85586,2003,06,20,09,00,AAXX 20094 85586 NIL=
85586,2003,06,20,12,00,AAXX 20124 85586 11960 82004 10131 20116 40185 57/// 69934 7808/ 333 20119 32/// 50160 55055 56069 70003 83360 85462=
85586,2003,06,20,15,00,AAXX 20154 85586 41858 80905 10138 20119 40206 52021 76088 8807/ 333 56069 82358 86459=
85586,2003,06,20,18,00,AAXX 20184 85586 11858 70000 10162 20138 40201 58005 69951 70588 87030 333 56060 87358=
85586,2003,06,20,21,00,AAXX 20214 85586 41840 80703 10161 20136 40208 53007 78088 8805/ 333 56069 88357=
85586,2003,06,21,00,00,AAXX 21004 85586 11920 00000 10134 20116 40216 52007 69921 71181 333 10168=
85586,2003,06,21,03,00,AAXX 21034 85586 NIL=
85586,2003,06,21,06,00,AAXX 21064 85586 NIL=
85586,2003,06,21,09,00,AAXX 21094 85586 NIL=
85586,2003,06,21,12,00,AAXX 21124 85586 11958 71205 10118 20103 40118 57/// 69974 7052/ 83031 333 20108 31/// 50040 55000 56066 70007 83363 84070=
85586,2003,06,21,15,00,AAXX 21154 85586 42960 42305 10172 20126 40199 53003 81031 333 56066 81365 83070=
85586,2003,06,21,18,00,AAXX 21184 85586 32960 22702 10205 20149 40197 54002 81031 333 56066 81365=
85586,2003,06,21,21,00,AAXX 21214 85586 42460 32503 10160 20130 40180 53003 81530 333 56660 81615=
85586,2003,06,22,00,00,AAXX 22004 85586 31902 00000 10135 20131 40179 54002 74440 333 10206=
85586,2003,06,22,03,00,AAXX 22034 85586 NIL=
85586,2003,06,22,06,00,AAXX 22064 85586 NIL=
85586,2003,06,22,09,00,AAXX 22094 85586 NIL=
85586,2003,06,22,12,00,AAXX 22124 85586 31104 80000 10125 20121 40179 53/// 7444/ 886// 333 20125 31/// 50080 55058 56699 88703=
85586,2003,06,22,15,00,AAXX 22154 85586 41230 80802 10143 20136 40190 52011 71042 886// 333 56699 88704=
85586,2003,06,22,18,00,AAXX 22184 85586 31460 32307 10175 20156 40179 58010 70141 82501 333 56605 82615=
85586,2003,06,22,21,00,AAXX 22214 85586 42260 42406 10151 20134 40179 54001 84600 333 56600 84706=
85586,2003,06,23,00,00,AAXX 23004 85586 32260 80000 10138 20129 40184 52005 886// 333 10176 56699 88706=
85586,2003,06,23,03,00,AAXX 23034 85586 NIL=
85586,2003,06,23,06,00,AAXX 23064 85586 NIL=
85586,2003,06,23,09,00,AAXX 23094 85586 NIL=
85586,2003,06,23,12,00,AAXX 23124 85586 31430 50000 10066 20062 40197 53/// 7101/ 81501 333 20054 31?/ 50090 55025 56605 81615 84073=
85586,2003,06,23,15,00,AAXX 23154 85586 42460 10803 10152 20135 40194 54000 81500 333 56600 81615=
85586,2003,06,23,18,00,AAXX 23184 85586 32460 21712 10180 20114 40168 57025 82500 333 56500 82615=
85586,2003,06,23,21,00,AAXX 23214 85586 42960 02406 10154 20104 40172 53003=
85586,2003,06,24,00,00,AAXX 24004 85586 32960 00000 10100 20087 40186 52013 333 10186=
85586,2003,06,24,03,00,AAXX 24034 85586 NIL=
85586,2003,06,24,06,00,AAXX 24064 85586 NIL=
85586,2003,06,24,09,00,AAXX 24094 85586 NIL=
85586,2003,06,24,12,00,AAXX 24124 85586 32960 61204 10098 20087 40169 56/// 80001 333 20094 31/// 50110 55060 56006 86073=
85586,2003,06,24,15,00,AAXX 24154 85586 42960 60000 10148 20101 40177 52009 80001 333 56006 86073=
85586,2003,06,24,18,00,AAXX 24184 85586 32960 60000 10176 20112 40165 58011 80002 333 56006 86073=
85586,2003,06,24,21,00,AAXX 24214 85586 42960 40000 10158 20107 40168 53003 80001 333 56006 84073=
85586,2003,06,25,00,00,AAXX 25004 85586 32960 20000 10092 20080 40178 52007 80001 333 10183 56006 82073=
85586,2003,06,25,03,00,AAXX 25034 85586 NIL=
85586,2003,06,25,06,00,AAXX 25064 85586 NIL=
85586,2003,06,25,09,00,AAXX 25094 85586 NIL=
85586,2003,06,25,12,00,AAXX 25124 85586 31958 61305 10066 20052 40176 57/// 7111/ 80001 333 20057 31/// 50130 55058 56006 86075=
85586,2003,06,25,15,00,AAXX 25154 85586 41956 50903 10136 20114 40175 55001 70544 80001 333 56006 85075=
85586,2003,06,25,18,00,AAXX 25184 85586 31956 62703 10161 20122 40162 57013 70541 80001 333 56006 86075=
85586,2003,06,25,21,00,AAXX 25214 85586 41906 03603 10147 20125 40166 51004 74011=
85586,2003,06,26,00,00,AAXX 26004 85586 31103 81003 10114 20104 40175 52009 74644 886// 333 10185 56899 88703=
85586,2003,06,26,03,00,AAXX 26034 85586 NIL=
85586,2003,06,26,06,00,AAXX 26064 85586 NIL=
85586,2003,06,26,09,00,AAXX 26094 85586 NIL=
85586,2003,06,26,12,00,AAXX 26124 85586 31940 11305 10056 20036 40162 57/// 7111/ 80001 333 20043 31/// 50140 55069 56006 81075=
85586,2003,06,26,15,00,AAXX 26154 85586 41940 00903 10126 20094 40167 51007 70541=
85586,2003,06,26,18,00,AAXX 26184 85586 31208 82906 10114 20103 40163 58004 74410 886// 333 56899 88704=
85586,2003,06,26,21,00,AAXX 26214 85586 41440 80303 10119 20092 40170 53007 70544 85/// 333 56899 88615=
85586,2003,06,27,00,00,AAXX 27004 85586 31440 73206 10121 20099 40180 51010 70522 82530 333 10152 56860 82615 85360=
85586,2003,06,27,03,00,AAXX 27034 85586 NIL=
85586,2003,06,27,06,00,AAXX 27064 85586 NIL=
85586,2003,06,27,09,00,AAXX 27094 85586 NIL=
85586,2003,06,27,12,00,AAXX 27124 85586 31957 21204 10089 20075 40213 52/// 7050/ 80001 333 20080 31/// 50100 55030 56005 82073=
85586,2003,06,27,15,00,AAXX 27154 85586 41959 51005 10123 20099 40217 52005 70511 80001 333 56005 85070=
85586,2003,06,27,18,00,AAXX 27184 85586 32960 41005 10159 20096 40203 58013 80001 333 56005 84073=
85586,2003,06,27,21,00,AAXX 27214 85586 42960 32405 10134 20108 40200 57004 80001 333 56005 85073=
85586,2003,06,28,00,00,AAXX 28004 85586 32960 50000 10106 20100 40197 53003 80001 333 10172 56005 85073=
85586,2003,06,28,03,00,AAXX 28034 85586 NIL=
85586,2003,06,28,06,00,AAXX 28064 85586 NIL=
85586,2003,06,28,09,00,AAXX 28094 85586 NIL=
85586,2003,06,28,12,00,AAXX 28124 85586 31920 30000 10059 20055 40175 57/// 7100/ 80001 333 20051 31/// 50110 55048 56005 83073=
85586,2003,06,28,15,00,AAXX 28154 85586 41950 31202 10110 20097 40177 53004 70500 80001 333 56005 83073=
85586,2003,06,28,18,00,AAXX 28184 85586 32956 32305 10156 20116 40164 58012 70500 80001 333 56005 83073=
85586,2003,06,28,21,00,AAXX 28214 85586 41340 82710 10121 20113 40162 57003 71022 886// 333 56699 88707=
85586,2003,06,29,00,00,AAXX 29004 85586 31106 80204 10114 20110 40176 52014 74442 886// 333 10160 56799 88703=
85586,2003,06,29,03,00,AAXX 29034 85586 NIL=
85586,2003,06,29,06,00,AAXX 29064 85586 NIL=
85586,2003,06,29,09,00,AAXX 29094 85586 NIL=
85586,2003,06,29,12,00,AAXX 29124 85586 11108 80000 10086 20078 40183 53/// 69934 7505/ 886// 333 20082 32/// 50100 55055 56099 70003 88702=
85586,2003,06,29,15,00,AAXX 29154 85586 41108 80000 10100 20094 40195 52011 74652 886// 333 56099 88702=
85586,2003,06,29,18,00,AAXX 29184 85586 11320 82606 10106 20098 40194 54000 69901 71042 885// 333 56699 88607=
85586,2003,06,29,21,00,AAXX 29214 85586 41457 80000 10104 20093 40198 53003 71022 885// 333 56099 88610=
85586,2003,06,30,00,00,AAXX 30004 85586 32460 20000 10088 20076 40198 54000 82500 333 10115 56099 82612=
85586,2003,06,30,03,00,AAXX 30034 85586 NIL=
85586,2003,06,30,06,00,AAXX 30064 85586 NIL=
85586,2003,06,30,09,00,AAXX 30094 85586 NIL=
85586,2003,06,30,12,00,AAXX 30124 85586 11456 80000 10092 20077 40207 54/// 69904 7102/ 886// 333 20054 31/// 50080 55000 56099 70000 88710=
85586,2003,06,30,15,00,AAXX 30154 85586 41456 82804 10106 20086 40209 52003 70522 885// 333 56099 88613=
85586,2003,06,30,18,00,AAXX 30184 85586 31956 71610 10130 20075 40200 58009 70522 80002 333 56006 87073=
85586,2003,06,30,21,00,AAXX 30214 85586 NIL=
85586,2003,07,01,00,00,AAXX 01004 85586 31950 71804 10094 20078 40202 53006 71022 80002 333 10136 56006 87073=
85586,2003,07,01,03,00,AAXX 01034 85586 NIL=
85586,2003,07,01,06,00,AAXX 01064 85586 NIL=
85586,2003,07,01,09,00,AAXX 01094 85586 NIL=
85586,2003,07,01,12,00,AAXX 01124 85586 32960 71202 10076 20053 40185 57/// 80001 333 20076 31/// 50130 55009 56006 87073=
85586,2003,07,01,15,00,AAXX 01154 85586 41957 71408 10150 20067 40184 54002 70522 80001 333 56006 87073=
85586,2003,07,01,18,00,AAXX 01184 85586 32960 71506 10200 20049 40168 57017 80001 333 56006 87073=
85586,2003,07,01,21,00,AAXX 01214 85586 42960 71407 10200 20088 40165 56002 80001 333 56006 87073=
85586,2003,07,02,00,00,AAXX 02004 85586 32960 71706 10134 20090 40170 53003 80001 333 10205 56006 87073=
85586,2003,07,02,03,00,AAXX 02034 85586 NIL=
85586,2003,07,02,06,00,AAXX 02064 85586 NIL=
85586,2003,07,02,09,00,AAXX 02094 85586 NIL=
85586,2003,07,02,12,00,AAXX 02124 85586 31958 51605 10089 20064 40148 55/// 7051/ 80001 333 20089 31/// 50190 55071 56006 85075=
85586,2003,07,02,15,00,AAXX 02154 85586 41956 60000 10136 20096 40159 52012 70511 80001 333 56006 86075=
85586,2003,07,02,18,00,AAXX 02184 85586 31558 33114 10156 20115 40162 51004 70511 81101 333 56806 81820 82075=
85586,2003,07,02,21,00,AAXX 02214 85586 42960 42906 10155 20122 40162 55000 80001 333 56006 84075=
85586,2003,07,03,00,00,AAXX 03004 85586 31940 60000 10103 20085 40166 52002 70511 80001 333 10157 56006 86075=
85586,2003,07,03,03,00,AAXX 03034 85586 NIL=
85586,2003,07,03,06,00,AAXX 03064 85586 NIL=
85586,2003,07,03,09,00,AAXX 03094 85586 NIL=
85586,2003,07,03,12,00,AAXX 03124 85586 31440 80807 10117 20106 40184 52/// 7102/ 885// 333 20072 31/// 50090 55073 56799 88618=
85586,2003,07,03,15,00,AAXX 03154 85586 41550 80000 10138 20121 40193 52009 70522 885// 333 56799 88620=
85586,2003,07,03,18,00,AAXX 03184 85586 31558 70905 10156 20129 40173 58019 70522 84501 333 56606 84622 83073=
85586,2003,07,03,21,00,AAXX 03214 85586 41558 81503 10146 20122 40167 57007 70522 8353/ 333 56669 83622 86363=
85586,2003,07,04,00,00,AAXX 04004 85586 11560 82202 10136 20118 40173 52006 69991 70282 8457/ 333 10165 56669 84620 88360=
85586,2003,07,04,03,00,AAXX 04034 85586 NIL=
85586,2003,07,04,06,00,AAXX 04064 85586 NIL=
85586,2003,07,04,09,00,AAXX 04094 85586 NIL=
85586,2003,07,04,12,00,AAXX 04124 85586 11457 80000 10115 20107 40195 52/// 69914 7102/ 885// 333 20111 31/// 50050 55003 56799 70001 88618=
85586,2003,07,04,15,00,AAXX 04154 85586 42460 81204 10133 20121 40201 52006=
85586,2003,07,04,18,00,AAXX 04184 85586 32560 72005 10157 20121 40179 58020 84530 333 56770 84625 83363=
85586,2003,07,04,21,00,AAXX 04214 85586 42560 82505 10138 20118 40185 53005=
85586,2003,07,05,00,00,AAXX 05004 85586 32560 80000 10130 20117 40176 57009 8357/ 333 10163 56779 83625 85363=
85586,2003,07,05,03,00,AAXX 05034 85586 NIL=
85586,2003,07,05,06,00,AAXX 05064 85586 NIL=
85586,2003,07,05,09,00,AAXX 05094 85586 NIL=
85586,2003,07,05,12,00,AAXX 05124 85586 11540 80000 10116 20107 40184 54/// 60054 7606/ 8353/ 333 20116 32/// 50070 55001 5607/ 70050 83625 88360=
85586,2003,07,05,15,00,AAXX 05154 85586 41556 70902 10136 20127 40190 52006 71062 84230 333 56170 84820 86360=
85586,2003,07,05,18,00,AAXX 05184 85586 31456 82408 10128 20117 40184 58006 71022 8523/ 333 56779 85816 86360=
85586,2003,07,05,21,00,AAXX 05214 85586 41540 80000 10130 20120 40181 56003 76062 8323/ 333 56779 83820 88360=
85586,2003,07,06,00,00,AAXX 06004 85586 11556 80000 10120 20113 40185 53004 60031 71062 8283/ 333 10142 56179 82820 88360=
85586,2003,07,06,03,00,AAXX 06034 85586 NIL=
85586,2003,07,06,06,00,AAXX 06064 85586 NIL=
85586,2003,07,06,09,00,AAXX 06094 85586 NIL=
85586,2003,07,06,12,00,AAXX 06124 85586 11440 80000 10110 20103 40201 53/// 60044 7106/ 8353/ 333 20104 32/// 50050 55002 56169 70036 83615 88360=
85586,2003,07,06,15,00,AAXX 06154 85586 NIL=
85586,2003,07,06,18,00,AAXX 06184 85586 31456 83106 10140 20098 40197 58015 70522 8453/ 333 56669 84613 87359=
85586,2003,07,06,21,00,AAXX 06214 85586 42460 82102 10128 20097 40188 57009=
85586,2003,07,07,00,00,AAXX 07004 85586 32460 80000 10110 20101 40181 57007 8353/ 333 10144 56669 83613 88359=
85586,2003,07,07,03,00,AAXX 07034 85586 NIL=
85586,2003,07,07,06,00,AAXX 07064 85586 NIL=
85586,2003,07,07,09,00,AAXX 07094 85586 NIL=
85586,2003,07,07,12,00,AAXX 07124 85586 11840 83605 10116 20103 40143 57/// 60044 7606/ 8802/ 333 20096 32/// 50110 55005 56061 70043 88457=
85586,2003,07,07,15,00,AAXX 07154 85586 41858 80314 10136 20086 40124 57019 72566 8807/ 333 56019 86358 82459=
85586,2003,07,07,18,00,AAXX 07184 85586 11540 83622 10116 20103 40131 53007 60091 78166 882// 333 56899 88825=
85586,2003,07,07,21,00,AAXX 07214 85586 41560 83607 10116 20090 40127 56008 70186 8127/ 333 56879 81820 82357 85458=
85586,2003,07,08,00,00,AAXX 08004 85586 11856 80405 10112 20098 40153 52030 60171 76086 8802/ 333 10137 56079 88457=
85586,2003,07,08,03,00,AAXX 08034 85586 NIL=
85586,2003,07,08,06,00,AAXX 08064 85586 NIL=
85586,2003,07,08,09,00,AAXX 08094 85586 NIL=
85586,2003,07,08,12,00,AAXX 08124 85586 11858 51006 10085 20065 40244 52/// 60324 7058/ 85030 333 20083 32/// 50090 55000 56060 70323 85358=
85586,2003,07,08,15,00,AAXX 08154 85586 42965 01206 10122 20064 40265 52022=
85586,2003,07,08,18,00,AAXX 08184 85586 32570 20903 10127 20033 40266 50001=
85586,2003,07,08,21,00,AAXX 08214 85586 42560 12104 10132 20038 40268 51002 81100 333 56800 81820=
85586,2003,07,09,00,00,AAXX 09004 85586 32960 01405 10077 20016 40273 52004 333 10141=
85586,2003,07,09,03,00,AAXX 09034 85586 NIL=
85586,2003,07,09,06,00,AAXX 09064 85586 NIL=
85586,2003,07,09,09,00,AAXX 09094 85586 32960 01405 10077 20016 40273 52004 333 10141=
85586,2003,07,09,12,00,AAXX 09124 85586 32965 51603 10036 20014 40227 56/// 80001 333 20033 31/// 50110 55075 56006 85075=
85586,2003,07,09,15,00,AAXX 09154 85586 42960 71808 10103 20037 40228 53003 80001 333 56006 87075=
85586,2003,07,09,18,00,AAXX 09184 85586 32960 62005 10121 20017 40219 58008 84031 333 56066 84362 82075=
85586,2003,07,09,21,00,AAXX 09214 85586 42960 22007 10127 20012 40214 56005 80001 333 56006 82075=
85586,2003,07,10,00,00,AAXX 10004 85586 32960 01803 10063 20018 40227 52011 333 10134=
85586,2003,07,10,03,00,AAXX 10034 85586 NIL=
85586,2003,07,10,06,00,AAXX 10064 85586 NIL=
85586,2003,07,10,09,00,AAXX 10094 85586 NIL=
85586,2003,07,10,12,00,AAXX 10124 85586 32960 01505 10038 20019 40203 57/// 333 20016 31/// 50050 55080=
85586,2003,07,10,15,00,AAXX 10154 85586 NIL=
85586,2003,07,10,18,00,AAXX 10184 85586 32960 32408 10144 20087 40196 57013 80001 333 56005 83073=
85586,2003,07,10,21,00,AAXX 10214 85586 42960 32505 10122 20070 40193 57004 80001 333 56005 83073=
85586,2003,07,11,00,00,AAXX 11004 85586 32960 20000 10058 20047 40199 53004 82030 333 10146 56060 82366=
85586,2003,07,11,03,00,AAXX 11034 85586 NIL=
85586,2003,07,11,06,00,AAXX 11064 85586 NIL=
85586,2003,07,11,09,00,AAXX 11094 85586 NIL=
85586,2003,07,11,12,00,AAXX 11124 85586 32960 40000 10042 20035 40210 54/// 80001 333 20020 31/// 50090 55073 56006 84075=
85586,2003,07,11,15,00,AAXX 11154 85586 42960 01201 10113 20069 40213 52006=
85586,2003,07,11,18,00,AAXX 11184 85586 32960 02403 10164 20071 40193 57019=
85586,2003,07,11,21,00,AAXX 11214 85586 42960 02305 10142 20115 40192 54001=
85586,2003,07,12,00,00,AAXX 12004 85586 32960 00906 10074 20064 40208 52013 333 10166=
85586,2003,07,12,03,00,AAXX 12034 85586 NIL=
85586,2003,07,12,06,00,AAXX 12064 85586 NIL=
85586,2003,07,12,09,00,AAXX 12094 85586 NIL=
85586,2003,07,12,12,00,AAXX 12124 85586 32960 71204 10048 2=
85586,2003,07,12,15,00,AAXX 12154 85586 42960 71204 10110 20070 40196 53003 80002 333 56006 87073=
85586,2003,07,12,18,00,AAXX 12184 85586 32960 72104 10154 20076 40177 57025 80002 333 56006 87073=
85586,2003,07,12,21,00,AAXX 12214 85586 42960 72404 10138 20090 40163 56007 80002 333 56006 87073=
85586,2003,07,13,00,00,AAXX 13004 85586 32960 70000 10088 20074 40164 54000 80002 333 10162 56006 87073=
85586,2003,07,13,03,00,AAXX 13034 85586 NIL=
85586,2003,07,13,06,00,AAXX 13064 85586 NIL=
85586,2003,07,13,09,00,AAXX 13094 85586 NIL=
85586,2003,07,13,12,00,AAXX 13124 85586 32960 71204 10038 20029 40191 52/// 80001 333 20029 31/// 50090 55012 56006 87075=
85586,2003,07,13,15,00,AAXX 13154 85586 42960 33106 10130 20083 40216 52027 80001 333 56006 83075=
85586,2003,07,13,18,00,AAXX 13184 85586 32460 63404 10140 20113 40204 58011 86500 333 56700 86613=
85586,2003,07,13,21,00,AAXX 13214 85586 42460 43104 10132 20103 40199 56006 82501 333 56706 82616 83075=
85586,2003,07,14,00,00,AAXX 14004 85586 31408 40000 10090 20082 40213 52013 74611 82501 333 10150 56706 82613 83075=
85586,2003,07,14,03,00,AAXX 14034 85586 NIL=
85586,2003,07,14,06,00,AAXX 14064 85586 NIL=
85586,2003,07,14,09,00,AAXX 14094 85586 NIL=
85586,2003,07,14,12,00,AAXX 14124 85586 11965 01503 10053 20040 40268 52/// 60074 7028/ 333 20049 32/// 50080 55074 70073=
85586,2003,07,14,15,00,AAXX 14154 85586 42965 02008 10134 20082 40281 52015=
85586,2003,07,14,18,00,AAXX 14184 85586 32570 11816 10151 20055 40275 58005 81100 333 56600 81820=
85586,2003,07,14,21,00,AAXX 14214 85586 42970 01707 10144 20048 40258 57017=
85586,2003,07,15,00,00,AAXX 15004 85586 32960 01807 10102 20038 40269 53009 333 10152=
85586,2003,07,15,03,00,AAXX 15034 85586 NIL=
85586,2003,07,15,06,00,AAXX 15064 85586 NIL=
85586,2003,07,15,09,00,AAXX 15094 85586 NIL=
85586,2003,07,15,12,00,AAXX 15124 85586 32960 01502 10035 20011 40244 54/// 333 20032 31/// 50080 55086=
85586,2003,07,15,15,00,AAXX 15154 85586 42960 01407 10110 20029 40242 54001=
85586,2003,07,15,18,00,AAXX 15184 85586 32965 01610 10148 20005 40206 57035=
85586,2003,07,15,21,00,AAXX 15214 85586 42965 01508 10149 20059 40178 57028=
85586,2003,07,16,00,00,AAXX 16004 85586 32965 11503 10100 20012 40169 57010 80001 333 10164 56005 81075=
85586,2003,07,16,03,00,AAXX 16034 85586 NIL=
85586,2003,07,16,06,00,AAXX 16064 85586 NIL=
85586,2003,07,16,09,00,AAXX 16094 85586 NIL=
85586,2003,07,16,12,00,AAXX 16124 85586 32960 21504 10036 20016 40132 53/// 80001 333 20021 31/// 50130 55082 56005 82073=
85586,2003,07,16,15,00,AAXX 16154 85586 42960 12605 10128 20069 40154 52025 80001 333 56005 81073=
85586,2003,07,16,18,00,AAXX 16184 85586 32960 12904 10138 20080 40148 57006 80001 333 56005 81075=
85586,2003,07,16,21,00,AAXX 16214 85586 42960 13208 10127 20102 40159 53011 80001 333 56005 81075=
85586,2003,07,17,00,00,AAXX 17004 85586 32960 20000 10109 20089 40197 52037 80001 333 10140 56005 82075=
85586,2003,07,17,03,00,AAXX 17034 85586 NIL=
85586,2003,07,17,06,00,AAXX 17064 85586 NIL=
85586,2003,07,17,09,00,AAXX 17094 85586 NIL=
85586,2003,07,17,12,00,AAXX 17124 85586 32560 80904 10106 20077 40222 52/// 885// 333 20094 31/// 50120 55080 56099 88625=
85586,2003,07,17,15,00,AAXX 17154 85586 42560 80904 10120 20081 40232 52010 885// 333 56099 88623=
85586,2003,07,17,18,00,AAXX 17184 85586 32560 80000 10136 20067 40214 58018 8753/ 333 56069 87625=
85586,2003,07,17,21,00,AAXX 17214 85586 42560 82602 10126 20073 40210 56005=
85586,2003,07,18,00,00,AAXX 18004 85586 32560 80000 10114 20080 40233 52023 8453/ 333 10142 56069 84630 86363=
85586,2003,07,18,03,00,AAXX 18034 85586 NIL=
85586,2003,07,18,06,00,AAXX 18064 85586 NIL=
85586,2003,07,18,09,00,AAXX 18094 85586 NIL=
85586,2003,07,18,12,00,AAXX 18124 85586 31920 70000 10081 20063 40207 51/// 7101/ 81031 333 20059 31/// 50090 55000 56066 81362 87075=
85586,2003,07,18,15,00,AAXX 18154 85586 41930 81305 10112 20080 40124 53009 70521 83031 333 56066 83362 85075=
85586,2003,07,18,18,00,AAXX 18184 85586 31930 60000 10158 20094 40207 58007 70522 80001 333 56006 86075=
85586,2003,07,18,21,00,AAXX 18214 85586 41958 52305 10144 20104 40209 53002 70522 80001 333 56006 85075=
85586,2003,07,19,00,00,AAXX 19004 85586 31940 00000 10093 20072 40224 52013 70510 333 10159=
85586,2003,07,19,03,00,AAXX 19034 85586 NIL=
85586,2003,07,19,06,00,AAXX 19064 85586 NIL=
85586,2003,07,19,09,00,AAXX 19094 85586 NIL=
85586,2003,07,19,12,00,AAXX 19124 85586 31940 40903 10062 20043 40201 53/// 7051/ 80001 333 20052 31/// 50130 55037 56006 84075=
85586,2003,07,19,15,00,AAXX 19154 85586 41940 22705 10133 20098 40202 51003 70511 80001 333 56006 82075=
85586,2003,07,19,18,00,AAXX 19184 85586 31940 42903 10144 20097 40192 58009 70511 80001 333 56006 84075=
85586,2003,07,19,21,00,AAXX 19214 85586 42960 32703 10151 20112 40186 57006 80001 333 56006 83075=
85586,2003,07,20,00,00,AAXX 20004 85586 31106 80000 10117 20108 40198 52011 74441 886// 333 10155 56699 88703=
85586,2003,07,20,03,00,AAXX 20034 85586 NIL=
85586,2003,07,20,06,00,AAXX 20064 85586 NIL=
85586,2003,07,20,09,00,AAXX 20094 85586 NIL=
85586,2003,07,20,12,00,AAXX 20124 85586 11558 82203 10113 20094 40243 52/// 7056/ 8212/ 333 20107 32/// 50090 55083 56869 70008 82820 86456=
85586,2003,07,20,15,00,AAXX 20154 85586 42960 61708 10135 20060 40267 52025 80001 333 56006 86075=
85586,2003,07,20,18,00,AAXX 20184 85586 32560 71518 10154 20056 40263 50004 81101 333 56606 81820 86075=
85586,2003,07,20,21,00,AAXX 20214 85586 42970 21820 10148 20042 40259 56004 80001 333 56006 82075=
85586,2003,07,21,00,00,AAXX 21004 85586 32960 01718 10113 20046 40261 52002 333 10155=
85586,2003,07,21,03,00,AAXX 21034 85586 NIL=
85586,2003,07,21,06,00,AAXX 21064 85586 NIL=
85586,2003,07,21,09,00,AAXX 21094 85586 NIL=
85586,2003,07,21,12,00,AAXX 21124 85586 32960 01105 10034 20010 40242 53/// 333 20020 30/// 50090 55082=
85586,2003,07,21,15,00,AAXX 21154 85586 42960 02009 10107 20053 40250 52011=
85586,2003,07,21,18,00,AAXX 21184 85586 32960 12010 10137 20009 40225 58024 80001 333 56005 81073=
85586,2003,07,21,21,00,AAXX 21214 85586 42960 11804 10137 20060 40216 57009 80001 333 56005 81073=
85586,2003,07,22,00,00,AAXX 22004 85586 32960 12103 10055 20027 40227 53008 80001 333 10145 56005 81073=
85586,2003,07,22,03,00,AAXX 22034 85586 NIL=
85586,2003,07,22,06,00,AAXX 22064 85586 NIL=
85586,2003,07,22,09,00,AAXX 22094 85586 NIL=
85586,2003,07,22,12,00,AAXX 22124 85586 32960 42303 10031 20016 40241 52/// 83031 333 20025 31/// 50100 55089 56066 83365=
85586,2003,07,22,15,00,AAXX 22154 85586 42960 11507 10106 20029 40237 54001 80001 333 56006 81073=
85586,2003,07,22,18,00,AAXX 22184 85586 32960 01812 10144 20030 40234 54002=
85586,2003,07,22,21,00,AAXX 22214 85586 42960 01808 10138 20052 40230 57004=
85586,2003,07,23,00,00,AAXX 23004 85586 32960 02006 10085 20065 40245 53013 333 10149=
85586,2003,07,23,03,00,AAXX 23034 85586 NIL=
85586,2003,07,23,06,00,AAXX 23064 85586 NIL=
85586,2003,07,23,09,00,AAXX 23094 85586 NIL=
85586,2003,07,23,12,00,AAXX 23124 85586 32960 00000 10024 20016 40257 54/// 333 20024 31/// 50120 55083=
85586,2003,07,23,15,00,AAXX 23154 85586 42960 01807 10096 20019 40265 52010=
85586,2003,07,23,18,00,AAXX 23184 85586 32960 01812 10138 21007 40242 58021=
85586,2003,07,23,21,00,AAXX 23214 85586 42960 01808 10134 20001 40240 56003=
85586,2003,07,24,00,00,AAXX 24004 85586 32960 00000 10080 20028 40246 53005 333 10142=
85586,2003,07,24,03,00,AAXX 24034 85586 NIL=
85586,2003,07,24,06,00,AAXX 24064 85586 NIL=
85586,2003,07,24,09,00,AAXX 24094 85586 NIL=
85586,2003,07,24,12,00,AAXX 24124 85586 32960 61603 10040 20024 40240 56/// 80001 333 20016 31/// 50140 55084 56006 86075=
85586,2003,07,24,15,00,AAXX 24154 85586 42960 71404 10090 20043 40242 53004 87030 333 56060 87365=
85586,2003,07,24,18,00,AAXX 24184 85586 32960 72106 10106 20031 40227 58014 83032 333 56066 83363 85075=
85586,2003,07,24,21,00,AAXX 24214 85586 42960 31904 10126 20030 40226 54001 80002 333 56006 83075=
85586,2003,07,25,00,00,AAXX 25004 85586 32960 00000 10064 20041 40242 52015 333 10128=
85586,2003,07,25,03,00,AAXX 25034 85586 NIL=
85586,2003,07,25,06,00,AAXX 25064 85586 NIL=
85586,2003,07,25,09,00,AAXX 25094 85586 NIL=
85586,2003,07,25,12,00,AAXX 25124 85586 32960 01306 10023 20004 40181 57/// 333 20014 31/// 50160 55043=
85586,2003,07,25,15,00,AAXX 25154 85586 41956 00903 10098 20056 40171 56008 70500=
85586,2003,07,25,18,00,AAXX 25184 85586 31956 03009 10112 20050 40155 58015 70500=
85586,2003,07,25,21,00,AAXX 25214 85586 41556 23210 10111 20067 40152 56003 70500=
85586,2003,07,26,00,00,AAXX 26004 85586 31956 00303 10088 20058 40163 51010 70500 333 10119=
85586,2003,07,26,03,00,AAXX 26034 85586 NIL=
85586,2003,07,26,06,00,AAXX 26064 85586 NIL=
85586,2003,07,26,09,00,AAXX 26094 85586 NIL=
85586,2003,07,26,12,00,AAXX 26124 85586 31958 20904 10041 20020 40207 52/// 7051/ 80001 333 20029 31/// 50140 55087 56006 82075=
85586,2003,07,26,15,00,AAXX 26154 85586 42960 01205 10117 20071 40183 52016=
85586,2003,07,26,18,00,AAXX 26184 85586 32560 13010 10141 20052 40206 58013=
85586,2003,07,26,21,00,AAXX 26214 85586 42960 40000 10126 20057 40207 54000 80001 333 56006 84075=
85586,2003,07,27,00,00,AAXX 27004 85586 31556 40000 10081 20058 40209 54001 70511 84500 333 10143 56700 84620=
85586,2003,07,27,03,00,AAXX 27034 85586 NIL=
85586,2003,07,27,06,00,AAXX 27064 85586 NIL=
85586,2003,07,27,09,00,AAXX 27094 85586 NIL=
85586,2003,07,27,12,00,AAXX 27124 85586 32960 51306 10066 20040 40241 52/// 80001 333 20041 31/// 50150 55077 56006 85075=
85586,2003,07,27,15,00,AAXX 27154 85586 41956 61007 10108 20056 40239 54000 70511 86010 333 56006 86462=
85586,2003,07,27,18,00,AAXX 27184 85586 31958 11712 10167 20048 40212 57025 70511 80001 333 56006 81075=
85586,2003,07,27,21,00,AAXX 27214 85586 42960 21810 10162 20066 40193 57020 80001 333 56006 82075=
85586,2003,07,28,00,00,AAXX 28004 85586 31940 62208 10111 20081 40207 51013 70500 86030 333 10174 56060 86362=
85586,2003,07,28,06,00,AAXX 28064 85586 NIL=
85586,2003,07,28,09,00,AAXX 28094 85586 NIL=
85586,2003,07,28,12,00,AAXX 28124 85586 32960 21302 10044 20037 40253 52/// 80001 333 20040 31/// 50130 55063 56005 82073=
85586,2003,07,28,15,00,AAXX 28154 85586 42960 21508 10120 20079 40256 52006 80001 333 56005 82073=
85586,2003,07,28,18,00,AAXX 28184 85586 32960 02408 10153 20096 40243 58012=
85586,2003,07,28,21,00,AAXX 28214 85586 42960 01905 10164 20104 40240 57003=
85586,2003,07,29,00,00,AAXX 29004 85586 32960 11703 10080 20053 40245 53003 80001 333 10168 56005 81075=
85586,2003,07,29,03,00,AAXX 29034 85586 NIL=
85586,2003,07,29,06,00,AAXX 29064 85586 NIL=
85586,2003,07,29,09,00,AAXX 29094 85586 NIL=
85586,2003,07,29,12,00,AAXX 29124 85586 32960 01204 10072 20034 40204 57/// 333 20062 31/// 50150 55084=
85586,2003,07,29,15,00,AAXX 29154 85586 42960 01206 10152 20049 40186 57015=
85586,2003,07,29,18,00,AAXX 29184 85586 32960 02408 10168 20073 40169 57016=
85586,2003,07,29,21,00,AAXX 29214 85586 42960 30000 10156 20091 40161 57009 80001 333 56006 83075=
85586,2003,07,30,00,00,AAXX 30004 85586 32960 40000 10098 20087 40173 53011 80001 333 10202 56006 84075=
85586,2003,07,30,03,00,AAXX 30034 85586 NIL=
85586,2003,07,30,06,00,AAXX 30064 85586 NIL=
85586,2003,07,30,09,00,AAXX 30094 85586 NIL=
85586,2003,07,30,12,00,AAXX 30124 85586 31004 80000 10066 20058 40167 56/// 7464/ 886// 333 20022 31/// 50130 55090 56099 88701=
85586,2003,07,30,15,00,AAXX 30154 85586 41004 80000 10078 20070 40183 53017 74644 886// 333 56099 88701=
85586,2003,07,30,18,00,AAXX 30184 85586 31330 82403 10114 20090 40178 58004 70544 885// 333 56099 88608=
85586,2003,07,30,21,00,AAXX 30214 85586 41456 62402 10112 20082 40177 54001 70522 86500 333 56600 86610=
85586,2003,07,31,00,00,AAXX 31004 85586 32460 80000 10098 20079 40185 53007 885// 333 10118 56099 88615=
85586,2003,07,31,03,00,AAXX 31034 85586 NIL=
85586,2003,07,31,06,00,AAXX 31064 85586 NIL=
85586,2003,07,31,09,00,AAXX 31094 85586 NIL=
85586,2003,07,31,12,00,AAXX 31124 85586 31457 83402 10091 20075 40192 53/// 7052/ 885// 333 20084 31/// 50130 55002 56799 88610=
85586,2003,07,31,15,00,AAXX 31154 85586 41458 73103 10108 20073 40206 52015 70522 87500 333 56700 87613=
85586,2003,07,31,18,00,AAXX 31184 85586 32460 72806 10118 20078 40200 58006 87500 333 56700 87617=
85586,2003,07,31,21,00,AAXX 31214 85586 42460 73005 10115 20086 40203 53003 87500 333 56700 87617=
85586,2003,08,01,00,00,AAXX 01004 85586 32560 70705 10103 20080 40216 52012 87500 333 10120 56700 87620=
85586,2003,08,01,03,00,AAXX 01034 85586 NIL=
85586,2003,08,01,06,00,AAXX 01064 85586 NIL=
85586,2003,08,01,09,00,AAXX 01094 85586 NIL=
85586,2003,08,01,12,00,AAXX 01124 85586 12960 11103 10061 20054 40271 52/// 60034 81030 333 20051 32/// 50090 55002 56060 70038 81362=
85586,2003,08,01,15,00,AAXX 01154 85586 42565 10906 10127 20059 40275 52006 81100 333 56800 81820=
85586,2003,08,01,18,00,AAXX 01184 85586 32965 01504 10152 20054 40263 58011=
85586,2003,08,01,21,00,AAXX 01214 85586 42970 01708 10150 20018 40245 57018=
85586,2003,08,02,00,00,AAXX 02004 85586 32960 00000 10076 20047 40242 57005 333 10156=
85586,2003,08,02,03,00,AAXX 02034 85586 NIL=
85586,2003,08,02,06,00,AAXX 02064 85586 NIL=
85586,2003,08,02,09,00,AAXX 02094 85586 NIL=
85586,2003,08,02,12,00,AAXX 02124 85586 32960 01503 10035 20026 40205 57/// 333 20030 31/// 50150 55094=
85586,2003,08,02,15,00,AAXX 02154 85586 42960 01305 10126 20081 40201 54001=
85586,2003,08,02,18,00,AAXX 02184 85586 32960 02410 10127 20062 40191 57010=
85586,2003,08,02,21,00,AAXX 02214 85586 42960 02408 10129 20089 40191 54000=
85586,2003,08,03,00,00,AAXX 03004 85586 32960 00000 10064 20054 40199 52006 333 10142=
85586,2003,08,03,03,00,AAXX 03034 85586 NIL=
85586,2003,08,03,06,00,AAXX 03064 85586 NIL=
85586,2003,08,03,09,00,AAXX 03094 85586 NIL=
85586,2003,08,03,12,00,AAXX 03124 85586 32960 10000 10011 20006 40236 53/// 80001 333 20000 34/// 50160 55097 56005 81075=
85586,2003,08,03,15,00,AAXX 03154 85586 42960 43403 10102 20076 40238 52005 80001 333 56005 84075=
85586,2003,08,03,18,00,AAXX 03184 85586 32560 60000 10121 20061 40219 58018 81501 333 56605 81620 85073=
85586,2003,08,03,21,00,AAXX 03214 85586 42960 73002 10113 20071 40213 57006 83011 333 56055 83465 84070=
85586,2003,08,04,00,00,AAXX 04004 85586 32960 80000 10061 20049 40219 52004 84021 333 10130 56066 84465 85070=
85586,2003,08,04,03,00,AAXX 04034 85586 NIL=
85586,2003,08,04,06,00,AAXX 04064 85586 NIL=
85586,2003,08,04,09,00,AAXX 04094 85586 NIL=
85586,2003,08,04,12,00,AAXX 04124 85586 11440 82704 10080 20070 40230 52/// 60084 7626/ 8453/ 333 20044 32/// 50090 55068 56679 70082 84613 88360=
85586,2003,08,04,15,00,AAXX 04154 85586 41460 81504 10076 20060 40259 52028 76066 8253/ 333 56679 82613 88359=
85586,2003,08,04,18,00,AAXX 04184 85586 NIL=
85586,2003,08,04,21,00,AAXX 04214 85586 41560 20303 10106 20059 40269 52012 70166 81800 333 56800 82820=
85586,2003,08,05,00,00,AAXX 05004 85586 12460 30000 10060 20046 40303 52031 60001 83800 333 10108 56100 83813=
85586,2003,08,05,03,00,AAXX 05034 85586 NIL=
85586,2003,08,05,06,00,AAXX 05064 85586 NIL=
85586,2003,08,05,09,00,AAXX 05094 85586 NIL=
85586,2003,08,05,12,00,AAXX 05124 85586 12960 41206 10016 20009 40296 56/// 60074 80001 333 20014 32/// 50070 55009 56006 84075=
85586,2003,08,05,15,00,AAXX 05154 85586 42960 61506 10104 20061 40201 54001 80001 333 56006 86075=
85586,2003,08,05,18,00,AAXX 05184 85586 32960 51810 10164 20054 40276 57016 80001 333 56006 85075=
85586,2003,08,05,21,00,AAXX 05214 85586 42960 31906 10131 20040 40264 57012 80001 333 56006 83075=
85586,2003,08,06,00,00,AAXX 06004 85586 32960 00000 10056 20020 40271 53005 333 10165=
85586,2003,08,06,03,00,AAXX 06034 85586 NIL=
85586,2003,08,06,06,00,AAXX 06064 85586 NIL=
85586,2003,08,06,09,00,AAXX 06094 85586 NIL=
85586,2003,08,06,12,00,AAXX 06124 85586 32960 01305 10012 21004 40242 56/// 333 20002 31/// 50160 55088=
85586,2003,08,06,15,00,AAXX 06154 85586 42960 21706 10124 20042 40240 50002 80001 333 56006 82075=
85586,2003,08,06,18,00,AAXX 06184 85586 32960 42612 10181 20059 40217 57021 80001 333 56006 84075=
85586,2003,08,06,21,00,AAXX 06214 85586 42960 32505 10152 20048 40209 57009 80001 333 56006 83075=
85586,2003,08,07,00,00,AAXX 07004 85586 31940 40000 10064 20045 40222 51010 70511 80001 333 10185 56006 84075=
85586,2003,08,07,03,00,AAXX 07034 85586 NIL=
85586,2003,08,07,06,00,AAXX 07064 85586 NIL=
85586,2003,08,07,09,00,AAXX 07094 85586 NIL=
85586,2003,08,07,12,00,AAXX 07124 85586 31956 71703 10066 20041 40217 52/// 7052/ 84031 333 20039 31/// 5///0 55103 56066 84362 83075=
85586,2003,08,07,15,00,AAXX 07154 85586 41956 70000 10093 20059 40234 52018 70522 87030 333 56060 87362=
85586,2003,08,07,18,00,AAXX 07184 85586 32960 11812 10162 20048 40216 57016 81030 333 56060 81362=
85586,2003,08,07,21,00,AAXX 07214 85586 42960 02306 10156 20112 40208 57008=
85586,2003,08,08,00,00,AAXX 08004 85586 31956 02503 10162 20083 40229 52019 70500 333 10168=
85586,2003,08,08,03,00,AAXX 08034 85586 NIL=
85586,2003,08,08,06,00,AAXX 08064 85586 NIL=
85586,2003,08,08,09,00,AAXX 08094 85586 NIL=
85586,2003,08,08,12,00,AAXX 08124 85586 32960 01506 10073 20065 40209 57/// 333 20062 31/// 50140 55053=
85586,2003,08,08,15,00,AAXX 08154 85586 42960 01507 10131 20092 40206 54001=
85586,2003,08,08,18,00,AAXX 08184 85586 32960 02305 10183 20110 40178 57026=
85586,2003,08,08,21,00,AAXX 08214 85586 42960 02405 10160 20122 40163 57015=
85586,2003,08,09,00,00,AAXX 09004 85586 32960 00000 10098 20092 40168 53003 333 10190=
85586,2003,08,09,03,00,AAXX 09034 85586 NIL=
85586,2003,08,09,06,00,AAXX 09064 85586 NIL=
85586,2003,08,09,09,00,AAXX 09094 85586 NIL=
85586,2003,08,09,12,00,AAXX 09124 85586 31102 80000 10072 20068 40196 52/// 7444/ 886// 333 20034 31/// 50160 55098 56799 88702=
85586,2003,08,09,15,00,AAXX 09154 85586 41102 80000 10077 20073 40203 52008 74444 886// 333 56799 88702=
85586,2003,08,09,18,00,AAXX 09184 85586 31230 80000 10101 20094 40185 58017 71042 886// 333 56799 88705=
85586,2003,08,09,21,00,AAXX 09214 85586 41203 80000 10099 20095 40179 57006 74442 886// 333 56799 88704=
85586,2003,08,10,00,00,AAXX 10004 85586 31120 80000 10093 20089 40187 52012 71042 886// 333 10111 56799 88703=
85586,2003,08,10,03,00,AAXX 10034 85586 NIL=
85586,2003,08,10,06,00,AAXX 10064 85586 NIL=
85586,2003,08,10,09,00,AAXX 10094 85586 NIL=
85586,2003,08,10,12,00,AAXX 10124 85586 31003 80802 10074 20067 40168 56/// 7464/ 886//=
85586,2003,08,10,15,00,AAXX 10154 85586 41208 80000 10080 20073 40186 54000 74644 886// 333 56099 88704=
85586,2003,08,10,18,00,AAXX 10184 85586 31220 80000 10096 20090 40174 57013 71042 886// 333 56099 88704=
85586,2003,08,10,21,00,AAXX 10214 85586 41206 82504 10090 20083 40179 53005 74644 886// 333 56599 88704=
85586,2003,08,11,00,00,AAXX 11004 85586 31330 83102 10090 20083 40181 54002 71044 886// 333 10106 56099 88707=
85586,2003,08,11,03,00,AAXX 11034 85586 NIL=
85586,2003,08,11,06,00,AAXX 11064 85586 NIL=
85586,2003,08,11,09,00,AAXX 11094 85586 NIL=
85586,2003,08,11,12,00,AAXX 11124 85586 11330 80000 10076 20070 40183 56/// 69904 7502/ 886// 333 20076 31/// 50070 55000 56099 70000 88708=
85586,2003,08,11,15,00,AAXX 11154 85586 41340 81304 10093 20073 40185 52002 70522 886// 333 56799 88509=
85586,2003,08,11,18,00,AAXX 11184 85586 31330 82204 10107 20082 40178 58006 70522 886// 333 56799 88708=
85586,2003,08,11,21,00,AAXX 11214 85586 41340 82604 10101 20082 40185 51006 70522 886// 333 56799 88709=
85586,2003,08,12,00,00,AAXX 12004 85586 31440 80000 10085 20069 40194 52008 70522 885// 333 10114 56099 88610=
85586,2003,08,12,03,00,AAXX 12034 85586 NIL=
85586,2003,08,12,06,00,AAXX 12064 85586 NIL=
85586,2003,08,12,09,00,AAXX 12094 85586 NIL=
85586,2003,08,12,12,00,AAXX 12124 85586 31540 81303 10082 20064 40190 51/// 7052/ 83501 333 20086 31/// 50110 55000 56706 83620 85075=
85586,2003,08,12,15,00,AAXX 12154 85586 41440 31807 10121 20092 40193 54003 70511 83500 333 56700 83617=
85586,2003,08,12,18,00,AAXX 12184 85586 31956 52505 10121 20094 40185 57007 70522 80001 333 56006 85073=
85586,2003,08,12,21,00,AAXX 12214 85586 41958 22407 10128 20103 40191 51005 70522 80001 333 56006 82073=
85586,2003,08,13,00,00,AAXX 13004 85586 31940 70000 10103 20084 40206 52014 70522 80001 333 10137 56006 87075=
85586,2003,08,13,03,00,AAXX 13034 85586 NIL=
85586,2003,08,13,06,00,AAXX 13064 85586 NIL=
85586,2003,08,13,09,00,AAXX 13094 85586 NIL=
85586,2003,08,13,12,00,AAXX 13124 85586 31920 70903 10085 20071 40221 51/// 7102/ 87030 333 20081 31/// 50110 55061 56060 87362=
85586,2003,08,13,15,00,AAXX 13154 85586 41940 70903 10134 20102 40233 52013 70522 87030 333 56060 87362=
85586,2003,08,13,18,00,AAXX 13184 85586 31956 62506 10146 20111 40215 57017 70522 86030 333 56060 86362=
85586,2003,08,13,20,00,AAXX 14124 85586 31656 70000 10092 20088 40232 52/// 7102/ 85630 333 20090 31/// 50130 55041 56660 85640=
85586,2003,08,13,21,00,AAXX 13214 85586 41956 82505 10133 20098 40207 56009 70522 82031 333 56066 82362 86075=
85586,2003,08,14,00,00,AAXX 14004 85586 31940 60000 10104 20087 40212 53004 70522 80001 333 10154 56006 86075=
85586,2003,08,14,03,00,AAXX 14034 85586 NIL=
85586,2003,08,14,06,00,AAXX 14064 85586 NIL=
85586,2003,08,14,09,00,AAXX 14094 85586 NIL=
85586,2003,08,14,12,00,AAXX 14124 85586 31656 70000 10092 20088 40232 52/// 7102/ 85630 333 20090 31/// 50130 55041 56660 85640=
85586,2003,08,14,15,00,AAXX 14154 85586 41958 02308 10156 20108 40232 51002 70521=
85586,2003,08,14,18,00,AAXX 14184 85586 32960 02510 10179 20108 40215 58016=
85586,2003,08,14,21,00,AAXX 14214 85586 32960 11804 10153 20120 40220 57012 80001 333 56005 81075=
85586,2003,08,15,00,00,AAXX 15004 85586 32960 30000 10109 20092 40229 52008 80001 333 10180 56005 83075=
85586,2003,08,15,03,00,AAXX 15034 85586 NIL=
85586,2003,08,15,06,00,AAXX 15064 85586 NIL=
85586,2003,08,15,09,00,AAXX 15094 85586 NIL=
85586,2003,08,15,12,00,AAXX 15124 85586 32960 00904 10090 20072 40224 53/// 333 20065 31/// 50160 55092=
85586,2003,08,15,15,00,AAXX 15154 85586 42960 01307 10170 20112 40226 50005=
85586,2003,08,15,18,00,AAXX 15184 85586 32960 01209 10226 20116 40186 57038=
85586,2003,08,15,21,00,AAXX 15214 85586 42960 01707 10231 20090 40176 57010=
85586,2003,08,16,00,00,AAXX 16004 85586 32960 02403 10134 20107 40191 52011 333 20244=
85586,2003,08,16,03,00,AAXX 16034 85586 NIL=
85586,2003,08,16,06,00,AAXX 16064 85586 NIL=
85586,2003,08,16,09,00,AAXX 16094 85586 NIL=
85586,2003,08,16,12,00,AAXX 16124 85586 32560 71204 10130 20098 40156 57/// 81532 333 20108 31/// 50140 55104 56166 81630 84365=
85586,2003,08,16,15,00,AAXX 16154 85586 42960 71206 10156 20104 40162 53007 84031 333 56066 84362 83075=
85586,2003,08,16,18,00,AAXX 16184 85586 32460 73110 10142 20122 40173 52010 82501 333 56706 82610 87075=
85586,2003,08,17,00,00,AAXX 17004 85586 31206 80000 10110 20102 40179 53006 74622 886// 333 56099 88706=
85586,2003,08,17,03,00,AAXX 17034 85586 NIL=
85586,2003,08,17,06,00,AAXX 17064 85586 NIL=
85586,2003,08,17,09,00,AAXX 17094 85586 NIL=
85586,2003,08,17,12,00,AAXX 17124 85586 31312 83604 10104 20096 40182 57/// 7102/ 886// 333 20104 31/// 50100 50035 56899 88707=
85586,2003,08,17,15,00,AAXX 17154 85586 41340 80000 10120 20109 40187 53006 71022 886// 333 56099 88709=
85586,2003,08,17,18,00,AAXX 17184 85586 31456 83108 10130 20110 40178 58009 70522 885// 333 56799 88612=
85586,2003,08,17,21,00,AAXX 17214 85586 41456 83108 10126 20101 40167 57011 70522 885// 333 56799 88612=
85586,2003,08,18,00,00,AAXX 18004 85586 31456 80000 10117 20102 40169 54002 70522 885// 333 10134 56099 88610=
85586,2003,08,18,03,00,AAXX 18034 85586 NIL=
85586,2003,08,18,06,00,AAXX 18064 85586 NIL=
85586,2003,08,18,09,00,AAXX 18094 85586 NIL=
85586,2003,08,18,12,00,AAXX 18124 85586 31458 70303 10121 20095 40168 57/// 7052/ 82501 333 20112 31/// 50120 55000 56706 72615 85075=
85586,2003,08,18,15,00,AAXX 18154 85586 41440 83007 10125 20092 40205 52036 70522 885// 333 56799 88615=
85586,2003,08,18,18,00,AAXX 18184 85586 31456 83204 10129 20098 40202 58003 70522 885// 333 56799 88615=
85586,2003,08,18,21,00,AAXX 18214 85586 41556 83403 10126 20098 40198 57004 70522 885// 333 56799 88620=
85586,2003,08,19,00,00,AAXX 19004 85586 31440 80000 10121 20095 40205 51007 70522 885// 333 10134 56799 88615=
85586,2003,08,19,03,00,AAXX 19034 85586 NIL=
85586,2003,08,19,06,00,AAXX 19064 85586 NIL=
85586,2003,08,19,09,00,AAXX 19094 85586 NIL=
85586,2003,08,19,12,00,AAXX 19124 85586 11220 82303 10116 20107 40224 52/// 69924 7102/ 886// 333 20111 31/// 50110 55004 56099 70002 88704=
85586,2003,08,19,15,00,AAXX 19154 85586 41220 82203 10126 20110 40245 52021 71052 886// 333 56799 88705=
85586,2003,08,19,18,00,AAXX 19184 85586 12560 61804 10177 20115 40231 58012 70252 82130 333 56860 82820 84362=
85586,2003,08,19,21,00,AAXX 19214 85586 41558 72310 10136 20109 40228 56004 70522 81130 333 56860 81820 86362=
85586,2003,08,20,00,00,AAXX 20004 85586 31940 71204 10113 20092 40226 57003 70522 87030 333 10179 56060 87362=
85586,2003,08,20,03,00,AAXX 20034 85586 NIL=
85586,2003,08,20,06,00,AAXX 20064 85586 NIL=
85586,2003,08,20,09,00,AAXX 20094 85586 NIL=
85586,2003,08,20,12,00,AAXX 20124 85586 12960 30000 10038 20034 40221 53/// 69924 82031 333 20035 31/// 50110 55033 56066 70002 82365=
85586,2003,08,20,15,00,AAXX 20154 85586 32960 42505 10131 20106 40220 54002 81031 333 56066 81365 83072=
85586,2003,08,20,18,00,AAXX 20184 85586 32565 52311 10159 20096 40209 57010 82101 333 56606 82820 83072=
85586,2003,08,20,21,00,AAXX 20214 85586 42560 72409 10133 20093 40216 53006 81101 333 56606 81820 86070=
85586,2003,08,21,00,00,AAXX 21004 85586 32960 60000 10094 20086 40229 52012 80001 333 10160 56006 86070=
85586,2003,08,21,03,00,AAXX 21034 85586 NIL=
85586,2003,08,21,06,00,AAXX 21064 85586 NIL=
85586,2003,08,21,12,00,AAXX 21124 85586 32960 50000 10030 20025 40240 52/// 80001 333 20018 31/// 50150 55063 56005 85075=
85586,2003,08,21,15,00,AAXX 21154 85586 42960 61610 10140 20061 40243 52007 80001 333 56005 86075=
85586,2003,08,21,18,00,AAXX 21184 85586 32960 41510 10165 20070 40232 58011 80001 333 56005 84075=
85586,2003,08,21,21,00,AAXX 21214 85586 42960 32508 10149 20086 40222 57010 80001 333 56005 83075=
85586,2003,08,22,00,00,AAXX 22004 85586 32960 21604 10099 20082 40233 52009 80001 333 10166 56005 82075=
85586,2003,08,22,03,00,AAXX 22034 85586 NIL=
85586,2003,08,22,06,00,AAXX 22064 85586 NIL=
85586,2003,08,22,09,00,AAXX 22094 85586 NIL=
85586,2003,08,22,12,00,AAXX 22124 85586 32960 11806 10030 20013 40227 54/// 80001 333 20030 31/// 50120 56006 81075=
85586,2003,08,22,15,00,AAXX 22154 85586 42960 11508 10100 20037 40235 52010 80001 333 56006 81075=
85586,2003,08,22,18,00,AAXX 22184 85586 32960 12308 10108 20048 40221 57013 80001 333 56006 81075=
85586,2003,08,22,21,00,AAXX 22214 85586 42960 12412 10112 20046 40221 54000 80001 333 56006 81075=
85586,2003,08,23,00,00,AAXX 23004 85586 32960 02404 10070 20031 40233 53010 333 10131=
85586,2003,08,23,03,00,AAXX 23034 85586 NIL=
85586,2003,08,23,06,00,AAXX 23064 85586 NIL=
85586,2003,08,23,09,00,AAXX 23094 85586 NIL=
85586,2003,08,23,12,00,AAXX 23124 85586 32960 01204 11014 21020 40270 52/// 333 21014 31/// 50130 55102=
85586,2003,08,23,15,00,AAXX 23154 85586 42960 02406 10100 20048 40280 52013=
85586,2003,08,23,18,00,AAXX 23184 85586 32960 02608 10117 20042 40274 54000=
85586,2003,08,23,21,00,AAXX 23214 85586 42960 02406 10120 20043 40276 54002=
85586,2003,08,24,00,00,AAXX 24004 85586 32960 00000 10060 20046 40287 52009 333 10122=
85586,2003,08,24,03,00,AAXX 24034 85586 NIL=
85586,2003,08,24,06,00,AAXX 24064 85586 NIL=
85586,2003,08,24,09,00,AAXX 24094 85586 NIL=
85586,2003,08,24,12,00,AAXX 24124 85586 32960 02006 10048 20022 40286 53/// 333 20021 34/// 50110 55097=
85586,2003,08,24,15,00,AAXX 24154 85586 42960 01807 10136 20047 40282 50001=
85586,2003,08,24,18,00,AAXX 24184 85586 32960 01612 10184 20016 40263 57018=
85586,2003,08,24,21,00,AAXX 24214 85586 42960 01714 10181 20034 40257 56006=
85586,2003,08,25,00,00,AAXX 25004 85586 32960 01405 10126 20057 40269 52010 333 10194=
85586,2003,08,25,03,00,AAXX 25034 85586 NIL=
85586,2003,08,25,06,00,AAXX 25064 85586 NIL=
85586,2003,08,25,09,00,AAXX 25094 85586 NIL=
85586,2003,08,25,12,00,AAXX 25124 85586 32960 01705 10083 20044 40222 57/// 333 20069 30/// 50140 55108=
85586,2003,08,25,15,00,AAXX 25154 85586 42960 01312 10161 20062 40211 58009=
85586,2003,08,25,18,00,AAXX 25184 85586 32960 02808 10196 20085 40181 57028=
85586,2003,08,25,21,00,AAXX 25214 85586 42960 11812 10214 20052 40164 57016 80001 333 56006 81075=
85586,2003,08,26,00,00,AAXX 26004 85586 32960 21607 10162 20047 40164 56002 80001 333 10216 56006 82075=
85586,2003,08,26,03,00,AAXX 26034 85586 NIL=
85586,2003,08,26,06,00,AAXX 26064 85586 NIL=
85586,2003,08,26,09,00,AAXX 26094 85586 NIL=
85586,2003,08,26,12,00,AAXX 26124 85586 32960 01002 10079 20067 40128 57/// 333 20062 30/// 50160 55108=
85586,2003,08,26,15,00,AAXX 26154 85586 41958 03005 10153 20077 40136 53009 70500=
85586,2003,08,26,18,00,AAXX 26184 85586 32960 03005 10155 20111 40132 58003=
85586,2003,08,26,21,00,AAXX 26214 85586 42960 03005 10159 20108 40122 57010=
85586,2003,08,27,00,00,AAXX 27004 85586 31256 83302 10116 20109 40138 52015 71022 886// 333 20163 56799 88706=
85586,2003,08,27,03,00,AAXX 27034 85586 NIL=
85586,2003,08,27,06,00,AAXX 27064 85586 NIL=
85586,2003,08,27,09,00,AAXX 27094 85586 NIL=
85586,2003,08,27,12,00,AAXX 27124 85586 31330 81003 10096 20090 40143 53/// 7102/ 886// 333 20096 31/// 50190 55105 56799 88708=
85586,2003,08,27,15,00,AAXX 27154 85586 41340 83505 10111 20096 40166 52016 71022 886// 333 56799 88708=
85586,2003,08,27,18,00,AAXX 27184 85586 31356 83210 10126 20087 40169 50003 70522 885// 333 56799 88612=
85586,2003,08,27,21,00,AAXX 27214 85586 31458 83308 10122 20100 40177 53008 70522 885// 333 56799 88618=
85586,2003,08,28,00,00,AAXX 28004 85586 31559 83305 10121 20101 40192 52014 70522 885// 333 20130 56799 88620=
85586,2003,08,28,03,00,AAXX 28034 85586 NIL=
85586,2003,08,28,06,00,AAXX 28064 85586 NIL=
85586,2003,08,28,09,00,AAXX 28094 85586 NIL=
85586,2003,08,28,12,00,AAXX 28124 85586 32460 80000 10100 20084 40196 57/// 885// 333 20100 31/// 50010 55000 56099 88613=
85586,2003,08,28,15,00,AAXX 28154 85586 42460 82506 10121 20078 40210 53015 885// 333 56099 88613=
85586,2003,08,28,18,00,AAXX 28184 85586 32460 80000 10134 20083 40195 58015 85502 333 56006 85617 85075=
85586,2003,08,28,21,00,AAXX 28214 85586 42960 82402 10130 20079 40175 52020 80002 333 56006 88073=
85586,2003,08,29,00,00,AAXX 29004 85586 32960 82304 10100 20087 40177 54002 80002 333 10136 56006 88073=
85586,2003,08,29,03,00,AAXX 29034 85586 NIL=
85586,2003,08,29,06,00,AAXX 29064 85586 NIL=
85586,2003,08,29,09,00,AAXX 29094 85586 NIL=
85586,2003,08,29,12,00,AAXX 29124 85586 32560 81006 10092 20087 40181 53/// 85502 333 20082 30/// 50100 55003 56106 85630 85073=
85586,2003,08,29,15,00,AAXX 29154 85586 42560 83106 10134 20109 40193 54003 83501 333 56706 83620 85073=
85586,2003,08,29,18,00,AAXX 29184 85586 32460 83106 10128 20103 40184 54001 885// 333 56799 88617=
85586,2003,08,29,21,00,AAXX 29214 85586 42430 82704 10116 20096 40182 54002 70522 885// 333 56799 88610=
85586,2003,08,30,00,00,AAXX 30004 85586 31456 80000 10112 20093 40189 53007 70522 885// 333 56099 88615=
85586,2003,08,30,03,00,AAXX 30034 85586 NIL=
85586,2003,08,30,06,00,AAXX 30064 85586 NIL=
85586,2003,08,30,09,00,AAXX 30094 85586 NIL=
85586,2003,08,30,12,00,AAXX 30124 85586 31558 70000 10112 20084 40198 52/// 69904 7052/ 8155/ 333 20089 31/// 50140 55027 56769 81620 87362=
85586,2003,08,30,15,00,AAXX 30154 85586 41558 63603 10149 20091 40207 51010 70522 82501 333 56706 82620 84075=
85586,2003,08,30,18,00,AAXX 30184 85586 31958 73010 10142 20096 40202 57005 70522 80001 333 56006 87075=
85586,2003,08,30,21,00,AAXX 30214 85586 42960 33005 10144 20091 40196 57006 70001 333 56006 83075=
85586,2003,08,31,00,00,AAXX 31004 85586 31956 60000 10094 20070 40209 53011 70511 80001 333 10154 56006 86075=
85586,2003,08,31,03,00,AAXX 31034 85586 NIL=
85586,2003,08,31,06,00,AAXX 31064 85586 NIL=
85586,2003,08,31,09,00,AAXX 31094 85586 NIL=
85586,2003,08,31,12,00,AAXX 31124 85586 31958 80000 10092 20070 40205 55/// 7052/ 8803/ 333 20071 30/// 50150 55073 56069 88365=
85586,2003,08,31,15,00,AAXX 31154 85586 41956 82504 10133 20101 40211 52007 70522 84031 333 56066 84365 84075=
85586,2003,08,31,18,00,AAXX 31184 85586 31958 52514 10165 20124 40191 57018 70522 80001 333 56006 85075=
85586,2003,08,31,21,00,AAXX 31214 85586 42960 32510 10166 20123 40176 57015 80001 333 56006 83075=
85586,2003,09,01,00,00,AAXX 01004 85586 31956 40204 10128 20105 40184 53007 70511 80001 333 10184 56006 84075=
85586,2003,09,01,03,00,AAXX 01034 85586 NIL=
85586,2003,09,01,06,00,AAXX 01064 85586 NIL=
85586,2003,09,01,09,00,AAXX 01094 85586 NIL=
85586,2003,09,01,12,00,AAXX 01124 85586 31902 00000 10083 20077 40185 53/// 7444/ 333 20069 30/// 50200 55067=
85586,2003,09,01,15,00,AAXX 01154 85586 41107 52703 10134 20125 40191 52006 74442 85600 333 56700 85703=
85586,2003,09,01,18,00,AAXX 01184 85586 31160 42407 10155 20126 40180 58009 70241 82601 333 56706 82703=
85586,2003,09,01,21,00,AAXX 01214 85586 42960 22506 10153 20119 40174 57007 80001 333 56006 82073=
85586,2003,09,02,00,00,AAXX 02004 85586 32960 20000 10113 20107 40166 57008 80001 333 10160 56005 82073=
85586,2003,09,02,03,00,AAXX 02034 85586 NIL=
85586,2003,09,02,06,00,AAXX 02064 85586 NIL=
85586,2003,09,02,09,00,AAXX 02094 85586 NIL=
85586,2003,09,02,12,00,AAXX 02124 85586 31120 83503 10105 20101 40162 52/// 7102/ 886// 333 20087 31/// 50080 55075 56799 88703=
85586,2003,09,02,15,00,AAXX 02154 85586 41230 83109 10121 20112 40184 52023 71022 886// 333 56799 88704=
85586,2003,09,02,18,00,AAXX 02184 85586 31356 83206 10123 20115 40182 54002 71022 886// 333 56799 88707=
85586,2003,09,02,21,00,AAXX 02214 85586 41359 83106 10121 20115 40186 52004 71022 886// 333 56799 88709=
85586,2003,09,03,00,00,AAXX 03004 85586 11240 83103 10115 20111 40195 52008 69911 75022 886// 333 10126 56799 88705=
85586,2003,09,03,03,00,AAXX 03034 85586 NIL=
85586,2003,09,03,06,00,AAXX 03064 85586 NIL=
85586,2003,09,03,09,00,AAXX 03094 85586 NIL=
85586,2003,09,03,12,00,AAXX 03124 85586 11560 80000 10108 20098 40196 52/// 69934 7026/ 885// 333 20106 31/// 50080 55000 56099 70003 88620=
85586,2003,09,03,15,00,AAXX 03154 85586 41456 82502 10122 20102 40199 54003 70522 885// 333 56099 88615=
85586,2003,09,03,18,00,AAXX 03184 85586 32560 83406 10132 20093 40185 57013 885// 333 56799 88625=
85586,2003,09,03,21,00,AAXX 03214 85586 42560 80000 10126 20097 40186 53001 885// 333 56099 88620=
85586,2003,09,04,00,00,AAXX 04004 85586 32560 80000 10114 20097 40193 53006 885// 333 10136 56099 88620=
85586,2003,09,04,03,00,AAXX 04034 85586 NIL=
85586,2003,09,04,06,00,AAXX 04064 85586 NIL=
85586,2003,09,04,09,00,AAXX 04094 85586 NIL=
85586,2003,09,04,12,00,AAXX 04124 85586 32560 83603 10114 20080 40191 56/// 885// 333 20110 30/// 50070 55000 56899 88630=
85586,2003,09,04,15,00,AAXX 04154 85586 42560 63104 10136 20086 40184 57006 86500 333 56700 86630=
85586,2003,09,04,18,00,AAXX 04184 85586 32560 83010 10136 20100 40184 54000 86501 333 56706 86630=
85586,2003,09,04,21,00,AAXX 04214 85586 42560 73106 10138 20086 40173 57011 81501 333 56706 81630 86075=
85586,2003,09,05,00,00,AAXX 05004 85586 32960 73108 10108 20092 40192 52018 80001 333 10146 56006 87075=
85586,2003,09,05,03,00,AAXX 05034 85586 NIL=
85586,2003,09,05,06,00,AAXX 05064 85586 NIL=
85586,2003,09,05,09,00,AAXX 05094 85586 NIL=
85586,2003,09,05,12,00,AAXX 05124 85586 11520 83208 10119 20104 40185 52/// 60054 7636/ 8802/ 333 20092 32/// 50120 55050 56079 70058 88525=
85586,2003,09,05,15,00,AAXX 05154 85586 41520 83009 10121 20110 40210 52024 76166 882// 333 56799 88820=
85586,2003,09,05,18,00,AAXX 05184 85586 11430 82806 10124 20109 40221 51011 60121 76166 882// 333 56799 88820=
85586,2003,09,05,21,00,AAXX 05214 85586 41450 80903 10126 20112 40226 51005 78066 8222/ 333 56779 82815 85256=
85586,2003,09,06,00,00,AAXX 06004 85586 11940 70905 10112 20082 40235 52009 69991 70586 80001 333 10127 56006 87075=
85586,2003,09,06,03,00,AAXX 06034 85586 NIL=
85586,2003,09,06,06,00,AAXX 06064 85586 NIL=
85586,2003,09,06,09,00,AAXX 06094 85586 NIL=
85586,2003,09,06,12,00,AAXX 06124 85586 11956 81303 10090 20070 40237 52/// 60134 7052/ 8803/ 333 20079 32/// 50080 55000 56079 70138 88362=
85586,2003,09,06,15,00,AAXX 06154 85586 41958 81809 10126 20081 40247 51011 70522 8803/ 333 56079 88362=
85586,2003,09,06,18,00,AAXX 06184 85586 31458 82210 10134 20067 40225 58012 70522 8213/ 333 56779 82815 86362=
85586,2003,09,06,21,00,AAXX 06214 85586 41456 82212 10125 20074 40233 50002 70522 8113/ 333 56779 81815 87362=
85586,2003,09,07,00,00,AAXX 07004 85586 31956 52207 10099 20052 40249 52015 70521 80001 333 10137 56006 85075=
85586,2003,09,07,03,00,AAXX 07034 85586 NIL=
85586,2003,09,07,06,00,AAXX 07064 85586 NIL=
85586,2003,09,07,09,00,AAXX 07094 85586 NIL=
85586,2003,09,07,12,00,AAXX 07124 85586 32960 00000 10062 20050 40281 52/// 333 20018 31/// 50070 55000=
85586,2003,09,07,15,00,AAXX 07154 85586 42560 12310 10126 20081 40284 52005 81100 333 56000 81825=
85586,2003,09,07,18,00,AAXX 07184 85586 32560 22411 10137 20081 40270 58014 82100 333 56000 82825=
85586,2003,09,07,21,00,AAXX 07214 85586 42560 12412 10131 20085 40267 57003 81100 333 56000 81825=
85586,2003,09,08,00,00,AAXX 08004 85586 32960 01905 10086 20074 40279 52011 333 10147=
85586,2003,09,08,03,00,AAXX 08034 85586 NIL=
85586,2003,09,08,06,00,AAXX 08064 85586 NIL=
85586,2003,09,08,09,00,AAXX 08094 85586 NIL=
85586,2003,09,08,12,00,AAXX 08124 85586 32960 00000 10050 20027 40287 53/// 333 20030 31/// 50170 55106=
85586,2003,09,08,15,00,AAXX 08154 85586 42960 01705 10123 20025 40284 50001=
85586,2003,09,08,18,00,AAXX 08184 85586 32960 02414 10134 20061 40272 57012=
85586,2003,09,08,21,00,AAXX 08214 85586 42560 02320 10134 20072 40268 56004 81100 333 56700 81820=
85586,2003,09,09,00,00,AAXX 09004 85586 32960 02305 10089 20043 40276 53007 333 10149=
85586,2003,09,09,03,00,AAXX 09034 85586 NIL=
85586,2003,09,09,06,00,AAXX 09064 85586 NIL=
85586,2003,09,09,09,00,AAXX 09094 85586 NIL=
85586,2003,09,09,12,00,AAXX 09124 85586 32960 01204 10020 20012 40289 52/// 333 20012 31/// 50150 55108=
85586,2003,09,09,15,00,AAXX 09154 85586 42960 01607 10139 20034 40286 50002=
85586,2003,09,09,18,00,AAXX 09184 85586 32960 02514 10134 20054 40225 57009=
85586,2003,09,09,21,00,AAXX 09214 85586 42960 02408 10139 20083 40268 57009=
85586,2003,09,10,00,00,AAXX 10004 85586 NIL=
85586,2003,09,10,03,00,AAXX 10034 85586 NIL=
85586,2003,09,10,06,00,AAXX 10064 85586 NIL=
85586,2003,09,10,09,00,AAXX 10094 85586 NIL=
85586,2003,09,10,12,00,AAXX 10124 85586 32960 02402 10054 20042 40247 56/// 333 20022 31/// 51060 55106=
85586,2003,09,10,15,00,AAXX 10154 85586 42960 11208 10150 20058 40233 57011 80001 333 56006 81075=
85586,2003,09,10,18,00,AAXX 10184 85586 32960 12408 10150 20090 40215 57018 80001 333 56006 81075=
85586,2003,09,10,21,00,AAXX 10214 85586 42960 32506 10162 20111 40196 57019 80001 333 56006 83075=
85586,2003,09,11,00,00,AAXX 11004 85586 32960 20000 10115 20093 40207 53010 80001 333 10170 56006 82075=
85586,2003,09,11,03,00,AAXX 11034 85586 NIL=
85586,2003,09,11,06,00,AAXX 11064 85586 NIL=
85586,2003,09,11,09,00,AAXX 11094 85586 NIL=
85586,2003,09,11,12,00,AAXX 11124 85586 32960 12406 10086 20071 40201 54/// 80001 333 20052 31/// 50160 55107 56006 81075=
85586,2003,09,11,15,00,AAXX 11154 85586 42960 02406 10154 20104 40206 52003=
85586,2003,09,11,18,00,AAXX 11184 85586 32960 22415 10152 20113 40202 56004 80001 333 56006 82075=
85586,2003,09,11,21,00,AAXX 11214 85586 42960 82305 10138 20113 40204 54002 8803/ 333 56069 88365=
85586,2003,09,12,00,00,AAXX 12004 85586 32960 52404 10116 20107 40216 52011 83031 333 10166 56066 83065 83075=
85586,2003,09,12,03,00,AAXX 12034 85586 NIL=
85586,2003,09,12,06,00,AAXX 12064 85586 NIL=
85586,2003,09,12,09,00,AAXX 12094 85586 NIL=
85586,2003,09,12,12,00,AAXX 12124 85586 32960 00000 10103 20097 40222 53/// 333 20070 31/// 50170 55081=
85586,2003,09,12,15,00,AAXX 12154 85586 42960 02309 10161 20125 40223 52003=
85586,2003,09,12,18,00,AAXX 12184 85586 32960 32607 10179 20134 40192 57030 80001 333 56005 83075=
85586,2003,09,12,21,00,AAXX 12214 85586 42960 32202 10171 20136 40190 57003 80001 333 56005 83075=
85586,2003,09,13,00,00,AAXX 13004 85586 32960 23505 10128 20113 40200 52009 80001 333 10191 56005 82075=
85586,2003,09,13,03,00,AAXX 13034 85586 NIL=
85586,2003,09,13,06,00,AAXX 13064 85586 NIL=
85586,2003,09,13,09,00,AAXX 13094 85586 NIL=
85586,2003,09,13,12,00,AAXX 13124 85586 31956 10000 10071 20063 40182 53/// 7100/ 80001 333 20061 31/// 50220 55102 56005 81075=
85586,2003,09,13,18,00,AAXX 13184 85586 1800 NIL=
85586,2003,09,14,00,00,AAXX 14004 85586 32960 00802 10120 20107 40151 53006 333 10175=
85586,2003,09,14,06,00,AAXX 14064 85586 NIL=
85586,2003,09,14,12,00,AAXX 14124 85586 31103 70000 10090 20086 40181 52/// 7444/ 85601 333 20088 31/// 50220 55107 56605 85703=
85586,2003,09,14,15,00,AAXX 14154 85586 41256 40000 10131 20116 40184 52004 70542 84600 333 56600 84705=
85586,2003,09,14,18,00,AAXX 14184 85586 NIL=
85586,2003,09,14,21,00,AAXX 14214 85586 NIL=
85586,2003,09,15,00,00,AAXX 15004 85586 32960 00000 10114 20107 40185 52013 333 10176=
85586,2003,09,15,12,00,AAXX 15124 85586 32960 00000 10083 20073 40197 54/// 333 20058 31/// 50140 55080=
85586,2003,09,15,18,00,AAXX 15184 85586 32960 00000 10083 20073 40197 54/// 333 20058 31/// 50140 55080=
85586,2003,09,15,21,00,AAXX 15214 85586 42960 63504 10166 20108 40164 57015 80001 333 56005 86075=
85586,2003,09,16,00,00,AAXX 16004 85586 32960 33602 10107 20094 40177 53012 80001 333 10177 56006 83075=
85586,2003,09,16,06,00,AAXX 16064 85586 32960 33602 10107 20094 40177 53012 80001 333 10177 56006 83075=
85586,2003,09,16,12,00,AAXX 16124 85586 31104 80000 10090 20083 40175 54/// 7464/ 886// 333 20060 31/// 50160 55100 56099 88702=
85586,2003,09,16,18,00,AAXX 16184 85586 31215 82804 10116 20103 40171 57007 71044 886// 333 56699 88704=
85586,2003,09,16,21,00,AAXX 16214 85586 41220 83604 10106 20095 40173 54002 71022 886// 333 56799 88705=
85586,2003,09,17,00,00,AAXX 17004 85586 31356 82405 10094 20087 40186 52013 71022 886// 333 10140 56699 88708=
85586,2003,09,17,03,00,AAXX 17034 85586 NIL=
85586,2003,09,17,06,00,AAXX 17064 85586 NIL=
85586,2003,09,17,09,00,AAXX 17094 85586 NIL=
85586,2003,09,17,12,00,AAXX 17124 85586 31940 80906 10083 20071 40197 52/// 7102/ 83031 333 20063 30/// 50150 55022 56066 83365 85075=
85586,2003,09,17,15,00,AAXX 17154 85586 42960 12703 10155 20093 40193 50002 81030 333 56060 81365=
85586,2003,09,17,18,00,AAXX 17184 85586 32960 02614 10158 20116 40183 57009=
85586,2003,09,17,21,00,AAXX 17214 85586 41440 82506 10133 20113 40174 57010 71011 886// 333 56799 88710=
85586,2003,09,18,00,00,AAXX 18004 85586 11302 80000 10118 20110 40178 53004 69901 75122 886// 333 10166 56099 88707=
85586,2003,09,18,03,00,AAXX 18034 85586 NIL=
85586,2003,09,18,06,00,AAXX 18064 85586 NIL=
85586,2003,09,18,09,00,AAXX 18094 85586 NIL=
85586,2003,09,18,12,00,AAXX 18124 85586 11220 80000 10106 20092 40193 51/// 69946 7102/ 886// 333 20097 31/// 50160 55077 55899 70004 88706=
85586,2003,09,18,15,00,AAXX 18154 85586 41240 82503 10119 20089 40201 51009 70522 886// 333 56799 88709=
85586,2003,09,18,18,00,AAXX 18184 85586 31658 82403 10132 20094 40203 54001 70522 8353/ 333 56669 83620 85364=
85586,2003,09,18,21,00,AAXX 18214 85586 41958 52705 10144 20094 40203 54001 70521=
85586,2003,09,19,00,00,AAXX 19004 85586 31440 70000 10126 20098 40217 52013 70522 87600 333 10146 56600 87612=
85586,2003,09,19,03,00,AAXX 19034 85586 NIL=
85586,2003,09,19,06,00,AAXX 19064 85586 NIL=
85586,2003,09,19,09,00,AAXX 19094 85586 NIL=
85586,2003,09,19,12,00,AAXX 19124 85586 32960 11807 10094 20068 40220 54/// 333 20041 30/// 50140 55017=
85586,2003,09,19,15,00,AAXX 19154 85586 42960 61707 10168 20091 40210 57007 80001 333 56006 86075=
85586,2003,09,19,18,00,AAXX 19184 85586 32960 42414 10174 20093 40185 57025 80001 333 56006 84075=
85586,2003,09,19,21,00,AAXX 19214 85586 42960 22412 10168 20105 40164 57021 80001 333 56006 82075=
85586,2003,09,20,00,00,AAXX 20004 85586 31940 01204 10117 20077 40173 53008 70510 333 10178=
85586,2003,09,20,03,00,AAXX 20034 85586 NIL=
85586,2003,09,20,06,00,AAXX 20064 85586 NIL=
85586,2003,09,20,12,00,AAXX 20124 85586 31958 51703 10076 20057 40140 57/// 7051/ 85030 333 20049 30/// 50180 55111 56060 85365=
85586,2003,09,20,15,00,AAXX 20154 85586 41956 82705 10154 20079 40131 57008 70521 81031 333 56066 81365 87075=
85586,2003,09,20,18,00,AAXX 20184 85586 31958 72506 10149 20096 40127 56004 70522 87030 333 56060 87365=
85586,2003,09,20,21,00,AAXX 20214 85586 41958 73303 10146 20089 40120 57007 70522 87030 333 56060 87363=
85586,2003,09,21,00,00,AAXX 21004 85586 31940 50000 10112 20082 40137 53017 70522 85030 333 10165 56060 85365=
85586,2003,09,21,03,00,AAXX 21034 85586 NIL=
85586,2003,09,21,06,00,AAXX 21064 85586 NIL=
85586,2003,09,21,09,00,AAXX 21094 85586 NIL=
85586,2003,09,21,12,00,AAXX 21124 85586 32960 60000 10074 20067 40153 52/// 83031 333 20052 31/// 50120 55040 56066 83362 84075=
85586,2003,09,21,15,00,AAXX 21154 85586 32560 83104 10132 20112 40151 54000 81531 333 56766 81630 83362 86075=
85586,2003,09,21,18,00,AAXX 21184 85586 32960 82710 10140 20097 40146 57005 83031 333 56066 83362 86075=
85586,2003,09,21,21,00,AAXX 21214 85586 42960 82806 10130 20095 40146 54001 84031 333 56066 84362 87075=
85586,2003,09,22,00,00,AAXX 22004 85586 32960 80000 10114 20101 40156 52009 87032 333 10152 56066 87360=
85586,2003,09,22,03,00,AAXX 22034 85586 NIL=
85586,2003,09,22,06,00,AAXX 22064 85586 NIL=
85586,2003,09,22,09,00,AAXX 22094 85586 NIL=
85586,2003,09,22,12,00,AAXX 22124 85586 32660 70402 10100 20089 40197 52/// 85531 333 20064 30/// 50110 55040 56566 85640 87075=
85586,2003,09,22,15,00,AAXX 22154 85586 42560 73104 10148 20083 40204 52009 81501 333 56606 81630 87075=
85586,2003,09,22,18,00,AAXX 22184 85586 32560 63116 10150 20097 40205 54001 81501 333 56606 81625 86075=
85586,2003,09,22,21,00,AAXX 22214 85586 42460 23110 10148 20095 40222 52017 81501 333 56606 81620=
85586,2003,09,23,00,00,AAXX 23004 85586 11460 81604 10104 20097 40263 52039 69991 76062 888// 333 10152 56699 84815 88620=
85586,2003,09,23,03,00,AAXX 23034 85586 NIL=
85586,2003,09,23,06,00,AAXX 23064 85586 NIL=
85586,2003,09,23,12,00,AAXX 23124 85586 12980 00000 10081 20071 40252 53/// 60024 333 20036 32/// 50140 55080 70015=
85586,2003,09,23,15,00,AAXX 23154 85586 42580 12507 10155 20121 40240 58010 81100 333 56000 81825=
85586,2003,09,23,18,00,AAXX 23184 85586 32980 02511 10158 20105 40215 57025=
85586,2003,09,23,21,00,AAXX 23214 85586 42970 02507 10153 20119 40199 57016=
85586,2003,09,24,00,00,AAXX 24004 85586 32960 00000 10113 20101 40205 53005 333 10165=
85586,2003,09,24,03,00,AAXX 24034 85586 NIL=
85586,2003,09,24,06,00,AAXX 24064 85586 NIL=
85586,2003,09,24,09,00,AAXX 24094 85586 NIL=
85586,2003,09,24,12,00,AAXX 24124 85586 31903 00000 10075 20072 40197 52/// 7460/ 333 20032 30/// 50180 55106=
85586,2003,09,24,15,00,AAXX 24154 85586 41960 02809 10146 20093 40197 51002 70240=
85586,2003,09,24,18,00,AAXX 24184 85586 32960 02516 10151 20092 40195 56002=
85586,2003,09,24,21,00,AAXX 24214 85586 42960 02416 10134 20096 40189 57006=
85586,2003,09,25,00,00,AAXX 25004 85586 31940 40000 10096 20077 40188 57002 70500 80001 333 10154 56006 84075=
85586,2003,09,25,03,00,AAXX 25034 85586 NIL=
85586,2003,09,25,06,00,AAXX 25064 85586 NIL=
85586,2003,09,25,09,00,AAXX 25094 85586 NIL=
85586,2003,09,25,12,00,AAXX 25124 85586 32960 50000 10095 20085 40212 52/// 85030 333 20080 31/// 50200 55099 56050 85365=
85586,2003,09,25,15,00,AAXX 25154 85586 41456 52503 10151 20098 40219 52009 70522 81130 333 56760 81815 84365=
85586,2003,09,25,18,00,AAXX 25184 85586 32460 12507 10163 20105 40206 58013 81100 333 56000 81817=
85586,2003,09,25,21,00,AAXX 25214 85586 42960 02510 10151 20092 40197 56009=
85586,2003,09,26,00,00,AAXX 26004 85586 32960 00602 10104 20089 40219 52020 333 10164=
85586,2003,09,26,03,00,AAXX 26034 85586 NIL=
85586,2003,09,26,06,00,AAXX 26064 85586 NIL=
85586,2003,09,26,09,00,AAXX 26094 85586 NIL=
85586,2003,09,26,12,00,AAXX 26124 85586 32960 70000 10086 20080 40223 53/// 87030 333 20055 31/// 50190 55091 56060 87363=
85586,2003,09,26,15,00,AAXX 26154 85586 41958 80000 10131 20096 40224 51002 70522 8803/ 333 56069 88363=
85586,2003,09,26,18,00,AAXX 26184 85586 31940 82505 10149 20110 40210 56013 70522 8803/ 333 56069 88362=
85586,2003,09,26,21,00,AAXX 26214 85586 41940 80905 10156 20119 40196 57014 78082 8803/ 333 56069 88360=
85586,2003,09,27,00,00,AAXX 27004 85586 11940 82003 10143 20103 40196 54000 69911 70582 8802/ 333 10162 56069 88458=
85586,2003,09,27,03,00,AAXX 27034 85586 NIL=
85586,2003,09,27,06,00,AAXX 27064 85586 NIL=
85586,2003,09,27,09,00,AAXX 27094 85586 NIL=
85586,2003,09,27,12,00,AAXX 27124 85586 11212 80000 10106 20098 40216 52/// 60024 7505/ 886// 333 20106 31/// 50090 55000 56099 70017 88705=
85586,2003,09,27,15,00,AAXX 27154 85586 41350 82405 10120 20111 40220 51004 71055 886// 333 56099 88708=
85586,2003,09,27,18,00,AAXX 27184 85586 12460 81206 10150 20114 40214 57005 69961 885// 333 56099 88615=
85586,2003,09,27,21,00,AAXX 27214 85586 NIL=
85586,2003,09,28,00,00,AAXX 28004 85586 32960 00000 10114 20097 40208 53006 333 10164=
85586,2003,09,28,03,00,AAXX 28034 85586 NIL=
85586,2003,09,28,06,00,AAXX 28064 85586 NIL=
85586,2003,09,28,09,00,AAXX 28094 85586 NIL=
85586,2003,09,28,12,00,AAXX 28124 85586 12960 01204 10120 20094 40176 57/// 60014 333 20094 31/// 50110 55022 70006=
85586,2003,09,28,15,00,AAXX 28154 85586 42960 01808 10200 20119 40160 57014=
85586,2003,09,28,18,00,AAXX 28184 85586 32960 62416 10176 20104 40146 57015 80002 333 56006 86075=
85586,2003,09,28,21,00,AAXX 28214 85586 42960 63004 10194 20114 40131 57015 80001 333 56006 86075=
85586,2003,09,29,00,00,AAXX 29004 85586 32960 60804 10120 20104 40136 53004 80001 333 10228 56006 86075=
85586,2003,09,29,03,00,AAXX 29034 85586 NIL=
85586,2003,09,29,06,00,AAXX 29064 85586 NIL=
85586,2003,09,29,09,00,AAXX 29094 85586 NIL=
85586,2003,09,29,12,00,AAXX 29124 85586 31958 70000 10101 20082 40131 51/// 7052/ 80001 333 20058 30/// 50240 55109 56006 87075=
85586,2003,09,29,15,00,AAXX 29154 85586 42960 62607 10184 20121 40132 50003 80001 333 56006 86075=
85586,2003,09,29,18,00,AAXX 29184 85586 31958 62412 10159 20111 40133 54002 70522 86030 333 56060 86362=
85586,2003,09,29,21,00,AAXX 29214 85586 41958 73106 10142 20104 40139 53005 70522 87030 333 56060 87364=
85586,2003,09,30,00,00,AAXX 30004 85586 31956 40000 10116 20099 40146 52007 70511 80001 333 10186 56006 84075=
85586,2003,09,30,03,00,AAXX 30034 85586 NIL=
85586,2003,09,30,06,00,AAXX 30064 85586 NIL=
85586,2003,09,30,09,00,AAXX 30094 85586 NIL=
85586,2003,09,30,12,00,AAXX 30124 85586 31440 83207 10121 20093 40178 52/// 7052/ 885// 333 20083 30/// 50160 55076 56799 88615=
85586,2003,09,30,15,00,AAXX 30154 85586 41458 83509 10143 20096 40191 52013 70522=
85586,2003,09,30,18,00,AAXX 30184 85586 31958 73110 10155 20099 40192 54001 70522 80001 333 56006 87075=
85586,2003,09,30,21,00,AAXX 30214 85586 41956 82905 10136 20102 40196 51004 70522 8803/ 333 56069 88359=
85586,2003,10,01,00,00,AAXX 01004 85586 31940 70000 10117 20092 40203 52008 70522 87030 333 10156 56060 87362=
85586,2003,10,01,03,00,AAXX 01034 85586 NIL=
85586,2003,10,01,06,00,AAXX 01064 85586 NIL=
85586,2003,10,01,09,00,AAXX 01094 85586 NIL=
85586,2003,10,01,12,00,AAXX 01124 85586 32960 21505 10124 20106 40213 53/// 80001 333 20094 30/// 50200 55024 56005 82075=
85586,2003,10,01,15,00,AAXX 01154 85586 42960 22305 10183 20133 40194 57017 80001 333 56005 82075=
85586,2003,10,01,18,00,AAXX 01184 85586 32960 42408 10184 20134 40168 57026 80001 333 56005 84075=
85586,2003,10,01,21,00,AAXX 01214 85586 42960 42506 10182 20132 40150 57018 80001 333 56005 84075=
85586,2003,10,02,00,00,AAXX 02004 85586 32960 30000 10131 20117 40156 53005 80001 333 10194 56005 83075=
85586,2003,10,02,03,00,AAXX 02034 85586 NIL=
85586,2003,10,02,06,00,AAXX 02064 85586 NIL=
85586,2003,10,02,09,00,AAXX 02094 85586 NIL=
85586,2003,10,02,12,00,AAXX 02124 85586 32960 00000 10110 20101 40153 52/// 333 20050 30/// 50220 55111=
85586,2003,10,02,15,00,AAXX 02154 85586 41958 22907 10139 20114 40163 52010 80001 333 56005 82075=
85586,2003,10,02,18,00,AAXX 02184 85586 32960 52708 10143 20107 40164 54001 80001 333 56005 85075=
85586,2003,10,02,21,00,AAXX 02214 85586 42460 83007 10124 20104 40161 57003 83501 333 56605 83617 85075=
85586,2003,10,03,00,00,AAXX 03004 85586 32460 80603 10109 20097 40167 52006 83501 333 10151 56605 83617 85073=
85586,2003,10,03,03,00,AAXX 03034 85586 NIL=
85586,2003,10,03,06,00,AAXX 03064 85586 NIL=
85586,2003,10,03,09,00,AAXX 03094 85586 NIL=
85586,2003,10,03,12,00,AAXX 03124 85586 31320 80000 10090 20082 40190 52/// 7102/ 886// 333 20060 31/// 50120 55073 56099 88707=
85586,2003,10,03,15,00,AAXX 03154 85586 42360 52504 10128 20108 40203 52013 82601 333 56506 82707 83075=
85586,2003,10,03,18,00,AAXX 03184 85586 32960 32410 10156 20112 40194 58008 80002 333 56006 83075=
85586,2003,10,03,21,00,AAXX 03214 85586 42960 12604 10166 20110 40183 56010 80001 333 56006 81075=
85586,2003,10,04,00,00,AAXX 04004 85586 32960 10000 10130 20102 40193 53008 80001 333 10174 56006 81075=
85586,2003,10,04,03,00,AAXX 04034 85586 NIL=
85586,2003,10,04,06,00,AAXX 04064 85586 NIL=
85586,2003,10,04,09,00,AAXX 04094 85586 NIL=
85586,2003,10,04,12,00,AAXX 04124 85586 32960 50000 10106 20098 40187 53/// 80001 333 20040 31/// 50140 55083 56006 85075=
85586,2003,10,04,15,00,AAXX 04154 85586 42960 62606 10204 20096 40183 58003 80001 333 56006 86075=
85586,2003,10,04,18,00,AAXX 04184 85586 32960 62610 10194 20122 40172 57011 80001 333 56006 86075=
85586,2003,10,04,21,00,AAXX 04214 85586 42960 52408 10198 20111 40160 57011 80001 333 56006 85075=
85586,2003,10,05,00,00,AAXX 05004 85586 32960 00000 10120 20100 40171 53009 333 10212=
85586,2003,10,05,03,00,AAXX 05034 85586 NIL=
85586,2003,10,05,06,00,AAXX 05064 85586 NIL=
85586,2003,10,05,09,00,AAXX 05094 85586 NIL=
85586,2003,10,05,12,00,AAXX 05124 85586 32960 01606 10154 20096 40149 52/// 333 20067 30/// 50250 55113=
85586,2003,10,05,15,00,AAXX 05154 85586 42960 02510 10216 20096 40130 58016=
85586,2003,10,05,18,00,AAXX 05184 85586 32965 32209 10182 20111 40125 56007 80001 333 56006 83075=
85586,2003,10,05,21,00,AAXX 05214 85586 42960 33107 10184 20109 40117 57008 80001 333 56006 83075=
85586,2003,10,06,00,00,AAXX 06004 85586 31956 40504 10126 20100 40128 52010 70500 80001 333 10246 56006 84075=
85586,2003,10,06,03,00,AAXX 06034 85586 NIL=
85586,2003,10,06,06,00,AAXX 06064 85586 NIL=
85586,2003,10,06,09,00,AAXX 06094 85586 NIL=
85586,2003,10,06,12,00,AAXX 06124 85586 31440 80607 10129 20104 40140 52/// 7052/ 885// 333 20103 30/// 50270 55112 56799 88709=
85586,2003,10,06,15,00,AAXX 06154 85586 41558 83209 10146 20105 40156 52016 70522 885// 333 56799 88615=
85586,2003,10,06,18,00,AAXX 06184 85586 31558 73114 10163 20118 40152 58003 70522 83501 333 56706 83620=
85586,2003,10,06,21,00,AAXX 06214 85586 41556 83210 10143 20115 40154 55001 70522 8353/ 333 56769 83620 85359=
85586,2003,10,07,00,00,AAXX 07004 85586 31556 83106 10141 20109 40146 58008 70522 885// 333 10164 56799 88620=
85586,2003,10,07,03,00,AAXX 07034 85586 NIL=
85586,2003,10,07,06,00,AAXX 07064 85586 NIL=
85586,2003,10,07,09,00,AAXX 07094 85586 NIL=
85586,2003,10,07,12,00,AAXX 07124 85586 32560 83605 10133 20113 40165 53/// 8557/ 333 20124 30/// 50170 55023 56779 85622 84363=
85586,2003,10,07,15,00,AAXX 07154 85586 42560 73614 10161 20092 40175 51011 82530 333 56770 82622 85363=
85586,2003,10,07,18,00,AAXX 07184 85586 32560 73218 10164 20106 40163 58012 81130 333 56770 81820 86363=
85586,2003,10,07,21,00,AAXX 07214 85586 41540 83110 10122 20118 40179 53015 76162 885// 333 56799 88620=
85586,2003,10,08,00,00,AAXX 08004 85586 11450 83607 10118 20114 40194 52014 60051 76162 885// 333 10178 56799 88618=
85586,2003,10,08,03,00,AAXX 08034 85586 NIL=
85586,2003,10,08,06,00,AAXX 08064 85586 NIL=
85586,2003,10,08,09,00,AAXX 08094 85586 NIL=
85586,2003,10,08,12,00,AAXX 08124 85586 12560 60000 10124 20118 40216 52/// 60064 83231 333 20111 32/// 50110 55021 56666 70062 83820=
85586,2003,10,08,15,00,AAXX 08154 85586 42560 32504 10167 20126 40221 52007 83200 333 56600 83822=
85586,2003,10,08,18,00,AAXX 08184 85586 32560 12512 10173 20127 40214 58007 81200 333 56600 81820=
85586,2003,10,08,21,00,AAXX 08214 85586 NIL=
85586,2003,10,09,00,00,AAXX 09004 85586 32960 00000 10125 20110 40223 52005 333 10174=
85586,2003,10,09,03,00,AAXX 09034 85586 NIL=
85586,2003,10,09,06,00,AAXX 09064 85586 NIL=
85586,2003,10,09,09,00,AAXX 09094 85586 NIL=
85586,2003,10,09,12,00,AAXX 09124 85586 32960 01504 10124 20108 40196 57/// 333 20060 30/// 50160 55084=
85586,2003,10,09,15,00,AAXX 09154 85586 42960 22510 10164 20119 40194 54001 80001 333 56006 82075=
85586,2003,10,09,18,00,AAXX 09184 85586 32960 72412 10152 20117 40184 57010 80002 333 56006 87075=
85586,2003,10,09,21,00,AAXX 09214 85586 42960 82608 10148 20118 40175 57009 84032 333 56066 84365 83075=
85586,2003,10,10,00,00,AAXX 10004 85586 32560 80906 10124 20108 40178 53003 82032 333 10180 56566 82625 84365 83075=
85586,2003,10,10,03,00,AAXX 10034 85586 NIL=
85586,2003,10,10,06,00,AAXX 10064 85586 NIL=
85586,2003,10,10,09,00,AAXX 10094 85586 NIL=
85586,2003,10,10,12,00,AAXX 10124 85586 32460 30000 10110 20103 40196 52/// 83500 333 20050 30/// 50130 55058 56000 83615=
85586,2003,10,10,15,00,AAXX 10154 85586 42960 02608 10150 20106 40196 54001=
85586,2003,10,10,18,00,AAXX 10184 85586 32960 02608 10164 20108 40184 57011=
85586,2003,10,10,21,00,AAXX 10214 85586 42960 32410 10150 20093 40179 56006 80001 333 56006 83075=
85586,2003,10,11,00,00,AAXX 11004 85586 32960 60604 10114 20089 40186 53007 80002 333 10176 56006 86075=
85586,2003,10,11,03,00,AAXX 11034 85586 NIL=
85586,2003,10,11,06,00,AAXX 11064 85586 NIL=
85586,2003,10,11,09,00,AAXX 11094 85586 NIL=
85586,2003,10,11,12,00,AAXX 11124 85586 31958 30000 10127 20090 40192 53/// 7051/ 80001 333 20054 30/// 50220 55109 56006 83075=
85586,2003,10,11,15,00,AAXX 11154 85586 41958 12509 10184 20113 40187 50002 70500 80001 333 56006 71075=
85586,2003,10,11,18,00,AAXX 11184 85586 32960 22414 10185 20112 40176 58011 80001 333 56006 82075=
85586,2003,10,11,21,00,AAXX 11214 85586 42970 32408 10194 20098 40161 57015 80001 333 56006 82075=
85586,2003,10,12,00,00,AAXX 12004 85586 31940 00303 10148 20103 40169 53007 70500 333 10213=
85586,2003,10,12,03,00,AAXX 12034 85586 NIL=
85586,2003,10,12,06,00,AAXX 12064 85586 NIL=
85586,2003,10,12,09,00,AAXX 12094 85586 NIL=
85586,2003,10,12,12,00,AAXX 12124 85586 31956 40000 10129 20104 40171 52/// 7052/ 80001 333 20066 30/// 50240 55115 56006 84075=
85586,2003,10,12,15,00,AAXX 12154 85586 41958 12507 10174 20121 40163 51007 70500 80001 333 56006 81075=
85586,2003,10,12,18,00,AAXX 12184 85586 32965 02610 10184 20115 40150 57013=
85586,2003,10,12,21,00,AAXX 12214 85586 42965 03004 10192 20123 40133 57017 80001 333 56006 84075=
85586,2003,10,13,00,00,AAXX 13004 85586 31956 40000 10141 20107 40136 55002 70511 80001 333 10194 56006 84075=
85586,2003,10,13,03,00,AAXX 13034 85586 NIL=
85586,2003,10,13,06,00,AAXX 13064 85586 NIL=
85586,2003,10,13,09,00,AAXX 13094 85586 NIL=
85586,2003,10,13,12,00,AAXX 13124 85586 32960 00000 10139 20127 40125 53/// 333 20078 31// TPPWP TTQQEV ITYWO EWOIP PQUPT QPQWY WPQQP RPQET TTXXX EEE WPPOY EPXXX TPERP TTPIYV ITYUW EWOIP PQIPR QPQPI WPPIQ RPQRQ TEPPE EEE WPPUR EPXXX TTQPPV ITYIW EWOYT PQIPT QPQWE WPPOT RPQRP TEPPE EEE WPPUI EPXXX TPRYP TTQPTV=
85586,2003,10,13,15,00,AAXX 13154 85586 41220 52906 10150 20142 40142 52017 71042 886// 333 56799 88704=
85586,2003,10,13,18,00,AAXX 13184 85586 31258 53108 10155 20130 40145 52004 70522 85600 333 56700 85705=
85586,2003,10,13,21,00,AAXX 13214 85586 41257 73105 10145 20128 40139 58007 70522 87600 333 56700 87706=
85586,2003,10,14,00,00,AAXX 14004 85586 31257 80000 10129 20121 40138 54001 71022 887// 333 10163 56799 88705=
85586,2003,10,14,03,00,AAXX 14034 85586 NIL=
85586,2003,10,14,06,00,AAXX 14064 85586 NIL=
85586,2003,10,14,09,00,AAXX 14094 85586 NIL=
85586,2003,10,14,12,00,AAXX 14124 85586 31108 80303 10110 20106 40139 52/// 7444/ 886// 333 20108 30/// 50120 55074 56799 88703=
85586,2003,10,14,15,00,AAXX 14154 85586 41108 83005 10126 20122 40154 52014 74444 886// 333 56799 88703=
85586,2003,10,14,18,00,AAXX 14184 85586 31458 83108 10141 20124 40163 52010 70542 886// 333 56799 88710=
85586,2003,10,14,21,00,AAXX 14214 85586 42460 73010 10139 20122 40166 52003 87600 333 56700 87710=
85586,2003,10,15,00,00,AAXX 15004 85586 32560 83205 10133 20124 40182 53016 885// 333 56799 88620=
85586,2003,10,15,03,00,AAXX 15034 85586 NIL=
85586,2003,10,15,06,00,AAXX 15064 85586 NIL=
85586,2003,10,15,09,00,AAXX 15094 85586 NIL=
85586,2003,10,15,12,00,AAXX 15124 85586 32560 80000 10132 20122 40211 52/// 885// 333 20130 30/// 50090 55006 56099 88620=
85586,2003,10,15,15,00,AAXX 15154 85586 41440 82806 10138 20124 40221 52011 75052 885// 333 56699 88615=
85586,2003,10,15,18,00,AAXX 15184 85586 11460 83104 10160 20122 40216 58005 69911 70252 885// 333 56699 84615 88525=
85586,2003,10,15,21,00,AAXX 15214 85586 42560 22406 10164 20104 40209 57007 82500 333 56600 82620=
85586,2003,10,16,00,00,AAXX 16004 85586 32960 32408 10126 20110 40216 53006 80001 333 10174 56006 83075=
85586,2003,10,16,03,00,AAXX 16034 85586 NIL=
85586,2003,10,16,06,00,AAXX 16064 85586 NIL=
85586,2003,10,16,09,00,AAXX 16094 85586 NIL=
85586,2003,10,16,12,00,AAXX 16124 85586 32960 01602 10114 20107 40202 53/// 333 20050 30/// 50120 55033=
85586,2003,10,16,15,00,AAXX 16154 85586 42960 02408 10166 20124 40200 54000=
85586,2003,10,16,18,00,AAXX 16184 85586 32960 02608 10166 20124 40190 57009=
85586,2003,10,16,21,00,AAXX 16214 85586 42560 12512 10154 20123 40179 57012 81500 333 56600 81620=
85586,2003,10,17,00,00,AAXX 17004 85586 32530 22204 10128 20113 40176 54003 81502 333 10172 56506 81620=
85586,2003,10,17,03,00,AAXX 17034 85586 NIL=
85586,2003,10,17,06,00,AAXX 17064 85586 NIL=
85586,2003,10,17,09,00,AAXX 17094 85586 NIL=
85586,2003,10,17,12,00,AAXX 17124 85586 31940 00803 10123 20093 40168 52/// 7054/=
85586,2003,10,17,15,00,AAXX 17154 85586 42960 02709 10154 20082 40171 52003=
85586,2003,10,17,18,00,AAXX 17184 85586 32965 12510 10163 20089 40179 51008 80001 333 56006 81075=
85586,2003,10,17,21,00,AAXX 17214 85586 42965 12414 10154 20098 40187 53008 80001 333 56006 81075=
85586,2003,10,18,00,00,AAXX 18004 85586 31958 00000 10114 20081 40195 53006 70500 333 10167=
85586,2003,10,18,03,00,AAXX 18034 85586 NIL=
85586,2003,10,18,06,00,AAXX 18064 85586 NIL=
85586,2003,10,18,09,00,AAXX 18094 85586 NIL=
85586,2003,10,18,12,00,AAXX 18124 85586 32960 01304 10128 20111 20059 30//0 40201 50260 52/// 55113=
85586,2003,10,18,15,00,AAXX 18154 85586 42960 02710 10186 20112 40187 58012=
85586,2003,10,18,18,00,AAXX 18184 85586 32965 02415 10178 20111 40169 57018=
85586,2003,10,18,21,00,AAXX 18214 85586 42960 02412 10172 20103 40157 57012=
85586,2003,10,19,00,00,AAXX 19004 85586 31956 02303 10125 20086 40166 53008 70500 333 10189=
85586,2003,10,19,03,00,AAXX 19034 85586 NIL=
85586,2003,10,19,06,00,AAXX 19064 85586 NIL=
85586,2003,10,19,09,00,AAXX 19094 85586 NIL=
85586,2003,10,19,12,00,AAXX 19124 85586 32960 00903 10133 20101 40165 52/// 333 20047 30/// 50280 55120=
85586,2003,10,19,15,00,AAXX 19154 85586 42960 02315 10173 20105 40173 51009=
85586,2003,10,19,18,00,AAXX 19184 85586 32965 02316 10164 20109 40174 54001=
85586,2003,10,19,21,00,AAXX 19214 85586 42965 02412 10168 20106 40169 58005=
85586,2003,10,20,00,00,AAXX 20004 85586 31956 00000 10123 20089 40189 52019 70500 333 10176=
85586,2003,10,20,03,00,AAXX 20034 85586 NIL=
85586,2003,10,20,06,00,AAXX 20064 85586 NIL=
85586,2003,10,20,09,00,AAXX 20094 85586 NIL=
85586,2003,10,20,12,00,AAXX 20124 85586 32960 01808 10136 20100 40195 52/// 333 20048 30/// 50220 55121=
85586,2003,10,20,15,00,AAXX 20154 85586 42960 12008 10220 20066 40189 58004 80001 333 56006 81075=
85586,2003,10,20,18,00,AAXX 20184 85586 32960 52514 10176 20110 40185 56004 80001 333 56006 85075=
85586,2003,10,20,21,00,AAXX 20214 85586 NIL=
85586,2003,10,21,00,00,AAXX 21004 85586 32960 30000 10136 20106 40186 53009 80001 333 10229 56009 83075=
85586,2003,10,21,03,00,AAXX 21034 85586 NIL=
85586,2003,10,21,06,00,AAXX 21064 85586 NIL=
85586,2003,10,21,09,00,AAXX 21094 85586 NIL=
85586,2003,10,21,12,00,AAXX 21124 85586 32960 10602 10110 20103 40203 52/// 81030 333 20036 30/// 50230 55110 56060 81365=
85586,2003,10,21,15,00,AAXX 21154 85586 42960 12508 10164 20117 40201 54001 80001 333 56006 81075=
85586,2003,10,21,18,00,AAXX 21184 85586 32960 02416 10166 20110 40196 56004=
85586,2003,10,21,21,00,AAXX 21214 85586 42960 02414 10164 20108 40185 57011=
85586,2003,10,22,00,00,AAXX 22004 85586 32960 00000 10134 20109 40188 54002 333 10169=
85586,2003,10,22,03,00,AAXX 22034 85586 NIL=
85586,2003,10,22,06,00,AAXX 22064 85586 NIL=
85586,2003,10,22,09,00,AAXX 22094 85586 NIL=
85586,2003,10,22,12,00,AAXX 22124 85586 31960 00000 10130 20119 40167 57/// 7014/ 333 20056 30/// 50220 55115=
85586,2003,10,22,15,00,AAXX 22154 85586 42960 02506 10183 20102 40160 57012=
85586,2003,10,22,18,00,AAXX 22184 85586 32960 02510 10168 20120 40049 57022=
85586,2003,10,22,21,00,AAXX 22214 85586 42960 02610 10152 20111 40122 57017=
85586,2003,10,23,00,00,AAXX 23004 85586 32960 03304 10114 20102 40129 53007 333 10186=
85586,2003,10,23,03,00,AAXX 23034 85586 NIL=
85586,2003,10,23,06,00,AAXX 23064 85586 NIL=
85586,2003,10,23,09,00,AAXX 23094 85586 NIL=
85586,2003,10,23,12,00,AAXX 23124 85586 11340 82304 10122 20102 40149 52/// 69924 7055/ 886// 333 20054 31/// 50180 55118 56799 70002 83708 75618=
85586,2003,10,23,15,00,AAXX 23154 85586 41458 42605 10151 20102 40154 51005 70552 84600 333 56700 84618=
85586,2003,10,23,18,00,AAXX 23184 85586 32560 12607 10164 20094 40161 53008 81600 333 56700 81620=
85586,2003,10,23,21,00,AAXX 23214 85586 42560 42606 10154 20102 40166 51004 82601 333 56706 82620 82075=
85586,2003,10,24,00,00,AAXX 24004 85586 31556 42503 10132 20099 40167 54001 70511 84500 333 10172 56700 84620=
85586,2003,10,24,03,00,AAXX 24034 85586 NIL=
85586,2003,10,24,06,00,AAXX 24064 85586 NIL=
85586,2003,10,24,09,00,AAXX 24094 85586 NIL=
85586,2003,10,24,12,00,AAXX 24124 85586 31558 80704 10136 20096 40182 52/// 7052/ 885// 333 20109 30/// 50210 55086 56799 88620=
85586,2003,10,24,15,00,AAXX 24154 85586 41558 72807 10159 20107 40192 51010 70522 83530 333 56760 83620 84362=
85586,2003,10,24,18,00,AAXX 24184 85586 32960 62712 10165 20097 40194 50003 86030 333 56060 86362=
85586,2003,10,24,21,00,AAXX 24214 85586 42960 52407 10156 20104 40197 54002 85030 333 56060 85365=
85586,2003,10,25,00,00,AAXX 25004 85586 31956 52304 10127 20111 40192 57006 70521 85030 333 10172 56060 85365=
85586,2003,10,25,03,00,AAXX 25034 85586 NIL=
85586,2003,10,25,06,00,AAXX 25064 85586 NIL=
85586,2003,10,25,09,00,AAXX 25094 85586 NIL=
85586,2003,10,25,12,00,AAXX 25124 85586 31356 80000 10120 20116 40194 52/// 7102/ 886// 333 20084 30/// 50160 55041 56799 88708=
85586,2003,10,25,15,00,AAXX 25154 85586 42560 83305 10156 20137 40208 52015 8351/ 333 56769 83622 85363=
85586,2003,10,25,18,00,AAXX 25184 85586 32560 83303 10152 20124 40216 52008 8451/ 333 56769 84623 85463=
85586,2003,10,25,21,00,AAXX 25214 85586 42560 83605 10147 20130 40212 58004 8251/ 333 56769 82625 86463=
85586,2003,10,26,00,00,AAXX 26004 85586 32560 80204 10135 20117 40215 53003 81531 333 56766 81625 84365=
85586,2003,10,26,03,00,AAXX 26034 85586 NIL=
85586,2003,10,26,06,00,AAXX 26064 85586 NIL=
85586,2003,10,26,09,00,AAXX 26094 85586 NIL=
85586,2003,10,26,12,00,AAXX 26124 85586 32460 11307 10124 20113 40202 53/// 81600 333 20083 30/// 50190 55000 56000 81712=
85586,2003,10,26,15,00,AAXX 26154 85586 42560 22710 10170 20128 40207 52007 82100 333 56000 82825=
85586,2003,10,26,18,00,AAXX 26184 85586 32560 12211 10168 20125 40192 57005 81100 333 56000 81827=
85586,2003,10,26,21,00,AAXX 26214 85586 42960 02409 10156 20120 40182 57010=
85586,2003,10,27,00,00,AAXX 27004 85586 32960 00905 10122 20104 40197 52013 333 10180=
85586,2003,10,27,03,00,AAXX 27034 85586 NIL=
85586,2003,10,27,06,00,AAXX 27064 85586 NIL=
85586,2003,10,27,09,00,AAXX 27094 85586 NIL=
85586,2003,10,27,12,00,AAXX 27124 85586 32960 01206 10136 20109 40178 57/// 333 20050 30/// 50220 55117=
85586,2003,10,27,15,00,AAXX 27154 85586 42960 42516 10170 20103 40172 57005 80002 333 56006 84075=
85586,2003,10,27,18,00,AAXX 27184 85586 32960 62614 10174 20108 40161 57011 80002 333 56006 86073=
85586,2003,10,27,21,00,AAXX 27214 85586 42960 42514 10198 20116 40148 57014 80001 333 56006 84073=
85586,2003,10,28,00,00,AAXX 28004 85586 32960 00602 10130 20108 40158 53010 333 10210=
85586,2003,10,28,03,00,AAXX 28034 85586 NIL=
85586,2003,10,28,06,00,AAXX 28064 85586 NIL=
85586,2003,10,28,09,00,AAXX 28094 85586 NIL=
85586,2003,10,28,12,00,AAXX 28124 85586 32960 03102 10126 20110 40161 52/// 333 20058 30/// 50200 55119=
85586,2003,10,28,15,00,AAXX 28154 85586 42960 02402 10198 20104 40156 54003=
85586,2003,10,28,18,00,AAXX 28184 85586 32960 22612 10174 20130 40157 54000 80002 333 56006 82073=
85586,2003,10,28,21,00,AAXX 28214 85586 42960 22608 10186 20133 40153 56004 80002 333 56006 82073=
85586,2003,10,29,00,00,AAXX 29004 85586 32960 20405 10124 20110 40166 52012 80002 333 10212 56006 82073=
85586,2003,10,29,03,00,AAXX 29034 85586 NIL=
85586,2003,10,29,06,00,AAXX 29064 85586 NIL=
85586,2003,10,29,09,00,AAXX 29094 85586 NIL=
85586,2003,10,29,12,00,AAXX 29124 85586 31204 80000 10126 20113 40163 51/// 7422/ 886// 333 20112 30/// 50210 55132 56099 88704=
85586,2003,10,29,15,00,AAXX 29154 85586 41320 02602 10143 20115 40170 51007 74042 886// 333 56699 88707=
85586,2003,10,29,18,00,AAXX 29184 85586 31356 53009 10163 20112 40168 54001 70542 85600 333 56700 85708=
85586,2003,10,29,21,00,AAXX 29214 85586 42960 00704 10171 20112 40157 58003=
85586,2003,10,30,00,00,AAXX 30004 85586 31956 00706 10135 20110 40164 51006 70510 333 10173=
85586,2003,10,30,03,00,AAXX 30034 85586 NIL=
85586,2003,10,30,06,00,AAXX 30064 85586 NIL=
85586,2003,10,30,09,00,AAXX 30094 85586 NIL=
85586,2003,10,30,12,00,AAXX 30124 85586 31204 80000 10119 20104 40195 51/// 7421/ 886// 333 20091 30/// 50210 55071 56799 88706=
85586,2003,10,30,15,00,AAXX 30154 85586 41960 62510 10189 20119 40192 54001 70242 80001 333 56006 86075=
85586,2003,10,30,18,00,AAXX 30184 85586 32960 52312 10185 20116 40186 58006 85030 333 56060 85365=
85586,2003,10,30,21,00,AAXX 30214 85586 42960 72214 10214 20051 40176 56008 87030 333 56060 87365=
85586,2003,10,31,00,00,AAXX 31004 85586 32960 62507 10153 20077 40182 53003 86030 333 10253 56060 86365=
85586,2003,10,31,03,00,AAXX 31034 85586 NIL=
85586,2003,10,31,06,00,AAXX 31064 85586 NIL=
85586,2003,10,31,09,00,AAXX 31094 85586 NIL=
85586,2003,10,31,12,00,AAXX 31124 85586 32965 01805 10141 20053 40179 52/// 333 20091 30/// 50310 55062=
85586,2003,10,31,15,00,AAXX 31154 85586 42965 02512 10176 20066 40165 58013=
85586,2003,10,31,18,00,AAXX 31184 85586 32960 02518 10168 20092 40158 57007=
85586,2003,10,31,21,00,AAXX 31214 85586 42960 02512 10165 20095 40148 57010=
85586,2003,11,01,00,00,AAXX 01004 85586 31940 00406 10127 20084 40153 53004 70500 333 10191=
85586,2003,11,01,03,00,AAXX 01034 85586 NIL=
85586,2003,11,01,06,00,AAXX 01064 85586 NIL=
85586,2003,11,01,09,00,AAXX 01094 85586 NIL=
85586,2003,11,01,12,00,AAXX 01124 85586 31956 03402 10108 20097 40141 53/// 7100/ 333 20044 30/// 50300 55124=
85586,2003,11,01,15,00,AAXX 01154 85586 41256 53008 10150 20133 40151 52011 70522 85600 333 56700 85704=
85586,2003,11,01,18,00,AAXX 01184 85586 31257 53011 10160 20126 40138 58003 70522 85600 333 56700 85705=
85586,2003,11,01,21,00,AAXX 01214 85586 41257 43107 10156 20122 40134 57014 70511 84600 333 56700 84706=
85586,2003,11,02,00,00,AAXX 02004 85586 31357 20000 10123 20114 40133 54002 71000 82600 333 10164 56700 82707=
85586,2003,11,02,03,00,AAXX 02034 85586 NIL=
85586,2003,11,02,06,00,AAXX 02064 85586 NIL=
85586,2003,11,02,09,00,AAXX 02094 85586 NIL=
85586,2003,11,02,12,00,AAXX 02124 85586 32560 80307 10138 20121 40168 52/// 885// 333 20120 30/// 50220 55093 56799 88627=
85586,2003,11,02,15,00,AAXX 02154 85586 42560 83206 10160 20111 40179 52012 885// 333 56799 88627=
85586,2003,11,02,18,00,AAXX 02184 85586 32560 73006 10184 20123 40170 57009 83501 333 56706 83627 84075=
85586,2003,11,02,21,00,AAXX 02214 85586 42560 72506 10177 20113 40169 54001 81501 333 56706 81627 86075=
85586,2003,11,03,00,00,AAXX 03004 85586 32960 52103 10154 20113 40160 57010 80001 333 10191 56006 85075=
85586,2003,11,03,03,00,AAXX 03034 85586 NIL=
85586,2003,11,03,06,00,AAXX 03064 85586 NIL=
85586,2003,11,03,09,00,AAXX 03094 85586 NIL=
85586,2003,11,03,12,00,AAXX 03124 85586 32960 60000 10148 20109 40174 52/// 84031 333 20086 30/// 50200 55027 56066 84365 83075=
85586,2003,11,03,15,00,AAXX 03154 85586 42960 12908 10180 20105 40174 54001 80001 333 56006 81075=
85586,2003,11,03,18,00,AAXX 03184 85586 32260 22709 10168 20120 40184 52010 81601 333 56605 81705=
85586,2003,11,03,21,00,AAXX 03214 85586 42260 12405 10160 20126 40186 54000 81600 333 56600 81706=
85586,2003,11,04,00,00,AAXX 04004 85586 NIL=
85586,2003,11,04,03,00,AAXX 04034 85586 NIL=
85586,2003,11,04,06,00,AAXX 04064 85586 NIL=
85586,2003,11,04,09,00,AAXX 04094 85586 NIL=
85586,2003,11,04,12,00,AAXX 04124 85586 31358 80000 10120 20107 40198 52/// 7052/ 886// 333 20105 30/// 50210 55118 56699 88708=
85586,2003,11,04,15,00,AAXX 04154 85586 42460 72410 10154 20119 40201 52004 87500 333 56600 87615=
85586,2003,11,04,18,00,AAXX 04184 85586 32460 72509 10148 20114 40198 58003 87500 333 56600 87615=
85586,2003,11,04,21,00,AAXX 04214 85586 42460 82503 10133 20115 40195 57004 885// 333 56699 88613=
85586,2003,11,05,00,00,AAXX 05004 85586 NIL=
85586,2003,11,05,03,00,AAXX 05034 85586 NIL=
85586,2003,11,05,06,00,AAXX 05064 85586 NIL=
85586,2003,11,05,09,00,AAXX 05094 85586 NIL=
85586,2003,11,05,12,00,AAXX 05124 85586 31350 80000 10119 20113 40171 53/// 7102/ 886// 333 20116 30/// 50220 55000 56699 88707=
85586,2003,11,05,15,00,AAXX 05154 85586 41240 82705 10130 20121 40168 58003 71022 886// 333 56699 88706=
85586,2003,11,05,18,00,AAXX 05184 85586 31256 82407 10143 20133 40161 57007 71022 886// 333 56699 88706=
85586,2003,11,05,21,00,AAXX 05214 85586 41230 82703 10132 20128 40159 57002 71022 886// 333 56699 88705=
85586,2003,11,06,00,00,AAXX 06004 85586 NIL=
85586,2003,11,06,03,00,AAXX 06034 85586 NIL=
85586,2003,11,06,06,00,AAXX 06064 85586 NIL=
85586,2003,11,06,09,00,AAXX 06094 85586 NIL=
85586,2003,11,06,12,00,AAXX 06124 85586 11456 82305 10128 20103 40173 53/// 69944 7055/ 885// 333 20119 31/// 50150 55000 56799 70004 88612=
85586,2003,11,06,15,00,AAXX 06154 85586 41458 82605 10141 20109 40175 51002 70552 885// 333 56799 88612=
85586,2003,11,06,18,00,AAXX 06184 85586 32560 62605 10175 20103 40161 57013 81501 333 56706 81620 85075=
85586,2003,11,06,21,00,AAXX 06214 85586 42960 62512 10161 20092 40154 57007 80001 333 56006 86075=
85586,2003,11,07,00,00,AAXX 07004 85586 NIL=
85586,2003,11,07,03,00,AAXX 07034 85586 NIL=
85586,2003,11,07,06,00,AAXX 07064 85586 NIL=
85586,2003,11,07,09,00,AAXX 07094 85586 NIL=
85586,2003,11,07,12,00,AAXX 07124 85586 32960 61104 10144 20102 40165 50/// 80001 333 20052 30/// 50220 55039 56006 86075=
85586,2003,11,07,15,00,AAXX 07154 85586 42965 12408 10173 20105 40166 55002 80001 333 56006 81075=
85586,2003,11,07,18,00,AAXX 07184 85586 32965 32418 10181 20126 40159 57007 80001 333 56006 83075=
85586,2003,11,07,21,00,AAXX 07214 85586 42360 42714 10161 20127 40159 54001 82601 333 56706 82707 82075=
85586,2003,11,08,00,00,AAXX 08004 85586 NIL=
85586,2003,11,08,03,00,AAXX 08034 85586 NIL=
85586,2003,11,08,06,00,AAXX 08064 85586 NIL=
85586,2003,11,08,09,00,AAXX 08094 85586 NIL=
85586,2003,11,08,12,00,AAXX 08124 85586 32260 20803 10126 20115 40194 52/// 81601 END OF PART ONE=
85586,2003,11,08,15,00,AAXX 08154 85586 42960 22606 10170 20127 40193 54001 80001 333 56005 82075=
85586,2003,11,08,18,00,AAXX 08184 85586 32960 32411 10192 20125 40185 57008 80001 333 56005 83075=
85586,2003,11,08,21,00,AAXX 08214 85586 42960 42411 10183 20114 40175 57010 80001 333 56005 84075=
85586,2003,11,09,00,00,AAXX 09004 85586 NIL=
85586,2003,11,09,03,00,AAXX 09034 85586 NIL=
85586,2003,11,09,06,00,AAXX 09064 85586 NIL=
85586,2003,11,09,09,00,AAXX 09094 85586 NIL=
85586,2003,11,09,12,00,AAXX 09124 85586 32960 01508 10167 20101 40161 54/// 333 20070 30/// 50030 55121=
85586,2003,11,09,15,00,AAXX 09154 85586 42960 02307 10202 20123 40152 57008=
85586,2003,11,09,18,00,AAXX 09184 85586 32960 02310 10195 20128 40140 57012=
85586,2003,11,09,21,00,AAXX 09214 85586 42960 02412 10191 20122 40127 57014=
85586,2003,11,10,00,00,AAXX 10004 85586 NIL=
85586,2003,11,10,03,00,AAXX 10034 85586 NIL=
85586,2003,11,10,06,00,AAXX 10064 85586 NIL=
85586,2003,11,10,09,00,AAXX 10094 85586 NIL=
85586,2003,11,10,12,00,AAXX 10124 85586 32960 20905 10167 20096 40173 51/// 80001 333 20078 30/// 50240 55128 56006 82075=
85586,2003,11,10,15,00,AAXX 10154 85586 42960 13012 10181 20116 40146 52013 80001 333 56006 81075=
85586,2003,11,10,18,00,AAXX 10184 85586 32960 43110 10188 20129 40154 52008 84600 333 56700 84615=
85586,2003,11,10,21,00,AAXX 10214 85586 42460 83111 10165 20127 40158 51004 886// 333 56799 88615=
85586,2003,11,11,00,00,AAXX 11004 85586 NIL=
85586,2003,11,11,03,00,AAXX 11034 85586 NIL=
85586,2003,11,11,06,00,AAXX 11064 85586 NIL=
85586,2003,11,11,09,00,AAXX 11094 85586 NIL=
85586,2003,11,11,12,00,AAXX 11124 85586 31440 50404 10144 20113 40162 51/// 7052/ 81510 333 20077 30/// 50230 55094 56760 81612 84360=
85586,2003,11,11,15,00,AAXX 11154 85586 42960 73114 10187 20098 40174 52013 87030 333 56060 87360=
85586,2003,11,11,18,00,AAXX 11184 85586 12560 63314 10176 20130 40178 51004 69981 70182 81130 333 56760 81820 85350=
85586,2003,11,11,21,00,AAXX 11214 85586 41560 63210 10184 20132 40180 54002 70382 81130 333 56760 81820 85357=
85586,2003,11,12,00,00,AAXX 12004 85586 NIL=
85586,2003,11,12,03,00,AAXX 12034 85586 NIL=
85586,2003,11,12,06,00,AAXX 12064 85586 NIL=
85586,2003,11,12,09,00,AAXX 12094 85586 NIL=
85586,2003,11,12,12,00,AAXX 12124 85586 12460 11504 10157 20146 40192 53/// 69984 81500 333 20106 30/// 50150 55039 56000 81615=
85586,2003,11,12,15,00,AAXX 12154 85586 42960 02408 10183 20128 40182 57009=
85586,2003,11,12,18,00,AAXX 12184 85586 32960 02411 10197 20137 40164 57018=
85586,2003,11,12,21,00,AAXX 12214 85586 NIL=
85586,2003,11,13,00,00,AAXX 13004 85586 NIL=
85586,2003,11,13,03,00,AAXX 13034 85586 NIL=
85586,2003,11,13,06,00,AAXX 13064 85586 NIL=
85586,2003,11,13,09,00,AAXX 13094 85586 NIL=
85586,2003,11,13,12,00,AAXX 13124 85586 31103 80000 10116 20112 40138 57/// 7444/ 886// 333 20070 30/// 50230 55125 56099 88702=
85586,2003,11,13,15,00,AAXX 13154 85586 41256 42310 10156 20134 40139 54002 70541 84600 333 56600 84704=
85586,2003,11,13,18,00,AAXX 13184 85586 31260 22412 10170 20137 40139 54000 70141 82600 333 56600 82706=
85586,2003,11,13,21,00,AAXX 13214 85586 42960 02412 10168 20142 40134 57005=
85586,2003,11,14,00,00,AAXX 14004 85586 NIL=
85586,2003,11,14,03,00,AAXX 14034 85586 NIL=
85586,2003,11,14,06,00,AAXX 14064 85586 NIL=
85586,2003,11,14,09,00,AAXX 14094 85586 NIL=
85586,2003,11,14,12,00,AAXX 14124 85586 31558 83203 10141 20101 40165 51/// 7052/ 885// 333 20112 30/// 50220 55100 56799 88620=
85586,2003,11,14,15,00,AAXX 14154 85586 41156 83104 10149 20110 40174 52009 70522 885// 333 56799 88620=
85586,2003,11,14,18,00,AAXX 14184 85586 32660 83010 10174 20113 40178 51005 885// 333 56799 88625=
85586,2003,11,14,21,00,AAXX 14214 85586 42660 62706 10163 20106 40172 58006 86500 333 56700 86625=
85586,2003,11,15,00,00,AAXX 15004 85586 NIL=
85586,2003,11,15,06,00,AAXX 15064 85586 NIL=
85586,2003,11,15,12,00,AAXX 15124 85586 31656 70000 10143 20115 40188 52/// 7052/ 87070 333 20124 30/// 50220 55010 56070 84440 83360=
85586,2003,11,15,15,00,AAXX 15154 85586 42560 43007 10176 20115 40191 53004 81130 333 56770 81820 83360=
85586,2003,11,15,18,00,AAXX 15184 85586 32960 42410 10186 20108 40188 58003 80001 333 56006 84075=
85586,2003,11,15,21,00,AAXX 15214 85586 42960 62409 10164 20113 40178 57010 80008 333 56006 86273=
85586,2003,11,16,00,00,AAXX 16004 85586 NIL=
85586,2003,11,16,06,00,AAXX 16064 85586 NIL=
85586,2003,11,16,12,00,AAXX 16124 85586 32960 80000 10128 20122 40171 54/// 8802/ 333 20120 30/// 50210 55059 56069 88463=
85586,2003,11,16,15,00,AAXX 16154 85586 42960 83602 10157 20137 40173 53003 8802/ 333 56069 88463=
85586,2003,11,16,18,00,AAXX 16184 85586 32960 82705 10165 20124 40165 58008 8802/ 333 56069 88462=
85586,2003,11,16,21,00,AAXX 16214 85586 42960 83105 10148 20138 40162 57004 8802/ 333 56069 88462=
85586,2003,11,17,00,00,AAXX 17004 85586 NIL=
85586,2003,11,17,06,00,AAXX 17064 85586 NIL=
85586,2003,11,17,09,00,AAXX 17094 85586 NIL=
85586,2003,11,17,12,00,AAXX 17124 85586 11560 70908 10121 20113 40211 52/// 60274 7026/ 86530 333 20114 32/// 50170 55000 56660 70274 86623=
85586,2003,11,17,15,00,AAXX 17154 85586 32560 43602 10185 20128 40214 52005 84200 333 56600 84823=
85586,2003,11,17,18,00,AAXX 17184 85586 42560 22410 10176 20132 40210 58004 82200 333 56600 82825=
85586,2003,11,17,21,00,AAXX 17214 85586 NIL=
85586,2003,11,18,00,00,AAXX 18004 85586 NIL=
85586,2003,11,18,03,00,AAXX 18034 85586 NIL=
85586,2003,11,18,06,00,AAXX 18064 85586 NIL=
85586,2003,11,18,09,00,AAXX 18094 85586 NIL=
85586,2003,11,18,12,00,AAXX 18124 85586 32960 41306 10176 20119 40155 57/// 80001 333 20096 31/// 50240 55097 56006 84075=
85586,2003,11,18,15,00,AAXX 18154 85586 42960 42415 10191 20126 40153 58002 80001 333 56006 84075=
85586,2003,11,18,18,00,AAXX 18184 85586 32960 22618 10192 20117 40141 57012 80001 333 56006 82075=
85586,2003,11,18,21,00,AAXX 18214 85586 42960 12512 10192 20127 40131 57010 80001 333 56006 81075=
85586,2003,11,19,00,00,AAXX 19004 85586 NIL=
85586,2003,11,19,03,00,AAXX 19034 85586 NIL=
85586,2003,11,19,06,00,AAXX 19064 85586 NIL=
85586,2003,11,19,09,00,AAXX 19094 85586 NIL=
85586,2003,11,19,12,00,AAXX 19124 85586 32960 12903 10162 20135 40167 51/// 80001 333 20083 31/// 50270 55127 56006 81075=
85586,2003,11,19,15,00,AAXX 19154 85586 42960 22609 10203 20121 40159 57008 82030 333 56060 82362=
85586,2003,11,19,18,00,AAXX 19184 85586 32960 02518 10213 20138 40146 57011=
85586,2003,11,19,21,00,AAXX 19214 85586 42960 02312 10206 20133 40129 57017=
85586,2003,11,20,00,00,AAXX 20004 85586 NIL=
85586,2003,11,20,03,00,AAXX 20034 85586 NIL=
85586,2003,11,20,06,00,AAXX 20064 85586 NIL=
85586,2003,11,20,09,00,AAXX 20094 85586 NIL=
85586,2003,11,20,12,00,AAXX 20124 85586 32960 02803 10153 20136 40150 52/// 333 20105 30/// 50330 55128=
85586,2003,11,20,15,00,AAXX 20154 85586 42960 03007 10181 20129 40146 58003=
85586,2003,11,20,18,00,AAXX 20184 85586 32960 02808 10189 20138 40138 57008=
85586,2003,11,20,21,00,AAXX 20214 85586 42960 12809 10168 20134 40132 57006 80001 333 56005 81075=
85586,2003,11,21,12,00,AAXX 21124 85586 31109 13105 10133 20124 40136 52/// 7424/ 81600 333 20093 30/// 50300 55124 56700 81702=
85586,2003,11,21,15,00,AAXX 21154 85586 41158 12809 10164 20125 40149 52014 70540 81600 333 56700 81703=
85586,2003,11,21,18,00,AAXX 21184 85586 31350 72808 10148 20131 40160 52010 70541 87600 333 56700 87708=
85586,2003,11,21,21,00,AAXX 21214 85586 41356 72807 10148 20134 40145 57015 70522 87600 333 56700 87708=
85586,2003,11,22,12,00,AAXX 22124 85586 31204 80000 10131 20118 40167 52/// 7424/ 886// 333 20114 30/// 50210 55047 56799 88704=
85586,2003,11,22,15,00,AAXX 22154 85586 41340 63205 10161 20125 40176 51010 70544 84030 333 56760 84708 82365=
85586,2003,11,22,18,00,AAXX 22184 85586 31960 22609 10182 20133 40178 50002 70240 80001 333 56006 82075=
85586,2003,11,22,21,00,AAXX 22214 85586 42960 12512 10189 20122 40163 57015 80001 333 56006 81075=
85586,2003,11,23,12,00,AAXX 23124 85586 32960 02605 10163 20120 40153 51/// 333 20083 30/// 50240 55088=
85586,2003,11,23,15,00,AAXX 23154 85586 42960 62612 10189 20113 40152 50001 80001 333 56006 86075=
85586,2003,11,23,18,00,AAXX 23184 85586 32960 12517 10202 20115 40144 57007 80001 333 56006 81075=
85586,2003,11,23,21,00,AAXX 23214 85586 42960 12414 10191 20107 40135 57010 80001 333 56006 81075=
85586,2003,11,24,12,00,AAXX 24124 85586 32960 12307 10147 20123 40153 52/// 80001 333 20074 30/// 50350 55122 56005 81075=
85586,2003,11,24,15,00,AAXX 24154 85586 42960 02312 10178 20116 40149 58003=
85586,2003,11,24,18,00,AAXX 24184 85586 32960 02413 10186 20112 40138 57011=
85586,2003,11,24,21,00,AAXX 24214 85586 42960 02412 10180 20130 40131 57007=
85586,2003,11,25,12,00,AAXX 25124 85586 32960 02703 10135 20117 40144 53/// 333 20064 30/// 50380 55129=
85586,2003,11,25,15,00,AAXX 25154 85586 41150 12708 10155 20128 40146 52003 70540 81600 333 56600 81703=
85586,2003,11,25,18,00,AAXX 25184 85586 31960 12313 10163 20129 40146 54000 70240 80001 333 56005 81075=
85586,2003,11,25,21,00,AAXX 25214 85586 42960 12909 10156 20110 40138 57008 80001 333 56005 81075=
85586,2003,11,26,12,00,AAXX 26124 85586 31456 73604 10133 20103 40169 52/// 7052/ 87500 333 20112 30/// 50220 55123 56700 87612=
85586,2003,11,26,15,00,AAXX 26154 85586 41558 82910 10154 20108 40174 51005 70522 885// 333 56799 88620=
85586,2003,11,26,18,00,AAXX 26184 85586 31456 83012 10155 20113 40178 52004 70522 885// 333 56799 88616=
85586,2003,11,26,21,00,AAXX 26214 85586 41456 82705 10147 20110 40174 58004 70522 885// 333 56799 88615=
85586,2003,11,27,12,00,AAXX 27124 85586 31256 72403 10135 20110 40165 52/// 7052/ 85601 333 20109 30/// 50200 55031 56706 85706 82075=
85586,2003,11,27,15,00,AAXX 27154 85586 41358 72708 10157 20117 40171 52007 70522 81601 333 56706 81708 86075=
85586,2003,11,27,18,00,AAXX 27184 85586 31958 72906 10163 20116 40166 58005 70522 80031 333 56066 84365 83075=
85586,2003,11,27,21,00,AAXX 27214 85586 42460 72707 10157 20118 40164 57002 82530 333 56760 82015 85360=
85586,2003,11,28,12,00,AAXX 28124 85586 31357 83003 10125 20116 40176 53/// 7102/ 886// 333 20104 30/// 50290 55033 56799 88708=
85586,2003,11,28,15,00,AAXX 28154 85586 42360 22806 10151 20129 40169 58007 82600 333 56700 82709=
85586,2003,11,28,18,00,AAXX 28184 85586 32360 63009 10152 20126 40168 54001 86600 333 56700 86709=
85586,2003,11,28,21,00,AAXX 28214 85586 42360 73009 10144 20123 40159 57008 87600 333 56700 87709=
85586,2003,11,29,12,00,AAXX 29124 85586 32460 82605 10124 20110 40165 53/// 885// 333 20120 30/// 50270 55023 56699 88613=
85586,2003,11,29,15,00,AAXX 29154 85586 42560 4270 10165 20106 40169 50004 81501 333 56605 81620 83073=
85586,2003,11,29,18,00,AAXX 29184 85586 32960 22612 10167 20101 40171 54002 80001 333 56005 82073=
85586,2003,11,29,21,00,AAXX 29214 85586 42960 02312 10165 20118 40166 57005=
85586,2003,11,30,12,00,AAXX 30124 85586 32960 3000 10134 20112 40162 56/// 8001 333 20069 30/// 50280 55086 56006 83075=
85586,2003,11,30,15,00,AAXX 30154 85586 42960 32710 10177 20123 40154 57007 80001 333 56006 83075=
85586,2003,11,30,18,00,AAXX 30184 85586 32960 12414 10174 20128 40149 57005 80001 333 56006 81075=
85586,2003,11,30,21,00,AAXX 30214 85586 42960 12708 10176 20120 40135 57014 80001 333 56006 81075=
85586,2003,12,01,12,00,AAXX 01124 85586 31440 83602 10130 20119 40160 53/// 7102/ 885// 333 20110 30/// 50260 55138 56099 88610=
85586,2003,12,01,15,00,AAXX 01154 85586 41456 82808 10150 20136 40177 52017 71022 885// 333 56699 88613=
85586,2003,12,01,18,00,AAXX 01184 85586 32460 72808 10172 20137 40180 51004 87500 333 56600 87615=
85586,2003,12,01,21,00,AAXX 01214 85586 42460 82808 10166 20136 40173 57007 885// 333 56699 88615=
85586,2003,12,02,12,00,AAXX 02124 85586 32560 12205 10158 20136 40171 53/// 81100 333 20079 30/// 50330 55038 56000 81825=
85586,2003,12,02,15,00,AAXX 02154 85586 42560 22410 10180 20130 40171 54000 82100 333 56000 82830=
85586,2003,12,02,18,00,AAXX 02184 85586 32560 12417 10180 20116 40171 54000 81100 333 56000 81830=
85586,2003,12,02,21,00,AAXX 02214 85586 42960 02412 10172 20132 40171 54000=
85586,2003,12,03,12,00,AAXX 03124 85586 32960 60000 10117 20108 40174 54/// 84031 333 20077 30/// 50310 55130 56066 84365=
85586,2003,12,03,15,00,AAXX 03154 85586 42960 72705 10166 20126 40171 54002 85031 333 56066 85365=
85586,2003,12,03,18,00,AAXX 03184 85586 32960 72506 10169 20119 40170 54001 85031 333 56066 85365=
85586,2003,12,03,21,00,AAXX 03214 85586 42960 72407 10154 20120 40163 57008 83031 333 56066 83367 84070=
85586,2003,12,04,12,00,AAXX 04124 85586 32960 13106 10150 20121 40202 52/// 80001 333 20104 30/// 50190 55014 56006 81075=
85586,2003,12,04,15,00,AAXX 04154 85586 42560 12610 10180 20128 40206 51006 81500 333 56600 81620=
85586,2003,12,04,18,00,AAXX 04184 85586 32560 12408 10190 20132 40201 58005 81500 333 56600 81620=
85586,2003,12,04,21,00,AAXX 04214 85586 42560 12418 10184 20104 40195 57006 81500 333 56600 81620=
85586,2003,12,05,12,00,AAXX 05124 85586 32960 52504 10150 20106 40201 52/// 80001 333 20064 30/// 50310 55123 56006 85075=
85586,2003,12,05,15,00,AAXX 05154 85586 42960 02410 10190 20121 40187 58013=
85586,2003,12,05,18,00,AAXX 05184 85586 32960 02414 10204 20124 40166 57020=
85586,2003,12,05,21,00,AAXX 05214 85586 42960 02516 10204 20116 40149 57017=
85586,2003,12,06,12,00,AAXX 06124 85586 32960 00000 10180 20124 40159 53/// 333 20109 30/// 50400 55129=
85586,2003,12,06,15,00,AAXX 06154 85586 42960 32415 10180 20136 40163 52004 80001 333 56005 83075=
85586,2003,12,06,18,00,AAXX 06184 85586 32960 32417 10182 20142 40158 58005 80001 333 56005 83075=
85586,2003,12,06,21,00,AAXX 06214 85586 42960 12409 10199 20141 40151 57006 80001 333 56005 81075=
85586,2003,12,07,12,00,AAXX 07124 85586 32360 73204 10137 20123 40174 53/// 87600 333 20117 30/// 50400 55128 56700 87708=
85586,2003,12,07,15,00,AAXX 07154 85586 42460 33405 10163 20129 40176 51003 83600 333 56700 83710=
85586,2003,12,07,18,00,AAXX 07184 85586 32356 73106 10151 20129 40185 52008 70522 87600 333 56700 87709=
85586,2003,12,08,12,00,AAXX 08124 85586 32560 61605 10130 20101 40225 52/// 85501 333 20067 30/// 50330 55040 56605 85620=
85586,2003,12,08,15,00,AAXX 08154 85586 42960 12510 10174 20123 40214 57009 80001 333 56005 81073=
85586,2003,12,08,18,00,AAXX 08184 85586 32960 12515 10173 20125 40219 57005 800001 333 56005 81073=
85586,2003,12,08,21,00,AAXX 08214 85586 42960 02409 10179 20128 40193 57016=
85586,2003,12,09,12,00,AAXX 09124 85586 32960 30000 10148 20109 40151 56/// 80002 333 20066 30/// 50300 55111 56006 83075=
85586,2003,12,09,15,00,AAXX 09154 85586 42960 42410 10180 20111 40144 57006 80001 333 56006 84075=
85586,2003,12,09,18,00,AAXX 09184 85586 32960 62414 10180 20099 40132 57012 80002 333 56006 86075=
85586,2003,12,09,21,00,AAXX 09214 85586 42960 62418 10178 20109 40126 56006 80002 333 56006 86075=
85586,2003,12,10,12,00,AAXX 10124 85586 32560 83104 10160 20128 40179 52/// 87502 333 20110 30/// 50280 55113 56006 87625=
85586,2003,12,10,15,00,AAXX 10154 85586 41460 82706 10170 20154 40192 52013 70252 888// 333 56699 82810 88617=
85586,2003,12,10,18,00,AAXX 10184 85586 12560 32507 10200 20091 40191 54001 69911 83500 333 56600 83627=
85586,2003,12,10,21,00,AAXX 10214 85586 42560 12612 10187 20105 40189 54002 81500 333 56600 81626=
85586,2003,12,11,12,00,AAXX 11124 85586 12960 01608 10166 20083 40195 52/// 69916 333 20073 30/// 50330 55072 70001=
85586,2003,12,11,15,00,AAXX 11154 85586 42960 02509 10203 20114 40179 58015=
85586,2003,12,11,18,00,AAXX 11184 85586 32960 02418 10190 20111 40167 57013=
85586,2003,12,12,12,00,AAXX 12124 85586 32960 00000 10144 20120 40163 52/// 333 20056 30/// 50440 55131=
85586,2003,12,12,15,00,AAXX 12154 85586 42960 02311 10176 20128 40162 54000=
85586,2003,12,12,18,00,AAXX 12184 85586 32960 02316 10179 20119 40164 54002=
85586,2003,12,13,12,00,AAXX 13124 85586 32960 02205 10141 20105 40164 53/// 333 20065 30/// 50410 55132=
85586,2003,12,13,18,00,AAXX 13184 85586 32960 02310 10178 20122 40161 57002=
85586,2003,12,14,12,00,AAXX 14124 85586 32960 62804 10136 20114 40173 52/// 80002 333 20074 30/// 50290 55132 56006 86075=
85586,2003,12,14,15,00,AAXX 14154 85586 42960 42706 10176 20110 40177 51005 80002 333 56006 84075=
85586,2003,12,14,18,00,AAXX 14184 85586 32560 32512 10182 20107 40178 54001 81501 333 56606 81623 83075=
85586,2003,12,14,21,00,AAXX 14214 85586 42560 12510 10180 20097 40166 57012 81500 333 56600 81623=
85586,2003,12,15,12,00,AAXX 15124 85586 32960 01507 10166 20069 40202 52/// 333 20062 30/// 50330 55104=
85586,2003,12,15,15,00,AAXX 15154 85586 42960 02612 10198 20093 40195 57007=
85586,2003,12,15,18,00,AAXX 15184 85586 32960 02414 10194 20104 40186 57009=
85586,2003,12,15,21,00,AAXX 15214 85586 42960 02416 10196 20100 40169 57016=
85586,2003,12,16,12,00,AAXX 16124 85586 32960 01503 10190 20057 40163 54/// 333 20078 30/// 50360 55130=
85586,2003,12,16,15,00,AAXX 16154 85586 42960 02408 10186 20114 40147 57016=
85586,2003,12,16,18,00,AAXX 16184 85586 32960 02410 10186 20122 40136 57011=
85586,2003,12,16,21,00,AAXX 16214 85586 42960 02804 10206 20114 40115 57019=
85586,2003,12,17,12,00,AAXX 17124 85586 32960 03405 10143 20124 40116 52/// 333 20074 30/// 50410 55133=
85586,2003,12,17,15,00,AAXX 17154 85586 42960 02909 10176 20134 40129 52014=
85586,2003,12,17,18,00,AAXX 17184 85586 32960 02911 10180 20130 40137 52008=
85586,2003,12,17,21,00,AAXX 17214 85586 42960 02504 10176 20118 40134 58003=
85586,2003,12,18,12,00,AAXX 18124 85586 31458 80307 10130 20112 40156 52/// 7052/ 885// 333 20124 30/// 50460 55127 56799 88613=
85586,2003,12,18,15,00,AAXX 18154 85586 42960 72909 10158 20124 40162 52007 87500 333 56700 87617=
85586,2003,12,18,18,00,AAXX 18184 85586 32460 63213 10177 20137 40169 52007 86500 333 56700 87618=
85586,2003,12,18,21,00,AAXX 18214 85586 42460 63007 10168 20137 40169 54000 86500 333 56700 87618=
85586,2003,12,19,12,00,AAXX 19124 85586 32460 80000 10131 20119 40176 52/// 886// 333 20126 30/// 50390 55007 56799 88710=
85586,2003,12,19,18,00,AAXX 19184 85586 32360 42608 10169 20124 40177 58007 84600 333 56600 84707=
85586,2003,12,19,21,00,AAXX 19214 85586 42360 73109 10164 20130 40168 57009 87600 333 56600 87710=
85586,2003,12,20,12,00,AAXX 20124 85586 31220 20000 10136 20129 40141 53/// 7104/ 82600 333 20109 30/// 50300 55053 56600 82705=
85586,2003,12,20,15,00,AAXX 20154 85586 41960 03006 10172 20137 40146 52007 70144=
85586,2003,12,20,18,00,AAXX 20184 85586 32460 52810 10174 20139 40157 52011 85500 333 56600 85610=
85586,2003,12,20,21,00,AAXX 20214 85586 42460 22814 10174 20130 40157 54000 82500 333 56600 82610=
85586,2003,12,21,12,00,AAXX 21124 85586 32960 01808 10154 20112 40208 52/// 333 20072 30/// 50310 55086=
85586,2003,12,21,18,00,AAXX 21184 85586 32960 02414 10200 20136 40195 57013=
85586,2003,12,21,21,00,AAXX 21214 85586 42960 02418 10204 20118 40185 57009=
85586,2003,12,22,12,00,AAXX 22124 85586 32960 01608 10170 20063 40152 57/// 333 20105 30/// 50390 55130=
85586,2003,12,22,15,00,AAXX 22154 85586 42960 02410 10182 20093 40139 57012=
85586,2003,12,22,18,00,AAXX 22184 85586 32960 02408 10168 20101 40131 57009=
85586,2003,12,22,21,00,AAXX 22214 85586 441940 02418 10166 20114 40122 57009 70400=
85586,2003,12,23,00,00,AAXX 24124 85586 31440 83106 10126 20115 40140 52/// 7102/ 885// 333 20124 30/// 50330 55114 56699 88610=
85586,2003,12,23,12,00,AAXX 23124 85586 32960 00000 10137 20120 40108 52/// 333 20064 30/// 50370 55128=
85586,2003,12,23,15,00,AAXX 23154 85586 41156 22708 10165 20131 40114 52007 70500 82600 333 56600 82703=
85586,2003,12,23,18,00,AAXX 23184 85586 32260 22810 10171 20138 40124 52010 82600 333 56600 82705=
85586,2003,12,23,21,00,AAXX 23214 85586 42960 02806 10173 20131 40117 58007=
85586,2003,12,24,12,00,AAXX 24124 85586 31440 83106 10126 20115 40140 52/// 7102/ 885// 333 20124 30/// 50330 55114 56699 88610=
85586,2003,12,24,15,00,AAXX 24154 85586 41458 83006 10152 20117 40159 52019 70522 885// 333 56699 88615=
85586,2003,12,24,18,00,AAXX 24184 85586 32560 12808 10178 20109 40164 52006 81500 333 56600 81620=
85586,2003,12,24,21,00,AAXX 24214 85586 42560 62606 10176 20125 40158 58006 84501 333 56606 84625=
85586,2003,12,25,12,00,AAXX 25124 85586 31356 83603 10128 20117 40174 53/// 7102/ 886// 333 20125 30/// 50280 55043 56799 88708=
85586,2003,12,25,15,00,AAXX 25154 85586 42460 62905 10156 20134 40180 52006 86500 333 56700 86613=
85586,2003,12,25,18,00,AAXX 25184 85586 32460 32709 10170 20137 40176 58003 83500 333 56700 83713=
85586,2003,12,25,21,00,AAXX 25214 85586 42460 42806 10170 20137 40166 57010 84500 333 56700 84713=
85586,2003,12,26,12,00,AAXX 26124 85586 32960 00000 10151 20129 40181 52/// 333 20075 30/// 50300 55054=
85586,2003,12,26,15,00,AAXX 26154 85586 42960 02711 10185 20137 40184 52004=
85586,2003,12,26,18,00,AAXX 26184 85586 32960 02414 10188 20144 40182 54002=
85586,2003,12,26,21,00,AAXX 26214 85586 42960 02512 10183 20146 40174 57008=
85586,2003,12,27,12,00,AAXX 27124 85586 32960 01708 10163 20063 40222 52/// 333 20066 30/// 50400 55126=
85586,2003,12,27,15,00,AAXX 27154 85586 42960 01814 10223 20074 40228 54002=
85586,2003,12,27,18,00,AAXX 27184 85586 32960 02318 10205 20119 40201 57018=
85586,2003,12,27,21,00,AAXX 27214 85586 42960 02321 10191 20108 40183 57018=
85586,2003,12,28,12,00,AAXX 28124 85586 32960 01806 10167 20082 40163 54/// 333 20080 30/// 50450 55131=
85586,2003,12,28,15,00,AAXX 28154 85586 42960 02712 10180 20107 40150 57013=
85586,2003,12,28,18,00,AAXX 28184 85586 32960 02412 10174 20119 40143 57007=
85586,2003,12,28,21,00,AAXX 28214 85586 42960 02608 10170 20114 40134 57009=
85586,2003,12,29,12,00,AAXX 29124 85586 32458 83504 10130 20113 40159 52/// 7052/ 885// 333 20116 30/// 50410 55130 56799 88613=
85586,2003,12,29,15,00,AAXX 29154 85586 42460 53208 10156 20122 40163 52005 85500 333 56700 85615=
85586,2003,12,29,18,00,AAXX 29184 85586 32560 72806 10174 20128 40158 58005 87500 333 56600 87620=
85586,2003,12,29,21,00,AAXX 29214 85586 42460 82802 10154 20132 40154 57005 885// 333 56699 88617=
85586,2003,12,30,12,00,AAXX 30124 85586 32360 30000 10141 20116 40158 52/// 83600 333 20079 30/// 50330 55036 56600 83709=
85586,2003,12,30,15,00,AAXX 30154 85586 42360 62808 10146 20124 40165 52007 86600 333 56600 86709=
85586,2003,12,30,18,00,AAXX 30184 85586 32460 83108 10156 20129 40167 52003 886// 333 56699 88710=
85586,2003,12,30,21,00,AAXX 30214 85586 42460 53201 10157 20133 40158 58009 85600 333 56600 85710=
85586,2003,12,31,12,00,AAXX 31124 85586 31459 83602 10136 20127 40172 53/// 7102/ 886// 333 20128 30/// 50300 55041 56799 88710=
85586,2003,12,31,15,00,AAXX 31154 85586 42460 73009 10159 20135 40190 52018 87500 333 56700 87613=
85586,2003,12,31,18,00,AAXX 31184 85586 32460 63009 10173 20140 40189 54000 86500 333 56700 87613=
85586,2003,12,31,21,00,AAXX 31214 85586 42460 70000 10160 20135 40174 57015 87500 333 56700 87613=
