85586,2014,01,01,00,00,AAXX 01004 85586 12960 02208 10150 20123 40154 52006 60001 333 10202=
85586,2014,01,01,03,00,AAXX 01034 85586 NIL=
85586,2014,01,01,06,00,AAXX 01064 85586 NIL=
85586,2014,01,01,09,00,AAXX 01094 85586 NIL=
85586,2014,01,01,12,00,AAXX 01124 85586 12960 00204 10166 20104 40160 53008 69903 333 20076 30/// 55130 70000=
85586,2014,01,01,15,00,AAXX 01154 85586 42960 02607 10199 20103 40158 50001=
85586,2014,01,01,18,00,AAXX 01184 85586 12960 02316 10204 20133 40146 58011 60001=
85586,2014,01,01,21,00,AAXX 01214 85586 42960 02315 10197 20121 40135 57011=
85586,2014,01,02,00,00,AAXX 02004 85586 12960 02210 10161 20093 40144 53007 60001 333 10205=
85586,2014,01,02,03,00,AAXX 02034 85586 NIL=
85586,2014,01,02,06,00,AAXX 02064 85586 NIL=
85586,2014,01,02,09,00,AAXX 02094 85586 NIL=
85586,2014,01,02,12,00,AAXX 02124 85586 12960 00000 10152 20109 40163 52009 60004 333 20080 30/// 55131 70000=
85586,2014,01,02,15,00,AAXX 02154 85586 42960 02409 10182 20096 40158 56005=
85586,2014,01,02,18,00,AAXX 02184 85586 NIL=
85586,2014,01,02,21,00,AAXX 02214 85586 42960 02316 10192 20094 40136 57014=
85586,2014,01,03,00,00,AAXX 03004 85586 12960 02208 10170 20098 40139 50003 60004 333 10204=
85586,2014,01,03,03,00,AAXX 03034 85586 NIL=
85586,2014,01,03,06,00,AAXX 03064 85586 NIL=
85586,2014,01,03,09,00,AAXX 03094 85586 NIL=
85586,2014,01,03,12,00,AAXX 03124 85586 12960 00000 10154 20091 40160 53004 60003 333 20062 30/// 55130 70000=
85586,2014,01,03,15,00,AAXX 03154 85586 42960 02608 10195 20088 40149 57011=
85586,2014,01,03,18,00,AAXX 03184 85586 12960 02314 10198 20101 40137 57012 60001=
85586,2014,01,03,21,00,AAXX 03214 85586 41958 02305 10224 20097 40119 57018 70400=
85586,2014,01,04,00,00,AAXX 04004 85586 12960 03304 10187 20119 40120 53002 60001 333 10240=
85586,2014,01,04,03,00,AAXX 04034 85586 NIL=
85586,2014,01,04,06,00,AAXX 04064 85586 NIL=
85586,2014,01,04,09,00,AAXX 04094 85586 NIL=
85586,2014,01,04,12,00,AAXX 04124 85586 12560 10000 10192 20072 40107 52013 60004 81500 333 20100 30/// 55129 56600 70000 81630=
85586,2014,01,04,15,00,AAXX 04154 85586 NIL=
85586,2014,01,04,18,00,AAXX 04184 85586 11957 13009 10200 20118 40125 52005 60001 70400 80002 333 56006 81075=
85586,2014,01,04,21,00,AAXX 04214 85586 41958 02806 10200 20134 40108 57017 70400=
85586,2014,01,05,00,00,AAXX 05004 85586 11957 12703 10162 20146 40107 56002 60001 70400 80001 333 10204 56006 81075=
85586,2014,01,05,03,00,AAXX 05034 85586 NIL=
85586,2014,01,05,06,00,AAXX 05064 85586 NIL=
85586,2014,01,05,09,00,AAXX 05094 85586 NIL=
85586,2014,01,05,12,00,AAXX 05124 85586 11440 52806 10160 20144 40151 52021 60004 71000 85500 333 20098 30/// 55129 56600 70000 85613=
85586,2014,01,05,15,00,AAXX 05154 85586 41457 13114 10200 20144 40155 52005 70500 81600 333 56600 81710=
85586,2014,01,05,18,00,AAXX 05184 85586 NIL=
85586,2014,01,05,21,00,AAXX 05214 85586 41950 02706 10198 20140 40137 57013 70400=
85586,2014,01,06,00,00,AAXX 06004 85586 11450 32705 10174 20143 40135 56003 60001 70400 83600 333 10208 56600 83710=
85586,2014,01,06,03,00,AAXX 06034 85586 NIL=
85586,2014,01,06,06,00,AAXX 06064 85586 NIL=
85586,2014,01,06,09,00,AAXX 06094 85586 NIL=
85586,2014,01,06,12,00,AAXX 06124 85586 11203 82803 10134 20127 40145 52009 60004 74642 886// 333 20130 30/// 55114 56099 70000 88704=
85586,2014,01,06,15,00,AAXX 06154 85586 41215 82703 10145 20134 40145 54000 71042 886// 333 56699 88704=
85586,2014,01,06,18,00,AAXX 06184 85586 11340 82908 10152 20135 40147 54002 60001 71022 886// 333 56699 88708=
85586,2014,01,06,21,00,AAXX 06214 85586 42460 23008 10170 20128 40137 57010 82100 333 56700 82812=
85586,2014,01,07,00,00,AAXX 07004 85586 12960 03305 10154 20130 40134 56003 60001 333 10178=
85586,2014,01,07,03,00,AAXX 07034 85586 NIL=
85586,2014,01,07,06,00,AAXX 07064 85586 NIL=
85586,2014,01,07,09,00,AAXX 07094 85586 NIL=
85586,2014,01,07,12,00,AAXX 07124 85586 12960 00000 10150 20115 40136 52010 60003 333 20078 30/// 55051 70000=
85586,2014,01,07,15,00,AAXX 07154 85586 42960 02706 10198 20132 40129 56007=
85586,2014,01,07,18,00,AAXX 07184 85586 12960 03010 10195 20108 40135 50006 60001=
85586,2014,01,07,21,00,AAXX 07214 85586 42960 03211 10188 20116 40128 56007=
85586,2014,01,08,00,00,AAXX 08004 85586 12960 00207 10158 20116 40126 54002 60001 333 10208=
85586,2014,01,08,03,00,AAXX 08034 85586 NIL=
85586,2014,01,08,06,00,AAXX 08064 85586 NIL=
85586,2014,01,08,09,00,AAXX 08094 85586 NIL=
85586,2014,01,08,12,00,AAXX 08124 85586 11158 73407 10141 20125 40149 52033 60004 70511 87600 333 20090 30/// 55129 56700 70000 87703=
85586,2014,01,08,15,00,AAXX 08154 85586 41257 53214 10197 20127 40162 52015 70522 82601 333 56706 82605 83075=
85586,2014,01,08,18,00,AAXX 08184 85586 11958 03014 10201 20133 40173 52011 60001 70500=
85586,2014,01,08,21,00,AAXX 08214 85586 41958 03009 10194 20138 40170 58004 70500=
85586,2014,01,09,00,00,AAXX 09004 85586 11957 12703 10165 20131 40170 54000 60001 70500 80001 333 10210 56006 81075=
85586,2014,01,09,03,00,AAXX 09034 85586 NIL=
85586,2014,01,09,06,00,AAXX 09064 85586 NIL=
85586,2014,01,09,09,00,AAXX 09094 85586 NIL=
85586,2014,01,09,12,00,AAXX 09124 85586 11230 83103 10136 20127 40197 52022 60004 71022 886// 333 20132 30/// 55109 56799 70000 88704=
85586,2014,01,09,15,00,AAXX 09154 85586 41458 32605 10162 20135 40193 56004 70522 83100 333 56600 83812=
85586,2014,01,09,18,00,AAXX 09184 85586 12960 02412 10182 20121 40181 57012 60001=
85586,2014,01,09,21,00,AAXX 09214 85586 42960 02311 10192 20130 40161 57020=
85586,2014,01,10,00,00,AAXX 10004 85586 12960 02309 10182 20132 40152 57008 60001 333 10206=
85586,2014,01,10,03,00,AAXX 10034 85586 NIL=
85586,2014,01,10,06,00,AAXX 10064 85586 NIL=
85586,2014,01,10,09,00,AAXX 10094 85586 NIL=
85586,2014,01,10,12,00,AAXX 10124 85586 11309 72803 10124 20112 40149 52012 60004 74642 87600 333 20100 30/// 55091 56600 70000 87708=
85586,2014,01,10,15,00,AAXX 10154 85586 41456 12805 10170 20125 40154 52006 70542 81600 333 56600 81710=
85586,2014,01,10,18,00,AAXX 10184 85586 12960 02411 10200 20113 40148 58005 60001=
85586,2014,01,10,21,00,AAXX 10214 85586 42960 02411 10180 20090 40143 57007=
85586,2014,01,11,00,00,AAXX 11004 85586 12960 03605 10146 20100 40146 53002 60001 333 10204=
85586,2014,01,11,03,00,AAXX 11034 85586 NIL=
85586,2014,01,11,06,00,AAXX 11064 85586 NIL=
85586,2014,01,11,12,00,AAXX 11124 85586 11930 03303 10146 20099 40125 53007 60004 70400 333 20088 30/// 55108 70000=
85586,2014,01,11,15,00,AAXX 11154 85586 41950 02907 10176 20113 40129 52005 70400=
85586,2014,01,11,18,00,AAXX 11184 85586 12960 02907 10196 20114 40133 52005 60001=
85586,2014,01,11,21,00,AAXX 11214 85586 42960 02906 10192 20124 40133 54000=
85586,2014,01,12,00,00,AAXX 12004 85586 12460 12804 10156 20132 40144 52010 60001 81600 333 10202 56600 81710=
85586,2014,01,12,03,00,AAXX 12034 85586 NIL=
85586,2014,01,12,09,00,AAXX 12094 85586 NIL=
85586,2014,01,12,12,00,AAXX 12124 85586 11456 83003 10138 20111 40137 52011 60004 70522 885// 333 20100 30/// 55123 56099 70000 88612=
85586,2014,01,12,15,00,AAXX 12154 85586 42460 32707 10164 20113 40143 52007 83500 333 56600 83615=
85586,2014,01,12,18,00,AAXX 12184 85586 11457 83310 10178 20119 40155 52011 60004 70522 885// 333 56699 83612 88615=
85586,2014,01,12,21,00,AAXX 12214 85586 41457 53111 10186 20122 40153 58001 70522 85500 333 56600 85617=
85586,2014,01,13,00,00,AAXX 13004 85586 11457 72805 10152 20134 40163 52009 60001 70522 87500 333 10192 56600 87615=
85586,2014,01,13,03,00,AAXX 13034 85586 NIL=
85586,2014,01,13,06,00,AAXX 13064 85586 NIL=
85586,2014,01,13,09,00,AAXX 13094 85586 NIL=
85586,2014,01,13,12,00,AAXX 13124 85586 11230 82803 10138 20131 40171 53015 69914 71052 886// 333 20133 31/// 55043 56799 70001 88705=
85586,2014,01,13,15,00,AAXX 13154 85586 41457 82805 10156 20122 40183 52012 70522 885// 333 56699 88612=
85586,2014,01,13,18,00,AAXX 13184 85586 12460 72807 10184 20116 40176 56007 60001 87500 333 56600 87615=
85586,2014,01,13,21,00,AAXX 13214 85586 42560 22607 10184 20123 40164 57012 82100 333 56500 82820=
85586,2014,01,14,00,00,AAXX 14004 85586 12460 72304 10158 20128 40159 57004 60001 87500 333 10192 56600 87615=
85586,2014,01,14,03,00,AAXX 14034 85586 NIL=
85586,2014,01,14,06,00,AAXX 14064 85586 NIL=
85586,2014,01,14,09,00,AAXX 14094 85586 NIL=
85586,2014,01,14,12,00,AAXX 14124 85586 11110 80104 10136 20129 40153 53016 60004 71022 886// 333 20133 30/// 55039 56799 70000 88702=
85586,2014,01,14,15,00,AAXX 14154 85586 41220 82906 10152 20134 40155 54002 71022 886// 333 56799 88704=
85586,2014,01,14,18,00,AAXX 14184 85586 11458 72805 10162 20122 40151 56004 60001 70522 87600 333 56600 87710=
85586,2014,01,14,21,00,AAXX 14214 85586 41230 83005 10160 20144 40134 57017 71022 886// 333 56699 88706=
85586,2014,01,15,00,00,AAXX 15004 85586 11220 80000 10150 20133 40127 57007 60001 71022 886// 333 10168 56799 88705=
85586,2014,01,15,03,00,AAXX 15034 85586 NIL=
85586,2014,01,15,06,00,AAXX 15064 85586 NIL=
85586,2014,01,15,09,00,AAXX 15094 85586 NIL=
85586,2014,01,15,12,00,AAXX 15124 85586 11230 83205 10150 20138 40113 52020 60003 71022 886// 333 20136 30/// 55001 56799 70000 88705=
85586,2014,01,15,15,00,AAXX 15154 85586 42460 13211 10202 20133 40121 52010 81600 333 56700 81710=
85586,2014,01,15,18,00,AAXX 15184 85586 12460 13017 10202 20133 40120 54000 60001 81500 333 56600 81615=
85586,2014,01,15,21,00,AAXX 15214 85586 42960 03012 10194 20138 40111 57010=
85586,2014,01,16,00,00,AAXX 16004 85586 12460 33004 10171 20149 40109 57003 60001 83600 333 10218 56600 83710=
85586,2014,01,16,03,00,AAXX 16034 85586 NIL=
85586,2014,01,16,06,00,AAXX 16064 85586 NIL=
85586,2014,01,16,09,00,AAXX 16094 85586 NIL=
85586,2014,01,16,12,00,AAXX 16124 85586 11558 53603 10178 20131 52025 60004 70500 85500 333 20158 30/// 55107 56600 70000 85623=
85586,2014,01,16,15,00,AAXX 16154 85586 42960 03213 10216 20126 40149 51007=
85586,2014,01,16,18,00,AAXX 16184 85586 12960 02910 10218 20135 40146 56003 60001=
85586,2014,01,16,21,00,AAXX 16214 85586 42560 22706 10210 20148 40135 57011 82100 333 56600 82820=
85586,2014,01,17,00,00,AAXX 17004 85586 12960 12403 10184 20140 40125 57009 60001 80001 333 10223 56006 81075=
85586,2014,01,17,03,00,AAXX 17034 85586 NIL=
85586,2014,01,17,06,00,AAXX 17064 85586 NIL=
85586,2014,01,17,09,00,AAXX 17094 85586 NIL=
85586,2014,01,17,12,00,AAXX 17124 85586 11958 00000 10176 20139 40165 52024 60004 70500 333 20120 30/// 55117 70000=
85586,2014,01,17,15,00,AAXX 17154 85586 42960 02807 10212 20133 40168 54002=
85586,2014,01,17,18,00,AAXX 17184 85586 12960 02507 10216 20138 40162 56006 60001=
85586,2014,01,17,21,00,AAXX 17214 85586 42960 02706 10216 20138 40160 54002=
85586,2014,01,18,00,00,AAXX 18004 85586 12960 12403 10180 20124 40152 57007 60001 80001 333 10224 56006 81075=
85586,2014,01,18,03,00,AAXX 18034 85586 NIL=
85586,2014,01,18,06,00,AAXX 18064 85586 NIL=
85586,2014,01,18,09,00,AAXX 18094 85586 NIL=
85586,2014,01,18,12,00,AAXX 18124 85586 12960 10000 10190 20123 40166 52012 60004 80001 333 20130 30/// 55122 56006 70000 81075=
85586,2014,01,18,15,00,AAXX 18154 85586 41958 52805 10198 20151 40162 58003 70511 85030 333 56060 85364=
85586,2014,01,18,18,00,AAXX 18184 85586 11958 52407 10208 20151 40163 53002 60001 70522 80002 333 56006 85073=
85586,2014,01,18,21,00,AAXX 18214 85586 42960 52410 10198 20147 40157 57007 80002 333 56006 85070=
85586,2014,01,19,00,00,AAXX 19004 85586 12960 53306 10182 20135 40155 56003 60001 80002 333 10221 56006 85070=
85586,2014,01,19,03,00,AAXX 19034 85586 NIL=
85586,2014,01,19,06,00,AAXX 19064 85586 NIL=
85586,2014,01,19,09,00,AAXX 19094 85586 NIL=
85586,2014,01,19,12,00,AAXX 19124 85586 12360 13104 10171 20138 40163 52014 60004 81600 333 20145 30/// 55058 56000 70000 81707=
85586,2014,01,19,15,00,AAXX 19154 85586 42360 12507 10197 20136 40168 52006 81600 333 56000 81708=
85586,2014,01,19,18,00,AAXX 19184 85586 12960 02309 10208 20147 40169 54002 60001=
85586,2014,01,19,21,00,AAXX 19214 85586 42960 02407 10217 20133 40158 57011=
85586,2014,01,20,00,00,AAXX 20004 85586 12960 02607 10176 20139 40165 53005 69901 333 10227=
85586,2014,01,20,03,00,AAXX 20034 85586 NIL=
85586,2014,01,20,06,00,AAXX 20064 85586 NIL=
85586,2014,01,20,09,00,AAXX 20094 85586 NIL=
85586,2014,01,20,12,00,AAXX 20124 85586 12960 00000 10134 20116 40149 53010 69904 333 20115 30/// 55129 70000=
85586,2014,01,20,15,00,AAXX 20154 85586 NIL=
85586,2014,01,20,18,00,AAXX 20184 85586 12960 02511 10212 20129 40151 54000 60001=
85586,2014,01,20,21,00,AAXX 20214 85586 42460 12507 10215 20159 40152 54001 81100 333 56600 81812=
85586,2014,01,21,00,00,AAXX 21004 85586 12960 02603 10190 20155 40153 54002 60001 333 10220=
85586,2014,01,21,03,00,AAXX 21034 85586 NIL=
85586,2014,01,21,06,00,AAXX 21064 85586 NIL=
85586,2014,01,21,09,00,AAXX 21094 85586 NIL=
85586,2014,01,21,12,00,AAXX 21124 85586 12960 00000 10160 20126 40147 54002 60004 333 20106 30/// 55129 70000=
85586,2014,01,21,15,00,AAXX 21154 85586 42960 02408 10215 20132 40146 54002=
85586,2014,01,21,18,00,AAXX 21184 85586 12960 02409 10220 20154 40145 54001 60001=
85586,2014,01,21,21,00,AAXX 21214 85586 42460 12408 10214 20167 40135 57010 81100 333 56500 81812=
85586,2014,01,22,00,00,AAXX 22004 85586 12460 12607 10186 20169 40134 57006 60001 81500 333 10226 56600 81615=
85586,2014,01,22,03,00,AAXX 22034 85586 NIL=
85586,2014,01,22,06,00,AAXX 22064 85586 NIL=
85586,2014,01,22,09,00,AAXX 22094 85586 NIL=
85586,2014,01,22,12,00,AAXX 22124 85586 12960 40000 10146 20123 40155 52026 60004 80001 333 20114 30/// 55131 56006 70000 84073=
85586,2014,01,22,15,00,AAXX 22154 85586 42460 52807 10199 20137 40162 52008 81101 333 56606 81817 84073=
85586,2014,01,22,18,00,AAXX 22184 85586 12960 42609 10216 20144 40150 57010 60001 80001 333 56006 84073=
85586,2014,01,22,21,00,AAXX 22214 85586 42960 32409 10206 20148 40135 57015 80001 333 56006 83073=
85586,2014,01,23,00,00,AAXX 23004 85586 12960 52407 10184 20140 40135 54001 60001 80001 333 10224 56006 85073=
85586,2014,01,23,03,00,AAXX 23034 85586 NIL=
85586,2014,01,23,06,00,AAXX 23064 85586 NIL=
85586,2014,01,23,09,00,AAXX 23094 85586 NIL=
85586,2014,01,23,12,00,AAXX 23124 85586 12960 50000 10154 20142 40158 52011 60004 80001 333 20116 30/// 55111 56006 70000 85075=
85586,2014,01,23,15,00,AAXX 23154 85586 42560 42808 10214 20128 40169 52014 81501 333 56606 81620 84075=
85586,2014,01,23,18,00,AAXX 23184 85586 12960 22709 10222 20159 40178 52006 60001 80001 333 56000 82075=
85586,2014,01,23,21,00,AAXX 23214 85586 42960 12408 10214 20155 40173 56005 80001 333 56000 81075=
85586,2014,01,24,00,00,AAXX 24004 85586 12460 12405 10186 20138 40173 54001 60001 81500 333 10228 56600 81615=
85586,2014,01,24,03,00,AAXX 24034 85586 NIL=
85586,2014,01,24,06,00,AAXX 24064 85586 NIL=
85586,2014,01,24,09,00,AAXX 24094 85586 NIL=
85586,2014,01,24,12,00,AAXX 24124 85586 12960 01504 10174 20085 40183 52015 60004 333 20110 30/// 55115 70000=
85586,2014,01,24,15,00,AAXX 24154 85586 42460 12313 10185 20068 40184 54000 81100 333 56500 81812=
85586,2014,01,24,18,00,AAXX 24184 85586 12960 02313 10190 20083 40176 56008 60001=
85586,2014,01,24,21,00,AAXX 24214 85586 42960 02310 10188 20081 40162 57014=
85586,2014,01,25,00,00,AAXX 25004 85586 12960 02403 10154 20108 40157 56005 60001 333 10227=
85586,2014,01,25,03,00,AAXX 25034 85586 NIL=
85586,2014,01,25,06,00,AAXX 25064 85586 NIL=
85586,2014,01,25,09,00,AAXX 25094 85586 NIL=
85586,2014,01,25,12,00,AAXX 25124 85586 11458 73604 10154 20123 40167 52008 60004 70522 87500 333 20122 30/// 55130 56600 70000 87617=
85586,2014,01,25,15,00,AAXX 25154 85586 42460 12606 10176 20119 40170 52004 81600 333 56600 81710=
85586,2014,01,25,18,00,AAXX 25184 85586 12560 12708 10188 20120 40160 58010 60001 81500 333 56600 81625=
85586,2014,01,25,21,00,AAXX 25214 85586 42560 32608 10186 20127 40152 57008 83500 333 56600 83620=
85586,2014,01,26,00,00,AAXX 26004 85586 12460 53003 10154 20132 40151 54001 60001 85500 333 10194 56600 85613=
85586,2014,01,26,03,00,AAXX 26034 85586 NIL=
85586,2014,01,26,06,00,AAXX 26064 85586 NIL=
85586,2014,01,26,09,00,AAXX 26094 85586 NIL=
85586,2014,01,26,12,00,AAXX 26124 85586 11458 83504 10159 20109 40163 52012 60004 70522 885// 333 20147 30/// 55093 56799 70000 88615=
85586,2014,01,26,15,00,AAXX 26154 85586 42960 02609 10186 20107 40165 51003=
85586,2014,01,26,18,00,AAXX 26184 85586 12960 02510 10193 20104 40153 58006 60001=
85586,2014,01,26,21,00,AAXX 26214 85586 42460 12510 10191 20118 40140 57012 81500 333 56700 81615=
85586,2014,01,27,00,00,AAXX 27004 85586 12460 52605 10162 20111 40139 55001 60001 85500 333 10195 56700 85615=
85586,2014,01,27,03,00,AAXX 27034 85586 NIL=
85586,2014,01,27,06,00,AAXX 27064 85586 NIL=
85586,2014,01,27,09,00,AAXX 27094 85586 NIL=
85586,2014,01,27,12,00,AAXX 27124 85586 11558 80000 10171 20113 40164 52015 60004 70522 885// 333 20156 30/// 55091 56799 70000 88620=
85586,2014,01,27,15,00,AAXX 27154 85586 42560 82807 10203 20116 40172 51008 885// 333 56799 88620=
85586,2014,01,27,18,00,AAXX 27184 85586 12560 82608 10211 20122 40172 50000 60001 885// 333 56799 88625=
85586,2014,01,27,21,00,AAXX 27214 85586 42960 02609 10213 20136 40163 58008=
85586,2014,01,28,00,00,AAXX 28004 85586 NIL=
85586,2014,01,28,03,00,AAXX 28034 85586 NIL=
85586,2014,01,28,06,00,AAXX 28064 85586 NIL=
85586,2014,01,28,09,00,AAXX 28094 85586 NIL=
85586,2014,01,28,12,00,AAXX 28124 85586 12960 01003 10162 20116 40164 52009 60004 333 20096 30/// 55057 70000=
85586,2014,01,28,15,00,AAXX 28154 85586 42960 02507 10192 20114 40164 54001=
85586,2014,01,28,18,00,AAXX 28184 85586 12960 12412 10194 20144 40163 58001 60001 80001 333 56006 81075=
85586,2014,01,28,21,00,AAXX 28214 85586 42460 32609 10190 20155 40154 57009 81502 333 56606 81612 83075=
85586,2014,01,29,00,00,AAXX 29004 85586 12460 13405 10170 20164 40149 56005 60001 81500 333 10203 56600 81615=
85586,2014,01,29,03,00,AAXX 29034 85586 NIL=
85586,2014,01,29,06,00,AAXX 29064 85586 NIL=
85586,2014,01,29,09,00,AAXX 29094 85586 NIL=
85586,2014,01,29,12,00,AAXX 29124 85586 12960 00000 10152 20126 40128 53006 60004 333 20096 30/// 55122 70000=
85586,2014,01,29,15,00,AAXX 29154 85586 42960 02908 10206 20148 40123 56002=
85586,2014,01,29,18,00,AAXX 29184 85586 12960 02607 10216 20140 40118 57006 60001=
85586,2014,01,29,21,00,AAXX 29214 85586 42960 02908 10200 20145 40112 57009=
85586,2014,01,30,00,00,AAXX 30004 85586 12560 53305 10174 20151 40118 53005 60001 85500 333 10220 56600 85620=
85586,2014,01,30,03,00,AAXX 30034 85586 NIL=
85586,2014,01,30,06,00,AAXX 30064 85586 NIL=
85586,2014,01,30,09,00,AAXX 30094 85586 NIL=
85586,2014,01,30,12,00,AAXX 30124 85586 11450 80000 10158 20141 40145 52022 60004 70522 886// 333 20140 30/// 55120 56099 70000 88710=
85586,2014,01,30,15,00,AAXX 30154 85586 42460 22909 10199 20137 40158 52013 82100 333 56700 82813=
85586,2014,01,30,18,00,AAXX 30184 85586 12460 12910 10205 20131 40158 54001 60001 81100 333 56600 81813=
85586,2014,01,30,21,00,AAXX 30214 85586 42460 22906 10194 20139 40150 57009 82100 333 56600 82813=
85586,2014,01,31,00,00,AAXX 31004 85586 12960 03305 10177 20144 40149 54001 60001 333 10214=
85586,2014,01,31,03,00,AAXX 31034 85586 NIL=
85586,2014,01,31,06,00,AAXX 31064 85586 NIL=
85586,2014,01,31,09,00,AAXX 31094 85586 NIL=
85586,2014,01,31,12,00,AAXX 31124 85586 12160 52404 10157 20140 40167 52017 60004 85600 333 20106 30/// 55105 56600 70000 85703=
85586,2014,01,31,15,00,AAXX 31154 85586 41257 32907 10184 20127 40178 52011 70511 83600 333 56600 83704=
85586,2014,01,31,18,00,AAXX 31184 85586 12960 02409 10226 20113 40164 58012 60001=
85586,2014,01,31,21,00,AAXX 31214 85586 41357 12410 10205 20158 40154 57011 70441 81600 333 56600 81708=
85586,2014,02,01,00,00,AAXX 01004 85586 12960 02207 10194 20146 40158 55003 60001 333 10230=
85586,2014,02,01,03,00,AAXX 01034 85586 NIL=
85586,2014,02,01,06,00,AAXX 01064 85586 NIL=
85586,2014,02,01,09,00,AAXX 01094 85586 NIL=
85586,2014,02,01,12,00,AAXX 01124 85586 12960 00204 10154 20117 40147 52010 60003 333 20084 30/// 55128 70000=
85586,2014,02,01,15,00,AAXX 01154 85586 42960 02808 10194 20105 40154 51006=
85586,2014,02,01,18,00,AAXX 01184 85586 12960 02514 10192 20123 40161 53007 60001=
85586,2014,02,01,21,00,AAXX 01214 85586 42960 02315 10189 20111 40149 58012=
85586,2014,02,02,00,00,AAXX 02004 85586 12960 02211 10163 20089 40144 56004 60001 333 10196=
85586,2014,02,02,03,00,AAXX 02034 85586 NIL=
85586,2014,02,02,06,00,AAXX 02064 85586 NIL=
85586,2014,02,02,09,00,AAXX 02094 85586 NIL=
85586,2014,02,02,12,00,AAXX 02124 85586 12960 00000 10153 20076 40153 52015 60004 333 20064 30/// 55129 70000=
85586,2014,02,02,15,00,AAXX 02154 85586 42960 02510 10184 20097 40158 51006=
85586,2014,02,02,18,00,AAXX 02184 85586 12960 02317 10192 20127 40155 56003 60001=
85586,2014,02,02,21,00,AAXX 02214 85586 42960 02416 10182 20133 40143 57011=
85586,2014,02,03,00,00,AAXX 03004 85586 12960 02308 10161 20121 40144 55001 60001 333 10195=
85586,2014,02,03,03,00,AAXX 03034 85586 NIL=
85586,2014,02,03,06,00,AAXX 03064 85586 NIL=
85586,2014,02,03,09,00,AAXX 03094 85586 NIL=
85586,2014,02,03,12,00,AAXX 03124 85586 12960 00000 10138 20104 40145 52009 60004 333 20071 30/// 55128 70000=
85586,2014,02,03,15,00,AAXX 03154 85586 42960 02408 10190 20102 40147 52003=
85586,2014,02,03,18,00,AAXX 03184 85586 12960 02212 10200 20119 40139 57007 60001=
85586,2014,02,03,21,00,AAXX 03214 85586 42960 02313 10190 20123 40129 57011=
85586,2014,02,04,00,00,AAXX 04004 85586 12960 02305 10164 20119 40133 53005 60001 333 10204=
85586,2014,02,04,03,00,AAXX 04034 85586 NIL=
85586,2014,02,04,06,00,AAXX 04064 85586 NIL=
85586,2014,02,04,09,00,AAXX 04094 85586 NIL=
85586,2014,02,04,12,00,AAXX 04124 85586 12960 00000 10144 20119 40129 52010 60004 333 20076 30/// 55129 70000=
85586,2014,02,04,15,00,AAXX 04154 85586 42960 02607 10188 20100 40145 52017=
85586,2014,02,04,18,00,AAXX 04184 85586 12960 02608 10190 20132 40146 54001 60001=
85586,2014,02,04,21,00,AAXX 04214 85586 42960 02408 10194 20131 40141 56003=
85586,2014,02,05,00,00,AAXX 05004 85586 12960 02803 10166 20145 40150 52009 60001 333 10214=
85586,2014,02,05,03,00,AAXX 05034 85586 NIL=
85586,2014,02,05,06,00,AAXX 05064 85586 NIL=
85586,2014,02,05,09,00,AAXX 05094 85586 NIL=
85586,2014,02,05,12,00,AAXX 05124 85586 12960 01103 10162 20124 40181 52019 60004 333 20096 30/// 55125 70000=
85586,2014,02,05,15,00,AAXX 05154 85586 42560 12608 10210 20131 40183 52004 81500 333 56600 81620=
85586,2014,02,05,18,00,AAXX 05184 85586 12560 12411 10206 20148 40182 54001 60001 81500 333 56600 81620=
85586,2014,02,05,21,00,AAXX 05214 85586 42960 02311 10204 20130 40165 57018=
85586,2014,02,06,00,00,AAXX 06004 85586 12960 02306 10176 20125 40156 57010 60001 333 10218=
85586,2014,02,06,03,00,AAXX 06034 85586 NIL=
85586,2014,02,06,06,00,AAXX 06064 85586 NIL=
85586,2014,02,06,09,00,AAXX 06094 85586 NIL=
85586,2014,02,06,12,00,AAXX 06124 85586 12960 00000 10135 20098 40160 53013 60004 333 20083 30/// 55128 70000=
85586,2014,02,06,15,00,AAXX 06154 85586 42960 02408 10180 20120 40164 52004=
85586,2014,02,06,18,00,AAXX 06184 85586 12960 02413 10190 20123 40160 58003 60001=
85586,2014,02,06,21,00,AAXX 06214 85586 42960 02312 10180 20120 40164 57006=
85586,2014,02,07,00,00,AAXX 07004 85586 12960 02306 10150 20115 40155 54000 60001 333 10194=
85586,2014,02,07,03,00,AAXX 07034 85586 NIL=
85586,2014,02,07,06,00,AAXX 07064 85586 NIL=
85586,2014,02,07,12,00,AAXX 07124 85586 12960 00000 10134 20091 40158 52011 60004 333 20069 30/// 55127 70000=
85586,2014,02,07,15,00,AAXX 07154 85586 42960 02808 10183 20100 40160 51003=
85586,2014,02,07,18,00,AAXX 07184 85586 12960 02412 10191 20097 40150 58009 60001=
85586,2014,02,07,21,00,AAXX 07214 85586 42960 02415 10187 20135 40136 57014=
85586,2014,02,08,00,00,AAXX 08004 85586 12260 32608 10153 20134 40144 53007 60001 83600 333 10206 56700 83704=
85586,2014,02,08,03,00,AAXX 08034 85586 NIL=
85586,2014,02,08,06,00,AAXX 08064 85586 NIL=
85586,2014,02,08,09,00,AAXX 08094 85586 NIL=
85586,2014,02,08,12,00,AAXX 08124 85586 11256 80805 10146 20127 40155 52011 60004 70522 886// 333 20104 30/// 55124 56799 70000 88706=
85586,2014,02,08,15,00,AAXX 08154 85586 42960 02807 10198 20126 40159 51005=
85586,2014,02,08,18,00,AAXX 08184 85586 11220 32411 10186 20135 40156 58003 60001 71011 83600 333 56700 83704=
85586,2014,02,08,21,00,AAXX 08214 85586 42960 02317 10194 20140 40135 57020=
85586,2014,02,09,00,00,AAXX 09004 85586 12960 02212 10178 20132 40133 55000 60001 333 10201=
85586,2014,02,09,03,00,AAXX 09034 85586 NIL=
85586,2014,02,09,06,00,AAXX 09064 85586 NIL=
85586,2014,02,09,09,00,AAXX 09094 85586 NIL=
85586,2014,02,09,12,00,AAXX 09124 85586 11120 80205 10138 20127 40145 52012 60004 71022 886// 333 20108 30/// 55110 56899 70000 88703=
85586,2014,02,09,15,00,AAXX 09154 85586 41220 23308 10180 20130 40148 52004 70500 82600 333 56600 82704=
85586,2014,02,09,18,00,AAXX 09184 85586 11120 72507 10166 20153 40148 54000 60001 71022 87600 333 56600 87703=
85586,2014,02,09,21,00,AAXX 09214 85586 41350 82705 10170 20137 40139 57009 70522 886// 333 56699 88707=
85586,2014,02,10,00,00,AAXX 10004 85586 12460 63304 10162 20142 40133 57006 60001 86500 333 10190 56700 86613=
85586,2014,02,10,03,00,AAXX 10034 85586 NIL=
85586,2014,02,10,06,00,AAXX 10064 85586 NIL=
85586,2014,02,10,09,00,AAXX 10094 85586 NIL=
85586,2014,02,10,12,00,AAXX 10124 85586 11440 82604 10148 20138 40148 52011 60004 71022 886// 333 20144 30/// 50041 56099 70000 88710=
85586,2014,02,10,15,00,AAXX 10154 85586 41458 83206 10172 20133 40165 52017 70522 886// 333 56799 88712=
85586,2014,02,10,18,00,AAXX 10184 85586 11458 82805 10171 20149 40172 52007 60001 70522 885// 333 56699 88613=
85586,2014,02,10,21,00,AAXX 10214 85586 42460 82705 10178 20142 40163 57011 885// 333 56699 88615=
85586,2014,02,11,00,00,AAXX 11004 85586 12560 82603 10160 20116 40167 53005 60001 885// 333 10190 56099 88620=
85586,2014,02,11,03,00,AAXX 11034 85586 NIL=
85586,2014,02,11,06,00,AAXX 11064 85586 NIL=
85586,2014,02,11,09,00,AAXX 11094 85586 NIL=
85586,2014,02,11,12,00,AAXX 11124 85586 NIL=
85586,2014,02,11,15,00,AAXX 11154 85586 41458 72706 10174 20132 40165 54000 70522 87500 333 56600 87615=
85586,2014,02,11,18,00,AAXX 11184 85586 12460 32409 10180 20126 40160 56005 60001 83100 333 56500 83815=
85586,2014,02,11,21,00,AAXX 11214 85586 42460 42709 10172 20133 40147 57013 84100 333 56600 84817=
85586,2014,02,12,00,00,AAXX 12004 85586 12460 63105 10152 20131 40144 57003 60001 86500 333 10188 56600 86615=
85586,2014,02,12,03,00,AAXX 12034 85586 NIL=
85586,2014,02,12,06,00,AAXX 12064 85586 NIL=
85586,2014,02,12,09,00,AAXX 12094 85586 NIL=
85586,2014,02,12,12,00,AAXX 12124 85586 NIL=
85586,2014,02,12,15,00,AAXX 12154 85586 41115 52906 10159 20141 40133 52004 74041 85600 333 56700 85703=
85586,2014,02,12,18,00,AAXX 12184 85586 11460 13008 10186 20136 40137 54002 60001 70141 81600 333 56700 81712=
85586,2014,02,12,21,00,AAXX 12214 85586 42960 02807 10186 20136 40131 57006=
85586,2014,02,13,00,00,AAXX 13004 85586 12460 32905 10160 20144 40131 54000 60001 83600 333 10196 56600 83710=
85586,2014,02,13,03,00,AAXX 13034 85586 NIL=
85586,2014,02,13,06,00,AAXX 13064 85586 NIL=
85586,2014,02,13,09,00,AAXX 13094 85586 NIL=
85586,2014,02,13,12,00,AAXX 13124 85586 11240 80604 10132 20117 40110 53007 60004 70511 886// 333 20097 30/// 55109 56799 70000 88706=
85586,2014,02,13,15,00,AAXX 13154 85586 41450 73009 10158 20131 40131 52020 70522 87600 333 56700 87710=
85586,2014,02,13,18,00,AAXX 13184 85586 11457 73113 10176 20123 40144 52013 60001 70522 87600 333 56700 87712=
85586,2014,02,13,21,00,AAXX 13214 85586 42460 32909 10185 20118 40146 54002 83500 333 56600 83615=
85586,2014,02,14,00,00,AAXX 14004 85586 11558 82704 10168 20136 40152 53007 60001 70511 885// 333 10192 56799 88625=
85586,2014,02,14,03,00,AAXX 14034 85586 NIL=
85586,2014,02,14,06,00,AAXX 14064 85586 NIL=
85586,2014,02,14,09,00,AAXX 14094 85586 NIL=
85586,2014,02,14,12,00,AAXX 14124 85586 11558 82204 10166 20123 40153 53005 60004 70522 885// 333 20154 30/// 55041 56799 70000 88625=
85586,2014,02,14,15,00,AAXX 14154 85586 41558 82405 10172 20098 40166 52012 70522 885// 333 56699 88623=
85586,2014,02,14,18,00,AAXX 14184 85586 11558 82704 10175 20102 40162 56004 60001 70522 885// 333 56699 88620=
85586,2014,02,14,21,00,AAXX 14214 85586 42560 12806 10193 20115 40152 57009 81500 333 56700 81620=
85586,2014,02,15,00,00,AAXX 15004 85586 11558 23404 10163 20115 40156 53004 60001 70511 82500 333 10195 56700 82620=
85586,2014,02,15,03,00,AAXX 15034 85586 NIL=
85586,2014,02,15,06,00,AAXX 15064 85586 NIL=
85586,2014,02,15,09,00,AAXX 15094 85586 NIL=
85586,2014,02,15,12,00,AAXX 15124 85586 12460 40000 10124 20108 40162 52014 60004 81602 333 20086 30/// 55023 56606 70000 81710 83075=
85586,2014,02,15,15,00,AAXX 15154 85586 42560 73206 10192 20090 40171 52010 81532 333 56666 81625 83365 85073=
85586,2014,02,15,18,00,AAXX 15184 85586 12560 52806 10210 20089 40172 52003 60001 83501 333 56606 83630 83075=
85586,2014,02,15,21,00,AAXX 15214 85586 42960 62606 10188 20120 40171 58003 80002 333 56006 86073=
85586,2014,02,16,00,00,AAXX 16004 85586 12960 62303 10172 20110 40170 54001 60001 80001 333 10220 56006 86073=
85586,2014,02,16,03,00,AAXX 16034 85586 NIL=
85586,2014,02,16,06,00,AAXX 16064 85586 NIL=
85586,2014,02,16,09,00,AAXX 16094 85586 NIL=
85586,2014,02,16,12,00,AAXX 16124 85586 12960 20000 10140 20123 40170 52006 60001 80001 333 20100 30/// 55051 56006 70000 82075=
85586,2014,02,16,15,00,AAXX 16154 85586 42960 12608 10198 20114 40163 58005 80001 333 56006 81075=
85586,2014,02,16,18,00,AAXX 16184 85586 12960 12411 10200 20145 40153 57010 60001 80001 333 56006 81075=
85586,2014,02,16,21,00,AAXX 16214 85586 42960 02411 10192 20150 40144 57010=
85586,2014,02,17,00,00,AAXX 17004 85586 12460 33305 10164 20144 40143 54001 60001 83500 333 10214 56600 83615=
85586,2014,02,17,03,00,AAXX 17034 85586 NIL=
85586,2014,02,17,06,00,AAXX 17064 85586 NIL=
85586,2014,02,17,09,00,AAXX 17094 85586 NIL=
85586,2014,02,17,12,00,AAXX 17124 85586 11130 83504 10138 20131 40160 52024 60004 71022 886// 333 20127 30/// 55113 56799 70000 88703=
85586,2014,02,17,15,00,AAXX 17154 85586 41356 83206 10156 20134 40170 52010 70522 886// 333 56799 88708=
85586,2014,02,17,18,00,AAXX 17184 85586 11458 83007 10178 20134 40163 56007 60001 70522 886// 333 56799 88710=
85586,2014,02,17,21,00,AAXX 17214 85586 41458 82906 10168 20143 40152 57011 70522 886// 333 56799 88710=
85586,2014,02,18,00,00,AAXX 18004 85586 11440 82803 10155 20142 40154 54002 60001 70522 886// 333 10180 56699 88710=
85586,2014,02,18,03,00,AAXX 18034 85586 NIL=
85586,2014,02,18,06,00,AAXX 18064 85586 NIL=
85586,2014,02,18,09,00,AAXX 18094 85586 NIL=
85586,2014,02,18,12,00,AAXX 18124 85586 11458 83203 10144 20127 40162 53014 60004 70522 886// 333 20140 30/// 55000 56799 70000 88710=
85586,2014,02,18,15,00,AAXX 18154 85586 41457 82704 10152 20128 40172 52010 70522 886// 333 56699 88710=
85586,2014,02,18,18,00,AAXX 18184 85586 12460 72707 10184 20119 40168 56004 60001 87500 333 56600 87615=
85586,2014,02,18,21,00,AAXX 18214 85586 42460 22506 10188 20120 40158 57010 82100 333 56600 82812=
85586,2014,02,19,00,00,AAXX 19004 85586 12460 72404 10154 20137 40161 52003 60001 87500 333 10192 56600 87613=
85586,2014,02,19,03,00,AAXX 19034 85586 NIL=
85586,2014,02,19,06,00,AAXX 19064 85586 NIL=
85586,2014,02,19,09,00,AAXX 19094 85586 NIL=
85586,2014,02,19,12,00,AAXX 19124 85586 11240 80000 10148 20125 40165 51010 60004 70522 886// 333 20143 30/// 55039 56799 70000 88706=
85586,2014,02,19,15,00,AAXX 19154 85586 41358 82706 10164 20126 40171 52008 70522 886// 333 56799 88709=
85586,2014,02,19,18,00,AAXX 19184 85586 12460 72609 10183 20135 40164 58007 60001 87500 333 56700 87615=
85586,2014,02,19,21,00,AAXX 19214 85586 42460 82506 10162 20130 40156 57008 885// 333 56799 88612=
85586,2014,02,20,00,00,AAXX 20004 85586 11340 83207 10154 20135 40153 56003 60001 70522 886// 333 10193 56799 88708=
85586,2014,02,20,03,00,AAXX 20034 85586 NIL=
85586,2014,02,20,06,00,AAXX 20064 85586 NIL=
85586,2014,02,20,09,00,AAXX 20094 85586 NIL=
85586,2014,02,20,12,00,AAXX 20124 85586 11240 71204 10133 20117 40132 53006 60004 70522 87600 333 20098 30/// 55014 56700 70000 87706=
85586,2014,02,20,15,00,AAXX 20154 85586 42960 02705 10170 20116 40132 54001=
85586,2014,02,20,18,00,AAXX 20184 85586 12960 02505 10188 20125 40127 56005 60001=
85586,2014,02,20,21,00,AAXX 20214 85586 42960 02512 10184 20102 40116 57011=
85586,2014,02,21,00,00,AAXX 21004 85586 12960 00106 10149 20104 40124 53009 60001 333 10195=
85586,2014,02,21,03,00,AAXX 21034 85586 NIL=
85586,2014,02,21,06,00,AAXX 21064 85586 NIL=
85586,2014,02,21,09,00,AAXX 21094 85586 NIL=
85586,2014,02,21,12,00,AAXX 21124 85586 12260 10000 10123 20107 40145 52012 60004 81600 333 20065 30/// 55100 56700 70000 81704=
85586,2014,02,21,15,00,AAXX 21154 85586 42960 02806 10181 20124 40153 52008=
85586,2014,02,21,18,00,AAXX 21184 85586 12960 02412 10193 20113 40151 58002 60001=
85586,2014,02,21,21,00,AAXX 21214 85586 42960 02412 10201 20110 40142 57008=
85586,2014,02,22,00,00,AAXX 22004 85586 12960 03404 10163 20092 40152 53008 60001 333 10206=
85586,2014,02,22,03,00,AAXX 22034 85586 NIL=
85586,2014,02,22,06,00,AAXX 22064 85586 NIL=
85586,2014,02,22,09,00,AAXX 22094 85586 NIL=
85586,2014,02,22,12,00,AAXX 22124 85586 12960 00000 10098 20085 40154 54001 60004 333 20065 30/// 55121 70000=
85586,2014,02,22,15,00,AAXX 22154 85586 42960 02605 10165 20108 40150 57003=
85586,2014,02,22,18,00,AAXX 22184 85586 11260 12607 10174 20134 40146 57004 60001 70240 81600 333 56600 81704=
85586,2014,02,22,21,00,AAXX 22214 85586 42260 12807 10178 20131 40145 54001 81600 333 56600 81704=
85586,2014,02,23,00,00,AAXX 23004 85586 12360 13004 10144 20120 40144 54001 60001 81600 333 10188 56600 81707=
85586,2014,02,23,03,00,AAXX 23034 85586 NIL=
85586,2014,02,23,06,00,AAXX 23064 85586 NIL=
85586,2014,02,23,09,00,AAXX 23094 85586 NIL=
85586,2014,02,23,12,00,AAXX 23124 85586 12460 82703 10134 20116 40138 53009 60004 885// 333 20132 30/// 55120 56699 70000 88615=
85586,2014,02,23,15,00,AAXX 23154 85586 42560 82805 10145 20099 40144 52006 885// 333 56699 88620=
85586,2014,02,23,18,00,AAXX 23184 85586 12560 32910 10177 20112 40145 54002 60001 83500 333 56600 83622=
85586,2014,02,23,21,00,AAXX 23214 85586 42560 42608 10178 20104 40146 54001 84500 333 56600 84622=
85586,2014,02,24,00,00,AAXX 24004 85586 13560 72504 10150 20124 40148 54001 60001 87500 333 10186 56600 87620=
85586,2014,02,24,03,00,AAXX 24034 85586 NIL=
85586,2014,02,24,06,00,AAXX 24064 85586 NIL=
85586,2014,02,24,09,00,AAXX 24094 85586 NIL=
85586,2014,02,24,12,00,AAXX 24124 85586 12560 80000 10143 20103 40131 53009 60004 885// 333 20140 30/// 55053 56699 70000 88620=
85586,2014,02,24,15,00,AAXX 24154 85586 42560 83209 10154 20098 40157 52026 885// 333 56799 88620=
85586,2014,02,24,18,00,AAXX 24184 85586 12560 83208 10178 20093 40168 52011 60001 885// 333 56799 88623=
85586,2014,02,24,21,00,AAXX 24214 85586 42560 73006 10182 20090 40170 54002 87500 333 56700 87623=
85586,2014,02,25,00,00,AAXX 25004 85586 12560 53205 10164 20130 40178 52009 60001 85500 333 10190 56600 85623=
85586,2014,02,25,03,00,AAXX 25034 85586 NIL=
85586,2014,02,25,06,00,AAXX 25064 85586 NIL=
85586,2014,02,25,09,00,AAXX 25094 85586 NIL=
85586,2014,02,25,12,00,AAXX 25124 85586 12960 00000 10143 20103 40174 53006 60004 333 20087 30/// 55003 70000=
85586,2014,02,25,15,00,AAXX 25154 85586 42560 32705 10188 20099 40171 56003 82501 333 56600 82623 83073=
85586,2014,02,25,18,00,AAXX 25184 85586 12960 22310 10208 20097 40164 56007 60001 80001 333 56006 82073=
85586,2014,02,25,21,00,AAXX 25214 85586 42960 22410 10194 20126 40159 56005 80001 333 56000 82073=
85586,2014,02,26,00,00,AAXX 26004 85586 12960 02507 10161 20128 40159 53001 60001 333 10214=
85586,2014,02,26,03,00,AAXX 26034 85586 NIL=
85586,2014,02,26,06,00,AAXX 26064 85586 NIL=
85586,2014,02,26,09,00,AAXX 26094 85586 NIL=
85586,2014,02,26,12,00,AAXX 26124 85586 12206 80000 10127 20117 40160 52008 60004 7460/ 886// 333 20082 30/// 55118 56799 70000 88704=
85586,2014,02,26,15,00,AAXX 26154 85586 42260 12406 10180 20127 40158 54002 81600 333 56500 81704=
85586,2014,02,26,18,00,AAXX 26184 85586 12260 22406 10186 20132 40153 56005 60001 82600 333 56500 82704=
85586,2014,02,26,21,00,AAXX 26214 85586 41240 82708 10150 20136 40155 54002 71022 886// 333 56699 88704=
85586,2014,02,27,00,00,AAXX 27004 85586 11240 83606 10144 20125 40157 53002 60001 71022 886// 333 10191 56799 88706=
85586,2014,02,27,03,00,AAXX 27034 85586 NIL=
85586,2014,02,27,06,00,AAXX 27064 85586 NIL=
85586,2014,02,27,09,00,AAXX 27094 85586 NIL=
85586,2014,02,27,12,00,AAXX 27124 85586 11358 20000 10132 20108 40154 52011 60004 70511 82600 333 20116 30/// 55071 56700 70000 82707=
85586,2014,02,27,15,00,AAXX 27154 85586 42360 12805 10162 20115 40159 51005 81600 333 56600 81708=
85586,2014,02,27,18,00,AAXX 27184 85586 12460 42611 10162 20111 40169 52010 60001 84100 333 56600 84810=
85586,2014,02,27,21,00,AAXX 27214 85586 41458 82506 10144 20113 40170 54001 70522 886// 333 56699 88712=
85586,2014,02,28,00,00,AAXX 28004 85586 11456 82508 10138 20107 40173 53003 60001 70522 885// 333 10176 56799 88615=
85586,2014,02,28,03,00,AAXX 28034 85586 NIL=
85586,2014,02,28,06,00,AAXX 28064 85586 NIL=
85586,2014,02,28,09,00,AAXX 28094 85586 NIL=
85586,2014,02,28,12,00,AAXX 28124 85586 11458 80000 10117 20094 40153 53010 60004 70522 886// 333 20080 30/// 55073 56699 70000 88712=
85586,2014,02,28,15,00,AAXX 28154 85586 41458 73304 10134 20099 40162 52009 70522 87600 333 56700 87715=
85586,2014,02,28,18,00,AAXX 28184 85586 12460 12709 10158 20085 40163 54001 60001 81100 333 56600 81815=
85586,2014,02,28,21,00,AAXX 28214 85586 42460 62606 10150 20115 40153 57010 86500 333 56600 86615=
85586,2014,03,01,00,00,AAXX 01004 85586 12460 82806 10144 20119 40156 53003 60001 885// 333 10165 56699 88613=
85586,2014,03,01,03,00,AAXX 01034 85586 NIL=
85586,2014,03,01,06,00,AAXX 01064 85586 NIL=
85586,2014,03,01,09,00,AAXX 01094 85586 NIL=
85586,2014,03,01,12,00,AAXX 01124 85586 11330 80000 10127 20123 40159 53012 69914 75022 886// 333 20117 31/// 55055 56699 70001 88708=
85586,2014,03,01,15,00,AAXX 01154 85586 41460 83303 10157 20123 40164 52005 70252 885// 333 56799 88617=
85586,2014,03,01,18,00,AAXX 01184 85586 11560 42909 10187 20126 40164 54000 69901 70152 84500 333 56700 84622=
85586,2014,03,01,21,00,AAXX 01214 85586 42560 43109 10184 20132 40171 52008 81501 333 56606 81625 83073=
85586,2014,03,02,00,00,AAXX 02004 85586 12560 73003 10150 20124 40176 52005 60001 81501 333 10197 56606 81625 86073=
85586,2014,03,02,03,00,AAXX 02034 85586 NIL=
85586,2014,03,02,06,00,AAXX 02064 85586 NIL=
85586,2014,03,02,09,00,AAXX 02094 85586 NIL=
85586,2014,03,02,12,00,AAXX 02124 85586 12460 80000 10137 20119 40191 53006 69904 885// 333 20133 30/// 55046 56699 79999 88613=
85586,2014,03,02,15,00,AAXX 02154 85586 42460 72607 10156 20111 40194 52003 87500 333 56600 87618=
85586,2014,03,02,18,00,AAXX 02184 85586 12460 12608 10171 20117 40191 58003 60001 81500 333 56600 81618=
85586,2014,03,02,21,00,AAXX 02214 85586 42460 72605 10163 20124 40184 57006 87500 333 56600 87615=
85586,2014,03,03,00,00,AAXX 03004 85586 12460 72703 10144 20123 40179 57006 60001 87500 333 10180 56600 87613=
85586,2014,03,03,03,00,AAXX 03034 85586 NIL=
85586,2014,03,03,06,00,AAXX 03064 85586 NIL=
85586,2014,03,03,09,00,AAXX 03094 85586 NIL=
85586,2014,03,03,12,00,AAXX 03124 85586 11430 82403 10132 20123 40188 52007 60004 71022 886// 333 20131 30/// 55037 56099 70000 88710=
85586,2014,03,03,15,00,AAXX 03154 85586 41450 82505 10142 20122 40187 54001 70522 886// 333 56599 88710=
85586,2014,03,03,18,00,AAXX 03184 85586 12460 72505 10166 20114 40178 57009 60001 87500 333 56600 87615=
85586,2014,03,03,21,00,AAXX 03214 85586 42460 12310 10162 20111 40165 57013 81100 333 56500 81815=
85586,2014,03,04,00,00,AAXX 04004 85586 12960 00000 10136 20102 40164 56001 60001 333 10176=
85586,2014,03,04,03,00,AAXX 04034 85586 NIL=
85586,2014,03,04,06,00,AAXX 04064 85586 NIL=
85586,2014,03,04,09,00,AAXX 04094 85586 NIL=
85586,2014,03,04,12,00,AAXX 04124 85586 12460 30000 10112 20095 40175 52013 60004 83500 333 20072 30/// 55046 56600 70000 81710 83615=
85586,2014,03,04,15,00,AAXX 04154 85586 42960 02507 10166 20110 40188 52013=
85586,2014,03,04,18,00,AAXX 04184 85586 12960 02313 10180 20104 40185 56003 60001=
85586,2014,03,04,21,00,AAXX 04214 85586 42960 02411 10168 20106 40174 57011=
85586,2014,03,05,00,00,AAXX 05004 85586 12960 13404 10136 20111 40168 56006 60001 80001 333 10190 56006 81075=
85586,2014,03,05,03,00,AAXX 05034 85586 NIL=
85586,2014,03,05,06,00,AAXX 05064 85586 NIL=
85586,2014,03,05,09,00,AAXX 05094 85586 NIL=
85586,2014,03,05,12,00,AAXX 05124 85586 12960 30000 10126 20106 40169 51006 60004 80001 333 20074 30/// 55105 56006 70000 83075=
85586,2014,03,05,15,00,AAXX 05154 85586 42960 72508 10166 20115 40170 53002 87030 333 56060 87365=
85586,2014,03,05,18,00,AAXX 05184 85586 12260 32508 10183 20129 40164 58006 60001 81601 333 56706 81704 83075=
85586,2014,03,05,21,00,AAXX 05214 85586 42960 62411 10172 20119 40159 56005 86030 333 56060 86365=
85586,2014,03,06,00,00,AAXX 06004 85586 11958 60504 10151 20103 40169 53009 60001 70511 86030 333 10186 56060 86365=
85586,2014,03,06,03,00,AAXX 06034 85586 NIL=
85586,2014,03,06,06,00,AAXX 06064 85586 NIL=
85586,2014,03,06,09,00,AAXX 06094 85586 NIL=
85586,2014,03,06,12,00,AAXX 06124 85586 12960 02404 10132 20101 40189 52014 60004 333 20083 30/// 55090 70000=
85586,2014,03,06,15,00,AAXX 06154 85586 42960 02706 10186 20090 40191 54002=
85586,2014,03,06,18,00,AAXX 06184 85586 12960 02311 10192 20088 40186 56005 60001=
85586,2014,03,06,21,00,AAXX 06214 85586 42960 02308 10198 20081 40171 57015=
85586,2014,03,07,00,00,AAXX 07004 85586 11958 02104 10148 20087 40177 53006 60001 70500 333 10206=
85586,2014,03,07,03,00,AAXX 07034 85586 NIL=
85586,2014,03,07,06,00,AAXX 07064 85586 NIL=
85586,2014,03,07,09,00,AAXX 07094 85586 NIL=
85586,2014,03,07,12,00,AAXX 07124 85586 12960 00000 10093 20066 40168 52010 60004 333 20061 30/// 55112 70000=
85586,2014,03,07,15,00,AAXX 07154 85586 42960 02406 10192 20084 40162 56005=
85586,2014,03,07,18,00,AAXX 07184 85586 12960 02309 10198 20093 40156 56006 60001=
85586,2014,03,07,21,00,AAXX 07214 85586 42960 02408 10184 20103 40151 56005=
85586,2014,03,08,00,00,AAXX 08004 85586 12960 00104 10145 20128 40160 52003 60001 333 10203=
85586,2014,03,08,03,00,AAXX 08034 85586 NIL=
85586,2014,03,08,06,00,AAXX 08064 85586 NIL=
85586,2014,03,08,09,00,AAXX 08094 85586 NIL=
85586,2014,03,08,12,00,AAXX 08124 85586 12960 00000 10089 20071 40153 53004 60004 333 20067 30/// 55110 70000=
85586,2014,03,08,15,00,AAXX 08154 85586 42960 02704 10199 20113 40148 54002=
85586,2014,03,08,18,00,AAXX 08184 85586 12960 02314 10190 20103 40134 57015 60001=
85586,2014,03,08,21,00,AAXX 08214 85586 42960 02313 10199 20113 40130 55004=
85586,2014,03,09,00,00,AAXX 09004 85586 12960 02405 10156 20121 40148 53013 60001 333 10214=
85586,2014,03,09,03,00,AAXX 09034 85586 NIL=
85586,2014,03,09,06,00,AAXX 09064 85586 NIL=
85586,2014,03,09,09,00,AAXX 09094 85586 NIL=
85586,2014,03,09,12,00,AAXX 09124 85586 11160 70000 10114 20107 40184 52011 60004 87600 333 20086 55113 56600 70000 82703 87710=
85586,2014,03,09,15,00,AAXX 09154 85586 41412 73105 10150 20133 40193 52015 71042 87600 333 56600 87710=
85586,2014,03,09,18,00,AAXX 09184 85586 11309 82705 10148 20131 40188 57011 60001 74622 886// 333 56099 88709=
85586,2014,03,09,21,00,AAXX 09214 85586 42560 12805 10180 20064 40177 57010 81100 333 56600 81820=
85586,2014,03,10,00,00,AAXX 10004 85586 12960 40304 10130 20098 40179 53001 60001 80001 333 10183 56006 84075=
85586,2014,03,10,03,00,AAXX 10034 85586 NIL=
85586,2014,03,10,06,00,AAXX 10064 85586 NIL=
85586,2014,03,10,09,00,AAXX 10094 85586 NIL=
85586,2014,03,10,12,00,AAXX 10124 85586 12960 30000 10082 20070 40177 52012 60004 83030 333 20082 30/// 55060 56060 70000 83365=
85586,2014,03,10,15,00,AAXX 10154 85586 42960 02807 10175 20105 40184 52008=
85586,2014,03,10,18,00,AAXX 10184 85586 12960 02310 10184 20089 40187 51003 60001=
85586,2014,03,10,21,00,AAXX 10214 85586 42960 12309 10170 20084 40186 54000 80001 333 56000 81075=
85586,2014,03,11,00,00,AAXX 11004 85586 12960 00000 10134 20091 40195 52009 60001 333 10188=
85586,2014,03,11,03,00,AAXX 11034 85586 NIL=
85586,2014,03,11,06,00,AAXX 11064 85586 NIL=
85586,2014,03,11,09,00,AAXX 11094 85586 NIL=
85586,2014,03,11,12,00,AAXX 11124 85586 12960 00000 10109 20082 40175 51004 60004 333 20057 30/// 55101 70000=
85586,2014,03,11,15,00,AAXX 11154 85586 42960 02806 10162 20098 40179 51004=
85586,2014,03,11,18,00,AAXX 11184 85586 12460 22408 10175 20125 40172 56007 60001 82600 333 56600 82710=
85586,2014,03,11,21,00,AAXX 11214 85586 42360 22705 10170 20127 40162 57010 82600 333 56600 82708=
85586,2014,03,12,00,00,AAXX 12004 85586 11208 80205 10134 20120 40163 55001 60001 74611 886// 333 10177 56799 88704=
85586,2014,03,12,03,00,AAXX 12034 85586 NIL=
85586,2014,03,12,06,00,AAXX 12064 85586 NIL=
85586,2014,03,12,09,00,AAXX 12094 85586 NIL=
85586,2014,03,12,12,00,AAXX 12124 85586 11106 81104 10112 20103 40155 53008 60004 74644 886// 333 20102 30/// 55109 56799 70000 88703=
85586,2014,03,12,15,00,AAXX 12154 85586 41320 72604 10144 20114 40157 51002 71044 87600 333 56700 87708=
85586,2014,03,12,18,00,AAXX 12184 85586 11206 82607 10148 20118 40156 50001 60001 74644 886// 333 56799 88704=
85586,2014,03,12,21,00,AAXX 12214 85586 41356 82908 10153 20122 40152 56006 70544 886// 333 56799 88709=
85586,2014,03,13,00,00,AAXX 13004 85586 11356 83306 10144 20121 40148 53003 60001 70522 886// 333 10155 56799 88707=
85586,2014,03,13,03,00,AAXX 13034 85586 NIL=
85586,2014,03,13,06,00,AAXX 13064 85586 NIL=
85586,2014,03,13,09,00,AAXX 13094 85586 NIL=
85586,2014,03,13,12,00,AAXX 13124 85586 11220 83404 10123 20112 40153 52012 69904 75055 886// 333 20118 31/// 55012 56799 79999 88704=
85586,2014,03,13,15,00,AAXX 13154 85586 41356 82908 10148 20102 40167 52014 70522 886// 333 56799 88709=
85586,2014,03,13,18,00,AAXX 13184 85586 12460 83008 10162 20123 40170 51003 60001 886// 333 56799 88712=
85586,2014,03,13,21,00,AAXX 13214 85586 41456 83207 10145 20126 40169 54001 70522 886// 333 56799 88710=
85586,2014,03,14,00,00,AAXX 14004 85586 11356 73203 10134 20123 40172 51003 60001 70522 87600 333 10164 56700 87712=
85586,2014,03,14,03,00,AAXX 14034 85586 NIL=
85586,2014,03,14,06,00,AAXX 14064 85586 NIL=
85586,2014,03,14,09,00,AAXX 14094 85586 NIL=
85586,2014,03,14,12,00,AAXX 14124 85586 11556 82403 10130 20103 40198 52012 60003 70522 885// 333 20130 30/// 55000 56099 79999 88620=
85586,2014,03,14,15,00,AAXX 14154 85586 41458 82806 10142 20107 40207 52009 70522 885// 333 56699 88618=
85586,2014,03,14,18,00,AAXX 14184 85586 12560 12608 10170 20088 40203 56004 60001 81100 333 56600 81820=
85586,2014,03,14,21,00,AAXX 14214 85586 42460 32408 10154 20106 40188 57015 83100 333 56600 83818=
85586,2014,03,15,00,00,AAXX 15004 85586 NIL=
85586,2014,03,15,03,00,AAXX 15034 85586 NIL=
85586,2014,03,15,06,00,AAXX 15064 85586 NIL=
85586,2014,03,15,09,00,AAXX 15094 85586 NIL=
85586,2014,03,15,12,00,AAXX 15124 85586 12460 40000 10100 20092 40161 53005 60004 81630 333 20080 30/// 55056 56660 70000 81710 84365=
85586,2014,03,15,15,00,AAXX 15154 85586 42460 22505 10156 20102 40164 52005 81630 333 56660 81710=
85586,2014,03,15,18,00,AAXX 15184 85586 12460 52509 10150 20119 40160 56005 60001 85600 333 56600 85713=
85586,2014,03,15,21,00,AAXX 15214 85586 41308 82505 10140 20128 40155 57005 74622 886// 333 56099 88709=
85586,2014,03,16,00,00,AAXX 16004 85586 11322 80000 10128 20119 40155 54000 60001 71044 886// 333 10162 56099 88708=
85586,2014,03,16,03,00,AAXX 16034 85586 NIL=
85586,2014,03,16,06,00,AAXX 16064 85586 NIL=
85586,2014,03,16,09,00,AAXX 16094 85586 NIL=
85586,2014,03,16,12,00,AAXX 16124 85586 12960 30000 10120 20109 40171 53007 60004 82031 333 20060 30/// 55052 56066 82366=
85586,2014,03,16,15,00,AAXX 16154 85586 42960 12804 10162 20105 40173 54002 80001 333 56006 81075=
85586,2014,03,16,18,00,AAXX 16184 85586 12960 12412 10180 20106 40159 57014 60001 80001 333 56006 81075=
85586,2014,03,16,21,00,AAXX 16214 85586 42960 12408 10178 20119 40143 57015 80001 333 56006 81075=
85586,2014,03,17,00,00,AAXX 17004 85586 12960 00404 10146 20118 40144 54000 60001 333 10188=
85586,2014,03,17,03,00,AAXX 17034 85586 NIL=
85586,2014,03,17,06,00,AAXX 17064 85586 NIL=
85586,2014,03,17,09,00,AAXX 17094 85586 NIL=
85586,2014,03,17,12,00,AAXX 17124 85586 12960 00000 10105 20094 40135 53005 60004 333 20081 30/// 55101 70000=
85586,2014,03,17,15,00,AAXX 17154 85586 42960 02706 10175 20118 40137 51003=
85586,2014,03,17,18,00,AAXX 17184 85586 12960 02309 10188 20092 40128 57009 60001=
85586,2014,03,17,21,00,AAXX 17214 85586 42960 02506 10172 20101 40116 57012=
85586,2014,03,18,00,00,AAXX 18004 85586 12960 00408 10135 20104 40114 55001 60001 333 10195=
85586,2014,03,18,03,00,AAXX 18034 85586 NIL=
85586,2014,03,18,06,00,AAXX 18064 85586 NIL=
85586,2014,03,18,09,00,AAXX 18094 85586 NIL=
85586,2014,03,18,12,00,AAXX 18124 85586 11358 80404 10118 20098 40134 52018 60003 70522 886// 333 20092 30/// 55108 56799 70000 88707=
85586,2014,03,18,15,00,AAXX 18154 85586 41356 83307 10140 20109 40150 52015 70522 886// 333 56799 88708=
85586,2014,03,18,18,00,AAXX 18184 85586 11458 82806 10152 20117 40156 52006 60001 70522 886// 333 56799 88710=
85586,2014,03,18,21,00,AAXX 18214 85586 41458 72906 10150 20115 40150 56006 70522 87500 333 56600 87615=
85586,2014,03,19,00,00,AAXX 19004 85586 11356 80000 10137 20116 40152 53002 60001 70522 886// 333 10159 56799 88707=
85586,2014,03,19,03,00,AAXX 19034 85586 NIL=
85586,2014,03,19,06,00,AAXX 19064 85586 NIL=
85586,2014,03,19,09,00,AAXX 19094 85586 NIL=
85586,2014,03,19,12,00,AAXX 19124 85586 11456 71103 10122 20104 40162 52017 60004 70522 87500 333 20094 30/// 55000 56600 70000 87613=
85586,2014,03,19,15,00,AAXX 19154 85586 42460 22707 10166 20103 40171 52009 82100 333 56600 82815=
85586,2014,03,19,18,00,AAXX 19184 85586 12460 22708 10170 20106 40167 56004 60001 82100 333 56600 82815=
85586,2014,03,19,21,00,AAXX 19214 85586 42460 73004 10146 20117 40157 57010 87500 333 56700 87615=
85586,2014,03,20,00,00,AAXX 20004 85586 11358 80000 10121 20103 40158 54001 60001 70522 886// 333 10172 56699 88708=
85586,2014,03,20,03,00,AAXX 20034 85586 NIL=
85586,2014,03,20,06,00,AAXX 20064 85586 NIL=
85586,2014,03,20,09,00,AAXX 20094 85586 NIL=
85586,2014,03,20,12,00,AAXX 20124 85586 11103 60000 10098 20094 40148 53009 60004 74442 86600 333 20097 30/// 55056 56000 70000 86702=
85586,2014,03,20,15,00,AAXX 20154 85586 41340 73304 10136 20117 40155 51008 70542 87600 333 56700 87708=
85586,2014,03,20,18,00,AAXX 20184 85586 11204 82705 10140 20117 40148 56007 60001 74142 886// 333 56699 88706=
85586,2014,03,20,21,00,AAXX 20214 85586 41230 82804 10138 20124 40141 56007 71022 886// 333 56699 88706=
85586,2014,03,21,00,00,AAXX 21004 85586 11340 83503 10140 20123 40142 54001 60001 70522 886// 333 10160 56799 88708=
85586,2014,03,21,03,00,AAXX 21034 85586 NIL=
85586,2014,03,21,06,00,AAXX 21064 85586 NIL=
85586,2014,03,21,09,00,AAXX 21094 85586 NIL=
85586,2014,03,21,12,00,AAXX 21124 85586 11940 00000 10071 20059 40146 53013 60004 71000 333 20059 30/// 55014 70000=
85586,2014,03,21,15,00,AAXX 21154 85586 42960 12407 10190 20103 40147 51003 80001 333 56000 81075=
85586,2014,03,21,18,00,AAXX 21184 85586 12960 02309 10195 20087 40140 56007 60001=
85586,2014,03,21,21,00,AAXX 21214 85586 42960 02704 10190 20082 40137 57011=
85586,2014,03,22,00,00,AAXX 22004 85586 12960 00304 10130 20083 40145 52012 60001 333 10210=
85586,2014,03,22,03,00,AAXX 22034 85586 NIL=
85586,2014,03,22,06,00,AAXX 22064 85586 NIL=
85586,2014,03,22,09,00,AAXX 22094 85586 NIL=
85586,2014,03,22,12,00,AAXX 22124 85586 12960 00000 10096 20084 40146 53005 60004 333 10060 30/// 55103 70000=
85586,2014,03,22,15,00,AAXX 22154 85586 42960 03006 10182 20078 40152 52008=
85586,2014,03,22,18,00,AAXX 22184 85586 12560 63008 10175 20127 40158 52006 60001 86600 333 56600 86710=
85586,2014,03,22,21,00,AAXX 22214 85586 41557 13007 10176 20123 40158 54000 70522 81500 333 56600 81620=
85586,2014,03,23,00,00,AAXX 23004 85586 12960 03003 10130 20115 40154 58005 60001 333 10184=
85586,2014,03,23,03,00,AAXX 23034 85586 NIL=
85586,2014,03,23,06,00,AAXX 23064 85586 NIL=
85586,2014,03,23,09,00,AAXX 23094 85586 NIL=
85586,2014,03,23,12,00,AAXX 23124 85586 11450 80403 10138 20120 40168 53006 60004 70522 886// 333 20100 30/// 55093 56099 70000 88710=
85586,2014,03,23,15,00,AAXX 23154 85586 41556 83005 10156 20117 40175 52007 70522 885// 333 56099 88616=
85586,2014,03,23,18,00,AAXX 23184 85586 12560 83005 10166 20121 40169 58005 60001 885// 333 56099 88620=
85586,2014,03,23,21,00,AAXX 23214 85586 41456 82204 10150 20127 40164 57006 70522 886// 333 56099 88712=
85586,2014,03,24,00,00,AAXX 24004 85586 11456 82403 10142 20119 40165 53001 60001 70522 885// 333 10168 56099 88613=
85586,2014,03,24,03,00,AAXX 24034 85586 NIL=
85586,2014,03,24,06,00,AAXX 24064 85586 NIL=
85586,2014,03,24,09,00,AAXX 24094 85586 NIL=
85586,2014,03,24,12,00,AAXX 24124 85586 11110 80000 10119 20115 40167 52016 60004 71022 886// 333 20117 30/// 55000 56099 70000 88702=
85586,2014,03,24,15,00,AAXX 24154 85586 41220 82603 10130 20117 40186 52019 71022 886// 333 56699 88706=
85586,2014,03,24,18,00,AAXX 24184 85586 11230 82705 10140 20115 40183 56003 60001 71022 886// 333 56699 88706=
85586,2014,03,24,21,00,AAXX 24214 85586 41330 82605 10138 20116 40185 54002 71022 886// 333 56699 88708=
85586,2014,03,25,00,00,AAXX 25004 85586 11230 82904 10124 20111 40187 54001 60001 71022 886// 333 10144 56699 88706=
85586,2014,03,25,03,00,AAXX 25034 85586 NIL=
85586,2014,03,25,06,00,AAXX 25064 85586 NIL=
85586,2014,03,25,09,00,AAXX 25094 85586 NIL=
85586,2014,03,25,12,00,AAXX 25124 85586 11230 80000 10113 20109 40157 54000 60004 71022 886// 333 20111 30/// 55000 56099 70000 88704=
85586,2014,03,25,15,00,AAXX 25154 85586 41330 72806 10138 20111 40155 54002 71022 87600 333 56600 87708=
85586,2014,03,25,18,00,AAXX 25184 85586 11330 82805 10134 20108 40152 56003 60001 71022 886// 333 56699 88708=
85586,2014,03,25,21,00,AAXX 25214 85586 41325 82905 10130 20114 40148 56004 71022 886// 333 56699 88708=
85586,2014,03,26,00,00,AAXX 26004 85586 11320 83305 10121 20115 40163 52015 60001 71022 886// 333 10146 56799 88707=
85586,2014,03,26,03,00,AAXX 26034 85586 NIL=
85586,2014,03,26,06,00,AAXX 26064 85586 NIL=
85586,2014,03,26,09,00,AAXX 26094 85586 NIL=
85586,2014,03,26,12,00,AAXX 26124 85586 11458 80000 10139 20114 40167 52011 60004 70522 885// 333 20132 30/// 55005 56699 70000 88615=
85586,2014,03,26,15,00,AAXX 26154 85586 42460 83205 10158 20096 40175 52008 885// 333 56799 88615=
85586,2014,03,26,18,00,AAXX 26184 85586 12460 32909 10178 20091 40173 54000 60001 83100 333 56700 83818=
85586,2014,03,26,21,00,AAXX 26214 85586 42460 62605 10164 20112 40169 57004 86500 333 56600 86618=
85586,2014,03,27,00,00,AAXX 27004 85586 12460 70000 10144 20120 40169 54000 60001 87500 333 10180 56600 87615=
85586,2014,03,27,03,00,AAXX 27034 85586 NIL=
85586,2014,03,27,06,00,AAXX 27064 85586 NIL=
85586,2014,03,27,09,00,AAXX 27094 85586 NIL=
85586,2014,03,27,12,00,AAXX 27124 85586 12460 80000 10140 20113 40168 53012 60004 885// 333 20132 30/// 55040 56699 70000 88613=
85586,2014,03,27,15,00,AAXX 27154 85586 42460 80000 10150 20114 40177 52009 885// 333 56099 88615=
85586,2014,03,27,18,00,AAXX 27184 85586 12560 82405 10166 20097 40176 54000 60001 885// 333 56099 88620=
85586,2014,03,27,21,00,AAXX 27214 85586 42560 42606 10172 20105 40171 57005 84500 333 56600 84630=
85586,2014,03,28,00,00,AAXX 28004 85586 12560 42502 10140 20094 40175 53003 60001 84500 333 10180 56600 84630=
85586,2014,03,28,03,00,AAXX 28034 85586 NIL=
85586,2014,03,28,06,00,AAXX 28064 85586 NIL=
85586,2014,03,28,09,00,AAXX 28094 85586 NIL=
85586,2014,03,28,12,00,AAXX 28124 85586 12960 00000 10070 20062 40164 52010 60004 333 20042 30/// 55012 70000=
85586,2014,03,28,15,00,AAXX 28154 85586 NIL=
85586,2014,03,28,18,00,AAXX 28184 85586 12460 42706 10170 20103 40168 56004 60001 84500 333 56600 84618=
85586,2014,03,28,21,00,AAXX 28214 85586 NIL=
85586,2014,03,29,00,00,AAXX 29004 85586 12460 42203 10130 20113 40160 52006 60001 84500 333 10174 56600 84615=
85586,2014,03,29,03,00,AAXX 29034 85586 NIL=
85586,2014,03,29,06,00,AAXX 29064 85586 NIL=
85586,2014,03,29,09,00,AAXX 29094 85586 NIL=
85586,2014,03,29,12,00,AAXX 29124 85586 11456 80000 10130 20095 40140 53005 60004 70522 885// 333 20090 30/// 55070 56099 70000 88617=
85586,2014,03,29,15,00,AAXX 29154 85586 42560 83307 10158 20071 40141 54002 885// 333 56099 88630=
85586,2014,03,29,18,00,AAXX 29184 85586 12960 12909 10180 20086 40137 57004 60001 80001 333 56006 81075=
85586,2014,03,29,21,00,AAXX 29214 85586 41557 43116 10168 20116 40137 55000 70511 81102 333 56606 81820 84075=
85586,2014,03,30,00,00,AAXX 30004 85586 11557 73104 10140 20098 40154 52016 60001 87500 333 10188 56600 87640=
85586,2014,03,30,03,00,AAXX 30034 85586 NIL=
85586,2014,03,30,06,00,AAXX 30064 85586 NIL=
85586,2014,03,30,09,00,AAXX 30094 85586 NIL=
85586,2014,03,30,12,00,AAXX 30124 85586 12560 30000 10112 20093 40159 53008 60074 83500 333 20112 32/// 55060 56600 70070 83627=
85586,2014,03,30,15,00,AAXX 30154 85586 42460 22412 10159 20110 40163 53005 82100 333 56700 82815=
85586,2014,03,30,18,00,AAXX 30184 85586 12460 12315 10167 20077 40161 58002 60001 81100 333 56700 81815=
85586,2014,03,30,21,00,AAXX 30214 85586 42960 02414 10158 20076 40168 53007=
85586,2014,03,31,00,00,AAXX 31004 85586 12560 12308 10127 20082 40192 52023 60001 81500 333 10173 56700 81625=
85586,2014,03,31,03,00,AAXX 31034 85586 NIL=
85586,2014,03,31,06,00,AAXX 31064 85586 NIL=
85586,2014,03,31,09,00,AAXX 31094 85586 NIL=
85586,2014,03,31,12,00,AAXX 31124 85586 12960 70000 10071 20057 40155 53003 60003 80001 333 20049 31/// 55105 56006 70000 87075=
85586,2014,03,31,15,00,AAXX 31154 85586 42960 69902 10132 20086 40206 52011 83031 333 56000 83365 86073=
85586,2014,03,31,18,00,AAXX 31184 85586 12960 42607 10160 20065 40202 56004 60001 80001 333 56000 84073=
85586,2014,03,31,21,00,AAXX 31214 85586 42960 22308 10156 20076 40193 57009 80001 333 56000 82073=
85586,2014,04,01,00,00,AAXX 01004 85586 11958 00000 10121 20090 40154 55001 60001 70500 333 10163=
85586,2014,04,01,03,00,AAXX 01034 85586 NIL=
85586,2014,04,01,06,00,AAXX 01064 85586 NIL=
85586,2014,04,01,09,00,AAXX 01094 85586 NIL=
85586,2014,04,01,12,00,AAXX 01124 85586 11960 01204 10083 20065 40182 55001 60004 333 20054 31/// 55061=
85586,2014,04,01,15,00,AAXX 01154 85586 42960 02805 10156 20090 40188 51007=
85586,2014,04,01,18,00,AAXX 01184 85586 12960 02706 10172 20086 40185 56003 60001=
85586,2014,04,01,21,00,AAXX 01214 85586 42960 02707 10165 20112 40177 56008=
85586,2014,04,02,00,00,AAXX 02004 85586 12460 32903 10136 20118 40180 53003 60001 83500 333 10183 56600 83612=
85586,2014,04,02,03,00,AAXX 02034 85586 NIL=
85586,2014,04,02,06,00,AAXX 02064 85586 NIL=
85586,2014,04,02,09,00,AAXX 02094 85586 NIL=
85586,2014,04,02,12,00,AAXX 02124 85586 12460 80000 10124 20090 40192 52019 60004 885// 333 20102 30/// 55105 56099 70000 88615=
85586,2014,04,02,15,00,AAXX 02154 85586 42560 72506 10140 20080 40201 52009 87500 333 56600 87620=
85586,2014,04,02,18,00,AAXX 02184 85586 12560 12408 10154 20084 40194 58007 60001 81500 333 56600 81625=
85586,2014,04,02,21,00,AAXX 02214 85586 42560 12410 10148 20083 40185 57009 81500 333 56600 81625=
85586,2014,04,03,00,00,AAXX 03004 85586 12560 12603 10123 20097 40180 57005 60001 81500 333 10158 56600 81625=
85586,2014,04,03,03,00,AAXX 03034 85586 NIL=
85586,2014,04,03,06,00,AAXX 03064 85586 NIL=
85586,2014,04,03,09,00,AAXX 03094 85586 NIL=
85586,2014,04,03,12,00,AAXX 03124 85586 12460 10000 10060 20045 40188 52013 60004 81600 333 20040 30/// 55075 56600 70000 81713=
85586,2014,04,03,15,00,AAXX 03154 85586 42460 22704 10142 20078 40185 52009 82100 333 56600 82810=
85586,2014,04,03,18,00,AAXX 03184 85586 12960 02310 10164 20089 40087 56008 60001=
85586,2014,04,03,21,00,AAXX 03214 85586 42960 02409 10162 20083 40170 56007=
85586,2014,04,04,00,00,AAXX 04004 85586 12960 00000 10110 20076 40172 53002 60001 333 10168=
85586,2014,04,04,03,00,AAXX 04034 85586 NIL=
85586,2014,04,04,06,00,AAXX 04064 85586 NIL=
85586,2014,04,04,09,00,AAXX 04094 85586 NIL=
85586,2014,04,04,12,00,AAXX 04124 85586 11220 80000 10050 20039 40173 52015 60004 71000 887// 333 20036 30/// 55102 56699 70000 88706=
85586,2014,04,04,15,00,AAXX 04154 85586 41230 62804 10124 20104 40183 52012 71042 86600 333 56600 86706=
85586,2014,04,04,18,00,AAXX 04184 85586 12960 02408 10156 20081 40179 56004 60001=
85586,2014,04,04,21,00,AAXX 04214 85586 42960 02309 10148 20095 40177 54002=
85586,2014,04,05,00,00,AAXX 05004 85586 11958 01003 10100 20088 40177 56001 60001 70500 333 10164=
85586,2014,04,05,03,00,AAXX 05034 85586 NIL=
85586,2014,04,05,06,00,AAXX 05064 85586 NIL=
85586,2014,04,05,09,00,AAXX 05094 85586 NIL=
85586,2014,04,05,12,00,AAXX 05124 85586 11206 80000 10103 20095 40174 53010 60004 74244 886// 333 20056 30/// 55066 56799 70000 88704=
85586,2014,04,05,15,00,AAXX 05154 85586 NIL=
85586,2014,04,05,18,00,AAXX 05184 85586 11356 82508 10141 20098 40175 58007 60001 70522 886// 333 56799 88708=
85586,2014,04,05,21,00,AAXX 05214 85586 41458 82808 10138 20103 40166 56009 70522 885// 333 56799 82710 88615=
85586,2014,04,06,00,00,AAXX 06004 85586 11456 82504 10131 20107 40164 56002 60001 70522 885// 333 10145 56799 88615=
85586,2014,04,06,03,00,AAXX 06034 85586 NIL=
85586,2014,04,06,06,00,AAXX 06064 85586 NIL=
85586,2014,04,06,09,00,AAXX 06094 85586 NIL=
85586,2014,04,06,12,00,AAXX 06124 85586 11340 80000 10111 20104 40165 52017 69903 75022 886// 333 20107 31/// 55000 56799 79999 88707=
85586,2014,04,06,15,00,AAXX 06154 85586 41340 80000 10122 20071 40175 51010 70522 886// 333 56799 88708=
85586,2014,04,06,18,00,AAXX 06184 85586 12460 13207 10165 20054 40175 54001 69901 81500 333 56700 81615=
85586,2014,04,06,21,00,AAXX 06214 85586 42960 02906 10163 20088 40177 51002=
85586,2014,04,07,00,00,AAXX 07004 85586 11958 00000 10111 20092 40192 53004 60001 70500 333 10175=
85586,2014,04,07,03,00,AAXX 07034 85586 NIL=
85586,2014,04,07,06,00,AAXX 07064 85586 NIL=
85586,2014,04,07,09,00,AAXX 07094 85586 NIL=
85586,2014,04,07,12,00,AAXX 07124 85586 12960 31004 10081 20070 40212 52019 69903 80001 333 20064 30/// 55000 56000 70000 83075=
85586,2014,04,07,15,00,AAXX 07154 85586 42960 22703 10168 20050 40217 51005 80001 333 56000 82073=
85586,2014,04,07,18,00,AAXX 07184 85586 12460 42807 10166 20082 40212 55005 60001 82101 333 56600 82812 84073=
85586,2014,04,07,21,00,AAXX 07214 85586 42460 32805 10170 20073 40214 54002 82101 333 56600 82815 83070=
85586,2014,04,08,00,00,AAXX 08004 85586 12960 00000 10121 20090 40225 52012 60001 333 10183=
85586,2014,04,08,03,00,AAXX 08034 85586 NIL=
85586,2014,04,08,06,00,AAXX 08064 85586 NIL=
85586,2014,04,08,09,00,AAXX 08094 85586 NIL=
85586,2014,04,08,12,00,AAXX 08124 85586 12960 01006 10100 20085 40209 56002 60004 333 20080 30/// 55098 70000=
85586,2014,04,08,15,00,AAXX 08154 85586 42960 01206 10205 20038 40200 56007=
85586,2014,04,08,18,00,AAXX 08184 85586 12960 02310 10198 20102 40182 57018 60001=
85586,2014,04,08,21,00,AAXX 08214 85586 42960 02310 10185 20121 40170 57012=
85586,2014,04,09,00,00,AAXX 09004 85586 12960 00000 10130 20103 40173 53003 60001 333 10231=
85586,2014,04,09,03,00,AAXX 09034 85586 NIL=
85586,2014,04,09,06,00,AAXX 09064 85586 NIL=
85586,2014,04,09,09,00,AAXX 09094 85586 NIL=
85586,2014,04,09,12,00,AAXX 09124 85586 12960 11502 10092 20076 40173 52008 60004 80001 333 20076 30/// 55103 56006 70000 81075=
85586,2014,04,09,15,00,AAXX 09154 85586 42960 33003 10196 20075 40172 52004 80001 333 56006 83075=
85586,2014,04,09,18,00,AAXX 09184 85586 12960 62309 10184 20114 40166 57007 60001 80002 333 56006 86072=
85586,2014,04,09,21,00,AAXX 09214 85586 42960 82311 10150 20124 40169 53002 85032 333 56066 85366 83072=
85586,2014,04,10,00,00,AAXX 10004 85586 12960 72303 10135 20108 40181 52012 60001 83031 333 10200 56066 83365 87073=
85586,2014,04,10,03,00,AAXX 10034 85586 NIL=
85586,2014,04,10,06,00,AAXX 10064 85586 NIL=
85586,2014,04,10,09,00,AAXX 10094 85586 NIL=
85586,2014,04,10,12,00,AAXX 10124 85586 12960 11504 10108 20070 40206 52014 60004 80002 333 20070 30/// 55052 56006 70000 81075=
85586,2014,04,10,15,00,AAXX 10154 85586 42960 02310 10164 20058 40214 52009=
85586,2014,04,10,18,00,AAXX 10184 85586 12960 02312 10162 20070 40197 56017 60001=
85586,2014,04,10,21,00,AAXX 10214 85586 42960 02312 10168 20071 40192 56005=
85586,2014,04,11,00,00,AAXX 11004 85586 12960 00000 10110 20056 40200 52007 60004 333 10202=
85586,2014,04,11,03,00,AAXX 11034 85586 NIL=
85586,2014,04,11,06,00,AAXX 11064 85586 NIL=
85586,2014,04,11,09,00,AAXX 11094 85586 NIL=
85586,2014,04,11,12,00,AAXX 11124 85586 12960 41504 10111 20055 40219 52021 60003 80001 333 20041 30/// 55101 56006 70000 84075=
85586,2014,04,11,15,00,AAXX 11154 85586 42960 51907 10180 20045 40223 51004 80001 333 56000 85073=
85586,2014,04,11,18,00,AAXX 11184 85586 NIL=
85586,2014,04,11,21,00,AAXX 11214 85586 NIL=
85586,2014,04,12,00,00,AAXX 12004 85586 11958 42005 10146 20063 40230 53014 60001 70511 84030 333 10183 56060 84362=
85586,2014,04,12,03,00,AAXX 12034 85586 NIL=
85586,2014,04,12,06,00,AAXX 12064 85586 NIL=
85586,2014,04,12,09,00,AAXX 12094 85586 NIL=
85586,2014,04,12,12,00,AAXX 12124 85586 12960 01204 10102 20075 40203 56003 60003 333 20083 30/// 55073 70000=
85586,2014,04,12,15,00,AAXX 12154 85586 42960 01507 10206 20069 40197 58005=
85586,2014,04,12,18,00,AAXX 12184 85586 12960 01714 10266 20049 40169 57027 60001=
85586,2014,04,12,21,00,AAXX 12214 85586 42960 02407 10211 21008 40162 56006=
85586,2014,04,13,00,00,AAXX 13004 85586 12960 01706 10188 21025 40168 53005 60001 333 10275=
85586,2014,04,13,03,00,AAXX 13034 85586 NIL=
85586,2014,04,13,06,00,AAXX 13064 85586 NIL=
85586,2014,04,13,09,00,AAXX 13094 85586 NIL=
85586,2014,04,13,12,00,AAXX 13124 85586 12960 01308 10123 20035 40154 55000 60004 333 20073 30/// 55105 70000=
85586,2014,04,13,15,00,AAXX 13154 85586 42960 01109 10221 20031 40150 51002=
85586,2014,04,13,18,00,AAXX 13184 85586 12960 62410 10183 20084 40133 57016 60001 80001 333 56006 86075=
85586,2014,04,13,21,00,AAXX 13214 85586 42960 62206 10213 20068 40127 56006 80001 333 56006 86075=
85586,2014,04,14,00,00,AAXX 14004 85586 11958 50304 10134 20096 40142 53013 60001 70511 80001 333 10223 56006 85075=
85586,2014,04,14,03,00,AAXX 14034 85586 NIL=
85586,2014,04,14,09,00,AAXX 14094 85586 NIL=
85586,2014,04,14,12,00,AAXX 14124 85586 12960 12403 10116 20062 40141 53004 60004 80001 333 20070 30/// 55096 56006 70000 81075=
85586,2014,04,14,15,00,AAXX 14154 85586 42960 01606 10234 20047 40141 52003=
85586,2014,04,14,18,00,AAXX 14184 85586 12960 12407 10198 20092 40122 57020 60001 80001 333 56006 81075=
85586,2014,04,14,21,00,AAXX 14214 85586 42960 13005 10206 20110 40111 56010 80001 333 56006 81075=
85586,2014,04,15,00,00,AAXX 15004 85586 12960 20000 10121 20097 40127 52013 60001 80001 333 10234 56006 81075=
85586,2014,04,15,03,00,AAXX 15034 85586 NIL=
85586,2014,04,15,06,00,AAXX 15064 85586 NIL=
85586,2014,04,15,09,00,AAXX 15094 85586 NIL=
85586,2014,04,15,12,00,AAXX 15124 85586 11204 40000 10068 20061 40134 52003 60004 74644 84600 333 20064 30/// 55099 56600 70000 84705=
85586,2014,04,15,15,00,AAXX 15154 85586 41210 43006 10136 20109 40141 51009 71142 84600 333 56700 84704=
85586,2014,04,15,18,00,AAXX 15184 85586 11212 82705 10134 20117 40133 56008 60001 71042 886// 333 56699 88706=
85586,2014,04,15,21,00,AAXX 15214 85586 41202 82805 10124 20114 40145 56007 74642 886// 333 56699 88704=
85586,2014,04,16,00,00,AAXX 16004 85586 11320 80406 10120 20111 40152 52007 60001 71044 886// 333 10162 56099 88707=
85586,2014,04,16,03,00,AAXX 16034 85586 NIL=
85586,2014,04,16,06,00,AAXX 16064 85586 NIL=
85586,2014,04,16,09,00,AAXX 16094 85586 NIL=
85586,2014,04,16,12,00,AAXX 16124 85586 11320 80000 10106 20098 40173 52006 60004 71022 886// 333 20100 30/// 55022 56099 70000 88707=
85586,2014,04,16,15,00,AAXX 16154 85586 41330 42705 10148 20116 40181 52008 74042 84600 333 56600 84708=
85586,2014,04,16,18,00,AAXX 16184 85586 11960 02709 10156 20089 40177 56004 60001 70042=
85586,2014,04,16,21,00,AAXX 16214 85586 42960 02309 10162 20095 40177 54000=
85586,2014,04,17,00,00,AAXX 17004 85586 12960 30703 10110 20080 40192 52014 60001 83030 333 10184 56060 83365=
85586,2014,04,17,03,00,AAXX 17034 85586 NIL=
85586,2014,04,17,06,00,AAXX 17064 85586 NIL=
85586,2014,04,17,09,00,AAXX 17094 85586 NIL=
85586,2014,04,17,12,00,AAXX 17124 85586 12960 40000 10078 20058 40182 53009 60004 80001 333 20054 30/// 55061 56006 70000 84070=
85586,2014,04,17,15,00,AAXX 17154 85586 42960 51804 10182 20059 40182 54001 80001 333 56000 85070=
85586,2014,04,17,18,00,AAXX 17184 85586 12960 22311 10158 20065 40169 57013 60001 80001 333 56000 82073=
85586,2014,04,17,21,00,AAXX 17214 85586 42960 02305 10156 20064 40159 57010=
85586,2014,04,18,00,00,AAXX 18004 85586 11957 10000 10116 20097 40166 52007 60001 70500 80001 333 10184 56006 81073=
85586,2014,04,18,03,00,AAXX 18034 85586 NIL=
85586,2014,04,18,06,00,AAXX 18064 85586 NIL=
85586,2014,04,18,09,00,AAXX 18094 85586 NIL=
85586,2014,04,18,12,00,AAXX 18124 85586 12960 50000 10043 20011 40172 53011 60004 83031 333 20034 30/// 55063 56066 70000 83365=
85586,2014,04,18,15,00,AAXX 18154 85586 42960 32505 10151 20079 40178 52009 80001 333 56006 83073=
85586,2014,04,18,18,00,AAXX 18184 85586 12960 32605 10178 20092 40168 58009 60001 82031 333 56066 82365=
85586,2014,04,18,21,00,AAXX 18214 85586 42960 12303 10170 20117 40161 57007 80001 333 56006 81073=
85586,2014,04,19,00,00,AAXX 19004 85586 12960 00000 10102 20081 40171 53008 60001 333 10190=
85586,2014,04,19,03,00,AAXX 19034 85586 NIL=
85586,2014,04,19,06,00,AAXX 19064 85586 NIL=
85586,2014,04,19,09,00,AAXX 19094 85586 NIL=
85586,2014,04,19,12,00,AAXX 19124 85586 12960 02103 10070 21007 40170 53009 60004 333 20042 30/// 55079 70000=
85586,2014,04,19,15,00,AAXX 19154 85586 42960 01706 10206 20001 40174 52006=
85586,2014,04,19,18,00,AAXX 19184 85586 12960 02411 10178 20077 40162 57012 60001=
85586,2014,04,19,21,00,AAXX 19214 85586 42960 02404 10174 20104 40159 57003=
85586,2014,04,20,00,00,AAXX 20004 85586 12960 30000 10126 20096 40165 53005 60001 80001 333 10244 56006 83073=
85586,2014,04,20,03,00,AAXX 20034 85586 NIL=
85586,2014,04,20,06,00,AAXX 20064 85586 NIL=
85586,2014,04,20,09,00,AAXX 20094 85586 NIL=
85586,2014,04,20,12,00,AAXX 20124 85586 12960 31903 10040 20032 40167 52009 60004 80001 333 20026 30/// 55095 56006 70000 83075=
85586,2014,04,20,15,00,AAXX 20154 85586 42960 22505 10170 20070 40169 52006 80001 333 56006 82075=
85586,2014,04,20,18,00,AAXX 20184 85586 12960 12406 10168 20092 40161 58008 60001 80001 333 56006 81075=
85586,2014,04,20,21,00,AAXX 20214 85586 42960 20105 10160 20087 40158 58003 80001 333 56006 82075=
85586,2014,04,21,00,00,AAXX 21004 85586 12960 30000 10098 20074 40164 52004 60001 80002 333 10174 56006 83075=
85586,2014,04,21,03,00,AAXX 21034 85586 NIL=
85586,2014,04,21,06,00,AAXX 21064 85586 NIL=
85586,2014,04,21,09,00,AAXX 21094 85586 NIL=
85586,2014,04,21,12,00,AAXX 21124 85586 12960 01203 10084 20047 40178 52011 60004 333 20052 30/// 55089 70000=
85586,2014,04,21,15,00,AAXX 21154 85586 42960 02304 10202 20076 40176 54001=
85586,2014,04,21,18,00,AAXX 21184 85586 11250 22312 10142 20113 40166 57010 60001 74000 82600 333 56500 82706=
85586,2014,04,21,21,00,AAXX 21214 85586 42960 09902 10160 20108 40155 57011=
85586,2014,04,22,00,00,AAXX 22004 85586 12960 00000 10100 20087 40161 53006 60001 333 10212=
85586,2014,04,22,03,00,AAXX 22034 85586 NIL=
85586,2014,04,22,06,00,AAXX 22064 85586 NIL=
85586,2014,04,22,09,00,AAXX 22094 85586 NIL=
85586,2014,04,22,12,00,AAXX 22124 85586 12960 00000 10046 20038 40145 52006 60004 333 20038 30/// 55105 70000=
85586,2014,04,22,15,00,AAXX 22154 85586 42960 02904 10156 20092 40152 52009=
85586,2014,04,22,18,00,AAXX 22184 85586 12960 02706 10162 20109 40143 57008 60001=
85586,2014,04,22,21,00,AAXX 22214 85586 42960 03204 10152 20105 40135 57009=
85586,2014,04,23,00,00,AAXX 23004 85586 12960 00000 10110 20097 40140 53004 60001 333 10175=
85586,2014,04,23,03,00,AAXX 23034 85586 NIL=
85586,2014,04,23,06,00,AAXX 23064 85586 NIL=
85586,2014,04,23,09,00,AAXX 23094 85586 NIL=
85586,2014,04,23,12,00,AAXX 23124 85586 11206 80000 10098 20088 40166 53016 60004 74244 887// 333 20061 30/// 55094 56799 70000 88604=
85586,2014,04,23,15,00,AAXX 23154 85586 41208 83305 10121 20112 40187 52021 74244 886// 333 56799 88705=
85586,2014,04,23,18,00,AAXX 23184 85586 11357 73005 10148 20097 40180 56007 69901 70542 87600 333 56700 87708=
85586,2014,04,23,21,00,AAXX 23214 85586 41357 72705 10132 20105 40178 56002 70522 87600 333 56600 87708=
85586,2014,04,24,00,00,AAXX 24004 85586 11456 83304 10131 20100 40184 53006 60001 70522 886// 333 10149 56799 88711=
85586,2014,04,24,03,00,AAXX 24034 85586 NIL=
85586,2014,04,24,06,00,AAXX 24064 85586 NIL=
85586,2014,04,24,09,00,AAXX 24094 85586 NIL=
85586,2014,04,24,12,00,AAXX 24124 85586 NIL=
85586,2014,04,24,15,00,AAXX 24154 85586 41220 83304 10119 20098 40182 52014 71022 886// 333 56799 88704=
85586,2014,04,24,18,00,AAXX 24184 85586 11225 83106 10130 20099 40172 57010 71022 886// 333 56799 88706=
85586,2014,04,24,21,00,AAXX 24214 85586 41206 83304 10126 20110 40170 58003 74022 886// 333 56799 88704=
85586,2014,04,25,00,00,AAXX 25004 85586 11208 80000 10123 20107 40170 55000 69901 75044 886// 333 10133 56799 88706=
85586,2014,04,25,03,00,AAXX 25034 85586 NIL=
85586,2014,04,25,06,00,AAXX 25064 85586 NIL=
85586,2014,04,25,09,00,AAXX 25094 85586 NIL=
85586,2014,04,25,12,00,AAXX 25124 85586 11208 80704 10111 20097 40159 53009 69924 74255 886// 333 20105 31/// 55000 56799 70002 88704=
85586,2014,04,25,15,00,AAXX 25154 85586 41220 83405 10116 20103 40180 52019 71055 886// 333 56799 88706=
85586,2014,04,25,18,00,AAXX 25184 85586 11340 83211 10131 20104 40174 58006 69901 70522 886// 333 56799 88709=
85586,2014,04,25,21,00,AAXX 25214 85586 41456 83206 10137 20095 40167 56007 70522 885// 333 56799 88612=
85586,2014,04,26,00,00,AAXX 26004 85586 11456 80000 10131 20108 40167 55000 69901 70522 885// 333 10136 56799 88615=
85586,2014,04,26,03,00,AAXX 26034 85586 NIL=
85586,2014,04,26,06,00,AAXX 26064 85586 NIL=
85586,2014,04,26,09,00,AAXX 26094 85586 NIL=
85586,2014,04,26,12,00,AAXX 26124 85586 11656 70903 10130 20085 40177 52011 69904 70522 87500 333 20120 30/// 55000 56600 79999 87640=
85586,2014,04,26,15,00,AAXX 26154 85586 41558 73305 10168 20075 40192 52016 70522 81530 333 56660 81626 87360=
85586,2014,04,26,18,00,AAXX 26184 85586 12560 73007 10180 20047 40186 58006 60001 82530 333 56660 82630 87360=
85586,2014,04,26,21,00,AAXX 26214 85586 42960 72905 10156 20080 40188 53002 87030 333 56600 87360=
85586,2014,04,27,00,00,AAXX 27004 85586 12960 70000 10124 20083 40194 52004 60001 83031 333 10194 56066 83360 85075=
85586,2014,04,27,03,00,AAXX 27034 85586 NIL=
85586,2014,04,27,06,00,AAXX 27064 85586 NIL=
85586,2014,04,27,09,00,AAXX 27094 85586 NIL=
85586,2014,04,27,12,00,AAXX 27124 85586 12960 10000 10070 20062 40211 52006 60004 80001 333 20050 30/// 55014 56006 70000 81075=
85586,2014,04,27,15,00,AAXX 27154 85586 42960 02704 10176 20083 40212 52004=
85586,2014,04,27,18,00,AAXX 27184 85586 12960 02310 10180 20090 40188 54000 60001=
85586,2014,04,27,21,00,AAXX 27214 85586 42960 32311 10156 20104 40182 57006 80001 333 56006 83075=
85586,2014,04,28,00,00,AAXX 28004 85586 12960 30000 10114 20089 40193 53009 60001 80001 333 10180 56006 83075=
85586,2014,04,28,03,00,AAXX 28034 85586 NIL=
85586,2014,04,28,06,00,AAXX 28064 85586 NIL=
85586,2014,04,28,09,00,AAXX 28094 85586 NIL=
85586,2014,04,28,12,00,AAXX 28124 85586 12960 70000 10036 20024 40169 53003 60004 80002 333 20034 30/// 55083 56006 70000 87075=
85586,2014,04,28,15,00,AAXX 28154 85586 42960 62503 10132 20060 40171 51005 80001 333 56000 86073=
85586,2014,04,28,18,00,AAXX 28184 85586 12960 62408 10148 20077 40156 57015 60001 80001 333 56000 86073=
85586,2014,04,28,21,00,AAXX 28214 85586 42960 52406 10140 20081 40154 54002 80001 333 56000 85073=
85586,2014,04,29,00,00,AAXX 29004 85586 12960 60603 10096 20077 40161 51007 60001 86030 333 10158 56000 86365=
85586,2014,04,29,03,00,AAXX 29034 85586 NIL=
85586,2014,04,29,06,00,AAXX 29064 85586 NIL=
85586,2014,04,29,09,00,AAXX 29094 85586 NIL=
85586,2014,04,29,12,00,AAXX 29124 85586 12960 20000 10026 20016 40161 53009 60003 80001 333 20024 30/// 55069 56006 70000 82075=
85586,2014,04,29,15,00,AAXX 29154 85586 41958 12606 10131 20072 40170 52008 70500 81030 333 56060 81365=
85586,2014,04,29,18,00,AAXX 29184 85586 12960 12309 10148 20059 40162 56008 60001 80001 333 56000 81070=
85586,2014,04,29,21,00,AAXX 29214 85586 42960 02406 10140 20080 40165 51003=
85586,2014,04,30,00,00,AAXX 30004 85586 11958 00406 10096 20070 40170 52007 60001 70500 333 10153=
85586,2014,04,30,03,00,AAXX 30034 85586 NIL=
85586,2014,04,30,06,00,AAXX 30064 85586 NIL=
85586,2014,04,30,09,00,AAXX 30094 85586 NIL=
85586,2014,04,30,12,00,AAXX 30124 85586 11960 30000 10032 20020 40195 53021 60004 80001 333 20023 30/// 55088 56006 83075=
85586,2014,04,30,15,00,AAXX 30154 85586 41356 83209 10123 20093 40216 52012 70522 886// 333 56799 88709=
85586,2014,04,30,18,00,AAXX 30184 85586 NIL=
85586,2014,04,30,21,00,AAXX 30214 85586 NIL=
85586,2014,05,01,00,00,AAXX 01004 85586 11840 82404 10123 20084 40219 52013 60001 70522 8803/ 333 10145 56069 88358=
85586,2014,05,01,03,00,AAXX 01034 85586 NIL=
85586,2014,05,01,06,00,AAXX 01064 85586 NIL=
85586,2014,05,01,09,00,AAXX 01094 85586 NIL=
85586,2014,05,01,12,00,AAXX 01124 85586 11958 80000 10114 20077 40163 56003 69903 70522 8803/ 333 20107 30/// 55006 56069 70000 88359=
85586,2014,05,01,15,00,AAXX 01154 85586 41558 80000 10128 20098 40173 53011 70522 885// 333 56799 88620=
85586,2014,05,01,18,00,AAXX 01184 85586 NIL=
85586,2014,05,01,21,00,AAXX 01214 85586 NIL=
85586,2014,05,02,00,00,AAXX 02004 85586 11558 80904 10142 20109 40155 57029 69961 70522 882// 333 10148 56799 88825=
85586,2014,05,02,03,00,AAXX 02034 85586 NIL=
85586,2014,05,02,06,00,AAXX 02064 85586 NIL=
85586,2014,05,02,09,00,AAXX 02094 85586 NIL=
85586,2014,05,02,12,00,AAXX 02124 85586 11958 80000 10124 20113 40149 57009 60054 76062 8803/ 333 20124 31/// 55000 56099 70051 88362=
85586,2014,05,02,15,00,AAXX 02154 85586 41460 80000 10146 20114 40161 52012 70262 8353/ 333 56699 83613 88362=
85586,2014,05,02,18,00,AAXX 02184 85586 11457 83403 10164 20142 54000 60001 70522 8353/ 333 56699 81610 83620 88359=
85586,2014,05,02,21,00,AAXX 02214 85586 41157 83202 10158 20132 40158 57002 70562 8163/ 333 56699 81703 88359=
85586,2014,05,03,00,00,AAXX 03004 85586 11558 83205 10144 20130 40166 52007 69961 76022 8253/ 333 10166 56699 56799 82615 88359=
85586,2014,05,03,03,00,AAXX 03034 85586 NIL=
85586,2014,05,03,06,00,AAXX 03064 85586 NIL=
85586,2014,05,03,09,00,AAXX 03094 85586 NIL=
85586,2014,05,03,12,00,AAXX 03124 85586 11560 71206 10150 20124 40181 52012 60114 70266 83530 333 20136 30/// 55000 56660 70114 83620 85362=
85586,2014,05,03,15,00,AAXX 03154 85586 42960 12805 10206 20136 40188 52009 80001 333 56006 81075=
85586,2014,05,03,18,00,AAXX 03184 85586 12460 22607 10176 20143 40194 52005 60001 81501 333 56606 81615=
85586,2014,05,03,21,00,AAXX 03214 85586 41457 80000 10156 20143 40201 52008 70522 886// 333 56099 88713=
85586,2014,05,04,00,00,AAXX 04004 85586 11440 80000 10141 20131 40217 52013 60001 71022 826// 333 10210 56099 88710=
85586,2014,05,04,03,00,AAXX 04034 85586 NIL=
85586,2014,05,04,06,00,AAXX 04064 85586 NIL=
85586,2014,05,04,09,00,AAXX 04094 85586 NIL=
85586,2014,05,04,12,00,AAXX 04124 85586 11101 80603 10120 20111 40214 52010 60004 74642 886// 333 20110 31/// 55061 56099 70000 88703=
85586,2014,05,04,15,00,AAXX 04154 85586 41457 30000 10160 20149 40217 52004 70544 81602 333 56606 81710 83075=
85586,2014,05,04,18,00,AAXX 04184 85586 12560 52404 10166 20134 40208 57007 60001 81501 333 56606 81626 85075=
85586,2014,05,04,21,00,AAXX 04214 85586 42960 62404 10160 20134 40201 57008 80002 333 56006 86073=
85586,2014,05,05,00,00,AAXX 05004 85586 12960 30000 10124 20113 40207 53006 60001 80002 333 10180 56006 83073=
85586,2014,05,05,03,00,AAXX 05034 85586 NIL=
85586,2014,05,05,06,00,AAXX 05064 85586 NIL=
85586,2014,05,05,09,00,AAXX 05094 85586 NIL=
85586,2014,05,05,12,00,AAXX 05124 85586 11103 80000 10115 20106 40201 53005 60003 74644 886// 333 20111 31/// 55056 56799 70000 88703=
85586,2014,05,05,15,00,AAXX 05154 85586 41215 82403 10136 20122 40208 51007 71042 8561/ 333 56559 85704 88458=
85586,2014,05,05,18,00,AAXX 05184 85586 11208 82304 10152 20135 40186 57022 60001 74042 8561/ 333 56559 85706 88462=
85586,2014,05,05,21,00,AAXX 05214 85586 41940 80000 10146 20126 40182 56004 70522 8802/ 333 56059 88462=
85586,2014,05,06,00,00,AAXX 06004 85586 11940 40904 10133 20117 40188 51006 60001 71022 84010 333 10156 56060 84460=
85586,2014,05,06,03,00,AAXX 06034 85586 NIL=
85586,2014,05,06,06,00,AAXX 06064 85586 NIL=
85586,2014,05,06,09,00,AAXX 06094 85586 NIL=
85586,2014,05,06,12,00,AAXX 06124 85586 11908 80000 10107 20097 40182 53011 60004 74622 8803/ 333 20099 31/// 55000 56069 70000 88362=
85586,2014,05,06,15,00,AAXX 06154 85586 41940 23004 10178 20143 40182 50000 70544 80001 333 56006 82075=
85586,2014,05,06,18,00,AAXX 06184 85586 12960 22604 10182 20107 40174 56008 60001 80001 333 56000 82075=
85586,2014,05,06,21,00,AAXX 06214 85586 42960 32306 10162 20103 40179 51005 80001 333 56005 83075=
85586,2014,05,07,00,00,AAXX 07004 85586 11956 00000 10124 20104 40193 52014 60001 70500 333 10186=
85586,2014,05,07,03,00,AAXX 07034 85586 NIL=
85586,2014,05,07,06,00,AAXX 07064 85586 NIL=
85586,2014,05,07,09,00,AAXX 07094 85586 NIL=
85586,2014,05,07,12,00,AAXX 07124 85586 11958 63004 10091 20081 40199 53009 60004 70511 80001 333 20076 31/// 55080 56006 70000 86075=
85586,2014,05,07,15,00,AAXX 07154 85586 41958 42105 10197 20129 40200 51002 70511 80001 333 56006 84075=
85586,2014,05,07,18,00,AAXX 07184 85586 12960 32409 10197 20132 40181 57019 60001 80001 333 56000 83075=
85586,2014,05,07,21,00,AAXX 07214 85586 42960 42205 10196 20138 40169 56011 80001 333 56006 84075=
85586,2014,05,08,00,00,AAXX 08004 85586 11956 60000 10138 20125 40179 53009 60001 70500 80008 333 10229 56006 86273=
85586,2014,05,08,03,00,AAXX 08034 85586 NIL=
85586,2014,05,08,06,00,AAXX 08064 85586 NIL=
85586,2014,05,08,09,00,AAXX 08094 85586 NIL=
85586,2014,05,08,12,00,AAXX 08124 85586 11320 80603 10100 20089 40167 52012 60004 71022 886// 333 20092 31/// 55072 56099 70000 88707=
85586,2014,05,08,15,00,AAXX 08154 85586 41202 83303 10130 20122 40179 52013 74042 886// 333 56799 88704=
85586,2014,05,08,18,00,AAXX 08184 85586 11202 82405 10130 20122 40173 56006 60001 74042 886// 333 56599 88704=
85586,2014,05,08,21,00,AAXX 08214 85586 41102 83003 10126 20118 40180 51007 75152 886// 333 56699 88703=
85586,2014,05,09,00,00,AAXX 09004 85586 11208 80000 10122 20114 40187 51007 69921 74042 886// 333 10138 56699 88706=
85586,2014,05,09,03,00,AAXX 09034 85586 NIL=
85586,2014,05,09,06,00,AAXX 09064 85586 NIL=
85586,2014,05,09,09,00,AAXX 09094 85586 NIL=
85586,2014,05,09,12,00,AAXX 09124 85586 11320 80000 10112 20104 40188 52006 60014 71055 886// 333 20110 31/// 55000 56099 70008 88708=
85586,2014,05,09,15,00,AAXX 09154 85586 41208 83004 10120 20112 40200 52013 74022 886// 333 56799 88706=
85586,2014,05,09,18,00,AAXX 09184 85586 11206 82903 10128 20118 40200 54000 69911 75042 886// 333 56699 88705=
85586,2014,05,09,21,00,AAXX 09214 85586 41220 89902 10132 20123 40197 56003 71042 886// 333 56699 88706=
85586,2014,05,10,00,00,AAXX 10004 85586 11208 80000 10120 20110 40200 51003 69911 74042 886// 333 10135 56099 88706=
85586,2014,05,10,03,00,AAXX 10034 85586 NIL=
85586,2014,05,10,06,00,AAXX 10064 85586 NIL=
85586,2014,05,10,09,00,AAXX 10094 85586 NIL=
85586,2014,05,10,12,00,AAXX 10124 85586 11530 70000 10124 20113 40173 54000 69913 71022 87500 333 20116 31/// 55000 56600 79999 87625=
85586,2014,05,10,15,00,AAXX 10154 85586 41450 82403 10142 20124 40182 52009 70522 885// 333 56699 82617 88626=
85586,2014,05,10,18,00,AAXX 10184 85586 11440 82904 10154 20128 40171 58011 60001 70522 885// 333 56699 82615 88626=
85586,2014,05,10,21,00,AAXX 10214 85586 41530 80000 10140 20129 40168 58003 71022 82531 333 56666 82626 83365 85075=
85586,2014,05,11,00,00,AAXX 11004 85586 11208 83103 10124 20115 40174 53006 60001 74622 886// 333 10156 56099 88706=
85586,2014,05,11,03,00,AAXX 11034 85586 NIL=
85586,2014,05,11,06,00,AAXX 11064 85586 NIL=
85586,2014,05,11,09,00,AAXX 11094 85586 NIL=
85586,2014,05,11,12,00,AAXX 11124 85586 11106 80000 10126 20115 40191 52016 60004 74244 886// 333 20123 31/// 55000 56799 70000 88703=
85586,2014,05,11,15,00,AAXX 11154 85586 41220 83404 10136 20127 40206 52007 71044 886// 333 56799 88706=
85586,2014,05,11,18,00,AAXX 11184 85586 11456 82806 10156 20115 40200 58006 60001 70522 885// 333 56799 88612=
85586,2014,05,11,21,00,AAXX 11214 85586 41456 82604 10143 20124 40198 56002 70522 885// 333 56799 88615=
85586,2014,05,12,00,00,AAXX 12004 85586 11456 82304 10133 20117 40206 53008 60001 70522 885// 333 10157 56799 88615=
85586,2014,05,12,03,00,AAXX 12034 85586 NIL=
85586,2014,05,12,06,00,AAXX 12064 85586 NIL=
85586,2014,05,12,09,00,AAXX 12094 85586 NIL=
85586,2014,05,12,12,00,AAXX 12124 85586 11106 80000 10103 20094 40207 53011 60004 74444 886// 333 20101 31/// 55001 56799 70000 88703=
85586,2014,05,12,15,00,AAXX 12154 85586 41206 82405 10121 20105 40210 52003 74644 886// 333 56799 88704=
85586,2014,05,12,18,00,AAXX 12184 85586 11958 42405 10146 20100 40192 57019 60001 70541 80001 333 56006 84075=
85586,2014,05,12,21,00,AAXX 12214 85586 42960 42406 10138 20093 40188 56004 80001 333 56005 84073=
85586,2014,05,13,00,00,AAXX 13004 85586 11958 40000 10094 20079 40194 53006 60001 70511 80001 333 10148 56006 84075=
85586,2014,05,13,03,00,AAXX 13034 85586 NIL=
85586,2014,05,13,06,00,AAXX 13064 85586 NIL=
85586,2014,05,13,09,00,AAXX 13094 85586 NIL=
85586,2014,05,13,12,00,AAXX 13124 85586 11908 20000 10049 20038 40189 53003 60004 74611 80001 333 20047 31/// 55049 56006 70000 82075=
85586,2014,05,13,15,00,AAXX 13154 85586 41940 42504 10141 20099 40192 51003 70500 80001 333 56006 84075=
85586,2014,05,13,18,00,AAXX 13184 85586 12960 52705 10158 20083 40183 57009 60001 80001 333 56006 85073=
85586,2014,05,13,21,00,AAXX 13214 85586 41958 69902 10138 20106 40178 56005 70522 85031 333 56055 85362 86073=
85586,2014,05,14,00,00,AAXX 14004 85586 11956 80304 10128 20115 40185 53007 60001 70522 8803/ 333 10159 56069 88362=
85586,2014,05,14,03,00,AAXX 14034 85586 NIL=
85586,2014,05,14,06,00,AAXX 14064 85586 NIL=
85586,2014,05,14,09,00,AAXX 14094 85586 NIL=
85586,2014,05,14,12,00,AAXX 14124 85586 11950 50000 10082 20072 40180 56001 60004 71022 84031 333 20082 31/// 55060 56066 70000 84365 83075=
85586,2014,05,14,15,00,AAXX 14154 85586 41356 32805 10144 20112 40190 52011 70511 81601 333 56606 81708 83075=
85586,2014,05,14,18,00,AAXX 14184 85586 12460 22306 10160 20118 40177 58012 60001 81601 333 56606 81710=
85586,2014,05,14,21,00,AAXX 14214 85586 42960 72304 10160 20124 40172 57005 80001 333 56006 87075=
85586,2014,05,15,00,00,AAXX 15004 85586 12960 60000 10124 20111 40187 53014 60001 80002 333 10167 56006 86073=
85586,2014,05,15,03,00,AAXX 15034 85586 NIL=
85586,2014,05,15,06,00,AAXX 15064 85586 NIL=
85586,2014,05,15,09,00,AAXX 15094 85586 NIL=
85586,2014,05,15,12,00,AAXX 15124 85586 11901 51803 10070 20062 40201 52010 60004 74422 80001 333 20070 31/// 55072 56006 70000 85075=
85586,2014,05,15,15,00,AAXX 15154 85586 41958 12803 10150 20125 40207 52009 70522 80001 333 56006 81075=
85586,2014,05,15,18,00,AAXX 15184 85586 11208 62706 10144 20127 40192 57015 60001 74000 86600 333 56600 86704=
85586,2014,05,15,21,00,AAXX 15214 85586 41220 32305 10134 20118 40192 54000 74042 83601 333 56606 83704 83075=
85586,2014,05,16,00,00,AAXX 16004 85586 11208 80000 10128 20119 40199 51007 60001 74042 886// 333 10168 56099 88706=
85586,2014,05,16,03,00,AAXX 16034 85586 NIL=
85586,2014,05,16,06,00,AAXX 16064 85586 NIL=
85586,2014,05,16,09,00,AAXX 16094 85586 NIL=
85586,2014,05,16,12,00,AAXX 16124 85586 11306 81506 10120 20113 40202 52004 60004 74642 886// 333 20104 31/// 55054 56099 70000 88707=
85586,2014,05,16,15,00,AAXX 16154 85586 41458 51608 10158 20126 40211 52010 70522 85500 333 56300 85612=
85586,2014,05,16,18,00,AAXX 16184 85586 12960 12308 10176 20123 40186 57025 60001 80001 333 56000 81075=
85586,2014,05,16,21,00,AAXX 16214 85586 42960 11908 10212 20109 40173 58010 80001 333 56006 81075=
85586,2014,05,17,00,00,AAXX 17004 85586 12960 01605 10148 20104 40175 54001 60001 333 10218=
85586,2014,05,17,03,00,AAXX 17034 85586 NIL=
85586,2014,05,17,06,00,AAXX 17064 85586 NIL=
85586,2014,05,17,09,00,AAXX 17094 85586 NIL=
85586,2014,05,17,12,00,AAXX 17124 85586 11958 71404 10093 20075 40171 53001 60004 705// 80001 333 20107 31/// 55068 56006 70000 87075=
85586,2014,05,17,15,00,AAXX 17154 85586 43960 61105 10144 20125 40177 51005 80001 333 56006 86075=
85586,2014,05,17,18,00,AAXX 17184 85586 13960 72604 10151 20091 40168 58010 60001 87030 333 56060 87362=
85586,2014,05,17,21,00,AAXX 17214 85586 42960 22404 10141 20091 40160 56008 80001 333 56006 82075=
85586,2014,05,18,00,00,AAXX 18004 85586 11958 21004 10078 20063 40170 52009 60001 70500 80001 333 10157 56006 82075=
85586,2014,05,18,03,00,AAXX 18034 85586 NIL=
85586,2014,05,18,06,00,AAXX 18064 85586 NIL=
85586,2014,05,18,09,00,AAXX 18094 85586 NIL=
85586,2014,05,18,12,00,AAXX 18124 85586 11956 50000 10046 20036 40183 53010 60004 70511 80001 333 20042 31/// 55031 56006 70000 85075=
85586,2014,05,18,15,00,AAXX 18154 85586 41958 00000 10166 20100 40189 51005 70511=
85586,2014,05,18,18,00,AAXX 18184 85586 12960 02905 10184 20033 40175 58014 60001=
85586,2014,05,18,21,00,AAXX 18214 85586 42460 72504 10152 20103 40181 53006 87500 333 56700 87615=
85586,2014,05,19,00,00,AAXX 19004 85586 11356 80000 10138 20115 40194 52013 60001 70522 886// 333 10197 56799 88708=
85586,2014,05,19,03,00,AAXX 19034 85586 NIL=
85586,2014,05,19,06,00,AAXX 19064 85586 NIL=
85586,2014,05,19,09,00,AAXX 19094 85586 NIL=
85586,2014,05,19,12,00,AAXX 19124 85586 11208 81404 10112 20100 40175 57006 60004 74444 886// 333 20109 31/// 55069 56799 70000 88704=
85586,2014,05,19,15,00,AAXX 19154 85586 41440 70000 10131 20107 40177 51002 70544 87500 333 56700 87612=
85586,2014,05,19,18,00,AAXX 19184 85586 11315 72704 10126 20113 40168 57009 60001 71022 87600 333 56600 87708=
85586,2014,05,19,21,00,AAXX 19214 85586 41308 89902 10116 20107 40173 51005 74042 886// 333 56699 88708=
85586,2014,05,20,00,00,AAXX 20004 85586 11206 80104 10114 20099 40169 58004 60001 74622 886// 333 10155 56799 88704=
85586,2014,05,20,03,00,AAXX 20034 85586 NIL=
85586,2014,05,20,06,00,AAXX 20064 85586 NIL=
85586,2014,05,20,09,00,AAXX 20094 85586 NIL=
85586,2014,05,20,12,00,AAXX 20124 85586 11450 70000 10070 20062 40162 53003 60004 71022 87500 333 20070 30/// 55026 56600 70000 87616=
85586,2014,05,20,15,00,AAXX 20154 85586 41458 69902 10118 20097 40167 51007 70522 83530 333 56660 83618 86365=
85586,2014,05,20,18,00,AAXX 20184 85586 12460 53207 10144 20096 40157 57010 60001 83530 333 56770 83615 85365=
85586,2014,05,20,21,00,AAXX 20214 85586 42460 53407 10146 20098 40158 54001 84830 333 56770 84818 83362=
85586,2014,05,21,00,00,AAXX 21004 85586 11450 80303 10128 20115 40171 52013 60021 78182 885// 333 10154 56899 88615=
85586,2014,05,21,03,00,AAXX 21034 85586 NIL=
85586,2014,05,21,06,00,AAXX 21064 85586 NIL=
85586,2014,05,21,09,00,AAXX 21094 85586 NIL=
85586,2014,05,21,12,00,AAXX 21124 85586 11556 80405 10116 20089 40168 53006 60034 78062 8583/ 333 20110 31/// 55018 56779 70034 86823 83363=
85586,2014,05,21,15,00,AAXX 21154 85586 41457 70304 10116 20103 40178 52010 76086 82830 333 56770 82815 87360=
85586,2014,05,21,18,00,AAXX 21184 85586 11440 82608 10100 20092 40193 52014 60181 78186 8583/ 333 56799 81910 85815 88358=
85586,2014,05,21,21,00,AAXX 21214 85586 41550 83604 10098 20083 40194 54001 76366 8553/ 333 56709 85620 88359=
85586,2014,05,22,00,00,AAXX 22004 85586 11950 50611 10092 20074 40190 58004 60151 71066 85030 333 10124 56010 85359=
85586,2014,05,22,03,00,AAXX 22034 85586 NIL=
85586,2014,05,22,06,00,AAXX 22064 85586 NIL=
85586,2014,05,22,09,00,AAXX 22094 85586 NIL=
85586,2014,05,22,12,00,AAXX 22124 85586 11560 21004 10072 20062 40193 52007 60324 70162 82500 333 20066 32/// 55000 56600 70324 82630=
85586,2014,05,22,15,00,AAXX 22154 85586 42960 11105 10136 20068 40193 51003 81030 333 56000 81363=
85586,2014,05,22,18,00,AAXX 22184 85586 12960 11808 10176 20051 40178 57015 60001 80001 333 56000 81073=
85586,2014,05,22,21,00,AAXX 22214 85586 42960 02303 10162 20098 40173 56005=
85586,2014,05,23,00,00,AAXX 23004 85586 12960 00000 10096 20082 40177 51004 60001 333 10182=
85586,2014,05,23,03,00,AAXX 23034 85586 NIL=
85586,2014,05,23,06,00,AAXX 23064 85586 NIL=
85586,2014,05,23,09,00,AAXX 23094 85586 NIL=
85586,2014,05,23,12,00,AAXX 23124 85586 12960 00000 10026 20017 40196 52014 60004 333 20024 31/// 55000 70000=
85586,2014,05,23,15,00,AAXX 23154 85586 42960 00305 10151 20082 40204 51003=
85586,2014,05,23,18,00,AAXX 23184 85586 NIL=
85586,2014,05,23,21,00,AAXX 23214 85586 42460 22303 10134 20108 40179 56008 82100 333 56600 82812=
85586,2014,05,24,00,00,AAXX 24004 85586 11940 00000 10064 20049 40184 53004 60001 71000 333 10161=
85586,2014,05,24,03,00,AAXX 24034 85586 NIL=
85586,2014,05,24,06,00,AAXX 24064 85586 NIL=
85586,2014,05,24,09,00,AAXX 24094 85586 NIL=
85586,2014,05,24,12,00,AAXX 24124 85586 11440 61204 10071 20061 40198 52020 60004 71022 86500 333 20069 31/// 55092 56700 70000 86615=
85586,2014,05,24,15,00,AAXX 24154 85586 41456 50205 10128 20085 40217 52018 70522 85500 333 56700 85615=
85586,2014,05,24,18,00,AAXX 24184 85586 11456 73008 10143 20070 40211 58005 60001 70522 87500 333 56000 87616=
85586,2014,05,24,21,00,AAXX 24214 85586 41558 52804 10131 20088 40215 53004 70522 85500 333 56700 85620=
85586,2014,05,25,00,00,AAXX 25004 85586 11956 00000 10073 20055 40222 52007 60001 70511 333 10145=
85586,2014,05,25,03,00,AAXX 25034 85586 NIL=
85586,2014,05,25,06,00,AAXX 25064 85586 NIL=
85586,2014,05,25,09,00,AAXX 25094 85586 NIL=
85586,2014,05,25,12,00,AAXX 25124 85586 12960 21004 10068 20055 40253 53007 60003 80001 333 20054 31/// 55024 56000 70000 82075=
85586,2014,05,25,15,00,AAXX 25154 85586 41956 30000 10146 20084 40256 51003 70500 80001 333 56006 83075=
85586,2014,05,25,18,00,AAXX 25184 85586 11958 62406 10161 20082 40237 57019 60001 70500 80001 333 56006 86075=
85586,2014,05,25,21,00,AAXX 25214 85586 42960 72305 10134 20083 40233 53001 80001 333 56006 87075=
85586,2014,05,26,00,00,AAXX 26004 85586 11956 60000 10084 20066 40240 53007 60001 70511 80001 333 10163 56006 86075=
85586,2014,05,26,03,00,AAXX 26034 85586 NIL=
85586,2014,05,26,06,00,AAXX 26064 85586 NIL=
85586,2014,05,26,09,00,AAXX 26094 85586 NIL=
85586,2014,05,26,12,00,AAXX 26124 85586 12960 01206 10058 20049 40206 57006 60004 333 20039 31/// 55065 70000=
85586,2014,05,26,15,00,AAXX 26154 85586 41957 09902 10136 20062 40201 54002 70500=
85586,2014,05,26,21,00,AAXX 26214 85586 NIL=
85586,2014,05,27,03,00,AAXX 27034 85586 NIL=
85586,2014,05,27,06,00,AAXX 27064 85586 NIL=
85586,2014,05,27,09,00,AAXX 27094 85586 NIL=
85586,2014,05,27,12,00,AAXX 27124 85586 12960 11203 10061 20035 40168 56003 60004 80002 333 20038 31/// 55087 56006 70000 81075=
85586,2014,05,27,15,00,AAXX 27154 85586 42960 01203 10160 20043 40152 57014=
85586,2014,05,27,18,00,AAXX 27184 85586 12960 02405 10212 20050 40128 57015 60001=
85586,2014,05,27,21,00,AAXX 27214 85586 42960 22703 10174 20075 40124 56004 80001 333 56006 82073=
85586,2014,05,28,00,00,AAXX 28004 85586 11958 20000 10100 20084 40121 56003 60001 70500 80001 333 10218 56006 82073=
85586,2014,05,28,03,00,AAXX 28034 85586 NIL=
85586,2014,05,28,06,00,AAXX 28064 85586 NIL=
85586,2014,05,28,09,00,AAXX 28094 85586 NIL=
85586,2014,05,28,12,00,AAXX 28124 85586 12960 00000 10054 20040 40158 52006 60004 333 20046 31/// 55089 70000=
85586,2014,05,28,15,00,AAXX 28154 85586 41550 43605 10138 20086 40159 50003 70500 84500 333 56600 84620=
85586,2014,05,28,18,00,AAXX 28184 85586 11557 13115 10148 20091 40146 57013 60001 70500 81500 333 56600 81620=
85586,2014,05,28,21,00,AAXX 28214 85586 42560 73411 10136 20073 40141 56005 87500 333 56800 87626=
85586,2014,05,29,00,00,AAXX 29004 85586 12660 83406 10134 20075 40146 52005 60001 885// 333 10151 56099 88633=
85586,2014,05,29,03,00,AAXX 29034 85586 NIL=
85586,2014,05,29,06,00,AAXX 29064 85586 NIL=
85586,2014,05,29,09,00,AAXX 29094 85586 NIL=
85586,2014,05,29,12,00,AAXX 29124 85586 12660 83605 10134 20089 40166 52016 60003 885// 333 20130 31/// 55058 56799 70000 88640=
85586,2014,05,29,15,00,AAXX 29154 85586 42460 73409 10167 20097 40182 52016 87500 333 56700 82815 87630=
85586,2014,05,29,18,00,AAXX 29184 85586 12560 83410 10155 20095 40182 54000 60001 888// 333 56799 83820 88635=
85586,2014,05,29,21,00,AAXX 29214 85586 42560 73605 10144 20114 40196 52014 87800 333 56800 83825 87640=
85586,2014,05,30,00,00,AAXX 30004 85586 11458 82504 10131 20114 40185 56011 60001 70522 885// 333 10169 56799 88615=
85586,2014,05,30,03,00,AAXX 30034 85586 NIL=
85586,2014,05,30,06,00,AAXX 30064 85586 NIL=
85586,2014,05,30,09,00,AAXX 30094 85586 NIL=
85586,2014,05,30,12,00,AAXX 30124 85586 12560 11004 10091 20078 40200 53007 69923 81500 333 20087 31/// 55025 56700 70002 81620=
85586,2014,05,30,15,00,AAXX 30154 85586 41558 69902 10146 20108 40214 52014 70522 85630 333 56550 85625=
85586,2014,05,30,18,00,AAXX 30184 85586 12460 52306 10146 20114 40210 56004 60001 85800 333 56600 82812 85640=
85586,2014,05,30,21,00,AAXX 30214 85586 42460 32304 10140 20107 40213 51003 83100 333 56600 83815=
85586,2014,05,31,00,00,AAXX 31004 85586 11956 00000 10087 20073 40221 52008 60001 70500 333 10155=
85586,2014,05,31,03,00,AAXX 31034 85586 NIL=
85586,2014,05,31,06,00,AAXX 31064 85586 NIL=
85586,2014,05,31,09,00,AAXX 31094 85586 NIL=
85586,2014,05,31,12,00,AAXX 31124 85586 11208 81104 10067 20059 40229 53008 60003 74244 886// 333 20051 31/// 55060 56799 70000 88704=
85586,2014,05,31,15,00,AAXX 31154 85586 41208 82304 10105 20092 40232 52003 74244 886// 333 56799 88706=
85586,2014,05,31,18,00,AAXX 31184 85586 11208 22605 10128 20101 40218 58014 60001 74644 82600 333 56700 82704=
85586,2014,05,31,21,00,AAXX 31214 85586 41206 82304 10111 20094 40210 56080 74244 886// 333 56799 88704=
85586,2014,06,01,00,00,AAXX 01004 85586 11203 80000 10097 20087 40210 55000 60001 74644 886// 333 10131 56799 88704=
85586,2014,06,01,03,00,AAXX 01034 85586 NIL=
85586,2014,06,01,06,00,AAXX 01064 85586 NIL=
85586,2014,06,01,09,00,AAXX 01094 85586 NIL=
85586,2014,06,01,12,00,AAXX 01124 85586 11101 81007 10066 20058 40199 57004 60004 74644 886// 333 20043 31/// 55025 56099 70000 88702=
85586,2014,06,01,15,00,AAXX 01154 85586 41356 21303 10100 20092 40184 57013 71044 82600 333 56600 82707=
85586,2014,06,01,18,00,AAXX 01184 85586 11457 12405 10156 20092 40161 57021 60001 70500 81600 333 56600 81710=
85586,2014,06,01,21,00,AAXX 01214 85586 42960 12503 10148 20091 40158 55004 80001 333 56006 81075=
85586,2014,06,02,00,00,AAXX 02004 85586 12960 10000 10080 20072 40177 53020 60001 80001 333 10159 56006 81075=
85586,2014,06,02,03,00,AAXX 02034 85586 NIL=
85586,2014,06,02,06,00,AAXX 02064 85586 NIL=
85586,2014,06,02,09,00,AAXX 02094 85586 NIL=
85586,2014,06,02,12,00,AAXX 02124 85586 12960 61203 10046 20039 40145 56006 60004 80001 333 20040 31/// 55070 56006 70000 86075=
85586,2014,06,02,15,00,AAXX 02154 85586 41940 69902 10088 20078 40145 54002 71022 82031 333 56000 82365 86073=
85586,2014,06,02,18,00,AAXX 02184 85586 11957 72703 10130 20098 40127 57018 60001 70522 80002 333 56006 87070=
85586,2014,06,02,21,00,AAXX 02214 85586 41957 70000 10128 20093 40130 51003 70522 80002 333 56006 87070=
85586,2014,06,03,00,00,AAXX 03004 85586 11940 70000 10088 20079 40134 51004 60001 71022 80002 333 10140 56000 87070=
85586,2014,06,03,03,00,AAXX 03034 85586 NIL=
85586,2014,06,03,06,00,AAXX 03064 85586 NIL=
85586,2014,06,03,09,00,AAXX 03094 85586 NIL=
85586,2014,06,03,12,00,AAXX 03124 85586 12460 70206 10124 20074 40109 56003 60004 87500 333 20076 31/// 55009 56600 70000 81613 87645=
85586,2014,06,03,15,00,AAXX 03154 85586 42560 80108 10143 20072 40101 52008 888// 333 56899 82820 88640=
85586,2014,06,03,18,00,AAXX 03184 85586 11440 80212 10112 20091 40096 56008 60041 78082 888// 333 56899 83815 88635=
85586,2014,06,03,21,00,AAXX 03214 85586 41430 83607 10113 20101 40102 56004 76166 885// 333 56899 88615=
85586,2014,06,04,00,00,AAXX 04004 85586 11450 83308 10104 20095 40114 52012 60121 885// 333 10150 56799 88612=
85586,2014,06,04,03,00,AAXX 04034 85586 NIL=
85586,2014,06,04,06,00,AAXX 04064 85586 NIL=
85586,2014,06,04,09,00,AAXX 04094 85586 NIL=
85586,2014,06,04,12,00,AAXX 04124 85586 11558 50706 10081 20065 40184 52014 60263 70522 85200 333 20077 32/// 55000 56700 70262 85825=
85586,2014,06,04,15,00,AAXX 04154 85586 41560 70204 10123 20088 40194 52009 78011 87200 333 56700 87830=
85586,2014,06,04,18,00,AAXX 04184 85586 11440 82912 10131 20096 40193 55001 69921 78022 87200 333 56799 82815 87830=
85586,2014,06,04,21,00,AAXX 04214 85586 42960 03211 10137 20103 40194 53001=
85586,2014,06,05,00,00,AAXX 05004 85586 11203 00604 10094 20069 40202 52008 60001 70500 333 10153=
85586,2014,06,05,03,00,AAXX 05034 85586 NIL=
85586,2014,06,05,09,00,AAXX 05094 85586 NIL=
85586,2014,06,05,12,00,AAXX 05124 85586 12960 01007 10061 20048 40207 53007 69933 333 20051 32/// 55049 70003=
85586,2014,06,05,15,00,AAXX 05154 85586 42960 01104 10121 20077 40214 52007=
85586,2014,06,05,18,00,AAXX 05184 85586 12460 22505 10143 20087 40200 57014 70100 333 56600 82815=
85586,2014,06,05,21,00,AAXX 05214 85586 42460 22208 10121 20078 40191 57009 82100 333 56500 82815=
85586,2014,06,06,00,00,AAXX 06004 85586 11958 00000 10072 20060 40188 56003 60001 70500 333 10151=
85586,2014,06,06,03,00,AAXX 06034 85586 NIL=
85586,2014,06,06,06,00,AAXX 06064 85586 NIL=
85586,2014,06,06,09,00,AAXX 06094 85586 NIL=
85586,2014,06,06,12,00,AAXX 06124 85586 12960 51004 10023 20011 40171 53008 60004 80001 333 20014 34/// 55091 70000 56006 85075=
85586,2014,06,06,15,00,AAXX 06154 85586 42960 50204 10108 20066 40176 51005 80001 333 56006 85075=
85586,2014,06,06,18,00,AAXX 06184 85586 12460 63314 10136 20037 40153 57023 70222 83130 333 56770 83812 86362=
85586,2014,06,06,21,00,AAXX 06214 85586 41540 83408 10102 20081 40160 51007 76382 885// 333 56799 88625=
85586,2014,06,07,00,00,AAXX 07004 85586 11856 83310 10104 20086 40161 55001 60091 76166 8802/ 333 10139 56069 88457=
85586,2014,06,07,03,00,AAXX 07034 85586 NIL=
85586,2014,06,07,06,00,AAXX 07064 85586 NIL=
85586,2014,06,07,09,00,AAXX 07094 85586 NIL=
85586,2014,06,07,12,00,AAXX 07124 85586 11560 80604 10074 20060 40205 52012 60114 70266 8583/=
85586,2014,06,07,15,00,AAXX 07154 85586 41460 70103 10090 20079 40225 52020 70266 85830 333 56170 82813 85623 85360=
85586,2014,06,07,18,00,AAXX 07184 85586 11460 70408 10097 20071 40222 51004 60081 70166 85830 333 56110 81810 85620 85363=
85586,2014,06,07,21,00,AAXX 07214 85586 42460 50507 10109 20059 40228 52007 83830 333 56110 82813 83620 85360=
85586,2014,06,08,00,00,AAXX 08004 85586 12960 30906 10082 20054 40236 52007 60001 83030 333 10111 56070 83363=
85586,2014,06,08,03,00,AAXX 08034 85586 NIL=
85586,2014,06,08,06,00,AAXX 08064 85586 NIL=
85586,2014,06,08,09,00,AAXX 08094 85586 NIL=
85586,2014,06,08,12,00,AAXX 08124 85586 11560 80209 10110 20067 40204 58003 60084 76062 885// 333 20074 31/// 55024 56199 70081 88630=
85586,2014,06,08,15,00,AAXX 08154 85586 41550 83610 10112 20077 40217 53013 76362 885// 333 56099 88630=
85586,2014,06,08,18,00,AAXX 08184 85586 11550 83605 10108 20091 40227 52010 60041 76166 885// 333 56099 88630=
85586,2014,06,08,21,00,AAXX 08214 85586 41560 80707 10106 20097 40245 52018 70266 885// 333 56799 83620 88633=
85586,2014,06,09,00,00,AAXX 09004 85586 11558 80904 10106 20093 40263 52018 60031 75022 885// 333 10116 56099 88620=
85586,2014,06,09,03,00,AAXX 09034 85586 NIL=
85586,2014,06,09,06,00,AAXX 09064 85586 NIL=
85586,2014,06,09,09,00,AAXX 09094 85586 NIL=
85586,2014,06,09,12,00,AAXX 09124 85586 12960 11107 10065 20054 40209 57009 60074 80001 333 20065 32/// 55000 56006 70073 81075=
85586,2014,06,09,15,00,AAXX 09154 85586 42960 01107 10106 20066 40200 57005=
85586,2014,06,09,18,00,AAXX 09184 85586 12960 01707 10170 20097 40172 57029 60001=
85586,2014,06,09,21,00,AAXX 09214 85586 42960 32408 10142 20116 40154 57018 80001 333 56005 83075=
85586,2014,06,10,00,00,AAXX 10004 85586 11930 20000 10093 20089 40156 54002 60001 71011 80001 333 10182 56000 82073=
85586,2014,06,10,03,00,AAXX 10034 85586 NIL=
85586,2014,06,10,06,00,AAXX 10064 85586 NIL=
85586,2014,06,10,09,00,AAXX 10094 85586 NIL=
85586,2014,06,10,12,00,AAXX 10124 85586 11450 70000 10098 20088 40180 52013 60004 71022 87500 333 20078 31/// 55088 56600 70000 87615=
85586,2014,06,10,15,00,AAXX 10154 85586 41558 81104 10111 20100 40183 51001 70522 885// 333 56799 88620=
85586,2014,06,10,18,00,AAXX 10184 85586 12560 73208 10137 20096 40161 57022 60001 87500 333 56700 87623=
85586,2014,06,10,21,00,AAXX 10214 85586 42560 83310 10126 20098 40158 56003 885// 333 56799 88625=
85586,2014,06,11,00,00,AAXX 11004 85586 12560 83206 10128 20089 40163 51003 60001 885// 333 10140 56799 88625=
85586,2014,06,11,03,00,AAXX 11034 85586 NIL=
85586,2014,06,11,06,00,AAXX 11064 85586 NIL=
85586,2014,06,11,09,00,AAXX 11094 85586 NIL=
85586,2014,06,11,12,00,AAXX 11124 85586 12560 80107 10134 20111 40115 53003 60004 885// 333 20118 31/// 55001 56799 70000 88625=
85586,2014,06,11,15,00,AAXX 11154 85586 42560 83611 10141 20091 40119 51004 885// 333 56799 88625=
85586,2014,06,11,18,00,AAXX 11184 85586 11330 82308 10108 20097 40119 54001 60171 76362 888// 333 56599 85808 88645=
85586,2014,06,11,21,00,AAXX 11214 85586 41330 81105 10100 20095 40114 56005 76362 888// 333 56299 83808 88630=
85586,2014,06,12,00,00,AAXX 12004 85586 11740 81604 10098 20088 40129 52017 60311 76166 8802/ 333 10143 56069 88456=
85586,2014,06,12,03,00,AAXX 12034 85586 NIL=
85586,2014,06,12,06,00,AAXX 12064 85586 NIL=
85586,2014,06,12,09,00,AAXX 12094 85586 NIL=
85586,2014,06,12,12,00,AAXX 12124 85586 11558 81610 10079 20067 40199 52030 60534 76266 882// 333 20069 32/// 55000 56799 70534 88825=
85586,2014,06,12,15,00,AAXX 12154 85586 41456 50507 10098 20079 40224 52023 70522 85200 333 56700 82815 85825=
85586,2014,06,12,18,00,AAXX 12184 85586 12560 63308 10127 20068 40231 52007 60061 86200 333 56700 86825=
85586,2014,06,12,21,00,AAXX 12214 85586 42560 42907 10127 20063 40250 52019 84200 333 56700 84825=
85586,2014,06,13,00,00,AAXX 13004 85586 11958 01206 10083 20049 40263 51011 60001 70500 333 10135=
85586,2014,06,13,03,00,AAXX 13034 85586 NIL=
85586,2014,06,13,06,00,AAXX 13064 85586 NIL=
85586,2014,06,13,09,00,AAXX 13094 85586 NIL=
85586,2014,06,13,12,00,AAXX 13124 85586 12960 01207 10040 20031 40245 53006 60064 333 20040 31/// 55057 70063=
85586,2014,06,13,15,00,AAXX 13154 85586 42960 01004 10104 20048 40250 52011=
85586,2014,06,13,18,00,AAXX 13184 85586 12960 29903 10157 20022 40228 57022 60001 80001 333 56000 82075=
85586,2014,06,13,21,00,AAXX 13214 85586 42960 62005 10133 20048 40218 57010 80004 333 56005 86070=
85586,2014,06,14,00,00,AAXX 14004 85586 12960 60000 10093 20055 40211 57007 60001 86030 333 10157 56050 86365=
85586,2014,06,14,03,00,AAXX 14034 85586 NIL=
85586,2014,06,14,06,00,AAXX 14064 85586 NIL=
85586,2014,06,14,09,00,AAXX 14094 85586 NIL=
85586,2014,06,14,12,00,AAXX 14124 85586 12960 71204 10064 20050 40226 53003 60003 80002 333 20032 31/// 55052 56006 70000 87075=
85586,2014,06,14,15,00,AAXX 14154 85586 42960 71203 10102 20065 40223 58002 85032 333 56066 85365 83073=
85586,2014,06,14,18,00,AAXX 14184 85586 12960 71305 10158 20051 40195 57026 60001 85031 333 56066 85365 83072=
85586,2014,06,14,21,00,AAXX 14214 85586 42960 22406 10139 20100 40187 56008 80001 333 56006 82075=
85586,2014,06,15,00,00,AAXX 15004 85586 12960 20000 10079 20057 40207 53018 60001 80001 333 10183 56006 82075=
85586,2014,06,15,03,00,AAXX 15034 85586 NIL=
85586,2014,06,15,06,00,AAXX 15064 85586 NIL=
85586,2014,06,15,09,00,AAXX 15094 85586 NIL=
85586,2014,06,15,12,00,AAXX 15124 85586 12960 21205 10074 20057 40219 52010 60004 80001 333 20058 31/// 55035 56006 70000 82075=
85586,2014,06,15,15,00,AAXX 15154 85586 42960 10703 10132 20079 40228 52011 80001 333 56006 81075=
85586,2014,06,15,18,00,AAXX 15184 85586 12960 02307 10164 20124 40213 57013 60001=
85586,2014,06,15,21,00,AAXX 15214 85586 42960 10000 10178 20138 40213 54000 80001 333 56006 81075=
85586,2014,06,16,00,00,AAXX 16004 85586 12960 00000 10123 20117 40219 53004 60001 333 10200=
85586,2014,06,16,03,00,AAXX 16034 85586 NIL=
85586,2014,06,16,06,00,AAXX 16064 85586 NIL=
85586,2014,06,16,09,00,AAXX 16094 85586 NIL=
85586,2014,06,16,12,00,AAXX 16124 85586 12960 21507 10112 20074 40192 56007 60004 80001 333 20104 31/// 55087 56006 70000 82075=
85586,2014,06,16,15,00,AAXX 16154 85586 42960 21506 10157 20103 40192 54000 80001 333 56004 82075=
85586,2014,06,16,18,00,AAXX 16184 85586 12960 01504 10199 20110 40166 57026 60001=
85586,2014,06,16,21,00,AAXX 16214 85586 42960 01506 10199 20064 40158 56008=
85586,2014,06,17,00,00,AAXX 17004 85586 11958 01506 10137 20057 40161 53003 60001 70500 333 10214=
85586,2014,06,17,03,00,AAXX 17034 85586 NIL=
85586,2014,06,17,06,00,AAXX 17064 85586 NIL=
85586,2014,06,17,09,00,AAXX 17094 85586 NIL=
85586,2014,06,17,12,00,AAXX 17124 85586 12960 01311 10111 20056 40148 50004 60004 333 20094 31/// 55090 70000=
85586,2014,06,17,15,00,AAXX 17154 85586 42960 01104 10165 20078 40156 52007=
85586,2014,06,17,18,00,AAXX 17184 85586 12960 01607 10215 20092 40148 56008 60001=
85586,2014,06,17,21,00,AAXX 17214 85586 42960 01404 10206 20069 40148 54000=
85586,2014,06,18,00,00,AAXX 18004 85586 11958 01606 10156 20071 40154 51006 60001 70500 333 10223=
85586,2014,06,18,03,00,AAXX 18034 85586 NIL=
85586,2014,06,18,06,00,AAXX 18064 85586 NIL=
85586,2014,06,18,09,00,AAXX 18094 85586 NIL=
85586,2014,06,18,12,00,AAXX 18124 85586 11130 20000 10040 20036 40168 53011 60004 71000 82600 333 20040 31/// 55091 56700 70000 82703=
85586,2014,06,18,15,00,AAXX 18154 85586 41230 80000 10106 20098 40175 52010 71022 886// 333 56799 88704=
85586,2014,06,18,18,00,AAXX 18184 85586 11340 83004 10124 20103 40166 58009 60001 70522 886// 333 56699 88708=
85586,2014,06,18,21,00,AAXX 18214 85586 41350 82904 10123 20106 40163 57003 70522 886// 333 56799 88707=
85586,2014,06,19,00,00,AAXX 19004 85586 11350 82703 10123 20106 40174 53011 60001 70522 886// 333 10128 56699 88708=
85586,2014,06,19,03,00,AAXX 19034 85586 NIL=
85586,2014,06,19,06,00,AAXX 19064 85586 NIL=
85586,2014,06,19,09,00,AAXX 19094 85586 NIL=
85586,2014,06,19,12,00,AAXX 19124 85586 11430 80000 10106 20094 40163 53006 60004 71022 886// 333 20104 31/// 55000 56099 70000 88714=
85586,2014,06,19,15,00,AAXX 19154 85586 41440 80000 10118 20094 40171 52008 70522 886// 333 56099 88713=
85586,2014,06,19,18,00,AAXX 19184 85586 11440 83405 10124 20091 40171 54000 60001 70522 886// 333 56799 88713=
85586,2014,06,19,21,00,AAXX 19214 85586 41440 83503 10128 20091 40172 54001 70522 886// 333 56799 88715=
85586,2014,06,20,00,00,AAXX 20004 85586 11440 89901 10122 20089 40182 52010 60001 70522 886// 333 10130 56099 88715=
85586,2014,06,20,03,00,AAXX 20034 85586 NIL=
85586,2014,06,20,06,00,AAXX 20064 85586 NIL=
85586,2014,06,20,09,00,AAXX 20094 85586 NIL=
85586,2014,06,20,12,00,AAXX 20124 85586 11420 81003 10101 20081 40174 53003 60004 71022 885// 333 20100 31/// 55000 56099 70000 88613=
85586,2014,06,20,15,00,AAXX 20154 85586 41440 80805 10112 20081 40177 52004 70522 885// 333 56099 88617=
85586,2014,06,20,18,00,AAXX 20184 85586 11458 82505 10126 20081 40162 58015 60001 70522 885// 333 56099 88619=
85586,2014,06,20,21,00,AAXX 20214 85586 42460 82803 10120 20081 40161 56001 885// 333 56099 88618=
85586,2014,06,21,00,00,AAXX 21004 85586 12460 80000 10115 20086 40165 53004 60001 885// 333 10130 56099 88619=
85586,2014,06,21,03,00,AAXX 21034 85586 NIL=
85586,2014,06,21,06,00,AAXX 21064 85586 NIL=
85586,2014,06,21,09,00,AAXX 21094 85586 NIL=
85586,2014,06,21,12,00,AAXX 21124 85586 11557 80405 10114 20072 40178 53005 60004 70522 885// 333 20110 31/// 55000 56799 70000 88627=
85586,2014,06,21,15,00,AAXX 21154 85586 42560 80204 10122 20071 40189 52011 885// 333 56799 88627=
85586,2014,06,21,18,00,AAXX 21184 85586 12660 80205 10146 20079 40186 54002 60001 885// 333 56799 88640=
85586,2014,06,21,21,00,AAXX 21214 85586 42660 80203 10145 20083 40185 54002 885// 333 56799 88633=
85586,2014,06,22,00,00,AAXX 22004 85586 12660 40000 10118 20075 40197 52011 60001 84500 333 10151 56600 84640=
85586,2014,06,22,03,00,AAXX 22034 85586 NIL=
85586,2014,06,22,06,00,AAXX 22064 85586 NIL=
85586,2014,06,22,09,00,AAXX 22094 85586 NIL=
85586,2014,06,22,12,00,AAXX 22124 85586 11340 61107 10072 20055 40209 53006 60004 71022 83601 333 20067 31/// 55000 56706 7//// 83708 83073=
85586,2014,06,22,15,00,AAXX 22154 85586 41958 60903 10130 20081 40211 54002 70522 80001 333 56006 86073=
85586,2014,06,22,18,00,AAXX 22184 85586 12960 22406 10153 20111 40193 57005 60001 80001 333 56006 82073=
85586,2014,06,22,21,00,AAXX 22214 85586 42960 32308 10131 20110 40194 54001 80001 333 56006 83073=
85586,2014,06,23,00,00,AAXX 23004 85586 12960 40000 10096 20090 40199 52005 60001 80001 333 10170 56006 84073=
85586,2014,06,23,03,00,AAXX 23034 85586 NIL=
85586,2014,06,23,06,00,AAXX 23064 85586 NIL=
85586,2014,06,23,09,00,AAXX 23094 85586 NIL=
85586,2014,06,23,12,00,AAXX 23124 85586 11958 01204 10073 20063 40196 54001 60004 70500 333 20044 31/// 55077 70000=
85586,2014,06,23,15,00,AAXX 23154 85586 41956 41408 10128 20091 40203 51007 70500 80001 333 56006 84075=
85586,2014,06,23,18,00,AAXX 23184 85586 12960 41907 10165 20093 40183 57020 60001 80001 333 56000 84075=
85586,2014,06,23,21,00,AAXX 23214 85586 42960 62005 10155 20076 40180 56003 80004 333 56005 86073=
85586,2014,06,24,00,00,AAXX 24004 85586 11956 01704 10101 20078 40186 53008 60001 70500 333 10174=
85586,2014,06,24,03,00,AAXX 24034 85586 NIL=
85586,2014,06,24,06,00,AAXX 24064 85586 NIL=
85586,2014,06,24,09,00,AAXX 24094 85586 NIL=
85586,2014,06,24,12,00,AAXX 24124 85586 12960 30000 10018 20005 40194 53007 60004 80001 333 20017 31/// 55083 56006 70000 83075=
85586,2014,06,24,15,00,AAXX 24154 85586 41956 70000 10089 20061 40202 52010 70511 80001 333 56006 87075=
85586,2014,06,24,18,00,AAXX 24184 85586 12460 43005 10116 20070 40195 56007 60001 82101 333 56700 82815 84070=
85586,2014,06,24,21,00,AAXX 24214 85586 42960 69902 10112 20068 40197 54002 80004 333 56000 86070=
85586,2014,06,25,00,00,AAXX 25004 85586 11956 40604 10079 20065 40206 52010 60001 70511 84030 333 10124 56060 84362=
85586,2014,06,25,03,00,AAXX 25034 85586 NIL=
85586,2014,06,25,06,00,AAXX 25064 85586 NIL=
85586,2014,06,25,09,00,AAXX 25094 85586 NIL=
85586,2014,06,25,12,00,AAXX 25124 85586 12560 80000 10061 20055 40198 56003 60004 8353/ 333 20057 31/// 55029 56669 70000 83626 88363=
85586,2014,06,25,15,00,AAXX 25154 85586 42460 71503 10105 20063 40199 53003 82830 333 56660 81815 87363=
85586,2014,06,25,18,00,AAXX 25184 85586 12560 72203 10103 20061 40196 58003 60001 82630 333 56660 82630 87361=
85586,2014,06,25,21,00,AAXX 25214 85586 42960 60000 10106 20062 40203 52007 86030 333 56060 86360=
85586,2014,06,26,00,00,AAXX 26004 85586 12960 10000 10056 20046 40225 52020 60001 80002 333 10121 56006 81070=
85586,2014,06,26,03,00,AAXX 26034 85586 NIL=
85586,2014,06,26,06,00,AAXX 26064 85586 NIL=
85586,2014,06,26,09,00,AAXX 26094 85586 NIL=
85586,2014,06,26,12,00,AAXX 26124 85586 12960 10000 10056 20046 40225 52020 60001 80002 333 10121 56006 81070=
85586,2014,06,26,15,00,AAXX 26154 85586 41458 12205 10092 20067 40278 52014 70500 81100 333 56500 81815=
85586,2014,06,26,18,00,AAXX 26184 85586 12460 22409 10119 20073 40270 56008 60001 82100 333 56600 82818=
85586,2014,06,26,21,00,AAXX 26214 85586 42960 01805 10121 20058 40270 54000=
85586,2014,06,27,00,00,AAXX 27004 85586 11957 09902 10077 20048 40284 52014 60001 70500 333 10126=
85586,2014,06,27,03,00,AAXX 27034 85586 NIL=
85586,2014,06,27,06,00,AAXX 27064 85586 NIL=
85586,2014,06,27,09,00,AAXX 27094 85586 NIL=
85586,2014,06,27,12,00,AAXX 27124 85586 12960 01503 10022 20012 40256 57003 60004 333 20020 31/// 55074 70000=
85586,2014,06,27,15,00,AAXX 27154 85586 42960 00000 10105 20053 40256 51004=
85586,2014,06,27,18,00,AAXX 27184 85586 12960 02108 10135 20042 40238 57018 60001=
85586,2014,06,27,21,00,AAXX 27214 85586 42960 02204 10123 20078 40231 56007=
85586,2014,06,28,00,00,AAXX 28004 85586 11957 00000 10064 20054 40230 54001 60001 70500 333 10141=
85586,2014,06,28,03,00,AAXX 28034 85586 NIL=
85586,2014,06,28,06,00,AAXX 28064 85586 NIL=
85586,2014,06,28,09,00,AAXX 28094 85586 NIL=
85586,2014,06,28,12,00,AAXX 28124 85586 11950 01205 10026 20023 40234 53004 60003 71000 333 20010 31/// 55085 70000=
85586,2014,06,28,15,00,AAXX 28154 85586 41240 21004 10087 20062 40237 52005 70511 82600 333 56600 82704=
85586,2014,06,28,18,00,AAXX 28184 85586 11458 72604 10121 20072 40214 58022 60001 70522 87500 333 56600 87617=
85586,2014,06,28,21,00,AAXX 28214 85586 42960 02404 10114 20074 40210 57004=
85586,2014,06,29,00,00,AAXX 29004 85586 12960 00000 10049 20042 40219 53007 60001 333 10130=
85586,2014,06,29,03,00,AAXX 29034 85586 NIL=
85586,2014,06,29,06,00,AAXX 29064 85586 NIL=
85586,2014,06,29,09,00,AAXX 29094 85586 NIL=
85586,2014,06,29,12,00,AAXX 29124 85586 11106 71204 10034 20025 40191 58002 60004 74244 87600 333 20023 31/// 55036 56700 70000 87703=
85586,2014,06,29,15,00,AAXX 29154 85586 NIL=
85586,2014,06,29,18,00,AAXX 29184 85586 11208 80604 10068 20056 40185 58010 60001 74244 886// 333 56799 88704=
85586,2014,06,29,21,00,AAXX 29214 85586 41208 83004 10081 20070 40184 53003 74644 886// 333 56799 88704=
85586,2014,06,30,00,00,AAXX 30004 85586 11208 80504 10078 20066 40198 52014 60001 74244 886// 333 10083 56799 88704=
85586,2014,06,30,03,00,AAXX 30034 85586 NIL=
85586,2014,06,30,06,00,AAXX 30064 85586 NIL=
85586,2014,06,30,09,00,AAXX 30094 85586 NIL=
85586,2014,06,30,12,00,AAXX 30124 85586 12560 80904 10091 20067 40210 52019 60004 885// 333 20079 31/// 55000 56799 70000 88625=
85586,2014,06,30,15,00,AAXX 30154 85586 41558 81003 10093 20071 40213 51004 70522 885// 333 56299 88622=
85586,2014,06,30,18,00,AAXX 30184 85586 11558 80804 10108 20066 40198 58015 60001 70522 885// 333 56799 88626=
85586,2014,06,30,21,00,AAXX 30214 85586 41558 89902 10110 20072 40191 56007 70522 885// 333 56099 88622=
85586,2014,07,01,00,00,AAXX 01004 85586 11556 81004 10102 20064 40196 53005 60001 70522 885// 333 10114 56799 88625=
85586,2014,07,01,03,00,AAXX 01034 85586 NIL=
85586,2014,07,01,06,00,AAXX 01064 85586 NIL=
85586,2014,07,01,09,00,AAXX 01094 85586 NIL=
85586,2014,07,01,12,00,AAXX 01124 85586 11958 71005 10064 20039 40188 53007 60004 70511 82031 333 20062 31/// 55000 56066 70000 82365 85075=
85586,2014,07,01,15,00,AAXX 01154 85586 41958 70905 10108 20050 40187 50000 70511 80001 333 56006 87075=
85586,2014,07,01,18,00,AAXX 01184 85586 12960 62404 10130 20059 40169 56018 60001 80004 333 56000 86073=
85586,2014,07,01,21,00,AAXX 01214 85586 42960 62603 10115 20071 40159 56010 80004 333 56005 86073=
85586,2014,07,02,00,00,AAXX 02004 85586 11956 60000 10078 20064 40158 54001 60001 70522 80004 333 10135 56000 86070=
85586,2014,07,02,03,00,AAXX 02034 85586 NIL=
85586,2014,07,02,06,00,AAXX 02064 85586 NIL=
85586,2014,07,02,09,00,AAXX 02094 85586 NIL=
85586,2014,07,02,12,00,AAXX 02124 85586 11560 62305 10100 20078 40212 53037 60084 72582 86200 333 20082 32/// 55042 56600 70076 86820=
85586,2014,07,02,15,00,AAXX 02154 85586 42560 42303 10117 20069 40245 52034 84200 333 56600 84820=
85586,2014,07,02,18,00,AAXX 02184 85586 12560 32605 10130 20073 40234 58011 60001 83200 333 56600 83820=
85586,2014,07,02,21,00,AAXX 02214 85586 42560 12205 10121 20078 40215 57019 81200 333 56600 81825=
85586,2014,07,03,00,00,AAXX 03004 85586 12560 10000 10070 20061 40212 57005 60001 81100 333 10143 56600 81825=
85586,2014,07,03,03,00,AAXX 03034 85586 NIL=
85586,2014,07,03,06,00,AAXX 03064 85586 NIL=
85586,2014,07,03,09,00,AAXX 03094 85586 NIL=
85586,2014,07,03,12,00,AAXX 03124 85586 12760 60000 10042 20038 40183 53012 60004 86500 333 20042 31/// 55064 56600 70000 86656=
85586,2014,07,03,15,00,AAXX 03154 85586 42960 49902 10097 20063 40197 52017 80001 333 56006 84073=
85586,2014,07,03,18,00,AAXX 03184 85586 12460 22706 10116 20064 40183 57014 60001 82100 333 56600 82818=
85586,2014,07,03,21,00,AAXX 03214 85586 42560 81903 10106 20060 40183 54000 885// 333 56599 88623=
85586,2014,07,04,00,00,AAXX 04004 85586 11558 70000 10082 20063 40187 51004 60001 70522 82530 333 10122 56550 82623 87365=
85586,2014,07,04,03,00,AAXX 04034 85586 NIL=
85586,2014,07,04,06,00,AAXX 04064 85586 NIL=
85586,2014,07,04,09,00,AAXX 04094 85586 NIL=
85586,2014,07,04,12,00,AAXX 04124 85586 12660 71103 10086 20055 40197 53012 60004 87500 333 20083 31/// 55049 56600 70000 87640=
85586,2014,07,04,15,00,AAXX 04154 85586 41256 89902 10097 20086 40212 52015 70552 886// 333 56799 85706 88620=
85586,2014,07,04,18,00,AAXX 04184 85586 11458 81906 10085 20066 40221 52009 69911 70522 886// 333 56499 88712=
85586,2014,07,04,21,00,AAXX 04214 85586 41456 81504 10083 20071 40233 52012 78082 888// 333 56499 83810 88625=
85586,2014,07,05,00,00,AAXX 05004 85586 11558 81106 10076 20062 40252 52017 69911 78022 882// 333 10104 56699 82830 86640=
85586,2014,07,05,03,00,AAXX 05034 85586 NIL=
85586,2014,07,05,06,00,AAXX 05064 85586 NIL=
85586,2014,07,05,09,00,AAXX 05094 85586 NIL=
85586,2014,07,05,12,00,AAXX 05124 85586 12560 12204 10061 20050 40310 52015 69934 81100 333 20058 31/// 55000 56700 70003 81820=
85586,2014,07,05,15,00,AAXX 05154 85586 42460 11205 10106 20077 40317 51005 81100 333 56700 81815=
85586,2014,07,05,18,00,AAXX 05184 85586 12460 22106 10131 20080 40300 58017 60001 82100 333 56700 82815=
85586,2014,07,05,21,00,AAXX 05214 85586 43960 11706 10127 20055 40301 53002 81030 333 56060 81365=
85586,2014,07,06,00,00,AAXX 06004 85586 NIL=
85586,2014,07,06,03,00,AAXX 06034 85586 NIL=
85586,2014,07,06,06,00,AAXX 06064 85586 NIL=
85586,2014,07,06,09,00,AAXX 06094 85586 NIL=
85586,2014,07,06,12,00,AAXX 06124 85586 12960 01305 10046 20023 40275 58009 60004 333 20044 31/// 55085 70000=
85586,2014,07,06,15,00,AAXX 06154 85586 42960 01407 10102 20045 40270 50002=
85586,2014,07,06,18,00,AAXX 06184 85586 12960 01909 10151 20056 40247 57019 60001=
85586,2014,07,06,21,00,AAXX 06214 85586 41960 01807 10151 20030 40236 56011 70600=
85586,2014,07,07,00,00,AAXX 07004 85586 11958 00000 10098 20076 40236 56001 60001 70500 333 10159=
85586,2014,07,07,03,00,AAXX 07034 85586 NIL=
85586,2014,07,07,06,00,AAXX 07064 85586 NIL=
85586,2014,07,07,09,00,AAXX 07094 85586 NIL=
85586,2014,07,07,12,00,AAXX 07124 85586 12960 01903 10038 20016 40207 56003 60004 333 20038 31/// 55091 70000=
85586,2014,07,07,15,00,AAXX 07154 85586 NIL=
85586,2014,07,07,18,00,AAXX 07184 85586 12960 11809 10175 20060 40179 57021 60001 80001 333 56006 81075=
85586,2014,07,07,21,00,AAXX 07214 85586 42960 21805 10174 20058 40166 57013 80001 333 56006 82075=
85586,2014,07,08,00,00,AAXX 08004 85586 12960 20000 10104 20040 40174 53004 60001 80001 333 10185 56006 82075=
85586,2014,07,08,03,00,AAXX 08034 85586 NIL=
85586,2014,07,08,06,00,AAXX 08064 85586 NIL=
85586,2014,07,08,09,00,AAXX 08094 85586 NIL=
85586,2014,07,08,12,00,AAXX 08124 85586 12660 10000 10015 20009 40188 52012 60003 81500 333 20014 31/// 55091 56600 70000 81640=
85586,2014,07,08,15,00,AAXX 08154 85586 42960 03303 10112 20062 40198 52012=
85586,2014,07,08,18,00,AAXX 08184 85586 12960 02807 10119 20074 40195 58003 60001=
85586,2014,07,08,21,00,AAXX 08214 85586 42460 73603 10105 20084 40196 54001 87500 333 56600 87613=
85586,2014,07,09,00,00,AAXX 09004 85586 11250 80000 10096 20082 40208 52011 60001 71022 886// 333 10126 56099 88706=
85586,2014,07,09,03,00,AAXX 09034 85586 NIL=
85586,2014,07,09,06,00,AAXX 09064 85586 NIL=
85586,2014,07,09,09,00,AAXX 09094 85586 NIL=
85586,2014,07,09,12,00,AAXX 09124 85586 11101 80000 10063 20059 40185 57006 60004 74442 886// 333 20061 31/// 55052 56099 70000 88702=
85586,2014,07,09,15,00,AAXX 09154 85586 41120 20000 10083 20079 40185 54001 71042 82600 333 56000 82702=
85586,2014,07,09,18,00,AAXX 09184 85586 11950 52504 10122 20087 40159 57023 60001 70542 80001 333 56006 85075=
85586,2014,07,09,21,00,AAXX 09214 85586 41958 43203 10129 20094 40155 57004 70511 80001 333 56006 84075=
85586,2014,07,10,00,00,AAXX 10004 85586 12960 40000 10069 20065 40158 54001 60001 80001 333 10134 56006 84075=
85586,2014,07,10,03,00,AAXX 10034 85586 NIL=
85586,2014,07,10,06,00,AAXX 10064 85586 NIL=
85586,2014,07,10,09,00,AAXX 10094 85586 NIL=
85586,2014,07,10,12,00,AAXX 10124 85586 11220 80204 10082 20072 40145 53004 60004 71022 886// 333 20039 31/// 55060 56799 70000 88704=
85586,2014,07,10,15,00,AAXX 10154 85586 41420 80304 10097 20076 40155 52009 71022 886// 333 56799 88710=
85586,2014,07,10,18,00,AAXX 10184 85586 11440 83504 10114 20081 40150 58003 60001 70522 885// 333 56799 88612=
85586,2014,07,10,21,00,AAXX 10214 85586 41440 80205 10116 20076 40156 53007 70522 885// 333 56799 88615=
85586,2014,07,11,00,00,AAXX 11004 85586 11556 80404 10109 20074 40165 51008 60001 70522 885// 333 10119 56799 88625=
85586,2014,07,11,03,00,AAXX 11034 85586 NIL=
85586,2014,07,11,06,00,AAXX 11064 85586 NIL=
85586,2014,07,11,09,00,AAXX 11094 85586 NIL=
85586,2014,07,11,12,00,AAXX 11124 85586 11556 80808 10102 20054 40168 53011 60003 70522 885// 333 20086 31/// 55000 56799 70000 88630=
85586,2014,07,11,15,00,AAXX 11154 85586 41556 80606 10117 20082 40179 52009 70522 885// 333 56799 88630=
85586,2014,07,11,18,00,AAXX 11184 85586 11456 83205 10128 20056 40170 58009 60001 70522 885// 333 56799 82615 88630=
85586,2014,07,11,21,00,AAXX 11214 85586 41558 82904 10121 20072 40175 50006 70520 885// 333 56799 88630=
85586,2014,07,12,00,00,AAXX 12004 85586 11556 80604 10112 20086 40189 52014 60001 70522 885// 333 10133 56799 88630=
85586,2014,07,12,03,00,AAXX 12034 85586 NIL=
85586,2014,07,12,06,00,AAXX 12064 85586 NIL=
85586,2014,07,12,09,00,AAXX 12094 85586 NIL=
85586,2014,07,12,12,00,AAXX 12124 85586 11950 01105 10067 20044 40208 53009 60004 70500 333 20064 31/// 55000 70000=
85586,2014,07,12,15,00,AAXX 12154 85586 41957 31006 10122 20061 40207 54001 70500 80001 333 56006 83075=
85586,2014,07,12,18,00,AAXX 12184 85586 11958 51407 10149 20058 40171 57035 60001 70511 80001 333 56006 85075=
85586,2014,07,12,21,00,AAXX 12214 85586 41958 51705 10165 20073 40149 57021 70522 80001 333 56006 85075=
85586,2014,07,13,00,00,AAXX 13004 85586 11958 50000 10085 20066 40145 57004 60001 70522 82031 333 10167 56066 82365 83075=
85586,2014,07,13,03,00,AAXX 13034 85586 NIL=
85586,2014,07,13,06,00,AAXX 13064 85586 NIL=
85586,2014,07,13,09,00,AAXX 13094 85586 NIL=
85586,2014,07,13,12,00,AAXX 13124 85586 11430 83005 10097 20085 40172 52016 60004 71022 885// 333 20025 31/// 55056 56099 70000 88611=
85586,2014,07,13,15,00,AAXX 13154 85586 41440 70204 10113 20078 40174 51003 70522 87500 333 56600 87614=
85586,2014,07,13,18,00,AAXX 13184 85586 11956 63008 10125 20088 40155 58021 60001 70522 80002 333 56006 86073=
85586,2014,07,13,21,00,AAXX 13214 85586 41456 83009 10115 20091 40143 57012 70522 885// 333 56699 83710 87615=
85586,2014,07,14,00,00,AAXX 14004 85586 11456 83504 10114 20088 40158 52008 60001 70522 885// 333 10133 56099 88613=
85586,2014,07,14,03,00,AAXX 14034 85586 NIL=
85586,2014,07,14,06,00,AAXX 14064 85586 NIL=
85586,2014,07,14,09,00,AAXX 14094 85586 NIL=
85586,2014,07,14,12,00,AAXX 14124 85586 11557 80305 10117 20075 40167 52011 60003 70522 885// 333 20108 31/// 55036 56099 70000 88620=
85586,2014,07,14,15,00,AAXX 14154 85586 41557 83607 10116 20094 40191 52023 76062 885// 333 88620=
85586,2014,07,14,18,00,AAXX 14184 85586 11440 83311 10117 20109 40205 52014 60081 76066 885// 333 56799 81610 85630 88656=
85586,2014,07,14,21,00,AAXX 14214 85586 41440 73306 10120 20115 40220 52015 71066 87500 333 56700 87617=
85586,2014,07,15,00,00,AAXX 15004 85586 11956 80000 10139 20091 40235 53011 60001 70522 8803/ 333 10139 56069 88365=
85586,2014,07,15,03,00,AAXX 15034 85586 NIL=
85586,2014,07,15,06,00,AAXX 15064 85586 NIL=
85586,2014,07,15,09,00,AAXX 15094 85586 NIL=
85586,2014,07,15,12,00,AAXX 15124 85586 11915 21204 10048 20045 40241 53003 60114 74140 80001 333 20030 32/// 55000 56006 70106 82075=
85586,2014,07,15,15,00,AAXX 15154 85586 42960 31504 10123 20087 40245 53005 80001 333 56006 83075=
85586,2014,07,15,18,00,AAXX 15184 85586 12960 71504 10136 20089 40222 56020 60001 80001 333 56006 87075=
85586,2014,07,15,21,00,AAXX 15214 85586 41258 82210 10117 20103 40224 51007 70511 85607 333 56706 85705 87075=
85586,2014,07,16,00,00,AAXX 16004 85586 11956 80000 10139 20091 40235 53011 60001 70522 8803/ 333 10139 56069 88365=
85586,2014,07,16,03,00,AAXX 16034 85586 NIL=
85586,2014,07,16,06,00,AAXX 16064 85586 NIL=
85586,2014,07,16,09,00,AAXX 16094 85586 NIL=
85586,2014,07,16,12,00,AAXX 16124 85586 12960 71204 10084 20073 40221 53007 60003 82031 333 20076 31/// 55042 56066 70000 82365 86175=
85586,2014,07,16,15,00,AAXX 16154 85586 42960 71604 10148 20078 40225 53003 80001 333 56006 87075=
85586,2014,07,16,18,00,AAXX 16184 85586 12960 42407 10154 20094 40218 50006 60001 80001 333 56006 84075=
85586,2014,07,16,21,00,AAXX 16214 85586 42960 02406 10142 20095 40230 53014=
85586,2014,07,17,00,00,AAXX 17004 85586 11958 20804 10099 20084 40235 51006 60001 705// 80001 333 10157 56006 82075=
85586,2014,07,17,03,00,AAXX 17034 85586 NIL=
85586,2014,07,17,06,00,AAXX 17064 85586 NIL=
85586,2014,07,17,09,00,AAXX 17094 85586 NIL=
85586,2014,07,17,12,00,AAXX 17124 85586 11960 50000 10050 20040 40256 53002 60004 71111 80001 333 20044 31/// 55064 56006 70000 85075=
85586,2014,07,17,15,00,AAXX 17154 85586 42960 01609 10141 20089 40264 52008=
85586,2014,07,17,18,00,AAXX 17184 85586 12960 01509 10186 20107 40239 58023 60001=
85586,2014,07,17,21,00,AAXX 17214 85586 42960 01709 10187 20106 40220 57016=
85586,2014,07,18,00,00,AAXX 18004 85586 11958 01605 10137 20077 40226 51005 60001 70500 333 10197=
85586,2014,07,18,03,00,AAXX 18034 85586 NIL=
85586,2014,07,18,06,00,AAXX 18064 85586 NIL=
85586,2014,07,18,09,00,AAXX 18094 85586 NIL=
85586,2014,07,18,12,00,AAXX 18124 85586 12960 01404 10102 20046 40178 57008 60004 333 20093 31/// 55094 70000=
85586,2014,07,18,15,00,AAXX 18154 85586 42960 01004 10178 20076 40175 57003=
85586,2014,07,18,18,00,AAXX 18184 85586 12960 01408 10220 20064 40147 57024 60001=
85586,2014,07,18,21,00,AAXX 18214 85586 42960 01607 10218 20066 40137 57010=
85586,2014,07,19,00,00,AAXX 19004 85586 12960 01906 10151 20067 40144 53004 60001 333 10235=
85586,2014,07,19,03,00,AAXX 19034 85586 NIL=
85586,2014,07,19,06,00,AAXX 19064 85586 NIL=
85586,2014,07,19,09,00,AAXX 19094 85586 NIL=
85586,2014,07,19,12,00,AAXX 19124 85586 11115 80804 10096 20093 40159 52008 60004 71022 886// 333 20054 31/// 55104 56099 70000 88703=
85586,2014,07,19,15,00,AAXX 19154 85586 41440 20000 10127 20097 40170 52012 70522 82500 333 56600 82610=
85586,2014,07,19,18,00,AAXX 19184 85586 11450 22506 10136 20104 40168 56002 60001 70511 82500 333 56600 82612=
85586,2014,07,19,21,00,AAXX 19214 85586 41450 83003 10128 20097 40156 57012 70522 885// 333 56099 88613=
85586,2014,07,20,00,00,AAXX 20004 85586 11450 80000 10120 20090 40159 53003 60001 70522 885// 333 10142 56099 88615=
85586,2014,07,20,03,00,AAXX 20034 85586 NIL=
85586,2014,07,20,06,00,AAXX 20064 85586 NIL=
85586,2014,07,20,09,00,AAXX 20094 85586 NIL=
85586,2014,07,20,12,00,AAXX 20124 85586 11440 80000 10105 20093 40168 52009 60004 71022 885// 333 20103 31/// 55043 56099 70000 88612=
85586,2014,07,20,15,00,AAXX 20154 85586 41430 83603 10110 20091 40181 52013 71022 885// 333 56099 88615=
85586,2014,07,20,18,00,AAXX 20184 85586 11440 83403 10124 20087 40177 58007 60001 70522 885// 333 56799 82618 88622=
85586,2014,07,20,21,00,AAXX 20214 85586 41450 82903 10117 20100 40181 52007 70522 885// 333 56699 83617 88622=
85586,2014,07,21,00,00,AAXX 21004 85586 11457 80000 10114 20098 40199 52013 60001 70522 885// 333 10126 56699 83515 88620=
85586,2014,07,21,03,00,AAXX 21034 85586 NIL=
85586,2014,07,21,06,00,AAXX 21064 85586 NIL=
85586,2014,07,21,09,00,AAXX 21094 85586 NIL=
85586,2014,07,21,12,00,AAXX 21124 85586 11550 71104 10094 20083 40212 53013 60004 71022 84570 333 20093 31/// 55000 56770 70000 84625 83363=
85586,2014,07,21,15,00,AAXX 21154 85586 41556 80000 10123 20088 40219 52008 70522 8357/ 333 56779 83625 85363=
85586,2014,07,21,18,00,AAXX 21184 85586 11658 82404 10129 20082 40208 57010 60001 70522 8357/ 333 56779 83635 85363=
85586,2014,07,21,21,00,AAXX 21214 85586 41657 72005 10120 20090 40205 56003 70522 83530 333 56550 83635 87359=
85586,2014,07,22,00,00,AAXX 22004 85586 11657 69902 10107 20093 40213 51005 60001 70522 83530 333 10136 56550 83635 86362=
85586,2014,07,22,03,00,AAXX 22034 85586 NIL=
85586,2014,07,22,06,00,AAXX 22064 85586 NIL=
85586,2014,07,22,09,00,AAXX 22094 85586 NIL=
85586,2014,07,22,12,00,AAXX 22124 85586 12560 10000 10062 20052 40221 52016 60004 81500 333 20058 31/// 55000 56600 70000 81625=
85586,2014,07,22,15,00,AAXX 22154 85586 42560 11506 10116 20061 40230 52010 81100 333 56600 81820=
85586,2014,07,22,18,00,AAXX 22184 85586 12560 22312 10128 20075 40218 57011 60001 82100 333 56600 82830=
85586,2014,07,22,21,00,AAXX 22214 85586 42560 22213 10111 20065 40217 54000 82100 333 56600 82830=
85586,2014,07,23,00,00,AAXX 23004 85586 12960 02006 10083 20051 40230 52011 60001 333 10136=
85586,2014,07,23,03,00,AAXX 23034 85586 NIL=
85586,2014,07,23,06,00,AAXX 23064 85586 NIL=
85586,2014,07,23,09,00,AAXX 23094 85586 NIL=
85586,2014,07,23,12,00,AAXX 23124 85586 12960 00000 11009 21022 40274 52020 60004 333 21013 34/// 55088 70000=
85586,2014,07,23,15,00,AAXX 23154 85586 42960 00000 10091 20043 40288 52014=
85586,2014,07,23,18,00,AAXX 23184 85586 12960 02107 10136 20057 40279 58009 60001=
85586,2014,07,23,21,00,AAXX 23214 85586 42960 02108 10119 20071 40285 53005=
85586,2014,07,24,00,00,AAXX 24004 85586 11956 00000 10073 20037 40296 52011 60001 70500 333 10135=
85586,2014,07,24,03,00,AAXX 24034 85586 NIL=
85586,2014,07,24,06,00,AAXX 24064 85586 NIL=
85586,2014,07,24,09,00,AAXX 24094 85586 NIL=
85586,2014,07,24,12,00,AAXX 24124 85586 12960 01304 10019 20003 40280 50000 60004 333 20015 34/// 55090 70000=
85586,2014,07,24,15,00,AAXX 24154 85586 41958 02405 10101 20041 40283 51005 70500=
85586,2014,07,24,18,00,AAXX 24184 85586 12960 01708 10144 20040 40258 57025 60001=
85586,2014,07,24,21,00,AAXX 24214 85586 42960 31907 10137 20008 40244 56011 80001 333 56006 83075=
85586,2014,07,25,00,00,AAXX 25004 85586 11958 00000 10077 20026 40243 50001 60001 70500 333 10145=
85586,2014,07,25,03,00,AAXX 25034 85586 NIL=
85586,2014,07,25,06,00,AAXX 25064 85586 NIL=
85586,2014,07,25,09,00,AAXX 25094 85586 NIL=
85586,2014,07,25,12,00,AAXX 25124 85586 12960 11805 10028 20005 40225 54001 60003 81030 333 20022 31/// 55085 56060 70000 81360=
85586,2014,07,25,15,00,AAXX 25154 85586 42960 01504 10114 20027 40229 52007=
85586,2014,07,25,18,00,AAXX 25184 85586 12960 01809 10160 20021 40203 58025 60001=
85586,2014,07,25,21,00,AAXX 25214 85586 42960 22306 10140 20082 40209 53006 80001 333 56000 82075=
85586,2014,07,26,00,00,AAXX 26004 85586 12960 42204 10100 20078 40222 52011 60001 80001 333 10171 56006 84075=
85586,2014,07,26,03,00,AAXX 26034 85586 NIL=
85586,2014,07,26,06,00,AAXX 26064 85586 NIL=
85586,2014,07,26,09,00,AAXX 26094 85586 NIL=
85586,2014,07,26,12,00,AAXX 26124 85586 12960 51203 10052 20043 40218 58005 60003 80001 333 20028 31/// 55087 56006 70000 85075=
85586,2014,07,26,15,00,AAXX 26154 85586 42960 81804 10110 20064 40220 53004 8803/ 333 56009 88368=
85586,2014,07,26,18,00,AAXX 26184 85586 12560 83203 10126 20085 40207 58013 60001 8358/ 333 56699 83620 88363=
85586,2014,07,26,21,00,AAXX 26214 85586 41956 72505 10127 20099 40207 54000 70522 87030 333 56060 87366=
85586,2014,07,27,00,00,AAXX 27004 85586 11956 80906 10107 20093 40201 57006 60001 70522 8803/ 333 10151 56009 88363=
85586,2014,07,27,03,00,AAXX 27034 85586 NIL=
85586,2014,07,27,06,00,AAXX 27064 85586 NIL=
85586,2014,07,27,09,00,AAXX 27094 85586 NIL=
85586,2014,07,27,12,00,AAXX 27124 85586 11940 70000 10089 20083 40218 52012 60004 71022 87030 333 20086 31/// 55004 56060 70000 87365=
85586,2014,07,27,15,00,AAXX 27154 85586 42960 50000 10142 20101 40217 54001 82031 333 56066 82365 83073=
85586,2014,07,27,18,00,AAXX 27184 85586 12460 72303 10126 20102 40217 54000 60001 81531 333 56666 81613 83365=
85586,2014,07,27,21,00,AAXX 27214 85586 42960 80603 10142 20105 40204 57011 8807/ 333 56069 88359=
85586,2014,07,28,00,00,AAXX 28004 85586 11960 82106 10129 20108 40205 54001 69921 70262 8807/ 333 10145 56069 88362=
85586,2014,07,28,03,00,AAXX 28034 85586 NIL=
85586,2014,07,28,06,00,AAXX 28064 85586 NIL=
85586,2014,07,28,09,00,AAXX 28094 85586 NIL=
85586,2014,07,28,12,00,AAXX 28124 85586 11102 80000 10104 20101 40203 54001 69924 74444 886// 333 20084 31/// 55020 56099 70002 88702=
85586,2014,07,28,15,00,AAXX 28154 85586 41106 80604 10115 20113 40213 52011 74444 886// 333 56099 88703=
85586,2014,07,28,18,00,AAXX 28184 85586 11460 62406 10143 20118 40189 58021 60001 70242 81531 333 56666 81615 83070=
85586,2014,07,28,21,00,AAXX 28214 85586 42960 70000 10131 20112 40193 53004 87030 333 56060 87365=
85586,2014,07,29,00,00,AAXX 29004 85586 12960 70000 10117 20106 40185 57008 60001 87030 333 10151 56060 87365=
85586,2014,07,29,06,00,AAXX 29064 85586 NIL=
85586,2014,07,29,09,00,AAXX 29094 85586 NIL=
85586,2014,07,29,12,00,AAXX 29124 85586 12560 80000 10119 20110 40230 52005 60004 885// 333 20101 31/// 55002 56699 70000 88630=
85586,2014,07,29,15,00,AAXX 29154 85586 42560 82206 10158 20126 40244 52014 885// 333 56799 88620=
85586,2014,07,29,18,00,AAXX 29184 85586 12460 22409 10163 20127 40220 57027 60001 81101 333 56706 81815=
85586,2014,07,29,21,00,AAXX 29214 85586 42960 72405 10137 20121 40201 56014 80002 333 56006 87073=
85586,2014,07,30,00,00,AAXX 30004 85586 11958 70000 10121 20106 40200 58002 60001 70522 80002 333 10179 56006 87073=
85586,2014,07,30,03,00,AAXX 30034 85586 NIL=
85586,2014,07,30,06,00,AAXX 30064 85586 NIL=
85586,2014,07,30,09,00,AAXX 30094 85586 NIL=
85586,2014,07,30,12,00,AAXX 30124 85586 11103 80705 10116 20107 40194 50000 60004 74444 886// 333 20086 31/// 55054 56799 70000 88703=
85586,2014,07,30,15,00,AAXX 30154 85586 41206 83205 10128 20113 40200 53007 74444 886// 333 56799 88704=
85586,2014,07,30,18,00,AAXX 30184 85586 11208 80304 10123 20114 40194 58006 60001 74244 886// 333 56799 88704=
85586,2014,07,30,21,00,AAXX 30214 85586 41920 70000 10124 20107 40203 53009 71044 80002 333 56006 87073=
85586,2014,07,31,00,00,AAXX 31004 85586 11103 80000 10104 20095 40211 53008 60001 74644 886// 333 10139 56799 88703=
85586,2014,07,31,03,00,AAXX 31034 85586 NIL=
85586,2014,07,31,06,00,AAXX 31064 85586 NIL=
85586,2014,07,31,09,00,AAXX 31094 85586 NIL=
85586,2014,07,31,12,00,AAXX 31124 85586 12960 80903 10109 20080 40202 57004 60003 8803/ 333 20074 31/// 55054 56009 70000 88368=
85586,2014,07,31,15,00,AAXX 31154 85586 42960 82903 10135 20102 40205 53004 8803/ 333 56009 88366=
85586,2014,07,31,18,00,AAXX 31184 85586 12960 80000 10140 20093 40197 57008 60001 8803/ 333 56009 88363=
85586,2014,07,31,21,00,AAXX 31214 85586 42960 82103 10141 20090 40202 52005 8803/ 333 56009 88362=
85586,2014,08,01,00,00,AAXX 01004 85586 12960 71303 10140 20110 40190 57012 60001 87030 333 10150 56060 87361=
85586,2014,08,01,03,00,AAXX 01034 85586 NIL=
85586,2014,08,01,06,00,AAXX 01064 85586 NIL=
85586,2014,08,01,09,00,AAXX 01094 85586 NIL=
85586,2014,08,01,12,00,AAXX 01124 85586 12960 11006 10096 20092 40189 53004 60004 81030 333 20069 31/// 55000 56060 70000 81362=
85586,2014,08,01,15,00,AAXX 01154 85586 42960 01004 10178 20117 40175 57022=
85586,2014,08,01,18,00,AAXX 01184 85586 12960 02506 10209 20135 40159 57015 60001=
85586,2014,08,01,21,00,AAXX 01214 85586 42960 02506 10148 20125 40149 57012=
85586,2014,08,02,00,00,AAXX 02004 85586 11130 83103 10125 20122 40167 53014 60001 71022 886// 333 10224 56699 88702=
85586,2014,08,02,03,00,AAXX 02034 85586 NIL=
85586,2014,08,02,06,00,AAXX 02064 85586 NIL=
85586,2014,08,02,09,00,AAXX 02094 85586 NIL=
85586,2014,08,02,12,00,AAXX 02124 85586 11404 80000 10115 20113 40177 53008 69924 75052 887// 333 20105 31/// 55088 56699 70002 88710=
85586,2014,08,02,15,00,AAXX 02154 85586 41560 70103 10148 20132 40184 52007 70242 86500 333 56600 86625=
85586,2014,08,02,18,00,AAXX 02184 85586 12560 53008 10166 20114 40177 58007 60001 81501 333 56606 81625 84075=
85586,2014,08,02,21,00,AAXX 02214 85586 42560 73305 10153 20115 40178 54001 85501 333 56606 85625=
85586,2014,08,03,00,00,AAXX 03004 85586 12560 53303 10137 20114 40185 53007 60001 85500 333 10169 56600 85620=
85586,2014,08,03,03,00,AAXX 03034 85586 NIL=
85586,2014,08,03,06,00,AAXX 03064 85586 NIL=
85586,2014,08,03,09,00,AAXX 03094 85586 NIL=
85586,2014,08,03,12,00,AAXX 03124 85586 11340 80000 10114 20112 40214 52017 60024 71052 887// 333 20112 31/// 55030 56699 70023 88708=
85586,2014,08,03,15,00,AAXX 03154 85586 42460 30703 10127 20099 40234 52020 83500 333 56600 83615=
85586,2014,08,03,18,00,AAXX 03184 85586 12460 12505 10141 20113 40228 58005 60001 81500 333 56600 81617=
85586,2014,08,03,21,00,AAXX 03214 85586 NIL=
85586,2014,08,04,00,00,AAXX 04004 85586 12960 00000 10096 20092 40241 52009 60001 333 10156=
85586,2014,08,04,03,00,AAXX 04034 85586 NIL=
85586,2014,08,04,06,00,AAXX 04064 85586 NIL=
85586,2014,08,04,09,00,AAXX 04094 85586 NIL=
85586,2014,08,04,12,00,AAXX 04124 85586 12960 61206 10069 20050 40162 56013 60004 80001 333 20067 31/// 55076 56006 70000 86075=
85586,2014,08,04,15,00,AAXX 04154 85586 42960 60000 10133 20075 40174 53010 80001 333 56006 86075=
85586,2014,08,04,18,00,AAXX 04184 85586 12960 70000 10143 20082 40151 57023 60001 80001 333 56006 87075=
85586,2014,08,04,21,00,AAXX 04214 85586 42960 72504 10124 20064 40147 58003 80001 333 56006 87075=
85586,2014,08,05,00,00,AAXX 05004 85586 11956 70000 10098 20074 40170 52021 60001 70511 80001 333 10158 56006 87075=
85586,2014,08,05,03,00,AAXX 05034 85586 NIL=
85586,2014,08,05,06,00,AAXX 05064 85586 NIL=
85586,2014,08,05,09,00,AAXX 05094 85586 NIL=
85586,2014,08,05,12,00,AAXX 05124 85586 11556 81006 10071 20057 40207 52024 60004 70522 885// 333 20033 31/// 55048 56799 70000 88630=
85586,2014,08,05,15,00,AAXX 05154 85586 42960 23305 10121 20074 40215 53009 80001 333 56006 82075=
85586,2014,08,05,18,00,AAXX 05184 85586 12960 23111 10133 20087 40206 58008 60001 80001 333 56006 82075=
85586,2014,08,05,21,00,AAXX 05214 85586 42460 13311 10126 20080 40213 53006 81600 333 56700 81710=
85586,2014,08,06,00,00,AAXX 06004 85586 11958 30000 10102 20060 40223 53009 60001 70500 80001 333 10146 56006 83075=
85586,2014,08,06,03,00,AAXX 06034 85586 NIL=
85586,2014,08,06,06,00,AAXX 06064 85586 NIL=
85586,2014,08,06,09,00,AAXX 06094 85586 NIL=
85586,2014,08,06,12,00,AAXX 06124 85586 11550 80703 10098 20089 40276 52021 60134 76066 885// 333 20075 31/// 55086 56199 70132 83620 88627=
85586,2014,08,06,15,00,AAXX 06154 85586 41460 70406 10115 20096 40300 52025 70262 87530 333 56770 82610 85620=
85586,2014,08,06,18,00,AAXX 06184 85586 11460 10708 10139 20077 40303 55004 60031 70162 81800 333 56600 81615=
85586,2014,08,06,21,00,AAXX 06214 85586 42460 12007 10150 20034 40292 57006 81500 333 56600 81615=
85586,2014,08,07,00,00,AAXX 07004 85586 12960 01504 10100 20071 40303 53005 60001 333 10158=
85586,2014,08,07,03,00,AAXX 07034 85586 NIL=
85586,2014,08,07,06,00,AAXX 07064 85586 NIL=
85586,2014,08,07,09,00,AAXX 07094 85586 NIL=
85586,2014,08,07,12,00,AAXX 07124 85586 12960 01505 10061 20026 40248 57012 60034 333 20052 31/// 55053 70034=
85586,2014,08,07,15,00,AAXX 07154 85586 42960 01508 10116 20003 40235 57011=
85586,2014,08,07,18,00,AAXX 07184 85586 12960 01506 10170 20012 40199 57034 60001=
85586,2014,08,07,21,00,AAXX 07214 85586 42960 01809 10168 20009 40188 57011=
85586,2014,08,08,00,00,AAXX 08004 85586 12960 01804 10114 20028 40180 57009 60001 333 10184=
85586,2014,08,08,03,00,AAXX 08034 85586 NIL=
85586,2014,08,08,06,00,AAXX 08064 85586 NIL=
85586,2014,08,08,09,00,AAXX 08094 85586 NIL=
85586,2014,08,08,12,00,AAXX 08124 85586 12960 01203 10038 20031 40166 53012 60004 333 20036 31/// 55096 70000=
85586,2014,08,08,15,00,AAXX 08154 85586 42960 00000 10125 20077 40172 52005=
85586,2014,08,08,18,00,AAXX 08184 85586 12960 02806 10151 20096 40171 54001 60001=
85586,2014,08,08,21,00,AAXX 08214 85586 42960 02605 10144 20085 40176 52005=
85586,2014,08,09,00,00,AAXX 09004 85586 12960 00000 10090 20071 40178 54002 60001 333 10153=
85586,2014,08,09,03,00,AAXX 09034 85586 NIL=
85586,2014,08,09,06,00,AAXX 09064 85586 NIL=
85586,2014,08,09,09,00,AAXX 09094 85586 NIL=
85586,2014,08,09,12,00,AAXX 09124 85586 11230 70803 10086 20076 40212 52017 69904 71022 87600 333 20038 31/// 55095 56000 70000 87704=
85586,2014,08,09,15,00,AAXX 09154 85586 41456 80000 10101 20066 40225 52013 70522 885// 333 56699 88615=
85586,2014,08,09,18,00,AAXX 09184 85586 11458 82404 10116 20065 40217 58007 60001 70522 885// 333 56699 88617=
85586,2014,08,09,21,00,AAXX 09214 85586 41458 82305 10112 20070 40216 54001 70522 885// 333 56699 88618=
85586,2014,08,10,00,00,AAXX 10004 85586 11457 80000 10106 20075 40221 52005 60001 70522 885// 333 10125 56699 88615=
85586,2014,08,10,03,00,AAXX 10034 85586 NIL=
85586,2014,08,10,06,00,AAXX 10064 85586 NIL=
85586,2014,08,10,09,00,AAXX 10094 85586 NIL=
85586,2014,08,10,12,00,AAXX 10124 85586 12960 31104 10061 20051 40227 53004 60004 83030 333 20054 31/// 55000 56060 70000 83365=
85586,2014,08,10,15,00,AAXX 10154 85586 41456 10905 10148 20091 40225 58002 70500 81500 333 56700 81615=
85586,2014,08,10,18,00,AAXX 10184 85586 11458 22412 10137 20107 40210 58015 60001 70500 82500 333 56700 82615=
85586,2014,08,10,21,00,AAXX 10214 85586 41558 82308 10125 20093 40203 56007 70522 885// 333 56799 88620=
85586,2014,08,11,00,00,AAXX 11004 85586 11556 81705 10124 20081 40223 52020 60001 70522 885// 333 10149 56799 88625=
85586,2014,08,11,03,00,AAXX 11034 85586 NIL=
85586,2014,08,11,06,00,AAXX 11064 85586 NIL=
85586,2014,08,11,09,00,AAXX 11094 85586 NIL=
85586,2014,08,11,12,00,AAXX 11124 85586 12960 01704 10056 20043 40251 52006 60004 333 20054 31/// 55046 70000=
85586,2014,08,11,15,00,AAXX 11154 85586 41958 01808 10141 20075 40250 50000 70500=
85586,2014,08,11,18,00,AAXX 11184 85586 12960 01912 10163 20070 40239 57013 60001=
85586,2014,08,11,21,00,AAXX 11214 85586 42960 02212 10131 20072 40232 56006=
85586,2014,08,12,00,00,AAXX 12004 85586 11958 02005 10086 20061 40250 52017 60001 70500 333 10167=
85586,2014,08,12,03,00,AAXX 12034 85586 NIL=
85586,2014,08,12,06,00,AAXX 12064 85586 NIL=
85586,2014,08,12,09,00,AAXX 12094 85586 NIL=
85586,2014,08,12,12,00,AAXX 12124 85586 12960 01506 10054 20022 40259 54000 60004 333 20040 31/// 55107 70000=
85586,2014,08,12,15,00,AAXX 12154 85586 42960 01507 10116 20020 40262 52005=
85586,2014,08,12,18,00,AAXX 12184 85586 12960 01509 10168 21016 40244 57016 60001=
85586,2014,08,12,21,00,AAXX 12214 85586 42960 01711 10168 21030 40227 57017=
85586,2014,08,13,00,00,AAXX 13004 85586 12960 02103 10114 21035 40232 53003 60001 333 10180=
85586,2014,08,13,03,00,AAXX 13034 85586 NIL=
85586,2014,08,13,06,00,AAXX 13064 85586 NIL=
85586,2014,08,13,09,00,AAXX 13094 85586 NIL=
85586,2014,08,13,12,00,AAXX 13124 85586 12960 01006 10050 20000 40193 56008 60004 333 20050 31/// 55097 70000=
85586,2014,08,13,15,00,AAXX 13154 85586 42960 31204 10138 20021 40185 56005 80001 333 56006 83075=
85586,2014,08,13,18,00,AAXX 13184 85586 12960 11405 10206 20001 40155 57027 60001 80001 333 56006 81075=
85586,2014,08,13,21,00,AAXX 13214 85586 42960 21507 10190 20021 40136 57021 80001 333 56006 82075=
85586,2014,08,14,00,00,AAXX 14004 85586 12960 20000 10094 20020 40136 56002 60001 80001 333 10226 56006 82075=
85586,2014,08,14,03,00,AAXX 14034 85586 NIL=
85586,2014,08,14,06,00,AAXX 14064 85586 NIL=
85586,2014,08,14,09,00,AAXX 14094 85586 NIL=
85586,2014,08,14,12,00,AAXX 14124 85586 11220 72605 10095 20091 40150 52024 60004 71022 84601 333 20035 31/// 55097 56606 70000 84704 83073=
85586,2014,08,14,15,00,AAXX 14154 85586 41957 63203 10135 20078 40159 52010 70522 80001 333 56006 86073=
85586,2014,08,14,18,00,AAXX 14184 85586 11958 63211 10132 20074 40164 50005 60001 70522 80001 333 56006 86073=
85586,2014,08,14,21,00,AAXX 14214 85586 41958 53213 10127 20090 40175 52011 70522 80001 333 56006 85073=
85586,2014,08,15,00,00,AAXX 15004 85586 11958 53204 10100 20081 40186 52011 60001 70522 80001 333 10146 56006 85073=
85586,2014,08,15,03,00,AAXX 15034 85586 NIL=
85586,2014,08,15,06,00,AAXX 15064 85586 NIL=
85586,2014,08,15,09,00,AAXX 15094 85586 NIL=
85586,2014,08,15,12,00,AAXX 15124 85586 11230 80000 10098 20092 40187 54000 60004 71022 886// 333 20092 31/// 55073 56699 70000 88704=
85586,2014,08,15,15,00,AAXX 15154 85586 41240 42306 10127 20097 40199 52012 70522 81601 333 56606 81706 83073=
85586,2014,08,15,18,00,AAXX 15184 85586 11940 52505 10132 20075 40193 58006 60001 70522 80001 333 56006 85073=
85586,2014,08,15,21,00,AAXX 15214 85586 41950 42405 10126 20096 40187 57005 70511 80001 333 56006 84073=
85586,2014,08,16,00,00,AAXX 16004 85586 11940 30000 10090 20074 40203 54002 60001 70511 80001 333 10138 56006 83073=
85586,2014,08,16,03,00,AAXX 16034 85586 NIL=
85586,2014,08,16,06,00,AAXX 16064 85586 NIL=
85586,2014,08,16,09,00,AAXX 16094 85586 NIL=
85586,2014,08,16,12,00,AAXX 16124 85586 11958 41604 10088 20084 40190 53010 60004 70500 84030 333 20083 31/// 55072 56060 70000 84362=
85586,2014,08,16,15,00,AAXX 16154 85586 41958 30905 10176 20110 40192 51003 70500 83030 333 56060 83362=
85586,2014,08,16,18,00,AAXX 16184 85586 12960 01904 10249 20081 40172 56018 60001=
85586,2014,08,16,21,00,AAXX 16214 85586 42960 02312 10162 20095 40167 56006=
85586,2014,08,17,00,00,AAXX 17004 85586 11956 00000 10113 20092 40185 52015 60001 70500 333 10251=
85586,2014,08,17,03,00,AAXX 17034 85586 NIL=
85586,2014,08,17,06,00,AAXX 17064 85586 NIL=
85586,2014,08,17,09,00,AAXX 17094 85586 NIL=
85586,2014,08,17,12,00,AAXX 17124 85586 12960 01105 10076 20065 40184 53004 60004 333 20049 31/// 55087 70000=
85586,2014,08,17,15,00,AAXX 17154 85586 42960 02405 10185 20108 40176 58006=
85586,2014,08,17,18,00,AAXX 17184 85586 12960 02007 10269 20064 40153 57021 60001=
85586,2014,08,17,21,00,AAXX 17214 85586 42960 03205 10167 20116 40143 56010=
85586,2014,08,18,00,00,AAXX 18004 85586 11958 01704 10114 20095 40140 56004 60001 70500 333 10271=
85586,2014,08,18,03,00,AAXX 18034 85586 NIL=
85586,2014,08,18,06,00,AAXX 18064 85586 NIL=
85586,2014,08,18,09,00,AAXX 18094 85586 NIL=
85586,2014,08,18,12,00,AAXX 18124 85586 11901 00000 10056 20052 40127 53006 60004 74440 333 20056 31/// 55100 70000=
85586,2014,08,18,15,00,AAXX 18154 85586 41909 00000 10122 20100 40128 52004 74240=
85586,2014,08,18,18,00,AAXX 18184 85586 11104 83007 10110 20102 40131 52003 60001 74441 887// 333 56699 88702=
85586,2014,08,18,21,00,AAXX 18214 85586 41109 83005 10108 20104 40136 52005 74444 886// 333 56699 88702=
85586,2014,08,19,00,00,AAXX 19004 85586 NIL=
85586,2014,08,19,03,00,AAXX 19034 85586 NIL=
85586,2014,08,19,06,00,AAXX 19064 85586 NIL=
85586,2014,08,19,09,00,AAXX 19094 85586 NIL=
85586,2014,08,19,12,00,AAXX 19124 85586 11420 81203 10114 20106 40170 53006 60004 71022 885// 333 20107 31/// 55032 56099 70000 88615=
85586,2014,08,19,15,00,AAXX 19154 85586 41540 80203 10133 20101 40179 52009 70522 885// 333 56099 88620=
85586,2014,08,19,18,00,AAXX 19184 85586 11557 82905 10132 20109 40175 55004 60001 70522 885// 333 56099 88620=
85586,2014,08,19,21,00,AAXX 19214 85586 41457 83103 10126 20105 40174 54001 70522 885// 333 56699 82610 83616 88624=
85586,2014,08,20,00,00,AAXX 20004 85586 11457 89902 10123 20104 40176 54002 60001 70522 888// 333 10139 56299 84815 88620=
85586,2014,08,20,03,00,AAXX 20034 85586 NIL=
85586,2014,08,20,06,00,AAXX 20064 85586 NIL=
85586,2014,08,20,09,00,AAXX 20094 85586 NIL=
85586,2014,08,20,12,00,AAXX 20124 85586 11450 80000 10119 20095 40168 53003 60004 70522 885// 333 20117 30/// 55000 56099 70000 88617=
85586,2014,08,20,15,00,AAXX 20154 85586 41440 82505 10125 20099 40174 52017 70522 885// 333 56099 88616=
85586,2014,08,20,18,00,AAXX 20184 85586 11456 82706 10136 20084 40183 57003 60001 70522 885// 333 56799 88617=
85586,2014,08,20,21,00,AAXX 20214 85586 41557 82303 10124 20096 40181 56002 70522 885// 333 56099 88628=
85586,2014,08,21,00,00,AAXX 21004 85586 11550 80000 10119 20095 40188 52007 60001 70522 885// 333 10132 56099 88627=
85586,2014,08,21,03,00,AAXX 21034 85586 NIL=
85586,2014,08,21,06,00,AAXX 21064 85586 NIL=
85586,2014,08,21,09,00,AAXX 21094 85586 NIL=
85586,2014,08,21,12,00,AAXX 21124 85586 11558 81104 10114 20101 40201 53010 60004 70522 885// 333 20112 30/// 55000 56799 70000 88624=
85586,2014,08,21,15,00,AAXX 21154 85586 41556 80000 10133 20072 40204 51003 70522 885// 333 56799 88625=
85586,2014,08,21,18,00,AAXX 21184 85586 11556 82407 10133 20086 40185 56019 60001 70522 885// 333 56799 88630=
85586,2014,08,21,21,00,AAXX 21214 85586 41958 02806 10144 20070 40176 57009 70500=
85586,2014,08,22,00,00,AAXX 22004 85586 11956 00000 10086 20064 40186 53007 60001 70500 333 10153=
85586,2014,08,22,03,00,AAXX 22034 85586 NIL=
85586,2014,08,22,06,00,AAXX 22064 85586 NIL=
85586,2014,08,22,09,00,AAXX 22094 85586 NIL=
85586,2014,08,22,12,00,AAXX 22124 85586 11458 80904 10076 20065 40185 52016 60004 70522 825// 333 20039 30/// 55039 56799 70000 82617=
85586,2014,08,22,15,00,AAXX 22154 85586 41456 83204 10109 20081 40195 52008 70522 885// 333 56799 88618=
85586,2014,08,22,18,00,AAXX 22184 85586 11556 83212 10129 20086 40197 51004 60001 70522 885// 333 56799 88623=
85586,2014,08,22,21,00,AAXX 22214 85586 41556 83308 10123 20083 40184 56007 70522 885// 333 56799 88623=
85586,2014,08,23,00,00,AAXX 23004 85586 11540 80509 10121 20078 40191 53007 60001 70522 885// 333 10131 56799 88630=
85586,2014,08,23,03,00,AAXX 23034 85586 NIL=
85586,2014,08,23,06,00,AAXX 23064 85586 NIL=
85586,2014,08,23,09,00,AAXX 23094 85586 NIL=
85586,2014,08,23,12,00,AAXX 23124 85586 11558 80205 10103 20091 40174 53008 60034 76362 8552/ 333 20100 32/// 55000 56669 70034 85625 83358=
85586,2014,08,23,15,00,AAXX 23154 85586 41460 80106 10119 20102 40181 52008 70262 885// 333 56699 83615 85623=
85586,2014,08,23,18,00,AAXX 23184 85586 11460 83006 10104 20098 40170 58011 60071 70262 885// 333 56699 88615=
85586,2014,08,23,21,00,AAXX 23214 85586 42460 73312 10122 20101 40173 53003 87500 333 56600 87615=
85586,2014,08,24,00,00,AAXX 24004 85586 11460 73308 10116 20094 40187 52014 69921 70262 83530 333 10128 56660 83615 84360=
85586,2014,08,24,03,00,AAXX 24034 85586 NIL=
85586,2014,08,24,06,00,AAXX 24064 85586 NIL=
85586,2014,08,24,09,00,AAXX 24094 85586 NIL=
85586,2014,08,24,12,00,AAXX 24124 85586 11460 70605 10093 20071 40234 52023 60104 70262 87500 333 20083 31/// 55001 56600 70101 87617=
85586,2014,08,24,15,00,AAXX 24154 85586 41660 80410 10103 20076 40247 52014 70262 856// 333 56699 85646 88650=
85586,2014,08,24,18,00,AAXX 24184 85586 11560 70210 10136 20074 40237 58007 60021 70262 85530 333 56660 82623 85650 87360=
85586,2014,08,24,21,00,AAXX 24214 85586 42460 63007 10125 20086 40244 53006 83801 333 56700 81815 83620 85656=
85586,2014,08,25,00,00,AAXX 25004 85586 12960 11603 10083 20074 40254 51009 60001 80001 333 10144 56006 81075=
85586,2014,08,25,03,00,AAXX 25034 85586 NIL=
85586,2014,08,25,06,00,AAXX 25064 85586 NIL=
85586,2014,08,25,09,00,AAXX 25094 85586 NIL=
85586,2014,08,25,12,00,AAXX 25124 85586 12960 00000 10061 20046 40225 57023 60024 333 20038 31/// 55021 70018=
85586,2014,08,25,15,00,AAXX 25154 85586 42960 01405 10133 20067 40214 58010=
85586,2014,08,25,18,00,AAXX 25184 85586 12960 01908 10183 20107 40191 57022 60001=
85586,2014,08,25,21,00,AAXX 25214 85586 42960 01407 10185 20044 40174 57016=
85586,2014,08,26,00,00,AAXX 26004 85586 12960 09902 10124 20061 40159 57017 60001 333 10191=
85586,2014,08,26,03,00,AAXX 26034 85586 NIL=
85586,2014,08,26,06,00,AAXX 26064 85586 NIL=
85586,2014,08,26,09,00,AAXX 26094 85586 NIL=
85586,2014,08,26,12,00,AAXX 26124 85586 11958 09902 10040 20033 40135 53013 60003 70500 333 20028 31/// 55102 70000=
85586,2014,08,26,15,00,AAXX 26154 85586 42960 03604 10141 20079 40143 52011=
85586,2014,08,26,18,00,AAXX 26184 85586 11258 43009 10130 20107 40146 56003 60001 70500 83701 333 56707 83706=
85586,2014,08,26,21,00,AAXX 26214 85586 42460 23112 10128 20097 40159 52013 82600 333 56700 82710=
85586,2014,08,27,00,00,AAXX 27004 85586 12560 63209 10113 20085 40175 51016 60001 83501 333 10141 56606 83620 83075=
85586,2014,08,27,03,00,AAXX 27034 85586 NIL=
85586,2014,08,27,06,00,AAXX 27064 85586 NIL=
85586,2014,08,27,09,00,AAXX 27094 85586 NIL=
85586,2014,08,27,12,00,AAXX 27124 85586 12560 80903 10107 20083 40189 52019 60003 885// 333 20103 31/// 55081 56799 70000 88630=
85586,2014,08,27,15,00,AAXX 27154 85586 42460 83404 10133 20074 40200 51010 885// 333 56799 81615 88640=
85586,2014,08,27,18,00,AAXX 27184 85586 12560 73107 10141 20090 40199 50000 60001 87500 333 56700 81630 87640=
85586,2014,08,27,21,00,AAXX 27214 85586 NIL=
85586,2014,08,28,00,00,AAXX 28004 85586 11956 01502 10077 20065 40190 50008 60001 70500 333 10135=
85586,2014,08,28,03,00,AAXX 28034 85586 NIL=
85586,2014,08,28,06,00,AAXX 28064 85586 NIL=
85586,2014,08,28,09,00,AAXX 28094 85586 NIL=
85586,2014,08,28,12,00,AAXX 28124 85586 11958 71003 10075 20064 40163 57002 60003 70522 87030 333 20058 31/// 55049 56030 70000 87365=
85586,2014,08,28,15,00,AAXX 28154 85586 42960 72907 10116 20079 40171 53004 87030 333 56070 87363=
85586,2014,08,28,18,00,AAXX 28184 85586 12960 62807 10124 20063 40165 56006 60001 86030 333 56070 86365=
85586,2014,08,28,21,00,AAXX 28214 85586 42960 52804 10124 20083 40158 55007 80001 333 56007 85073=
85586,2014,08,29,00,00,AAXX 29004 85586 11958 60903 10100 20081 40164 50007 60001 70522 82031 333 10137 56000 82365 86070=
85586,2014,08,29,03,00,AAXX 29034 85586 NIL=
85586,2014,08,29,06,00,AAXX 29064 85586 NIL=
85586,2014,08,29,09,00,AAXX 29094 85586 NIL=
85586,2014,08,29,12,00,AAXX 29124 85586 11957 79902 10066 20062 40149 55004 60003 70522 80001 333 20054 31/// 55068 56000 70000 87070=
85586,2014,08,29,15,00,AAXX 29154 85586 41958 70404 10123 20086 40143 58003 70522 80001 333 56000 87070=
85586,2014,08,29,18,00,AAXX 29184 85586 12960 72807 10123 20093 40140 58004 60001 80001 333 56007 87070=
85586,2014,08,29,21,00,AAXX 29214 85586 42460 63011 10125 20095 40136 55004 82101 333 56700 82812 86070=
85586,2014,08,30,00,00,AAXX 30004 85586 12460 73406 10114 20090 40154 51022 60004 82101 333 10134 56700 82812 86070=
85586,2014,08,30,03,00,AAXX 30034 85586 NIL=
85586,2014,08,30,06,00,AAXX 30064 85586 NIL=
85586,2014,08,30,09,00,AAXX 30094 85586 NIL=
85586,2014,08,30,12,00,AAXX 30124 85586 11450 80207 10114 20102 40217 53031 60093 76062 885// 333 20105 31/// 55068 56799 70092 88618=
85586,2014,08,30,15,00,AAXX 30154 85586 41560 83607 10152 20112 40229 51015 70262 885// 333 56199 85622 88639=
85586,2014,08,30,18,00,AAXX 30184 85586 12660 53108 10151 20111 40215 58011 69921 83630 333 56660 83635 85360=
85586,2014,08,30,21,00,AAXX 30214 85586 42960 62405 10139 20107 40203 56010 80002 333 56006 86070=
85586,2014,08,31,00,00,AAXX 31004 85586 NIL=
85586,2014,08,31,03,00,AAXX 31034 85586 NIL=
85586,2014,08,31,06,00,AAXX 31064 85586 NIL=
85586,2014,08,31,09,00,AAXX 31094 85586 NIL=
85586,2014,08,31,12,00,AAXX 31124 85586 11250 70000 10094 20091 40140 55003 69924 71022 82602 333 20092 31/// 55000 56606 70002 82704 87070=
85586,2014,08,31,15,00,AAXX 31154 85586 41250 83106 10124 20111 40152 53015 71022 886// 333 56099 88706=
85586,2014,08,31,18,00,AAXX 31184 85586 11250 83408 10125 20113 40149 58003 60001 71022 886// 333 56099 88704=
85586,2014,08,31,21,00,AAXX 31214 85586 42560 83304 10131 20117 40138 55012 885// 333 56099 88623=
85586,2014,09,01,00,00,AAXX 01004 85586 12560 80405 10135 20103 40131 58005 60001 8553/ 333 10152 56609 85629 88364=
85586,2014,09,01,03,00,AAXX 01034 85586 NIL=
85586,2014,09,01,06,00,AAXX 01064 85586 NIL=
85586,2014,09,01,09,00,AAXX 01094 85586 NIL=
85586,2014,09,01,12,00,AAXX 01124 85586 11450 80107 10126 20118 40136 51017 60184 76362 882// 333 20121 32/// 55000 56799 70183 88812=
85586,2014,09,01,15,00,AAXX 01154 85586 41458 83410 10135 20124 40150 52014 78162 888// 333 56799 88612=
85586,2014,09,01,18,00,AAXX 01184 85586 11258 83410 10135 20127 40162 50012 60121 70562 888// 333 56799 85805 88620=
85586,2014,09,01,21,00,AAXX 01214 85586 42360 83312 10138 20127 40164 53002 886// 333 56799 88708=
85586,2014,09,02,00,00,AAXX 02004 85586 11357 83406 10132 20121 40176 53010 69921 70522 886// 333 10156 56799 88708=
85586,2014,09,02,03,00,AAXX 02034 85586 NIL=
85586,2014,09,02,06,00,AAXX 02064 85586 NIL=
85586,2014,09,02,09,00,AAXX 02094 85586 NIL=
85586,2014,09,02,12,00,AAXX 02124 85586 11506 71103 10097 20096 40149 56006 60124 74442 82530 333 20070 31/// 55010 56660 70122 82620 85364=
85586,2014,09,02,15,00,AAXX 02154 85586 41220 79902 10125 20120 40145 55003 71022 84630 333 56550 83705 87362=
85586,2014,09,02,18,00,AAXX 02184 85586 11440 89902 10129 20118 40138 58010 69921 78022 8222/ 333 56669 82813 88458=
85586,2014,09,02,21,00,AAXX 02214 85586 41108 82505 10120 20115 40142 53004 74664 886// 333 56699 88702=
85586,2014,09,03,00,00,AAXX 03004 85586 11108 89902 10116 20111 40162 51022 69981 74642 886// 333 10139 56499 88703=
85586,2014,09,03,03,00,AAXX 03034 85586 NIL=
85586,2014,09,03,06,00,AAXX 03064 85586 NIL=
85586,2014,09,03,09,00,AAXX 03094 85586 NIL=
85586,2014,09,03,12,00,AAXX 03124 85586 11656 82102 10116 20110 40183 52034 60034 78022 8802/ 333 20108 32/// 55000 56069 70030 88546=
85586,2014,09,03,15,00,AAXX 03154 85586 42560 69902 10144 20114 40187 53005 86830 333 56760 83830 86358=
85586,2014,09,03,18,00,AAXX 03184 85586 12560 72407 10152 20116 40189 50004 69921 82530 333 56760 82625 86650=
85586,2014,09,03,21,00,AAXX 03214 85586 42560 72504 10139 20100 40178 55010 82530 333 56760 82630 86362=
85586,2014,09,04,00,00,AAXX 04004 85586 11858 83302 10126 20113 40178 54001 69921 76022 8803/ 333 10164 56069 88458=
85586,2014,09,04,03,00,AAXX 04034 85586 NIL=
85586,2014,09,04,06,00,AAXX 04064 85586 NIL=
85586,2014,09,04,09,00,AAXX 04094 85586 NIL=
85586,2014,09,04,12,00,AAXX 04124 85586 NIL=
85586,2014,09,04,15,00,AAXX 04154 85586 41508 83305 10121 20118 40192 52012 76366 885// 333 56799 88625=
85586,2014,09,04,18,00,AAXX 04184 85586 11120 83006 10121 20118 40189 55010 60141 76066 886// 333 56799 88703=
85586,2014,09,04,21,00,AAXX 04214 85586 41240 82603 10123 20115 40183 56006 76066 885// 333 56799 82704 84710 88612=
85586,2014,09,05,00,00,AAXX 05004 85586 11240 80000 10118 20115 40198 53015 60061 76066 886// 333 10131 56799 83704 88612=
85586,2014,09,05,03,00,AAXX 05034 85586 NIL=
85586,2014,09,05,06,00,AAXX 05064 85586 NIL=
85586,2014,09,05,09,00,AAXX 05094 85586 NIL=
85586,2014,09,05,12,00,AAXX 05124 85586 12560 80903 10091 20087 40215 53018 60324 885// 333 20077 32/// 55000 56799 70320 88630=
85586,2014,09,05,15,00,AAXX 05154 85586 42660 33408 10141 20092 40233 52016 83500 333 56700 81540 83850=
85586,2014,09,05,18,00,AAXX 05184 85586 12560 13111 10147 20111 40229 50001 60001 81200 333 56700 81825=
85586,2014,09,05,21,00,AAXX 05214 85586 42960 43110 10137 20105 40226 58005 80001 333 56006 84075=
85586,2014,09,06,00,00,AAXX 06004 85586 12460 10105 10116 20104 40237 52010 60001 81500 333 10151 56700 81610=
85586,2014,09,06,03,00,AAXX 06034 85586 NIL=
85586,2014,09,06,06,00,AAXX 06064 85586 NIL=
85586,2014,09,06,09,00,AAXX 06094 85586 NIL=
85586,2014,09,06,12,00,AAXX 06124 85586 12960 01003 10071 20055 40249 58002 60004 333 20056 31/// 55076 70000=
85586,2014,09,06,15,00,AAXX 06154 85586 42960 32103 10152 20076 40237 57008 80001 333 56006 83075=
85586,2014,09,06,18,00,AAXX 06184 85586 12960 62511 10151 20109 40218 58019 60001 80002 333 56006 86074=
85586,2014,09,06,21,00,AAXX 06214 85586 42960 72306 10135 20102 40203 56017 80002 333 56006 87070=
85586,2014,09,07,00,00,AAXX 07004 85586 12960 52303 10116 20095 40208 53005 60001 85030 333 10160 56060 85366=
85586,2014,09,07,03,00,AAXX 07034 85586 NIL=
85586,2014,09,07,06,00,AAXX 07064 85586 NIL=
85586,2014,09,07,09,00,AAXX 07094 85586 NIL=
85586,2014,09,07,12,00,AAXX 07124 85586 NIL=
85586,2014,09,07,15,00,AAXX 07154 85586 42960 51104 10162 20104 40190 58005 80001 333 56006 85075=
85586,2014,09,07,18,00,AAXX 07184 85586 12960 42409 10169 20108 40170 58019 60001 80001 333 56006 84075=
85586,2014,09,07,21,00,AAXX 07214 85586 42960 52408 10158 20112 40153 56020 80001 333 56006 85075=
85586,2014,09,08,00,00,AAXX 08004 85586 12960 40203 10125 20109 40158 53005 60001 80002 333 10179 56006 84075=
85586,2014,09,08,03,00,AAXX 08034 85586 NIL=
85586,2014,09,08,06,00,AAXX 08064 85586 NIL=
85586,2014,09,08,09,00,AAXX 08094 85586 NIL=
85586,2014,09,08,12,00,AAXX 08124 85586 11550 51003 10093 20092 40182 51022 60004 71011 83502 333 20072 31/// 55089 56606 70000 83620 84075=
85586,2014,09,08,15,00,AAXX 08154 85586 42560 62204 10144 20114 40192 51011 83504 333 56500 83620 86075=
85586,2014,09,08,18,00,AAXX 08184 85586 12560 62506 10148 20103 40180 58011 60001 82104 333 56600 82820 86073=
85586,2014,09,08,21,00,AAXX 08214 85586 42560 72509 10138 20112 40179 55003 87500 333 56600 87630=
85586,2014,09,09,00,00,AAXX 09004 85586 11458 89902 10128 20105 40188 52010 60001 70522 888// 333 10153 56599 82810 88630=
85586,2014,09,09,03,00,AAXX 09034 85586 NIL=
85586,2014,09,09,06,00,AAXX 09064 85586 NIL=
85586,2014,09,09,09,00,AAXX 09094 85586 NIL=
85586,2014,09,09,12,00,AAXX 09124 85586 12560 49902 10079 20067 40196 51014 60004 84500 333 20062 55000 56700 70000 82623 84650=
85586,2014,09,09,15,00,AAXX 09154 85586 42760 52409 10124 20047 40209 51014 85500 333 56600 85650=
85586,2014,09,09,18,00,AAXX 09184 85586 12560 22609 10132 20054 40212 52003 60001 82100 333 56600 82830=
85586,2014,09,09,21,00,AAXX 09214 85586 42560 22808 10126 20041 40213 53001 82100 333 56600 82825=
85586,2014,09,10,00,00,AAXX 10004 85586 12960 01103 10078 20049 40225 53010 60001 333 10140=
85586,2014,09,10,03,00,AAXX 10034 85586 NIL=
85586,2014,09,10,06,00,AAXX 10064 85586 NIL=
85586,2014,09,10,09,00,AAXX 10094 85586 NIL=
85586,2014,09,10,12,00,AAXX 10124 85586 12960 01104 10065 20037 40217 53001 60004 333 20041 31/// 55090 70000=
85586,2014,09,10,15,00,AAXX 10154 85586 42960 01403 10142 20046 40203 58010=
85586,2014,09,10,18,00,AAXX 10184 85586 12460 12412 10145 20067 40180 58024 60001 81100 333 56700 81815=
85586,2014,09,10,21,00,AAXX 10214 85586 42960 02414 10135 20088 40169 56012=
85586,2014,09,11,00,00,AAXX 11004 85586 11958 00000 10085 20068 40166 56005 60001 70500 333 10151=
85586,2014,09,11,03,00,AAXX 11034 85586 NIL=
85586,2014,09,11,06,00,AAXX 11064 85586 NIL=
85586,2014,09,11,09,00,AAXX 11094 85586 NIL=
85586,2014,09,11,12,00,AAXX 11124 85586 12360 21205 10054 20052 40144 52010 60003 82700 333 20023 30/// 55107 56300 70000 82709=
85586,2014,09,11,15,00,AAXX 11154 85586 42960 02606 10132 20087 40150 52008=
85586,2014,09,11,18,00,AAXX 11184 85586 12960 02809 10134 20093 40143 56007 60001=
85586,2014,09,11,21,00,AAXX 11214 85586 42960 02609 10132 20093 40140 55002=
85586,2014,09,12,00,00,AAXX 12004 85586 12960 02809 10134 20093 40143 56007 60000=
85586,2014,09,12,03,00,AAXX 12034 85586 NIL=
85586,2014,09,12,06,00,AAXX 12064 85586 NIL=
85586,2014,09,12,09,00,AAXX 12094 85586 NIL=
85586,2014,09,12,12,00,AAXX 12124 85586 12460 11103 10078 20075 40151 51016 60004 81600 333 20039 31/// 55105 56600 70000 81710=
85586,2014,09,12,15,00,AAXX 12154 85586 42460 22905 10128 20083 40162 51012 82100 333 56600 82815=
85586,2014,09,12,18,00,AAXX 12184 85586 12460 42806 10143 20100 40157 58004 60001 84200 333 56600 84818=
85586,2014,09,12,21,00,AAXX 12214 85586 42960 02609 10135 20092 40148 55010=
85586,2014,09,13,00,00,AAXX 13004 85586 12460 29902 10115 20096 40161 52011 60001 82100 333 10157 56700 82812=
85586,2014,09,13,03,00,AAXX 13034 85586 NIL=
85586,2014,09,13,06,00,AAXX 13064 85586 NIL=
85586,2014,09,13,09,00,AAXX 13094 85586 NIL=
85586,2014,09,13,12,00,AAXX 13124 85586 12960 80303 10116 20090 40197 53011 60004 8803/ 333 20101 31/// 55100 56009 70000 88360=
85586,2014,09,13,15,00,AAXX 13154 85586 42560 81803 10128 20097 40216 53014 8353/ 333 56609 83624 88360=
85586,2014,09,13,18,00,AAXX 13184 85586 12660 82206 10136 20104 40232 51017 69901 8553/ 333 56609 85634 88364=
85586,2014,09,13,21,00,AAXX 13214 85586 42460 83005 10134 20093 40245 51015 8553/ 333 56609 82615 85642 88363=
85586,2014,09,14,00,00,AAXX 14004 85586 NIL=
85586,2014,09,14,03,00,AAXX 14034 85586 NIL=
85586,2014,09,14,06,00,AAXX 14064 85586 NIL=
85586,2014,09,14,09,00,AAXX 14094 85586 NIL=
85586,2014,09,14,12,00,AAXX 14124 85586 12960 02004 10102 20090 40258 52004 69904 333 20073 31/// 55000 70000=
85586,2014,09,14,15,00,AAXX 14154 85586 42960 01704 10175 20114 40250 58008=
85586,2014,09,14,18,00,AAXX 14184 85586 12960 02008 10208 20118 40224 57026 60001=
85586,2014,09,14,21,00,AAXX 14214 85586 42960 02406 10199 20115 40206 56018=
85586,2014,09,15,00,00,AAXX 15004 85586 11958 02404 10139 20116 40210 53003 60001 70500 333 10225=
85586,2014,09,15,03,00,AAXX 15034 85586 NIL=
85586,2014,09,15,06,00,AAXX 15064 85586 NIL=
85586,2014,09,15,09,00,AAXX 15094 85586 NIL=
85586,2014,09,15,12,00,AAXX 15124 85586 12960 01303 10132 20091 40147 56002 60004 333 20101 31/// 55106 70000=
85586,2014,09,15,15,00,AAXX 15154 85586 42960 02004 10217 20116 40139 58007=
85586,2014,09,15,18,00,AAXX 15184 85586 12960 02413 10171 20121 40125 56012 60001=
85586,2014,09,15,21,00,AAXX 15214 85586 42960 02810 10148 20118 40136 53010=
85586,2014,09,16,00,00,AAXX 16004 85586 11458 83605 10128 20110 40151 51016 60001 70500 886// 333 10231 56799 88710=
85586,2014,09,16,03,00,AAXX 16034 85586 NIL=
85586,2014,09,16,06,00,AAXX 16064 85586 NIL=
85586,2014,09,16,09,00,AAXX 16094 85586 NIL=
85586,2014,09,16,12,00,AAXX 16124 85586 11340 82903 10114 20103 40179 52012 69904 75022 886// 333 20114 33/// 55106 56799 79999 88708=
85586,2014,09,16,15,00,AAXX 16154 85586 41358 82705 10120 20108 40189 51010 70552 886// 333 56699 85707 88712=
85586,2014,09,16,18,00,AAXX 16184 85586 11458 82507 10119 20103 40188 58001 60001 70522 886// 333 56699 88710=
85586,2014,09,16,21,00,AAXX 16214 85586 41458 82603 10119 20098 40182 55006 70522 886// 333 56699 88712=
85586,2014,09,17,00,00,AAXX 17004 85586 11458 80000 10116 20099 40180 55002 60001 70522 885// 333 10126 56099 88618=
85586,2014,09,17,03,00,AAXX 17034 85586 NIL=
85586,2014,09,17,06,00,AAXX 17064 85586 NIL=
85586,2014,09,17,09,00,AAXX 17094 85586 NIL=
85586,2014,09,17,12,00,AAXX 17124 85586 11550 81803 10112 20100 40189 53017 60003 71022 885// 333 20110 31/// 55000 56099 70000 88624=
85586,2014,09,17,15,00,AAXX 17154 85586 41558 89903 10126 20098 40200 51011 70522 885// 333 56499 88625=
85586,2014,09,17,18,00,AAXX 17184 85586 12560 89902 10132 20091 40198 58002 60001 885// 333 56699 88627=
85586,2014,09,17,21,00,AAXX 17214 85586 42660 82203 10137 20082 40192 56005 885// 333 56699 88635=
85586,2014,09,18,00,00,AAXX 18004 85586 12660 81904 10124 20087 40193 55001 60001 885// 333 10143 56599 88635=
85586,2014,09,18,03,00,AAXX 18034 85586 NIL=
85586,2014,09,18,06,00,AAXX 18064 85586 NIL=
85586,2014,09,18,09,00,AAXX 18094 85586 NIL=
85586,2014,09,18,12,00,AAXX 18124 85586 11650 80503 10101 20095 40216 53020 60003 71022 885// 333 20062 31/// 55000 56099 70000 88638=
85586,2014,09,18,15,00,AAXX 18154 85586 42460 83403 10144 20099 40228 51015 885// 333 56699 82614 88640=
85586,2014,09,18,18,00,AAXX 18184 85586 12460 82807 10138 20112 40231 52002 60001 885// 333 56699 82611 88644=
85586,2014,09,18,21,00,AAXX 18214 85586 42660 82606 10137 20102 40230 55001 885// 333 56099 88647=
85586,2014,09,19,00,00,AAXX 19004 85586 12660 82104 10117 20100 40244 51013 60001 885// 333 10151 56099 88649=
85586,2014,09,19,03,00,AAXX 19034 85586 NIL=
85586,2014,09,19,06,00,AAXX 19064 85586 NIL=
85586,2014,09,19,09,00,AAXX 19094 85586 NIL=
85586,2014,09,19,12,00,AAXX 19124 85586 11950 81803 10088 20082 40232 53008 60004 71022 8803/ 333 20069 31/// 55000 56009 70000 88365=
85586,2014,09,19,15,00,AAXX 19154 85586 42460 71203 10150 20107 40235 50007 82530 333 56660 82616 87365=
85586,2014,09,19,18,00,AAXX 19184 85586 12960 32416 10162 20108 40222 56015 60001 83030 333 56060 83365=
85586,2014,09,19,21,00,AAXX 19214 85586 42960 02411 10149 20111 40223 53001=
85586,2014,09,20,00,00,AAXX 20004 85586 12960 31403 10108 20097 40240 53015 60001 80001 333 10184 56006 83075=
85586,2014,09,20,03,00,AAXX 20034 85586 NIL=
85586,2014,09,20,06,00,AAXX 20064 85586 NIL=
85586,2014,09,20,09,00,AAXX 20094 85586 NIL=
85586,2014,09,20,12,00,AAXX 20124 85586 11140 21903 10094 20093 40210 52002 60004 71044 82600 333 20053 31/// 55073 56700 70000 82703=
85586,2014,09,20,15,00,AAXX 20154 85586 42960 52704 10178 20134 40199 58010 80001 333 56006 85075=
85586,2014,09,20,18,00,AAXX 20184 85586 12960 72416 10144 20118 40181 56023 60001 80001 333 56006 87075=
85586,2014,09,20,21,00,AAXX 20214 85586 42960 52507 10155 20125 40168 56010 80001 333 56006 85075=
85586,2014,09,21,00,00,AAXX 21004 85586 11958 53604 10124 20111 40171 53004 60001 70511 80001 333 10202 56006 85075=
85586,2014,09,21,03,00,AAXX 21034 85586 NIL=
85586,2014,09,21,06,00,AAXX 21064 85586 NIL=
85586,2014,09,21,09,00,AAXX 21094 85586 NIL=
85586,2014,09,21,12,00,AAXX 21124 85586 11240 89902 10116 20111 40184 51015 60004 75022 886// 333 20110 31/// 55087 56799 70000 88706=
85586,2014,09,21,15,00,AAXX 21154 85586 41356 82706 10127 20113 40191 52007 70522 886// 333 56799 88707=
85586,2014,09,21,18,00,AAXX 21184 85586 12460 72409 10151 20124 40186 58003 69901 85501 333 56706 85619=
85586,2014,09,21,21,00,AAXX 21214 85586 42560 82414 10139 20104 40183 57003 885// 333 56799 88626=
85586,2014,09,22,00,00,AAXX 22004 85586 12660 82306 10125 20092 40199 53014 60001 885// 333 10161 56799 88636=
85586,2014,09,22,03,00,AAXX 22034 85586 NIL=
85586,2014,09,22,06,00,AAXX 22064 85586 NIL=
85586,2014,09,22,09,00,AAXX 22094 85586 NIL=
85586,2014,09,22,12,00,AAXX 22124 85586 12960 79902 10093 20049 40217 53012 69903 80001 333 20078 31/// 55010 56006 79999 87075=
85586,2014,09,22,15,00,AAXX 22154 85586 42960 52606 10127 20066 40224 52008 80001 333 56006 85073=
85586,2014,09,22,18,00,AAXX 22184 85586 12960 72410 10138 20078 40220 57005 60001 80008 333 56006 87270=
85586,2014,09,22,21,00,AAXX 22214 85586 42960 72407 10124 20081 40218 54001 87030 333 56050 87365=
85586,2014,09,23,00,00,AAXX 23004 85586 12960 22003 10090 20071 40223 52005 60001 82030 333 10154 56050 82365=
85586,2014,09,23,03,00,AAXX 23034 85586 NIL=
85586,2014,09,23,06,00,AAXX 23064 85586 NIL=
85586,2014,09,23,09,00,AAXX 23094 85586 NIL=
85586,2014,09,23,12,00,AAXX 23124 85586 12960 72103 10066 20062 40253 53013 60003 87030 333 20027 31/// 55009 56060 70000 87364=
85586,2014,09,23,15,00,AAXX 23154 85586 42960 62406 10128 20083 40266 51015 86030 333 56060 86365=
85586,2014,09,23,18,00,AAXX 23184 85586 12660 72609 10125 20076 40263 58003 60001 82530 333 56660 82640 87362=
85586,2014,09,23,21,00,AAXX 23214 85586 42960 52409 10124 20075 40256 57007 85030 333 56060 85362=
85586,2014,09,24,00,00,AAXX 24004 85586 12960 02304 10098 20081 40258 51004 60001 333 10136=
85586,2014,09,24,03,00,AAXX 24034 85586 NIL=
85586,2014,09,24,06,00,AAXX 24064 85586 NIL=
85586,2014,09,24,09,00,AAXX 24094 85586 NIL=
85586,2014,09,24,12,00,AAXX 24124 85586 12960 70703 10083 20071 40198 57005 60003 87030 333 20044 30/// 55006 56060 70000 87366=
85586,2014,09,24,15,00,AAXX 24154 85586 42960 73303 10137 20088 40188 58007 87030 333 56060 87366=
85586,2014,09,24,18,00,AAXX 24184 85586 12560 82509 10133 20109 40191 53003 60001 8153/ 333 56609 81630 88365=
85586,2014,09,24,21,00,AAXX 24214 85586 42460 72905 10132 20111 40194 53005 85530 333 56660 85610 85366=
85586,2014,09,25,00,00,AAXX 25004 85586 11950 32703 10106 20098 40197 53001 60001 71022 80001 333 10141 56006 83075=
85586,2014,09,25,03,00,AAXX 25034 85586 NIL=
85586,2014,09,25,06,00,AAXX 25064 85586 NIL=
85586,2014,09,25,09,00,AAXX 25094 85586 NIL=
85586,2014,09,25,12,00,AAXX 25124 85586 12460 80406 10119 20086 40205 53019 60004 885// 333 20068 30/// 55005 56699 70000 81615 85620 88628=
85586,2014,09,25,15,00,AAXX 25154 85586 41360 83307 10128 20110 40224 51019 70262 888// 333 56799 83808 88618=
85586,2014,09,25,18,00,AAXX 25184 85586 12460 22410 10148 20090 40220 58002 60021 82100 333 56600 82818=
85586,2014,09,25,21,00,AAXX 25214 85586 42960 42410 10144 20080 40213 57008 80001 333 56000 84073=
85586,2014,09,26,00,00,AAXX 26004 85586 12960 20000 10093 20078 40222 53008 60001 80001 333 10159 56000 82073=
85586,2014,09,26,03,00,AAXX 26034 85586 NIL=
85586,2014,09,26,06,00,AAXX 26064 85586 NIL=
85586,2014,09,26,09,00,AAXX 26094 85586 NIL=
85586,2014,09,26,12,00,AAXX 26124 85586 12960 22303 10078 20074 40184 50002 60023 82030 333 20042 31/// 55005 56060 70016 82365=
85586,2014,09,26,15,00,AAXX 26154 85586 42960 02510 10144 20095 40185 53002=
85586,2014,09,26,18,00,AAXX 26184 85586 12960 42510 10149 20093 40174 56011 60001 80001 333 56000 84075=
85586,2014,09,26,21,00,AAXX 26214 85586 42960 62508 10134 20089 40168 56007 80008 333 56006 86270=
85586,2014,09,27,00,00,AAXX 27004 85586 13960 70203 10107 20085 40180 51011 60001 80001 333 10155 56006 87075=
85586,2014,09,27,03,00,AAXX 27034 85586 NIL=
85586,2014,09,27,06,00,AAXX 27064 85586 NIL=
85586,2014,09,27,09,00,AAXX 27094 85586 NIL=
85586,2014,09,27,12,00,AAXX 27124 85586 12960 71703 10078 20074 40174 53008 60004 80001 333 20060 31/// 55077 56006 70000 87075=
85586,2014,09,27,15,00,AAXX 27154 85586 42960 59902 10142 20093 40171 50000 80001 333 56006 85075=
85586,2014,09,27,18,00,AAXX 27184 85586 12960 62408 10146 20086 40158 56012 60001 86030 333 56060 86365=
85586,2014,09,27,21,00,AAXX 27214 85586 42960 82506 10127 20101 40161 53001 8803/ 333 56069 88365=
85586,2014,09,28,00,00,AAXX 28004 85586 11958 70000 10117 20098 40170 51009 60001 70522 87030 333 10164 56060 87362=
85586,2014,09,28,03,00,AAXX 28034 85586 NIL=
85586,2014,09,28,06,00,AAXX 28064 85586 NIL=
85586,2014,09,28,09,00,AAXX 28094 85586 NIL=
85586,2014,09,28,12,00,AAXX 28124 85586 12960 01003 10112 20075 40192 51019 69924 333 20057 31/// 55044 70002=
85586,2014,09,28,15,00,AAXX 28154 85586 42960 02507 10155 20101 40198 53007=
85586,2014,09,28,18,00,AAXX 28184 85586 12960 52508 10163 20123 40186 58011 60001 80001 333 56006 85075=
85586,2014,09,28,21,00,AAXX 28214 85586 41108 62507 10140 20129 40171 57014 74611 86601 333 56706 86702=
85586,2014,09,29,00,00,AAXX 29004 85586 11206 82605 10124 20121 40183 51010 69901 74444 886// 333 10173 56799 88704=
85586,2014,09,29,03,00,AAXX 29034 85586 NIL=
85586,2014,09,29,06,00,AAXX 29064 85586 NIL=
85586,2014,09,29,09,00,AAXX 29094 85586 NIL=
85586,2014,09,29,12,00,AAXX 29124 85586 11030 80000 10127 20125 40183 52010 69904 71022 886// 333 20119 30/// 55089 56699 70000 83701 88710=
85586,2014,09,29,15,00,AAXX 29154 85586 41357 82606 10136 20117 40188 53007 70522 886// 333 56699 88707=
85586,2014,09,29,18,00,AAXX 29184 85586 12460 82309 10142 20117 40183 58005 60001 885// 333 56699 88615=
85586,2014,09,29,21,00,AAXX 29214 85586 42560 83504 10155 20123 40179 55004 885// 333 56799 88625=
85586,2014,09,30,00,00,AAXX 30004 85586 11558 59902 10107 20095 40185 53007 60001 70522 85500 333 10161 56000 85620=
85586,2014,09,30,03,00,AAXX 30034 85586 NIL=
85586,2014,09,30,06,00,AAXX 30064 85586 NIL=
85586,2014,09,30,09,00,AAXX 30094 85586 NIL=
85586,2014,09,30,12,00,AAXX 30124 85586 12960 01104 10122 20117 40169 55000 60004 333 20052 30/// 55007 70000=
85586,2014,09,30,15,00,AAXX 30154 85586 42960 02512 10170 20134 40170 53003=
85586,2014,09,30,18,00,AAXX 30184 85586 12960 62409 10174 20119 40159 58010 60001 80001 333 56005 86073=
85586,2014,09,30,21,00,AAXX 30214 85586 42960 22507 10154 20110 40148 57011 80001 333 56000 82073=
85586,2014,10,01,00,00,AAXX 01004 85586 12960 69902 10126 20105 40145 55003 60001 80004 333 10189 56007 86070=
85586,2014,10,01,03,00,AAXX 01034 85586 NIL=
85586,2014,10,01,06,00,AAXX 01064 85586 NIL=
85586,2014,10,01,09,00,AAXX 01094 85586 NIL=
85586,2014,10,01,12,00,AAXX 01124 85586 11/01 99902 10104 20103 40145 53020 60004 74544 333 20056 30/// 55096 70000 89/00=
85586,2014,10,01,15,00,AAXX 01154 85586 41206 83005 10122 20120 40158 52012 74244 886// 333 56699 88704=
85586,2014,10,01,18,00,AAXX 01184 85586 11257 82908 10127 20118 40164 52008 60001 70542 886// 333 56699 88704=
85586,2014,10,01,21,00,AAXX 01214 85586 42360 83006 10128 20107 40172 53008 886// 333 56699 88709=
85586,2014,10,02,00,00,AAXX 02004 85586 12360 83003 10122 20108 40175 53002 60001 886// 333 10136 56699 88707=
85586,2014,10,02,03,00,AAXX 02034 85586 NIL=
85586,2014,10,02,06,00,AAXX 02064 85586 NIL=
85586,2014,10,02,09,00,AAXX 02094 85586 NIL=
85586,2014,10,02,12,00,AAXX 02124 85586 11225 82304 10107 20102 40163 53013 60004 71022 886// 333 20103 30/// 55000 56699 70000 88706=
85586,2014,10,02,15,00,AAXX 02154 85586 41130 82507 10114 20109 40168 51005 71022 886// 333 56699 88703=
85586,2014,10,02,18,00,AAXX 02184 85586 12460 82704 10135 20096 40156 58011 60001 886// 333 56699 88712=
85586,2014,10,02,21,00,AAXX 02214 85586 42460 82509 10128 20093 40153 55004 885// 333 56699 88618=
85586,2014,10,03,00,00,AAXX 03004 85586 11458 89902 10116 20087 40158 52005 60001 70522 885// 333 10148 56699 88615=
85586,2014,10,03,03,00,AAXX 03034 85586 NIL=
85586,2014,10,03,06,00,AAXX 03064 85586 NIL=
85586,2014,10,03,09,00,AAXX 03094 85586 NIL=
85586,2014,10,03,12,00,AAXX 03124 85586 11558 89902 10110 20090 40165 52008 60003 70522 885// 333 20109 31/// 55010 56799 70000 88621=
85586,2014,10,03,15,00,AAXX 03154 85586 41558 82606 10132 20089 40174 52010 70522 885// 333 56699 88620=
85586,2014,10,03,18,00,AAXX 03184 85586 12560 52709 10151 20091 40159 58014 60001 85500 333 56600 85627=
85586,2014,10,03,21,00,AAXX 03214 85586 42960 22511 10137 20082 40146 56015 82030 333 56060 82365=
85586,2014,10,04,00,00,AAXX 04004 85586 11958 72305 10114 20081 40149 53001 60001 70511 80001 333 10157 56006 87075=
85586,2014,10,04,03,00,AAXX 04034 85586 NIL=
85586,2014,10,04,06,00,AAXX 04064 85586 NIL=
85586,2014,10,04,09,00,AAXX 04094 85586 NIL=
85586,2014,10,04,12,00,AAXX 04124 85586 116// 89902 10127 20094 40202 53005 60003 70522 885// 333 20097 31/// 55057 56799 70000 88633=
85586,2014,10,04,15,00,AAXX 04154 85586 41558 89902 10149 20097 40210 50007 70522 885// 333 56799 82622 88633=
85586,2014,10,04,18,00,AAXX 04184 85586 12560 22508 10171 20096 40189 58017 60001 82500 333 56700 82625=
85586,2014,10,04,21,00,AAXX 04214 85586 42960 02312 10141 20104 40180 55015=
85586,2014,10,05,00,00,AAXX 05004 85586 11858 20806 10121 20100 40183 50006 60001 70500 82030 333 10181 56060 82357=
85586,2014,10,05,03,00,AAXX 05034 85586 NIL=
85586,2014,10,05,06,00,AAXX 05064 85586 NIL=
85586,2014,10,05,09,00,AAXX 05094 85586 NIL=
85586,2014,10,05,12,00,AAXX 05124 85586 12560 62003 10116 20110 40205 53008 60004 84501 333 20067 30/// 55050 56606 70000 84622 84075=
85586,2014,10,05,15,00,AAXX 05154 85586 42560 22510 10160 20116 40203 50000 82500 333 56600 82624=
85586,2014,10,05,18,00,AAXX 05184 85586 12960 02417 10170 20124 40191 58011 60001=
85586,2014,10,05,21,00,AAXX 05214 85586 42960 02311 10180 20125 40175 57015=
85586,2014,10,06,00,00,AAXX 06004 85586 12960 02404 10125 20106 40178 55001 60001 333 10186=
85586,2014,10,06,03,00,AAXX 06034 85586 NIL=
85586,2014,10,06,06,00,AAXX 06064 85586 NIL=
85586,2014,10,06,09,00,AAXX 06094 85586 NIL=
85586,2014,10,06,12,00,AAXX 06124 85586 12960 00000 10109 20103 40151 52004 60004 333 20050 30/// 55105 70000=
85586,2014,10,06,15,00,AAXX 06154 85586 42960 02906 10156 20116 40154 50003=
85586,2014,10,06,18,00,AAXX 06184 85586 12460 22610 10157 20121 40156 53003 60001 82100 333 56600 82815=
85586,2014,10,06,21,00,AAXX 06214 85586 42360 72907 10139 20114 40161 51004 87600 333 56600 87709=
85586,2014,10,07,00,00,AAXX 07004 85586 12360 82804 10128 20109 40171 53010 60001 886// 333 10167 56699 88709=
85586,2014,10,07,03,00,AAXX 07034 85586 NIL=
85586,2014,10,07,06,00,AAXX 07064 85586 NIL=
85586,2014,10,07,09,00,AAXX 07094 85586 NIL=
85586,2014,10,07,12,00,AAXX 07124 85586 12360 89902 10112 20096 40180 52014 60004 886// 333 20111 30/// 55084 56699 70000 88707=
85586,2014,10,07,15,00,AAXX 07154 85586 41357 89902 10125 20104 40189 51010 70522 886// 333 56799 88707=
85586,2014,10,07,18,00,AAXX 07184 85586 11358 83107 10133 20110 40184 58004 60001 70522 886// 333 56799 88707=
85586,2014,10,07,21,00,AAXX 07214 85586 41260 82605 10125 20108 40180 57005 70522 886// 333 56699 88706=
85586,2014,10,08,00,00,AAXX 08004 85586 11358 20703 10114 20103 40175 58005 60001 70522 82600 333 10136 56200 82709=
85586,2014,10,08,03,00,AAXX 08034 85586 NIL=
85586,2014,10,08,06,00,AAXX 08064 85586 NIL=
85586,2014,10,08,09,00,AAXX 08094 85586 NIL=
85586,2014,10,08,12,00,AAXX 08124 85586 11220 82204 10109 20104 40181 53014 69904 71052 886// 333 20102 31/// 55000 56099 79999 88705=
85586,2014,10,08,15,00,AAXX 08154 85586 42360 82703 10124 20105 40195 51016 886// 333 56699 88707=
85586,2014,10,08,18,00,AAXX 08184 85586 12460 82309 10136 20095 40200 53004 60001 885// 333 56699 88614=
85586,2014,10,08,21,00,AAXX 08214 85586 42460 82308 10130 20083 40202 53002 885// 333 56699 88619=
85586,2014,10,09,00,00,AAXX 09004 85586 NIL=
85586,2014,10,09,03,00,AAXX 09034 85586 NIL=
85586,2014,10,09,06,00,AAXX 09064 85586 NIL=
85586,2014,10,09,09,00,AAXX 09094 85586 NIL=
85586,2014,10,09,12,00,AAXX 09124 85586 12660 89903 10099 20053 40211 53006 60004 885// 333 20055 30/// 55000 56799 70000 88646=
85586,2014,10,09,15,00,AAXX 09154 85586 42960 61810 10159 20050 40211 51002 80001 333 56006 86075=
85586,2014,10,09,18,00,AAXX 09184 85586 12960 62415 10163 20076 40199 58013 60001 80001 333 56006 86075=
85586,2014,10,09,21,00,AAXX 09214 85586 42960 02416 10148 20079 40184 56014=
85586,2014,10,10,00,00,AAXX 10004 85586 12960 02204 10114 20064 40188 53003 60001 333 10184=
85586,2014,10,10,03,00,AAXX 10034 85586 NIL=
85586,2014,10,10,06,00,AAXX 10064 85586 NIL=
85586,2014,10,10,09,00,AAXX 10094 85586 NIL=
85586,2014,10,10,12,00,AAXX 10124 85586 12960 09902 10093 20033 40164 53020 60004 333 20035 30/// 55100 70000=
85586,2014,10,10,15,00,AAXX 10154 85586 42960 02707 10125 20040 40180 53016=
85586,2014,10,10,18,00,AAXX 10184 85586 12960 02711 10128 20055 40190 51011 60001=
85586,2014,10,10,21,00,AAXX 10214 85586 42960 02708 10123 20062 40186 56004=
85586,2014,10,11,00,00,AAXX 11004 85586 12960 00000 10071 20048 40199 53010 60001 333 10139=
85586,2014,10,11,03,00,AAXX 11034 85586 NIL=
85586,2014,10,11,06,00,AAXX 11064 85586 NIL=
85586,2014,10,11,09,00,AAXX 11094 85586 NIL=
85586,2014,10,11,12,00,AAXX 11124 85586 12960 11103 10103 20055 40185 53011 60004 80002 333 20018 30/// 55119 56006 70000 81075=
85586,2014,10,11,15,00,AAXX 11154 85586 42960 42509 10146 20079 40194 51011 80001 333 56006 84075=
85586,2014,10,11,18,00,AAXX 11184 85586 12960 22513 10159 20096 40190 55003 60001 80001 333 56006 82075=
85586,2014,10,11,21,00,AAXX 11214 85586 42960 12413 10146 20099 40182 57010 80001 333 56006 81075=
85586,2014,10,12,00,00,AAXX 12004 85586 12960 00203 10115 20084 40193 53010 60001 333 10170=
85586,2014,10,12,03,00,AAXX 12034 85586 NIL=
85586,2014,10,12,06,00,AAXX 12064 85586 NIL=
85586,2014,10,12,09,00,AAXX 12094 85586 NIL=
85586,2014,10,12,12,00,AAXX 12124 85586 NIL=
85586,2014,10,12,15,00,AAXX 12154 85586 42960 51606 10203 20078 40162 58012 80001 333 56006 85075=
85586,2014,10,12,18,00,AAXX 12184 85586 12960 42515 10185 20097 40141 56023 60001 80001 333 56006 84075=
85586,2014,10,12,21,00,AAXX 12214 85586 42960 63203 10178 20107 40136 56007 80002 333 56006 86075=
85586,2014,10,13,00,00,AAXX 13004 85586 12960 60203 10128 20093 40144 53007 60001 80001 333 10249 56006 86075=
85586,2014,10,13,03,00,AAXX 13034 85586 NIL=
85586,2014,10,13,06,00,AAXX 13064 85586 NIL=
85586,2014,10,13,09,00,AAXX 13094 85586 NIL=
85586,2014,10,13,12,00,AAXX 13124 85586 12960 00000 10133 20096 40162 52013 60004 333 20052 30/// 55095 70000=
85586,2014,10,13,15,00,AAXX 13154 85586 42960 02907 10159 20113 40168 53007=
85586,2014,10,13,18,00,AAXX 13184 85586 12460 62907 10156 20112 40165 58004 60001 82104 333 56606 82810 86070=
85586,2014,10,13,21,00,AAXX 13214 85586 42460 22704 10147 20113 40159 57007 82100 333 56600 82810=
85586,2014,10,14,00,00,AAXX 14004 85586 12960 49902 10120 20089 40169 51010 60001 80001 333 10166 56006 84075=
85586,2014,10,14,03,00,AAXX 14034 85586 NIL=
85586,2014,10,14,06,00,AAXX 14064 85586 NIL=
85586,2014,10,14,09,00,AAXX 14094 85586 NIL=
85586,2014,10,14,12,00,AAXX 14124 85586 12960 79902 10122 20094 40131 53011 60004 82031 333 20049 30/// 55106 56066 70000 82365 85073=
85586,2014,10,14,15,00,AAXX 14154 85586 42960 52605 10173 20105 40136 50005 80004 333 56006 85073=
85586,2014,10,14,18,00,AAXX 14184 85586 12960 52808 10173 20125 40141 53004 60001 80004 333 56006 85070=
85586,2014,10,15,00,00,AAXX 15004 85586 11257 29902 10135 20126 40157 50005 60001 70522 82600 333 10190 56800 82704=
85586,2014,10,15,03,00,AAXX 15034 85586 NIL=
85586,2014,10,15,06,00,AAXX 15064 85586 NIL=
85586,2014,10,15,09,00,AAXX 15094 85586 NIL=
85586,2014,10,15,12,00,AAXX 15124 85586 12460 83203 10135 20100 40179 53018 60004 885// 333 20123 30/// 55061 56799 70000 88616=
85586,2014,10,15,15,00,AAXX 15154 85586 42460 72608 10144 20103 40198 51021 87500 333 56700 82613 87619=
85586,2014,10,15,18,00,AAXX 15184 85586 12460 72708 10140 20093 40203 50005 60001 87500 333 56700 87617=
85586,2014,10,15,21,00,AAXX 15214 85586 42960 42507 10146 20092 40203 50000 80001 333 56006 84075=
85586,2014,10,16,00,00,AAXX 16004 85586 12960 02103 10104 20087 40211 51006 60001 333 10161=
85586,2014,10,16,03,00,AAXX 16034 85586 NIL=
85586,2014,10,16,06,00,AAXX 16064 85586 NIL=
85586,2014,10,16,09,00,AAXX 16094 85586 NIL=
85586,2014,10,16,12,00,AAXX 16124 85586 12960 69901 10090 20086 40186 55000 60004 80001 333 20029 30/// 55075 56006 70000 86075=
85586,2014,10,16,15,00,AAXX 16154 85586 42960 21707 10201 20080 40171 58011 80001 333 56000 82075=
85586,2014,10,16,18,00,AAXX 16184 85586 12960 42416 10171 20112 40162 58010 60001 80001 333 56006 84073=
85586,2014,10,16,21,00,AAXX 16214 85586 42960 52412 10160 20110 40157 55007 80001 333 56006 85073=
85586,2014,10,17,00,00,AAXX 17004 85586 12960 69902 10132 20102 40168 53011 60001 80004 333 10202 56000 86070=
85586,2014,10,17,03,00,AAXX 17034 85586 NIL=
85586,2014,10,17,06,00,AAXX 17064 85586 NIL=
85586,2014,10,17,09,00,AAXX 17094 85586 NIL=
85586,2014,10,17,12,00,AAXX 17124 85586 12460 70307 10126 20105 40166 52013 60004 87600 333 20104 30/// 55094 56600 70000 87710=
85586,2014,10,17,15,00,AAXX 17154 85586 42460 72706 10142 20097 40195 53028 87600 333 56600 87712=
85586,2014,10,17,18,00,AAXX 17184 85586 12460 62809 10160 20099 40205 52011 60001 82101 333 56606 82816 86073=
85586,2014,10,17,21,00,AAXX 17214 85586 42960 52907 10154 20096 40203 55003 80001 333 56006 85073=
85586,2014,10,18,00,00,AAXX 18004 85586 12960 52904 10130 20100 40215 53012 60001 80001 333 10170 56006 85073=
85586,2014,10,18,03,00,AAXX 18034 85586 NIL=
85586,2014,10,18,06,00,AAXX 18064 85586 NIL=
85586,2014,10,18,09,00,AAXX 18094 85586 NIL=
85586,2014,10,18,12,00,AAXX 18124 85586 12960 81103 10121 20093 40210 53011 60004 8803/ 333 20095 30/// 55077 56009 70000 88360=
85586,2014,10,18,15,00,AAXX 18154 85586 41760 81504 10146 20086 40208 56001 70262 8153/ 333 56609 81650 88359=
85586,2014,10,18,18,00,AAXX 18184 85586 12560 62510 10166 20124 40202 56003 69901 81530 333 56660 81620 86363=
85586,2014,10,18,21,00,AAXX 18214 85586 42960 52413 10167 20119 40194 56009 82031 333 56066 82363 83075=
85586,2014,10,19,00,00,AAXX 19004 85586 12960 42103 10128 20093 40200 53003 60001 80001 333 10181 56006 84075=
85586,2014,10,19,03,00,AAXX 19034 85586 NIL=
85586,2014,10,19,06,00,AAXX 19064 85586 NIL=
85586,2014,10,19,09,00,AAXX 19094 85586 NIL=
85586,2014,10,19,12,00,AAXX 19124 85586 12960 09901 10127 20088 40199 51013 69904 333 20048 30/// 55033 70000=
85586,2014,10,19,15,00,AAXX 19154 85586 42960 02414 10161 20091 40192 58006=
85586,2014,10,19,18,00,AAXX 19184 85586 12960 02416 10175 20100 40181 55009 60001=
85586,2014,10,19,21,00,AAXX 19214 85586 42960 42513 10157 20094 40175 56009 80001 333 56006 84075=
85586,2014,10,20,00,00,AAXX 20004 85586 12960 40403 10125 20088 40185 53009 60001 80001 333 10197 56006 84075=
85586,2014,10,20,03,00,AAXX 20034 85586 NIL=
85586,2014,10,20,06,00,AAXX 20064 85586 NIL=
85586,2014,10,20,09,00,AAXX 20094 85586 NIL=
85586,2014,10,20,12,00,AAXX 20124 85586 12960 52406 10138 20103 40168 58007 60004 80001 333 20069 30/// 55114 56006 70000 85075=
85586,2014,10,20,15,00,AAXX 20154 85586 42960 02411 10219 20112 40158 57008=
85586,2014,10,20,18,00,AAXX 20184 85586 12960 32516 10191 20102 40145 58013 60001 80001 333 56006 83075=
85586,2014,10,20,21,00,AAXX 20214 85586 42960 32606 10203 20121 40130 56015 80001 333 56006 83075=
85586,2014,10,21,00,00,AAXX 21004 85586 11958 40204 10154 20110 40133 53002 60001 70500 80001 333 10240 56006 84075=
85586,2014,10,21,03,00,AAXX 21034 85586 NIL=
85586,2014,10,21,06,00,AAXX 21064 85586 NIL=
85586,2014,10,21,09,00,AAXX 21094 85586 NIL=
85586,2014,10,21,12,00,AAXX 21124 85586 11102 80704 10110 20107 40145 51019 60004 74644 886// 333 20078 30/// 55117 56799 70000 88702=
85586,2014,10,21,15,00,AAXX 21154 85586 41220 43008 10140 20122 40158 53017 74644 84600 333 56700 84704=
85586,2014,10,21,18,00,AAXX 21184 85586 11108 82907 10131 20123 40171 52012 69901 75044 886// 333 56799 88702=
85586,2014,10,21,21,00,AAXX 21214 85586 41108 82807 10130 20125 40172 53001 75242 886// 333 56699 88701=
85586,2014,10,22,00,00,AAXX 22004 85586 11140 82706 10120 20115 40179 53005 69921 71052 886// 333 10162 56699 88703=
85586,2014,10,22,03,00,AAXX 22034 85586 NIL=
85586,2014,10,22,06,00,AAXX 22064 85586 NIL=
85586,2014,10,22,09,00,AAXX 22094 85586 NIL=
85586,2014,10,22,12,00,AAXX 22124 85586 11108 80000 10110 20107 40165 55010 69924 74444 886// 333 20103 31/// 55030 56099 70002 88702=
85586,2014,10,22,15,00,AAXX 22154 85586 41360 32508 10144 20121 40160 58004 70144 83600 333 56600 83707=
85586,2014,10,22,18,00,AAXX 22184 85586 11250 62608 10146 20118 40151 57009 60001 71022 86600 333 56600 86704=
85586,2014,10,22,21,00,AAXX 22214 85586 41140 83205 10132 20114 40141 56011 71022 886// 333 56099 88703=
85586,2014,10,23,00,00,AAXX 23004 85586 11350 70310 10132 20118 40146 53005 60001 71022 87600 333 10156 56600 87707=
85586,2014,10,23,03,00,AAXX 23034 85586 NIL=
85586,2014,10,23,06,00,AAXX 23064 85586 NIL=
85586,2014,10,23,09,00,AAXX 23094 85586 NIL=
85586,2014,10,23,12,00,AAXX 23124 85586 11204 89902 10119 20117 40164 52013 60004 74242 886// 333 20111 30/// 55042 56099 70000 88704=
85586,2014,10,23,15,00,AAXX 23154 85586 41140 83004 10138 20125 40177 52011 71022 886// 333 56699 88702=
85586,2014,10,23,18,00,AAXX 23184 85586 11258 72907 10150 20123 40172 56003 60001 70522 87600 333 56600 87706=
85586,2014,10,23,21,00,AAXX 23214 85586 41108 83006 10134 20125 40171 55003 74622 886// 333 56699 88702=
85586,2014,10,24,00,00,AAXX 24004 85586 11240 79902 10125 20114 40181 51010 60001 71022 87600 333 10170 56700 87705=
85586,2014,10,24,03,00,AAXX 24034 85586 NIL=
85586,2014,10,24,06,00,AAXX 24064 85586 NIL=
85586,2014,10,24,09,00,AAXX 24094 85586 NIL=
85586,2014,10,24,12,00,AAXX 24124 85586 11203 89902 10106 20105 40173 53007 60004 74442 886// 333 20083 30/// 55000 56099 70000 88704=
85586,2014,10,24,15,00,AAXX 24154 85586 42960 02806 10169 20125 40166 57007=
85586,2014,10,24,18,00,AAXX 24184 85586 12960 03007 10176 20123 40150 58016 60001=
85586,2014,10,24,21,00,AAXX 24214 85586 42960 03305 10184 20121 40133 56017=
85586,2014,10,25,00,00,AAXX 25004 85586 12960 00204 10143 20113 40135 54000 60001 333 10189=
85586,2014,10,25,03,00,AAXX 25034 85586 NIL=
85586,2014,10,25,06,00,AAXX 25064 85586 NIL=
85586,2014,10,25,09,00,AAXX 25094 85586 NIL=
85586,2014,10,25,12,00,AAXX 25124 85586 12960 50000 10145 20117 40116 53012 60004 80001 333 20070 30/// 55108 56006 70000 85075=
85586,2014,10,25,15,00,AAXX 25154 85586 42960 33306 10176 20119 40125 52008 80001 333 56006 83075=
85586,2014,10,25,18,00,AAXX 25184 85586 12960 22806 10176 20130 40124 50001 60001 80001 333 56006 82075=
85586,2014,10,25,21,00,AAXX 25214 85586 42460 33210 10166 20132 40130 53006 81601 333 56706 81710=
85586,2014,10,26,00,00,AAXX 26004 85586 NIL=
85586,2014,10,26,03,00,AAXX 26034 85586 NIL=
85586,2014,10,26,06,00,AAXX 26064 85586 NIL=
85586,2014,10,26,09,00,AAXX 26094 85586 NIL=
85586,2014,10,26,12,00,AAXX 26124 85586 12560 51004 10132 20119 40172 50014 60004 85500 333 20084 30/// 55110 56600 70000 85620=
85586,2014,10,26,15,00,AAXX 26154 85586 42560 83210 10158 20118 40177 53005 885// 333 56099 88624=
85586,2014,10,26,18,00,AAXX 26184 85586 12560 83109 10166 20122 40166 58009 60001 885// 333 56099 88629=
85586,2014,10,26,21,00,AAXX 26214 85586 42560 82707 10155 20123 40158 55009 885// 333 56099 88630=
85586,2014,10,27,00,00,AAXX 27004 85586 NIL=
85586,2014,10,27,03,00,AAXX 27034 85586 NIL=
85586,2014,10,27,06,00,AAXX 27064 85586 NIL=
85586,2014,10,27,09,00,AAXX 27094 85586 NIL=
85586,2014,10,27,12,00,AAXX 27124 85586 12960 01103 10180 20127 40170 57014 60004 333 20145 30/// 55013 70000=
85586,2014,10,27,15,00,AAXX 27154 85586 42560 32609 10203 20131 40166 55003 81501 333 56606 81620=
85586,2014,10,27,18,00,AAXX 27184 85586 12960 52511 10203 20126 40160 58006 60001 80002 333 56006 85075=
85586,2014,10,27,21,00,AAXX 27214 85586 42960 62509 10168 20128 40157 55004 80002 333 56006 86074=
85586,2014,10,28,00,00,AAXX 28004 85586 12960 32703 10143 20127 40170 53012 60001 80001 333 10209 56006 83075=
85586,2014,10,28,03,00,AAXX 28034 85586 NIL=
85586,2014,10,28,06,00,AAXX 28064 85586 NIL=
85586,2014,10,28,09,00,AAXX 28094 85586 NIL=
85586,2014,10,28,12,00,AAXX 28124 85586 12360 80703 10135 20119 40201 53016 60004 885// 333 20077 30/// 55082 56699 70000 81608 88634=
85586,2014,10,28,15,00,AAXX 28154 85586 42560 80303 10184 20111 40200 50002 885// 333 56699 82629 88634=
85586,2014,10,28,18,00,AAXX 28184 85586 12560 12810 10184 20133 40193 56007 60001 81500 333 56600 81630=
85586,2014,10,28,21,00,AAXX 28214 85586 42460 22708 10174 20130 40189 58002 82500 333 56600 82615=
85586,2014,10,29,00,00,AAXX 29004 85586 12660 50000 10140 20126 40194 53003 60001 81501 333 10201 56606 81633 85075=
85586,2014,10,29,03,00,AAXX 29034 85586 NIL=
85586,2014,10,29,06,00,AAXX 29064 85586 NIL=
85586,2014,10,29,09,00,AAXX 29094 85586 NIL=
85586,2014,10,29,12,00,AAXX 29124 85586 12460 50000 10148 20112 40211 53013 60004 85500 333 20082 30/// 55079 56600 70000 85618=
85586,2014,10,29,15,00,AAXX 29154 85586 42560 52409 10167 20108 40219 51007 85200 333 56600 85820=
85586,2014,10,29,18,00,AAXX 29184 85586 12560 32515 10195 20116 40200 57018 60001 83100 333 56600 83830=
85586,2014,10,29,21,00,AAXX 29214 85586 12560 32515 10195 20116 40200 57018 60001 83100 333 56600 83830=
85586,2014,10,30,00,00,AAXX 30004 85586 12560 29902 10119 20074 40195 53007 60001 82100 333 10196 56500 82825=
85586,2014,10,30,03,00,AAXX 30034 85586 NIL=
85586,2014,10,30,06,00,AAXX 30064 85586 NIL=
85586,2014,10,30,09,00,AAXX 30094 85586 NIL=
85586,2014,10,30,12,00,AAXX 30124 85586 12560 29902 10119 20074 40195 53007 60001 82100 333 10196 56500 82825=
85586,2014,10,30,15,00,AAXX 30154 85586 42960 22512 10174 20094 40182 58012 80001 333 56000 82075=
85586,2014,10,30,18,00,AAXX 30184 85586 12960 22419 10175 20090 40168 58013 60001 80001 333 56005 82073=
85586,2014,10,30,21,00,AAXX 30214 85586 42960 22416 10167 20095 40160 57010 80001 333 56005 82073=
85586,2014,10,31,00,00,AAXX 31004 85586 12960 32205 10128 20085 40168 53005 69901 80001 333 10195 56005 83073=
85586,2014,10,31,03,00,AAXX 31034 85586 NIL=
85586,2014,10,31,06,00,AAXX 31064 85586 NIL=
85586,2014,10,31,09,00,AAXX 31094 85586 NIL=
85586,2014,10,31,12,00,AAXX 31124 85586 12960 09903 10141 20081 40178 50005 69904 333 20046 30/// 55123 70000=
85586,2014,10,31,15,00,AAXX 31154 85586 42960 02414 10164 20089 40169 56008=
85586,2014,10,31,18,00,AAXX 31184 85586 12960 02518 10159 20080 40164 56005 60001=
85586,2014,10,31,21,00,AAXX 31214 85586 42960 02416 10164 20084 40155 55010=
85586,2014,11,01,00,00,AAXX 01004 85586 12960 02604 10117 20078 40173 53015 60001 333 10189=
85586,2014,11,01,03,00,AAXX 01034 85586 NIL=
85586,2014,11,01,06,00,AAXX 01064 85586 NIL=
85586,2014,11,01,09,00,AAXX 01094 85586 NIL=
85586,2014,11,01,12,00,AAXX 01124 85586 12960 62303 10096 20080 40184 52005 60004 80001 333 20032 30/// 55124 56006 70000 86075=
85586,2014,11,01,15,00,AAXX 01154 85586 42960 62413 10150 20074 40187 50006 80001 333 56006 86075=
85586,2014,11,01,18,00,AAXX 01184 85586 12960 72414 10156 20084 40186 55001 60001 80001 333 56006 87075=
85586,2014,11,01,21,00,AAXX 01214 85586 42960 72412 10136 20084 40180 56007 80002 333 56006 87073=
85586,2014,11,02,00,00,AAXX 02004 85586 12960 69902 10117 20082 40189 53008 60001 80001 333 10168 56006 86075=
85586,2014,11,02,03,00,AAXX 02034 85586 NIL=
85586,2014,11,02,06,00,AAXX 02064 85586 NIL=
85586,2014,11,02,09,00,AAXX 02094 85586 NIL=
85586,2014,11,02,12,00,AAXX 02124 85586 12960 12007 10105 20057 40208 51014 60004 80001 333 20022 30/// 55071 56006 70000 81075=
85586,2014,11,02,15,00,AAXX 02154 85586 42960 02513 10150 20061 40207 50001=
85586,2014,11,02,18,00,AAXX 02184 85586 12960 02315 10153 20074 40204 57003 60001=
85586,2014,11,02,21,00,AAXX 02214 85586 42960 02416 10144 20080 40198 56006=
85586,2014,11,03,00,00,AAXX 03004 85586 NIL=
85586,2014,11,03,03,00,AAXX 03034 85586 NIL=
85586,2014,11,03,06,00,AAXX 03064 85586 NIL=
85586,2014,11,03,09,00,AAXX 03094 85586 NIL=
85586,2014,11,03,12,00,AAXX 03124 85586 12960 01505 10117 20054 40217 52008 60004 333 20018 30/// 55118 70000=
85586,2014,11,03,15,00,AAXX 03154 85586 42960 02414 10163 20084 40205 58012=
85586,2014,11,03,18,00,AAXX 03184 85586 12960 02417 10168 20086 40190 57013 60001=
85586,2014,11,03,21,00,AAXX 03214 85586 42960 02315 10162 20087 40178 56012=
85586,2014,11,04,00,00,AAXX 04004 85586 12960 09902 10115 20082 40188 52008 60001 333 10194=
85586,2014,11,04,03,00,AAXX 04034 85586 NIL=
85586,2014,11,04,06,00,AAXX 04064 85586 NIL=
85586,2014,11,04,09,00,AAXX 04094 85586 NIL=
85586,2014,11,04,12,00,AAXX 04124 85586 12960 09901 10123 20080 40170 53008 60004 333 20024 30/// 55124 70000=
85586,2014,11,04,15,00,AAXX 04154 85586 42960 02608 10158 20074 40169 54000=
85586,2014,11,04,18,00,AAXX 04184 85586 12960 02514 10160 20099 40162 57006 60001=
85586,2014,11,04,21,00,AAXX 04214 85586 42960 02711 10144 20103 40163 55001=
85586,2014,11,05,00,00,AAXX 05004 85586 12960 02514 10160 20099 40162 57006 6000=
85586,2014,11,05,03,00,AAXX 05034 85586 NIL=
85586,2014,11,05,06,00,AAXX 05064 85586 NIL=
85586,2014,11,05,09,00,AAXX 05094 85586 NIL=
85586,2014,11,05,12,00,AAXX 05124 85586 12460 19903 10105 20081 40201 51019 60004 81500 333 20034 30/// 55127 56600 70000 81613=
85586,2014,11,05,15,00,AAXX 05154 85586 42960 22413 10146 20075 40200 55001 80001 333 56006 82075=
85586,2014,11,05,18,00,AAXX 05184 85586 12960 02414 10158 20084 40202 51002 60001=
85586,2014,11,05,21,00,AAXX 05214 85586 NIL=
85586,2014,11,06,00,00,AAXX 06004 85586 12960 02407 10113 20084 40203 53003 60001 333 10166=
85586,2014,11,06,03,00,AAXX 06034 85586 NIL=
85586,2014,11,06,06,00,AAXX 06064 85586 NIL=
85586,2014,11,06,09,00,AAXX 06094 85586 NIL=
85586,2014,11,06,12,00,AAXX 06124 85586 12960 09902 10123 20080 40220 53011 60004 333 20025 30/// 55121 70000=
85586,2014,11,06,15,00,AAXX 06154 85586 42960 02414 10161 20087 40214 57004=
85586,2014,11,06,18,00,AAXX 06184 85586 12960 02417 10180 20095 40205 56010 60001=
85586,2014,11,06,21,00,AAXX 06214 85586 42960 02316 10175 20100 40191 56013=
85586,2014,11,07,00,00,AAXX 07004 85586 12960 02306 10137 20094 40205 53013 60001 333 10186=
85586,2014,11,07,03,00,AAXX 07034 85586 NIL=
85586,2014,11,07,06,00,AAXX 07064 85586 NIL=
85586,2014,11,07,09,00,AAXX 07094 85586 NIL=
85586,2014,11,07,12,00,AAXX 07124 85586 12960 02304 10143 20090 40201 51003 60004 333 20046 30/// 55124 70000=
85586,2014,11,07,15,00,AAXX 07154 85586 42960 02513 10186 20098 40188 58010=
85586,2014,11,07,18,00,AAXX 07184 85586 12960 02518 10185 20104 40171 56017 60001=
85586,2014,11,07,21,00,AAXX 07214 85586 42960 02417 10181 20101 40160 56013=
85586,2014,11,08,00,00,AAXX 08004 85586 12960 00000 10134 20097 40169 53009 60001 333 10199=
85586,2014,11,08,03,00,AAXX 08034 85586 NIL=
85586,2014,11,08,06,00,AAXX 08064 85586 NIL=
85586,2014,11,08,09,00,AAXX 08094 85586 NIL=
85586,2014,11,08,12,00,AAXX 08124 85586 11240 29902 10125 20099 40167 52007 60004 71011 82600 333 20054 30/// 55128 56700 70000 82704=
85586,2014,11,08,15,00,AAXX 08154 85586 42260 12608 10155 20109 40163 57002 81600 333 56700 81704=
85586,2014,11,08,18,00,AAXX 08184 85586 12960 02514 10168 20105 40153 56009 60001=
85586,2014,11,08,21,00,AAXX 08214 85586 42960 03306 10165 20104 40140 56013=
85586,2014,11,09,00,00,AAXX 09004 85586 12960 00308 10128 20105 40143 53001 60001 333 10184=
85586,2014,11,09,03,00,AAXX 09034 85586 NIL=
85586,2014,11,09,06,00,AAXX 09064 85586 NIL=
85586,2014,11,09,09,00,AAXX 09094 85586 NIL=
85586,2014,11,09,12,00,AAXX 09124 85586 11208 89902 10105 20102 40163 51020 60004 74244 886// 333 20075 30/// 55126 56799 70000 88704=
85586,2014,11,09,15,00,AAXX 09154 85586 41256 82708 10130 20104 40164 53004 70544 886// 333 56799 88705=
85586,2014,11,09,18,00,AAXX 09184 85586 11258 72709 10147 20108 40166 50002 60001 70522 87600 333 56700 87706=
85586,2014,11,09,21,00,AAXX 09214 85586 42360 22712 10145 20109 40160 57004 82600 333 56700 82708=
85586,2014,11,10,00,00,AAXX 10004 85586 11358 82707 10125 20106 40168 53006 60001 70522 886// 333 10155 56799 88709=
85586,2014,11,10,03,00,AAXX 10034 85586 NIL=
85586,2014,11,10,06,00,AAXX 10064 85586 NIL=
85586,2014,11,10,09,00,AAXX 10094 85586 NIL=
85586,2014,11,10,12,00,AAXX 10124 85586 12460 80703 10118 20092 40178 53006 60004 885// 333 20074 30/// 55067 56699 70000 88615=
85586,2014,11,10,15,00,AAXX 10154 85586 42460 22612 10144 20097 40182 53003 82100 333 56600 82816=
85586,2014,11,10,18,00,AAXX 10184 85586 12460 22512 10156 20104 40179 58002 60001 82100 333 56600 82815=
85586,2014,11,10,21,00,AAXX 10214 85586 42360 72610 10127 20104 40177 55003 87600 333 56600 87708=
85586,2014,11,11,00,00,AAXX 11004 85586 11358 83305 10125 20103 40177 50001 60001 70522 886// 333 10166 56699 88708=
85586,2014,11,11,03,00,AAXX 11034 85586 NIL=
85586,2014,11,11,06,00,AAXX 11064 85586 NIL=
85586,2014,11,11,09,00,AAXX 11094 85586 NIL=
85586,2014,11,11,12,00,AAXX 11124 85586 11230 89903 10112 20100 40183 53013 60004 70522 886// 333 20102 30/// 55065 56799 70000 88704=
85586,2014,11,11,15,00,AAXX 11154 85586 41256 72609 10137 20109 40187 51008 70522 87600 333 56600 87704=
85586,2014,11,11,18,00,AAXX 11184 85586 12960 02511 10173 20112 40170 58010 60001=
85586,2014,11,11,21,00,AAXX 11214 85586 42960 02512 10169 20110 40160 56011=
85586,2014,11,12,00,00,AAXX 12004 85586 11958 00406 10140 20103 40167 53005 60001 70500 333 10187=
85586,2014,11,12,03,00,AAXX 12034 85586 NIL=
85586,2014,11,12,06,00,AAXX 12064 85586 NIL=
85586,2014,11,12,09,00,AAXX 12094 85586 NIL=
85586,2014,11,12,12,00,AAXX 12124 85586 12960 09902 10137 20105 40174 52014 60004 333 20056 30/// 55089 70000=
85586,2014,11,12,15,00,AAXX 12154 85586 42960 02411 10174 20096 40172 56001=
85586,2014,11,12,18,00,AAXX 12184 85586 12960 02413 10171 20096 40169 58003 60001=
85586,2014,11,12,21,00,AAXX 12214 85586 42960 02409 10183 20097 40160 58009=
85586,2014,11,13,00,00,AAXX 13004 85586 12960 00405 10136 20091 40171 53011 60001 333 10193=
85586,2014,11,13,03,00,AAXX 13034 85586 NIL=
85586,2014,11,13,06,00,AAXX 13064 85586 NIL=
85586,2014,11,13,09,00,AAXX 13094 85586 NIL=
85586,2014,11,13,12,00,AAXX 13124 85586 12960 03203 10141 20088 40177 53006 60003 333 20040 30/// 55127 70000=
85586,2014,11,13,15,00,AAXX 13154 85586 42960 02511 10181 20103 40166 57011=
85586,2014,11,13,18,00,AAXX 13184 85586 12960 02411 10186 20103 40151 56013 60001=
85586,2014,11,13,21,00,AAXX 13214 85586 42960 02606 10196 20100 40139 57014=
85586,2014,11,14,00,00,AAXX 14004 85586 12960 00305 10147 20098 40143 53004 60001 333 10210=
85586,2014,11,14,03,00,AAXX 14034 85586 NIL=
85586,2014,11,14,06,00,AAXX 14064 85586 NIL=
85586,2014,11,14,09,00,AAXX 14094 85586 NIL=
85586,2014,11,14,12,00,AAXX 14124 85586 11220 83507 10124 20111 40170 53023 60003 71022 886// 333 20061 30/// 55127 56799 70000 88704=
85586,2014,11,14,15,00,AAXX 14154 85586 41256 83112 10138 20113 40180 51012 70522 886// 333 56799 88706=
85586,2014,11,14,18,00,AAXX 14184 85586 11256 82909 10141 20115 40186 51004 60001 70522 886// 333 56699 88706=
85586,2014,11,14,21,00,AAXX 14214 85586 41356 82606 10128 20104 40180 58005 70522 886// 333 56699 88707=
85586,2014,11,15,00,00,AAXX 15004 85586 11456 82503 10126 20103 40181 52001 60001 70522 886// 333 10148 56799 88710=
85586,2014,11,15,03,00,AAXX 15034 85586 NIL=
85586,2014,11,15,06,00,AAXX 15064 85586 NIL=
85586,2014,11,15,09,00,AAXX 15094 85586 NIL=
85586,2014,11,15,12,00,AAXX 15124 85586 11220 83403 10126 20110 40204 51013 60004 71022 886// 333 20116 30/// 55000 56799 70000 88706=
85586,2014,11,15,15,00,AAXX 15154 85586 41356 82805 10140 20112 40210 52007 70522 886// 333 56799 88709=
85586,2014,11,15,18,00,AAXX 15184 85586 11458 12609 10162 20114 40199 57011 60001 70511 81600 333 56700 81712=
85586,2014,11,15,21,00,AAXX 15214 85586 41240 82706 10138 20119 40189 58010 70522 886// 333 56799 88705=
85586,2014,11,16,00,00,AAXX 16004 85586 11240 83303 10128 20115 40190 53000 60001 71022 886// 333 10173 56799 88704=
85586,2014,11,16,03,00,AAXX 16034 85586 NIL=
85586,2014,11,16,06,00,AAXX 16064 85586 NIL=
85586,2014,11,16,09,00,AAXX 16094 85586 NIL=
85586,2014,11,16,12,00,AAXX 16124 85586 11107 89902 10115 20112 40174 52002 60004 74444 886// 333 20111 30/// 55024 56799 70000 88702=
85586,2014,11,16,15,00,AAXX 16154 85586 41230 82905 10124 20111 40173 50001 71042 886// 333 56799 88703=
85586,2014,11,16,18,00,AAXX 16184 85586 11257 82708 10144 20116 40167 57005 60001 70542 886// 333 56799 88705=
85586,2014,11,16,21,00,AAXX 16214 85586 41357 83106 10142 20117 40164 58002 70522 886// 333 56799 88707=
85586,2014,11,17,00,00,AAXX 17004 85586 11257 82804 10130 20117 40152 56012 60001 70522 886// 333 10159 56699 88705=
85586,2014,11,17,03,00,AAXX 17034 85586 NIL=
85586,2014,11,17,06,00,AAXX 17064 85586 NIL=
85586,2014,11,17,09,00,AAXX 17094 85586 NIL=
85586,2014,11,17,12,00,AAXX 17124 85586 11120 83304 10123 20118 40156 53024 60004 71022 886// 333 20119 30/// 55003 56699 70000 88703=
85586,2014,11,17,15,00,AAXX 17154 85586 41356 83108 10142 20124 40172 51017 70522 886// 333 56799 88708=
85586,2014,11,17,18,00,AAXX 17184 85586 12460 82608 10160 20126 40163 57007 60001 886// 333 56699 88710=
85586,2014,11,17,21,00,AAXX 17214 85586 42460 72506 10156 20124 40159 57005 87500 333 56600 87612=
85586,2014,11,18,00,00,AAXX 18004 85586 12460 72705 10137 20123 40154 55004 60001 87500 333 10167 56600 87610=
85586,2014,11,18,03,00,AAXX 18034 85586 NIL=
85586,2014,11,18,06,00,AAXX 18064 85586 NIL=
85586,2014,11,18,09,00,AAXX 18094 85586 NIL=
85586,2014,11,18,12,00,AAXX 18124 85586 11220 82804 10127 20121 40176 51018 69924 75355 886// 333 20124 31/// 55021 56799 70002 88704=
85586,2014,11,18,15,00,AAXX 18154 85586 42460 82412 10148 20103 40183 52008 888// 333 56699 82815 88625=
85586,2014,11,18,18,00,AAXX 18184 85586 12560 72307 10172 20099 40182 52001 60001 87500 333 56600 87625=
85586,2014,11,18,21,00,AAXX 18214 85586 42560 62510 10160 20088 40186 53002 86500 333 56600 86628=
85586,2014,11,19,00,00,AAXX 19004 85586 42560 62510 10160 20088 40186 53002 86500 333 56600 86628=
85586,2014,11,19,03,00,AAXX 19034 85586 NIL=
85586,2014,11,19,06,00,AAXX 19064 85586 NIL=
85586,2014,11,19,09,00,AAXX 19094 85586 NIL=
85586,2014,11,19,12,00,AAXX 19124 85586 12460 59902 10130 20107 40190 53006 69904 85500 333 20083 30/// 55035 56700 70000 85614=
85586,2014,11,19,15,00,AAXX 19154 85586 42560 22609 10167 20113 40180 57008 82100 333 56600 82820=
85586,2014,11,19,18,00,AAXX 19184 85586 12960 02416 10174 20106 40174 58006 60001=
85586,2014,11,19,21,00,AAXX 19214 85586 42960 02414 10165 20097 40168 57006=
85586,2014,11,20,00,00,AAXX 20004 85586 12960 02410 10124 20089 40179 53009 60001 333 10180=
85586,2014,11,20,03,00,AAXX 20034 85586 NIL=
85586,2014,11,20,06,00,AAXX 20064 85586 NIL=
85586,2014,11,20,09,00,AAXX 20094 85586 NIL=
85586,2014,11,20,12,00,AAXX 20124 85586 11458 83305 10128 20098 40193 52014 60004 70522 885// 333 20094 30/// 55101 56799 70000 88612=
85586,2014,11,20,15,00,AAXX 20154 85586 42460 32909 10144 20101 40193 50002 83500 333 56700 83614=
85586,2014,11,20,18,00,AAXX 20184 85586 12460 23007 10167 20106 40193 54000 60001 82100 333 56700 82810=
85586,2014,11,20,21,00,AAXX 20214 85586 42960 02809 10149 20097 40187 56007=
85586,2014,11,21,00,00,AAXX 21004 85586 12460 22807 10125 20101 40194 53007 60001 82100 333 10167 56600 82812=
85586,2014,11,21,03,00,AAXX 21034 85586 NIL=
85586,2014,11,21,06,00,AAXX 21064 85586 NIL=
85586,2014,11,21,09,00,AAXX 21094 85586 NIL=
85586,2014,11,21,12,00,AAXX 21124 85586 11250 80000 10111 20099 40204 51008 60004 71022 886// 333 20063 30/// 55092 56099 70000 88705=
85586,2014,11,21,15,00,AAXX 21154 85586 42960 02510 10154 20102 40199 58005=
85586,2014,11,21,18,00,AAXX 21184 85586 12960 12513 10159 20109 40190 58008 60001 80001 333 56000 81075=
85586,2014,11,21,21,00,AAXX 21214 85586 42460 62610 10141 20111 40180 57010 86500 333 56600 86610=
85586,2014,11,22,00,00,AAXX 22004 85586 12460 63605 10127 20111 40183 53003 60001 84501 333 10168 56606 84610 84075=
85586,2014,11,22,03,00,AAXX 22034 85586 NIL=
85586,2014,11,22,06,00,AAXX 22064 85586 NIL=
85586,2014,11,22,09,00,AAXX 22094 85586 NIL=
85586,2014,11,22,12,00,AAXX 22124 85586 11106 82303 10112 20107 40172 51007 60004 74644 886// 333 20056 30/// 55087 56099 70000 88703=
85586,2014,11,22,15,00,AAXX 22154 85586 41358 62905 10144 20105 40170 58001 70522 83602 333 56606 83708 83075=
85586,2014,11,22,18,00,AAXX 22184 85586 12360 72612 10160 20118 40166 58003 60001 83602 333 56606 83708 87072=
85586,2014,11,22,21,00,AAXX 22214 85586 42460 72910 10145 20108 40164 58003 82601 333 56606 82710 87073=
85586,2014,11,23,00,00,AAXX 23004 85586 12460 82708 10128 20105 40174 53010 60001 85502 333 10170 56606 85615 86073=
85586,2014,11,23,03,00,AAXX 23034 85586 NIL=
85586,2014,11,23,06,00,AAXX 23064 85586 NIL=
85586,2014,11,23,09,00,AAXX 23094 85586 NIL=
85586,2014,11,23,12,00,AAXX 23124 85586 12460 41805 10139 20092 40174 50006 60004 83501 333 20074 30/// 55058 56606 70000 83617=
85586,2014,11,23,15,00,AAXX 23154 85586 42960 52511 10150 20103 40171 58002 80001 333 56006 85075=
85586,2014,11,23,18,00,AAXX 23184 85586 12960 62514 10173 20098 40169 55002 60001 80001 333 56006 86075=
85586,2014,11,23,21,00,AAXX 23214 85586 42360 62415 10150 20116 40165 58003 81601 333 56706 81709 85075=
85586,2014,11,24,00,00,AAXX 24004 85586 12960 62305 10141 20115 40171 53004 60001 80001 333 10179 56006 86073=
85586,2014,11,24,03,00,AAXX 24034 85586 NIL=
85586,2014,11,24,06,00,AAXX 24064 85586 NIL=
85586,2014,11,24,09,00,AAXX 24094 85586 NIL=
85586,2014,11,24,12,00,AAXX 24124 85586 12960 72304 10143 20111 40175 50008 60004 86031 333 20105 30/// 55105 56066 70000 86365=
85586,2014,11,24,15,00,AAXX 24154 85586 42960 72411 10176 20098 40175 50000 80008 333 56006 87270=
85586,2014,11,24,18,00,AAXX 24184 85586 12960 32417 10171 20091 40166 56009 60001 80001 333 56005 83073=
85586,2014,11,24,21,00,AAXX 24214 85586 42960 02315 10165 20093 40160 58006=
85586,2014,11,25,00,00,AAXX 25004 85586 12960 22004 10134 20095 40166 53003 60001 80001 333 10187 56005 82073=
85586,2014,11,25,03,00,AAXX 25034 85586 NIL=
85586,2014,11,25,06,00,AAXX 25064 85586 NIL=
85586,2014,11,25,09,00,AAXX 25094 85586 NIL=
85586,2014,11,25,12,00,AAXX 25124 85586 12360 59902 10121 20095 40165 52017 60003 82630 333 20066 30/// 55086 56760 70000 82707 83365=
85586,2014,11,25,15,00,AAXX 25154 85586 42960 62608 10154 20104 40174 52010 86030 333 56060 86365=
85586,2014,11,25,18,00,AAXX 25184 85586 12960 22417 10159 20105 40177 50003 60001 80001 333 56006 82073=
85586,2014,11,25,21,00,AAXX 25214 85586 42960 02613 10159 20103 40181 53004=
85586,2014,11,26,00,00,AAXX 26004 85586 13960 02908 10124 20105 40197 53016 60001 333 10181=
85586,2014,11,26,03,00,AAXX 26034 85586 NIL=
85586,2014,11,26,06,00,AAXX 26064 85586 NIL=
85586,2014,11,26,09,00,AAXX 26094 85586 NIL=
85586,2014,11,26,12,00,AAXX 26124 85586 12960 09903 10134 20097 40175 50002 60003 333 20058 30/// 55114 70000=
85586,2014,11,26,15,00,AAXX 26154 85586 42960 02608 10164 20105 40165 57008=
85586,2014,11,26,18,00,AAXX 26184 85586 12260 72610 10149 20111 40160 56008 60001 82601 333 56706 82705 85075=
85586,2014,11,26,21,00,AAXX 26214 85586 42360 23108 10153 20115 40147 56010 82600 333 56700 82708=
85586,2014,11,27,00,00,AAXX 27004 85586 12960 03606 10136 20112 40152 53003 60001 333 10174=
85586,2014,11,27,03,00,AAXX 27034 85586 NIL=
85586,2014,11,27,06,00,AAXX 27064 85586 NIL=
85586,2014,11,27,09,00,AAXX 27094 85586 NIL=
85586,2014,11,27,12,00,AAXX 27124 85586 11450 82905 10128 20107 40185 51011 60004 70522 885// 333 20121 30/// 55126 56099 70000 88610=
85586,2014,11,27,15,00,AAXX 27154 85586 41457 82806 10133 20107 40191 53007 70522 885// 333 56099 88612=
85586,2014,11,27,18,00,AAXX 27184 85586 12460 72710 10155 20111 40187 58005 60001 87500 333 56600 87615=
85586,2014,11,27,21,00,AAXX 27214 85586 42460 72809 10140 20103 40176 58009 83602 333 56606 83711 85073=
85586,2014,11,28,00,00,AAXX 28004 85586 12960 62204 10132 20100 40168 56009 60001 80002 333 10165 56006 86073=
85586,2014,11,28,03,00,AAXX 28034 85586 NIL=
85586,2014,11,28,06,00,AAXX 28064 85586 NIL=
85586,2014,11,28,09,00,AAXX 28094 85586 NIL=
85586,2014,11,28,12,00,AAXX 28124 85586 12260 50903 10120 20104 40154 53006 60004 82601 333 20060 30/// 55014 56606 70000 82706 85075=
85586,2014,11,28,15,00,AAXX 28154 85586 42460 62507 10154 20102 40146 56006 82104 333 56606 82810 86070=
85586,2014,11,28,18,00,AAXX 28184 85586 12960 72807 10159 20113 40140 58006 60001 80004 333 56006 87070=
85586,2014,11,28,21,00,AAXX 28214 85586 42960 62406 10169 20108 40132 56010 80004 333 56006 86070=
85586,2014,11,29,00,00,AAXX 29004 85586 12960 79902 10139 20111 40140 53007 60001 80004 333 10170 56006 87070=
85586,2014,11,29,03,00,AAXX 29034 85586 NIL=
85586,2014,11,29,06,00,AAXX 29064 85586 NIL=
85586,2014,11,29,09,00,AAXX 29094 85586 NIL=
85586,2014,11,29,12,00,AAXX 29124 85586 11959 80705 10127 20119 40160 51017 69964 76062 8807/ 333 20109 31/// 55042 56069 70006 88359=
85586,2014,11,29,15,00,AAXX 29154 85586 41450 80504 10136 20128 40186 52025 76162 884// 333 56699 83613 86650=
85586,2014,11,29,18,00,AAXX 29184 85586 11856 70803 10139 20126 40181 58005 60101 76166 87070 333 56060 87357=
85586,2014,11,29,21,00,AAXX 29214 85586 41560 82508 10132 20123 40190 53009 70262 8347/ 333 56669 83630 85359=
85586,2014,11,30,00,00,AAXX 30004 85586 NIL=
85586,2014,11,30,03,00,AAXX 30034 85586 NIL=
85586,2014,11,30,06,00,AAXX 30064 85586 NIL=
85586,2014,11,30,09,00,AAXX 30094 85586 NIL=
85586,2014,11,30,12,00,AAXX 30124 85586 12460 19901 10126 20110 40216 51012 60124 81600 333 20067 32/// 55003 56000 70120 81710=
85586,2014,11,30,15,00,AAXX 30154 85586 42660 22413 10155 20099 40208 57006 82500 333 56700 82634=
85586,2014,11,30,18,00,AAXX 30184 85586 12960 12518 10149 20084 40201 56008 60001 80001 333 56006 81075=
85586,2014,11,30,21,00,AAXX 30214 85586 42960 02413 10162 20095 40190 57011=
85586,2014,12,01,00,00,AAXX 01004 85586 12960 02203 10133 20094 40190 55000 60001 333 10168=
85586,2014,12,01,03,00,AAXX 01034 85586 NIL=
85586,2014,12,01,06,00,AAXX 01064 85586 NIL=
85586,2014,12,01,09,00,AAXX 01094 85586 NIL=
85586,2014,12,01,12,00,AAXX 01124 85586 12960 09901 10156 20104 40170 50001 60004 333 20059 31/// 55128 70000=
85586,2014,12,01,15,00,AAXX 01154 85586 42960 02412 10186 20108 40164 57005=
85586,2014,12,01,18,00,AAXX 01184 85586 12960 02414 10177 20118 40151 58012 60001=
85586,2014,12,01,21,00,AAXX 01214 85586 42960 02510 10166 20114 40137 58014=
85586,2014,12,02,00,00,AAXX 02004 85586 12960 30306 10142 20112 40136 53003 60001 80001 333 10196 56006 83075=
85586,2014,12,02,03,00,AAXX 02034 85586 NIL=
85586,2014,12,02,06,00,AAXX 02064 85586 NIL=
85586,2014,12,02,09,00,AAXX 02094 85586 NIL=
85586,2014,12,02,12,00,AAXX 02124 85586 11140 12806 10127 20111 40147 53017 60004 71000 81600 333 20083 31/// 55131 56700 70000 81702=
85586,2014,12,02,15,00,AAXX 02154 85586 41120 83507 10137 20124 40168 51023 71022 886// 333 56799 88703=
85586,2014,12,02,18,00,AAXX 02184 85586 12360 12808 10162 20121 40157 57010 60001 81600 333 56700 81708=
85586,2014,12,02,21,00,AAXX 02214 85586 41340 82604 10146 20121 40149 58010 70522 886// 333 56799 88707=
85586,2014,12,03,00,00,AAXX 03004 85586 11240 82605 10127 20114 40146 55002 60001 71022 886// 333 10175 56799 88704=
85586,2014,12,03,03,00,AAXX 03034 85586 NIL=
85586,2014,12,03,06,00,AAXX 03064 85586 NIL=
85586,2014,12,03,09,00,AAXX 03094 85586 NIL=
85586,2014,12,03,12,00,AAXX 03124 85586 11107 80703 10113 20110 40114 52004 60004 74644 886// 333 20106 30/// 55038 56099 70000 88702=
85586,2014,12,03,15,00,AAXX 03154 85586 41109 82709 10127 20118 40113 58002 74642 886// 333 56099 88703=
85586,2014,12,03,18,00,AAXX 03184 85586 11250 72707 10145 20111 40105 56007 60001 70522 87600 333 56600 87705=
85586,2014,12,03,21,00,AAXX 03214 85586 41458 62807 10151 20123 40101 55002 70522 86600 333 56600 86710=
85586,2014,12,04,00,00,AAXX 04004 85586 12460 23204 10136 20117 40107 53004 60001 81601 333 10164 56606 81710=
85586,2014,12,04,03,00,AAXX 04034 85586 NIL=
85586,2014,12,04,06,00,AAXX 04064 85586 NIL=
85586,2014,12,04,09,00,AAXX 04094 85586 NIL=
85586,2014,12,04,12,00,AAXX 04124 85586 11240 83306 10135 20119 40122 53019 60004 71022 886// 333 20125 30/// 55054 56099 70000 88706=
85586,2014,12,04,15,00,AAXX 04154 85586 41458 83310 10148 20116 40147 51025 70522 885// 333 56099 88612=
85586,2014,12,04,18,00,AAXX 04184 85586 12560 23115 10165 20117 40152 51007 60001 82500 333 56700 82624=
85586,2014,12,04,21,00,AAXX 04214 85586 42560 32912 10163 20111 40153 53001 81502 333 56706 81625 83075=
85586,2014,12,05,00,00,AAXX 05004 85586 11257 70000 10137 20121 40151 50001 60001 70522 87500 333 10185 56600 83706 87622=
85586,2014,12,05,03,00,AAXX 05034 85586 NIL=
85586,2014,12,05,06,00,AAXX 05064 85586 NIL=
85586,2014,12,05,09,00,AAXX 05094 85586 NIL=
85586,2014,12,05,12,00,AAXX 05124 85586 11320 80000 10128 20120 40176 51018 69904 75052 886// 333 20124 31/// 55045 56099 79999 88709=
85586,2014,12,05,15,00,AAXX 05154 85586 41356 82907 10141 20115 40182 51005 70522 885// 333 56699 82709 85616 88623=
85586,2014,12,05,18,00,AAXX 05184 85586 12560 82806 10162 20108 40178 58003 60001 885// 333 56699 85624 88630=
85586,2014,12,05,21,00,AAXX 05214 85586 42360 62607 10165 20123 40172 56005 86500 333 56600 84708 86625=
85586,2014,12,06,00,00,AAXX 06004 85586 11256 82704 10137 20121 40176 53002 60001 70522 885// 333 10171 56699 83706 88624=
85586,2014,12,06,03,00,AAXX 06034 85586 NIL=
85586,2014,12,06,06,00,AAXX 06064 85586 NIL=
85586,2014,12,06,09,00,AAXX 06094 85586 NIL=
85586,2014,12,06,12,00,AAXX 06124 85586 12960 00705 10155 20105 40230 51020 60004 333 20124 30/// 55005 70000=
85586,2014,12,06,15,00,AAXX 06154 85586 42460 12809 10192 20098 40218 58012 81500 333 56700 81615=
85586,2014,12,06,18,00,AAXX 06184 85586 12460 12417 10181 20098 40204 56012 60001 81500 333 56700 81615=
85586,2014,12,06,21,00,AAXX 06214 85586 42960 02414 10193 20117 40188 58015=
85586,2014,12,07,00,00,AAXX 07004 85586 12960 02306 10153 20119 40184 55006 60001 333 10198=
85586,2014,12,07,03,00,AAXX 07034 85586 NIL=
85586,2014,12,07,06,00,AAXX 07064 85586 NIL=
85586,2014,12,07,09,00,AAXX 07094 85586 NIL=
85586,2014,12,07,12,00,AAXX 07124 85586 12960 59904 10187 20109 40154 52004 60004 80001 333 20093 30/// 55130 56006 70000 85075=
85586,2014,12,07,15,00,AAXX 07154 85586 42960 22415 10187 20121 40143 58010 80001 333 56006 82075=
85586,2014,12,07,18,00,AAXX 07184 85586 12960 22515 10188 20122 40132 58011 60001 80001 333 56006 82075=
85586,2014,12,07,21,00,AAXX 07214 85586 42960 02514 10185 20123 40113 58020=
85586,2014,12,08,00,00,AAXX 08004 85586 NIL=
85586,2014,12,08,03,00,AAXX 08034 85586 NIL=
85586,2014,12,08,06,00,AAXX 08064 85586 NIL=
85586,2014,12,08,09,00,AAXX 08094 85586 NIL=
85586,2014,12,08,12,00,AAXX 08124 85586 11108 83506 10132 20126 40122 52020 60004 74622 886// 333 20109 30/// 55133 56799 70000 88702=
85586,2014,12,08,15,00,AAXX 08154 85586 41120 83309 10143 20127 40130 51008 71022 886// 333 56799 88703=
85586,2014,12,08,18,00,AAXX 08184 85586 11240 83009 10156 20128 40131 50002 60001 70522 886// 333 56799 88705=
85586,2014,12,08,21,00,AAXX 08214 85586 41240 83006 10151 20129 40120 58011 70522 886// 333 56799 88705=
85586,2014,12,09,00,00,AAXX 09004 85586 11340 82604 10141 20128 40129 53007 60001 71022 886// 333 10160 56799 88708=
85586,2014,12,09,03,00,AAXX 09034 85586 NIL=
85586,2014,12,09,06,00,AAXX 09064 85586 NIL=
85586,2014,12,09,09,00,AAXX 09094 85586 NIL=
85586,2014,12,09,12,00,AAXX 09124 85586 11240 82505 10130 20124 40122 53015 60004 71022 886// 333 20127 30/// 55000 56099 70000 88704=
85586,2014,12,09,15,00,AAXX 09154 85586 41250 82806 10144 20121 40135 52014 70522 886// 333 56699 88706=
85586,2014,12,09,18,00,AAXX 09184 85586 12460 82910 10164 20122 40147 51014 60001 885// 333 56799 88613=
85586,2014,12,09,21,00,AAXX 09214 85586 42460 72909 10154 20120 40147 58003 87500 333 56600 87615=
85586,2014,12,10,00,00,AAXX 10004 85586 11458 49902 10139 20118 40147 53001 60001 70522 84500 333 10174 56600 84618=
85586,2014,12,10,03,00,AAXX 10034 85586 NIL=
85586,2014,12,10,06,00,AAXX 10064 85586 NIL=
85586,2014,12,10,09,00,AAXX 10094 85586 NIL=
85586,2014,12,10,12,00,AAXX 10124 85586 11450 83005 10148 20122 40171 53020 60004 70522 885// 333 20126 30/// 55023 56099 70000 88616=
85586,2014,12,10,15,00,AAXX 10154 85586 41458 83008 10156 20120 40189 52017 70522 885// 333 56799 88615=
85586,2014,12,10,18,00,AAXX 10184 85586 12560 72807 10178 20121 40192 50002 60001 87800 333 56700 82820 86625=
85586,2014,12,10,21,00,AAXX 10214 85586 42960 32506 10174 20124 40182 58010 80001 333 56006 83070=
85586,2014,12,11,00,00,AAXX 11004 85586 12960 22506 10147 20122 40186 53004 60001 80001 333 10190 56006 82073=
85586,2014,12,11,03,00,AAXX 11034 85586 NIL=
85586,2014,12,11,06,00,AAXX 11064 85586 NIL=
85586,2014,12,11,09,00,AAXX 11094 85586 NIL=
85586,2014,12,11,12,00,AAXX 11124 85586 11340 82704 10143 20117 40192 53008 60004 70522 886// 333 20097 30/// 55050 56699 70000 88709=
85586,2014,12,11,15,00,AAXX 11154 85586 41458 82808 10147 20117 40196 53004 70522 886// 333 56699 88710=
85586,2014,12,11,18,00,AAXX 11184 85586 12460 42410 10173 20131 40189 57008 60001 84100 333 56600 84810=
85586,2014,12,11,21,00,AAXX 11214 85586 42460 12611 10163 20119 40176 58011 81100 333 56600 81810=
85586,2014,12,12,00,00,AAXX 12004 85586 NIL=
85586,2014,12,12,03,00,AAXX 12034 85586 NIL=
85586,2014,12,12,06,00,AAXX 12064 85586 NIL=
85586,2014,12,12,09,00,AAXX 12094 85586 NIL=
85586,2014,12,12,12,00,AAXX 12124 85586 11356 60405 10141 20111 40172 53005 60004 70522 82601 333 20093 30/// 55074 56706 70000 82708 85075=
85586,2014,12,12,15,00,AAXX 12154 85586 42960 72607 10159 20117 40175 50004 80008 333 56006 87273=
85586,2014,12,12,18,00,AAXX 12184 85586 12960 52509 10172 20115 40170 58005 60001 80004 333 56006 85073=
85586,2014,12,12,21,00,AAXX 12214 85586 42460 72807 10151 20119 40170 54000 84104 333 56606 84810 87070=
85586,2014,12,13,00,00,AAXX 13004 85586 11458 73104 10139 20116 40172 52003 60001 70522 82601 333 10174 56706 82711 86075=
85586,2014,12,13,03,00,AAXX 13034 85586 NIL=
85586,2014,12,13,06,00,AAXX 13064 85586 NIL=
85586,2014,12,13,09,00,AAXX 13094 85586 NIL=
85586,2014,12,13,12,00,AAXX 13124 85586 11340 83504 10128 20104 40176 53006 60004 70522 886// 333 20121 30/// 55060 56799 70000 88709=
85586,2014,12,13,15,00,AAXX 13154 85586 41458 82706 10138 20105 40175 53001 70522 886// 333 56799 88711=
85586,2014,12,13,18,00,AAXX 13184 85586 12460 52709 10160 20106 40178 50003 60001 85500 333 56700 85615=
85586,2014,12,13,21,00,AAXX 13214 85586 42460 73007 10160 20110 40162 58013 81501 333 56706 81617 87075=
85586,2014,12,14,00,00,AAXX 14004 85586 NIL=
85586,2014,12,14,03,00,AAXX 14034 85586 NIL=
85586,2014,12,14,06,00,AAXX 14064 85586 NIL=
85586,2014,12,14,09,00,AAXX 14094 85586 NIL=
85586,2014,12,14,12,00,AAXX 14124 85586 11558 82805 10140 20099 40164 52018 60004 70520 885// 333 20130 30/// 55045 56799 70000 88620=
85586,2014,12,14,15,00,AAXX 14154 85586 41458 82806 10144 20101 40172 51008 70522 885// 333 56799 82618 88622=
85586,2014,12,14,18,00,AAXX 14184 85586 12960 52709 10173 20100 40159 57010 60001 85030 333 56060 85365=
85586,2014,12,14,21,00,AAXX 14214 85586 42460 42410 10170 20107 40154 55004 84500 333 56700 84618=
85586,2014,12,15,00,00,AAXX 15004 85586 12460 12407 10135 20103 40164 53006 60001 81500 333 10186 56700 81615=
85586,2014,12,15,03,00,AAXX 15034 85586 NIL=
85586,2014,12,15,06,00,AAXX 15064 85586 NIL=
85586,2014,12,15,09,00,AAXX 15094 85586 NIL=
85586,2014,12,15,12,00,AAXX 15124 85586 12460 21503 10147 20098 40191 52022 60004 82500 333 20076 30/// 55074 56600 70000 82615=
85586,2014,12,15,15,00,AAXX 15154 85586 42560 52609 10173 20100 40193 52003 85500 333 56600 85630=
85586,2014,12,15,18,00,AAXX 15184 85586 12960 02513 10185 20102 40191 58002 60001=
85586,2014,12,15,21,00,AAXX 15214 85586 42960 02413 10173 20112 40181 58009=
85586,2014,12,16,00,00,AAXX 16004 85586 12960 02409 10150 20107 40182 55002 60001 333 10190=
85586,2014,12,16,03,00,AAXX 16034 85586 NIL=
85586,2014,12,16,06,00,AAXX 16064 85586 NIL=
85586,2014,12,16,09,00,AAXX 16094 85586 NIL=
85586,2014,12,16,12,00,AAXX 16124 85586 12960 22803 10149 20102 40199 51014 60004 80002 333 20076 30/// 55117 56006 70000 82075=
85586,2014,12,16,15,00,AAXX 16154 85586 42960 02510 10174 20113 40204 52005=
85586,2014,12,16,18,00,AAXX 16184 85586 12460 22513 10179 20124 40207 52004 60001 82100 333 56600 82810=
85586,2014,12,16,21,00,AAXX 16214 85586 42460 32611 10168 20124 40201 58004 83100 333 56600 83810=
85586,2014,12,17,00,00,AAXX 17004 85586 12360 52708 10142 20119 40203 53003 60001 85100 333 10188 56600 85809=
85586,2014,12,17,03,00,AAXX 17034 85586 NIL=
85586,2014,12,17,06,00,AAXX 17064 85586 NIL=
85586,2014,12,17,09,00,AAXX 17094 85586 NIL=
85586,2014,12,17,12,00,AAXX 17124 85586 11350 83603 10137 20114 40195 51012 60004 70522 886// 333 20089 30/// 55125 56099 70000 88707=
85586,2014,12,17,15,00,AAXX 17154 85586 42260 12708 10162 20122 40193 55001 81600 333 56600 81706=
85586,2014,12,17,18,00,AAXX 17184 85586 12260 32610 10176 20132 40186 58005 60001 83600 333 56600 83706=
85586,2014,12,17,21,00,AAXX 17214 85586 42960 02612 10177 20124 40176 57011=
85586,2014,12,18,00,00,AAXX 18004 85586 12960 02305 10151 20115 40176 55001 60001 333 10185=
85586,2014,12,18,03,00,AAXX 18034 85586 NIL=
85586,2014,12,18,06,00,AAXX 18064 85586 NIL=
85586,2014,12,18,09,00,AAXX 18094 85586 NIL=
85586,2014,12,18,12,00,AAXX 18124 85586 11358 43405 10144 20110 40166 52009 60003 70500 84600 333 20085 30/// 55109 56700 7//// 84708=
85586,2014,12,18,15,00,AAXX 18154 85586 42960 03307 10168 20116 40166 52001=
85586,2014,12,18,18,00,AAXX 18184 85586 12460 42710 10169 20125 40170 50004 60001 84600 333 56600 84710=
85586,2014,12,18,21,00,AAXX 18214 85586 42460 42909 10162 20116 40163 58006 84100 333 56600 84810=
85586,2014,12,19,00,00,AAXX 19004 85586 12460 82807 10144 20119 40162 55005 60001 886// 333 10179 56699 88710=
85586,2014,12,19,03,00,AAXX 19034 85586 NIL=
85586,2014,12,19,06,00,AAXX 19064 85586 NIL=
85586,2014,12,19,09,00,AAXX 19094 85586 NIL=
85586,2014,12,19,12,00,AAXX 19124 85586 11456 82604 10129 20099 40169 53013 60004 70522 886// 333 20120 30/// 55120 56799 70000 88712=
85586,2014,12,19,15,00,AAXX 19154 85586 41558 82808 10152 20098 40178 50011 70522 885// 333 56799 88623=
85586,2014,12,19,18,00,AAXX 19184 85586 12560 43009 10175 20112 40174 58002 60001 84500 333 56600 84625=
85586,2014,12,19,21,00,AAXX 19214 85586 42460 22611 10171 20112 40161 58014 82100 333 56600 82815=
85586,2014,12,20,00,00,AAXX 20004 85586 12960 02509 10148 20116 40154 55010 60001 333 10182=
85586,2014,12,20,03,00,AAXX 20034 85586 NIL=
85586,2014,12,20,06,00,AAXX 20064 85586 NIL=
85586,2014,12,20,09,00,AAXX 20094 85586 NIL=
85586,2014,12,20,12,00,AAXX 20124 85586 12660 72403 10142 20108 40163 53020 60004 85501 333 20074 30/// 55067 56606 70000 85640 85075=
85586,2014,12,20,15,00,AAXX 20154 85586 42660 82808 10155 20113 40171 53008 885// 333 56099 88639=
85586,2014,12,20,18,00,AAXX 20184 85586 11240 82408 10130 20124 40180 51009 69901 76082 886// 333 56099 88706=
85586,2014,12,20,21,00,AAXX 20214 85586 41557 72206 10146 20112 40179 58001 70562 85530 333 56660 85620 85357=
85586,2014,12,21,00,00,AAXX 21004 85586 12560 22504 10128 20093 40187 53007 69901 81501 333 10170 56606 81630=
85586,2014,12,21,03,00,AAXX 21034 85586 NIL=
85586,2014,12,21,06,00,AAXX 21064 85586 NIL=
85586,2014,12,21,09,00,AAXX 21094 85586 NIL=
85586,2014,12,21,12,00,AAXX 21124 85586 12660 80603 10120 20077 40202 51017 69904 85502 333 20094 30/// 55003 56606 79999 85642 87070=
85586,2014,12,21,15,00,AAXX 21154 85586 42560 22710 10157 20090 40201 50007 82501 333 56606 82625=
85586,2014,12,21,18,00,AAXX 21184 85586 12560 12417 10177 20092 40199 58001 60001 81100 333 56600 81820=
85586,2014,12,21,21,00,AAXX 21214 85586 42560 12414 10179 20083 40194 58005 81100 333 56600 81820=
85586,2014,12,22,00,00,AAXX 22004 85586 12960 02406 10141 20081 40206 53010 60001 333 10192=
85586,2014,12,22,03,00,AAXX 22034 85586 NIL=
85586,2014,12,22,06,00,AAXX 22064 85586 NIL=
85586,2014,12,22,09,00,AAXX 22094 85586 NIL=
85586,2014,12,22,12,00,AAXX 22124 85586 12960 01405 10163 20051 40203 50005 60004 333 20056 30/// 55106 70000=
85586,2014,12,22,15,00,AAXX 22154 85586 42960 02414 10182 20086 40191 57011=
85586,2014,12,22,18,00,AAXX 22184 85586 12960 02418 10185 20091 40181 58010 60001=
85586,2014,12,22,21,00,AAXX 22214 85586 42960 02315 10195 20083 40160 58017=
85586,2014,12,23,00,00,AAXX 23004 85586 12960 02604 10165 20080 40158 55005 60001 333 10227=
85586,2014,12,23,03,00,AAXX 23034 85586 NIL=
85586,2014,12,23,06,00,AAXX 23064 85586 NIL=
85586,2014,12,23,09,00,AAXX 23094 85586 NIL=
85586,2014,12,23,12,00,AAXX 23124 85586 12960 00203 10155 20081 40132 52007 60004 333 20058 30/// 55132 70000=
85586,2014,12,23,15,00,AAXX 23154 85586 42960 02510 10172 20111 40128 57004=
85586,2014,12,23,18,00,AAXX 23184 85586 12960 02609 10177 20109 40125 57002 60001=
85586,2014,12,23,21,00,AAXX 23214 85586 42960 02807 10170 20111 40124 50010=
85586,2014,12,24,00,00,AAXX 24004 85586 12960 03406 10150 20114 40127 54000 60001 333 10192=
85586,2014,12,24,03,00,AAXX 24034 85586 NIL=
85586,2014,12,24,06,00,AAXX 24064 85586 NIL=
85586,2014,12,24,09,00,AAXX 24094 85586 NIL=
85586,2014,12,24,12,00,AAXX 24124 85586 12360 69902 10144 20116 40138 53009 60004 86600 333 20113 30/// 55129 56600 70000 86708=
85586,2014,12,24,15,00,AAXX 24154 85586 42960 02807 10167 20119 40133 58004=
85586,2014,12,24,18,00,AAXX 24184 85586 12260 52709 10153 20117 40139 51006 60001 85600 333 56600 85706=
85586,2014,12,24,21,00,AAXX 24214 85586 NIL=
85586,2014,12,25,00,00,AAXX 25004 85586 12360 73306 10147 20124 40131 56005 60001 87600 333 10173 56600 87709=
85586,2014,12,25,03,00,AAXX 25034 85586 NIL=
85586,2014,12,25,06,00,AAXX 25064 85586 NIL=
85586,2014,12,25,09,00,AAXX 25094 85586 NIL=
85586,2014,12,25,12,00,AAXX 25124 85586 11250 89902 10130 20116 40136 51017 60004 71022 886// 333 20111 30/// 55070 56699 70000 88705=
85586,2014,12,25,15,00,AAXX 25154 85586 42260 43109 10159 20123 40142 53005 84600 333 56600 84706=
85586,2014,12,25,18,00,AAXX 25184 85586 12360 32707 10164 20116 40144 50003 60001 83600 333 56600 83708=
85586,2014,12,25,21,00,AAXX 25214 85586 NIL=
85586,2014,12,26,00,00,AAXX 26004 85586 12460 13106 10135 20109 40149 53003 60001 81600 333 10173 56600 81711=
85586,2014,12,26,03,00,AAXX 26034 85586 NIL=
85586,2014,12,26,06,00,AAXX 26064 85586 NIL=
85586,2014,12,26,09,00,AAXX 26094 85586 NIL=
85586,2014,12,26,12,00,AAXX 26124 85586 11358 70303 10129 20110 40169 51018 60004 70522 87600 333 20090 30/// 55103 56600 70000 87708=
85586,2014,12,26,15,00,AAXX 26154 85586 42960 02606 10160 20112 40169 54000=
85586,2014,12,26,18,00,AAXX 26184 85586 12960 02908 10169 20125 40170 50002 60001=
85586,2014,12,26,21,00,AAXX 26214 85586 42960 02808 10168 20122 40151 56022=
85586,2014,12,27,00,00,AAXX 27004 85586 12360 33006 10145 20120 40148 57004 60001 83100 333 10184 56700 83808=
85586,2014,12,27,03,00,AAXX 27034 85586 NIL=
85586,2014,12,27,06,00,AAXX 27064 85586 NIL=
85586,2014,12,27,09,00,AAXX 27094 85586 NIL=
85586,2014,12,27,12,00,AAXX 27124 85586 11340 83405 10137 20119 40169 51027 69904 75022 886// 333 20126 30/// 55113 56799 79999 88707=
85586,2014,12,27,15,00,AAXX 27154 85586 41256 82906 10146 20125 40178 51009 75022 886// 333 56799 88706=
85586,2014,12,27,18,00,AAXX 27184 85586 12460 82609 10171 20125 40173 58003 69901 885// 333 56799 88611=
85586,2014,12,27,21,00,AAXX 27214 85586 42360 82608 10158 20128 40158 58013 886// 333 56799 88709=
85586,2014,12,28,00,00,AAXX 28004 85586 12360 43206 10145 20126 40154 57008 60001 84600 333 10184 56700 84708=
85586,2014,12,28,03,00,AAXX 28034 85586 NIL=
85586,2014,12,28,06,00,AAXX 28064 85586 NIL=
85586,2014,12,28,09,00,AAXX 28094 85586 NIL=
85586,2014,12,28,12,00,AAXX 28124 85586 11103 80803 10118 20116 40147 51017 69904 74244 886// 333 20091 30/// 55002 56799 70000 88703=
85586,2014,12,28,15,00,AAXX 28154 85586 41208 72609 10151 20126 40143 50000 74622 87600 333 56700 87703=
85586,2014,12,28,18,00,AAXX 28184 85586 11120 82513 10155 20127 40147 53004 60001 71022 886// 333 56799 88702=
85586,2014,12,28,21,00,AAXX 28214 85586 41258 32910 10169 20137 40138 58010 70522 83600 333 56700 83705=
85586,2014,12,29,00,00,AAXX 29004 85586 11358 53206 10150 20131 40138 53000 60001 70522 85600 333 10177 56700 85707=
85586,2014,12,29,03,00,AAXX 29034 85586 NIL=
85586,2014,12,29,06,00,AAXX 29064 85586 NIL=
85586,2014,12,29,09,00,AAXX 29094 85586 NIL=
85586,2014,12,29,12,00,AAXX 29124 85586 11250 80705 10142 20129 40165 51022 60004 71022 886// 333 20110 30/// 55071 56699 70000 88706=
85586,2014,12,29,15,00,AAXX 29154 85586 42360 33108 10187 20138 40179 51014 83100 333 56600 83808=
85586,2014,12,29,18,00,AAXX 29184 85586 12260 83009 10166 20136 40188 51012 60001 886// 333 56699 88705=
85586,2014,12,29,21,00,AAXX 29214 85586 42360 83206 10164 20141 40182 58006 886// 333 56799 88707=
85586,2014,12,30,00,00,AAXX 30004 85586 12260 82805 10161 20146 40183 54000 60001 886// 333 10191 56699 88705=
85586,2014,12,30,03,00,AAXX 30034 85586 NIL=
85586,2014,12,30,06,00,AAXX 30064 85586 NIL=
85586,2014,12,30,09,00,AAXX 30094 85586 NIL=
85586,2014,12,30,12,00,AAXX 30124 85586 11208 89902 10129 20127 40154 53005 60004 70442 886// 333 20101 30/// 55028 56699 70000 88705=
85586,2014,12,30,15,00,AAXX 30154 85586 42460 42708 10172 20130 40157 53005 82101 333 56600 82810 84073=
85586,2014,12,30,18,00,AAXX 30184 85586 12260 72710 10173 20133 40158 50000 60001 86601 333 56606 86705=
85586,2014,12,30,21,00,AAXX 30214 85586 42360 52710 10175 20141 40148 56010 83601 333 56606 83707 85070=
85586,2014,12,31,00,00,AAXX 31004 85586 12260 72608 10151 20137 40151 53001 60001 84604 333 10189 56606 84706 86070=
85586,2014,12,31,03,00,AAXX 31034 85586 NIL=
85586,2014,12,31,06,00,AAXX 31064 85586 NIL=
85586,2014,12,31,09,00,AAXX 31094 85586 NIL=
85586,2014,12,31,12,00,AAXX 31124 85586 12960 00804 10172 20128 40144 51013 60004 333 20103 30/// 55084 70000=
85586,2014,12,31,15,00,AAXX 31154 85586 42960 22709 10192 20126 40151 53007 80001 333 56006 82075=
85586,2014,12,31,18,00,AAXX 31184 85586 12960 52515 10203 20145 40157 51007 60001 80001 333 56006 85075=
85586,2014,12,31,21,00,AAXX 31214 85586 42960 62515 10180 20139 40153 58005 80001 333 56006 86075=
