85586,2000,01,01,00,00,AAXX 01004 85586 32460 73004 10154 20123 40165 52008 87500 333 10189 56700 87615=
85586,2000,01,01,03,00,AAXX 01034 85586 NIL=
85586,2000,01,01,06,00,AAXX 01064 85586 NIL=
85586,2000,01,01,09,00,AAXX 01094 85586 NIL=
85586,2000,01,01,12,00,AAXX 01124 85586 32460 82703 10146 20098 40172 52/// 885// 333 20139 30/// 50370 55112 56699 88617=
85586,2000,01,01,15,00,AAXX 01154 85586 42560 22705 10172 20101 40174 51003 82500 333 56600 82620=
85586,2000,01,01,18,00,AAXX 01184 85586 32960 02710 10186 20102 40178 51005=
85586,2000,01,01,21,00,AAXX 01214 85586 42960 02806 10187 20124 40167 57011=
85586,2000,01,02,00,00,AAXX 02004 85586 32560 22602 10163 20120 40163 57004 82500 333 10195 56600 82620=
85586,2000,01,02,03,00,AAXX 02034 85586 NIL=
85586,2000,01,02,06,00,AAXX 02064 85586 NIL=
85586,2000,01,02,09,00,AAXX 02094 85586 NIL=
85586,2000,01,02,12,00,AAXX 02124 85586 32460 12502 10156 20115 40153 54/// 81500 333 20088 30/// 50350 55084 56000 81618=
85586,2000,01,02,15,00,AAXX 02154 85586 42560 22606 10179 20121 40158 52005 82500 333 56000 82622=
85586,2000,01,02,18,00,AAXX 02184 85586 32560 12407 10194 20127 40161 52003 81500 333 56000 81623=
85586,2000,01,02,21,00,AAXX 02214 85586 42560 62406 10182 20120 40153 58010 86500 333 56000 86623=
85586,2000,01,03,00,00,AAXX 03004 85586 32560 82702 10163 20129 40154 53003 885// 333 10197 56099 88623=
85586,2000,01,03,03,00,AAXX 03034 85586 NIL=
85586,2000,01,03,06,00,AAXX 03064 85586 NIL=
85586,2000,01,03,09,00,AAXX 03094 85586 NIL=
85586,2000,01,03,12,00,AAXX 03124 85586 NIL=
85586,2000,01,03,15,00,AAXX 03154 85586 42460 82907 10167 20129 40172 52010 885// 333 56699 88618=
85586,2000,01,03,18,00,AAXX 03184 85586 32560 72607 10187 20123 40177 52005 87500 333 56600 87623=
85586,2000,01,03,21,00,AAXX 03214 85586 42560 22906 10189 20136 40165 58012 82500 333 56000 82625=
85586,2000,01,04,00,00,AAXX 04004 85586 32960 02402 10161 20132 40166 54001 333 10194=
85586,2000,01,04,03,00,AAXX 04034 85586 NIL=
85586,2000,01,04,06,00,AAXX 04064 85586 NIL=
85586,2000,01,04,09,00,AAXX 04094 85586 NIL=
85586,2000,01,04,12,00,AAXX 04124 85586 32460 32703 10153 20127 40155 52/// 83600 333 20102 30/// 50400 55040 56600 83710=
85586,2000,01,04,15,00,AAXX 04154 85586 42460 32710 10178 20138 40155 50000 83600 333 56600 83710=
85586,2000,01,04,18,00,AAXX 04184 85586 32460 22907 10186 20145 40157 50002 82600 333 56600 82708=
85586,2000,01,04,21,00,AAXX 04214 85586 42960 03010 10199 20142 40151 57006=
85586,2000,01,05,00,00,AAXX 05004 85586 32960 00206 10176 20139 40148 55002 333 10204=
85586,2000,01,05,03,00,AAXX 05034 85586 NIL=
85586,2000,01,05,06,00,AAXX 05064 85586 NIL=
85586,2000,01,05,09,00,AAXX 05094 85586 NIL=
85586,2000,01,05,12,00,AAXX 05124 85586 31003 80000 10141 20136 40154 52/// 7454/ 886// 333 20105 30/// 50410 55097 56699 88701=
85586,2000,01,05,15,00,AAXX 05154 85586 41360 12709 10176 20134 40162 53009 70142 81600 333 56600 81708=
85586,2000,01,05,18,00,AAXX 05184 85586 31960 02511 10185 20128 40169 52007 70142=
85586,2000,01,05,21,00,AAXX 05214 85586 42960 02312 10178 20127 40169 54001=
85586,2000,01,06,00,00,AAXX 06004 85586 32960 01802 10152 20111 40171 54001 333 10192=
85586,2000,01,06,03,00,AAXX 06034 85586 NIL=
85586,2000,01,06,06,00,AAXX 06064 85586 NIL=
85586,2000,01,06,09,00,AAXX 06094 85586 NIL=
85586,2000,01,06,12,00,AAXX 06124 85586 32960 00000 10158 20108 40174 52/// 333 20073 30/// 50430 55094=
85586,2000,01,06,15,00,AAXX 06154 85586 42960 02405 10180 20136 40176 50002=
85586,2000,01,06,18,00,AAXX 06184 85586 32960 02409 10195 20116 40180 51005=
85586,2000,01,06,21,00,AAXX 06214 85586 42960 02710 10192 20097 40165 57012=
85586,2000,01,07,00,00,AAXX 07004 85586 32960 02306 10166 20088 40166 55002 333 10210=
85586,2000,01,07,03,00,AAXX 07034 85586 NIL=
85586,2000,01,07,06,00,AAXX 07064 85586 NIL=
85586,2000,01,07,09,00,AAXX 07094 85586 NIL=
85586,2000,01,07,12,00,AAXX 07124 85586 32960 00000 10167 20098 40167 52/// 333 20072 30/// 50430 55119=
85586,2000,01,07,15,00,AAXX 07154 85586 42960 02504 10206 20118 40171 52006=
85586,2000,01,07,18,00,AAXX 07184 85586 32960 02412 10197 20113 40170 58002=
85586,2000,01,07,21,00,AAXX 07214 85586 42960 02307 10190 20129 40165 57006=
85586,2000,01,08,00,00,AAXX 08004 85586 32960 02404 10168 20141 40176 53011 333 10209=
85586,2000,01,08,06,00,AAXX 08064 85586 NIL=
85586,2000,01,08,09,00,AAXX 08094 85586 NIL=
85586,2000,01,08,12,00,AAXX 08124 85586 32960 00000 10139 20110 40179 53/// 333 20069 30/// 50470 55130=
85586,2000,01,08,15,00,AAXX 08154 85586 42960 02406 10179 20117 40182 52004=
85586,2000,01,08,18,00,AAXX 08184 85586 32960 02509 10184 20114 40181 54001=
85586,2000,01,08,21,00,AAXX 08214 85586 42960 02312 10174 20117 40171 57010=
85586,2000,01,09,00,00,AAXX 09004 85586 32960 00000 10150 20115 40174 54002 333 10187=
85586,2000,01,09,03,00,AAXX 09034 85586 NIL=
85586,2000,01,09,06,00,AAXX 09064 85586 NIL=
85586,2000,01,09,09,00,AAXX 09094 85586 NIL=
85586,2000,01,09,12,00,AAXX 09124 85586 32960 00000 10136 20111 40166 53/// 333 20075 30/// 50390 55126=
85586,2000,01,09,15,00,AAXX 09154 85586 42960 02507 10173 20115 40169 52004=
85586,2000,01,09,18,00,AAXX 09184 85586 32960 02509 10186 20116 40166 58003=
85586,2000,01,09,21,00,AAXX 09214 85586 42960 02706 10186 20124 40149 57017=
85586,2000,01,10,00,00,AAXX 10004 85586 32960 00204 10154 20117 40170 54000 333 10190=
85586,2000,01,10,03,00,AAXX 10034 85586 NIL=
85586,2000,01,10,06,00,AAXX 10064 85586 NIL=
85586,2000,01,10,09,00,AAXX 10094 85586 NIL=
85586,2000,01,10,12,00,AAXX 10124 85586 32960 00000 10153 20110 40145 53/// 333 20079 30/// 50480 55125=
85586,2000,01,10,15,00,AAXX 10154 85586 42960 02907 10179 20117 40147 53003=
85586,2000,01,10,18,00,AAXX 10184 85586 32960 02509 10185 20126 40142 58005=
85586,2000,01,10,21,00,AAXX 10214 85586 42960 02410 10194 20107 40129 57013=
85586,2000,01,11,00,00,AAXX 11004 85586 32960 00000 10158 20106 40134 53005 333 10213=
85586,2000,01,11,03,00,AAXX 11034 85586 NIL=
85586,2000,01,11,06,00,AAXX 11064 85586 NIL=
85586,2000,01,11,09,00,AAXX 11094 85586 NIL=
85586,2000,01,11,12,00,AAXX 11124 85586 32960 00000 10155 20094 40128 53/// 333 20068 30/// 50550 55124=
85586,2000,01,11,18,00,AAXX 11184 85586 32460 12708 10179 20123 40153 52012 81100 333 56600 81810=
85586,2000,01,12,00,00,AAXX 12004 85586 32460 72905 10156 20130 40153 54000 87500 333 10190 56600 87610=
85586,2000,01,12,06,00,AAXX 12064 85586 NIL=
85586,2000,01,12,12,00,AAXX 12124 85586 32260 10603 10135 20111 40160 52/// 81600 333 20096 30/// 50440 55099 56600 81708=
85586,2000,01,12,18,00,AAXX 12184 85586 32960 02508 10190 20139 40148 57015=
85586,2000,01,12,21,00,AAXX 12214 85586 42360 22418 10190 20146 40135 57012 82600 333 56600 82708=
85586,2000,01,13,00,00,AAXX 13004 85586 32960 02108 10202 20142 40132 56003 333 10210=
85586,2000,01,13,03,00,AAXX 13034 85586 NIL=
85586,2000,01,13,06,00,AAXX 13064 85586 NIL=
85586,2000,01,13,09,00,AAXX 13094 85586 NIL=
85586,2000,01,13,12,00,AAXX 13124 85586 32360 73505 10143 20126 40152 52/// 87600 333 20113 30/// 50300 55117 56600 87708=
85586,2000,01,13,15,00,AAXX 13154 85586 42460 22610 10172 20127 40160 52009 82600 333 56600 82712=
85586,2000,01,13,18,00,AAXX 13184 85586 32460 52605 10170 20130 40165 53005 85600 333 56600 85712=
85586,2000,01,13,21,00,AAXX 13214 85586 42460 02706 10178 20134 40154 58011 84600 333 56600 84712=
85586,2000,01,14,00,00,AAXX 14004 85586 32460 42704 10156 20135 40157 53003 84500 333 10183 56600 84617=
85586,2000,01,14,03,00,AAXX 14034 85586 NIL=
85586,2000,01,14,06,00,AAXX 14064 85586 NIL=
85586,2000,01,14,09,00,AAXX 14094 85586 NIL=
85586,2000,01,14,12,00,AAXX 14124 85586 32460 72004 10141 20111 40163 52/// 87500 333 20093 30/// 50470 55076 56600 87617=
85586,2000,01,14,15,00,AAXX 14154 85586 42560 42710 10179 20111 40160 58002 84500 333 56600 84620=
85586,2000,01,14,18,00,AAXX 14184 85586 32560 12309 10181 20123 40163 53003 81500 333 56000 81620=
85586,2000,01,14,21,00,AAXX 14214 85586 42560 12310 10179 20124 40154 58009 81500 333 56000 81620=
85586,2000,01,15,00,00,AAXX 15004 85586 32460 12605 10145 20126 40157 54002 81500 333 10188 56000 81618=
85586,2000,01,15,03,00,AAXX 15034 85586 NIL=
85586,2000,01,15,06,00,AAXX 15064 85586 NIL=
85586,2000,01,15,09,00,AAXX 15094 85586 NIL=
85586,2000,01,15,12,00,AAXX 15124 85586 32960 00000 10137 20112 40164 53/// 333 20068 30/// 50400 55089=
85586,2000,01,15,15,00,AAXX 15154 85586 42960 02310 10180 20108 40161 54002=
85586,2000,01,15,18,00,AAXX 15184 85586 32960 02312 10180 20108 40156 57005=
85586,2000,01,15,21,00,AAXX 15214 85586 42960 02316 10177 20126 40141 57015=
85586,2000,01,16,00,00,AAXX 16004 85586 32960 02310 10149 20114 40143 54001 333 10186=
85586,2000,01,16,03,00,AAXX 16034 85586 NIL=
85586,2000,01,16,06,00,AAXX 16064 85586 NIL=
85586,2000,01,16,09,00,AAXX 16094 85586 NIL=
85586,2000,01,16,12,00,AAXX 16124 85586 32960 10000 10140 20117 40162 53/// 80001 333 20070 30/// 50370 55126 56005 81075=
85586,2000,01,16,15,00,AAXX 16154 85586 42960 12407 10176 20117 40168 52007 80001 333 56005 81075=
85586,2000,01,16,18,00,AAXX 16184 85586 32960 02312 10177 20122 40163 58005=
85586,2000,01,16,21,00,AAXX 16214 85586 42960 02412 10176 20121 40152 57011=
85586,2000,01,17,00,00,AAXX 17004 85586 32960 02406 10146 20106 40149 55003 333 10192=
85586,2000,01,17,03,00,AAXX 17034 85586 NIL=
85586,2000,01,17,06,00,AAXX 17064 85586 NIL=
85586,2000,01,17,09,00,AAXX 17094 85586 NIL=
85586,2000,01,17,12,00,AAXX 17124 85586 32460 83203 10132 20106 40181 52/// 885// 333 20114 30/// 50490 55132 56099 88610=
85586,2000,01,17,15,00,AAXX 17154 85586 42960 02707 10174 20117 40177 57003=
85586,2000,01,17,18,00,AAXX 17184 85586 NIL=
85586,2000,01,17,21,00,AAXX 17214 85586 42460 22706 10176 20128 40166 57010 82500 333 56600 82615=
85586,2000,01,18,00,00,AAXX 18004 85586 32460 53202 10150 20126 40170 53003 85500 333 10187 56600 85615=
85586,2000,01,18,03,00,AAXX 18034 85586 NIL=
85586,2000,01,18,06,00,AAXX 18064 85586 NIL=
85586,2000,01,18,09,00,AAXX 18094 85586 NIL=
85586,2000,01,18,12,00,AAXX 18124 85586 32960 02702 10156 20125 40191 52/// 333 20087 30/// 50520 55096=
85586,2000,01,18,15,00,AAXX 18154 85586 42460 12704 10172 20128 40202 52011 81600 333 56600 81710=
85586,2000,01,18,18,00,AAXX 18184 85586 32960 02610 10187 20124 40197 58005=
85586,2000,01,18,21,00,AAXX 18214 85586 42960 02806 10198 20116 40173 57023=
85586,2000,01,19,00,00,AAXX 19004 85586 32960 02602 10189 20109 40169 56004 333 10222=
85586,2000,01,19,03,00,AAXX 19034 85586 NIL=
85586,2000,01,19,06,00,AAXX 19064 85586 NIL=
85586,2000,01,19,09,00,AAXX 19094 85586 NIL=
85586,2000,01,19,12,00,AAXX 19124 85586 32960 00000 10164 20118 40158 53/// 333 20082030/// 50062 55122=
85586,2000,01,19,15,00,AAXX 19154 85586 42960 03006 10202 20121 40157 54001=
85586,2000,01,19,18,00,AAXX 19184 85586 32960 02312 10202 20121 40146 57010=
85586,2000,01,19,21,00,AAXX 19214 85586 42960 12407 10219 20121 40118 80001 333 56005 81075=
85586,2000,01,20,00,00,AAXX 20004 85586 32960 00302 10187 20119 40118 57002 333 10222=
85586,2000,01,20,03,00,AAXX 20034 85586 NIL=
85586,2000,01,20,06,00,AAXX 20064 85586 NIL=
85586,2000,01,20,09,00,AAXX 20094 85586 NIL=
85586,2000,01,20,12,00,AAXX 20124 85586 32960 00000 10132 20112 40126 53/// 333 20080 30/// 50520 55123=
85586,2000,01,20,15,00,AAXX 20154 85586 42960 22704 10189 20123 40128 52003 80001 333 56007 82073=
85586,2000,01,20,18,00,AAXX 20184 85586 32960 02413 10216 20114 40104 58012=
85586,2000,01,20,21,00,AAXX 20214 85586 42960 02314 10229 20114 40102 57012=
85586,2000,01,21,00,00,AAXX 21004 85586 32960 00000 10195 20100 40113 53010 333 10233=
85586,2000,01,21,03,00,AAXX 21034 85586 NIL=
85586,2000,01,21,06,00,AAXX 21064 85586 NIL=
85586,2000,01,21,09,00,AAXX 21094 85586 NIL=
85586,2000,01,21,12,00,AAXX 21124 85586 32960 00000 10151 20122 40151 52/// 333 20094 30/// 50690 55113=
85586,2000,01,21,15,00,AAXX 21154 85586 42960 02510 10189 20105 40148 54002=
85586,2000,01,21,18,00,AAXX 21184 85586 32960 02317 10181 20103 40146 57002=
85586,2000,01,21,21,00,AAXX 21214 85586 42960 02317 10181 20103 40137 57009=
85586,2000,01,22,00,00,AAXX 22004 85586 32960 02204 10162 20099 40134 57003 333 10194=
85586,2000,01,22,03,00,AAXX 22034 85586 NIL=
85586,2000,01,22,06,00,AAXX 22064 85586 NIL=
85586,2000,01,22,09,00,AAXX 22094 85586 NIL=
85586,2000,01,22,12,00,AAXX 22124 85586 32960 00000 10135 20096 40164 52/// 333 20056 30/// 50590 55123=
85586,2000,01,22,15,00,AAXX 22154 85586 42960 02510 10173 20106 40166 52003=
85586,2000,01,22,18,00,AAXX 22184 85586 32960 02311 10178 20108 40169 52003=
85586,2000,01,22,21,00,AAXX 22214 85586 42960 02510 10176 20097 40155 58014=
85586,2000,01,23,00,00,AAXX 23004 85586 32960 00000 10156 20082 40156 54001 333 10190=
85586,2000,01,23,06,00,AAXX 23064 85586 NIL=
85586,2000,01,23,09,00,AAXX 23094 85586 NIL=
85586,2000,01,23,12,00,AAXX 23124 85586 32960 02204 10133 20084 40165 52/// 333 20044 30/// 50540 55122=
85586,2000,01,23,15,00,AAXX 23154 85586 42960 02604 10170 20094 40162 58003=
85586,2000,01,23,18,00,AAXX 23184 85586 32960 02214 10198 20085 40156 57006=
85586,2000,01,23,21,00,AAXX 23214 85586 42960 02414 10194 20094 40140 57018=
85586,2000,01,24,00,00,AAXX 24004 85586 32960 00000 10169 20079 40140 56008 333 10214=
85586,2000,01,24,03,00,AAXX 24034 85586 NIL=
85586,2000,01,24,06,00,AAXX 24064 85586 NIL=
85586,2000,01,24,09,00,AAXX 24094 85586 NIL=
85586,2000,01,24,12,00,AAXX 24124 85586 32960 00000 10124 20094 40148 53/// 333 20062 30/// 50630 55119=
85586,2000,01,24,15,00,AAXX 24154 85586 42960 02706 10172 20098 40158 52010=
85586,2000,01,24,18,00,AAXX 24184 85586 32960 02805 10173 20108 40155 58004=
85586,2000,01,24,21,00,AAXX 24214 85586 42960 02706 10166 20114 40148 56008=
85586,2000,01,25,00,00,AAXX 25004 85586 NIL=
85586,2000,01,25,03,00,AAXX 25034 85586 NIL=
85586,2000,01,25,06,00,AAXX 25064 85586 NIL=
85586,2000,01,25,09,00,AAXX 25094 85586 NIL=
85586,2000,01,25,12,00,AAXX 25124 85586 32460 63308 10130 20108 40158 52/// 86500 333 20088 30/// 50550 55121 56700 86613=
85586,2000,01,25,15,00,AAXX 25154 85586 42460 22802 10160 20114 40164 52007 82500 333 56600 82613=
85586,2000,01,25,18,00,AAXX 25184 85586 32460 22706 10153 20111 40159 58006 82500 333 56600 82613=
85586,2000,01,25,21,00,AAXX 25214 85586 42960 02906 10175 20129 40149 57009=
85586,2000,01,26,00,00,AAXX 26004 85586 32960 00000 10140 20109 40139 57011 333 10177=
85586,2000,01,26,06,00,AAXX 26064 85586 NIL=
85586,2000,01,26,09,00,AAXX 26094 85586 NIL=
85586,2000,01,26,12,00,AAXX 26124 85586 32960 00000 10149 20125 40148 52/// 333 20066 30/// 50530 55107=
85586,2000,01,26,15,00,AAXX 26154 85586 42960 03205 10178 20119 40151 52004=
85586,2000,01,26,18,00,AAXX 26184 85586 32260 62806 10151 20118 40150 54002 86600 333 56700 86706=
85586,2000,01,26,21,00,AAXX 26214 85586 42260 82805 10140 20115 40139 57011 886// 333 56799 88706=
85586,2000,01,27,00,00,AAXX 27004 85586 31258 80000 10128 20117 40134 57005 71022 886// 333 10190 56799 88706=
85586,2000,01,27,03,00,AAXX 27034 85586 NIL=
85586,2000,01,27,06,00,AAXX 27064 85586 NIL=
85586,2000,01,27,09,00,AAXX 27094 85586 NIL=
85586,2000,01,27,12,00,AAXX 27124 85586 31250 83205 10127 20121 40165 52/// 7102/ 886// 333 20124 30/// 50360 55062 56799 88706=
85586,2000,01,27,15,00,AAXX 27154 85586 42460 60305 10157 20119 40177 52013 86500 333 56700 86610=
85586,2000,01,27,18,00,AAXX 27184 85586 32460 72705 10164 20126 40176 54001 87500 333 56700 87612=
85586,2000,01,27,21,00,AAXX 27214 85586 42460 83203 10160 20135 40168 57008 885// 333 56799 88610=
85586,2000,01,28,00,00,AAXX 28004 85586 31240 83602 10141 20131 40170 57001 71022 886// 333 10175 56799 88706=
85586,2000,01,28,03,00,AAXX 28034 85586 NIL=
85586,2000,01,28,06,00,AAXX 28064 85586 NIL=
85586,2000,01,28,09,00,AAXX 28094 85586 NIL=
85586,2000,01,28,12,00,AAXX 28124 85586 31250 83401 10137 20126 40175 53/// 7102/ 886// 333 20133 30/// 50310 55018 56799 88706=
85586,2000,01,28,15,00,AAXX 28154 85586 41458 73004 10158 20131 40195 52020 70522 87500 333 56700 87610=
85586,2000,01,28,18,00,AAXX 28184 85586 32460 63008 10189 20142 40188 50006 86500 333 56700 86610=
85586,2000,01,28,21,00,AAXX 28214 85586 42460 62906 10176 20144 40175 57013 86500 333 56600 86613=
85586,2000,01,29,00,00,AAXX 29004 85586 32460 82904 10166 20146 40172 56003 885// 333 10190 56699 88613=
85586,2000,01,29,03,00,AAXX 29034 85586 NIL=
85586,2000,01,29,06,00,AAXX 29064 85586 NIL=
85586,2000,01,29,09,00,AAXX 29094 85586 NIL=
85586,2000,01,29,12,00,AAXX 29124 85586 32460 73104 10170 20145 40156 54/// 85530 333 20154 30/// 50400 55014 56760 85615=
85586,2000,01,29,15,00,AAXX 29154 85586 42460 62510 10184 20141 40163 53007 82502 333 56606 82613 85075=
85586,2000,01,29,18,00,AAXX 29184 85586 31230 62706 10177 20142 40167 52004 71022 83602 333 56606 83706 85075=
85586,2000,01,29,21,00,AAXX 29214 85586 41208 82806 10161 20143 40157 58010 74422 886// 333 56699 88706=
85586,2000,01,30,00,00,AAXX 30004 85586 31307 82603 10144 20130 40154 56004 74644 887// 333 10188 56699 88707=
85586,2000,01,30,03,00,AAXX 30034 85586 NIL=
85586,2000,01,30,06,00,AAXX 30064 85586 NIL=
85586,2000,01,30,09,00,AAXX 30094 85586 NIL=
85586,2000,01,30,12,00,AAXX 30124 85586 32960 00000 10146 20111 40158 52/// 333 20084 30/// 50320 55045=
85586,2000,01,30,15,00,AAXX 30154 85586 42960 02506 10176 20104 40169 52012=
85586,2000,01,30,18,00,AAXX 30184 85586 32960 02608 10204 20106 40175 52006=
85586,2000,01,30,21,00,AAXX 30214 85586 42960 02707 10200 20098 40166 58008=
85586,2000,01,31,00,00,AAXX 31004 85586 32960 00000 10168 20106 40171 53004 333 10221=
85586,2000,01,31,03,00,AAXX 31034 85586 NIL=
85586,2000,01,31,06,00,AAXX 31064 85586 NIL=
85586,2000,01,31,09,00,AAXX 31094 85586 NIL=
85586,2000,01,31,12,00,AAXX 31124 85586 32965 00000 10175 20120 40181 52/// 333 20083 30/// 50460 55119=
85586,2000,01,31,15,00,AAXX 31154 85586 42965 02608 10191 20145 40196 52015=
85586,2000,01,31,18,00,AAXX 31184 85586 32960 12407 10201 20130 40194 54002 81030 333 56040 81365=
85586,2000,01,31,21,00,AAXX 31214 85586 42965 02608 10195 20132 40182 57012=
85586,2000,02,01,00,00,AAXX 01004 85586 32960 12504 10162 20140 40180 55002 81030 333 10205 56050 81362=
85586,2000,02,01,03,00,AAXX 01034 85586 NIL=
85586,2000,02,01,06,00,AAXX 01064 85586 NIL=
85586,2000,02,01,09,00,AAXX 01094 85586 NIL=
85586,2000,02,01,12,00,AAXX 01124 85586 32960 70000 10156 20123 40190 53/// 81031 333 20097 30/// 50420 55124 56055 81362 86073=
85586,2000,02,01,15,00,AAXX 01154 85586 42960 72502 10191 20125 40197 52006 86031 333 56055 86362 81073=
85586,2000,02,01,18,00,AAXX 01184 85586 32960 62307 10219 20102 40194 54000 80001 333 56005 86073=
85586,2000,02,01,21,00,AAXX 01214 85586 42960 62407 10212 20130 40185 58009 81031 333 56055 81362 85073=
85586,2000,02,02,00,00,AAXX 02004 85586 32960 20000 10184 20152 40187 54000 81031 333 10236 56055 81362 81073=
85586,2000,02,02,03,00,AAXX 02034 85586 NIL=
85586,2000,02,02,06,00,AAXX 02064 85586 NIL=
85586,2000,02,02,09,00,AAXX 02094 85586 NIL=
85586,2000,02,02,12,00,AAXX 02124 85586 32960 31001 10163 20129 40183 52/// 82031 333 20112 30/// 50420 55095 82360 81073=
85586,2000,02,02,15,00,AAXX 02154 85586 42560 12509 10206 20140 40176 55005 81100 333 56500 81830=
85586,2000,02,02,21,00,AAXX 02214 85586 42560 12410 10202 20154 40157 57013 81800 333 56500 81830=
85586,2000,02,03,00,00,AAXX 03004 85586 32960 02305 10171 20146 40161 53003 333 10223=
85586,2000,02,03,03,00,AAXX 03034 85586 NIL=
85586,2000,02,03,06,00,AAXX 03064 85586 NIL=
85586,2000,02,03,09,00,AAXX 03094 85586 NIL=
85586,2000,02,03,12,00,AAXX 03124 85586 32960 00000 10162 20144 40149 53/// 333 20127 30/// 50380 55117=
85586,2000,02,03,15,00,AAXX 03154 85586 42960 02807 10198 20136 40156 51008=
85586,2000,02,03,18,00,AAXX 03184 85586 32960 02314 10188 20129 40156 54001=
85586,2000,02,03,21,00,AAXX 03214 85586 42960 02710 10182 20126 40154 54001=
85586,2000,02,04,00,00,AAXX 04004 85586 32460 32804 10156 20125 40160 53006 83500 333 10202 56600 83615=
85586,2000,02,04,03,00,AAXX 04034 85586 NIL=
85586,2000,02,04,06,00,AAXX 04064 85586 NIL=
85586,2000,02,04,09,00,AAXX 04094 85586 NIL=
85586,2000,02,04,12,00,AAXX 04124 85586 32460 60000 10147 20121 40160 52/// 86500 333 20098 30/// 50390 55121 56000 86615=
85586,2000,02,04,15,00,AAXX 04154 85586 42960 02407 10183 20120 40165 51006=
85586,2000,02,04,18,00,AAXX 04184 85586 32560 13007 10189 20131 40170 52005 81500 333 56600 81615=
85586,2000,02,04,21,00,AAXX 04214 85586 42960 02607 10201 20133 40159 57010=
85586,2000,02,05,00,00,AAXX 05004 85586 32960 02703 10171 20136 40164 53004 333 10205=
85586,2000,02,05,03,00,AAXX 05034 85586 NIL=
85586,2000,02,05,06,00,AAXX 05064 85586 NIL=
85586,2000,02,05,09,00,AAXX 05094 85586 NIL=
85586,2000,02,05,12,00,AAXX 05124 85586 32960 20000 10154 20123 40152 52/// 81011 333 20107 30/// 50510 55112 56066 81365=
85586,2000,02,05,15,00,AAXX 05154 85586 42960 12706 10210 20114 40183 51004 80001 333 56006 71075=
85586,2000,02,05,18,00,AAXX 05184 85586 32960 12510 10222 20118 40185 54002 80001 333 56006 81075=
85586,2000,02,05,21,00,AAXX 05214 85586 42960 12318 10208 20142 40185 54000 80001 333 56006 81075=
85586,2000,02,06,00,00,AAXX 06004 85586 32960 72204 10166 20138 40190 53003 80002 333 10226 56006 87075=
85586,2000,02,06,03,00,AAXX 06034 85586 NIL=
85586,2000,02,06,06,00,AAXX 06064 85586 NIL=
85586,2000,02,06,09,00,AAXX 06094 85586 NIL=
85586,2000,02,06,12,00,AAXX 06124 85586 32960 60000 10149 20127 40171 53/// 86030 333 20098 30/// 50430 55111 56060 86365=
85586,2000,02,06,15,00,AAXX 06154 85586 42960 32905 10208 20114 40168 54002 81034 333 56065 81365 82075=
85586,2000,02,06,18,00,AAXX 06184 85586 32960 12506 10211 20132 40167 54001 80001 333 56005 81075=
85586,2000,02,06,21,00,AAXX 06214 85586 42960 12610 10196 20130 40156 57012 80001 333 56005 81075=
85586,2000,02,07,00,00,AAXX 07004 85586 32960 12706 10158 20112 40168 53011 81030 333 20218 56060 81365=
85586,2000,02,07,03,00,AAXX 07034 85586 NIL=
85586,2000,02,07,06,00,AAXX 07064 85586 NIL=
85586,2000,02,07,09,00,AAXX 07094 85586 NIL=
85586,2000,02,07,12,00,AAXX 07124 85586 32460 82402 10144 20118 40196 53/// 885// 333 30/// 50380 55113 56599 88613=
85586,2000,02,07,15,00,AAXX 07154 85586 NIL=
85586,2000,02,07,18,00,AAXX 07184 85586 32960 12710 10192 20119 40197 58004 80001 333 56005 81070=
85586,2000,02,07,21,00,AAXX 07214 85586 42960 12412 10189 20125 40185 57012 80001 333 56005 81070=
85586,2000,02,08,00,00,AAXX 08004 85586 32460 62605 10160 20129 40191 53005 86500 333 10202 56500 86615=
85586,2000,02,08,03,00,AAXX 08034 85586 NIL=
85586,2000,02,08,06,00,AAXX 08064 85586 NIL=
85586,2000,02,08,09,00,AAXX 08094 85586 NIL=
85586,2000,02,08,12,00,AAXX 08124 85586 31220 50000 10131 20120 40172 52/// 7102/ 85600 333 20091 30/// 50340 55093 56600 85705=
85586,2000,02,08,15,00,AAXX 08154 85586 42960 43204 10211 20118 40160 57009 82031 333 56054 82365 82075=
85586,2000,02,08,18,00,AAXX 08184 85586 32960 52415 10201 20130 40166 58005 84031 333 56054 84365 81075=
85586,2000,02,08,21,00,AAXX 08214 85586 42960 62510 10196 20122 40163 58003 84031 333 56054 84365 82075=
85586,2000,02,09,00,00,AAXX 09004 85586 NIL=
85586,2000,02,09,03,00,AAXX 09034 85586 NIL=
85586,2000,02,09,06,00,AAXX 09064 85586 NIL=
85586,2000,02,09,09,00,AAXX 09094 85586 NIL=
85586,2000,02,09,12,00,AAXX 09124 85586 32960 02402 10180 20120 40167 53/// 333 20120 30/// 50460 55105=
85586,2000,02,09,15,00,AAXX 09154 85586 42360 22407 10206 20167 40166 54001 82600 333 56600 82708=
85586,2000,02,09,18,00,AAXX 09184 85586 32360 12410 10208 20167 40169 52003 81600 333 56600 81708=
85586,2000,02,09,21,00,AAXX 09214 85586 42460 12410 10206 20156 40160 58009 81100 333 56600 81815=
85586,2000,02,10,00,00,AAXX 10004 85586 32960 62408 10172 20159 40167 53004 80001 333 10216 56006 86075=
85586,2000,02,10,03,00,AAXX 10034 85586 NIL=
85586,2000,02,10,06,00,AAXX 10064 85586 NIL=
85586,2000,02,10,09,00,AAXX 10094 85586 NIL=
85586,2000,02,10,12,00,AAXX 10124 85586 32960 50000 10165 20122 40149 53/// 80001 333 20095 30/// 50390 55106 56005 85075=
85586,2000,02,10,15,00,AAXX 10154 85586 42960 62608 10218 20122 40148 54001 80001 333 56006 86075=
85586,2000,02,10,18,00,AAXX 10184 85586 32960 42511 10217 20138 40149 54001 80001 333 56006 84075=
85586,2000,02,10,21,00,AAXX 10214 85586 42960 12509 10204 20151 40140 56008 80001 333 56004 81075=
85586,2000,02,11,00,00,AAXX 11004 85586 32960 12803 10172 20142 40140 54000 80001 333 10220 56005 81075=
85586,2000,02,11,03,00,AAXX 11034 85586 NIL=
85586,2000,02,11,06,00,AAXX 11064 85586 NIL=
85586,2000,02,11,09,00,AAXX 11094 85586 NIL=
85586,2000,02,11,12,00,AAXX 11124 85586 32960 10000 10174 20135 40143 53/// 80001 333 20111 30/// 50460 55111 56006 81075=
85586,2000,02,11,15,00,AAXX 11154 85586 42460 13006 10223 20147 40151 52010 81500 333 56700 81613=
85586,2000,02,11,18,00,AAXX 11184 85586 32460 12812 10224 20162 40150 54001 81500 333 56700 81613=
85586,2000,02,11,21,00,AAXX 11214 85586 42460 12608 10218 20169 40147 56003 81500 333 56600 81615=
85586,2000,02,12,00,00,AAXX 12004 85586 32460 33103 10192 20165 40149 54001 81530 333 10233 56760 81615 83365=
85586,2000,02,12,03,00,AAXX 12034 85586 NIL=
85586,2000,02,12,06,00,AAXX 12064 85586 NIL=
85586,2000,02,12,09,00,AAXX 12094 85586 NIL=
85586,2000,02,12,12,00,AAXX 12124 85586 NIL=
85586,2000,02,12,15,00,AAXX 12154 85586 42460 62705 10195 20160 40170 52013 85800 333 56600 83813 85617=
85586,2000,02,12,18,00,AAXX 12184 85586 32460 42411 10206 20157 40175 51005 82230 333 56650 82815 82358=
85586,2000,02,12,21,00,AAXX 12214 85586 42460 22311 10212 20126 40168 58006 82200 333 5650082815=
85586,2000,02,13,00,00,AAXX 13004 85586 32460 10000 10180 20118 40178 53008 81500 333 10229 56000 81615=
85586,2000,02,13,03,00,AAXX 13034 85586 NIL=
85586,2000,02,13,06,00,AAXX 13064 85586 NIL=
85586,2000,02,13,09,00,AAXX 13094 85586 NIL=
85586,2000,02,13,12,00,AAXX 13124 85586 32960 01703 10168 20112 40150 53/// 333 20101 31/// 50310 55085=
85586,2000,02,13,15,00,AAXX 13154 85586 42965 22607 10197 20113 40162 52013 80001 333 56005 82073=
85586,2000,02,13,18,00,AAXX 13184 85586 32965 02315 10200 20128 40164 54002=
85586,2000,02,13,21,00,AAXX 13214 85586 42965 02415 10186 20131 40161 58004=
85586,2000,02,14,00,00,AAXX 14004 85586 32960 03302 10152 20126 40165 53003 333 10200=
85586,2000,02,14,03,00,AAXX 14034 85586 NIL=
85586,2000,02,14,06,00,AAXX 14064 85586 NIL=
85586,2000,02,14,09,00,AAXX 14094 85586 NIL=
85586,2000,02,14,12,00,AAXX 14124 85586 32960 00000 10156 20122 40152 52/// 333 10110 31/// 50480 55122=
85586,2000,02,14,15,00,AAXX 14154 85586 42960 02807 10190 20135 40156 52004=
85586,2000,02,14,18,00,AAXX 14184 85586 32960 02707 10207 20129 40152 58002=
85586,2000,02,14,21,00,AAXX 14214 85586 42960 02707 10199 20148 40142 57012=
85586,2000,02,15,00,00,AAXX 15004 85586 32960 03303 10165 20142 40132 57010 333 10210=
85586,2000,02,15,03,00,AAXX 15034 85586 NIL=
85586,2000,02,15,06,00,AAXX 15064 85586 NIL=
85586,2000,02,15,09,00,AAXX 15094 85586 NIL=
85586,2000,02,15,12,00,AAXX 15124 85586 32560 72804 10160 20139 40170 52/// 87500 333 10139 30/// 50400 55120 56600 87622=
85586,2000,02,15,15,00,AAXX 15154 85586 42560 73107 10191 20123 40193 52023 87500 333 56600 87625=
85586,2000,02,15,18,00,AAXX 15184 85586 32560 33008 10202 20138 40199 52006 83500 333 56600 83625=
85586,2000,02,15,21,00,AAXX 15214 85586 42560 22408 10202 20113 40192 58007 82500 333 56600 82623=
85586,2000,02,16,00,00,AAXX 16004 85586 32960 52404 10174 20130 40187 56005 80001 333 10209 56006 85075=
85586,2000,02,16,03,00,AAXX 16034 85586 NIL=
85586,2000,02,16,06,00,AAXX 16064 85586 NIL=
85586,2000,02,16,12,00,AAXX 16124 85586 32960 00000 10154 20130 40184 52/// 333 20104 30/// 50470 55083=
85586,2000,02,16,15,00,AAXX 16154 85586 42960 02708 10195 20123 40182 50000=
85586,2000,02,16,18,00,AAXX 16184 85586 32960 02610 10211 20132 40177 58005=
85586,2000,02,16,21,00,AAXX 16214 85586 42960 02509 10201 20139 40164 57012=
85586,2000,02,17,00,00,AAXX 17004 85586 32960 00000 10172 20135 40161 56003 333 10212=
85586,2000,02,17,03,00,AAXX 17034 85586 NIL=
85586,2000,02,17,06,00,AAXX 17064 85586 NIL=
85586,2000,02,17,09,00,AAXX 17094 85586 NIL=
85586,2000,02,17,12,00,AAXX 17124 85586 32460 20000 10148 20131 40183 53/// 82500 333 20108 30/// 50530 55119 56600 82617=
85586,2000,02,17,15,00,AAXX 17154 85586 42960 02604 10188 20131 40185 51003=
85586,2000,02,17,18,00,AAXX 17184 85586 32960 02416 10204 20127 40180 56005=
85586,2000,02,17,21,00,AAXX 17214 85586 42960 02318 10210 20127 40161 57017=
85586,2000,02,18,00,00,AAXX 18004 85586 32960 02306 10176 20120 40159 56004 333 10216=
85586,2000,02,18,03,00,AAXX 18034 85586 NIL=
85586,2000,02,18,06,00,AAXX 18064 85586 NIL=
85586,2000,02,18,09,00,AAXX 18094 85586 NIL=
85586,2000,02,18,12,00,AAXX 18124 85586 32960 00000 10152 20135 40138 57/// 333 20095 30/// 50410 55116=
85586,2000,02,18,15,00,AAXX 18154 85586 42960 02507 10197 20124 40137 53001=
85586,2000,02,18,18,00,AAXX 18184 85586 32960 02312 10196 20127 40139 53002=
85586,2000,02,18,21,00,AAXX 18214 85586 42960 02709 10183 20124 40140 53001=
85586,2000,02,19,00,00,AAXX 19004 85586 32460 22803 10155 20134 40141 51001 82500 333 10203 56600 82615=
85586,2000,02,19,03,00,AAXX 19034 85586 NIL=
85586,2000,02,19,06,00,AAXX 19064 85586 NIL=
85586,2000,02,19,09,00,AAXX 19094 85586 NIL=
85586,2000,02,19,12,00,AAXX 19124 85586 32460 73205 10145 20122 40155 52/// 87500 333 20134 30/// 50370 55120 56700 87613=
85586,2000,02,19,15,00,AAXX 19154 85586 42460 52708 10175 20131 40168 52014 85500 333 56700 85615=
85586,2000,02,19,18,00,AAXX 19184 85586 32960 03207 10195 20128 40182 52015=
85586,2000,02,19,21,00,AAXX 19214 85586 42960 02806 10194 20127 40167 52016=
85586,2000,02,20,00,00,AAXX 20004 85586 NIL=
85586,2000,02,20,03,00,AAXX 20034 85586 NIL=
85586,2000,02,20,06,00,AAXX 20064 85586 NIL=
85586,2000,02,20,09,00,AAXX 20094 85586 NIL=
85586,2000,02,20,12,00,AAXX 20124 85586 32960 00902 10151 20128 40165 53/// 333 20102 30/// 50410 55093=
85586,2000,02,20,15,00,AAXX 20154 85586 42960 02506 10187 20143 40169 52005=
85586,2000,02,20,18,00,AAXX 20184 85586 32960 02308 10195 20141 40168 54000=
85586,2000,02,20,21,00,AAXX 20214 85586 42460 82907 10185 20149 40165 57004 885// 333 56699 88615=
85586,2000,02,21,00,00,AAXX 21004 85586 32460 82401 10164 20141 40166 53001 885// 333 10205 56699 88615=
85586,2000,02,21,03,00,AAXX 21034 85586 NIL=
85586,2000,02,21,06,00,AAXX 21064 85586 NIL=
85586,2000,02,21,09,00,AAXX 21094 85586 NIL=
85586,2000,02,21,12,00,AAXX 21124 85586 31457 83502 10153 20136 40151 53/// 7052/ 885// 333 20149 30/// 50350 55079 56799 88613=
85586,2000,02,21,15,00,AAXX 21154 85586 41457 83005 10161 20143 40169 52009 885// 333 56799 88613=
85586,2000,02,21,18,00,AAXX 21184 85586 32460 82806 10184 20150 40164 52005 885// 333 56799 88618=
85586,2000,02,21,21,00,AAXX 21214 85586 42460 83106 10178 20151 40158 58006 885// 333 56799 88618=
85586,2000,02,22,00,00,AAXX 22004 85586 32460 83102 10172 20156 40152 56006 885// 333 10188 56799 88617=
85586,2000,02,22,03,00,AAXX 22034 85586 NIL=
85586,2000,02,22,06,00,AAXX 22064 85586 NIL=
85586,2000,02,22,09,00,AAXX 22094 85586 NIL=
85586,2000,02,22,12,00,AAXX 22124 85586 11250 82403 10108 20100 40159 52/// 69904 7025/ 886// 333 20108 30/// 50310 55000 56699 70000 88706=
85586,2000,02,22,15,00,AAXX 22154 85586 41458 82804 10172 20144 40168 52010 70522 885// 333 56699 88613=
85586,2000,02,22,18,00,AAXX 22184 85586 32460 82604 10183 20140 40178 52010 885// 333 56699 88617=
85586,2000,02,22,21,00,AAXX 22214 85586 42460 82404 10187 20143 40163 57014 885// 333 56699 88617=
85586,2000,02,23,00,00,AAXX 23004 85586 32560 72304 10168 20143 40159 56005 87500 333 10194 56600 87623=
85586,2000,02,23,03,00,AAXX 23034 85586 NIL=
85586,2000,02,23,06,00,AAXX 23064 85586 NIL=
85586,2000,02,23,09,00,AAXX 23094 85586 NIL=
85586,2000,02,23,12,00,AAXX 23124 85586 32460 80000 10158 20139 40170 52/// 885// 333 20144 30/// 50390 55001 56099 88610=
85586,2000,02,23,18,00,AAXX 23184 85586 32460 82806 10194 20144 40177 54000 885// 333 56699 88618=
85586,2000,02,23,21,00,AAXX 23214 85586 42460 22408 10196 20139 40156 57021 82500 333 56600 82618=
85586,2000,02,24,00,00,AAXX 24004 85586 32460 82604 10166 20149 40155 54001 885// 333 10202 56699 88615=
85586,2000,02,24,03,00,AAXX 24034 85586 NIL=
85586,2000,02,24,06,00,AAXX 24064 85586 NIL=
85586,2000,02,24,09,00,AAXX 24094 85586 NIL=
85586,2000,02,24,12,00,AAXX 24124 85586 31250 80000 10153 20143 40161 52/// 7102/ 886// 333 20153 30/// 50210 55023 56699 88706=
85586,2000,02,24,15,00,AAXX 24154 85586 41356 82404 10168 20143 40169 52009 70522 886// 333 56699 88708=
85586,2000,02,24,18,00,AAXX 24184 85586 32460 32507 10200 20152 40162 56006 83500 333 56600 83615=
85586,2000,02,24,21,00,AAXX 24214 85586 42460 12907 10201 20152 40150 57012 81500 333 56600 81615=
85586,2000,02,25,00,00,AAXX 25004 85586 32460 10202 10170 20154 40149 54002 81500 333 10208 56600 81615=
85586,2000,02,25,06,00,AAXX 25064 85586 NIL=
85586,2000,02,25,09,00,AAXX 25094 85586 NIL=
85586,2000,02,25,12,00,AAXX 25124 85586 31920 00000 10143 20138 40135 53/// 7104/ 333 20110 30/// 50250 55068=
85586,2000,02,25,15,00,AAXX 25154 85586 42960 02906 10191 20138 40140 52006=
85586,2000,02,25,18,00,AAXX 25184 85586 324/0 22507 10201 20160 40141 52002 82600 333 56600 82710=
85586,2000,02,25,21,00,AAXX 25214 85586 42960 02708 10197 20154 40135 58006=
85586,2000,02,26,00,00,AAXX 26004 85586 32960 02804 10168 20145 40143 52007 333 10208=
85586,2000,02,26,03,00,AAXX 26034 85586 NIL=
85586,2000,02,26,06,00,AAXX 26064 85586 NIL=
85586,2000,02,26,09,00,AAXX 26094 85586 NIL=
85586,2000,02,26,12,00,AAXX 26124 85586 32960 40803 10156 20134 40164 52/// 83031 333 20102 30/// 50300 55114 56066 83366=
85586,2000,02,26,15,00,AAXX 26154 85586 42560 62906 10183 20138 40177 52007 81530 333 56650 81620 86365=
85586,2000,02,26,18,00,AAXX 26184 85586 32560 82706 10197 20117 40183 52007 8153/ 333 56669 81620 88365=
85586,2000,02,26,21,00,AAXX 26214 85586 42560 72706 10183 20144 40182 54001 81530 333 56660 81620 87363=
85586,2000,02,27,00,00,AAXX 27004 85586 11558 72306 10165 20145 40201 52018 69911 72522 84230 333 10200 56660 84820 87363=
85586,2000,02,27,03,00,AAXX 27034 85586 NIL=
85586,2000,02,27,06,00,AAXX 27064 85586 NIL=
85586,2000,02,27,09,00,AAXX 27094 85586 NIL=
85586,2000,02,27,12,00,AAXX 27124 85586 12960 00000 10147 20117 40223 52/// 69924 333 20100 30/// 50280 55020=
85586,2000,02,27,15,00,AAXX 27154 85586 42565 12504 10204 20119 40233 52011 81100 333 56000 81823=
85586,2000,02,27,18,00,AAXX 27184 85586 32965 02317 10203 20112 40220 58013=
85586,2000,02,27,21,00,AAXX 27214 85586 42965 02318 10200 20112 40202 57018=
85586,2000,02,28,00,00,AAXX 28004 85586 32965 02110 10168 20100 40205 55003 333 10213=
85586,2000,02,28,03,00,AAXX 28034 85586 NIL=
85586,2000,02,28,06,00,AAXX 28064 85586 NIL=
85586,2000,02,28,09,00,AAXX 28094 85586 NIL=
85586,2000,02,28,12,00,AAXX 28124 85586 32965 11205 10148 20087 40169 53/// 80001 333 20095 30/// 50320 55118 56006 81075=
85586,2000,02,28,15,00,AAXX 28154 85586 42965 01508 10232 20107 40156 57010=
85586,2000,02,28,18,00,AAXX 28184 85586 32965 02318 10194 20117 40147 57011=
85586,2000,02,28,21,00,AAXX 28214 85586 42965 02415 10195 20116 40136 57010=
85586,2000,02,29,00,00,AAXX 29004 85586 NIL=
85586,2000,02,29,03,00,AAXX 29034 85586 NIL=
85586,2000,02,29,06,00,AAXX 29064 85586 NIL=
85586,2000,02,29,12,00,AAXX 29124 85586 32965 50000 10122 20106 40156 52/// 84031 333 20068 30/// 50390 55117 56066 84363=
85586,2000,02,29,15,00,AAXX 29154 85586 42965 22706 10172 20124 40168 52013 82030 333 56060 82363=
85586,2000,02,29,18,00,AAXX 29184 85586 32965 12705 10184 20111 40165 54003 81030 333 56060 81363=
85586,2000,02,29,21,00,AAXX 29214 85586 42965 32706 10176 20124 40162 56004 83030 333 56060 83363=
85586,2000,03,01,00,00,AAXX 01004 85586 32965 43104 10154 20130 40163 54001 84030 333 10192 56060 84363=
85586,2000,03,01,03,00,AAXX 01034 85586 NIL=
85586,2000,03,01,06,00,AAXX 01064 85586 NIL=
85586,2000,03,01,09,00,AAXX 01094 85586 NIL=
85586,2000,03,01,12,00,AAXX 01124 85586 32560 83002 10151 20114 40183 52/// 885// 333 20117 30/// 50430 55107 56699 88625=
85586,2000,03,01,15,00,AAXX 01154 85586 42560 12808 10183 20108 40190 52008 81500 333 56600 81625=
85586,2000,03,01,18,00,AAXX 01184 85586 32560 02808 10188 20110 40181 58009=
85586,2000,03,01,21,00,AAXX 01214 85586 42560 12705 10186 20129 40173 56008 81500 333 56600 81625=
85586,2000,03,02,00,00,AAXX 02004 85586 32560 32805 10153 20132 40173 54001 83500 333 10190 56600 83625=
85586,2000,03,02,03,00,AAXX 02034 85586 NIL=
85586,2000,03,02,06,00,AAXX 02064 85586 NIL=
85586,2000,03,02,09,00,AAXX 02094 85586 NIL=
85586,2000,03,02,12,00,AAXX 02124 85586 32960 30504 10128 20113 40154 54/// 80001 333 20085 30/// 50370 55088 56005 83075=
85586,2000,03,02,15,00,AAXX 02154 85586 42960 43204 10172 20117 40168 52015 80001 333 56005 84075=
85586,2000,03,02,18,00,AAXX 02184 85586 32460 43207 10178 20140 40175 52007 82501 333 56605 82618=
85586,2000,03,02,21,00,AAXX 02214 85586 42560 22807 10178 20131 40167 58008 81501 333 56605 81622=
85586,2000,03,03,00,00,AAXX 03004 85586 32960 03206 10146 20112 40167 54001 333 10183=
85586,2000,03,03,03,00,AAXX 03034 85586 NIL=
85586,2000,03,03,06,00,AAXX 03064 85586 NIL=
85586,2000,03,03,09,00,AAXX 03094 85586 NIL=
85586,2000,03,03,12,00,AAXX 03124 85586 32960 00000 10129 20097 40146 53/// 333 20070 30/// 50470 55107=
85586,2000,03,03,15,00,AAXX 03154 85586 42960 02505 10182 20096 40144 58001=
85586,2000,03,03,18,00,AAXX 03184 85586 32960 02310 10193 20126 40142 54002=
85586,2000,03,03,21,00,AAXX 03214 85586 42960 02607 10183 20133 40134 57008=
85586,2000,03,04,00,00,AAXX 04004 85586 32960 02404 10153 20124 40131 55003 333 10194=
85586,2000,03,04,03,00,AAXX 04034 85586 NIL=
85586,2000,03,04,09,00,AAXX 04094 85586 NIL=
85586,2000,03,04,12,00,AAXX 04124 85586 32960 00000 10119 20112 40144 52/// 333 20081 30/// 50250 55110=
85586,2000,03,04,15,00,AAXX 04154 85586 42960 02805 10178 20136 40162 52019=
85586,2000,03,04,18,00,AAXX 04184 85586 32460 12607 10179 20135 40165 52003 81500 333 56700 81613=
85586,2000,03,04,21,00,AAXX 04214 85586 42460 12706 10178 20125 40162 54003 81500 333 56600 81615=
85586,2000,03,05,00,00,AAXX 05004 85586 32960 03102 10148 20127 40166 54003 333 10192=
85586,2000,03,05,03,00,AAXX 05034 85586 NIL=
85586,2000,03,05,06,00,AAXX 05064 85586 NIL=
85586,2000,03,05,09,00,AAXX 05094 85586 NIL=
85586,2000,03,05,12,00,AAXX 05124 85586 32960 00000 10132 20112 40145 56/// 333 20089 30/// 50280 55107=
85586,2000,03,05,15,00,AAXX 05154 85586 42960 02606 10199 20105 40142 54000=
85586,2000,03,05,18,00,AAXX 05184 85586 32960 02609 10196 20097 40137 56005=
85586,2000,03,05,21,00,AAXX 05214 85586 42960 02407 10204 20101 40125 57012=
85586,2000,03,06,00,00,AAXX 06004 85586 NIL=
85586,2000,03,06,03,00,AAXX 06034 85586 NIL=
85586,2000,03,06,06,00,AAXX 06064 85586 NIL=
85586,2000,03,06,09,00,AAXX 06094 85586 NIL=
85586,2000,03,06,12,00,AAXX 06124 85586 32460 80000 10122 20107 40160 52/// 886// 333 20088 30/// 50350 55113 56099 88710=
85586,2000,03,06,15,00,AAXX 06154 85586 42460 53110 10167 20128 40169 51010 85500 333 56700 85613=
85586,2000,03,06,18,00,AAXX 06184 85586 NIL=
85586,2000,03,06,21,00,AAXX 06214 85586 42460 83005 10170 20127 40165 58008 885// 333 56799 88613=
85586,2000,03,07,00,00,AAXX 07004 85586 32460 80000 10152 20123 40167 54001 885// 333 10182 56799 88613=
85586,2000,03,07,03,00,AAXX 07034 85586 NIL=
85586,2000,03,07,06,00,AAXX 07064 85586 NIL=
85586,2000,03,07,09,00,AAXX 07094 85586 NIL=
85586,2000,03,07,12,00,AAXX 07124 85586 31357 83102 10133 20111 40167 52/// 7052/ 886// 333 20129 30/// 50410 55040 56699 88708=
85586,2000,03,07,15,00,AAXX 07154 85586 NIL=
85586,2000,03,07,18,00,AAXX 07184 85586 32460 22409 10176 20120 40163 57008 82500 333 56600 82615=
85586,2000,03,08,00,00,AAXX 08004 85586 32460 83003 10151 20128 40155 54001 885// 333 10180 56699 88615=
85586,2000,03,08,09,00,AAXX 08094 85586 NIL=
85586,2000,03,08,12,00,AAXX 08124 85586 31458 83502 10142 20128 40160 53/// 7052/ 885// 333 20136 30/// 50320 55040 56799 88613=
85586,2000,03,08,15,00,AAXX 08154 85586 41458 83104 10159 20126 40164 52005 70522 885// 333 56799 88613=
85586,2000,03,08,18,00,AAXX 08184 85586 32460 83203 10170 20131 40167 52003 885// 333 56799 88617=
85586,2000,03,08,21,00,AAXX 08214 85586 42460 82506 10168 20138 40156 52011 885// 333 56799 88617=
85586,2000,03,09,00,00,AAXX 09004 85586 32460 82502 10155 20131 40156 54001 885// 333 10172 56799 88617=
85586,2000,03,09,03,00,AAXX 09034 85586 NIL=
85586,2000,03,09,06,00,AAXX 09064 85586 NIL=
85586,2000,03,09,09,00,AAXX 09094 85586 NIL=
85586,2000,03,09,12,00,AAXX 09124 85586 31458 80000 10149 20119 40171 52/// 7052/ 885// 333 20145 30/// 50390 55000 56699 88513=
85586,2000,03,09,15,00,AAXX 09154 85586 NIL=
85586,2000,03,09,18,00,AAXX 09184 85586 32960 02509 10191 20111 40177 53004=
85586,2000,03,09,21,00,AAXX 09214 85586 42960 22310 10188 20124 40158 57023 82050 333 56070 82363=
85586,2000,03,10,00,00,AAXX 10004 85586 32960 22307 10159 20137 40158 55000 82030 333 10200 56070 82363=
85586,2000,03,10,03,00,AAXX 10034 85586 NIL=
85586,2000,03,10,06,00,AAXX 10064 85586 NIL=
85586,2000,03,10,09,00,AAXX 10094 85586 NIL=
85586,2000,03,10,12,00,AAXX 10124 85586 32960 00703 10139 20125 40167 52/// 333 20102 30/// 50360 55074=
85586,2000,03,10,15,00,AAXX 10154 85586 42460 23008 10178 20144 40178 52012 82500 333 56700 82615=
85586,2000,03,10,18,00,AAXX 10184 85586 32560 12609 10190 20133 40174 56004 81500 333 56700 81620=
85586,2000,03,10,21,00,AAXX 10214 85586 42960 32706 10190 20130 40168 56006 83030 333 56060 83365=
85586,2000,03,11,00,00,AAXX 11004 85586 32460 82304 10160 20134 40167 54001 885// 333 10196 56599 88615=
85586,2000,03,11,03,00,AAXX 11034 85586 NIL=
85586,2000,03,11,06,00,AAXX 11064 85586 NIL=
85586,2000,03,11,09,00,AAXX 11094 85586 NIL=
85586,2000,03,11,12,00,AAXX 11124 85586 31457 82601 10144 20123 40169 53/// 7052/ 886// 333 20141 30/// 50330 55102 56699 88710=
85586,2000,03,11,15,00,AAXX 11154 85586 42460 72405 10168 20131 40175 52007 87500 333 56600 87615=
85586,2000,03,11,18,00,AAXX 11184 85586 32560 32708 10181 20127 40173 54002 83500 333 56600 83620=
85586,2000,03,11,21,00,AAXX 11214 85586 42560 62705 10177 20139 40163 56010 81530 333 56670 81620 86363=
85586,2000,03,12,00,00,AAXX 12004 85586 32960 63002 10163 20145 40162 54001 86500 333 10190 56600 86615=
85586,2000,03,12,03,00,AAXX 12034 85586 NIL=
85586,2000,03,12,06,00,AAXX 12064 85586 NIL=
85586,2000,03,12,09,00,AAXX 12094 85586 NIL=
85586,2000,03,12,12,00,AAXX 12124 85586 32960 70000 10130 20115 40151 57/// 87030 333 20120 30/// 50310 55058 56060 87362=
85586,2000,03,12,15,00,AAXX 12154 85586 42960 72806 10178 20131 40165 53013 87030 333 56060 87360=
85586,2000,03,12,18,00,AAXX 12184 85586 32960 62606 10190 20102 40156 58009 80002 333 56006 86075=
85586,2000,03,12,21,00,AAXX 12214 85586 42960 52108 10195 20126 40151 56005 85030 333 56060 85365=
85586,2000,03,13,00,00,AAXX 13004 85586 32960 60000 10160 20139 40157 53006 80002 333 10219 56006 86075=
85586,2000,03,13,03,00,AAXX 13034 85586 NIL=
85586,2000,03,13,06,00,AAXX 13064 85586 NIL=
85586,2000,03,13,09,00,AAXX 13094 85586 NIL=
85586,2000,03,13,12,00,AAXX 13124 85586 32960 50000 10141 20125 40167 52/// 82031 333 20109 30/// 50350 55060 56077 82363 83073=
85586,2000,03,13,15,00,AAXX 13154 85586 NIL=
85586,2000,03,13,18,00,AAXX 13184 85586 32960 02217 10202 20151 40164 58004=
85586,2000,03,13,21,00,AAXX 13214 85586 42960 02414 10193 20149 40156 57009=
85586,2000,03,14,00,00,AAXX 14004 85586 32960 02303 10164 20141 40159 53003 333 10202=
85586,2000,03,14,03,00,AAXX 14034 85586 NIL=
85586,2000,03,14,06,00,AAXX 14064 85586 NIL=
85586,2000,03,14,09,00,AAXX 14094 85586 NIL=
85586,2000,03,14,12,00,AAXX 14124 85586 32960 00000 10130 20103 40149 54/// 333 20085 30/// 50300 55103=
85586,2000,03,14,15,00,AAXX 14154 85586 42960 02705 10185 20116 40146 54002=
85586,2000,03,14,18,00,AAXX 14184 85586 32960 02315 10189 20121 40134 57012=
85586,2000,03,14,21,00,AAXX 14214 85586 42960 02411 10190 20118 40122 57012=
85586,2000,03,15,00,00,AAXX 15004 85586 32960 03504 10147 20126 40126 56003 333 10193=
85586,2000,03,15,03,00,AAXX 15034 85586 NIL=
85586,2000,03,15,06,00,AAXX 15064 85586 NIL=
85586,2000,03,15,09,00,AAXX 15094 85586 NIL=
85586,2000,03,15,12,00,AAXX 15124 85586 31101 80702 10117 20113 40128 53/// 7444/ 886// 333 20075 30/// 50240 55110 56799 88702=
85586,2000,03,15,15,00,AAXX 15154 85586 41120 73001 10143 20131 40142 52014 71042 87600 333 56700 87703=
85586,2000,03,15,18,00,AAXX 15184 85586 31260 42404 10172 20141 40141 54000 70241 84600 333 56700 84706=
85586,2000,03,15,21,00,AAXX 15214 85586 42260 12510 10175 20140 40135 57006 81600 333 56600 81705=
85586,2000,03,16,00,00,AAXX 16004 85586 32960 00901 10143 20129 40151 53015 333 10188=
85586,2000,03,16,03,00,AAXX 16034 85586 NIL=
85586,2000,03,16,06,00,AAXX 16064 85586 NIL=
85586,2000,03,16,09,00,AAXX 16094 85586 NIL=
85586,2000,03,16,12,00,AAXX 16124 85586 32960 00501 10117 20113 40159 53/// 333 20089 30/// 50200 55057=
85586,2000,03,16,15,00,AAXX 16154 85586 42960 02804 10169 20128 40163 52005=
85586,2000,03,16,18,00,AAXX 16184 85586 32960 02409 10177 20120 40156 58007=
85586,2000,03,16,21,00,AAXX 16214 85586 42960 02510 10173 20122 40137 57009=
85586,2000,03,17,00,00,AAXX 17004 85586 32960 00203 10134 20103 40156 53008 333 10189=
85586,2000,03,17,03,00,AAXX 17034 85586 NIL=
85586,2000,03,17,06,00,AAXX 17064 85586 NIL=
85586,2000,03,17,09,00,AAXX 17094 85586 NIL=
85586,2000,03,17,12,00,AAXX 17124 85586 32960 00000 10137 20103 40159 52/// 333 20074 30/// 50310 55104=
85586,2000,03,17,18,00,AAXX 17184 85586 32960 02309 10193 20106 40150 57007=
85586,2000,03,17,21,00,AAXX 17214 85586 42960 02806 10173 20110 40177 57006=
85586,2000,03,18,00,00,AAXX 18004 85586 32960 00000 10133 20110 40151 53006 333 10194=
85586,2000,03,18,03,00,AAXX 18034 85586 NIL=
85586,2000,03,18,06,00,AAXX 18064 85586 NIL=
85586,2000,03,18,09,00,AAXX 18094 85586 NIL=
85586,2000,03,18,12,00,AAXX 18124 85586 31456 80000 10110 20094 40150 53/// 7112/ 886// 333 20083 30/// 50400 55095 56099 88710=
85586,2000,03,18,15,00,AAXX 18154 85586 42460 12804 10162 20123 40151 54002 81500 333 56600 81613=
85586,2000,03,18,18,00,AAXX 18184 85586 32460 42704 10176 20124 40145 56007 84500 333 56600 84615=
85586,2000,03,18,21,00,AAXX 18214 85586 42460 42704 10162 20130 40139 56005 885// 333 56699 88613=
85586,2000,03,19,00,00,AAXX 19004 85586 32460 82704 10150 20124 40143 53004 885// 333 10180 56699 88613=
85586,2000,03,19,03,00,AAXX 19034 85586 NIL=
85586,2000,03,19,06,00,AAXX 19064 85586 NIL=
85586,2000,03,19,09,00,AAXX 19094 85586 NIL=
85586,2000,03,19,12,00,AAXX 19124 85586 32460 70000 10149 20104 40161 52/// 87500 333 20142 30/// 50380 55044 56600 87615=
85586,2000,03,19,15,00,AAXX 19154 85586 42560 22609 10178 20097 40163 51003 82500 333 56600 82620=
85586,2000,03,19,18,00,AAXX 19184 85586 32960 02309 10190 20102 40158 57005=
85586,2000,03,19,21,00,AAXX 19214 85586 42960 02308 10172 20107 40156 54002=
85586,2000,03,20,00,00,AAXX 20004 85586 32960 02503 10136 20096 40159 52009 333 10194=
85586,2000,03,20,03,00,AAXX 20034 85586 NIL=
85586,2000,03,20,06,00,AAXX 20064 85586 NIL=
85586,2000,03,20,09,00,AAXX 20094 85586 NIL=
85586,2000,03,20,12,00,AAXX 20124 85586 32960 00902 10100 20090 40172 52/// 333 20058 30/// 50310 55084=
85586,2000,03,20,15,00,AAXX 20154 85586 42960 02905 10184 20130 40173 52003=
85586,2000,03,20,18,00,AAXX 20184 85586 32960 02312 10175 20122 40174 54001=
85586,2000,03,20,21,00,AAXX 20214 85586 42960 02410 10178 20100 40177 52003=
85586,2000,03,21,00,00,AAXX 21004 85586 32960 00000 10123 20081 40192 52013 333 10197=
85586,2000,03,21,03,00,AAXX 21034 85586 NIL=
85586,2000,03,21,06,00,AAXX 21064 85586 NIL=
85586,2000,03,21,09,00,AAXX 21094 85586 NIL=
85586,2000,03,21,12,00,AAXX 21124 85586 32960 01407 10138 20075 40159 57/// 333 20070 30/// 50330 55109=
85586,2000,03,21,15,00,AAXX 21154 85586 42960 01407 10230 20078 40148 57008=
85586,2000,03,21,18,00,AAXX 21184 85586 32960 02412 1//// 2//// 4//// 57014=
85586,2000,03,21,21,00,AAXX 21214 85586 42960 02408 10166 20092 40130 55006=
85586,2000,03,22,00,00,AAXX 22004 85586 32960 00403 10127 20100 40128 54000 333 1////=
85586,2000,03,22,03,00,AAXX 22034 85586 NIL=
85586,2000,03,22,06,00,AAXX 22064 85586 NIL=
85586,2000,03,22,09,00,AAXX 22094 85586 NIL=
85586,2000,03,22,12,00,AAXX 22124 85586 32960 10902 10093 20079 40159 52/// 80001 333 20064 30/// 50300 55112 56005 81075=
85586,2000,03,22,15,00,AAXX 22154 85586 41240 62404 10118 20095 40163 52005 70522 86600 333 56600 86705=
85586,2000,03,22,18,00,AAXX 22184 85586 32960 02607 10160 20114 40156 58006=
85586,2000,03,22,21,00,AAXX 22214 85586 NIL=
85586,2000,03,23,00,00,AAXX 23004 85586 32960 02803 10112 20095 40153 54001 333 10164=
85586,2000,03,23,03,00,AAXX 23034 85586 NIL=
85586,2000,03,23,06,00,AAXX 23064 85586 NIL=
85586,2000,03,23,09,00,AAXX 23094 85586 NIL=
85586,2000,03,23,12,00,AAXX 23124 85586 32860 51303 10109 20089 40158 52/// 82054 333 20060 30/// 50340 55091 56065 82358 84075=
85586,2000,03,23,15,00,AAXX 23154 85586 42960 22708 10177 20124 40178 52021 80001 333 56005 82075=
85586,2000,03,23,18,00,AAXX 23184 85586 32560 52711 10185 20122 40177 58001 81501 333 56505 81625 84075=
85586,2000,03,23,21,00,AAXX 23214 85586 42960 12317 10187 20096 40166 58011 80001 333 56005 81075=
85586,2000,03,24,00,00,AAXX 24004 85586 32960 11802 10147 20094 40169 52003 80001 333 10200 56005 81075=
85586,2000,03,24,03,00,AAXX 24034 85586 NIL=
85586,2000,03,24,06,00,AAXX 24064 85586 NIL=
85586,2000,03,24,09,00,AAXX 24094 85586 NIL=
85586,2000,03,24,12,00,AAXX 24124 85586 32960 30908 10130 20085 40120 57/// 80001 333 20084 30/// 5//// 55107 56006 80375=
85586,2000,03,24,15,00,AAXX 24154 85586 42960 11706 10220 20086 40106 57011 80001 333 56006 81075=
85586,2000,03,24,18,00,AAXX 24184 85586 32960 02314 10172 20131 40107 56001=
85586,2000,03,24,21,00,AAXX 24214 85586 42960 02706 10171 20127 40132 52025=
85586,2000,03,25,00,00,AAXX 25004 85586 32960 00000 10142 20124 40144 52010 333 10240=
85586,2000,03,25,03,00,AAXX 25034 85586 NIL=
85586,2000,03,25,06,00,AAXX 25064 85586 NIL=
85586,2000,03,25,09,00,AAXX 25094 85586 NIL=
85586,2000,03,25,12,00,AAXX 25124 85586 31250 70000 10109 20101 40176 52/// 7102/ 87600 333 20074 30/// 5//// 55108 56600 87705=
85586,2000,03,25,15,00,AAXX 25154 85586 41459 82809 10147 20117 40201 52015 70522 885// 333 56699 88613=
85586,2000,03,25,18,00,AAXX 25184 85586 32460 13007 10174 20119 40194 57006 81500 333 56600 81617=
85586,2000,03,25,21,00,AAXX 25214 85586 42560 62706 10163 20129 40187 56007 86500 333 56600 86620=
85586,2000,03,26,00,00,AAXX 26004 85586 32460 20000 10134 20123 40182 56005 82500 333 10180 56600 82617=
85586,2000,03,26,03,00,AAXX 26034 85586 NIL=
85586,2000,03,26,06,00,AAXX 26064 85586 NIL=
85586,2000,03,26,09,00,AAXX 26094 85586 NIL=
85586,2000,03,26,12,00,AAXX 26124 85586 31901 00501 10096 20092 40190 53/// 7444/ 333 20074 30/// 50230 55053=
85586,2000,03,26,15,00,AAXX 26154 85586 41960 02503 10159 20121 40190 54001 70240=
85586,2000,03,26,18,00,AAXX 26184 85586 31960 02213 10177 20124 40178 57011 70240=
85586,2000,03,26,21,00,AAXX 26214 85586 42960 02017 10188 20094 40174 57004=
85586,2000,03,27,00,00,AAXX 27004 85586 32960 00000 10138 20091 40196 52021 333 10192=
85586,2000,03,27,03,00,AAXX 27034 85586 NIL=
85586,2000,03,27,06,00,AAXX 27064 85586 NIL=
85586,2000,03,27,09,00,AAXX 27094 85586 NIL=
85586,2000,03,27,12,00,AAXX 27124 85586 32960 01206 10125 20045 40205 54/// 333 20072 30/// 50260 55091=
85586,2000,03,27,15,00,AAXX 27154 85586 42960 01509 10185 20039 40193 57010=
85586,2000,03,27,18,00,AAXX 27184 85586 32960 01710 10238 20028 40165 57025=
85586,2000,03,27,21,00,AAXX 27214 85586 42960 02213 10177 20070 40146 57022=
85586,2000,03,28,00,00,AAXX 28004 85586 32960 01601 10157 20035 40149 53003 333 10249=
85586,2000,03,28,03,00,AAXX 28034 85586 NIL=
85586,2000,03,28,06,00,AAXX 28064 85586 NIL=
85586,2000,03,28,09,00,AAXX 28094 85586 NIL=
85586,2000,03,28,12,00,AAXX 28124 85586 32960 01702 10099 20039 40123 57/// 333 20064 30/// 50260 55103=
85586,2000,03,28,15,00,AAXX 28154 85586 42960 02408 10198 20057 40117 55003=
85586,2000,03,28,18,00,AAXX 28184 85586 NIL=
85586,2000,03,28,21,00,AAXX 28214 85586 42960 02304 10157 20109 40121 52005=
85586,2000,03,29,00,00,AAXX 29004 85586 32960 00000 10118 20098 40138 52016 333 10201=
85586,2000,03,29,03,00,AAXX 29034 85586 NIL=
85586,2000,03,29,06,00,AAXX 29064 85586 NIL=
85586,2000,03,29,09,00,AAXX 29094 85586 NIL=
85586,2000,03,29,12,00,AAXX 29124 85586 NIL=
85586,2000,03,29,15,00,AAXX 29154 85586 42960 02807 10154 20090 40167 52015=
85586,2000,03,29,18,00,AAXX 29184 85586 31160 42506 10145 20111 40168 50001 70141 84600 333 56600 84704=
85586,2000,03,29,21,00,AAXX 29214 85586 42460 73204 10131 20109 40173 52005 87600 333 56600 87710=
85586,2000,03,30,00,00,AAXX 30004 85586 32357 82903 10125 20105 40176 53003 886// 333 10156 56699 88708=
85586,2000,03,30,03,00,AAXX 30034 85586 NIL=
85586,2000,03,30,06,00,AAXX 30064 85586 NIL=
85586,2000,03,30,09,00,AAXX 30094 85586 NIL=
85586,2000,03,30,12,00,AAXX 30124 85586 31457 80000 10110 20095 40176 54/// 71122 886// 333 20110 30/// 50310 55060 56099 88710=
85586,2000,03,30,15,00,AAXX 30154 85586 42460 72606 10136 20107 40186 52010 83501 333 56606 83613 84075=
85586,2000,03,30,18,00,AAXX 30184 85586 32960 72208 10141 20109 40169 57016 86601 333 56606 86710 82075=
85586,2000,03,30,21,00,AAXX 30214 85586 42460 82506 10124 20113 40160 57010 886// 333 56699 88710=
85586,2000,03,31,00,00,AAXX 31004 85586 32460 30403 10112 20101 40156 56006 83500 333 10153 56100 83613=
85586,2000,03,31,03,00,AAXX 31034 85586 NIL=
85586,2000,03,31,06,00,AAXX 31064 85586 NIL=
85586,2000,03,31,09,00,AAXX 31094 85586 NIL=
85586,2000,03,31,12,00,AAXX 31124 85586 32960 00000 10075 20071 40165 52/// 333 20049 30/// 50240 55039=
85586,2000,03,31,15,00,AAXX 31154 85586 42960 02706 10148 20103 40145 54001=
85586,2000,03,31,18,00,AAXX 31184 85586 32960 02208 10159 20089 40136 57008=
85586,2000,03,31,21,00,AAXX 31214 85586 42960 02507 10147 20095 40134 58003=
85586,2000,04,01,00,00,AAXX 01004 85586 NIL=
85586,2000,04,01,03,00,AAXX 01034 85586 NIL=
85586,2000,04,01,06,00,AAXX 01064 85586 NIL=
85586,2000,04,01,09,00,AAXX 01094 85586 NIL=
85586,2000,04,01,12,00,AAXX 01124 85586 32960 00000 10082 20062 40131 55/// 333 20044 30/// 50250 55117=
85586,2000,04,01,15,00,AAXX 01154 85586 42460 22705 10148 20111 40147 52017 82600 333 56600 82710=
85586,2000,04,01,18,00,AAXX 01184 85586 31458 83005 10137 20117 40153 52006 886// 333 56699 88710=
85586,2000,04,01,21,00,AAXX 01214 85586 42460 32806 10133 20109 40150 58003 83500 333 56600 83613=
85586,2000,04,02,00,00,AAXX 02004 85586 32960 00000 10117 20102 40152 54002 333 10148=
85586,2000,04,02,03,00,AAXX 02034 85586 NIL=
85586,2000,04,02,06,00,AAXX 02064 85586 NIL=
85586,2000,04,02,09,00,AAXX 02094 85586 NIL=
85586,2000,04,02,12,00,AAXX 02124 85586 32460 80401 10126 20106 40171 52/// 885// 333 20079 30/// 50230 55050 56799 88618=
85586,2000,04,02,15,00,AAXX 02154 85586 42460 52904 10169 20105 40177 52007=
85586,2000,04,02,18,00,AAXX 02184 85586 32560 53008 10180 20114 40173 58004 85500 333 56700 85620=
85586,2000,04,02,21,00,AAXX 02214 85586 42560 62807 10165 20103 40178 53005 82550 333 56770 82620 84359=
85586,2000,04,03,00,00,AAXX 03004 85586 32460 80000 10199 20104 40189 52010 885// 333 10183 56799 88618=
85586,2000,04,03,03,00,AAXX 03034 85586 NIL=
85586,2000,04,03,06,00,AAXX 03064 85586 NIL=
85586,2000,04,03,09,00,AAXX 03094 85586 NIL=
85586,2000,04,03,12,00,AAXX 03124 85586 32960 00903 10135 20108 40193 54/// 333 20107 30/// 50250 55072=
85586,2000,04,03,15,00,AAXX 03154 85586 42660 12607 10199 20113 40202 52010 81100 333 56000 81840=
85586,2000,04,03,18,00,AAXX 03184 85586 32960 02209 10195 20126 40194 58008=
85586,2000,04,03,21,00,AAXX 03214 85586 42960 02414 10172 20135 40182 57012=
85586,2000,04,04,00,00,AAXX 04004 85586 32960 00000 10134 20123 40184 54001 333 10201=
85586,2000,04,04,03,00,AAXX 04034 85586 NIL=
85586,2000,04,04,06,00,AAXX 04064 85586 NIL=
85586,2000,04,04,09,00,AAXX 04094 85586 NIL=
85586,2000,04,04,12,00,AAXX 04124 85586 32960 00000 10093 20087 40174 54/// 333 20069 30/// 50290 55091=
85586,2000,04,04,18,00,AAXX 04184 85586 31210 72606 101 9 28123 0171 58004 71042 87600 333 56600 87708=
85586,2000,04,04,21,00,AAXX 04214 85586 42460 12706 10147 20117 40166 56005 81500 333 56600 81615=
85586,2000,04,05,00,00,AAXX 05004 85586 32460 10802 10117 20104 40169 53003 81500 333 10153 56600 81615=
85586,2000,04,05,03,00,AAXX 05034 85586 NIL=
85586,2000,04,05,06,00,AAXX 05064 85586 NIL=
85586,2000,04,05,09,00,AAXX 05094 85586 NIL=
85586,2000,04,05,12,00,AAXX 05124 85586 32960 20000 10084 20078 40158 54/// 80001 333 20054 30/// 50360 55062 56006 82075=
85586,2000,04,05,15,00,AAXX 05154 85586 42960 52212 10176 20129 40157 54000 80001 333 56006 85075=
85586,2000,04,05,18,00,AAXX 05184 85586 NIL=
85586,2000,04,05,21,00,AAXX 05214 85586 42960 62410 10152 20117 40162 53004 80001 333 56006 86075=
85586,2000,04,06,00,00,AAXX 06004 85586 32960 40000 10124 20108 40173 52011 80001 333 10180 56006 84075=
85586,2000,04,06,03,00,AAXX 06034 85586 NIL=
85586,2000,04,06,06,00,AAXX 06064 85586 NIL=
85586,2000,04,06,09,00,AAXX 06094 85586 NIL=
85586,2000,04,06,12,00,AAXX 06124 85586 32460 83303 10125 20101 40179 52/// 885// 333 20104 30/// 50270 55062 56699 88615=
85586,2000,04,06,15,00,AAXX 06154 85586 42460 82805 10141 20099 40190 52011 885// 333 56699 88615=
85586,2000,04,06,18,00,AAXX 06184 85586 32460 83305 10147 20113 40184 58006 885// 333 56699 88615=
85586,2000,04,06,21,00,AAXX 06214 85586 42560 82703 10139 20112 40179 55005 885// 333 56699 88620=
85586,2000,04,07,00,00,AAXX 07004 85586 32460 80000 10133 20104 40178 55001 885// 333 10150 56699 88617=
85586,2000,04,07,03,00,AAXX 07034 85586 NIL=
85586,2000,04,07,06,00,AAXX 07064 85586 NIL=
85586,2000,04,07,09,00,AAXX 07094 85586 NIL=
85586,2000,04,07,12,00,AAXX 07124 85586 32560 80000 10129 20099 40167 57/// 885// 333 20128 30/// 50240 55000 56699 88625=
85586,2000,04,07,15,00,AAXX 07154 85586 42560 80000 10155 20107 40163 57003 885// 333 56699 88625=
85586,2000,04,07,18,00,AAXX 07184 85586 32960 02404 10172 20095 40150 57013=
85586,2000,04,07,21,00,AAXX 07214 85586 42960 02108 10154 20100 40145 57006=
85586,2000,04,08,00,00,AAXX 08004 85586 32960 00000 10110 20094 40146 57001 333 10171=
85586,2000,04,08,03,00,AAXX 08034 85586 NIL=
85586,2000,04,08,06,00,AAXX 08064 85586 NIL=
85586,2000,04,08,09,00,AAXX 08094 85586 NIL=
85586,2000,04,08,12,00,AAXX 08124 85586 32960 11202 10068 20062 40144 53/// 80001 333 20045 30/// 50027 55054 56004 81073=
85586,2000,04,08,15,00,AAXX 08154 85586 42960 02504 10163 20108 40147 50006=
85586,2000,04,08,18,00,AAXX 08184 85586 32960 02509 10167 20109 40149 50002=
85586,2000,04,08,21,00,AAXX 08214 85586 42960 02703 10160 20097 40152 51003=
85586,2000,04,09,00,00,AAXX 09004 85586 32960 00000 10101 20082 40161 53007 333 10170=
85586,2000,04,09,03,00,AAXX 09034 85586 NIL=
85586,2000,04,09,06,00,AAXX 09064 85586 NIL=
85586,2000,04,09,09,00,AAXX 09094 85586 NIL=
85586,2000,04,09,12,00,AAXX 09124 85586 32960 00903 10076 20072 40181 53/// 333 20050 30/// 50280 55104=
85586,2000,04,09,15,00,AAXX 09154 85586 42960 22403 10162 20114 40192 52012 80001 333 56005 82075=
85586,2000,04,09,18,00,AAXX 09184 85586 32960 12216 10166 20132 40189 54002 80001 333 56005 81075=
85586,2000,04,09,21,00,AAXX 09214 85586 42960 52508 10148 20122 40190 54000 81031 333 56055 81365 84073=
85586,2000,04,10,00,00,AAXX 10004 85586 32960 60000 10130 20113 40193 54002 80001 333 10186 56006 86075=
85586,2000,04,10,03,00,AAXX 10034 85586 NIL=
85586,2000,04,10,06,00,AAXX 10064 85586 NIL=
85586,2000,04,10,09,00,AAXX 10094 85586 NIL=
85586,2000,04,10,12,00,AAXX 10124 85586 32960 21303 10109 20078 40175 52/// 80001 333 20078 30/// 50280 55080 56005 82075=
85586,2000,04,10,15,00,AAXX 10154 85586 42960 02209 10205 20085 40169 57003=
85586,2000,04,10,18,00,AAXX 10184 85586 32960 02410 10161 20100 40162 57009=
85586,2000,04,10,21,00,AAXX 10214 85586 42960 02408 10175 20105 40148 57014=
85586,2000,04,11,00,00,AAXX 11004 85586 32960 00000 10113 20081 40153 53005 333 10212=
85586,2000,04,11,03,00,AAXX 11034 85586 NIL=
85586,2000,04,11,06,00,AAXX 11064 85586 NIL=
85586,2000,04,11,09,00,AAXX 11094 85586 NIL=
85586,2000,04,11,12,00,AAXX 11124 85586 32960 00000 10106 20058 40136 57/// 333 20056 30/// 50250 55106=
85586,2000,04,11,15,00,AAXX 11154 85586 42960 01610 10216 20097 40125 57008=
85586,2000,04,11,18,00,AAXX 11184 85586 32960 02414 10180 20106 40110 57017=
85586,2000,04,11,21,00,AAXX 11214 85586 42960 22704 10168 20090 40110 54000 80002 333 56006 82075=
85586,2000,04,12,00,00,AAXX 12004 85586 32960 33603 10126 20108 40123 52012 82031 333 10250 56066 82365=
85586,2000,04,12,03,00,AAXX 12034 85586 NIL=
85586,2000,04,12,06,00,AAXX 12064 85586 NIL=
85586,2000,04,12,09,00,AAXX 12094 85586 NIL=
85586,2000,04,12,12,00,AAXX 12124 85586 31450 80000 10122 20113 40137 53/// 7102/ 886// 333 20076 30/// 50310 55101 56699 88710=
85586,2000,04,12,15,00,AAXX 12154 85586 42460 73308 10141 20107 40142 50005 87500 333 56600 87615=
85586,2000,04,12,18,00,AAXX 12184 85586 32460 83107 10148 20120 40138 53004 885// 333 56699 88615=
85586,2000,04,12,21,00,AAXX 12214 85586 42460 62406 10139 20121 40144 52007 86500 333 56600 86613=
85586,2000,04,13,00,00,AAXX 13004 85586 31458 62701 10126 20115 40147 53002 71022 86500 333 10158 56600 86613=
85586,2000,04,13,03,00,AAXX 13034 85586 NIL=
85586,2000,04,13,06,00,AAXX 13064 85586 NIL=
85586,2000,04,13,09,00,AAXX 13094 85586 NIL=
85586,2000,04,13,12,00,AAXX 13124 85586 NIL=
85586,2000,04,13,15,00,AAXX 13154 85586 42560 80503 10153 20131 40168 54001 8257/ 333 56669 82623 88362=
85586,2000,04,13,18,00,AAXX 13184 85586 32560 80509 10178 20131 40155 57012 8257/ 333 56669 82623 88360=
85586,2000,04,13,21,00,AAXX 13214 85586 42560 80903 10181 20125 40163 53008 8357/ 333 56669 83623 88360=
85586,2000,04,14,00,00,AAXX 14004 85586 32560 80000 10166 20124 40165 53002 8253/ 333 10184 56669 82630 88360=
85586,2000,04,14,03,00,AAXX 14034 85586 NIL=
85586,2000,04,14,06,00,AAXX 14064 85586 NIL=
85586,2000,04,14,09,00,AAXX 14094 85586 NIL=
85586,2000,04,14,12,00,AAXX 14124 85586 11330 80000 10152 20147 40161 52/// 60014 7616/ 885// 333 20150 32/// 50200 55000 56699 70014 84708 88613=
85586,2000,04,14,15,00,AAXX 14154 85586 41460 83303 10165 20152 40167 52007 70262=
85586,2000,04,14,18,00,AAXX 14184 85586 11460 83202 10164 20143 40163 53004 60011 72065 8547/ 333 56669 85615 88358=
85586,2000,04,14,21,00,AAXX 14214 85586 42460 83401 10158 20143 40161 55002 8147/ 333 56669 81615 88359=
85586,2000,04,15,00,00,AAXX 15004 85586 11460 80402 10147 20133 40174 53012 69921 72522 8247/ 333 10170 56669 82615 88359=
85586,2000,04,15,03,00,AAXX 15034 85586 NIL=
85586,2000,04,15,06,00,AAXX 15064 85586 NIL=
85586,2000,04,15,09,00,AAXX 15094 85586 NIL=
85586,2000,04,15,12,00,AAXX 15124 85586 12560 70000 10091 20085 40177 54/// 82471 333 20087 31/// 50030 55000 56666 82630 84360=
85586,2000,04,15,15,00,AAXX 15154 85586 42460 72604 10172 20137 40188 53013 82201 333 56606 82810=
85586,2000,04,15,18,00,AAXX 15184 85586 32460 62406 10178 20134 40172 57016 81231 333 56066 81816 84362=
85586,2000,04,15,21,00,AAXX 15214 85586 42960 72206 10148 20133 40166 57007 8707/ 333 56069 87360=
85586,2000,04,16,00,00,AAXX 16004 85586 32960 60000 10128 20117 40170 53004 84031 333 10183 56066 84357 83075=
85586,2000,04,16,03,00,AAXX 16034 85586 NIL=
85586,2000,04,16,06,00,AAXX 16064 85586 NIL=
85586,2000,04,16,09,00,AAXX 16094 85586 NIL=
85586,2000,04,16,12,00,AAXX 16124 85586 31/04 90000 10107 20101 40178 53/// 7454/ 333 20091 31/// 50230 55025 56999 89///=
85586,2000,04,16,15,00,AAXX 16154 85586 41230 80000 10133 20122 40192 52014 71044 887// 333 56699 88706=
85586,2000,04,16,18,00,AAXX 16184 85586 31560 73203 10156 20134 40185 58006 70242 84550 333 56660 83623 87358=
85586,2000,04,16,21,00,AAXX 16214 85586 42560 82703 10144 20129 40192 52006=
85586,2000,04,17,00,00,AAXX 17004 85586 31457 82605 10137 20128 40204 53012 71022 8557/ 333 10160 56669 85615 88358=
85586,2000,04,17,03,00,AAXX 17034 85586 NIL=
85586,2000,04,17,06,00,AAXX 17064 85586 NIL=
85586,2000,04,17,09,00,AAXX 17094 85586 NIL=
85586,2000,04,17,12,00,AAXX 17124 85586 32960 81803 10130 20121 40202 54/// 8803/ 333 20130 30/// 50170 55002 56069 88357=
85586,2000,04,17,15,00,AAXX 17154 85586 42560 82103 10155 20134 40211 52009 8353/ 333 56569 83630 86359=
85586,2000,04,17,18,00,AAXX 17184 85586 32560 12306 10178 20127 40204 58006 81100 333 56500 81820=
85586,2000,04,17,21,00,AAXX 17214 85586 42960 02308 10164 20119 40203 54001=
85586,2000,04,18,00,00,AAXX 18004 85586 32960 00000 10128 20108 40207 54002 333 10180=
85586,2000,04,18,03,00,AAXX 18034 85586 NIL=
85586,2000,04,18,06,00,AAXX 18064 85586 NIL=
85586,2000,04,18,09,00,AAXX 18094 85586 NIL=
85586,2000,04,18,12,00,AAXX 18124 85586 31/00 90000 10097 20091 40202 52/// 7454/ 333 20072 31/// 50210 55062 89///=
85586,2000,04,18,15,00,AAXX 18154 85586 41105 82602 10118 20113 40199 58002 74444 886// 333 56699 88703=
85586,2000,04,18,18,00,AAXX 18184 85586 NIL=
85586,2000,04,18,21,00,AAXX 18214 85586 41210 82506 10122 20116 40187 56003 71022 886// 333 56699 88704=
85586,2000,04,19,00,00,AAXX 19004 85586 31220 83503 10117 20112 40187 55000 71022 886// 333 10139 56699 88704=
85586,2000,04,19,03,00,AAXX 19034 85586 NIL=
85586,2000,04,19,06,00,AAXX 19064 85586 NIL=
85586,2000,04,19,09,00,AAXX 19094 85586 NIL=
85586,2000,04,19,12,00,AAXX 19124 85586 31220 80103 10111 20107 40191 52/// 7102/ 886// 333 20111 30/// 50180 55012 56799 88704=
85586,2000,04,19,15,00,AAXX 19154 85586 41230 83503 10116 20112 40196 52005 71022 886// 333 56799 88705=
85586,2000,04,19,18,00,AAXX 19184 85586 31240 82505 10125 20112 40194 54002 71022 886// 333 56799 88705=
85586,2000,04,19,21,00,AAXX 19214 85586 42460 82306 10127 20103 40191 57003 885// 333 56699 88615=
85586,2000,04,20,00,00,AAXX 20004 85586 31458 83301 10122 20113 40203 53012 71022 885// 333 10132 56699 88615=
85586,2000,04,20,03,00,AAXX 20034 85586 NIL=
85586,2000,04,20,06,00,AAXX 20064 85586 NIL=
85586,2000,04,20,09,00,AAXX 20094 85586 NIL=
85586,2000,04,20,12,00,AAXX 20124 85586 31556 81604 10131 20106 40185 57/// 7052/ 885// 333 20122 30/// 50150 55000 56699 88620=
85586,2000,04,20,15,00,AAXX 20154 85586 42556 81905 10133 20111 40196 53010 70522 885// 333 56699 88620=
85586,2000,04,20,18,00,AAXX 20184 85586 32960 02308 10166 20106 40179 58015=
85586,2000,04,20,21,00,AAXX 20214 85586 42960 02307 10166 20113 40167 57012=
85586,2000,04,21,00,00,AAXX 21004 85586 32960 00000 10112 20095 40174 53007 333 10170=
85586,2000,04,21,03,00,AAXX 21034 85586 NIL=
85586,2000,04,21,06,00,AAXX 21064 85586 NIL=
85586,2000,04,21,09,00,AAXX 21094 85586 NIL=
85586,2000,04,21,12,00,AAXX 21124 85586 31957 00000 10064 20060 40178 53/// 7100/ 333 20042 30/// 50120 55058=
85586,2000,04,21,15,00,AAXX 21154 85586 41959 03301 10157 20103 40182 52007 70500=
85586,2000,04,21,18,00,AAXX 21184 85586 32960 02208 10164 20111 40168 58014=
85586,2000,04,21,21,00,AAXX 21214 85586 42960 02404 10161 20100 40168 54000=
85586,2000,04,22,00,00,AAXX 22004 85586 32960 10000 10110 20098 40174 53005 80001 333 10167 56005 81073=
85586,2000,04,22,03,00,AAXX 22034 85586 NIL=
85586,2000,04,22,06,00,AAXX 22064 85586 NIL=
85586,2000,04,22,09,00,AAXX 22094 85586 NIL=
85586,2000,04,22,12,00,AAXX 22124 85586 32960 10902 10053 20045 40162 57/// 80001 333 20043 30/// 50140 55094 56005 81073=
85586,2000,04,22,15,00,AAXX 22154 85586 42960 01307 10210 20086 40155 54002=
85586,2000,04,22,18,00,AAXX 22184 85586 32960 12309 10187 20112 40140 57017 80001 333 56005 81073=
85586,2000,04,22,21,00,AAXX 22214 85586 42960 12101 10192 20114 40131 57009 80001 333 56005 81073=
85586,2000,04,23,00,00,AAXX 23004 85586 32960 00000 10111 20092 40133 54001 333 10230=
85586,2000,04,23,03,00,AAXX 23034 85586 NIL=
85586,2000,04,23,06,00,AAXX 23064 85586 NIL=
85586,2000,04,23,09,00,AAXX 23094 85586 NIL=
85586,2000,04,23,12,00,AAXX 23124 85586 32960 01202 10075 20069 40116 54/// 333 20064 30/// 50130 55101=
85586,2000,04,23,15,00,AAXX 23154 85586 NIL=
85586,2000,04,23,18,00,AAXX 23184 85586 32260 13006 10164 20126 40136 54002 81600 333 56700 81706=
85586,2000,04,23,21,00,AAXX 23214 85586 42460 72904 10140 20115 40146 52009 87600 333 56700 87712=
85586,2000,04,24,00,00,AAXX 24004 85586 32460 83204 10134 20120 40153 52007 886// 333 10170 56799 88710=
85586,2000,04,24,03,00,AAXX 24034 85586 NIL=
85586,2000,04,24,06,00,AAXX 24064 85586 NIL=
85586,2000,04,24,09,00,AAXX 24094 85586 NIL=
85586,2000,04,24,12,00,AAXX 24124 85586 31458 80000 10130 20119 40182 52/// 7102/ 885// 333 20128 30/// 50110 55078 56799 88613=
85586,2000,04,24,15,00,AAXX 24154 85586 42460 83402 10145 20111 40192 52010 885// 333 56799 88615=
85586,2000,04,24,18,00,AAXX 24184 85586 32460 83105 10153 20114 40185 58007 885// 333 56799 88617=
85586,2000,04,24,21,00,AAXX 24214 85586 42460 83202 10146 20116 40186 54001 885// 333 56799 88617=
85586,2000,04,25,00,00,AAXX 25004 85586 32560 80000 10135 20119 40186 54000 885// 333 10154 56799 88620=
85586,2000,04,25,03,00,AAXX 25034 85586 NIL=
85586,2000,04,25,06,00,AAXX 25064 85586 NIL=
85586,2000,04,25,09,00,AAXX 25094 85586 NIL=
85586,2000,04,25,12,00,AAXX 25124 85586 32560 61103 10099 20090 40192 53/// 83530 333 20081 30/// 50100 55000 56660 83630 83363=
85586,2000,04,25,15,00,AAXX 25154 85586 NIL=
85586,2000,04,25,18,00,AAXX 25184 85586 32960 71705 10171 20091 40193 58006 87030 333 56060 87365=
85586,2000,04,25,21,00,AAXX 25214 85586 42960 80000 10157 20096 40184 57009 8803/ 333 56069 88363=
85586,2000,04,26,00,00,AAXX 26004 85586 32960 81306 10142 20097 40178 57007 8803/ 333 10178 56069 88363=
85586,2000,04,26,03,00,AAXX 26034 85586 NIL=
85586,2000,04,26,06,00,AAXX 26064 85586 NIL=
85586,2000,04,26,09,00,AAXX 26094 85586 NIL=
85586,2000,04,26,12,00,AAXX 26124 85586 32960 71802 10095 20085 40172 53/// 85031 333 20092 30/// 50120 55010 56066 85363=
85586,2000,04,26,15,00,AAXX 26154 85586 42960 32307 10157 20117 40170 54002 83030 333 56060 83363=
85586,2000,04,26,18,00,AAXX 26184 85586 32960 72307 10166 20116 40161 58009 85038 333 56066 85365 87273=
85586,2000,04,26,21,00,AAXX 26214 85586 42960 82403 10140 20104 40166 53005 8807/ 333 56069 88365=
85586,2000,04,27,00,00,AAXX 27004 85586 31958 70000 10123 20105 40176 52009 70522 87030 333 10167 56060 87365=
85586,2000,04,27,03,00,AAXX 27034 85586 NIL=
85586,2000,04,27,06,00,AAXX 27064 85586 NIL=
85586,2000,04,27,09,00,AAXX 27094 85586 NIL=
85586,2000,04,27,12,00,AAXX 27124 85586 32960 50000 10070 20066 40212 52/// 83031 333 20065 30/// 50130 55037 56055 83365=
85586,2000,04,27,15,00,AAXX 27154 85586 42960 12201 10147 20102 40212 52003 80001 333 56005 81070=
85586,2000,04,27,18,00,AAXX 27184 85586 32960 32312 10141 20097 40198 57011 80001 333 56005 83070=
85586,2000,04,27,21,00,AAXX 27214 85586 42960 72305 10138 20098 40182 57026 80001 333 56005 87070=
85586,2000,04,28,00,00,AAXX 28004 85586 32960 30000 10114 20090 40188 53006 80001 333 10166 56006 83075=
85586,2000,04,28,03,00,AAXX 28034 85586 NIL=
85586,2000,04,28,06,00,AAXX 28064 85586 NIL=
85586,2000,04,28,09,00,AAXX 28094 85586 NIL=
85586,2000,04,28,12,00,AAXX 28124 85586 32960 20802 10067 20058 40182 54/// 80001 333 20052 30/// 50140 55067 56005 82075=
85586,2000,04,28,15,00,AAXX 28154 85586 42960 22405 10171 20106 40193 50004 80001 333 56005 82075=
85586,2000,04,28,18,00,AAXX 28184 85586 32960 22207 10169 20095 40168 57015 80001 333 56005 82075=
85586,2000,04,28,21,00,AAXX 28214 85586 42960 42603 10165 20118 40161 57007 80001 333 56005 84075=
85586,2000,04,29,00,00,AAXX 29004 85586 32960 30000 10096 20076 40164 53001 80001 333 10177 56005 83075=
85586,2000,04,29,03,00,AAXX 29034 85586 NIL=
85586,2000,04,29,06,00,AAXX 29064 85586 NIL=
85586,2000,04,29,09,00,AAXX 29094 85586 NIL=
85586,2000,04,29,12,00,AAXX 29124 85586 32960 70000 10050 20041 40170 53/// 80001 333 20038 30/// 0250 55091 56006 87075=
85586,2000,04,29,15,00,AAXX 29154 85586 42960 72603 10164 20081 40177 52010 80002 333 56006 87075=
85586,2000,04,29,18,00,AAXX 29184 85586 32960 12606 10174 20113 40173 58004 80002 333 56006 81075=
85586,2000,04,29,21,00,AAXX 29214 85586 42960 32504 10174 20093 40171 54002 80002 333 56006 83075=
85586,2000,04,30,00,00,AAXX 30004 85586 32960 50000 10130 20080 40178 53006 82032 333 10189 56066 82365 83075=
85586,2000,04,30,03,00,AAXX 30034 85586 NIL=
85586,2000,04,30,06,00,AAXX 30064 85586 NIL=
85586,2000,04,30,09,00,AAXX 30094 85586 NIL=
85586,2000,04,30,12,00,AAXX 30124 85586 32965 00000 10070 20060 40173 52/// 333 20060 30/// 50170 55083=
85586,2000,04,30,15,00,AAXX 30154 85586 42965 02504 10172 20110 40166 58004=
85586,2000,04,30,18,00,AAXX 30184 85586 32460 62707 10166 20136 40162 58004 82604 333 56605 82712 84073=
85586,2000,04,30,21,00,AAXX 30214 85586 41105 82703 10137 20130 40176 52006 74542 886// 333 56699 88703=
85586,2000,05,01,00,00,AAXX 01004 85586 11102 83201 10130 20125 40185 53008 69911 75122 886// 333 10175 56699 88702=
85586,2000,05,01,03,00,AAXX 01034 85586 NIL=
85586,2000,05,01,06,00,AAXX 01064 85586 NIL=
85586,2000,05,01,09,00,AAXX 01094 85586 NIL=
85586,2000,05,01,12,00,AAXX 01124 85586 12560 70000 10122 20116 40204 53/// 69984 86530 333 20119 31/// 50070 55056 56660 70008 86627=
85586,2000,05,01,15,00,AAXX 01154 85586 42560 70000 10148 20131 40215 52012=
85586,2000,05,01,18,00,AAXX 01184 85586 32565 53106 10163 20116 40210 58005 83230 333 56660 83827=
85586,2000,05,01,21,00,AAXX 01214 85586 NIL=
85586,2000,05,02,00,00,AAXX 02004 85586 32965 00000 10097 20078 40207 54002 333 10173=
85586,2000,05,02,03,00,AAXX 02034 85586 NIL=
85586,2000,05,02,06,00,AAXX 02064 85586 NIL=
85586,2000,05,02,12,00,AAXX 02124 85586 32965 50000 10052 20046 40173 57/// 85030 333 20048 30/// 50160 55061 56060 85362=
85586,2000,05,02,15,00,AAXX 02154 85586 42460 52605 10140 20110 40171 50000 82230 333 56660 82815 83362=
85586,2000,05,02,18,00,AAXX 02184 85586 32460 42409 10157 20107 40152 57018 84200 333 56600 84815=
85586,2000,05,02,21,00,AAXX 02214 85586 42560 12310 10153 20087 40143 57010 81500 333 56500 81620=
85586,2000,05,03,00,00,AAXX 03004 85586 32560 10000 10117 20070 40152 57009 81500 333 10164 56500 81620=
85586,2000,05,03,03,00,AAXX 03034 85586 NIL=
85586,2000,05,03,06,00,AAXX 03064 85586 NIL=
85586,2000,05,03,09,00,AAXX 03094 85586 NIL=
85586,2000,05,03,12,00,AAXX 03124 85586 NIL=
85586,2000,05,03,15,00,AAXX 03154 85586 42660 22803 10144 20100 40178 54001 82500 333 56600 82635=
85586,2000,05,03,18,00,AAXX 03184 85586 32660 22508 10189 20089 40174 57004 82200 333 56600 82835=
85586,2000,05,03,21,00,AAXX 03214 85586 42660 12305 10139 20105 40178 53004 81200 333 56600 81835=
85586,2000,05,04,00,00,AAXX 04004 85586 32660 30000 10088 20072 40193 52013 83500 333 10158 56600 83633=
85586,2000,05,04,03,00,AAXX 04034 85586 NIL=
85586,2000,05,04,06,00,AAXX 04064 85586 NIL=
85586,2000,05,04,09,00,AAXX 04094 85586 NIL=
85586,2000,05,04,12,00,AAXX 04124 85586 32560 10903 10067 20061 40204 52/// 81500 333 20057 31/// 50180 55070 56600 81625=
85586,2000,05,04,15,00,AAXX 04154 85586 42960 02404 10137 20099 40213 52012=
85586,2000,05,04,18,00,AAXX 04184 85586 32460 12704 10159 20096 40204 57009 81200 333 56600 81815=
85586,2000,05,04,21,00,AAXX 04214 85586 42860 12403 10151 20120 40211 52007 81050 333 56050 81358=
85586,2000,05,05,00,00,AAXX 05004 85586 32960 00000 10084 20072 40222 52013 333 10163=
85586,2000,05,05,03,00,AAXX 05034 85586 NIL=
85586,2000,05,05,06,00,AAXX 05064 85586 NIL=
85586,2000,05,05,09,00,AAXX 05094 85586 NIL=
85586,2000,05,05,12,00,AAXX 05124 85586 31958 00906 10057 20054 40230 57/// 71000 333 20044 31/// 50150 55098=
85586,2000,05,05,15,00,AAXX 05154 85586 42960 01006 10170 20090 40218 58008=
85586,2000,05,05,18,00,AAXX 05184 85586 NIL=
85586,2000,05,05,21,00,AAXX 05214 85586 42960 02104 10208 20102 40173 57017=
85586,2000,05,06,00,00,AAXX 06004 85586 32960 00000 10134 20018 40172 56003 333 10230=
85586,2000,05,06,03,00,AAXX 06034 85586 NIL=
85586,2000,05,06,06,00,AAXX 06064 85586 NIL=
85586,2000,05,06,09,00,AAXX 06094 85586 NIL=
85586,2000,05,06,12,00,AAXX 06124 85586 32960 00000 10030 20010 40166 52/// 333 20021 30/// 50160 55098=
85586,2000,05,06,15,00,AAXX 06154 85586 42960 02502 10159 20057 40163 50001=
85586,2000,05,06,18,00,AAXX 06184 85586 32960 02108 10163 20104 40155 57008=
85586,2000,05,06,21,00,AAXX 06214 85586 42960 02505 10157 20115 40149 50006=
85586,2000,05,07,00,00,AAXX 07004 85586 32960 00000 10101 20088 40158 52007 333 10165=
85586,2000,05,07,03,00,AAXX 07034 85586 NIL=
85586,2000,05,07,06,00,AAXX 07064 85586 NIL=
85586,2000,05,07,09,00,AAXX 07094 85586 NIL=
85586,2000,05,07,12,00,AAXX 07124 85586 31102 80801 10076 20074 40181 53/// 7444/ 886// 333 20054 30/// 50120 55099 56799 88702=
85586,2000,05,07,15,00,AAXX 07154 85586 41103 82602 10103 20101 40188 52007 74444 886// 333 56799 88702=
85586,2000,05,07,18,00,AAXX 07184 85586 31358 12406 10143 20111 40180 57007 70541 81600 333 56700 81707=
85586,2000,05,07,21,00,AAXX 07214 85586 42460 12806 10133 20109 40176 57004 81600 333 56000 81710=
85586,2000,05,08,00,00,AAXX 08004 85586 32460 82302 10121 20115 40184 53008 886// 333 10153 56699 88710=
85586,2000,05,08,06,00,AAXX 08064 85586 NIL=
85586,2000,05,08,09,00,AAXX 08094 85586 NIL=
85586,2000,05,08,12,00,AAXX 08124 85586 31356 81102 10102 20093 40174 52/// 7102/ 886// 333 20102 30/// 50130 55050 56699 88708=
85586,2000,05,08,15,00,AAXX 08154 85586 41356 80000 10102 20091 40184 52010 71022 886// 333 56699 88708=
85586,2000,05,08,18,00,AAXX 08184 85586 32460 82701 10120 20105 40173 57010 885// 333 56699 88615=
85586,2000,05,08,21,00,AAXX 08214 85586 42460 62405 10123 20099 40162 57011 86500 333 56600 86613=
85586,2000,05,09,00,00,AAXX 09004 85586 31457 80000 10108 20099 40160 54001 71022 886// 333 10140 56699 88710=
85586,2000,05,09,03,00,AAXX 09034 85586 NIL=
85586,2000,05,09,06,00,AAXX 09064 85586 NIL=
85586,2000,05,09,09,00,AAXX 09094 85586 NIL=
85586,2000,05,09,12,00,AAXX 09124 85586 11130 80000 10101 20097 40182 52/// 69934 7505/ 886// 333 20098 31/// 50100 55011 56699 70003 88702=
85586,2000,05,09,15,00,AAXX 09154 85586 42350 83605 10109 20094 40189 51008 71052 886// 333 56699 88708=
85586,2000,05,09,18,00,AAXX 09184 85586 11458 82905 10130 20091 40185 58004 69911 70552 886// 333 56699 88713=
85586,2000,05,09,21,00,AAXX 09214 85586 NIL=
85586,2000,05,10,00,00,AAXX 10004 85586 NIL=
85586,2000,05,10,03,00,AAXX 10034 85586 NIL=
85586,2000,05,10,06,00,AAXX 10064 85586 NIL=
85586,2000,05,10,09,00,AAXX 10094 85586 NIL=
85586,2000,05,10,12,00,AAXX 10124 85586 31359 80903 10125 20095 40191 52/// 7052/ 885// 333 20095 30/// 50140 55000 56699 88613=
85586,2000,05,10,15,00,AAXX 10154 85586 42460 83302 10148 20107 40200 52009 885// 333 56699 88617=
85586,2000,05,10,18,00,AAXX 10184 85586 32560 82705 10151 20102 40195 58005 885// 333 56699 88625=
85586,2000,05,10,21,00,AAXX 10214 85586 42560 73201 10148 20107 40197 53002 87500 333 56600 87627=
85586,2000,05,11,00,00,AAXX 11004 85586 32560 20000 10085 20056 40202 52005 82500 333 10160 56600 82627=
85586,2000,05,11,03,00,AAXX 11034 85586 NIL=
85586,2000,05,11,06,00,AAXX 11064 85586 NIL=
85586,2000,05,11,09,00,AAXX 11094 85586 NIL=
85586,2000,05,11,12,00,AAXX 11124 85586 32960 71003 10080 20072 40202 56/// 83031 333 20050 30/// 50120 55000 56066 83365 84075=
85586,2000,05,11,15,00,AAXX 11154 85586 42960 60000 10146 20100 40204 54003 83031 333 56066 83365 83075=
85586,2000,05,11,18,00,AAXX 11184 85586 32860 62110 10156 20102 40179 57015 82031 333 56066 82365 84075=
85586,2000,05,11,21,00,AAXX 11214 85586 42960 22305 10147 20099 40186 57003 80001 333 56006 82075=
85586,2000,05,12,00,00,AAXX 12004 85586 32960 20000 10084 20072 40184 54003 80001 333 10159 56006 82075=
85586,2000,05,12,03,00,AAXX 12034 85586 NIL=
85586,2000,05,12,06,00,AAXX 12064 85586 NIL=
85586,2000,05,12,09,00,AAXX 12094 85586 NIL=
85586,2000,05,12,12,00,AAXX 12124 85586 31909 11201 10039 20032 40158 57/// 7421/ 80001 333 20032 30/// 50110 55074 56005 81075=
85586,2000,05,12,15,00,AAXX 12154 85586 41957 02503 10122 20094 40160 50005 70500=
85586,2000,05,12,18,00,AAXX 12184 85586 31958 62606 10145 20107 40147 58013 70510 84031 333 56055 84365=
85586,2000,05,12,21,00,AAXX 12214 85586 42958 72703 10130 20120 40143 57004 70522 87030 333 56050 87365=
85586,2000,05,13,00,00,AAXX 13004 85586 31558 73201 10120 20111 40144 50001 71022 83530 333 10158 56650 83620 87363=
85586,2000,05,13,03,00,AAXX 13034 85586 NIL=
85586,2000,05,13,06,00,AAXX 13064 85586 NIL=
85586,2000,05,13,09,00,AAXX 13094 85586 NIL=
85586,2000,05,13,12,00,AAXX 13124 85586 32560 80000 10114 20105 40159 52/// 8553/ 333 20098 30/// 50100 55067 56659 85620 83360=
85586,2000,05,13,15,00,AAXX 13154 85586 42560 72103 10135 20115 40166 52010 86501 333 56605 86620=
85586,2000,05,13,18,00,AAXX 13184 85586 32560 72304 10144 20120 40151 58015 85500 333 56660 85620=
85586,2000,05,13,21,00,AAXX 13214 85586 42560 62206 10147 20109 40138 57013 86500 333 56600 86623=
85586,2000,05,14,00,00,AAXX 14004 85586 NIL=
85586,2000,05,14,06,00,AAXX 14064 85586 NIL=
85586,2000,05,14,12,00,AAXX 14124 85586 31959 70902 10118 20094 40155 53/// 7052/ 86031 333 20070 30/// 50100 55012 56066 86360=
85586,2000,05,14,15,00,AAXX 14154 85586 42960 73401 10163 20097 40164 52009=
85586,2000,05,14,18,00,AAXX 14184 85586 32560 73004 10164 20104 40160 58003 83530 333 56660 83630 87358=
85586,2000,05,14,21,00,AAXX 14214 85586 42560 72702 10161 20115 40164 53004 82530 333 56660 82630 87358=
85586,2000,05,15,00,00,AAXX 15004 85586 32560 70000 10133 20106 40177 52012 83530 333 10172 56660 83630 87358=
85586,2000,05,15,03,00,AAXX 15034 85586 NIL=
85586,2000,05,15,06,00,AAXX 15064 85586 NIL=
85586,2000,05,15,09,00,AAXX 15094 85586 NIL=
85586,2000,05,15,12,00,AAXX 15124 85586 12560 70000 10117 20104 40198 53/// 69974 81131 333 20110 31/// 50110 55021 56066 70007 81820 84360=
85586,2000,05,15,15,00,AAXX 15154 85586 42560 42503 10181 20129 40216 52020 81231 333 56066 81827=
85586,2000,05,15,18,00,AAXX 15184 85586 32560 32408 10171 20097 40213 58003 81231 333 56066 81827=
85586,2000,05,15,21,00,AAXX 15214 85586 42560 52408 10178 20120 40221 53008 82230 333 56060 82827 83363=
85586,2000,05,16,00,00,AAXX 16004 85586 32960 20000 10126 20082 40242 52019 82030 333 10178 56060 82363=
85586,2000,05,16,03,00,AAXX 16034 85586 NIL=
85586,2000,05,16,06,00,AAXX 16064 85586 NIL=
85586,2000,05,16,12,00,AAXX 16124 85586 32970 01105 10113 20085 40220 57/// 333 20095 30/// 50130 55083=
85586,2000,05,16,15,00,AAXX 16154 85586 42970 01205 10195 20081 40210 57009=
85586,2000,05,16,18,00,AAXX 16184 85586 32970 02606 10204 20103 40184 57025=
85586,2000,05,16,21,00,AAXX 16214 85586 42970 02703 10206 20101 40171 58013=
85586,2000,05,17,00,00,AAXX 17004 85586 32965 00000 10104 20081 40169 56005 333 10233=
85586,2000,05,17,03,00,AAXX 17034 85586 NIL=
85586,2000,05,17,06,00,AAXX 17064 85586 NIL=
85586,2000,05,17,09,00,AAXX 17094 85586 NIL=
85586,2000,05,17,12,00,AAXX 17124 85586 32960 01006 10084 20060 40136 57/// 333 20080 30/// 50210 55093=
85586,2000,05,17,15,00,AAXX 17154 85586 42960 22703 10157 20089 40137 54003 333 56066 81365=
85586,2000,05,17,18,00,AAXX 17184 85586 32960 32903 10166 20117 40144 53007 80001 333 56006 83075=
85586,2000,05,17,21,00,AAXX 17214 85586 NIL=
85586,2000,05,18,00,00,AAXX 18004 85586 32460 82803 10136 20122 40176 52013 885// 333 10168 56699 88610=
85586,2000,05,18,06,00,AAXX 18064 85586 NIL=
85586,2000,05,18,09,00,AAXX 18094 85586 NIL=
85586,2000,05,18,12,00,AAXX 18124 85586 32460 80000 10126 20110 40214 52/// 885// 333 10125 30/// 50140 55064 56699 88615=
85586,2000,05,18,15,00,AAXX 18154 85586 42560 80000 10152 20109 40224 52011 885// 333 56699 88625=
85586,2000,05,18,18,00,AAXX 18184 85586 32560 32303 10178 20084 40216 58007 83200 333 56600 83827=
85586,2000,05,18,21,00,AAXX 18214 85586 42560 12205 10157 20089 40215 58002 81500 333 56600 81627=
85586,2000,05,19,00,00,AAXX 19004 85586 32960 10000 10089 20064 40226 52009 80001 333 10183 56006 81075=
85586,2000,05,19,03,00,AAXX 19034 85586 NIL=
85586,2000,05,19,06,00,AAXX 19064 85586 NIL=
85586,2000,05,19,09,00,AAXX 19094 85586 NIL=
85586,2000,05,19,12,00,AAXX 19124 85586 31958 70000 10082 20070 40217 57/// 7102/ 87030 333 20041 30/// 50160 55042 56060 87365=
85586,2000,05,19,15,00,AAXX 19154 85586 42960 70000 10134 20081 40214 51002 87030 333 56060 87365=
85586,2000,05,19,18,00,AAXX 19184 85586 32960 70902 10138 20082 40214 54001 87030 333 56060 87363=
85586,2000,05,19,21,00,AAXX 19214 85586 41958 52303 10144 20096 40213 54001 70522=
85586,2000,05,20,00,00,AAXX 20004 85586 32960 00000 10077 20051 40222 53007 333 10153=
85586,2000,05,20,03,00,AAXX 20034 85586 NIL=
85586,2000,05,20,06,00,AAXX 20064 85586 NIL=
85586,2000,05,20,12,00,AAXX 20124 85586 31930 61202 10050 20042 40227 54/// 7101/ 80001 333 20043 30/// 50018 55013 56006 86075=
85586,2000,05,20,15,00,AAXX 20154 85586 41940 32304 10129 20084 40229 58004 70511 80001 333 56006 83073=
85586,2000,05,20,18,00,AAXX 20184 85586 31958 62310 10140 20106 40222 58006 70521 80004 333 56006 86073=
85586,2000,05,20,21,00,AAXX 20214 85586 42960 72108 10135 20092 40221 54001 83019 333 56066 83463 87273=
85586,2000,05,21,00,00,AAXX 21004 85586 32960 80000 10090 20074 40220 54002 85030 333 10153 56060 85365=
85586,2000,05,21,03,00,AAXX 21034 85586 NIL=
85586,2000,05,21,06,00,AAXX 21064 85586 NIL=
85586,2000,05,21,09,00,AAXX 21094 85586 NIL=
85586,2000,05,21,12,00,AAXX 21124 85586 31958 61402 10057 20054 40196 57/// 7102/ 82031 333 20055 30/// 50150 55037 56066 82365 84070=
85586,2000,05,21,15,00,AAXX 21154 85586 41958 71402 10153 20089 40193 54000 70522=
85586,2000,05,21,18,00,AAXX 21184 85586 32960 61104 10189 20121 40171 57021 84031 333 56066 84365=
85586,2000,05,21,21,00,AAXX 21214 85586 42960 52202 10173 20116 40158 57013 81031 333 56066 81365 84070=
85586,2000,05,22,00,00,AAXX 22004 85586 32960 80000 10128 20072 40156 56003 85032 333 10200 56066 85365 83075=
85586,2000,05,22,03,00,AAXX 22034 85586 NIL=
85586,2000,05,22,06,00,AAXX 22064 85586 NIL=
85586,2000,05,22,09,00,AAXX 22094 85586 NIL=
85586,2000,05,22,12,00,AAXX 22124 85586 31456 70602 10059 20051 40173 52/// 7102/ 86501 333 20050 30/// 50160 55048 56605 86615 82073=
85586,2000,05,22,15,00,AAXX 22154 85586 41358 30000 10140 20104 40181 52010 70521 81601 333 56605 81707 82073=
85586,2000,05,22,18,00,AAXX 22184 85586 31959 03109 10160 20103 40173 57007 70521=
85586,2000,05,22,21,00,AAXX 22214 85586 42960 63206 10142 20104 40185 52011 80004 333 56005 86073=
85586,2000,05,23,00,00,AAXX 23004 85586 32960 30000 10113 20094 40197 52013 80001 333 10163 56005 83073=
85586,2000,05,23,03,00,AAXX 23034 85586 NIL=
85586,2000,05,23,06,00,AAXX 23064 85586 NIL=
85586,2000,05,23,09,00,AAXX 23094 85586 NIL=
85586,2000,05,23,12,00,AAXX 23124 85586 32460 80000 10120 20099 40190 56/// 885// 333 20080 30/// 50120 55066 56099 88618=
85586,2000,05,23,15,00,AAXX 23154 85586 42560 80604 10134 20085 40187 56003 885// 333 56099 88620=
85586,2000,05,23,18,00,AAXX 23184 85586 32960 62906 10162 20113 40162 57024 80002 333 56006 86075=
85586,2000,05,23,21,00,AAXX 23214 85586 42960 53106 10142 20087 40170 53007 80002 333 56006=
85586,2000,05,24,00,00,AAXX 24004 85586 32960 53602 10122 20088 40177 52007 82032 333 10163 56066 82365 83075=
85586,2000,05,24,03,00,AAXX 24034 85586 NIL=
85586,2000,05,24,06,00,AAXX 24064 85586 NIL=
85586,2000,05,24,09,00,AAXX 24094 85586 NIL=
85586,2000,05,24,12,00,AAXX 24124 85586 32560 83503 10144 20080 40172 57/// 8552/ 333 20124 30/// 50150 55036 56669 85630 88458=
85586,2000,05,24,15,00,AAXX 24154 85586 41550 80103 10117 20106 40202 52029 76166=
85586,2000,05,24,18,00,AAXX 24184 85586 11230 80504 10125 20116 40201 54001 60111 75165 8552/ 333 56669 83706 85615 88457=
85586,2000,05,24,21,00,AAXX 24214 85586 41460 70303 10132 20106 40195 55005 70252 87400 333 56600 87615=
85586,2000,05,25,00,00,AAXX 25004 85586 11460 10301 10112 20103 40208 52012 60031 70185 81500 333 10134 56600 81615=
85586,2000,05,25,03,00,AAXX 25034 85586 NIL=
85586,2000,05,25,06,00,AAXX 25064 85586 NIL=
85586,2000,05,25,09,00,AAXX 25094 85586 NIL=
85586,2000,05,25,12,00,AAXX 25124 85586 12560 70401 10121 20109 40220 53/// 60144 87500 333 20092 32/// 50040 55000 56600 70139 87623=
85586,2000,05,25,15,00,AAXX 25154 85586 42560 30103 10172 20117 40220 51002 82201 333 56606 82820=
85586,2000,05,25,18,00,AAXX 25184 85586 32560 22408 10168 20116 40215 58005 81101 333 56606 81825=
85586,2000,05,25,21,00,AAXX 25214 85586 42960 50000 10147 20110 40214 58002 80001 333 56006=
85586,2000,05,26,00,00,AAXX 26004 85586 32960 60000 10124 20106 40214 58001 80001 333 10184 56006 86072=
85586,2000,05,26,03,00,AAXX 26034 85586 NIL=
85586,2000,05,26,06,00,AAXX 26064 85586 NIL=
85586,2000,05,26,09,00,AAXX 26094 85586 NIL=
85586,2000,05,26,12,00,AAXX 26124 85586 32560 71206 10109 20086 40155 57/// 81574 333 20094 32/// 50110 55075 56655 81620 85358 84071=
85586,2000,05,26,15,00,AAXX 26154 85586 42960 81005 10135 20197 40162 53014=
85586,2000,05,26,18,00,AAXX 26184 85586 32960 62604 10160 20116 40155 57006 82031 333 56056 82360 84071=
85586,2000,05,26,21,00,AAXX 26214 85586 42960 32201 10137 20113 40177 52011 81031 333 56056 81360 82071=
85586,2000,05,27,00,00,AAXX 27004 85586 31930 10000 10085 20077 40186 52008 71011 80001 333 10169 56006 81073=
85586,2000,05,27,03,00,AAXX 27034 85586 NIL=
85586,2000,05,27,06,00,AAXX 27064 85586 NIL=
85586,2000,05,27,09,00,AAXX 27094 85586 NIL=
85586,2000,05,27,12,00,AAXX 27124 85586 41958 40904 10061 20053 40184 57/// 7101/ 80001 333 20055 31/// 50020 55050 56006 84073=
85586,2000,05,27,15,00,AAXX 27154 85586 42960 71104 10128 20099 40181 50002 83031 333 56066 83360 84073=
85586,2000,05,27,18,00,AAXX 27184 85586 32960 61404 10189 20091 40160 57020 84031 333 56066 84363=
85586,2000,05,27,21,00,AAXX 27214 85586 42960 62304 10145 20110 40153 57008 82031 333 56066 82363 84073=
85586,2000,05,28,00,00,AAXX 28004 85586 42960 30000 10088 20064 40169 53015 80001 333 10192 56006 83075=
85586,2000,05,28,03,00,AAXX 28034 85586 NIL=
85586,2000,05,28,06,00,AAXX 28064 85586 NIL=
85586,2000,05,28,09,00,AAXX 28094 85586 NIL=
85586,2000,05,28,12,00,AAXX 28124 85586 31957 50903 10066 20056 40180 53/// 7102/ 80004 333 20050 31/// 50160 55048 56006 85075=
85586,2000,05,28,15,00,AAXX 28154 85586 41958 30000 10155 20074 40176 54001 70521 80004 333 56006 83075=
85586,2000,05,28,18,00,AAXX 28184 85586 31957 72504 10153 20092 40182 52005 70521 87030 333 56060 87365=
85586,2000,05,28,21,00,AAXX 28214 85586 42960 50000 10165 20090 40182 53001=
85586,2000,05,29,00,00,AAXX 29004 85586 31957 52303 10132 20112 40187 53004 70522 85030 333 10167 56060 85362=
85586,2000,05,29,03,00,AAXX 29034 85586 NIL=
85586,2000,05,29,06,00,AAXX 29064 85586 NIL=
85586,2000,05,29,09,00,AAXX 29094 85586 NIL=
85586,2000,05,29,12,00,AAXX 29124 85586 31906 00000 10084 20073 40197 54/// 74400 333 20082 31/// 50120 55029=
85586,2000,05,29,15,00,AAXX 29154 85586 41957 02303 10144 20116 40195 50000 70540=
85586,2000,05,29,18,00,AAXX 29184 85586 NIL=
85586,2000,05,29,21,00,AAXX 29214 85586 42960 02304 10152 20128 40179 56006=
85586,2000,05,30,00,00,AAXX 30004 85586 31905 00000 10106 20097 40176 54003 74400 333 10166=
85586,2000,05,30,03,00,AAXX 30034 85586 NIL=
85586,2000,05,30,06,00,AAXX 30064 85586 NIL=
85586,2000,05,30,09,00,AAXX 30094 85586 NIL=
85586,2000,05,30,12,00,AAXX 30124 85586 31959 80802 10087 20079 40163 54/// 7102/ 8803/ 333 20067 31/// 50160 55076 56069 88359=
85586,2000,05,30,15,00,AAXX 30154 85586 41958 80000 10123 20110 40166 53004 71022 8803/ 333 56069 88362=
85586,2000,05,30,18,00,AAXX 30184 85586 31958 72306 10164 20119 40140 58016 70522 82031 333 56066 82364 85075=
85586,2000,05,30,21,00,AAXX 30214 85586 42960 72206 10137 20108 40146 58004 84031 333 56056 84364=
85586,2000,05,31,00,00,AAXX 31004 85586 32960 72401 10114 20095 40154 52008 87030 333 10165 56050 87364=
85586,2000,05,31,03,00,AAXX 31034 85586 NIL=
85586,2000,05,31,06,00,AAXX 31064 85586 NIL=
85586,2000,05,31,09,00,AAXX 31094 85586 NIL=
85586,2000,05,31,12,00,AAXX 31124 85586 31959 41202 10084 20077 40182 52/// 7100/ 82031 333 20084 30/// 50110 55037 56055 82365=
85586,2000,05,31,15,00,AAXX 31154 85586 42960 12204 10145 20101 40194 52013 80001 333 56005 81073=
85586,2000,05,31,18,00,AAXX 31184 85586 32960 02704 10157 20101 40181 58011=
85586,2000,05,31,21,00,AAXX 31214 85586 42960 02604 10145 20119 40169 57014=
85586,2000,06,01,00,00,AAXX 01004 85586 32960 00702 10096 20090 40166 57004 333 10162=
85586,2000,06,01,03,00,AAXX 01034 85586 NIL=
85586,2000,06,01,06,00,AAXX 01064 85586 NIL=
85586,2000,06,01,09,00,AAXX 01094 85586 NIL=
85586,2000,06,01,12,00,AAXX 01124 85586 32960 01002 10037 20030 40148 53/// 333 20037 30/// 50130 55078=
85586,2000,06,01,15,00,AAXX 01154 85586 42960 13502 10132 20071 40163 52018 80001 333 56066 81075=
85586,2000,06,01,18,00,AAXX 01184 85586 32960 12405 10159 20093 40148 57014 80001 333 56005 81075=
85586,2000,06,01,21,00,AAXX 01214 85586 42460 12402 10134 20092 40153 53004 81501 333 56606 81615 81075=
85586,2000,06,02,00,00,AAXX 02004 85586 32960 10000 10067 20057 40172 52017 80001 333 10160 56006 81075=
85586,2000,06,02,03,00,AAXX 02034 85586 NIL=
85586,2000,06,02,06,00,AAXX 02064 85586 NIL=
85586,2000,06,02,09,00,AAXX 02094 85586 NIL=
85586,2000,06,02,12,00,AAXX 02124 85586 32560 73606 10142 20092 40216 52/// 86530 333 20050 30/// 50150 55080 56880 86630 81365=
85586,2000,06,02,15,00,AAXX 02154 85586 42560 43506 10180 20103 40220 51005 82531 333 56888 82630 81365 81075=
85586,2000,06,02,18,00,AAXX 02184 85586 32560 63508 10175 20105 40215 58005 81231 333 56888 81825 83365 82075=
85586,2000,06,02,21,00,AAXX 02214 85586 42960 63206 10168 20096 40204 57011 80001 333 56008 86075=
85586,2000,06,03,00,00,AAXX 03004 85586 32960 40000 10120 20094 40210 53005 80001 333 10184 56006 84075=
85586,2000,06,03,03,00,AAXX 03034 85586 NIL=
85586,2000,06,03,06,00,AAXX 03064 85586 NIL=
85586,2000,06,03,09,00,AAXX 03094 85586 NIL=
85586,2000,06,03,12,00,AAXX 03124 85586 32560 10902 10062 20052 40184 57/// 81500 333 20062 30/// 50160 55058 56600 81620=
85586,2000,06,03,15,00,AAXX 03154 85586 42460 53002 10141 20114 40184 50002=
85586,2000,06,03,18,00,AAXX 03184 85586 32460 32806 10156 20130 40170 57013 83500 333 56600 83615=
85586,2000,06,03,21,00,AAXX 03214 85586 42560 12805 10153 20124 40167 55003 81500 333 56600 81620=
85586,2000,06,04,00,00,AAXX 04004 85586 32460 10601 10121 20112 40178 52010 81500 333 10164 56600 81615=
85586,2000,06,04,03,00,AAXX 04034 85586 NIL=
85586,2000,06,04,06,00,AAXX 04064 85586 NIL=
85586,2000,06,04,09,00,AAXX 04094 85586 NIL=
85586,2000,06,04,12,00,AAXX 04124 85586 32960 00802 10076 20070 40170 57/// 333 20073 30/// 50160 55065=
85586,2000,06,04,15,00,AAXX 04154 85586 42960 13503 10172 20098 40176 53008 80002 333 56006 81075=
85586,2000,06,04,18,00,AAXX 04184 85586 32960 33110 10176 20113 40170 58006 80001 333 56006 83075=
85586,2000,06,04,21,00,AAXX 04214 85586 42960 63107 10170 20114 40178 53008 82031 333 56076 82365 84075=
85586,2000,06,05,00,00,AAXX 05004 85586 32960 83102 10142 20108 40182 54003 85032 333 10180 56076 85363 83075=
85586,2000,06,05,03,00,AAXX 05034 85586 NIL=
85586,2000,06,05,06,00,AAXX 05064 85586 NIL=
85586,2000,06,05,09,00,AAXX 05094 85586 NIL=
85586,2000,06,05,12,00,AAXX 05124 85586 11560 61802 10124 20117 40197 53/// 60024 7026/ 82530 333 20124 32/// 50140 55076 56660 70017 82620 85362=
85586,2000,06,05,15,00,AAXX 05154 85586 42460 51208 10155 20111 40193 51007 83230 333 56660 83815 82362=
85586,2000,06,05,18,00,AAXX 05184 85586 32460 71605 10163 20129 40192 57011 87200 333 56600 87818=
85586,2000,06,05,21,00,AAXX 05214 85586 42460 42205 10152 20126 40189 57003 83201 333 56606 83818=
85586,2000,06,06,00,00,AAXX 06004 85586 32960 00000 10113 20096 40198 52008 333 10171=
85586,2000,06,06,03,00,AAXX 06034 85586 NIL=
85586,2000,06,06,06,00,AAXX 06064 85586 NIL=
85586,2000,06,06,09,00,AAXX 06094 85586 NIL=
85586,2000,06,06,12,00,AAXX 06124 85586 32460 41701 10052 20047 40201 54/// 84500 333 20052 31/// 20120 55038 56600 84618=
85586,2000,06,06,15,00,AAXX 06154 85586 42560 41305 10121 20083 40219 52020 81504 333 56605 81620 83073=
85586,2000,06,06,18,00,AAXX 06184 85586 32560 52306 10133 20068 40218 58001 81531 333 56665 81620 82362 82073=
85586,2000,06,06,21,00,AAXX 06214 85586 42560 62306 10133 20072 40227 51009 81530 333 56660 81620=
85586,2000,06,07,00,00,AAXX 07004 85586 32960 01802 10070 20049 40242 52013 333 10148=
85586,2000,06,07,03,00,AAXX 07034 85586 NIL=
85586,2000,06,07,06,00,AAXX 07064 85586 NIL=
85586,2000,06,07,09,00,AAXX 07094 85586 NIL=
85586,2000,06,07,12,00,AAXX 07124 85586 32960 00000 10010 20005 40254 52/// 333 20010 31/// 50140 55060=
85586,2000,06,07,15,00,AAXX 07154 85586 42960 02403 10123 20079 40251 53001=
85586,2000,06,07,18,00,AAXX 07184 85586 32960 12310 10141 20111 40240 58010 80001 333 56006 81075=
85586,2000,06,07,21,00,AAXX 07214 85586 42960 32302 10129 20098 40231 57009 80001 333 56006 83075=
85586,2000,06,08,00,00,AAXX 08004 85586 32960 21703 10076 20064 40233 50000 80001 333 10147 56005 82075=
85586,2000,06,08,03,00,AAXX 08034 85586 NIL=
85586,2000,06,08,06,00,AAXX 08064 85586 NIL=
85586,2000,06,08,09,00,AAXX 08094 85586 NIL=
85586,2000,06,08,12,00,AAXX 08124 85586 32960 31004 10048 20042 40214 53/// 80001 333 20028 31/// 50130 55072 56005 83075=
85586,2000,06,08,15,00,AAXX 08154 85586 42960 60000 10126 20073 40216 51004 80001 333 56006 86073=
85586,2000,06,08,18,00,AAXX 08184 85586 32960 72108 10141 20086 40200 58005 86031 333 56065 86363 81075=
85586,2000,06,08,21,00,AAXX 08214 85586 NIL=
85586,2000,06,09,03,00,AAXX 09034 85586 NIL=
85586,2000,06,09,06,00,AAXX 09064 85586 NIL=
85586,2000,06,09,09,00,AAXX 09094 85586 NIL=
85586,2000,06,09,12,00,AAXX 09124 85586 32960 50902 10059 20048 40193 54/// 84031 333 20045 31/// 50160 55021 56055 84363 82075=
85586,2000,06,09,15,00,AAXX 09154 85586 42960 70000 10118 20069 40200 50010 87030 333 56060 87363=
85586,2000,06,09,18,00,AAXX 09184 85586 31959 72308 10121 20084 40202 51001 70522 87030 333 56060 87363=
85586,2000,06,09,21,00,AAXX 09214 85586 41957 82401 10123 20095 40207 53006 70522 8803/ 333 56069 88360=
85586,2000,06,10,00,00,AAXX 10004 85586 11957 70000 10106 20095 40211 53003 69901 71062 87030 333 10130 56060 87359=
85586,2000,06,10,03,00,AAXX 10034 85586 NIL=
85586,2000,06,10,06,00,AAXX 10064 85586 NIL=
85586,2000,06,10,09,00,AAXX 10094 85586 NIL=
85586,2000,06,10,12,00,AAXX 10124 85586 32960 11203 10086 20070 40193 57/// 80001 333 20086 30/// 50011 55003 56006 81075=
85586,2000,06,10,15,00,AAXX 10154 85586 42960 30000 10158 20078 40183 56008 80001 333 56006 83075=
85586,2000,06,10,18,00,AAXX 10184 85586 32960 62310 10150 20114 40174 57010 80001 333 56006 86075=
85586,2000,06,10,21,00,AAXX 10214 85586 42960 82405 10134 20112 40173 54001 83032 333 56066 83362 86075=
85586,2000,06,11,00,00,AAXX 11004 85586 32960 81703 10106 20091 40164 57009 84032 333 10180 56066 84365 84075=
85586,2000,06,11,03,00,AAXX 11034 85586 NIL=
85586,2000,06,11,06,00,AAXX 11064 85586 NIL=
85586,2000,06,11,09,00,AAXX 11094 85586 NIL=
85586,2000,06,11,12,00,AAXX 11124 85586 32960 70802 10082 20074 40158 54/// 87030 333 20076 30/// 50120 55062 56060 87365=
85586,2000,06,11,15,00,AAXX 11154 85586 41458 70000 10134 20114 40170 52013 70522 84530 333 56660 84617 84363=
85586,2000,06,11,18,00,AAXX 11184 85586 32460 72806 10162 20111 40158 57012 81531 333 56666 81617 85363 82075=
85586,2000,06,11,21,00,AAXX 11214 85586 42560 82804 10134 20116 40149 56009 8253/ 333 56669 82620 88361=
85586,2000,06,12,00,00,AAXX 12004 85586 32460 83303 10128 20115 40144 55005 8353/ 333 10166 56669 83617 88360=
85586,2000,06,12,03,00,AAXX 12034 85586 NIL=
85586,2000,06,12,06,00,AAXX 12064 85586 NIL=
85586,2000,06,12,09,00,AAXX 12094 85586 NIL=
85586,2000,06,12,12,00,AAXX 12124 85586 32460 83406 10144 20104 40127 57/// 8357/ 333 20120 31/// 50100 55029 56779 83618 88358=
85586,2000,06,12,15,00,AAXX 12154 85586 41450 83608 10129 20118 40129 53002 76362 8257/ 333 56779 82617 88357=
85586,2000,06,12,18,00,AAXX 12184 85586 11456 83607 10128 20123 40126 58003 60371 76162 8357/ 333 56779 83617 88357=
85586,2000,06,12,21,00,AAXX 12214 85586 41457 82805 10136 20132 40136 53008 76166 8457/ 333 56779 84617 85357=
85586,2000,06,13,00,00,AAXX 13004 85586 11450 83609 10133 20129 40140 52006 60191 75866 8457/ 333 10144 56779 84617 85358=
85586,2000,06,13,03,00,AAXX 13034 85586 NIL=
85586,2000,06,13,06,00,AAXX 13064 85586 NIL=
85586,2000,06,13,09,00,AAXX 13094 85586 NIL=
85586,2000,06,13,12,00,AAXX 13124 85586 11456 83410 10147 20135 40107 57/// 60734 7606/ 8557/ 333 20131 32/// 50005 55000 56779 70726 85615 88357=
85586,2000,06,13,15,00,AAXX 13154 85586 41456 83320 10147 20137 40100 57007 76166=
85586,2000,06,13,18,00,AAXX 13184 85586 11458 83416 10156 20143 40099 54000 60091 76166 8557/ 333 56779 85615 88357=
85586,2000,06,13,21,00,AAXX 13214 85586 41450 83214 10145 20136 40101 54002 76366=
85586,2000,06,14,00,00,AAXX 14004 85586 11458 83308 10127 20118 40123 52021 60121 76166 8553/ 333 10158 56779 85615 88357=
85586,2000,06,14,03,00,AAXX 14034 85586 NIL=
85586,2000,06,14,06,00,AAXX 14064 85586 NIL=
85586,2000,06,14,09,00,AAXX 14094 85586 NIL=
85586,2000,06,14,12,00,AAXX 14124 85586 11457 83005 10139 20127 40129 53/// 60384 7606/ 8557/ 333 20126 32/// 50002 55000 56779 70376 85615 88357=
85586,2000,06,14,15,00,AAXX 14154 85586 41420 82811 10143 20129 40128 54001 78186 8427/ 333 56779 84815 86357=
85586,2000,06,14,18,00,AAXX 14184 85586 11460 80504 10118 20103 40143 52015 60051 70286 8327/ 333 56779 56779 83817 87358=
85586,2000,06,14,21,00,AAXX 14214 85586 41458 70503 10115 20091 40149 52006 76062 82270 333 56770 82817 87360=
85586,2000,06,15,00,00,AAXX 15004 85586 11558 60503 10096 20086 40164 52014 76066 83230 333 10144 56160 83820 83359=
85586,2000,06,15,03,00,AAXX 15034 85586 NIL=
85586,2000,06,15,06,00,AAXX 15064 85586 NIL=
85586,2000,06,15,09,00,AAXX 15094 85586 NIL=
85586,2000,06,15,12,00,AAXX 15124 85586 11556 83603 10097 20084 40190 52/// 60104 7808/ 8523/ 333 20093 32/// 50040 55000 56669 70095 85820 84358=
85586,2000,06,15,15,00,AAXX 15154 85586 41560 73303 10107 20089 40208 52018 72582 87200 333 56700 87820=
85586,2000,06,15,18,00,AAXX 15184 85586 11560 63208 10131 20086 40201 58007 60041 78082 86200 333 56700 86820=
85586,2000,06,15,21,00,AAXX 15214 85586 41560 63307 10125 20095 40210 52009 70282 86200 333 56700 86820=
85586,2000,06,16,00,00,AAXX 16004 85586 11560 63602 10104 20087 40223 52012 60071 70282 86200 333 10143 56700 86820=
85586,2000,06,16,03,00,AAXX 16034 85586 NIL=
85586,2000,06,16,06,00,AAXX 16064 85586 NIL=
85586,2000,06,16,09,00,AAXX 16094 85586 NIL=
85586,2000,06,16,12,00,AAXX 16124 85586 11960 20000 10054 20045 40222 57/// 60204 7038/ 82030 333 20052 32/// 50020 55025 56060 70205 82359=
85586,2000,06,16,15,00,AAXX 16154 85586 42460 20502 10124 20096 40222 54002 82500 333 56000 82617=
85586,2000,06,16,18,00,AAXX 16184 85586 32460 22607 10138 20099 40207 57014 82800 333 56600 82817=
85586,2000,06,17,00,00,AAXX 17004 85586 32960 00000 10074 20060 40207 54001 333 10142=
85586,2000,06,17,06,00,AAXX 17064 85586 NIL=
85586,2000,06,17,12,00,AAXX 17124 85586 32560 30000 10066 20058 40212 54/// 83500 333 20062 32/// 50080 55073 56500 83630=
85586,2000,06,17,15,00,AAXX 17154 85586 42560 20602 10127 20081 40217 52007 82500 333 56500 82633=
85586,2000,06,17,18,00,AAXX 17184 85586 32560 22405 10140 20092 40206 57010 82200 333 56500 82830=
85586,2000,06,17,21,00,AAXX 17214 85586 42560 22307 10131 20071 40208 54001 82200 333 56500 82825=
85586,2000,06,18,00,00,AAXX 18004 85586 32660 10000 10083 20069 40216 52007 81500 333 10143 56508 81335=
85586,2000,06,18,03,00,AAXX 18034 85586 NIL=
85586,2000,06,18,06,00,AAXX 18064 85586 NIL=
85586,2000,06,18,09,00,AAXX 18094 85586 NIL=
85586,2000,06,18,12,00,AAXX 18124 85586 32660 11003 10032 20026 40230 53/// 81500 333 20032 31/// 50090 55073 56500 81635=
85586,2000,06,18,15,00,AAXX 18154 85586 42560 10503 10111 20079 40231 52004 81100 333 56000 81833=
85586,2000,06,18,18,00,AAXX 18184 85586 32560 12306 10136 20084 40212 58018 81100 333 56000 81833=
85586,2000,06,18,21,00,AAXX 18214 85586 42560 12405 10121 20085 40215 54002 81100 333 56000 81833=
85586,2000,06,19,00,00,AAXX 19004 85586 32660 30000 10073 20065 40226 58009 83500 333 10141 56500 83640=
85586,2000,06,19,03,00,AAXX 19034 85586 NIL=
85586,2000,06,19,06,00,AAXX 19064 85586 NIL=
85586,2000,06,19,09,00,AAXX 19094 85586 NIL=
85586,2000,06,19,12,00,AAXX 19124 85586 32660 71003 10044 20035 40220 53/// 83531 333 20030 31/// 50090 55078 56555 83640 83363=
85586,2000,06,19,15,00,AAXX 19154 85586 42660 80803 10086 20057 40232 52010 8453/ 333 56559 84640 88363=
85586,2000,06,19,18,00,AAXX 19184 85586 32560 80207 10123 20053 40218 57013 8453/ 333 56559 84630 88361=
85586,2000,06,19,21,00,AAXX 19214 85586 41556 80702 10093 20079 40226 52008 76366=
85586,2000,06,20,00,00,AAXX 20004 85586 11557 80804 10100 20073 40225 55002 60091 76166 8553/ 333 10143 56559 85625 88358=
85586,2000,06,20,03,00,AAXX 20034 85586 NIL=
85586,2000,06,20,06,00,AAXX 20064 85586 NIL=
85586,2000,06,20,09,00,AAXX 20094 85586 NIL=
85586,2000,06,20,12,00,AAXX 20124 85586 12560 70802 10080 20069 40216 53/// 60104 81531 333 20080 31/// 50040 55000 56566 70095 81630 85363=
85586,2000,06,20,15,00,AAXX 20154 85586 42560 70000 10136 20069 40218 51004 81531 333 56566 81630 85363=
85586,2000,06,20,18,00,AAXX 20184 85586 11560 73607 10139 20105 40213 51006 69901 76022 82530 333 56560 82630 85363=
85586,2000,06,20,21,00,AAXX 20214 85586 41560 80000 10134 20112 40211 56003 76162 8453/ 333 56569 84630 86362=
85586,2000,06,21,00,00,AAXX 21004 85586 11560 80000 10132 20099 40209 54002 76066 8453/ 333 10143 56079 84623 86360=
85586,2000,06,21,03,00,AAXX 21034 85586 NIL=
85586,2000,06,21,06,00,AAXX 21064 85586 NIL=
85586,2000,06,21,09,00,AAXX 21094 85586 NIL=
85586,2000,06,21,12,00,AAXX 21124 85586 11560 80705 10126 20108 40188 57/// 60264 7026/ 8553/ 333 20113 32/// 50050 55001 56569 70255 85623 88358=
85586,2000,06,21,15,00,AAXX 21154 85586 42560 60903 10161 20121 40183 58004 83530 333 56660 83625 86358=
85586,2000,06,21,18,00,AAXX 21184 85586 32560 62604 10130 20083 40161 57023 81534 333 56666 81630 82358 85071=
85586,2000,06,21,21,00,AAXX 21214 85586 42960 82803 10160 20133 40142 57018 82031 333 56066 82358 86070=
85586,2000,06,22,00,00,AAXX 22004 85586 32860 60000 10126 20110 40131 57012 82031 333 10186 56066 82358 85070=
85586,2000,06,22,03,00,AAXX 22034 85586 NIL=
85586,2000,06,22,06,00,AAXX 22064 85586 NIL=
85586,2000,06,22,09,00,AAXX 22094 85586 NIL=
85586,2000,06,22,12,00,AAXX 22124 85586 32560 73602 10134 20122 40130 54/// 85503 333 20122 31/// 50080 55048 56706 85620 803730=
85586,2000,06,22,15,00,AAXX 22154 85586 42560 83104 10160 20142 40135 53006 8253/ 333 56779 82625 87363=
85586,2000,06,22,18,00,AAXX 22184 85586 32560 83112 10160 20132 40123 57012 8353/ 333 56779 83623 87363=
85586,2000,06,22,21,00,AAXX 22214 85586 42460 83008 10154 20133 40121 54002 8383/ 333 56779 82213 83620 87360=
85586,2000,06,23,00,00,AAXX 23004 85586 32460 83203 10143 20126 40116 57006 8353/ 333 10167 56779 83617 87360=
85586,2000,06,23,03,00,AAXX 23034 85586 NIL=
85586,2000,06,23,06,00,AAXX 23064 85586 NIL=
85586,2000,06,23,09,00,AAXX 23094 85586 NIL=
85586,2000,06,23,12,00,AAXX 23124 85586 11560 73507 10145 20102 40067 57/// 60024 7026/ 83530 333 20131 32/// 50060 55000 56770 70019 83625 87360=
85586,2000,06,23,15,00,AAXX 23154 85586 42460 83407 10145 20109 40061 56005=
85586,2000,06,23,18,00,AAXX 23184 85586 11458 83604 10137 20120 40044 57023 69941 76162 8553/ 333 56779 85615 88358=
85586,2000,06,23,21,00,AAXX 23214 85586 41456 83606 10126 20116 40032 57012 76166 8653/ 333 56779 86615 88357=
85586,2000,06,24,00,00,AAXX 24004 85586 NIL=
85586,2000,06,24,03,00,AAXX 24034 85586 NIL=
85586,2000,06,24,06,00,AAXX 24064 85586 NIL=
85586,2000,06,24,09,00,AAXX 24094 85586 NIL=
85586,2000,06,24,12,00,AAXX 24124 85586 12460 63504 10108 20093 40171 52/// 60442 7022/ 81530 333 20106 32/// 50020 55000 56770 70442 81615 85360=
85586,2000,06,24,18,00,AAXX 24184 85586 11558 73406 10109 20094 40199 52007 60041 78082 87200 333 56700 87820=
85586,2000,06,24,21,00,AAXX 24214 85586 41560 60105 10114 20091 40211 52012 78082 86200 333 56700 86823=
85586,2000,06,25,00,00,AAXX 25004 85586 11560 83603 10090 85613=
85586,2000,06,25,03,00,AAXX 25034 85586 NIL=
85586,2000,06,25,06,00,AAXX 25064 85586 NIL=
85586,2000,06,25,09,00,AAXX 25094 85586 NIL=
85586,2000,06,25,12,00,AAXX 25124 85586 12560 70902 20082 20073=
85586,2000,06,25,15,00,AAXX 25154 85586 42560 70503 10122 20100 40217 52014 83530 333 56660 83623 85363=
85586,2000,06,25,18,00,AAXX 25184 85586 32560 52805 10157 20115 40203 58013 82231 333 56066 82825 83363=
85586,2000,06,25,21,00,AAXX 25214 85586 42560 53002 10138 20117 40206 53003 82201 333 56006 82825 83073=
85586,2000,06,26,00,00,AAXX 26004 85586 32560 70502 10107 20099 40215 52008 82101 333 10158 56006 82823 85073=
85586,2000,06,26,03,00,AAXX 26034 85586 NIL=
85586,2000,06,26,06,00,AAXX 26064 85586 NIL=
85586,2000,06,26,09,00,AAXX 26094 85586 NIL=
85586,2000,06,26,12,00,AAXX 26124 85586 32960 51003 10057 20051 40194 57/// 80001 333 20057 31/// 50050 55048 56005 85070=
85586,2000,06,26,15,00,AAXX 26154 85586 42960 62603 10124 20086 40193 54001 82031 333 56055 82365 84070=
85586,2000,06,26,18,00,AAXX 26184 85586 32960 72803 10140 20100 40164 57028 85011 333 56055 85465=
85586,2000,06,26,21,00,AAXX 26214 85586 42960 83602 10131 20108 40141 57023 8807/ 333 56059 88363=
85586,2000,06,27,00,00,AAXX 27004 85586 32760 80000 10110 20089 40150 52009 885// 333 10149 56799 88650=
85586,2000,06,27,03,00,AAXX 27034 85586 NIL=
85586,2000,06,27,06,00,AAXX 27064 85586 NIL=
85586,2000,06,27,09,00,AAXX 27094 85586 NIL=
85586,2000,06,27,12,00,AAXX 27124 85586 11440 80312 10103 20084 40110 57/// 60304 7636/ 8553/ 333 20100 32/// 50050 55019 56779 70300 85615 88356=
85586,2000,06,27,15,00,AAXX 27154 85586 41460 80108 10097 20079 40138 50028 76166=
85586,2000,06,27,18,00,AAXX 27184 85586 11460 73609 10130 20078 40133 58004 60101 70166 83534 333 56776 83615 85357 82070=
85586,2000,06,27,21,00,AAXX 27214 85586 41460 53604 10120 20090 40148 52015 70182 84800 333 56700 81615 84820=
85586,2000,06,28,00,00,AAXX 28004 85586 11460 83606 10106 20097 40173 52025 60111 76082 8523/ 333 10134 56779 85817 83360=
85586,2000,06,28,03,00,AAXX 28034 85586 NIL=
85586,2000,06,28,06,00,AAXX 28064 85586 NIL=
85586,2000,06,28,09,00,AAXX 28094 85586 NIL=
85586,2000,06,28,12,00,AAXX 28124 85586 NIL=
85586,2000,06,28,15,00,AAXX 28154 85586 41540 82812 10096 20081 40184 53020 79282 8433/ 333 56779 81920 83820 87360=
85586,2000,06,28,18,00,AAXX 28184 85586 11560 83606 10104 20086 40175 58008 60121 70296 8483/ 333 56779 82820 83626 87360=
85586,2000,06,28,21,00,AAXX 28214 85586 NIL=
85586,2000,06,29,00,00,AAXX 29004 85586 11560 82902 10092 20084 40181 52006 76262 8383/ 333 10120 56779 81820 83626 87358=
85586,2000,06,29,03,00,AAXX 29034 85586 NIL=
85586,2000,06,29,06,00,AAXX 29064 85586 NIL=
85586,2000,06,29,09,00,AAXX 29094 85586 NIL=
85586,2000,06,29,12,00,AAXX 29124 85586 11556 80406 10096 20080 40177 57/// 60364 7616/ 8453/ 333 20088 32/// 50040 55000 56779 70360 84620 88358=
85586,2000,06,29,15,00,AAXX 29154 85586 41560 80608 10111 20087 40170 57006=
85586,2000,06,29,18,00,AAXX 29184 85586 11560 83504 10131 20107 40167 58003 60011 72162 8553/ 333 56779 85620 88358=
85586,2000,06,29,21,00,AAXX 29214 85586 NIL=
85586,2000,06,30,00,00,AAXX 30004 85586 NIL=
85586,2000,06,30,12,00,AAXX 30124 85586 NIL=
85586,2000,06,30,15,00,AAXX 30154 85586 NIL=
85586,2000,06,30,18,00,AAXX 30184 85586 11220 83305 10142 20133 40159 57015 60041 71065 886//=
85586,2000,06,30,21,00,AAXX 30214 85586 41240 83510 10140 20132 40157 58002 76152 885// 333 56799=
85586,2000,07,01,00,00,AAXX 01004 85586 11430 83203 10140 20132 40161 51004 60101 76165 8553/ 333 10146 56779 85615 88358=
85586,2000,07,01,03,00,AAXX 01034 85586 NIL=
85586,2000,07,01,06,00,AAXX 01064 85586 NIL=
85586,2000,07,01,09,00,AAXX 01094 85586 NIL=
85586,2000,07,01,12,00,AAXX 01124 85586 12960 12002 10072 20064 40200 52/// 60294 81030 333 20072 32/// 56070 70288 81360=
85586,2000,07,01,18,00,AAXX 01184 85586 32560 52408 10134 20089 40210 58006 83230 333 56670 83820 82359=
85586,2000,07,02,00,00,AAXX 02004 85586 32560 20702 10084 20074 40246 52024 82500 333 10136 56600 82620=
85586,2000,07,02,03,00,AAXX 02034 85586 NIL=
85586,2000,07,02,06,00,AAXX 02064 85586 NIL=
85586,2000,07,02,09,00,AAXX 02094 85586 NIL=
85586,2000,07,02,12,00,AAXX 02124 85586 32960 00803 10043 20039 40298 52/// 333 20040 32/// 50030 55055=
85586,2000,07,02,15,00,AAXX 02154 85586 42965 00803 10115 20087 40293 58002=
85586,2000,07,02,18,00,AAXX 02184 85586 32965 11406 10146 20063 40262 57029 80001 333 56005 81075=
85586,2000,07,02,21,00,AAXX 02214 85586 42965 51806 10137 20091 40242 57020 80001 333 56005=
85586,2000,07,03,00,00,AAXX 03004 85586 32965 41701 10080 20067 40254 52010 80001 333 10156 56006 84075=
85586,2000,07,03,03,00,AAXX 03034 85586 NIL=
85586,2000,07,03,06,00,AAXX 03064 85586 NIL=
85586,2000,07,03,09,00,AAXX 03094 85586 NIL=
85586,2000,07,03,12,00,AAXX 03124 85586 32960 50905 10079 20059 40238 57/// 82051 333 20050 32/// 50070 55073 56066 82362 83075=
85586,2000,07,03,15,00,AAXX 03154 85586 42960 31304 10143 20066 40239 50003 80001 333 56006 83075=
85586,2000,07,03,18,00,AAXX 03184 85586 32960 50905 10185 20081 40220 57018 81051 333 56066 81363 84075=
85586,2000,07,03,21,00,AAXX 03214 85586 42960 51606 10168 20059 40213 55007 80001 333 56006=
85586,2000,07,04,00,00,AAXX 04004 85586 32960 21304 10120 20064 40198 57015 80001 333 10192 56005 82075=
85586,2000,07,04,03,00,AAXX 04034 85586 NIL=
85586,2000,07,04,06,00,AAXX 04064 85586 NIL=
85586,2000,07,04,09,00,AAXX 04094 85586 NIL=
85586,2000,07,04,12,00,AAXX 04124 85586 32960 31203 10072 20049 40179 57/// 80001 333 20072 31/// 50090 55071 56006 83075=
85586,2000,07,04,15,00,AAXX 04154 85586 42960 40000 10147 20090 40185 53008 80001 333 56006 84075=
85586,2000,07,04,18,00,AAXX 04184 85586 32960 32405 10172 20126 40166 57018 80001 333 56006 83075=
85586,2000,07,04,21,00,AAXX 04214 85586 42960 32306 10146 20119 40159 57018 80001 333 56006 83075=
85586,2000,07,05,00,00,AAXX 05004 85586 01908 30000 10116 20111 40168 52009 74611 80001 333 10180 56006 83075=
85586,2000,07,05,03,00,AAXX 05034 85586 NIL=
85586,2000,07,05,06,00,AAXX 05064 85586 NIL=
85586,2000,07,05,09,00,AAXX 05094 85586 NIL=
85586,2000,07,05,12,00,AAXX 05124 85586 31/01 90000 10066 20060 40170 54/// 7454/ 333 20052 31/// 50060 55081 89///=
85586,2000,07,05,15,00,AAXX 05154 85586 41/01 90000 10096 20090 40175 50006 74544 333 89///=
85586,2000,07,05,18,00,AAXX 05184 85586 31250 81802 10111 20105 40177 53003 71042 886// 333 56699 88705=
85586,2000,07,05,21,00,AAXX 05214 85586 41357 82601 10121 20113 40167 58010 71022 886// 333 56699 88708=
85586,2000,07,06,00,00,AAXX 06004 85586 31357 80000 10115 20109 40180 52007 71022 886// 333 10123 56699 88708=
85586,2000,07,06,03,00,AAXX 06034 85586 NIL=
85586,2000,07,06,06,00,AAXX 06064 85586 NIL=
85586,2000,07,06,09,00,AAXX 06094 85586 NIL=
85586,2000,07,06,12,00,AAXX 06124 85586 32560 80000 10105 20097 40174 54/// 885// 333 20105 31/// 50030 55080 56699 88630=
85586,2000,07,06,15,00,AAXX 06154 85586 42560 73202 10125 20097 40179 52006 87500 333 56600 87630=
85586,2000,07,06,18,00,AAXX 06184 85586 32560 72706 10133 20104 40169 58010 82531 333 56666 82630 83365=
85586,2000,07,06,21,00,AAXX 06214 85586 42560 73204 10126 20100 40173 55004 82530 333 56660 82630=
85586,2000,07,07,00,00,AAXX 07004 85586 11320 80000 10114 20105 40187 52014 60021 75152 886// 333 10144 56699 88708=
85586,2000,07,07,03,00,AAXX 07034 85586 NIL=
85586,2000,07,07,06,00,AAXX 07064 85586 NIL=
85586,2000,07,07,09,00,AAXX 07094 85586 NIL=
85586,2000,07,07,12,00,AAXX 07124 85586 11560 80000 10106 20100 40191 52/// 60124 7026/ 8453/ 333 20106 32/// 50050 55008 56669 70124 84620 88362=
85586,2000,07,07,18,00,AAXX 07184 85586 42560 70902 10129 20098 40186 50007 83530 333 56660 83620 87362=
85586,2000,07,07,21,00,AAXX 07214 85586 42460 71202 10125 20097 40179 57007 84830 333 56660 81815 84620 86362=
85586,2000,07,08,00,00,AAXX 08004 85586 32960 71302 10092 20080 40188 55008 83031 333 10135 56066 83365 84075=
85586,2000,07,08,03,00,AAXX 08034 85586 NIL=
85586,2000,07,08,06,00,AAXX 08064 85586 NIL=
85586,2000,07,08,09,00,AAXX 08094 85586 NIL=
85586,2000,07,08,12,00,AAXX 08124 85586 32960 00904 10033 20023 40189 57/// 333 20026 32/// 50040 55001=
85586,2000,07,08,15,00,AAXX 08154 85586 41240 20902 10086 20076 40196 53008 71041 82600 333 56200 82704=
85586,2000,07,08,18,00,AAXX 08184 85586 32460 52309 10130 20093 40175 57019 82201 333 56606 82815 83073=
85586,2000,07,08,21,00,AAXX 08214 85586 42460 52105 10118 20069 40175 55000 81101 333 56606 81815=
85586,2000,07,09,00,00,AAXX 09004 85586 32960 51801 10086 20063 40173 56003 80001 333 10134 56006 85075=
85586,2000,07,09,03,00,AAXX 09034 85586 NIL=
85586,2000,07,09,06,00,AAXX 09064 85586 NIL=
85586,2000,07,09,09,00,AAXX 09094 85586 NIL=
85586,2000,07,09,12,00,AAXX 09124 85586 32560 51202 10026 20016 40157 57/// 81501 333 20010 32/// 50210 55064 56506 81520 85075=
85586,2000,07,09,15,00,AAXX 09154 85586 42960 10803 10083 20065 40179 52014 80001 333 56005 81075=
85586,2000,07,09,18,00,AAXX 09184 85586 31460 22704 10115 20065 40179 50001 70341 81201 333 56505 81815 81075=
85586,2000,07,09,21,00,AAXX 09214 85586 42460 22202 10119 20094 40179 55000 81250 333 56560 81817 82358=
85586,2000,07,10,00,00,AAXX 10004 85586 32860 11002 10056 20048 40196 52015 81050 333 10121 56060 81358=
85586,2000,07,10,03,00,AAXX 10034 85586 NIL=
85586,2000,07,10,06,00,AAXX 10064 85586 NIL=
85586,2000,07,10,09,00,AAXX 10094 85586 NIL=
85586,2000,07,10,12,00,AAXX 10124 85586 32560 40906 10037 20028 40237 52/// 81501 333 20032 32/// 50100 55077 56406 81620 84075=
85586,2000,07,10,15,00,AAXX 10154 85586 42560 20902 10108 20058 40239 52005 81501 333 56506 81620=
85586,2000,07,10,18,00,AAXX 10184 85586 32560 42806 10130 20061 40239 54000 84800 333 56500 82820 83623=
85586,2000,07,11,00,00,AAXX 11004 85586 42960 20000 10052 20032 40252 52008 80001 333 10132 56006 82075=
85586,2000,07,11,03,00,AAXX 11034 85586 NIL=
85586,2000,07,11,06,00,AAXX 11064 85586 NIL=
85586,2000,07,11,09,00,AAXX 11094 85586 NIL=
85586,2000,07,11,12,00,AAXX 11124 85586 32965 01103 10030 20018 40270 52/// 333 20027 31/// 50070 55077=
85586,2000,07,11,15,00,AAXX 11154 85586 42965 01202 10114 20054 40279 52012=
85586,2000,07,11,18,00,AAXX 11184 85586 32965 02306 10238 20047 40269 58009=
85586,2000,07,11,21,00,AAXX 11214 85586 42965 02108 10122 20063 40267 53002=
85586,2000,07,12,00,00,AAXX 12004 85586 32965 01101 10065 20033 40273 53003 333 10142=
85586,2000,07,12,03,00,AAXX 12034 85586 NIL=
85586,2000,07,12,06,00,AAXX 12064 85586 NIL=
85586,2000,07,12,09,00,AAXX 12094 85586 NIL=
85586,2000,07,12,12,00,AAXX 12124 85586 32960 01004 10030 20015 40265 57/// 333 20025 31/// 50070 55084=
85586,2000,07,12,15,00,AAXX 12154 85586 42960 01006 10107 20046 40254 57008=
85586,2000,07,12,18,00,AAXX 12184 85586 32960 01308 10148 20030 40228 57025=
85586,2000,07,12,21,00,AAXX 12214 85586 42960 01306 10148 20021 40215 57013=
85586,2000,07,13,00,00,AAXX 13004 85586 32960 01705 10100 20033 40215 54002 333 10162=
85586,2000,07,13,03,00,AAXX 13034 85586 NIL=
85586,2000,07,13,06,00,AAXX 13064 85586 NIL=
85586,2000,07,13,09,00,AAXX 13094 85586 NIL=
85586,2000,07,13,12,00,AAXX 13124 85586 32960 21305 10064 20019 40177 57/// 80001 333 20055 31/// 50090 55082 56005 82073=
85586,2000,07,13,15,00,AAXX 13154 85586 42960 60904 10141 20039 40180 51005 80001 333 56005 86073=
85586,2000,07,13,18,00,AAXX 13184 85586 32960 52308 10173 20083 40166 57013 80004 333 56005 85073=
85586,2000,07,14,00,00,AAXX 14004 85586 32960 30000 10078 20054 40183 52013 80001 333 10181 56005 83073=
85586,2000,07,14,06,00,AAXX 14064 85586 NIL=
85586,2000,07,14,12,00,AAXX 14124 85586 32960 10000 10036 20021 40208 52/// 80001 333 20020 31/// 50100 55079 56005 81073=
85586,2000,07,14,15,00,AAXX 14154 85586 42960 30000 10119 20055 40221 52016 80001 333 56005 83073=
85586,2000,07,14,18,00,AAXX 14184 85586 32960 72304 10133 20052 40220 51001 86031 333 56055 86365 81073=
85586,2000,07,14,21,00,AAXX 14214 85586 42960 71603 10120 20061 40224 53004 86031 333 56055 86363 81073=
85586,2000,07,15,00,00,AAXX 15004 85586 32960 70000 10088 20064 40228 58003 86031 333 10140 56055 86363=
85586,2000,07,15,03,00,AAXX 15034 85586 NIL=
85586,2000,07,15,06,00,AAXX 15064 85586 NIL=
85586,2000,07,15,12,00,AAXX 15124 85586 32960 00802 11001 21005 40243 53/// 333 21001 34/// 50010 55029=
85586,2000,07,15,15,00,AAXX 15154 85586 41958 00000 10100 20070 40242 52004 70500=
85586,2000,07,15,18,00,AAXX 15184 85586 32960 02407 10143 20082 40222 57020=
85586,2000,07,15,21,00,AAXX 15214 85586 42960 02406 10133 20093 40210 57013=
85586,2000,07,16,00,00,AAXX 16004 85586 32960 00000 10070 20060 40214 53002 333 10143=
85586,2000,07,16,03,00,AAXX 16034 85586 NIL=
85586,2000,07,16,06,00,AAXX 16064 85586 NIL=
85586,2000,07,16,09,00,AAXX 16094 85586 NIL=
85586,2000,07,16,12,00,AAXX 16124 85586 32960 00902 10026 20016 40176 57/// 333 20018 32/// 50110 55082=
85586,2000,07,16,15,00,AAXX 16154 85586 42960 02402 10118 20081 40171 54002=
85586,2000,07,16,18,00,AAXX 16184 85586 32960 02508 10136 20080 40146 57025=
85586,2000,07,16,21,00,AAXX 16214 85586 42960 02602 10139 20091 40144 54002=
85586,2000,07,17,00,00,AAXX 17004 85586 32960 60904 10088 20074 40152 53007 80001 333 10150 56006 86075=
85586,2000,07,17,03,00,AAXX 17034 85586 NIL=
85586,2000,07,17,06,00,AAXX 17064 85586 NIL=
85586,2000,07,17,09,00,AAXX 17094 85586 NIL=
85586,2000,07,17,12,00,AAXX 17124 85586 32960 61202 10056 20045 40194 52/// 84031 333 20050 31/// 50110 55078 56066 84365 83075=
85586,2000,07,17,15,00,AAXX 17154 85586 42960 40000 10124 20098 40205 52013 81031 333 56066 81365 83075=
85586,2000,07,17,18,00,AAXX 17184 85586 NIL=
85586,2000,07,17,21,00,AAXX 17214 85586 42960 62503 10139 20108 40202 51004 81034 333 56065 81365 86075=
85586,2000,07,18,00,00,AAXX 18004 85586 32960 71802 10116 20088 40212 51009 84034 333 10161 56065 84365 86075=
85586,2000,07,18,03,00,AAXX 18034 85586 NIL=
85586,2000,07,18,06,00,AAXX 18064 85586 NIL=
85586,2000,07,18,09,00,AAXX 18094 85586 NIL=
85586,2000,07,18,12,00,AAXX 18124 85586 32960 00000 10048 20041 40226 53/// 333 20030 31/// 50090 55068=
85586,2000,07,18,15,00,AAXX 18154 85586 42960 01104 10117 20079 40226 54002=
85586,2000,07,18,18,00,AAXX 18184 85586 32960 02108 10161 20081 40214 57009=
85586,2000,07,18,21,00,AAXX 18214 85586 42960 02408 10126 20085 40219 54002=
85586,2000,07,19,00,00,AAXX 19004 85586 32960 01801 10077 20040 40240 53020 333 10163=
85586,2000,07,19,03,00,AAXX 19034 85586 NIL=
85586,2000,07,19,06,00,AAXX 19064 85586 NIL=
85586,2000,07,19,09,00,AAXX 19094 85586 NIL=
85586,2000,07,19,12,00,AAXX 19124 85586 32960 10000 10039 20025 40248 53/// 80001 333 20005 31/// 50120 55085 56005 81075=
85586,2000,07,19,15,00,AAXX 19154 85586 42960 01003 10118 20071 40240 53005=
85586,2000,07,19,18,00,AAXX 19184 85586 32960 12305 10155 20089 40218 57021 80001 333 56006 81075=
85586,2000,07,19,21,00,AAXX 19214 85586 42960 12403 10148 20099 40206 57012 80001 333 56006 81075=
85586,2000,07,20,00,00,AAXX 20004 85586 32960 20000 10070 20053 40207 56002 80001 333 10162 56006 82075=
85586,2000,07,20,03,00,AAXX 20034 85586 NIL=
85586,2000,07,20,06,00,AAXX 20064 85586 NIL=
85586,2000,07,20,09,00,AAXX 20094 85586 NIL=
85586,2000,07,20,12,00,AAXX 20124 85586 32960 70000 10066 20058 40187 53/// 85031 333 20040 31/// 50100 55086 56055 85363=
85586,2000,07,20,15,00,AAXX 20154 85586 42960 70000 10115 20077 40193 51007=
85586,2000,07,20,18,00,AAXX 20184 85586 32960 70000 10124 20081 40175 57017 85031 333 56055 85363=
85586,2000,07,20,21,00,AAXX 20214 85586 41960 80904 10116 20089 40156 57019 76162 86031 333 56055 86363 82070=
85586,2000,07,21,00,00,AAXX 21004 85586 11560 82002 10106 20097 40179 57023 60021 72162 8357/ 333 10133 56559 83620 88362=
85586,2000,07,21,03,00,AAXX 21034 85586 NIL=
85586,2000,07,21,06,00,AAXX 21064 85586 NIL=
85586,2000,07,21,09,00,AAXX 21094 85586 NIL=
85586,2000,07,21,12,00,AAXX 21124 85586 12560 11702 10010 20000 40209 52/// 60024 81500 333 20010 32/// 50040 55001 56500 70023 81625=
85586,2000,07,21,15,00,AAXX 21154 85586 42560 11305 10095 20024 40226 52017 81500 333 56500 81625=
85586,2000,07,21,18,00,AAXX 21184 85586 32560 11808 10125 20018 40223 58002 81100 333 56500 81825=
85586,2000,07,21,21,00,AAXX 21214 85586 42560 11305 10117 20023 40216 55007 81500 333 56500 81625=
85586,2000,07,22,00,00,AAXX 22004 85586 32960 01602 10070 20031 40232 53014 333 10128=
85586,2000,07,22,03,00,AAXX 22034 85586 NIL=
85586,2000,07,22,06,00,AAXX 22064 85586 NIL=
85586,2000,07,22,09,00,AAXX 22094 85586 NIL=
85586,2000,07,22,12,00,AAXX 22124 85586 32960 10902 10014 20006 40279 52/// 80001 333 20004 34/// 50090 55087 56006 81075=
85586,2000,07,22,15,00,AAXX 22154 85586 42960 00102 10102 20037 40286 52010=
85586,2000,07,22,18,00,AAXX 22184 85586 32960 02412 10134 20059 40275 58009=
85586,2000,07,22,21,00,AAXX 22214 85586 42960 42406 10112 20073 40282 53006 83031 333 56066 83365=
85586,2000,07,23,00,00,AAXX 23004 85586 32960 41202 10076 40295 52011 83031 333 10136 56066 83365=
85586,2000,07,23,03,00,AAXX 23034 85586 NIL=
85586,2000,07,23,06,00,AAXX 23064 85586 NIL=
85586,2000,07,23,09,00,AAXX 23094 85586 NIL=
85586,2000,07,23,12,00,AAXX 23124 85586 32960 11006 10052 20037 40265 57/// 80001 333 20026 31/// 50120 55076 56006 81075=
85586,2000,07,23,15,00,AAXX 23154 85586 NIL=
85586,2000,07,23,18,00,AAXX 23184 85586 32960 12010 10145 20068 40215 57030 80001 333 56006 81075=
85586,2000,07,23,21,00,AAXX 23214 85586 42960 42306 10133 20088 40204 57011 80001 333 56006 84075=
85586,2000,07,24,00,00,AAXX 24004 85586 32960 20000 10072 20060 40209 53002 80001 333 10170 56006 82075=
85586,2000,07,24,03,00,AAXX 24034 85586 NIL=
85586,2000,07,24,06,00,AAXX 24064 85586 NIL=
85586,2000,07,24,09,00,AAXX 24094 85586 NIL=
85586,2000,07,24,12,00,AAXX 24124 85586 32960 21602 10039 20035 40213 54/// 80001 333 20025 31/// 50110 55093 56005 82075=
85586,2000,07,24,15,00,AAXX 24154 85586 42960 62405 10108 20060 40216 53006 80001 333 56005 86075=
85586,2000,07,24,18,00,AAXX 24184 85586 32960 22506 10157 20089 40194 58021 80001 333 56005 82075=
85586,2000,07,24,21,00,AAXX 24214 85586 42960 12305 10149 20104 40190 57004 80001 333 56005 81075=
85586,2000,07,25,00,00,AAXX 25004 85586 32960 00000 10067 20042 40203 51010 333 10163=
85586,2000,07,25,03,00,AAXX 25034 85586 NIL=
85586,2000,07,25,06,00,AAXX 25064 85586 NIL=
85586,2000,07,25,09,00,AAXX 25094 85586 NIL=
85586,2000,07,25,12,00,AAXX 25124 85586 32960 41206 10064 20047 40177 57/// 80001 333 20042 31/// 50130 55087 56006 84075=
85586,2000,07,25,15,00,AAXX 25154 85586 42960 21003 10138 20096 40178 53003 80001 333 56006 82075=
85586,2000,07,25,18,00,AAXX 25184 85586 32960 12604 10204 20107 40143 57033 80001 333 56005 81075=
85586,2000,07,25,21,00,AAXX 25214 85586 42960 12208 10141 20094 40147 53002 80001 333 56005 81075=
85586,2000,07,26,00,00,AAXX 26004 85586 32960 00000 10093 20081 40156 52008 333 10204=
85586,2000,07,26,03,00,AAXX 26034 85586 NIL=
85586,2000,07,26,06,00,AAXX 26064 85586 NIL=
85586,2000,07,26,09,00,AAXX 26094 85586 NIL=
85586,2000,07,26,12,00,AAXX 26124 85586 32960 00802 10019 20014 40145 53/// 333 20019 31/// 50110 55089=
85586,2000,07,26,15,00,AAXX 26154 85586 42960 02202 10123 20096 40157 52015=
85586,2000,07,26,18,00,AAXX 26184 85586 32960 02307 10147 20097 40154 58003=
85586,2000,07,26,21,00,AAXX 26214 85586 42960 02902 10152 20101 40159 53005=
85586,2000,07,27,00,00,AAXX 27004 85586 32960 00000 10084 20067 40176 52016 333 10154=
85586,2000,07,27,03,00,AAXX 27034 85586 NIL=
85586,2000,07,27,06,00,AAXX 27064 85586 NIL=
85586,2000,07,27,09,00,AAXX 27094 85586 NIL=
85586,2000,07,27,12,00,AAXX 27124 85586 32960 20000 10040 20031 40206 52/// 80001 333 20025 31/// 50130 55092 56005 82075=
85586,2000,07,27,15,00,AAXX 27154 85586 42960 11902 10139 20081 40207 51005 80001 333 56005 81075=
85586,2000,07,27,18,00,AAXX 27184 85586 32960 21808 10179 20076 40187 57018 80001 333 56005 82075=
85586,2000,07,27,21,00,AAXX 27214 85586 42960 22106 10153 20085 40184 56004 80001 333 56005 82075=
85586,2000,07,28,00,00,AAXX 28004 85586 32960 21705 10109 20059 40196 52011 80001 333 10182 56005 82075=
85586,2000,07,28,03,00,AAXX 28034 85586 NIL=
85586,2000,07,28,06,00,AAXX 28064 85586 NIL=
85586,2000,07,28,09,00,AAXX 28094 85586 NIL=
85586,2000,07,28,12,00,AAXX 28124 85586 32960 30000 10052 20039 40187 57/// 80001 333 20052 31/// 50140 55094 56006 83075=
85586,2000,07,28,15,00,AAXX 28154 85586 42960 12402 10114 20071 40191 51005 80001 333 56006 81075=
85586,2000,07,28,18,00,AAXX 28184 85586 32960 02407 10137 20072 40170 57020=
85586,2000,07,28,21,00,AAXX 28214 85586 42960 02207 10123 20073 40170 54000=
85586,2000,07,29,00,00,AAXX 29004 85586 32960 00502 10070 20058 40183 52011 333 10144=
85586,2000,07,29,03,00,AAXX 29034 85586 NIL=
85586,2000,07,29,06,00,AAXX 29064 85586 NIL=
85586,2000,07,29,09,00,AAXX 29094 85586 NIL=
85586,2000,07,29,12,00,AAXX 29124 85586 32460 70902 10076 20066 40198 52/// 87500 333 20027 31/// 50150 55092 56700 87618=
85586,2000,07,29,15,00,AAXX 29154 85586 42560 73602 10105 20076 40206 52008 87500 333 56700 87620=
85586,2000,07,29,18,00,AAXX 29184 85586 32560 83503 10111 20076 40193 58012 885// 333 56799 88620=
85586,2000,07,29,21,00,AAXX 29214 85586 41560 82602 10105 20072 40197 53004 70522 885// 333 56799 88620=
85586,2000,07,30,00,00,AAXX 30004 85586 32560 70000 10095 20064 40201 51003 87500 333 10113 56700 87620=
85586,2000,07,30,03,00,AAXX 30034 85586 NIL=
85586,2000,07,30,06,00,AAXX 30064 85586 NIL=
85586,2000,07,30,09,00,AAXX 30094 85586 NIL=
85586,2000,07,30,12,00,AAXX 30124 85586 31460 81703 10088 20072 40189 56/// 7052/ 886// 333 20088 31/// 50080 55000 56799 88610=
85586,2000,07,30,15,00,AAXX 30154 85586 41456 81302 10097 20073 40209 52019 70522 886// 333 56799 88610=
85586,2000,07,30,18,00,AAXX 30184 85586 31956 10902 10130 20093 40194 58014 70522 80001 333 56006 81070=
85586,2000,07,30,21,00,AAXX 30214 85586 41957 12305 10113 20089 40180 57013 70500 80001 333 56006 81070=
85586,2000,07,31,00,00,AAXX 31004 85586 31957 00000 10061 20055 40180 54002 80001 333 10132=
85586,2000,07,31,03,00,AAXX 31034 85586 NIL=
85586,2000,07,31,06,00,AAXX 31064 85586 NIL=
85586,2000,07,31,09,00,AAXX 31094 85586 NIL=
85586,2000,07,31,12,00,AAXX 31124 85586 31008 80000 10075 20071 40187 54/// 7454/ 886// 333 20032 31/// 50100 55047 56699 88701=
85586,2000,07,31,15,00,AAXX 31154 85586 41130 80000 10088 20081 40202 52014 71042 886// 333 56699 88703=
85586,2000,07,31,18,00,AAXX 31184 85586 31250 82502 10100 20085 40194 58007 71142 886// 333 56699 88706=
85586,2000,07,31,21,00,AAXX 31214 85586 42560 82502 10103 20076 40211 53016 885// 333 56699 88620=
85586,2000,08,01,00,00,AAXX 01004 85586 32560 70000 10091 20069 40213 51003 86530 333 10109 56660 82363=
85586,2000,08,01,03,00,AAXX 01034 85586 NIL=
85586,2000,08,01,06,00,AAXX 01064 85586 NIL=
85586,2000,08,01,09,00,AAXX 01094 85586 NIL=
85586,2000,08,01,12,00,AAXX 01124 85586 31558 11101 10053 20046 40227 52/// 7100/ 81500 333 20046 31/// 50090 55000 56600 81625=
85586,2000,08,01,15,00,AAXX 01154 85586 42560 50000 10123 20090 40239 52014 82501 333 56605 82625 83073=
85586,2000,08,01,18,00,AAXX 01184 85586 32560 72303 10135 20099 40229 58009 85501 333 56605 85625 82073=
85586,2000,08,01,21,00,AAXX 01214 85586 41440 82210 10114 20103 40232 53002 71022 886// 333 56599 88710=
85586,2000,08,02,00,00,AAXX 02004 85586 31456 81004 10113 20102 40234 54002 71022 886// 333 10149 56099 88710=
85586,2000,08,02,03,00,AAXX 02034 85586 NIL=
85586,2000,08,02,06,00,AAXX 02064 85586 NIL=
85586,2000,08,02,09,00,AAXX 02094 85586 NIL=
85586,2000,08,02,12,00,AAXX 02124 85586 31458 51305 10083 20077 40205 57/// 82601 333 20075 31/// 50110 55024 56605 82708 83073=
85586,2000,08,02,15,00,AAXX 02154 85586 41958 61505 10126 20097 40201 55003 70521 80001 333 56005 86073=
85586,2000,08,02,18,00,AAXX 02184 85586 32958 32308 10142 20089 40178 57022 80001 333 56005 83073=
85586,2000,08,02,21,00,AAXX 02214 85586 42960 32307 10123 20075 40175 56003 80001 333 56005 83073=
85586,2000,08,03,00,00,AAXX 03004 85586 32960 10603 10077 20064 40176 50000 80001 333 10157 56005 81073=
85586,2000,08,03,03,00,AAXX 03034 85586 NIL=
85586,2000,08,03,06,00,AAXX 03064 85586 NIL=
85586,2000,08,03,12,00,AAXX 03124 85586 31925 61002 10044 20034 40157 57/// 71011 80001 333 20022 31/// 50140 55093 56006 86075=
85586,2000,08,03,15,00,AAXX 03154 85586 41958 23103 10107 20091 40173 53019 70511 80001 333 56006 82075=
85586,2000,08,03,18,00,AAXX 03184 85586 31558 43106 10116 20096 40171 54002 70511 82501 333 56706 82620 83075=
85586,2000,08,03,21,00,AAXX 03214 85586 42560 52801 10116 20093 40178 53007 83501 333 56606 83620 83075=
85586,2000,08,04,00,00,AAXX 04004 85586 32560 80000 10104 20093 40189 52010 886// 333 10128 56099 86620=
85586,2000,08,04,03,00,AAXX 04034 85586 NIL=
85586,2000,08,04,06,00,AAXX 04064 85586 NIL=
85586,2000,08,04,09,00,AAXX 04094 85586 NIL=
85586,2000,08,04,12,00,AAXX 04124 85586 31558 60000 10089 20075 40212 52/// 7052/ 86500 333 20089 31/// 50100 55078 56600 86620=
85586,2000,08,04,15,00,AAXX 04154 85586 42560 72305 10117 20068 40220 52009 83530 333 56660 83620 86362=
85586,2000,08,04,18,00,AAXX 04184 85586 32560 52602 10134 20060 40213 58007 83530 333 56660 83620 82362=
85586,2000,08,04,21,00,AAXX 04214 85586 42560 42304 10117 20074 40215 53002 81530 333 56660 81620 83362=
85586,2000,08,05,00,00,AAXX 05004 85586 32960 11702 10079 20059 40224 52009 81030 333 10136 56060 81362=
85586,2000,08,05,03,00,AAXX 05034 85586 NIL=
85586,2000,08,05,06,00,AAXX 05064 85586 NIL=
85586,2000,08,05,09,00,AAXX 05094 85586 NIL=
85586,2000,08,05,12,00,AAXX 05124 85586 31940 70804 10054 20048 40253 52/// 7102/ 86031 333 20054 31/// 50110 55049 56066 86362 81075=
85586,2000,08,05,15,00,AAXX 05154 85586 41958 60803 10126 20093 40251 54000 70522 82031 333 56066 82362 84075=
85586,2000,08,05,18,00,AAXX 05184 85586 31958 52304 10143 20073 40233 58017 70522 83031 333 56066 83362 82075=
85586,2000,08,05,21,00,AAXX 05214 85586 41958 72306 10126 20081 40227 57007 70522=
85586,2000,08,06,00,00,AAXX 06004 85586 31958 72301 10110 20092 40227 54000 70522 86031 333 10146 56066 86362 81075=
85586,2000,08,06,03,00,AAXX 06034 85586 NIL=
85586,2000,08,06,06,00,AAXX 06064 85586 NIL=
85586,2000,08,06,09,00,AAXX 06094 85586 NIL=
85586,2000,08,06,12,00,AAXX 06124 85586 32960 41101 10061 20053 40215 53/// 80001 333 20055 31/// 50130 55077 56005 84072=
85586,2000,08,06,15,00,AAXX 06154 85586 42960 42305 10140 20096 40227 52015 80001 333 56005 84072=
85586,2000,08,06,18,00,AAXX 06184 85586 32960 42308 10149 20114 40213 58014 80001 333 56005 84072=
85586,2000,08,06,21,00,AAXX 06214 85586 41110 42205 10135 20119 40210 56003 74011 81601 333 56605 81703 83072=
85586,2000,08,07,00,00,AAXX 07004 85586 31903 20000 10109 20105 40223 52012 74441 80001 333 10160 56005 82072=
85586,2000,08,07,03,00,AAXX 07034 85586 NIL=
85586,2000,08,07,06,00,AAXX 07064 85586 NIL=
85586,2000,08,07,09,00,AAXX 07094 85586 NIL=
85586,2000,08,07,12,00,AAXX 07124 85586 31915 01102 10084 20080 40202 57/// 7404/ 333 20084 31/// 50100 55087=
85586,2000,08,07,15,00,AAXX 07154 85586 42960 01704 10165 20132 40201 54001=
85586,2000,08,07,18,00,AAXX 07184 85586 32960 02405 10181 20130 40176 57024=
85586,2000,08,07,21,00,AAXX 07214 85586 42960 01705 10201 20134 40162 57013=
85586,2000,08,08,00,00,AAXX 08004 85586 32960 01604 10142 20117 40167 57010 333 10208=
85586,2000,08,08,03,00,AAXX 08034 85586 NIL=
85586,2000,08,08,06,00,AAXX 08064 85586 NIL=
85586,2000,08,08,09,00,AAXX 08094 85586 NIL=
85586,2000,08,08,12,00,AAXX 08124 85586 32960 51803 10081 20073 40194 52/// 80001 333 20075 31/// 50120 55097 56005 85075=
85586,2000,08,08,18,00,AAXX 08184 85586 32960 51508 10204 20016 40193 58012 80001 333 56005 85075=
85586,2000,08,08,21,00,AAXX 08214 85586 42960 51406 10200 20007 40190 57014 80001 333 56005=
85586,2000,08,09,00,00,AAXX 09004 85586 32960 21602 10113 20046 40195 53003 80001 333 10207 56005 82075=
85586,2000,08,09,03,00,AAXX 09034 85586 NIL=
85586,2000,08,09,06,00,AAXX 09064 85586 NIL=
85586,2000,08,09,09,00,AAXX 09094 85586 NIL=
85586,2000,08,09,12,00,AAXX 09124 85586 32960 01604 10074 20056 40181 57/// 333 20060 30/// 50140 55094=
85586,2000,08,09,15,00,AAXX 09154 85586 42960 21710 10144 20074 40167 57012 80001 333 56006 82075=
85586,2000,08,09,18,00,AAXX 09184 85586 32960 21707 10178 20069 40148 57018 80001 333 56006 82075=
85586,2000,08,09,21,00,AAXX 09214 85586 42960 42305 10140 20083 40141 56008 80001 333 56006 84075=
85586,2000,08,10,00,00,AAXX 10004 85586 32960 03603 10088 20076 40156 53014 333 10181=
85586,2000,08,10,03,00,AAXX 10034 85586 NIL=
85586,2000,08,10,06,00,AAXX 10064 85586 NIL=
85586,2000,08,10,09,00,AAXX 10094 85586 NIL=
85586,2000,08,10,12,00,AAXX 10124 85586 32460 70000 10055 20048 40151 57/// 87600 333 20021 30/// 50130 55100 56600 87712=
85586,2000,08,10,15,00,AAXX 10154 85586 42460 62705 10114 20090 40156 53007 81501 333 56605 81615=
85586,2000,08,10,18,00,AAXX 10184 85586 31460 83004 10131 20094 40157 58001 70522 885// 333 56699 88615=
85586,2000,08,10,21,00,AAXX 10214 85586 42460 70207 10144 20094 40148 58009 82530 333 56650 82615=
85586,2000,08,11,00,00,AAXX 11004 85586 32960 70602 10114 20078 40161 55013 83031 333 10149 56055 83363 84075=
85586,2000,08,11,03,00,AAXX 11034 85586 NIL=
85586,2000,08,11,06,00,AAXX 11064 85586 NIL=
85586,2000,08,11,09,00,AAXX 11094 85586 NIL=
85586,2000,08,11,12,00,AAXX 11124 85586 32960 50904 10066 20056 40177 52/// 83031 333 20066 30/// 50150 55024 56055 83363 82075=
85586,2000,08,11,15,00,AAXX 11154 85586 42560 43208 10166 20098 40194 52020 82531 333 56555 82620=
85586,2000,08,11,18,00,AAXX 11184 85586 32560 53208 10179 20101 40190 51004 85500 333 56500 85620=
85586,2000,08,11,21,00,AAXX 11214 85586 42560 53204 10158 20100 40188 57002=
85586,2000,08,12,00,00,AAXX 12004 85586 32560 70000 10136 20109 40199 55010 87500 333 10185 56500 87620=
85586,2000,08,12,03,00,AAXX 12034 85586 NIL=
85586,2000,08,12,06,00,AAXX 12064 85586 NIL=
85586,2000,08,12,09,00,AAXX 12094 85586 NIL=
85586,2000,08,12,12,00,AAXX 12124 85586 32560 73502 10127 20093 40183 57/// 87500 333 20122 30/// 50190 55058 56500 87630=
85586,2000,08,12,15,00,AAXX 12154 85586 42560 63205 10150 20091 40185 50002 86500 333 56500 86630=
85586,2000,08,12,18,00,AAXX 12184 85586 32560 63008 10150 20098 40180 56005 82531 333 56566 82630 82363 83075=
85586,2000,08,12,21,00,AAXX 12214 85586 42560 42707 10154 20084 40180 54000 82501 333 56506 82630=
85586,2000,08,13,00,00,AAXX 13004 85586 32560 10801 10093 20082 40182 54001 81500 333 10161 56500 81630=
85586,2000,08,13,03,00,AAXX 13034 85586 NIL=
85586,2000,08,13,06,00,AAXX 13064 85586 NIL=
85586,2000,08,13,09,00,AAXX 13094 85586 NIL=
85586,2000,08,13,12,00,AAXX 13124 85586 32960 60901 10059 20053 40161 53/// 82031 333 20055 30/// 50130 55079 56055 82363 84070=
85586,2000,08,13,15,00,AAXX 13154 85586 42560 13001 10147 20101 40181 52022 81100 333 56000 81827=
85586,2000,08,13,18,00,AAXX 13184 85586 32560 42505 10143 20090 40173 58008 81130 333 56050 81827 83365=
85586,2000,08,13,21,00,AAXX 13214 85586 42560 32302 10138 20099 40171 54002 81101 333 56005 81827=
85586,2000,08,14,00,00,AAXX 14004 85586 32960 00000 10091 20074 40190 52018 333 10154=
85586,2000,08,14,03,00,AAXX 14034 85586 NIL=
85586,2000,08,14,06,00,AAXX 14064 85586 NIL=
85586,2000,08,14,09,00,AAXX 14094 85586 NIL=
85586,2000,08,14,12,00,AAXX 14124 85586 32560 70000 10105 20072 40233 52/// 82530 333 20070 30/// 50140 55088 56650 82625 85362=
85586,2000,08,14,15,00,AAXX 14154 85586 42560 70503 10134 20082 40252 52019 82530 333 56650 82627 86359=
85586,2000,08,14,18,00,AAXX 14184 85586 32560 72906 10157 20077 40249 56002 82530 333 56650 82627 86359=
85586,2000,08,14,21,00,AAXX 14214 85586 42560 73003 10140 20080 40246 55003 82530 333 56650 82627 86359=
85586,2000,08,15,00,00,AAXX 15004 85586 32960 20000 10103 20082 40255 52007 82030 333 10157 56050 82359=
85586,2000,08,15,03,00,AAXX 15034 85586 NIL=
85586,2000,08,15,06,00,AAXX 15064 85586 NIL=
85586,2000,08,15,09,00,AAXX 15094 85586 NIL=
85586,2000,08,15,12,00,AAXX 15124 85586 32960 61204 10070 20062 40221 57/// 80002 333 20054 30/// 50100 55006 86075=
85586,2000,08,15,15,00,AAXX 15154 85586 42960 83501 10129 20083 40220 54001 83032 333 56066 83365 87075=
85586,2000,08,15,18,00,AAXX 15184 85586 ///// 82506 10150 20096 40202 57017 83032 333 56066 83363 87075=
85586,2000,08,15,21,00,AAXX 15214 85586 42560 82104 10136 20104 40198 56004 81532 333 56566 81630 83361=
85586,2000,08,16,00,00,AAXX 16004 85586 32960 60000 10102 20087 40196 57004 82032 333 10170 56066 82362 85075=
85586,2000,08,16,03,00,AAXX 16034 85586 NIL=
85586,2000,08,16,06,00,AAXX 16064 85586 NIL=
85586,2000,08,16,09,00,AAXX 16094 85586 NIL=
85586,2000,08,16,12,00,AAXX 16124 85586 31958 61302 10058 20050 40203 53/// 7102/ 86030 333 20038 30/// 50120 55008 56060 86362=
85586,2000,08,16,15,00,AAXX 16154 85586 41959 61207 10136 20081 40202 50002 70522 84031 333 56065 84362 83075=
85586,2000,08,16,18,00,AAXX 16184 85586 32960 72107 10143 20101 40190 57012 83034 333 56065 83362 85075=
85586,2000,08,16,21,00,AAXX 16214 85586 42960 71403 10175 20107 40176 56013 83034 333 56065 83362=
85586,2000,08,17,00,00,AAXX 17004 85586 32960 71603 10135 20092 40181 52005 83034 333 10177 56065 83362 85075=
85586,2000,08,17,03,00,AAXX 17034 85586 NIL=
85586,2000,08,17,06,00,AAXX 17064 85586 NIL=
85586,2000,08,17,09,00,AAXX 17094 85586 NIL=
85586,2000,08,17,12,00,AAXX 17124 85586 32960 41205 10082 20068 40185 52/// 80001 333 20053 30/// 50140 55023 56005 84073=
85586,2000,08,17,15,00,AAXX 17154 85586 42960 62105 10161 20096 40178 58005 80001 333 56005 86073=
85586,2000,08,17,18,00,AAXX 17184 85586 32960 42406 10168 20121 40166 57012 80001 333 56005 84073=
85586,2000,08,17,21,00,AAXX 17214 85586 42960 30000 10156 20113 40161 57005 80001 333 56005 83073=
85586,2000,08,18,00,00,AAXX 18004 85586 32960 30000 10112 20095 40162 54000 80001 333 10200 56005 83073=
85586,2000,08,18,03,00,AAXX 18034 85586 NIL=
85586,2000,08,18,06,00,AAXX 18064 85586 NIL=
85586,2000,08,18,09,00,AAXX 18094 85586 NIL=
85586,2000,08,18,12,00,AAXX 18124 85586 31958 31103 10083 20075 40139 57/// 7101/ 80001 333 20059 30/// 50120 55090 56005 83073=
85586,2000,08,18,15,00,AAXX 18154 85586 41958 32504 10145 20103 40157 52019 70511 80001 333 56005 83073=
85586,2000,08,18,18,00,AAXX 18184 85586 31106 82606 10130 20115 40156 58001 74711 886// 333 56699 88703=
85586,2000,08,18,21,00,AAXX 18214 85586 41105 82303 10112 20104 40157 53001 74742 886// 333 56699 88703=
85586,2000,08,19,00,00,AAXX 19004 85586 31106 83402 10101 20092 40177 53017 74542 886// 333 10149 56699 88703=
85586,2000,08,19,03,00,AAXX 19034 85586 NIL=
85586,2000,08,19,06,00,AAXX 19064 85586 NIL=
85586,2000,08,19,09,00,AAXX 19094 85586 NIL=
85586,2000,08,19,12,00,AAXX 19124 85586 11230 80503 10094 20083 40190 53/// 69904 7515/ 886// 333 20093 31/// 50150 555057 56699 70000 88704=
85586,2000,08,19,15,00,AAXX 19154 85586 41460 80000 10107 20091 40186 51003 70252 886// 333 56699 88710=
85586,2000,08,19,18,00,AAXX 19184 85586 31458 72605 10125 20095 40172 57014 70522 83508 333 56606 83615 87273=
85586,2000,08,19,21,00,AAXX 19214 85586 41458 82405 10111 20092 40183 53011 70522 885// 333 56699 88615=
85586,2000,08,20,00,00,AAXX 20004 85586 31458 80000 10109 20094 40178 58005 70522 885// 333 10134 56699 88615=
85586,2000,08,20,03,00,AAXX 20034 85586 NIL=
85586,2000,08,20,06,00,AAXX 20064 85586 NIL=
85586,2000,08,20,09,00,AAXX 20094 85586 NIL=
85586,2000,08,20,12,00,AAXX 20124 85586 NIL=
85586,2000,08,20,15,00,AAXX 20154 85586 41220 83201 10097 20089 40167 52006 71042 886// 333 56799 88705=
85586,2000,08,20,18,00,AAXX 20184 85586 31340 82904 10107 20092 40155 57011 71042 886// 333 56799 88707=
85586,2000,08,20,21,00,AAXX 20214 85586 41340 80000 10103 20092 40149 57007 71022 886// 333 56799 88708=
85586,2000,08,21,00,00,AAXX 21004 85586 31340 80000 10098 20092 40150 53001 71022 886// 333 10108 56799 88708=
85586,2000,08,21,03,00,AAXX 21034 85586 NIL=
85586,2000,08,21,06,00,AAXX 21064 85586 NIL=
85586,2000,08,21,09,00,AAXX 21094 85586 NIL=
85586,2000,08,21,12,00,AAXX 21124 85586 32560 80403 10099 20088 40144 53/// 885// 333 20089 30/// 50110 55000 56199 88620=
85586,2000,08,21,15,00,AAXX 21154 85586 42560 83603 10118 20097 40159 52/// 885// 333 56899 88620=
85586,2000,08,21,18,00,AAXX 21184 85586 32560 72404 10150 20105 40151 57008 83530 333 56560 83625 85365=
85586,2000,08,21,21,00,AAXX 21214 85586 42560 83006 10138 20102 40150 54001 8253/ 333 56569 82625 86365=
85586,2000,08,22,00,00,AAXX 22004 85586 32560 82702 10122 20106 40156 53006 854// 333 10150 56599 88617=
85586,2000,08,22,03,00,AAXX 22034 85586 NIL=
85586,2000,08,22,06,00,AAXX 22064 85586 NIL=
85586,2000,08,22,09,00,AAXX 22094 85586 NIL=
85586,2000,08,22,12,00,AAXX 22124 85586 31558 70000 10112 20099 40162 52/// 7102/ 87500 333 20100 30/// 50080 55020 56600 87623=
85586,2000,08,22,15,00,AAXX 22154 85586 42560 73202 10144 20100 40172 52010 87500 333 56600 87625=
85586,2000,08,22,18,00,AAXX 22184 85586 32560 72405 10156 20108 40160 57011 85504 333 56605 85625 82073=
85586,2000,08,22,21,00,AAXX 22214 85586 42560 72703 10133 20106 40158 57004 82501 333 56605 82625 85073=
85586,2000,08,23,00,00,AAXX 23004 85586 32960 00000 10090 20070 40150 57005 333 10159=
85586,2000,08,23,03,00,AAXX 23034 85586 NIL=
85586,2000,08,23,06,00,AAXX 23064 85586 NIL=
85586,2000,08,23,09,00,AAXX 23094 85586 NIL=
85586,2000,08,23,12,00,AAXX 23124 85586 32560 60000 10118 20105 40167 53/// 86500 333 20057 30/// 50090 55034 56600 88627=
85586,2000,08,23,15,00,AAXX 23154 85586 41560 83606 10138 20112 40184 52017 76062 885// 333 56799 88625=
85586,2000,08,23,18,00,AAXX 23184 85586 11560 32704 10164 20115 40181 54002 69931 70161 83200 333 56000 83827=
85586,2000,08,23,21,00,AAXX 23214 85586 42560 22706 10153 20112 40178 57004 82200 333 56000 82827=
85586,2000,08,24,00,00,AAXX 24004 85586 32460 50000 10118 20107 40181 53003 85500 333 10165 56600 85615=
85586,2000,08,24,03,00,AAXX 24034 85586 NIL=
85586,2000,08,24,06,00,AAXX 24064 85586 NIL=
85586,2000,08,24,09,00,AAXX 24094 85586 NIL=
85586,2000,08,24,12,00,AAXX 24124 85586 11901 01202 10073 20067 40162 53/// 69934 7444/ 333 20050 30/// 50110 55059 70003=
85586,2000,08,24,15,00,AAXX 24154 85586 41230 73302 10111 20102 40183 52018 71042 87600 333 56600 87704=
85586,2000,08,24,18,00,AAXX 24184 85586 31458 62004 10130 20101 40192 52009 70542 85501 333 56606 85610 81073=
85586,2000,08,24,21,00,AAXX 24214 85586 42460 72703 10121 20095 40190 54001 87500 333 56600 87615=
85586,2000,08,25,00,00,AAXX 25004 85586 32460 40000 10106 20087 40201 51010 84500 333 10137 56600 84615=
85586,2000,08,25,03,00,AAXX 25034 85586 NIL=
85586,2000,08,25,06,00,AAXX 25064 85586 NIL=
85586,2000,08,25,09,00,AAXX 25094 85586 NIL=
85586,2000,08,25,12,00,AAXX 25124 85586 31902 20902 10060 20056 40204 57/// 7464/ 80001 333 20040 31/// 50160 55021 56006 82073=
85586,2000,08,25,15,00,AAXX 25154 85586 41258 12403 10127 20098 40210 52008 81600 333 56600 81706=
85586,2000,08,25,18,00,AAXX 25184 85586 32460 22307 10153 20107 40203 50006 82200 333 56600 82815=
85586,2000,08,25,21,00,AAXX 25214 85586 42460 12310 10144 20114 40198 57005 81200 333 56600 81815=
85586,2000,08,26,00,00,AAXX 26004 85586 32960 01202 10102 20087 40210 53010 333 10154=
85586,2000,08,26,03,00,AAXX 26034 85586 NIL=
85586,2000,08,26,06,00,AAXX 26064 85586 NIL=
85586,2000,08,26,09,00,AAXX 26094 85586 NIL=
85586,2000,08,26,12,00,AAXX 26124 85586 32560 70000 10056 20047 40205 55/// 82530 333 20039 30/// 50100 55088 56660 82625 87362=
85586,2000,08,26,15,00,AAXX 26154 85586 42560 72404 10114 20091 40209 51005 84530 333 56560 84620 86362=
85586,2000,08,26,18,00,AAXX 26184 85586 32560 72308 10129 20094 40193 57015 87500 333 56500 87617=
85586,2000,08,26,21,00,AAXX 26214 85586 42560 52208 10124 20096 40191 53002=
85586,2000,08,27,00,00,AAXX 27004 85586 32460 50000 10091 20075 40201 52009 85500 333 10136 56500 85617=
85586,2000,08,27,03,00,AAXX 27034 85586 NIL=
85586,2000,08,27,06,00,AAXX 27064 85586 NIL=
85586,2000,08,27,09,00,AAXX 27094 85586 NIL=
85586,2000,08,27,12,00,AAXX 27124 85586 NIL=
85586,2000,08,27,15,00,AAXX 27154 85586 42560 11706 10136 20064 40253 52013 81500 333 56400 81623=
85586,2000,08,27,18,00,AAXX 27184 85586 32560 32410 10150 20089 40245 58008 83500 333 56500 83625=
85586,2000,08,27,21,00,AAXX 27214 85586 42560 12312 10138 20084 40241 56004 81500 333 56500 81625=
85586,2000,08,28,00,00,AAXX 28004 85586 32960 01802 10090 20066 40246 51005 333 10153=
85586,2000,08,28,03,00,AAXX 28034 85586 NIL=
85586,2000,08,28,06,00,AAXX 28064 85586 NIL=
85586,2000,08,28,09,00,AAXX 28094 85586 NIL=
85586,2000,08,28,12,00,AAXX 28124 85586 32960 71207 10063 20040 40233 54/// 85031 333 20034 30/// 50130 55095 56055 85362 82075=
85586,2000,08,28,15,00,AAXX 28154 85586 42960 71706 10112 20052 40243 52012 87030 333 56050 87362=
85586,2000,08,28,18,00,AAXX 28184 85586 32960 61305 10148 20043 40231 57011 86030 333 56050 86362=
85586,2000,08,29,00,00,AAXX 29004 85586 32960 21804 10102 20040 40226 56002 82030 333 10153 56050 82361=
85586,2000,08,29,03,00,AAXX 29034 85586 NIL=
85586,2000,08,29,06,00,AAXX 29064 85586 NIL=
85586,2000,08,29,09,00,AAXX 29094 85586 NIL=
85586,2000,08,29,12,00,AAXX 29124 85586 32960 10602 10036 20019 40214 57/// 81030 333 20018 31/// 50160 55007 56050 81362=
85586,2000,08,29,15,00,AAXX 29154 85586 42960 31307 10154 20033 40209 57001 83030 333 56050 83362=
85586,2000,08,29,18,00,AAXX 29184 85586 32960 62308 10149 20088 40189 57020 86030 333 56050 86362=
85586,2000,08,29,21,00,AAXX 29214 85586 42960 71803 10168 20054 40168 57020 87030 333 56050 87362=
85586,2000,08,30,00,00,AAXX 30004 85586 32960 70000 10130 20094 40173 57006 87030 333 10183 56050 87362=
85586,2000,08,30,03,00,AAXX 30034 85586 NIL=
85586,2000,08,30,06,00,AAXX 30064 85586 NIL=
85586,2000,08,30,09,00,AAXX 30094 85586 NIL=
85586,2000,08,30,12,00,AAXX 30124 85586 32560 61702 10103 20089 40192 52/// 86500 333 20060 30/// 50130 55041 56500 88625=
85586,2000,08,30,15,00,AAXX 30154 85586 42560 41207 10129 20067 40215 52024 84500 333 56500 84625=
85586,2000,08,30,18,00,AAXX 30184 85586 32560 21510 10165 20031 40194 57019 82500 333 56500 82630=
85586,2000,08,30,21,00,AAXX 30214 85586 42560 11711 10163 20018 40194 55001 81500 333 56500 81630=
85586,2000,08,31,00,00,AAXX 31004 85586 32960 01602 10105 20010 40202 51007 333 10172=
85586,2000,08,31,03,00,AAXX 31034 85586 NIL=
85586,2000,08,31,06,00,AAXX 31064 85586 NIL=
85586,2000,08,31,09,00,AAXX 31094 85586 NIL=
85586,2000,08,31,12,00,AAXX 31124 85586 32960 00801 10042 20028 40188 53/// 333 20028 30/// 50140 55073=
85586,2000,08,31,15,00,AAXX 31154 85586 42960 00000 10125 20060 40202 51016=
85586,2000,08,31,18,00,AAXX 31184 85586 32960 02605 10136 20054 40181 57010=
85586,2000,08,31,21,00,AAXX 31214 85586 42960 02303 10136 20071 40182 54001=
85586,2000,09,01,00,00,AAXX 01004 85586 32960 00503 10098 20073 40184 54001 333 10148=
85586,2000,09,01,03,00,AAXX 01034 85586 NIL=
85586,2000,09,01,06,00,AAXX 01064 85586 NIL=
85586,2000,09,01,09,00,AAXX 01094 85586 NIL=
85586,2000,09,01,12,00,AAXX 01124 85586 32960 00000 10030 20020 40215 52/// 333 20000 30/// 50140 55095=
85586,2000,09,01,15,00,AAXX 01154 85586 42960 02605 10126 20073 40216 50004=
85586,2000,09,01,18,00,AAXX 01184 85586 32960 02310 10145 20073 40204 57011=
85586,2000,09,01,21,00,AAXX 01214 85586 42960 02209 10149 20087 40206 53002=
85586,2000,09,02,00,00,AAXX 02004 85586 32960 02003 10101 20080 30117 40209 54001 333 10156=
85586,2000,09,02,03,00,AAXX 02034 85586 NIL=
85586,2000,09,02,06,00,AAXX 02064 85586 NIL=
85586,2000,09,02,09,00,AAXX 02094 85586 NIL=
85586,2000,09,02,12,00,AAXX 02124 85586 32960 00000 10064 20052 40189 57/// 333 20044 30/// 50150 55103=
85586,2000,09,02,15,00,AAXX 02154 85586 42960 02006 10170 20070 40178 57010=
85586,2000,09,02,18,00,AAXX 02184 85586 32960 02408 10150 20086 40167 57012=
85586,2000,09,02,21,00,AAXX 02214 85586 42960 02408 10134 20087 40166 54001=
85586,2000,09,03,00,00,AAXX 03004 85586 32960 02404 10088 20072 40171 53004 333 10182=
85586,2000,09,03,03,00,AAXX 03034 85586 NIL=
85586,2000,09,03,06,00,AAXX 03064 85586 NIL=
85586,2000,09,03,09,00,AAXX 03094 85586 NIL=
85586,2000,09,03,12,00,AAXX 03124 85586 31450 40000 10040 20033 40175 53/// 71000 83501 333 20021 31/// 50160 55100 56406 83610=
85586,2000,09,03,15,00,AAXX 03154 85586 41456 52307 10123 20086 40188 52016 70522=
85586,2000,09,03,18,00,AAXX 03184 85586 31458 83009 10129 20090 40192 52004 70522 885// 333 56599 88515=
85586,2000,09,03,21,00,AAXX 03214 85586 42460 82905 10120 20099 40193 50001 885// 333 56599 88617=
85586,2000,09,04,00,00,AAXX 04004 85586 31558 80000 10115 20098 40199 50006 70522 885// 333 10136 56599 88620=
85586,2000,09,04,03,00,AAXX 04034 85586 NIL=
85586,2000,09,04,06,00,AAXX 04064 85586 NIL=
85586,2000,09,04,09,00,AAXX 04094 85586 NIL=
85586,2000,09,04,12,00,AAXX 04124 85586 31456 81502 10103 20086 40187 54/// 7052/ 885// 333 20101 30/// 50110 55016 56799 88615=
85586,2000,09,04,15,00,AAXX 04154 85586 41457 82304 10112 20090 40198 52011 70522 885// 333 56799 88615=
85586,2000,09,04,18,00,AAXX 04184 85586 31457 82804 10116 20097 40206 52008 70522 885// 333 56799 88615=
85586,2000,09,04,21,00,AAXX 04214 85586 41330 82904 10107 20097 40208 54002 71022 886// 333 56799 88708=
85586,2000,09,05,00,00,AAXX 05004 85586 31440 80000 10106 20093 40214 53006 70522 886// 333 10116 56799 88710=
85586,2000,09,05,03,00,AAXX 05034 85586 NIL=
85586,2000,09,05,06,00,AAXX 05064 85586 NIL=
85586,2000,09,05,09,00,AAXX 05094 85586 NIL=
85586,2000,09,05,12,00,AAXX 05124 85586 31430 80000 10102 20094 40214 53/// 7102/ 885// 333 20101 30/// 50080 55000 56799 88618=
85586,2000,09,05,15,00,AAXX 05154 85586 41558 83004 10125 20082 40219 50006 70522 885// 333 56799 88620=
85586,2000,09,05,18,00,AAXX 05184 85586 32560 12704 10139 20083 40207 58012 81500 333 56700 81620=
85586,2000,09,05,21,00,AAXX 05214 85586 42560 72706 10122 20074 40211 53004 81530 333 56760 81620 86358=
85586,2000,09,06,00,00,AAXX 06004 85586 32560 80000 10113 20070 40220 52009 885// 333 10145 56799 88625=
85586,2000,09,06,03,00,AAXX 06034 85586 NIL=
85586,2000,09,06,06,00,AAXX 06064 85586 NIL=
85586,2000,09,06,09,00,AAXX 06094 85586 NIL=
85586,2000,09,06,12,00,AAXX 06124 85586 32560 70000 10102 20084 40203 53/// 87500 333 20098 30/// 50090 55031 56600 87627=
85586,2000,09,06,15,00,AAXX 06154 85586 42560 32807 10138 20080 40202 54001 82501 333 56605 82627=
85586,2000,09,06,18,00,AAXX 06184 85586 32960 12608 10145 20114 40199 57013 80001 333 56005 81073=
85586,2000,09,06,21,00,AAXX 06214 85586 42960 22408 10132 20086 40189 54000 80001 333 56005 82073=
85586,2000,09,07,00,00,AAXX 07004 85586 32560 62502 10090 20068 40197 51006 83530 333 10146 56560 83630 83365=
85586,2000,09,07,03,00,AAXX 07034 85586 NIL=
85586,2000,09,07,06,00,AAXX 07064 85586 NIL=
85586,2000,09,07,09,00,AAXX 07094 85586 NIL=
85586,2000,09,07,12,00,AAXX 07124 85586 32560 30000 10101 20085 40199 52/// 83530 333 20064 30/// 50120 55031 56660 83630 83362=
85586,2000,09,07,15,00,AAXX 07154 85586 42960 62706 10136 20086 40195 55002 83030 333 56060 86362=
85586,2000,09,07,18,00,AAXX 07184 85586 32560 72708 10149 20108 40190 56003 82530 333 56660 82625 85361=
85586,2000,09,07,21,00,AAXX 07214 85586 42560 82405 10132 20107 40186 56006 885// 333 56699 88620=
85586,2000,09,08,00,00,AAXX 08004 85586 32460 80000 10120 20099 40181 57005 8353/ 333 10155 56669 83618 85358=
85586,2000,09,08,03,00,AAXX 08034 85586 NIL=
85586,2000,09,08,06,00,AAXX 08064 85586 NIL=
85586,2000,09,08,09,00,AAXX 08094 85586 NIL=
85586,2000,09,08,12,00,AAXX 08124 85586 NIL=
85586,2000,09,08,15,00,AAXX 08154 85586 41450 80406 10114 20105 40162 53002 76062 8477/ 333 56179 84713 88360=
85586,2000,09,08,18,00,AAXX 08184 85586 11450 82604 10134 20125 40152 57010 60031 76066 8227/ 333 56779 82815 88359=
85586,2000,09,08,21,00,AAXX 08214 85586 41556 80000 10108 20101 40132 57020 76066 8377/ 333 56189 83720 88359=
85586,2000,09,09,00,00,AAXX 09004 85586 11450 82506 10108 20101 40124 57008 60111 76066 8377/ 333 10142 56779 86713 88358=
85586,2000,09,09,03,00,AAXX 09034 85586 NIL=
85586,2000,09,09,06,00,AAXX 09064 85586 NIL=
85586,2000,09,09,09,00,AAXX 09094 85586 NIL=
85586,2000,09,09,12,00,AAXX 09124 85586 11458 83606 10122 20096 40092 57/// 60144 76022 8583/ 333 20108 32/// 50020 56879 70143 82815 83615 88359=
85586,2000,09,09,15,00,AAXX 09154 85586 41457 83208 10117 20098 40103 51011 76366=
85586,2000,09,09,18,00,AAXX 09184 85586 11450 83312 10110 20100 40112 50009 60261 76366 8552/ 333 56879 85613 88457=
85586,2000,09,09,21,00,AAXX 09214 85586 41459 83506 10108 20098 40093 57019 76166=
85586,2000,09,10,00,00,AAXX 10004 85586 11440 83505 10112 20102 40085 56008 60431 76166 8552/ 333 10123 56879 85613 88457=
85586,2000,09,10,03,00,AAXX 10034 85586 NIL=
85586,2000,09,10,06,00,AAXX 10064 85586 NIL=
85586,2000,09,10,09,00,AAXX 10094 85586 NIL=
85586,2000,09,10,12,00,AAXX 10124 85586 11440 83608 10098 20085 40099 52/// 61084 7636/ 8552/ 333 20098 32/// 50001 55000 5677/ 71084 85613 88457=
85586,2000,09,10,15,00,AAXX 10154 85586 41560 52911 10133 20105 40135 52037 70162=
85586,2000,09,10,18,00,AAXX 10184 85586 11560 72512 10113 20089 40174 52039 60041 70262 87200 333 56700 87820=
85586,2000,09,10,21,00,AAXX 10214 85586 42560 32702 10122 20074 40202 52028 82201 333 56706 82823=
85586,2000,09,11,00,00,AAXX 11004 85586 32560 40000 10077 20064 40233 52029 84500 333 10134 56600 84622=
85586,2000,09,11,03,00,AAXX 11034 85586 NIL=
85586,2000,09,11,06,00,AAXX 11064 85586 NIL=
85586,2000,09,11,09,00,AAXX 11094 85586 NIL=
85586,2000,09,11,12,00,AAXX 11124 85586 12960 70903 10053 20044 40230 53/// 60044 87020 333 20045 32/// 50060 55037 56060 70045 87462=
85586,2000,09,11,15,00,AAXX 11154 85586 42460 70803 10102 20084 40228 58001 81130 333 56660 81815 87362=
85586,2000,09,11,18,00,AAXX 11184 85586 32460 62307 10129 20052 40221 56006 81230 333 56560 81815 86362=
85586,2000,09,11,21,00,AAXX 11214 85586 42460 72306 10112 20055 40206 57015 81530 333 56560 81615 87361=
85586,2000,09,12,00,00,AAXX 12004 85586 32460 70000 10095 20061 40206 58001 81530 333 10130 56560 81615 87361=
85586,2000,09,12,03,00,AAXX 12034 85586 NIL=
85586,2000,09,12,06,00,AAXX 12064 85586 NIL=
85586,2000,09,12,09,00,AAXX 12094 85586 NIL=
85586,2000,09,12,12,00,AAXX 12124 85586 32960 81203 10081 20065 40105 54/// 8807/ 333 20079 31/// 50070 55012 56069 88360=
85586,2000,09,12,15,00,AAXX 12154 85586 42960 50404 10134 20091 40186 53002 83031 333 56066 83363=
85586,2000,09,12,18,00,AAXX 12184 85586 32560 70506 10148 20096 40176 58010 84131 333 56666 84825=
85586,2000,09,12,21,00,AAXX 12214 85586 42560 72102 10142 20084 40169 57007 82130 333 56660 82825=
85586,2000,09,13,00,00,AAXX 13004 85586 32960 80000 10114 20093 40167 54002 8803/ 333 10156 56069 88362=
85586,2000,09,13,03,00,AAXX 13034 85586 NIL=
85586,2000,09,13,06,00,AAXX 13064 85586 NIL=
85586,2000,09,13,09,00,AAXX 13094 85586 NIL=
85586,2000,09,13,12,00,AAXX 13124 85586 12860 40906 10087 20064 40182 52/// 60014 84030 333 20082 32/// 50040 55013 56050 70013 84358=
85586,2000,09,13,15,00,AAXX 13154 85586 42560 60703 10136 20079 40180 54001 82530 333 56650 82625=
85586,2000,09,13,18,00,AAXX 13184 85586 32560 63107 10137 20084 40183 58003 82538 333 56655 82625 82358 85270=
85586,2000,09,13,21,00,AAXX 13214 85586 42560 73005 10131 20094 40192 52008 83530 333 56650 83625 87358=
85586,2000,09,14,00,00,AAXX 14004 85586 11560 80000 10121 20107 40202 52010 69921 70262 8553/ 333 10149 56659 85620 88358=
85586,2000,09,14,03,00,AAXX 14034 85586 NIL=
85586,2000,09,14,06,00,AAXX 14064 85586 NIL=
85586,2000,09,14,09,00,AAXX 14094 85586 NIL=
85586,2000,09,14,12,00,AAXX 14124 85586 11557 82503 10116 20103 40218 53/// 60094 7026/ 8553/ 333 20110 32/// 50040 55053 56560 70094 85620 88360=
85586,2000,09,14,15,00,AAXX 14154 85586 41458 72605 10131 20111 40227 51009 78162=
85586,2000,09,14,18,00,AAXX 14184 85586 11560 62405 10140 20094 40229 54003 60041 70186 83230 333 56560 83820 83360=
85586,2000,09,14,21,00,AAXX 14214 85586 42560 32307 10136 20093 40230 54001 82530 333 56560 82620=
85586,2000,09,15,00,00,AAXX 15004 85586 32960 02302 10100 20073 40238 53006 333 10143=
85586,2000,09,15,03,00,AAXX 15034 85586 NIL=
85586,2000,09,15,06,00,AAXX 15064 85586 NIL=
85586,2000,09,15,09,00,AAXX 15094 85586 NIL=
85586,2000,09,15,12,00,AAXX 15124 85586 32465 30702 10087 20075 40219 55/// 81530 333 20026 32/// 50080 55066 56560 81615 82358=
85586,2000,09,15,15,00,AAXX 15154 85586 42460 22505 10134 20098 40220 53002 81501 333 56506 81615 81073=
85586,2000,09,15,18,00,AAXX 15184 85586 32565 52307 10145 20111 40208 57011 81501 333 56506 81615 84073=
85586,2000,09,15,21,00,AAXX 15214 85586 42965 72308 10133 20088 40208 55001=
85586,2000,09,16,00,00,AAXX 16004 85586 32960 60000 10109 20091 40207 55001 86030 333 10147 56060 86360=
85586,2000,09,16,03,00,AAXX 16034 85586 NIL=
85586,2000,09,16,06,00,AAXX 16064 85586 NIL=
85586,2000,09,16,09,00,AAXX 16094 85586 NIL=
85586,2000,09,16,12,00,AAXX 16124 85586 32565 60000 10100 20081 40204 55/// 81530 333 20069 31/// 50100 56660 55086 81625 85360=
85586,2000,09,16,15,00,AAXX 16154 85586 42965 12903 10159 20090 40199 58003 81030 333 56060 81360=
85586,2000,09,16,18,00,AAXX 16184 85586 NIL=
85586,2000,09,16,21,00,AAXX 16214 85586 42965 62905 10135 20097 40181 57010=
85586,2000,09,17,00,00,AAXX 17004 85586 32960 40000 10114 20095 40179 54002 82031 333 10163 56077 82359=
85586,2000,09,17,03,00,AAXX 17034 85586 NIL=
85586,2000,09,17,06,00,AAXX 17064 85586 NIL=
85586,2000,09,17,09,00,AAXX 17094 85586 NIL=
85586,2000,09,17,12,00,AAXX 17124 85586 11560 80501 10105 20086 40177 53/// 69934 7602/ 8357/ 333 20077 31/// 50130 55087 56779 70003 83630 86358=
85586,2000,09,17,15,00,AAXX 17154 85586 42560 83205 10139 20110 40186 52010 885// 333 56799 88627=
85586,2000,09,17,18,00,AAXX 17184 85586 32560 82604 10146 20127 40182 58004 8557/ 333 56770 85627 83362=
85586,2000,09,17,21,00,AAXX 17214 85586 42460 82703 10135 20126 40188 53006 885// 333 56799 88613=
85586,2000,09,18,00,00,AAXX 18004 85586 32460 80000 10131 20124 40195 52006 885// 333 10154 56699 88617=
85586,2000,09,18,03,00,AAXX 18034 85586 NIL=
85586,2000,09,18,06,00,AAXX 18064 85586 NIL=
85586,2000,09,18,09,00,AAXX 18094 85586 NIL=
85586,2000,09,18,12,00,AAXX 18124 85586 32460 70902 10106 20100 40207 54/// 82501 333 20077 31/// 50090 55000 56606 82613 85070=
85586,2000,09,18,15,00,AAXX 18154 85586 42460 72905 10153 20125 40208 54002 83501 333 56606 83615 84070=
85586,2000,09,18,18,00,AAXX 18184 85586 32560 52503 10161 20121 40194 57014 81101 333 56006 81820 84070=
85586,2000,09,18,21,00,AAXX 18214 85586 42560 62803 10151 20125 40170 57024 81130 333 56006 81820=
85586,2000,09,19,00,00,AAXX 19004 85586 32960 50000 10120 20102 40162 57008 85030 333 10162 56070 85362=
85586,2000,09,19,03,00,AAXX 19034 85586 NIL=
85586,2000,09,19,06,00,AAXX 19064 85586 NIL=
85586,2000,09,19,09,00,AAXX 19094 85586 NIL=
85586,2000,09,19,12,00,AAXX 19124 85586 31909 70000 10090 20082 40156 55/// 74422 85032 333 20070 31/// 50130 55073 56077 85362=
85586,2000,09,19,15,00,AAXX 19154 85586 42960 73206 10138 20113 40165 52009 87030 333 56070 87361=
85586,2000,09,19,18,00,AAXX 19184 85586 32460 73212 10155 20105 40163 56002 83532 333 56776 83617 85360 82073=
85586,2000,09,19,21,00,AAXX 19214 85586 41460 73210 10151 20114 40165 54002 78022=
85586,2000,09,20,00,00,AAXX 20004 85586 11450 83209 10123 20100 40183 52017 60151 8523/ 333 10183 56779 85815 88358=
85586,2000,09,20,03,00,AAXX 20034 85586 NIL=
85586,2000,09,20,06,00,AAXX 20064 85586 NIL=
85586,2000,09,20,09,00,AAXX 20094 85586 NIL=
85586,2000,09,20,12,00,AAXX 20124 85586 11450 80304 10098 20087 40216 52/// 60244 76266 888// 333 20098 32/// 50030 55027 56199 70238 84813 88620=
85586,2000,09,20,15,00,AAXX 20154 85586 NIL=
85586,2000,09,20,18,00,AAXX 20184 85586 11560 70204 10150 20118 40230 52007 60061 70166 83230 333 56170 83820 87359=
85586,2000,09,20,21,00,AAXX 20214 85586 42456 50403 10148 20118 40235 52005 81201 333 56106 81820 85075=
85586,2000,09,21,00,00,AAXX 21004 85586 32960 50000 10114 20095 40244 51008 80001 333 10160 56006 85075=
85586,2000,09,21,03,00,AAXX 21034 85586 NIL=
85586,2000,09,21,06,00,AAXX 21064 85586 NIL=
85586,2000,09,21,09,00,AAXX 21094 85586 NIL=
85586,2000,09,21,12,00,AAXX 21124 85586 12965 01203 10085 20072 40249 52/// 60064 333 20063 32/// 50070 55038 70058=
85586,2000,09,21,15,00,AAXX 21154 85586 42965 22205 10147 20102 40236 57009 80001 333 56004 82075=
85586,2000,09,21,18,00,AAXX 21184 85586 32460 52308 10153 20125 40233 58003 81101 333 56504 81815 85075=
85586,2000,09,21,21,00,AAXX 21214 85586 42960 52307 10150 20115 40231 54002 81031 333 56064 81364=
85586,2000,09,22,00,00,AAXX 22004 85586 32960 70000 10120 20107 40236 53004 85031 333 10160 56065 85363 83075=
85586,2000,09,22,03,00,AAXX 22034 85586 NIL=
85586,2000,09,22,06,00,AAXX 22064 85586 NIL=
85586,2000,09,22,09,00,AAXX 22094 85586 NIL=
85586,2000,09,22,12,00,AAXX 22124 85586 32960 21305 10110 20097 40197 57/// 82030 333 20072 31/// 50150 55106 56060 82363=
85586,2000,09,22,15,00,AAXX 22154 85586 42960 32304 10164 20119 40193 57003 83030 333 56060 83363=
85586,2000,09,22,18,00,AAXX 22184 85586 32960 72306 10162 20119 40179 57013 85031 333 56066 85363 82073 QAN ETI=
85586,2000,09,22,21,00,AAXX 22214 85586 42960 32602 10169 20123 40177 57018 82031 333 56066 82363 81073=
85586,2000,09,23,00,00,AAXX 23004 85586 32960 62402 10131 20109 40186 53008 85031 333 10182 56066 85363 81073=
85586,2000,09,23,03,00,AAXX 23034 85586 NIL=
85586,2000,09,23,06,00,AAXX 23064 85586 NIL=
85586,2000,09,23,09,00,AAXX 23094 85586 NIL=
85586,2000,09,23,12,00,AAXX 23124 85586 32960 20000 10103 20092 40218 52/// 81031 333 20068 31/// 50190 55098 56066 81363 81073=
85586,2000,09,23,15,00,AAXX 23154 85586 42460 42103 10170 20112 40231 52016 84500 333 56600 84615=
85586,2000,09,23,18,00,AAXX 23184 85586 32460 22305 10163 20112 40230 54002 82500 333 56600 82615=
85586,2000,09,23,21,00,AAXX 23214 85586 42460 12408 10162 20101 40236 52006 81200 333 56600 81817=
85586,2000,09,24,00,00,AAXX 24004 85586 32960 00000 10111 20072 40256 52019 333 10176=
85586,2000,09,24,03,00,AAXX 24034 85586 NIL=
85586,2000,09,24,06,00,AAXX 24064 85586 NIL=
85586,2000,09,24,09,00,AAXX 24094 85586 NIL=
85586,2000,09,24,12,00,AAXX 24124 85586 32960 01504 10096 20056 40232 57/// 333 20060 31/// 50240 55101=
85586,2000,09,24,15,00,AAXX 24154 85586 42960 11604 10170 20073 40219 57010 80001 333 56001 81073=
85586,2000,09,24,18,00,AAXX 24184 85586 32960 02606 10174 20104 40196 57023=
85586,2000,09,24,21,00,AAXX 24214 85586 42960 12406 10167 20107 40174 56022 80001 333 56007 81073=
85586,2000,09,25,00,00,AAXX 25004 85586 32960 20000 10116 20092 40184 52009 80001 333 56006 82075=
85586,2000,09,25,03,00,AAXX 25034 85586 NIL=
85586,2000,09,25,06,00,AAXX 25064 85586 NIL=
85586,2000,09,25,09,00,AAXX 25094 85586 NIL=
85586,2000,09,25,12,00,AAXX 25124 85586 32970 00000 10115 20088 40182 53/// 333 20050 31/// 50230 55110=
85586,2000,09,25,15,00,AAXX 25154 85586 42960 02504 10160 20108 40176 56005=
85586,2000,09,25,18,00,AAXX 25184 85586 32960 02408 10171 20109 40155 57021=
85586,2000,09,25,21,00,AAXX 25214 85586 42960 02802 10187 20121 40144 57011=
85586,2000,09,26,00,00,AAXX 26004 85586 32960 00000 10123 20107 40154 52009 333 10206=
85586,2000,09,26,03,00,AAXX 26034 85586 NIL=
85586,2000,09,26,06,00,AAXX 26064 85586 NIL=
85586,2000,09,26,09,00,AAXX 26094 85586 NIL=
85586,2000,09,26,12,00,AAXX 26124 85586 32960 01704 10146 20110 40152 53/// 333 20099 31/// 50180 55112=
85586,2000,09,26,15,00,AAXX 26154 85586 42960 01903 10214 20128 40151 54002=
85586,2000,09,26,18,00,AAXX 26184 85586 32960 02407 10182 20133 40146 58007=
85586,2000,09,26,21,00,AAXX 26214 85586 42960 03104 10181 20130 40136 57010=
85586,2000,09,27,00,00,AAXX 27004 85586 32960 00000 10136 20114 40143 52007 333 10224=
85586,2000,09,27,03,00,AAXX 27034 85586 NIL=
85586,2000,09,27,06,00,AAXX 27064 85586 NIL=
85586,2000,09,27,09,00,AAXX 27094 85586 NIL=
85586,2000,09,27,12,00,AAXX 27124 85586 31350 80000 10128 20019 40161 52/// 7102/ 886// 333 20096 31/// 50210 55113 56699 88708=
85586,2000,09,27,15,00,AAXX 27154 85586 41356 83003 10142 20126 40171 52010 71022 886// 333 56699 88708=
85586,2000,09,27,18,00,AAXX 27184 85586 32460 83204 10146 20129 40173 58002 885// 333 56699 88615=
85586,2000,09,27,21,00,AAXX 27214 85586 42460 83103 10136 20120 40177 53004 885// 333 56699 82710 88615=
85586,2000,09,28,00,00,AAXX 28004 85586 32460 83203 10130 20119 40193 51015 885// 333 10150 56699 82710 88615=
85586,2000,09,28,03,00,AAXX 28034 85586 NIL=
85586,2000,09,28,06,00,AAXX 28064 85586 NIL=
85586,2000,09,28,09,00,AAXX 28094 85586 NIL=
85586,2000,09,28,12,00,AAXX 28124 85586 32460 70000 10134 20120 40211 52/// 82501 333 20121 31/// 50090 55000 82615 85073=
85586,2000,09,28,15,00,AAXX 28154 85586 42460 83004 10146 20120 40219 52009 885// 333 56699 88615=
85586,2000,09,28,18,00,AAXX 28184 85586 32460 82604 10153 20118 40214 58005 885// 333 56699 88615=
85586,2000,09,28,21,00,AAXX 28214 85586 42560 62304 10143 20093 40212 58002 86500 333 56600 86620=
85586,2000,09,29,00,00,AAXX 29004 85586 32460 62302 10120 20098 40219 53006 86500 333 10166 56600 86617=
85586,2000,09,29,03,00,AAXX 29034 85586 NIL=
85586,2000,09,29,06,00,AAXX 29064 85586 NIL=
85586,2000,09,29,09,00,AAXX 29094 85586 NIL=
85586,2000,09,29,12,00,AAXX 29124 85586 32560 80000 10132 20103 40195 57/// 885// 333 20119 30/// 50100 55028 56099 88620=
85586,2000,09,29,15,00,AAXX 29154 85586 42560 41804 10175 20124 40185 57008 84500 333 56600 84620=
85586,2000,09,29,18,00,AAXX 29184 85586 32960 02508 10162 20111 40173 57012=
85586,2000,09,29,21,00,AAXX 29214 85586 42960 02507 10150 20109 40169 56005=
85586,2000,09,30,00,00,AAXX 30004 85586 32960 00000 10120 20099 40176 53007 333 10181=
85586,2000,09,30,03,00,AAXX 30034 85586 NIL=
85586,2000,09,30,06,00,AAXX 30064 85586 NIL=
85586,2000,09,30,09,00,AAXX 30094 85586 NIL=
85586,2000,09,30,12,00,AAXX 30124 85586 41210 80000 10088 20076 40175 57/// 7100/ 886// 333 20052 31/// 50150 55082 56099 88704=
85586,2000,09,30,15,00,AAXX 30154 85586 41208 82402 10118 20107 40183 53009 74442 886// 333 56699 88705=
85586,2000,09,30,18,00,AAXX 30184 85586 31360 23004 10138 20111 40175 56008 70142 82600 333 56600 82708=
85586,2000,09,30,21,00,AAXX 30214 85586 42460 12704 10149 20116 40169 56006 81500 333 56600 81615=
85586,2000,10,01,00,00,AAXX 01004 85586 32460 80000 10124 20108 40177 52008 885// 333 10152 56099 88613=
85586,2000,10,01,03,00,AAXX 01034 85586 NIL=
85586,2000,10,01,06,00,AAXX 01064 85586 NIL=
85586,2000,10,01,09,00,AAXX 01094 85586 NIL=
85586,2000,10,01,12,00,AAXX 01124 85586 32460 83605 10110 20093 40174 53/// 885// 333 20108 30/// 50170 55055 56799 88613=
85586,2000,10,01,15,00,AAXX 01154 85586 41456 83104 10116 20101 40184 52010 71052 885// 333 56799 88613=
85586,2000,10,01,18,00,AAXX 01184 85586 11457 83003 10119 20106 40186 50002 69901 71052 885// 333 56799 88613=
85586,2000,10,01,21,00,AAXX 01214 85586 41457 83103 10121 20108 40176 57010 71022 885// 333 56799 88615=
85586,2000,10,02,00,00,AAXX 02004 85586 11456 80000 10121 20108 40170 56006 69901 71052 885// 333 10125 56799 88613=
85586,2000,10,02,03,00,AAXX 02034 85586 NIL=
85586,2000,10,02,06,00,AAXX 02064 85586 NIL=
85586,2000,10,02,09,00,AAXX 02094 85586 NIL=
85586,2000,10,02,12,00,AAXX 02124 85586 32560 80403 10116 20095 40216 52/// 82532 333 20112 30/// 50120 55000 56166 82620 85362=
85586,2000,10,02,15,00,AAXX 02154 85586 42560 53505 10158 20096 40224 52009 84530 333 56860 84626=
85586,2000,10,02,18,00,AAXX 02184 85586 32560 33108 10166 20104 40217 56006 83500 333 56700 83626=
85586,2000,10,03,00,00,AAXX 03004 85586 32960 30000 10126 20104 40233 52009 80001 333 10172 56006 83075=
85586,2000,10,03,03,00,AAXX 03034 85586 NIL=
85586,2000,10,03,06,00,AAXX 03064 85586 NIL=
85586,2000,10,03,09,00,AAXX 03094 85586 NIL=
85586,2000,10,03,12,00,AAXX 03124 85586 32460 60000 10121 20112 40234 52/// 82530 333 20077 30/// 50120 55079 56660 82615 84361=
85586,2000,10,03,15,00,AAXX 03154 85586 42460 32506 10150 20126 40231 58002 83200 333 56600 83817=
85586,2000,10,03,18,00,AAXX 03184 85586 32560 22412 10166 20092 40223 58007 82100 333 56500 82820=
85586,2000,10,03,21,00,AAXX 03214 85586 42560 12309 10156 20096 40215 57009 81100 333 56500 81820=
85586,2000,10,04,00,00,AAXX 04004 85586 32960 00000 10116 20086 40220 55004 333 10171=
85586,2000,10,04,03,00,AAXX 04034 85586 NIL=
85586,2000,10,04,06,00,AAXX 04064 85586 NIL=
85586,2000,10,04,09,00,AAXX 04094 85586 NIL=
85586,2000,10,04,12,00,AAXX 04124 85586 32965 01403 10113 20092 40210 53/// 333 20059 30/// 50150 55087=
85586,2000,10,04,15,00,AAXX 04154 85586 42965 02608 10175 20131 40204 58004=
85586,2000,10,04,18,00,AAXX 04184 85586 32965 02311 10166 20117 40195 57009=
85586,2000,10,04,21,00,AAXX 04214 85586 42960 02307 10155 20116 40184 57011=
85586,2000,10,05,00,00,AAXX 05004 85586 32960 00000 10120 20104 40191 53005 333 10186=
85586,2000,10,05,03,00,AAXX 05034 85586 NIL=
85586,2000,10,05,06,00,AAXX 05064 85586 NIL=
85586,2000,10,05,09,00,AAXX 05094 85586 NIL=
85586,2000,10,05,12,00,AAXX 05124 85586 32965 10000 10125 20088 40180 52/// 80001 333 20041 30/// 50240 55114 56004 81075=
85586,2000,10,05,15,00,AAXX 05154 85586 42960 12308 10156 20096 40175 54000 80001 333 56004 81075=
85586,2000,10,05,18,00,AAXX 05184 85586 32960 12407 10165 20108 40175 55005 80001 333 56004 81075=
85586,2000,10,05,21,00,AAXX 05214 85586 42960 52307 10168 20106 40176 53001 80001 333 56004=
85586,2000,10,06,00,00,AAXX 06004 85586 32960 40000 10124 20100 40188 53012 80001 333 10185 56004 84075=
85586,2000,10,06,03,00,AAXX 06034 85586 NIL=
85586,2000,10,06,06,00,AAXX 06064 85586 NIL=
85586,2000,10,06,09,00,AAXX 06094 85586 NIL=
85586,2000,10,06,12,00,AAXX 06124 85586 32960 10000 10112 20097 40191 55/// 80001 333 20049 31/// 50280 55107 56004 81075=
85586,2000,10,06,15,00,AAXX 06154 85586 42960 12706 10163 20118 40193 51002 80001 333 56004 81075=
85586,2000,10,06,18,00,AAXX 06184 85586 32960 12408 10167 20117 40178 58014 80001 333 56004 81075=
85586,2000,10,06,21,00,AAXX 06214 85586 42960 12406 10163 20118 40170 57008 80001 333 56004 81075=
85586,2000,10,07,00,00,AAXX 07004 85586 32960 40000 10122 20102 40174 54003 80001 333 10169 56006 84075=
85586,2000,10,07,03,00,AAXX 07034 85586 NIL=
85586,2000,10,07,06,00,AAXX 07064 85586 NIL=
85586,2000,10,07,09,00,AAXX 07094 85586 NIL=
85586,2000,10,07,12,00,AAXX 07124 85586 32960 50000 10114 20106 40167 53/// 80001 333 20060 31/// 50220 55112 56006 80575=
85586,2000,10,07,15,00,AAXX 07154 85586 42960 42703 10163 20122 40164 54002 80001 333 56006 84075=
85586,2000,10,07,18,00,AAXX 07184 85586 32960 32406 10177 20122 40152 57012 80001 333 56005 83075=
85586,2000,10,07,21,00,AAXX 07214 85586 42960 22505 10155 20109 40150 56003 80001 333 56005 82075=
85586,2000,10,08,00,00,AAXX 08004 85586 32960 20000 10111 20090 40159 52009 80001 333 10179 56005 82075=
85586,2000,10,08,03,00,AAXX 08034 85586 NIL=
85586,2000,10,08,06,00,AAXX 08064 85586 NIL=
85586,2000,10,08,09,00,AAXX 08094 85586 NIL=
85586,2000,10,08,12,00,AAXX 08124 85586 32560 20000 10104 20097 40189 52/// 82500 333 20050 30/// 50230 55109 56800 82625=
85586,2000,10,08,15,00,AAXX 08154 85586 42560 32605 10136 20092 40202 52014 83500 333 56600 83625=
85586,2000,10,08,18,00,AAXX 08184 85586 32560 12707 10154 20093 40210 51008 81500 333 56500 81625=
85586,2000,10,08,21,00,AAXX 08214 85586 42560 12405 10152 20089 40217 51007 81500 333 56500 81625=
85586,2000,10,09,00,00,AAXX 09004 85586 32960 00000 10116 20086 40228 52010 333 10158=
85586,2000,10,09,03,00,AAXX 09034 85586 NIL=
85586,2000,10,09,06,00,AAXX 09064 85586 NIL=
85586,2000,10,09,09,00,AAXX 09094 85586 NIL=
85586,2000,10,09,12,00,AAXX 09124 85586 32960 01707 10100 20078 40218 57/// 333 20048 30/// 50200 55103=
85586,2000,10,09,15,00,AAXX 09154 85586 42970 01805 10175 20072 40205 57010=
85586,2000,10,09,18,00,AAXX 09184 85586 32970 02308 10175 20105 40173 57032=
85586,2000,10,09,21,00,AAXX 09214 85586 42970 02308 10166 20108 40171 57012=
85586,2000,10,10,00,00,AAXX 10004 85586 32960 00000 10117 20096 40180 53008 333 10198=
85586,2000,10,10,03,00,AAXX 10034 85586 NIL=
85586,2000,10,10,06,00,AAXX 10064 85586 NIL=
85586,2000,10,10,09,00,AAXX 10094 85586 NIL=
85586,2000,10,10,12,00,AAXX 10124 85586 32965 01802 10119 20089 40193 53/// 333 20038 30/// 50220 55116=
85586,2000,10,10,15,00,AAXX 10154 85586 42960 02604 10151 20096 40194 54002=
85586,2000,10,10,18,00,AAXX 10184 85586 32965 02409 10152 20093 40185 57009=
85586,2000,10,10,21,00,AAXX 10214 85586 42965 02405 10156 20098 40176 55008=
85586,2000,10,11,00,00,AAXX 11004 85586 32960 00000 10116 20093 40186 55009 333 10164=
85586,2000,10,11,03,00,AAXX 11034 85586 NIL=
85586,2000,10,11,06,00,AAXX 11064 85586 NIL=
85586,2000,10,11,09,00,AAXX 11094 85586 NIL=
85586,2000,10,11,12,00,AAXX 11124 85586 31908 00000 10084 20078 40185 52/// 7424/ 333 20038 30/// 50210 55115=
85586,2000,10,11,15,00,AAXX 11154 85586 42960 02306 10144 20094 40191 51006=
85586,2000,10,11,18,00,AAXX 11184 85586 32960 02307 10155 20097 40188 54002=
85586,2000,10,11,21,00,AAXX 11214 85586 42960 02605 10148 20095 40185 55004=
85586,2000,10,12,00,00,AAXX 12004 85586 32960 10000 10104 20083 40199 52013 80001 333 10160 56004 81075=
85586,2000,10,12,03,00,AAXX 12034 85586 NIL=
85586,2000,10,12,06,00,AAXX 12064 85586 NIL=
85586,2000,10,12,09,00,AAXX 12094 85586 NIL=
85586,2000,10,12,12,00,AAXX 12124 85586 32960 00000 10112 20081 40222 53/// 333 20050 30/// 50250 55105=
85586,2000,10,12,15,00,AAXX 12154 85586 42560 22506 10152 20091 40223 54002 82500 333 56500 82620=
85586,2000,10,12,18,00,AAXX 12184 85586 32960 02308 10168 20103 40211 57012=
85586,2000,10,12,21,00,AAXX 12214 85586 42960 02408 10162 20102 40206 56006=
85586,2000,10,13,00,00,AAXX 13004 85586 32960 00000 10116 20074 40213 51006 333 10173=
85586,2000,10,13,03,00,AAXX 13034 85586 NIL=
85586,2000,10,13,06,00,AAXX 13064 85586 NIL=
85586,2000,10,13,09,00,AAXX 13094 85586 NIL=
85586,2000,10,13,12,00,AAXX 13124 85586 32965 02202 10120 20081 40197 53/// 333 20042 30/// 50230 55116=
85586,2000,10,13,15,00,AAXX 13154 85586 42960 02506 10157 20096 40193 5103=
85586,2000,10,13,18,00,AAXX 13184 85586 32960 02307 10161 20105 40182 57010=
85586,2000,10,13,21,00,AAXX 13214 85586 42960 02504 10165 20097 40174 55008=
85586,2000,10,14,00,00,AAXX 14004 85586 32960 00000 10119 20091 40162 57012 333 10172=
85586,2000,10,14,03,00,AAXX 14034 85586 NIL=
85586,2000,10,14,06,00,AAXX 14064 85586 NIL=
85586,2000,10,14,09,00,AAXX 14094 85586 NIL=
85586,2000,10,14,12,00,AAXX 14124 85586 32960 00000 10097 20085 40193 54/// 333 20036 30/// 50260 55114=
85586,2000,10,14,15,00,AAXX 14154 85586 42960 02506 10156 20108 40192 54001=
85586,2000,10,14,18,00,AAXX 14184 85586 32960 02414 10156 20106 40187 56004=
85586,2000,10,14,21,00,AAXX 14214 85586 42960 02510 10142 20100 40186 54002=
85586,2000,10,15,00,00,AAXX 15004 85586 32560 32404 10112 20093 40192 53005 83500 333 10160 56500 83620=
85586,2000,10,15,03,00,AAXX 15034 85586 NIL=
85586,2000,10,15,06,00,AAXX 15064 85586 NIL=
85586,2000,10,15,09,00,AAXX 15094 85586 NIL=
85586,2000,10,15,12,00,AAXX 15124 85586 32960 20000 10120 20103 40212 52/// 82030 333 20070 30/// 50230 55115 56060 82360=
85586,2000,10,15,15,00,AAXX 15154 85586 42460 22804 10153 20078 40219 52008 82100 333 56500 82817=
85586,2000,10,15,18,00,AAXX 15184 85586 32560 12305 10167 20101 40219 54001 81100 333 56500 81820=
85586,2000,10,15,21,00,AAXX 15214 85586 42960 02405 10152 20113 40212 57008=
85586,2000,10,16,00,00,AAXX 16004 85586 32960 00000 10120=
85586,2000,10,16,03,00,AAXX 16034 85586 NIL=
85586,2000,10,16,06,00,AAXX 16064 85586 NIL=
85586,2000,10,16,09,00,AAXX 16094 85586 NIL=
85586,2000,10,16,12,00,AAXX 16124 85586 32960 00000 10136 20118 40173 57/// 333 20056 30/// 50270 55112=
85586,2000,10,16,15,00,AAXX 16154 85586 41910 02505 10152 20128 40169 57004 74000=
85586,2000,10,16,18,00,AAXX 16184 85586 31/07 92704 10133 20122 40165 57004 74540 333 89/01=
85586,2000,10,16,21,00,AAXX 16214 85586 41150 82903 10135 20117 40158 57005 70542 88600 333 56799 88703=
85586,2000,10,17,00,00,AAXX 17004 85586 31257 82902 10125 20110 40170 53010 70522 886// 333 10168 56799 88706=
85586,2000,10,17,03,00,AAXX 17034 85586 NIL=
85586,2000,10,17,06,00,AAXX 17064 85586 NIL=
85586,2000,10,17,09,00,AAXX 17094 85586 NIL=
85586,2000,10,17,12,00,AAXX 17124 85586 31250 80902 10123 20101 40183 52/// 7052/ 886// 333 20111 30/// 50170 55060 56799 88706=
85586,2000,10,17,15,00,AAXX 17154 85586 41256 82404 10127 20112 40179 58004 71022 886// 333 56799 88706=
85586,2000,10,17,18,00,AAXX 17184 85586 31456 82505 10141 20120 40171 58007 70522 886// 333 56799 88710=
85586,2000,10,17,21,00,AAXX 17214 85586 41456 82803 10125 20110 40162 57010 71022 886// 333 56799 88710=
85586,2000,10,18,00,00,AAXX 18004 85586 31458 70000 10119 20103 40167 57005 71022 87500 333 10145 56700 87615=
85586,2000,10,18,03,00,AAXX 18034 85586 NIL=
85586,2000,10,18,06,00,AAXX 18064 85586 NIL=
85586,2000,10,18,09,00,AAXX 18094 85586 NIL=
85586,2000,10,18,12,00,AAXX 18124 85586 31456 80000 10120 20102 40173 53/// 70522 885// 333 20110 30/// 50190 55000 56799 88612=
85586,2000,10,18,15,00,AAXX 18154 85586 41457 83203 10128 20113 40176 54002 70522 885// 333 56799 88612=
85586,2000,10,18,18,00,AAXX 18184 85586 31459 83203 10137 20119 40180 52005 70522 885// 333 56799 88613=
85586,2000,10,18,21,00,AAXX 18214 85586 41459 83202 10129 20111 40182 52002 70522 885// 333 56799 88613=
85586,2000,10,19,00,00,AAXX 19004 85586 31459 80000 10124 20113 40192 52009 71022 885// 333 10143 56799 88613=
85586,2000,10,19,03,00,AAXX 19034 85586 NIL=
85586,2000,10,19,06,00,AAXX 19064 85586 NIL=
85586,2000,10,19,09,00,AAXX 19094 85586 NIL=
85586,2000,10,19,12,00,AAXX 19124 85586 31458 81703 10129 20104 40169 57/// 7052/ 885// 333 20113 30/// 50180 55000 56799 88615=
85586,2000,10,19,15,00,AAXX 19154 85586 42460 12606 10163 20112 40163 58005 81500 333 56700 81615=
85586,2000,10,19,18,00,AAXX 19184 85586 32960 12307 10156 20112 40153 56010 81030 333=
85586,2000,10,19,21,00,AAXX 19214 85586 42460 22507 10143 20111 40152 56002 82500 333 56700 82615=
85586,2000,10,20,00,00,AAXX 20004 85586 32460 53602 10123 20109 40158 53006 85500 333 10176 56700 85615=
85586,2000,10,20,03,00,AAXX 20034 85586 NIL=
85586,2000,10,20,06,00,AAXX 20064 85586 NIL=
85586,2000,10,20,09,00,AAXX 20094 85586 NIL=
85586,2000,10,20,12,00,AAXX 20124 85586 31220 81502 10107 20096 40148 55/// 7102/ 886// 333 20105 30/// 50160 55085 56799 88705=
85586,2000,10,20,15,00,AAXX 20154 85586 41230 82703 10122 20111 40146 56002 71022 886// 333 56799 88705=
85586,2000,10,20,18,00,AAXX 20184 85586 11220 82805 10131 20121 40163 52017 69901 75152 886// 333 56799 88705=
85586,2000,10,20,21,00,AAXX 20214 85586 41220 83203 10127 20118 40167 52004 75155 886// 333 56799 88705=
85586,2000,10,21,00,00,AAXX 21004 85586 11220 81902 10121 20112 40167 55000 69911 75155 886// 333 10135 56799 88705=
85586,2000,10,21,03,00,AAXX 21034 85586 NIL=
85586,2000,10,21,06,00,AAXX 21064 85586 NIL=
85586,2000,10,21,09,00,AAXX 21094 85586 NIL=
85586,2000,10,21,12,00,AAXX 21124 85586 11458 82402 10106 20086 40181 53/// 69934 7055/ 885// 333 20100 31/// 50140 55000 56799 70003 88615=
85586,2000,10,21,15,00,AAXX 21154 85586 42460 83303 10128 20087 40201 52019 885// 333 56799 88615=
85586,2000,10,21,18,00,AAXX 21184 85586 32560 72904 10151 20096 40199 54001 87500 333 56700 87623=
85586,2000,10,21,21,00,AAXX 21214 85586 42560 72802 10147 20092 40190 57009 87500 333 56700 87625=
85586,2000,10,22,00,00,AAXX 22004 85586 32560 30000 10111 20090 40198 53007 82501 333 56605 82625=
85586,2000,10,22,03,00,AAXX 22034 85586 NIL=
85586,2000,10,22,06,00,AAXX 22064 85586 NIL=
85586,2000,10,22,09,00,AAXX 22094 85586 NIL=
85586,2000,10,22,12,00,AAXX 22124 85586 32960 31801 10124 20106 40185 53/// 80001 333 20050 30/// 50180 55042 56005 83073=
85586,2000,10,22,15,00,AAXX 22154 85586 42560 62803 10158 20108 40180 58005=
85586,2000,10,22,18,00,AAXX 22184 85586 32560 32406 10167 20124 40174 57005 83500 333 56000 83623=
85586,2000,10,22,21,00,AAXX 22214 85586 42960 02307 10157 20123 40166 57008=
85586,2000,10,23,00,00,AAXX 23004 85586 32460 12303 10122 20108 40174 53007 81500 333 56600 81613=
85586,2000,10,23,03,00,AAXX 23034 85586 NIL=
85586,2000,10,23,06,00,AAXX 23064 85586 NIL=
85586,2000,10,23,09,00,AAXX 23094 85586 NIL=
85586,2000,10,23,12,00,AAXX 23124 85586 31459 83601 10132 20107 40171 53/// 7052/ 885// 333 20117 30/// 50210 55117 56799 88613=
85586,2000,10,23,15,00,AAXX 23154 85586 42460 72704 10148 20118 40175 53004 87500 333 56700 87615=
85586,2000,10,23,18,00,AAXX 23184 85586 32560 72603 10156 20121 40168 57007 87500 333 56700 87620=
85586,2000,10,23,21,00,AAXX 23214 85586 42560 33204 10155 20114 40162 55005 83500 333 56700 83623=
85586,2000,10,24,00,00,AAXX 24004 85586 32560 63203 10134 20109 40169 50006 86500 333 56700 86623=
85586,2000,10,24,03,00,AAXX 24034 85586 NIL=
85586,2000,10,24,06,00,AAXX 24064 85586 NIL=
85586,2000,10,24,09,00,AAXX 24094 85586 NIL=
85586,2000,10,24,12,00,AAXX 24124 85586 32560 50000 10121 20098 40194 52/// 85500 333 10110 30/// 50190 55054 56700 85623=
85586,2000,10,24,15,00,AAXX 24154 85586 NIL=
85586,2000,10,24,18,00,AAXX 24184 85586 32560 22404 10768 20103 40200 54000 82200 333 56700 82820=
85586,2000,10,24,21,00,AAXX 24214 85586 42560 12605 10158 20098 40192 57009 81200 333 56700 81820=
85586,2000,10,25,00,00,AAXX 25004 85586 32960 02604 10130 20105 40184 57008 333 10176=
85586,2000,10,25,03,00,AAXX 25034 85586 NIL=
85586,2000,10,25,06,00,AAXX 25064 85586 NIL=
85586,2000,10,25,09,00,AAXX 25094 85586 NIL=
85586,2000,10,25,12,00,AAXX 25124 85586 32460 53202 10130 20106 40183 53/// 83530 333 20093 30/// 50230 55105 56700 83613 82365=
85586,2000,10,25,15,00,AAXX 25154 85586 41460 83404 10135 20111 40198 52015 70522 885// 333 56799 88615=
85586,2000,10,25,18,00,AAXX 25184 85586 32460 73603 10139 20118 40211 52013 84230 333 56660 84815 87361=
85586,2000,10,25,21,00,AAXX 25214 85586 42460 32103 10179 20092 40190 57020 83200 333 56500 81815 82820=
85586,2000,10,26,00,00,AAXX 26004 85586 32560 22104 10132 20110 40201 52010 82500 333 56500 82625=
85586,2000,10,26,03,00,AAXX 26034 85586 NIL=
85586,2000,10,26,06,00,AAXX 26064 85586 NIL=
85586,2000,10,26,09,00,AAXX 26094 85586 NIL=
85586,2000,10,26,12,00,AAXX 26124 85586 NIL=
85586,2000,10,26,15,00,AAXX 26154 85586 42960 02506 10195 20124 40201 51002=
85586,2000,10,26,18,00,AAXX 26184 85586 32960 02310 10182 20121 40193 58008=
85586,2000,10,26,21,00,AAXX 26214 85586 42960 02407 10181 20120 40187 57006=
85586,2000,10,27,00,00,AAXX 27004 85586 32960 03602 10139 20112 40188 56002=
85586,2000,10,27,03,00,AAXX 27034 85586 NIL=
85586,2000,10,27,06,00,AAXX 27064 85586 NIL=
85586,2000,10,27,09,00,AAXX 27094 85586 NIL=
85586,2000,10,27,12,00,AAXX 27124 85586 32965 00000 10156 20123 40154 52/// 333 20072 30/// 50220 55122=
85586,2000,10,27,15,00,AAXX 27154 85586 42965 03204 10197 20124 40146 57007=
85586,2000,10,27,18,00,AAXX 27184 85586 32965 52705 10176 20128 40153 52006 80001 333 56007 85075=
85586,2000,10,27,21,00,AAXX 27214 85586 42560 73006 10168 20129 40168 52015 82501 333 56707 82620=
85586,2000,10,28,00,00,AAXX 28004 85586 31110 80000 10127 20116 40173 52004 71021 886// 333 10205 56799 88704=
85586,2000,10,28,03,00,AAXX 28034 85586 NIL=
85586,2000,10,28,06,00,AAXX 28064 85586 NIL=
85586,2000,10,28,09,00,AAXX 28094 85586 NIL=
85586,2000,10,28,12,00,AAXX 28124 85586 31230 80000 10122 20110 40179 52/// 7102/ 886// 333 20119 30/// 50210 55117 56799 88706=
85586,2000,10,28,15,00,AAXX 28154 85586 41240 83002 10134 20116 40181 52002 70522 886// 333 56799 88706=
85586,2000,10,28,18,00,AAXX 28184 85586 31350 83004 10144 20121 40177 55004 70522 886// 333 56799 88708=
85586,2000,10,28,21,00,AAXX 28214 85586 41356 82905 10138 20117 40171 55006 70522 886// 333 56799 88708=
85586,2000,10,29,00,00,AAXX 29004 85586 31350 83003 10131 20114 40172 54001 71022 886// 333 10150 56799 88708=
85586,2000,10,29,03,00,AAXX 29034 85586 NIL=
85586,2000,10,29,06,00,AAXX 29064 85586 NIL=
85586,2000,10,29,09,00,AAXX 29094 85586 NIL=
85586,2000,10,29,12,00,AAXX 29124 85586 31350 80000 10122 20113 40153 54/// 7102/ 886// 333 20114 30/// 50170 55000 56099 88708=
85586,2000,10,29,15,00,AAXX 29154 85586 41350 83303 10136 20120 40152 54001 71022 886// 333 56099 88708=
85586,2000,10,29,18,00,AAXX 29184 85586 31456 82804 10148 20124 40154 50002 70522 885// 333 56699 88613=
85586,2000,10,29,21,00,AAXX 29214 85586 41450 83004 10142 20124 40148 58006 71022 885// 333 56699 88613=
85586,2000,10,30,00,00,AAXX 30004 85586 31450 83202 10134 20124 40146 54002 71022 885// 333 10149 56699 88613=
85586,2000,10,30,03,00,AAXX 30034 85586 NIL=
85586,2000,10,30,06,00,AAXX 30064 85586 NIL=
85586,2000,10,30,09,00,AAXX 30094 85586 NIL=
85586,2000,10,30,12,00,AAXX 30124 85586 32560 83403 10136 20105 40161 52/// 885// 333 20128 30/// 50150 55000 56699 88623=
85586,2000,10,30,15,00,AAXX 30154 85586 42560 83403 10154 20120 40178 52017 885// 333 56699 88623=
85586,2000,10,30,18,00,AAXX 30184 85586 32560 73305 10166 20129 40179 54002 87500 333 56600 87625=
85586,2000,10,30,21,00,AAXX 30214 85586 42560 73005 10153 20122 40179 54001=
85586,2000,10,31,00,00,AAXX 31004 85586 32560 83501 10140 20122 40189 52010 885// 333 10168 56699 88625=
85586,2000,10,31,03,00,AAXX 31034 85586 NIL=
85586,2000,10,31,06,00,AAXX 31064 85586 NIL=
85586,2000,10,31,09,00,AAXX 31094 85586 NIL=
85586,2000,10,31,12,00,AAXX 31124 85586 32560 83202 10136 20116 40193 52/// 885// 333 56699 88623=
85586,2000,10,31,15,00,AAXX 31154 85586 42560 80000 10152 20129 40199 52006 885// 333 56699 88627=
85586,2000,10,31,18,00,AAXX 31184 85586 32560 82804 10159 20126 40203 52004 8452/ 333 56669=
85586,2000,10,31,21,00,AAXX 31214 85586 42460 72704 10153 20124 40198 52005 84530 333 56660 84617 87360=
85586,2000,11,01,00,00,AAXX 01004 85586 32560 72402 10133 20115 40205 52006 83530 333 10167 56660 83630 84360=
85586,2000,11,01,03,00,AAXX 01034 85586 NIL=
85586,2000,11,01,06,00,AAXX 01064 85586 NIL=
85586,2000,11,01,09,00,AAXX 01094 85586 NIL=
85586,2000,11,01,12,00,AAXX 01124 85586 32560 41701 10146 20129 40202 53/// 84500 333 20100 30/// 50200 55000 56600 84620=
85586,2000,11,01,15,00,AAXX 01154 85586 42560 32405 10171 20127 40193 58008 83500 333 56600 83620=
85586,2000,11,01,18,00,AAXX 01184 85586 32560 22306 10180 20124 40201 52007 82500 333 56600 82620=
85586,2000,11,01,21,00,AAXX 01214 85586 42560 12507 10170 20135 40190 58010 81500 333 56600 81620=
85586,2000,11,02,00,00,AAXX 02004 85586 32560 12304 10140 20123 40203 52012 81500 333 10185 56600 81620=
85586,2000,11,02,03,00,AAXX 02034 85586 NIL=
85586,2000,11,02,06,00,AAXX 02064 85586 NIL=
85586,2000,11,02,09,00,AAXX 02094 85586 NIL=
85586,2000,11,02,12,00,AAXX 02124 85586 32960 71102 10126 20108 40165 57/// 87030 333 20080 30/// 50230 55114 56060 87363=
85586,2000,11,02,15,00,AAXX 02154 85586 42960 72605 10159 20123 40164 54000=
85586,2000,11,02,18,00,AAXX 02184 85586 32460 72803 10158 20121 40166 53002 81536 333 56065 81615 84361 86271=
85586,2000,11,02,21,00,AAXX 02214 85586 NIL=
85586,2000,11,03,00,00,AAXX 03004 85586 32460 72603 10132 20118 40182 51008 8553/ 333 10182 56569 85615 82361=
85586,2000,11,03,03,00,AAXX 03034 85586 NIL=
85586,2000,11,03,06,00,AAXX 03064 85586 NIL=
85586,2000,11,03,09,00,AAXX 03094 85586 NIL=
85586,2000,11,03,12,00,AAXX 03124 85586 32460 42002 10036 20113 52/// 84500 333 20077 30/// 50210 55020 56500 84615=
85586,2000,11,03,15,00,AAXX 03154 85586 42560 42704 10174 20106 40189 54001 83501 333 56506 83620 81075=
85586,2000,11,03,18,00,AAXX 03184 85586 32960 32706 10176 20097 40177 57012 80001 333 56006 83075=
85586,2000,11,03,21,00,AAXX 03214 85586 42960 72606 10158 20112 40171 57006 83031 333 56066 83361=
85586,2000,11,04,00,00,AAXX 04004 85586 32560 50000 10140 20117 40178 53006 83501 333 10184 56606 83620 82075=
85586,2000,11,04,03,00,AAXX 04034 85586 NIL=
85586,2000,11,04,06,00,AAXX 04064 85586 NIL=
85586,2000,11,04,09,00,AAXX 04094 85586 NIL=
85586,2000,11,04,12,00,AAXX 04124 85586 31258 80902 10112 20101 40159 56/// 7102/ 886// 333 20074 30/// 50190 55082 56699 88705=
85586,2000,11,04,15,00,AAXX 04154 85586 42460 72405 10150 20095 40157 55002 81532 333 56655 81617=
85586,2000,11,04,18,00,AAXX 04184 85586 32460 72804 10154 20125 40166 52009 8153/ 333 56659 81617 87359=
85586,2000,11,04,21,00,AAXX 04214 85586 42460 82305 10152 20130 40158 57008 8253/ 333 56659 82617 88359=
85586,2000,11,05,00,00,AAXX 05004 85586 32560 72902 10139 20122 40164 52006 82530 333 10165 56650 82620 87361=
85586,2000,11,05,03,00,AAXX 05034 85586 NIL=
85586,2000,11,05,06,00,AAXX 05064 85586 NIL=
85586,2000,11,05,09,00,AAXX 05094 85586 NIL=
85586,2000,11,05,12,00,AAXX 05124 85586 32960 23001 10152 20117 40181 53/// 82030 333 20105 30/// 50270 55021 56050 82363=
85586,2000,11,05,15,00,AAXX 05154 85586 42560 42306 10173 20116 40182 54002 82101 333 56005 82825=
85586,2000,11,05,18,00,AAXX 05184 85586 32560 72307 10177 20126 40166 58016 81106 333 56005 81825 86272=
85586,2000,11,05,21,00,AAXX 05214 85586 42560 72308 10173 20127 40175 57011 81106 333 56005 81825 86272=
85586,2000,11,06,00,00,AAXX 06004 85586 32960 70000 10143 20122 40145 57011 80006 333 10183 56005 86272=
85586,2000,11,06,03,00,AAXX 06034 85586 NIL=
85586,2000,11,06,06,00,AAXX 06064 85586 NIL=
85586,2000,11,06,12,00,AAXX 06124 85586 32960 63603 10131 20114 40154 52/// 86030 333 20092 30/// 50250 55077 56050 86362=
85586,2000,11,06,15,00,AAXX 06154 85586 42960 73106 10157 20117 40158 51005 84034 333 56055 84362 86073=
85586,2000,11,06,18,00,AAXX 06184 85586 32960 72405 10171 20126 40160 54002 83034 333 56066 83362 86073=
85586,2000,11,06,21,00,AAXX 06214 85586 42460 72707 10155 20121 40160 54000 82534 333 56766 82613 83361=
85586,2000,11,07,00,00,AAXX 07004 85586 32460 72402 10133 20110 40166 52005 81530 333 10174 56760 81615 87361=
85586,2000,11,07,03,00,AAXX 07034 85586 NIL=
85586,2000,11,07,06,00,AAXX 07064 85586 NIL=
85586,2000,11,07,09,00,AAXX 07094 85586 NIL=
85586,2000,11,07,12,00,AAXX 07124 85586 32460 70000 10126 20110 40170 53/// 82531 333 10102 30/// 50220 55075 56766 82613 84364=
85586,2000,11,07,15,00,AAXX 07154 85586 42460 72903 10159 20111 40176 51007 82531 333 56766 82615 84364 82170=
85586,2000,11,07,18,00,AAXX 07184 85586 32460 72504 10163 20088 40176 54000 83531 333 56766 83615 84364 81070=
85586,2000,11,07,21,00,AAXX 07214 85586 42460 72606 10152 20105 40172 58005 82530 333 56760 82615=
85586,2000,11,08,00,00,AAXX 08004 85586 32960 33603 10126 20101 40182 53010 83030 333 10175 56060 83362=
85586,2000,11,08,03,00,AAXX 08034 85586 NIL=
85586,2000,11,08,06,00,AAXX 08064 85586 NIL=
85586,2000,11,08,09,00,AAXX 08094 85586 NIL=
85586,2000,11,08,12,00,AAXX 08124 85586 32960 52303 10135 20111 40194 52/// 85030 333 20110 30/// 50230 55033 56070 85362=
85586,2000,11,08,15,00,AAXX 08154 85586 42960 62505 10152 20107 40200 52006 86030 333 56070 86361=
85586,2000,11,08,18,00,AAXX 08184 85586 32460 62406 10147 20108 40196 58004 82530 333 56670 82615 86361=
85586,2000,11,08,21,00,AAXX 08214 85586 42460 42406 10153 20106 40194 56002 82230 333 56570 82815 82361=
85586,2000,11,09,00,00,AAXX 09004 85586 32960 00000 10122 20097 40197 53003 333 10174=
85586,2000,11,09,03,00,AAXX 09034 85586 NIL=
85586,2000,11,09,06,00,AAXX 09064 85586 NIL=
85586,2000,11,09,09,00,AAXX 09094 85586 NIL=
85586,2000,11,09,12,00,AAXX 09124 85586 32960 00000 10115 20089 40175 54/// 333 20042 30/// 50250 55086=
85586,2000,11,09,15,00,AAXX 09154 85586 42960 62704 10154 20093 40182 51007 80001 333 56006 86073=
85586,2000,11,09,18,00,AAXX 09184 85586 32960 72306 10158 20097 40179 56002 80001 333 56006 87075=
85586,2000,11,09,21,00,AAXX 09214 85586 42960 72405 10140 20092 40174 58006 83031 333 56066 83364=
85586,2000,11,10,00,00,AAXX 10004 85586 32960 72102 10120 20086 40192 53012 86031 333 10172 56066 86364 81075=
85586,2000,11,10,03,00,AAXX 10034 85586 NIL=
85586,2000,11,10,06,00,AAXX 10064 85586 NIL=
85586,2000,11,10,09,00,AAXX 10094 85586 NIL=
85586,2000,11,10,12,00,AAXX 10124 85586 32960 50000 10114 20078 40183 53/// 80001 333 20040 30/// 50240 55093 56007 85075=
85586,2000,11,10,15,00,AAXX 10154 85586 42960 42904 10154 20075 40186 52003 80001 333 56007 84075=
85586,2000,11,10,18,00,AAXX 10184 85586 32960 12706 10164 20100 40187 51002 80001 333 56007 81075=
85586,2000,11,10,21,00,AAXX 10214 85586 NIL=
85586,2000,11,11,00,00,AAXX 11004 85586 32960 02702 10132 20108 40195 55015 333 10170=
85586,2000,11,11,03,00,AAXX 11034 85586 NIL=
85586,2000,11,11,06,00,AAXX 11064 85586 NIL=
85586,2000,11,11,09,00,AAXX 11094 85586 NIL=
85586,2000,11,11,12,00,AAXX 11124 85586 32960 10904 10153 20105 40196 56/// 81030 333 20078 30/// 50310 55120 56060 81364=
85586,2000,11,11,15,00,AAXX 11154 85586 42460 32605 10182 20119 40202 52006 82230 333 56560 82815 81364=
85586,2000,11,11,18,00,AAXX 11184 85586 32460 12510 10174 20115 40198 58003 81200 333 56500 81817=
85586,2000,11,11,21,00,AAXX 11214 85586 42560 12508 10166 20113 40194 57004 81100 333 56000 81820=
85586,2000,11,12,00,00,AAXX 12004 85586 32960 02503 10125 20077 40212 53016 333 10184=
85586,2000,11,12,03,00,AAXX 12034 85586 NIL=
85586,2000,11,12,06,00,AAXX 12064 85586 NIL=
85586,2000,11,12,09,00,AAXX 12094 85586 NIL=
85586,2000,11,12,12,00,AAXX 12124 85586 32960 01503 10134 20069 40212 53/// 80001 333 20090 30/// 50320 55120 56005 81073=
85586,2000,11,12,15,00,AAXX 12154 85586 42560 32408 10167 20105 40203 58007 81101 333 56005 81825=
85586,2000,11,12,18,00,AAXX 12184 85586 32560 22510 10161 20125 40198 58005 81101 333 56000 81825=
85586,2000,11,12,21,00,AAXX 12214 85586 42560 12410 10164 20083 40192 57007 81100 333 56000 81825=
85586,2000,11,13,00,00,AAXX 13004 85586 32960 02405 10125 20085 40205 53012 333 10180=
85586,2000,11,13,03,00,AAXX 13034 85586 NIL=
85586,2000,11,13,06,00,AAXX 13064 85586 NIL=
85586,2000,11,13,09,00,AAXX 13094 85586 NIL=
85586,2000,11,13,12,00,AAXX 13124 85586 32960 02703 10132 20075 40215 53/// 333 20048 30/// 50360 55125=
85586,2000,11,13,15,00,AAXX 13154 85586 42960 02408 10153 20098 40210 58004=
85586,2000,11,13,18,00,AAXX 13184 85586 32960 02514 10158 20090 40199 57011=
85586,2000,11,13,21,00,AAXX 13214 85586 42960 32512 10162 20097 40190 57009 80001 333 56005 83073=
85586,2000,11,14,00,00,AAXX 14004 85586 32960 60000 10129 20092 40204 53013 80001 333 10177 56005 86070=
85586,2000,11,14,03,00,AAXX 14034 85586 NIL=
85586,2000,11,14,06,00,AAXX 14064 85586 NIL=
85586,2000,11,14,09,00,AAXX 14094 85586 NIL=
85586,2000,11,14,12,00,AAXX 14124 85586 32970 01302 10143 20055 40195 52/// 333 20049 30/// 50390 55108=
85586,2000,11,14,15,00,AAXX 14154 85586 42970 02707 10165 20090 40190 57005=
85586,2000,11,14,18,00,AAXX 14184 85586 32970 02409 10159 20103 40179 57010=
85586,2000,11,14,21,00,AAXX 14214 85586 42970 02308 10151 20090 40171 57009=
85586,2000,11,15,00,00,AAXX 15004 85586 32960 00000 10128 20085 40173 57002 333 10171=
85586,2000,11,15,03,00,AAXX 15034 85586 NIL=
85586,2000,11,15,06,00,AAXX 15064 85586 NIL=
85586,2000,11,15,09,00,AAXX 15094 85586 NIL=
85586,2000,11,15,12,00,AAXX 15124 85586 32960 03202 10117 20085 40177 52/// 333 20031 30/// 50370 55125=
85586,2000,11,15,15,00,AAXX 15154 85586 42260 13003 10142 20112 40178 54001 81600 333 56700 81704=
85586,2000,11,15,18,00,AAXX 15184 85586 32260 12706 10155 20116 40172 57005 81600 333 56700 81704=
85586,2000,11,15,21,00,AAXX 15214 85586 42260 32805 10148 20116 40170 57003 83600 333 56700 83704=
85586,2000,11,16,00,00,AAXX 16004 85586 32360 73302 10128 20112 40172 54002 87600 333 10160 56700 87708=
85586,2000,11,16,03,00,AAXX 16034 85586 NIL=
85586,2000,11,16,06,00,AAXX 16064 85586 NIL=
85586,2000,11,16,09,00,AAXX 16094 85586 NIL=
85586,2000,11,16,12,00,AAXX 16124 85586 31457 80000 10119 20103 40181 52/// 7052/ 886// 333 20100 30/// 50290 55116 56799 88712=
85586,2000,11,16,15,00,AAXX 16154 85586 42960 02506 10149 20106 40178 57003=
85586,2000,11,16,18,00,AAXX 16184 85586 32460 02706 10149 20115 40172 58006 82600 333 56600 82710=
85586,2000,11,16,21,00,AAXX 16214 85586 42460 53004 10143 20114 40163 57009=
85586,2000,11,17,00,00,AAXX 17004 85586 32460 70000 10127 20111 40163 55000 87600 333 10154 56600 87710=
85586,2000,11,17,03,00,AAXX 17034 85586 NIL=
85586,2000,11,17,06,00,AAXX 17064 85586 NIL=
85586,2000,11,17,09,00,AAXX 17094 85586 NIL=
85586,2000,11,17,12,00,AAXX 17124 85586 31456 80000 10125 20111 40164 53/// 7102/ 886// 333 20120 30/// 50250 55069 56699 88710=
85586,2000,11,17,15,00,AAXX 17154 85586 42460 53204 10153 20124 40159 58005=
85586,2000,11,17,18,00,AAXX 17184 85586 32960 72903 10149 20118 40164 51005 87600 333 56600 87710=
85586,2000,11,17,21,00,AAXX 17214 85586 41310 82705 10131 20118 40164 54000 71022 886// 333 56699 88708=
85586,2000,11,18,00,00,AAXX 18004 85586 11208 82702 10124 40170 53006 69901 75152 886// 333 10164 56699 88706=
85586,2000,11,18,03,00,AAXX 18034 85586 NIL=
85586,2000,11,18,06,00,AAXX 18064 85586 NIL=
85586,2000,11,18,09,00,AAXX 18094 85586 NIL=
85586,2000,11,18,12,00,AAXX 18124 85586 11356 81502 10121 20107 40172 53/// 69904 7102/ 886// 333 20112 31/// 50260 55023 566// 88708=
85586,2000,11,18,15,00,AAXX 18154 85586 42460 42604 10154 20123 40169 51003 84500 333 56600 84613=
85586,2000,11,18,18,00,AAXX 18184 85586 32460 12904 10165 20122 40167 54001 81600 333 56600 81710=
85586,2000,11,18,21,00,AAXX 18214 85586 42960 02507 10187 20122 40149 57018=
85586,2000,11,19,00,00,AAXX 19004 85586 32960 00000 10144 20114 40159 52020 333 10197=
85586,2000,11,19,03,00,AAXX 19034 85586 NIL=
85586,2000,11,19,06,00,AAXX 19064 85586 NIL=
85586,2000,11,19,09,00,AAXX 19094 85586 NIL=
85586,2000,11,19,12,00,AAXX 19124 85586 32960 02302 10143 20124 40158 53/// 333 20072 30/// 50180 55085=
85586,2000,11,19,15,00,AAXX 19154 85586 42960 02307 10176 20111 40157 54000=
85586,2000,11,19,18,00,AAXX 19184 85586 32960 02411 10173 20099 40158 54001=
85586,2000,11,19,21,00,AAXX 19214 85586 42960 02510 10177 20098 40135 57013=
85586,2000,11,20,00,00,AAXX 20004 85586 32960 03602 10142 20105 40155 53009 333 10183=
85586,2000,11,20,03,00,AAXX 20034 85586 NIL=
85586,2000,11,20,06,00,AAXX 20064 85586 NIL=
85586,2000,11,20,09,00,AAXX 20094 85586 NIL=
85586,2000,11,20,12,00,AAXX 20124 85586 32960 00201 10149 20104 40162 52/// 333 20059 30/// 50310 55127=
85586,2000,11,20,15,00,AAXX 20154 85586 42960 02505 10173 20100 40158 58003=
85586,2000,11,20,18,00,AAXX 20184 85586 32960 02407 10197 20109 40147 57010=
85586,2000,11,20,21,00,AAXX 20214 85586 42960 02705 10187 20109 40140 55008=
85586,2000,11,21,00,00,AAXX 21004 85586 32960 00000 10138 20098 40153 53012 333 10198=
85586,2000,11,21,06,00,AAXX 21064 85586 NIL=
85586,2000,11,21,12,00,AAXX 21124 85586 32960 33601 10155 20103 40136 53/// 80001 333 20054 30/// 50330 55129 56005 83073=
85586,2000,11,21,15,00,AAXX 21154 85586 42960 62705 10180 20109 40145 54001 80001 333 56005 86073=
85586,2000,11,21,18,00,AAXX 21184 85586 32960 72314 10188 20116 40136 57009 83031 333 56055 83364 84073=
85586,2000,11,21,21,00,AAXX 21214 85586 42960 72510 10174 20112 40135 54001=
85586,2000,11,22,00,00,AAXX 22004 85586 32960 33203 10136 20106 40151 53015 82031 333 10216 56055 82364 81073=
85586,2000,11,22,03,00,AAXX 22034 85586 NIL=
85586,2000,11,22,06,00,AAXX 22064 85586 NIL=
85586,2000,11,22,09,00,AAXX 22094 85586 NIL=
85586,2000,11,22,12,00,AAXX 22124 85586 32360 52401 10134 20114 40768 52/// 82601 333 20075 30/// 55081 56605 82708 83073=
85586,2000,11,22,15,00,AAXX 22154 85586 42356 73108 10148 20120 40182 52014 70522 87600 333 56600 87707=
85586,2000,11,22,18,00,AAXX 22184 85586 31358 63008 10166 20126 40176 56005 70522 85630 333 56660 85707=
85586,2000,11,22,21,00,AAXX 22214 85586 42460 42906 10168 20141 40167 57010 81501 333 56605 81615 83071=
85586,2000,11,23,00,00,AAXX 23004 85586 32960 00000 10134 20116 40178 52011 80001 333 10173 56005 81072=
85586,2000,11,23,03,00,AAXX 23034 85586 NIL=
85586,2000,11,23,06,00,AAXX 23064 85586 NIL=
85586,2000,11,23,09,00,AAXX 23094 85586 NIL=
85586,2000,11,23,12,00,AAXX 23124 85586 32960 11101 10143 20107 40167 52/// 81030 333 20073 30/// 50340 55116 56050 81365=
85586,2000,11,23,15,00,AAXX 23154 85586 42960 02408 10169 20119 40176 52010=
85586,2000,11,23,18,00,AAXX 23184 85586 32960 02312 10182 20113 40176 54000=
85586,2000,11,23,21,00,AAXX 23214 85586 42960 12310 10174 20119 40165 57011 80001 333 56005 81075=
85586,2000,11,24,00,00,AAXX 24004 85586 32960 03602 10140 20106 40167 54001 333 10190=
85586,2000,11,24,03,00,AAXX 24034 85586 NIL=
85586,2000,11,24,06,00,AAXX 24064 85586 NIL=
85586,2000,11,24,09,00,AAXX 24094 85586 NIL=
85586,2000,11,24,12,00,AAXX 24124 85586 32260 12503 10136 20109 40173 52/// 81600 333 20074 30/// 50350 55122 56600 81707=
85586,2000,11,24,15,00,AAXX 24154 85586 42960 02907 10154 20121 40169 55004=
85586,2000,11,24,18,00,AAXX 24184 85586 32960 02709 10172 20124 40164 58005=
85586,2000,11,25,00,00,AAXX 25004 85586 32960 03604 10132 20103 40163 55003 333 10178=
85586,2000,11,25,06,00,AAXX 25064 85586 NIL=
85586,2000,11,25,12,00,AAXX 25124 85586 32960 03204 10152 20113 40138 53/// 333 20073 30/// 50360 55127=
85586,2000,11,25,18,00,AAXX 25184 85586 32960 22306 10192 20107 40130 57005 80001 333 56006 82075=
85586,2000,11,26,00,00,AAXX 26004 85586 32960 60303 10153 20118 40131 53011 80001 333 10210 56006 86073=
85586,2000,11,26,06,00,AAXX 26064 85586 NIL=
85586,2000,11,26,12,00,AAXX 26124 85586 32960 12404 10161 20125 40143 52/// 80001 333 20093 30/// 50380 55099 56006 81073=
85586,2000,11,26,18,00,AAXX 26184 85586 32960 52410 10171 20121 40141 54002 80004 333 56005 85070=
85586,2000,11,27,00,00,AAXX 27004 85586 32960 43502 10166 20125 40146 52008 80001 333 10213 56006 84073=
85586,2000,11,27,06,00,AAXX 27064 85586 NIL=
85586,2000,11,27,12,00,AAXX 27124 85586 31240 70000 10127 20120 40156 53/// 7104/ 87600 333 20110 30/// 50490=
85586,2000,11,27,15,00,AAXX 27154 85586 41240 62406 10153 20120 40166 52010=
85586,2000,11,27,18,00,AAXX 27184 85586 31258 32707 10165 20125 40162 58003 70511 82601 333 56605 82604=
85586,2000,11,27,21,00,AAXX 27214 85586 42960 02415 10177 20118 40153 57009=
85586,2000,11,28,00,00,AAXX 28004 85586 32960 00000 10136 20114 40156 54002 333 10184=
85586,2000,11,28,03,00,AAXX 28034 85586 NIL=
85586,2000,11,28,06,00,AAXX 28064 85586 NIL=
85586,2000,11,28,09,00,AAXX 28094 85586 NIL=
85586,2000,11,28,12,00,AAXX 28124 85586 32260 30000 10125 20112 40158 52/// 83600 333 20080 30/// 50350 55092 56600 83705=
85586,2000,11,28,15,00,AAXX 28154 85586 42360 4//// 10154 20113 40167 52009 81601 333 56606 81709 83073=
85586,2000,11,28,18,00,AAXX 28184 85586 32960 02607 10164 20126 40169 52003=
85586,2000,11,28,21,00,AAXX 28214 85586 42460 12708 10156 20120 40165 58004 81600 333 56600 81710=
85586,2000,11,29,00,00,AAXX 29004 85586 32460 60104 10134 20112 40169 55003 86500 333 10182 56600 86610=
85586,2000,11,29,03,00,AAXX 29034 85586 NIL=
85586,2000,11,29,06,00,AAXX 29064 85586 NIL=
85586,2000,11,29,09,00,AAXX 29094 85586 NIL=
85586,2000,11,29,12,00,AAXX 29124 85586 31108 72705 10119 20115 40169 52/// 7424/ 87600 333 20066 30/// 50210 55104 56600 87703=
85586,2000,11,29,15,00,AAXX 29154 85586 41250 23009 10151 20116 40167 58002 70541 82600 333 56600 82704=
85586,2000,11,29,18,00,AAXX 29184 85586 32960 02810 10167 20125 40167 54001=
85586,2000,11,29,21,00,AAXX 29214 85586 42960 03006 10161 20112 40158 57009=
85586,2000,11,30,00,00,AAXX 30004 85586 32360 10000 10130 20112 40167 57008 81600 333 10170 56600 81708=
85586,2000,11,30,03,00,AAXX 30034 85586 NIL=
85586,2000,11,30,06,00,AAXX 30064 85586 NIL=
85586,2000,11,30,09,00,AAXX 30094 85586 NIL=
85586,2000,11,30,12,00,AAXX 30124 85586 32360 12503 10139 20110 40156 52/// 81600 333 20050 30/// 50360 55093 56600 81707=
85586,2000,11,30,15,00,AAXX 30154 85586 42360 23009 10162 20124 40161 51006 82600 333 56600 82708=
85586,2000,11,30,18,00,AAXX 30184 85586 32260 62710 10153 20114 40165 51003 86600 333 56600 86705=
85586,2000,11,30,21,00,AAXX 30214 85586 42460 72608 10143 20120 40159 58006 87500 333 56600 87612=
85586,2000,12,01,00,00,AAXX 01004 85586 32460 73204 10132 20112 40163 57004 87500 333 10166 56600 87612=
85586,2000,12,01,03,00,AAXX 01034 85586 NIL=
85586,2000,12,01,06,00,AAXX 01064 85586 NIL=
85586,2000,12,01,09,00,AAXX 01094 85586 NIL=
85586,2000,12,01,12,00,AAXX 01124 85586 32210 80000 10122 20118 40165 53/// 7104/ 886// 333 20097 30/// 50250 55084 56699 88704=
85586,2000,12,01,15,00,AAXX 01154 85586 42260 23006 10156 20129 40162 50002 82600 333 56600 82704=
85586,2000,12,01,18,00,AAXX 01184 85586 32960 02713 10190 20123 40154 58007=
85586,2000,12,01,21,00,AAXX 01214 85586 42460 22317 10186 20110 40142 57012 81201 333 56606 81815 81075=
85586,2000,12,02,00,00,AAXX 02004 85586 32960 00000 10143 20095 40153 55010 333 10205=
85586,2000,12,02,03,00,AAXX 02034 85586 NIL=
85586,2000,12,02,06,00,AAXX 02064 85586 NIL=
85586,2000,12,02,09,00,AAXX 02094 85586 NIL=
85586,2000,12,02,12,00,AAXX 02124 85586 32960 02701 10151 20110 40161 53/// 333 20067 30/// 50330 55103=
85586,2000,12,02,15,00,AAXX 02154 85586 42960 02308 10195 20102 40153 57008=
85586,2000,12,02,18,00,AAXX 02184 85586 32960 02416 10200 20081 40146 56007=
85586,2000,12,02,21,00,AAXX 02214 85586 42960 02414 10176 20093 40138 56007=
85586,2000,12,03,00,00,AAXX 03004 85586 32960 02604 10137 20087 40154 52015 333 10203=
85586,2000,12,03,03,00,AAXX 03034 85586 NIL=
85586,2000,12,03,06,00,AAXX 03064 85586 NIL=
85586,2000,12,03,09,00,AAXX 03094 85586 NIL=
85586,2000,12,03,12,00,AAXX 03124 85586 32960 00000 10137 20108 40181 52/// 333 20063 30/// 50370 55125=
85586,2000,12,03,15,00,AAXX 03154 85586 42960 02407 10171 20112 40180 54000=
85586,2000,12,03,18,00,AAXX 03184 85586 32960 02417 10170 20107 40176 57004=
85586,2000,12,03,21,00,AAXX 03214 85586 42960 02510 10174 20115 40161 57015=
85586,2000,12,04,00,00,AAXX 04004 85586 32960 02404 10131 20100 40173 53011 333 10182=
85586,2000,12,04,03,00,AAXX 04034 85586 NIL=
85586,2000,12,04,06,00,AAXX 04064 85586 NIL=
85586,2000,12,04,09,00,AAXX 04094 85586 NIL=
85586,2000,12,04,12,00,AAXX 04124 85586 32970 02702 10131 20106 40171 52/// 333 20057 30/// 50390 55124=
85586,2000,12,04,15,00,AAXX 04154 85586 42//0 02903 10162 20100 40167 58004=
85586,2000,12,04,18,00,AAXX 04184 85586 32970 02511 10184 20101 40152 57014=
85586,2000,12,04,21,00,AAXX 04214 85586 42970 02508 10188 20104 40139 57013=
85586,2000,12,05,00,00,AAXX 05004 85586 32970 00000 10150 20101 40153 52013 333 10203=
85586,2000,12,05,03,00,AAXX 05034 85586 NIL=
85586,2000,12,05,06,00,AAXX 05064 85586 NIL=
85586,2000,12,05,09,00,AAXX 05094 85586 NIL=
85586,2000,12,05,12,00,AAXX 05124 85586 32960 00000 10183 20126 40155 52/// 333 20079 30/// 50430 55129=
85586,2000,12,05,15,00,AAXX 05154 85586 42960 02405 10202 20133 40143 52011=
85586,2000,12,05,18,00,AAXX 05184 85586 32960 02710 10184 20115 40143 54001=
85586,2000,12,05,21,00,AAXX 05214 85586 42960 02707 10171 20127 40144 54001=
85586,2000,12,06,00,00,AAXX 06004 85586 32360 73205 10136 20115 40148 56003 87600 333 10201 56600 87708=
85586,2000,12,06,03,00,AAXX 06034 85586 NIL=
85586,2000,12,06,06,00,AAXX 06064 85586 NIL=
85586,2000,12,06,09,00,AAXX 06094 85586 NIL=
85586,2000,12,06,12,00,AAXX 06124 85586 31357 83202 10138 20115 40154 52/// 7052/ 886// 333 20130 30/// 50340 55112 56699 88708=
85586,2000,12,06,15,00,AAXX 06154 85586 42460 83203 10156 20112 40170 52016 885// 333 56699 88613=
85586,2000,12,06,18,00,AAXX 06184 85586 32460 33102 10183 20127 40160 58009 81501 333 56605 81615 82073=
85586,2000,12,06,21,00,AAXX 06214 85586 42460 72704 10162 20112 40165 57005 87500 333 56600 87617=
85586,2000,12,07,00,00,AAXX 07004 85586 32460 82702 10137 20116 40162 52011 885// 333 10186 56699 88613=
85586,2000,12,07,03,00,AAXX 07034 85586 NIL=
85586,2000,12,07,06,00,AAXX 07064 85586 NIL=
85586,2000,12,07,09,00,AAXX 07094 85586 NIL=
85586,2000,12,07,12,00,AAXX 07124 85586 31240 80000 10128 20121 40173 52/// 7104/ 886// 333 20127 30/// 50300 55043 56099 88704=
85586,2000,12,07,15,00,AAXX 07154 85586 42256 80000 10152 20132 40175 51002 70522 886// 333 56699 88708=
85586,2000,12,07,18,00,AAXX 07184 85586 32357 72706 10157 20123 40170 58003 70522 87600 333 56600 87708=
85586,2000,12,07,21,00,AAXX 07214 85586 42460 22806 10158 20118 40165 57005 82200 333 56600 82810=
85586,2000,12,08,00,00,AAXX 08004 85586 32960 03604 10131 20096 40175 53009 333 10166=
85586,2000,12,08,03,00,AAXX 08034 85586 NIL=
85586,2000,12,08,06,00,AAXX 08064 85586 NIL=
85586,2000,12,08,09,00,AAXX 08094 85586 NIL=
85586,2000,12,08,12,00,AAXX 08124 85586 32960 02605 10147 20108 40184 52/// 333 20072 30/// 50270 55037=
85586,2000,12,08,15,00,AAXX 08154 85586 42960 02603 10179 20109 40186 50003=
85586,2000,12,08,18,00,AAXX 08184 85586 32960 02611 10193 20089 40180 50006=
85586,2000,12,08,21,00,AAXX 08214 85586 42960 02414 10213 20103 40165 57013=
85586,2000,12,09,00,00,AAXX 09004 85586 32960 00000 10158 20112 40162 55005 333 10218=
85586,2000,12,09,03,00,AAXX 09034 85586 NIL=
85586,2000,12,09,06,00,AAXX 09064 85586 NIL=
85586,2000,12,09,09,00,AAXX 09094 85586 NIL=
85586,2000,12,09,12,00,AAXX 09124 85586 32960 03002 10176 20093 40143 55/// 333 20077 30/// 50370 55125=
85586,2000,12,09,15,00,AAXX 09154 85586 42960 02513 10200 20093 40141 54001=
85586,2000,12,09,18,00,AAXX 09184 85586 32960 02904 10181 20112 40154 53012=
85586,2000,12,09,21,00,AAXX 09214 85586 42960 03203 10176 20113 40138 58016=
85586,2000,12,10,00,00,AAXX 10004 85586 32960 03103 10146 20114 40145 53006 333 10216=
85586,2000,12,10,03,00,AAXX 10034 85586 NIL=
85586,2000,12,10,06,00,AAXX 10064 85586 NIL=
85586,2000,12,10,09,00,AAXX 10094 85586 NIL=
85586,2000,12,10,12,00,AAXX 10124 85586 31240 70000 10139 20123 40152 52/// 7104/ 87600 333 20083 30/// 50310 55128 56600 87706=
85586,2000,12,10,15,00,AAXX 10154 85586 42460 63103 10160 20126 40163 52011 84601 333 56607 84712 82073=
85586,2000,12,10,18,00,AAXX 10184 85586 31458 63006 10155 20115 40163 50000 70522 86600 333 56600 86712=
85586,2000,12,10,21,00,AAXX 10214 85586 42460 63205 10155 20129 40151 58012 86500 333 56600 86615=
85586,2000,12,11,00,00,AAXX 11004 85586 32460 53402 10145 20122 40153 54001 85500 333 10167 56600 85615=
85586,2000,12,11,03,00,AAXX 11034 85586 NIL=
85586,2000,12,11,06,00,AAXX 11064 85586 NIL=
85586,2000,12,11,09,00,AAXX 11094 85586 NIL=
85586,2000,12,11,12,00,AAXX 11124 85586 32960 02502 10149 20128 40142 54/// 333 20068 30/// 50350 55063=
85586,2000,12,11,15,00,AAXX 11154 85586 42960 02411 10187 20124 40132 57009=
85586,2000,12,11,18,00,AAXX 11184 85586 32960 02610 10196 20111 40128 57003=
85586,2000,12,11,21,00,AAXX 11214 85586 42960 02511 10187 20119 40119 57010=
85586,2000,12,12,00,00,AAXX 12004 85586 32960 00000 10156 20122 40129 57010 333 10198=
85586,2000,12,12,03,00,AAXX 12034 85586 NIL=
85586,2000,12,12,06,00,AAXX 12064 85586 NIL=
85586,2000,12,12,09,00,AAXX 12094 85586 NIL=
85586,2000,12,12,12,00,AAXX 12124 85586 32960 00000 10144 20112 40122 53/// 333 20050 30/// 50400 55130=
85586,2000,12,12,15,00,AAXX 12154 85586 42960 02406 10171 20112 40121 54000=
85586,2000,12,12,18,00,AAXX 12184 85586 32960 12614 10193 20110 40112 57009 80001 333 56008 81075=
85586,2000,12,12,21,00,AAXX 12214 85586 42960 02416 10187 20105 40106 57006=
85586,2000,12,13,00,00,AAXX 13004 85586 32960 00304 10148 20096 40126 53019 333 10196=
85586,2000,12,13,03,00,AAXX 13034 85586 NIL=
85586,2000,12,13,06,00,AAXX 13064 85586 NIL=
85586,2000,12,13,09,00,AAXX 13094 85586 NIL=
85586,2000,12,13,12,00,AAXX 13124 85586 32460 13604 10143 20107 40161 52/// 81500 333 20081 30/// 50330 55128 56600 81610=
85586,2000,12,13,15,00,AAXX 13154 85586 42960 02908 10169 20119 40167 51007=
85586,2000,12,13,18,00,AAXX 13184 85586 32960 02805 10178 20129 40168 54001=
85586,2000,12,13,21,00,AAXX 13214 85586 42960 02806 10175 20114 40164 58004=
85586,2000,12,14,00,00,AAXX 14004 85586 32960 03202 10150 20119 40177 52012 333 10180=
85586,2000,12,14,03,00,AAXX 14034 85586 NIL=
85586,2000,12,14,06,00,AAXX 14064 85586 NIL=
85586,2000,12,14,09,00,AAXX 14094 85586 NIL=
85586,2000,12,14,12,00,AAXX 14124 85586 32960 02102 10177 20131 40179 52/// 333 20103 30/// 50380 55117=
85586,2000,12,14,15,00,AAXX 14154 85586 42460 22311 10196 20129 40180 53002 81501 333 56505 81615 81073=
85586,2000,12,14,18,00,AAXX 14184 85586 32460 32710 10188 20040 40177 58003 81501 333 56505 81615 82073=
85586,2000,12,14,21,00,AAXX 14214 85586 42460 62809 10168 20123 40173 57004 81530 333 56550 81615 85362=
85586,2000,12,15,00,00,AAXX 15004 85586 32460 62708 10149 20126 40188 52014 81531 333 10203 56555 81615 83362 82073=
85586,2000,12,15,03,00,AAXX 15034 85586 NIL=
85586,2000,12,15,06,00,AAXX 15064 85586 NIL=
85586,2000,12,15,09,00,AAXX 15094 85586 NIL=
85586,2000,12,15,12,00,AAXX 15124 85586 32960 01504 10185 20132 40200 53/// 333 20101 30/// 50410 55102=
85586,2000,12,15,15,00,AAXX 15154 85586 42960 02411 10205 20131 40192 57008=
85586,2000,12,15,18,00,AAXX 15184 85586 32460 12314 10187 20111 40189 57003 81200 333 56000 81815=
85586,2000,12,15,21,00,AAXX 15214 85586 42960 02308 10202 20096 40177 57011=
85586,2000,12,16,00,00,AAXX 16004 85586 32960 00000 10181 20108 40179 54001 333 10206=
85586,2000,12,16,03,00,AAXX 16034 85586 NIL=
85586,2000,12,16,06,00,AAXX 16064 85586 NIL=
85586,2000,12,16,09,00,AAXX 16094 85586 NIL=
85586,2000,12,16,12,00,AAXX 16124 85586 32960 12902 10181 20103 40170 53/// 80001 333 20088 30/// 50400 55128 56005 81073=
85586,2000,12,16,15,00,AAXX 16154 85586 42960 12513 10207 20100 40161 58007 80001 333 56005 81073=
85586,2000,12,16,18,00,AAXX 16184 85586 32960 22410 10193 20106 40158 57005 80001 333 56005 82073=
85586,2000,12,16,21,00,AAXX 16214 85586 42960 43603 10181 20112 40147 57011 80001 333 56005 84073=
85586,2000,12,17,00,00,AAXX 17004 85586 32960 40000 10164 20107 40146 54001 80001 333 10210 56005 84073=
85586,2000,12,17,03,00,AAXX 17034 85586 NIL=
85586,2000,12,17,06,00,AAXX 17064 85586 NIL=
85586,2000,12,17,09,00,AAXX 17094 85586 NIL=
85586,2000,12,17,12,00,AAXX 17124 85586 32960 03504 10158 20132 40166 52/// 333 20106 30/// 50490 55122=
85586,2000,12,17,15,00,AAXX 17154 85586 42460 13206 10180 20135 40180 52014 81600 333 56700 81710=
85586,2000,12,17,18,00,AAXX 17184 85586 32460 53009 10181 20135 40167 57013 85600 333 56700 85712=
85586,2000,12,17,21,00,AAXX 17214 85586 42960 02704 10189 20142 40146 57021=
85586,2000,12,18,00,00,AAXX 18004 85586 32460 22806 10155 20129 40149 53003 81601 333 10197 56607 81710 81075=
85586,2000,12,18,03,00,AAXX 18034 85586 NIL=
85586,2000,12,18,06,00,AAXX 18064 85586 NIL=
85586,2000,12,18,09,00,AAXX 18094 85586 NIL=
85586,2000,12,18,12,00,AAXX 18124 85586 31230 80000 10133 20123 40150 57/// 7102/ 886// 333 20132 30?/ 50380 55118 56699 88704=
85586,2000,12,18,15,00,AAXX 18154 85586 41350 83203 10157 20135 40153 51004 70522 886// 333 56699 88707=
85586,2000,12,18,18,00,AAXX 18184 85586 32460 63203 10179 20134 40152 55002 86500 333 56700 86615=
85586,2000,12,18,21,00,AAXX 18214 85586 NIL=
85586,2000,12,19,00,00,AAXX 19004 85586 NIL=
85586,2000,12,19,03,00,AAXX 19034 85586 NIL=
85586,2000,12,19,06,00,AAXX 19064 85586 NIL=
85586,2000,12,19,09,00,AAXX 19094 85586 NIL=
85586,2000,12,19,12,00,AAXX 19124 85586 31220 80000 10145 20136 40128 57/// 7102/ 886// 333 20090 30/// 50290 55018 56699 88704=
85586,2000,12,19,15,00,AAXX 19154 85586 41356 83303 10147 20131 40133 52005 71052 886// 333 56699 88706=
85586,2000,12,19,18,00,AAXX 19184 85586 11460 63205 10186 20142 40132 50000 69911 70152 86500 333 56600 86617=
85586,2000,12,19,21,00,AAXX 19214 85586 NIL=
85586,2000,12,20,00,00,AAXX 20004 85586 NIL=
85586,2000,12,20,03,00,AAXX 20034 85586 NIL=
85586,2000,12,20,06,00,AAXX 20064 85586 NIL=
85586,2000,12,20,09,00,AAXX 20094 85586 NIL=
85586,2000,12,20,12,00,AAXX 20124 85586 11456 80000 10149 20127 40138 52/// 69914 7052/ 886// 333 20108 30/// 50210 55053 56699 70001 88710=
85586,2000,12,20,15,00,AAXX 20154 85586 41457 83003 10167 20142 40142 51005 70522 886// 333 56699 88710=
85586,2000,12,20,18,00,AAXX 20184 85586 32460 72910 10175 20139 40144 54002 87500 333 56600 87615=
85586,2000,12,20,21,00,AAXX 20214 85586 NIL=
85586,2000,12,21,00,00,AAXX 21004 85586 NIL=
85586,2000,12,21,03,00,AAXX 21034 85586 NIL=
85586,2000,12,21,06,00,AAXX 21064 85586 NIL=
85586,2000,12,21,09,00,AAXX 21094 85586 NIL=
85586,2000,12,21,12,00,AAXX 21124 85586 32460 82703 10156 20139 40183 52/// 885// 333 20143 30/// 50230 55009 56699 88617=
85586,2000,12,21,15,00,AAXX 21154 85586 42560 32603 10196 20148 40181 50001 83500 333 56600 83620=
85586,2000,12,21,18,00,AAXX 21184 85586 32960 02505 10200 20149 40181 50000=
85586,2000,12,21,21,00,AAXX 21214 85586 NIL=
85586,2000,12,22,00,00,AAXX 22004 85586 NIL=
85586,2000,12,22,03,00,AAXX 22034 85586 NIL=
85586,2000,12,22,06,00,AAXX 22064 85586 NIL=
85586,2000,12,22,09,00,AAXX 22094 85586 NIL=
85586,2000,12,22,12,00,AAXX 22124 85586 31108 82701 10132 20127 40153 53/// 7442/ 886// 333 20112 30/// 50290 55090 56099 88703=
85586,2000,12,22,15,00,AAXX 22154 85586 41250 72703 10159 20133 40154 54002 70542 87600 333 56600 87704=
85586,2000,12,22,18,00,AAXX 22184 85586 32960 02615 10179 20130 40154 54000=
85586,2000,12,22,21,00,AAXX 22214 85586 NIL=
85586,2000,12,23,00,00,AAXX 23004 85586 NIL=
85586,2000,12,23,03,00,AAXX 23034 85586 NIL=
85586,2000,12,23,06,00,AAXX 23064 85586 NIL=
85586,2000,12,23,09,00,AAXX 23094 85586 NIL=
85586,2000,12,23,12,00,AAXX 23124 85586 32960 02702 10158 20122 40151 54/// 333 20086 30/// 50410 55111=
85586,2000,12,23,15,00,AAXX 23154 85586 42960 22609 10190 20135 40158 52007=
85586,2000,12,23,18,00,AAXX 23184 85586 32960 02513 10191 20105 40164 52006=
85586,2000,12,23,21,00,AAXX 23214 85586 NIL=
85586,2000,12,24,00,00,AAXX 24004 85586 NIL=
85586,2000,12,24,03,00,AAXX 24034 85586 NIL=
85586,2000,12,24,06,00,AAXX 24064 85586 NIL=
85586,2000,12,24,09,00,AAXX 24094 85586 NIL=
85586,2000,12,24,12,00,AAXX 24124 85586 32960 00302 10165 20127 40148 54/// 333 20070 30/// 50520 55133=
85586,2000,12,24,15,00,AAXX 24154 85586 42960 22411 10205 20140 40148 54000 80001 333 56005 82073=
85586,2000,12,24,18,00,AAXX 24184 85586 NIL=
85586,2000,12,24,21,00,AAXX 24214 85586 NIL=
85586,2000,12,25,00,00,AAXX 25004 85586 NIL=
85586,2000,12,25,03,00,AAXX 25034 85586 NIL=
85586,2000,12,25,06,00,AAXX 25064 85586 NIL=
85586,2000,12,25,09,00,AAXX 25094 85586 NIL=
85586,2000,12,25,12,00,AAXX 25124 85586 32960 50000 10141 20125 40145 53/// 82031 333 20064 30/// 50500 55112 56005 82365 83073=
85586,2000,12,25,15,00,AAXX 25154 85586 42960 52507 10195 20153 40146 52003 80001 333 56005=
85586,2000,12,25,18,00,AAXX 25184 85586 32960 52510 10202 20151 40151 52005 83031 333 56055 83363=
85586,2000,12,25,21,00,AAXX 25214 85586 NIL=
85586,2000,12,26,00,00,AAXX 26004 85586 NIL=
85586,2000,12,26,03,00,AAXX 26034 85586 NIL=
85586,2000,12,26,06,00,AAXX 26064 85586 NIL=
85586,2000,12,26,09,00,AAXX 26094 85586 NIL=
85586,2000,12,26,12,00,AAXX 26124 85586 32260 22804 10156 20135 40140 53/// 82600 333 20057 30/// 50470 55098 56600 82706=
85586,2000,12,26,15,00,AAXX 26154 85586 42960 32707 10195 20128 40143 52004 83030 333 56600 83365=
85586,2000,12,26,18,00,AAXX 26184 85586 32960 52411 10185 20132 40158 52014 85030 333 56060 85365=
85586,2000,12,26,21,00,AAXX 26214 85586 NIL=
85586,2000,12,27,00,00,AAXX 27004 85586 NIL=
85586,2000,12,27,03,00,AAXX 27034 85586 NIL=
85586,2000,12,27,06,00,AAXX 27064 85586 NIL=
85586,2000,12,27,09,00,AAXX 27094 85586 NIL=
85586,2000,12,27,12,00,AAXX 27124 85586 NIL=
85586,2000,12,27,15,00,AAXX 27154 85586 NIL=
85586,2000,12,27,18,00,AAXX 27184 85586 NIL=
85586,2000,12,27,21,00,AAXX 27214 85586 NIL=
85586,2000,12,28,00,00,AAXX 28004 85586 NIL=
85586,2000,12,28,03,00,AAXX 28034 85586 NIL=
85586,2000,12,28,06,00,AAXX 28064 85586 NIL=
85586,2000,12,28,09,00,AAXX 28094 85586 NIL=
85586,2000,12,28,12,00,AAXX 28124 85586 32960 33006 10153 20112 40168 52/// 83030 333 20100 30/// 56050 83365=
85586,2000,12,28,15,00,AAXX 28154 85586 42960 22709 10174 20134 40171 52004 82030 333 56050 82365=
85586,2000,12,28,18,00,AAXX 28184 85586 32960 02314 10177 20129 40176 52005=
85586,2000,12,28,21,00,AAXX 28214 85586 NIL=
85586,2000,12,29,00,00,AAXX 29004 85586 NIL=
85586,2000,12,29,03,00,AAXX 29034 85586 NIL=
85586,2000,12,29,06,00,AAXX 29064 85586 NIL=
85586,2000,12,29,09,00,AAXX 29094 85586 NIL=
85586,2000,12,29,12,00,AAXX 29124 85586 32960 02902 10145 20109 40172 53/// 333 20050 30/// 50430 55128=
85586,2000,12,29,15,00,AAXX 29154 85586 42960 02908 10171 20106 40177 52006=
85586,2000,12,29,18,00,AAXX 29184 85586 32960 02713 10176 20113 40171 58006=
85586,2000,12,29,21,00,AAXX 29214 85586 NIL=
85586,2000,12,30,00,00,AAXX 30004 85586 NIL=
85586,2000,12,30,03,00,AAXX 30034 85586 NIL=
85586,2000,12,30,06,00,AAXX 30064 85586 NIL=
85586,2000,12,30,09,00,AAXX 30094 85586 NIL=
85586,2000,12,30,12,00,AAXX 30124 85586 31230 83102 10136 20125 40144 52/// 7102/ 886// 333 20034 30/// 50380 55120=
85586,2000,12,30,15,00,AAXX 30154 85586 41256 53107 10171 20128 40155 52012 70522 85600 333 56700 85706=
85586,2000,12,30,18,00,AAXX 30184 85586 32460 33209 10188 2013340161 52006 83500 333 56700 83615=
85586,2000,12,30,21,00,AAXX 30214 85586 NIL=
85586,2000,12,31,00,00,AAXX 31004 85586 NIL=
85586,2000,12,31,03,00,AAXX 31034 85586 NIL=
85586,2000,12,31,06,00,AAXX 31064 85586 NIL=
85586,2000,12,31,09,00,AAXX 31094 85586 NIL=
85586,2000,12,31,12,00,AAXX 31124 85586 31340 80000 10146 20136 40168 52/// 7102/ 886// 333 20133 30/// 50310 55042 56799 88707=
85586,2000,12,31,15,00,AAXX 31154 85586 41459 82803 10165 20129 40180 52013 70522 885// 333 56799 88612=
85586,2000,12,31,18,00,AAXX 31184 85586 32560 62407 10188 20124 40176 58004 96500 333 56700 86620=
85586,2000,12,31,21,00,AAXX 31214 85586 NIL=
