85586,2010,01,01,00,00,AAXX 01004 85586 12960 02606 10155 20130 40187 52006 60001 333 10196=
85586,2010,01,01,12,00,AAXX 01124 85586 12960 01804 10167 20120 40185 54000 60004 333 20082 30/// 50360 55081=
85586,2010,01,01,15,00,AAXX 01154 85586 42960 02410 10200 20138 40175 57009=
85586,2010,01,01,18,00,AAXX 01184 85586 12960 02317 10201 20144 40159 57016 60001=
85586,2010,01,02,00,00,AAXX 02004 85586 12960 02303 10176 20138 40130 54002 60001 333 10212=
85586,2010,01,02,12,00,AAXX 02124 85586 12960 02602 10154 20126 40103 56002 60004 333 20090 30/// 50360 55129=
85586,2010,01,02,18,00,AAXX 02184 85586 12560 12509 10192 20127 40095 57004 60001 81500 333 56600 81623=
85586,2010,01,03,00,00,AAXX 03004 85586 12460 82805 10150 20133 40116 52016 60001 885// 333 10198 56699 88615=
85586,2010,01,03,12,00,AAXX 03124 85586 12560 83303 10142 20119 40146 52022 60004 885// 333 20136 30/// 50320 55103 56699 88620=
85586,2010,01,03,18,00,AAXX 03184 85586 12460 72707 10184 20128 40161 51003 87500 333 56600 81615 87623=
85586,2010,01,04,00,00,AAXX 04004 85586 12960 02604 10154 20126 40143 57006 60001 333 10196=
85586,2010,01,04,12,00,AAXX 04124 85586 11558 81204 10158 20131 40147 52016 60004 7052/ 885// 333 20136 30/// 50280 56099 88623=
85586,2010,01,04,18,00,AAXX 04184 85586 12760 22312 10190 20105 40147 54004 60001 82400 333 56600 82650=
85586,2010,01,05,00,00,AAXX 05004 85586 12960 02408 10164 20133 40139 57006 60001 333 10200=
85586,2010,01,05,12,00,AAXX 05124 85586 12960 00000 10151 20118 40172 52026 60004 333 20098 30/// 50350 55063=
85586,2010,01,05,18,00,AAXX 05184 85586 12960 02313 10204 20117 40188 52007 60001=
85586,2010,01,05,21,00,AAXX 05214 85586 42960 02712 10200 20117 40189 54000=
85586,2010,01,06,00,00,AAXX 06004 85586 12960 02306 10168 20134 40166 57022 60001 333 10206=
85586,2010,01,06,12,00,AAXX 06124 85586 12960 02803 10160 20129 40156 52010 60004 333 20098 30/// 50340 55127=
85586,2010,01,06,18,00,AAXX 06184 85586 12960 02312 10183 20114 40149 57006 60001=
85586,2010,01,07,00,00,AAXX 07004 85586 12960 00303 10160 20126 40150 53013 60001 333 10195=
85586,2010,01,07,12,00,AAXX 07124 85586 11256 33504 10144 20121 40166 52023 60004 70500 83600 333 20090 30/// 50370 55123 56700 83704=
85586,2010,01,07,15,00,AAXX 07154 85586 41458 43008 10160 20138 40182 52017 70520 84600 333 56700 84710=
85586,2010,01,07,18,00,AAXX 07184 85586 12960 02408 10186 20113 40170 57012 60001=
85586,2010,01,08,00,00,AAXX 08004 85586 12460 23406 10147 20123 40148 54002 60001 82500 333 10192 56700 82615=
85586,2010,01,08,12,00,AAXX 08124 85586 12460 10000 10130 20105 40159 52013 60004 81600 333 20078 30/// 50320 55103 56600 81710=
85586,2010,01,08,18,00,AAXX 08184 85586 12960 02408 10190 20127 40157 54000 60001=
85586,2010,01,09,00,00,AAXX 09004 85586 12960 12404 10166 20098 40129 57011 60001 80001 333 10210 56006 81075=
85586,2010,01,09,12,00,AAXX 09124 85586 12960 10000 10140 20111 40141 52013 60004 80001 333 20068 30/// 50370 55123 56006 81075=
85586,2010,01,09,15,00,AAXX 09154 85586 42960 12605 10190 20123 40154 52012 80001 333 56006 81075=
85586,2010,01,09,18,00,AAXX 09184 85586 12960 02410 10192 20121 40150 58004 60001=
85586,2010,01,10,00,00,AAXX 10004 85586 12960 00000 10174 20108 40134 54000 60001 333 10204=
85586,2010,01,10,12,00,AAXX 10124 85586 12960 13604 10152 20109 40141 52010 60004 80001 333 20070 30/// 50340 55119 56006 81075=
85586,2010,01,10,15,00,AAXX 10154 85586 41456 53209 10168 20138 40148 52007 70521 85600 333 56700 85710=
85586,2010,01,10,18,00,AAXX 10184 85586 12460 12708 10178 20131 40145 58003 60001 81600 333 56600 81710=
85586,2010,01,11,12,00,AAXX 11124 85586 11240 70000 10118 20109 40176 52020 60004 7102/ 87600 333 20090 30/// 50330 55120 56700 87706=
85586,2010,01,11,18,00,AAXX 11184 85586 12960 02608 10186 20118 40196 52009 60001=
85586,2010,01,12,00,00,AAXX 12004 85586 12960 00000 10171 20138 40213 52009 60001 333 10193=
85586,2010,01,12,12,00,AAXX 12124 85586 12960 01607 10172 20099 40207 52013 60004 333 20104 30/// 50370 55106=
85586,2010,01,12,15,00,AAXX 12154 85586 42960 02210 10240 20122 40197 57010=
85586,2010,01,12,18,00,AAXX 12184 85586 12960 02412 10212 20128 40188 57009 60001=
85586,2010,01,12,21,00,AAXX 12214 85586 42960 02218 10210 20107 40168 57021=
85586,2010,01,13,00,00,AAXX 13004 85586 12960 02305 10171 20104 40167 54000 60001 333 10243=
85586,2010,01,13,12,00,AAXX 13124 85586 12960 01303 10185 20100 40170 53006 60004 333 20091 50400 55127=
85586,2010,01,13,18,00,AAXX 13184 85586 12960 02518 10200 20117 40160 57015 60001=
85586,2010,01,14,00,00,AAXX 14004 85586 12960 13603 10180 20108 40148 52006 60001 80001 333 10246 56006 81075=
85586,2010,01,14,12,00,AAXX 14124 85586 12960 33103 10134 20109 40139 52011 60004 80001 333 20066 30/// 50330 55128 56006 83075=
85586,2010,01,14,15,00,AAXX 14154 85586 42960 03010 10180 20124 40158 52019=
85586,2010,01,14,18,00,AAXX 14184 85586 12960 02710 10178 20125 40162 54003 60001=
85586,2010,01,15,00,00,AAXX 15004 85586 12960 12702 10154 20122 40152 57006 60001 80001 333 10186 56006 81075=
85586,2010,01,15,12,00,AAXX 15124 85586 11456 83204 10140 20119 40168 52009 60004 7052/ 886// 333 20096 30/// 50350 55121 56099 88713=
85586,2010,01,15,15,00,AAXX 15154 85586 41457 83105 10147 20117 40168 54000 70522 885// 333 56699 88615=
85586,2010,01,15,18,00,AAXX 15184 85586 11458 32808 10175 20124 40169 54002 60001 70511 83500 333 56600 83615=
85586,2010,01,16,00,00,AAXX 16004 85586 11458 52504 10152 20128 40158 57005 60001 70511 85500 333 10186 56600 85615=
85586,2010,01,16,12,00,AAXX 16124 85586 11312 80000 10126 20119 40145 51004 60004 7104/ 886// 333 20126 30/// 50300 55062 56099 88707=
85586,2010,01,16,18,00,AAXX 16184 85586 11457 82706 10154 20126 40161 52007 60001 70522 885// 333 56699 88613=
85586,2010,01,17,00,00,AAXX 17004 85586 11458 73104 10144 20118 40158 54002 60001 70522 87500 333 10156 56600 87615=
85586,2010,01,17,12,00,AAXX 17124 85586 12960 10000 10150 20120 40164 52010 60004 80001 333 20086 30/// 50290 55005 56006 81075=
85586,2010,01,17,18,00,AAXX 17184 85586 11220 82609 10168 20132 40173 51008 60001 71042 886// 333 56799 88706=
85586,2010,01,18,00,00,AAXX 18004 85586 11458 73406 10161 20131 40169 53002 60001 70522 87600 333 10172 56700 87615=
85586,2010,01,18,12,00,AAXX 18124 85586 11356 82104 10143 20122 40161 53018 60004 7052/ 8463/ 333 20123 30/// 50280 55047 56769 84708 84360=
85586,2010,01,18,18,00,AAXX 18184 85586 12960 42406 10182 20126 40180 52008 60001 84031 333 56066 84362 83070=
85586,2010,01,18,21,00,AAXX 18214 85586 42960 02412 10174 20109 40156 58024=
85586,2010,01,19,00,00,AAXX 19004 85586 12960 00405 10153 20101 40152 56005 60001 333 10192=
85586,2010,01,19,12,00,AAXX 19124 85586 12960 01004 10151 20110 40154 51016 60004 333 20073 30/// 50320 55066=
85586,2010,01,19,15,00,AAXX 19154 85586 42960 02408 10192 20135 40170 52017=
85586,2010,01,19,18,00,AAXX 19184 85586 12960 02310 10200 20122 40157 57013 60001=
85586,2010,01,20,00,00,AAXX 20004 85586 112960 00205 10154 20130 40141 57008 60001 333 10210=
85586,2010,01,20,12,00,AAXX 20124 85586 12960 00000 10178 20129 40126 54000 60004 333 20099 30/// 50360 55124=
85586,2010,01,20,18,00,AAXX 20184 85586 12960 02408 10210 20132 40113 57006 60001=
85586,2010,01,21,00,00,AAXX 21004 85586 12960 03405 10201 20141 40094 57004 60001 333 10260=
85586,2010,01,21,12,00,AAXX 21124 85586 11940 03407 10161 20143 40119 52015 60004 7050/ 333 20129 30/// 50030 55125=
85586,2010,01,21,18,00,AAXX 21184 85586 12960 02808 10184 20137 40130 52006 60001=
85586,2010,01,22,00,00,AAXX 22004 85586 12460 63305 10160 20139 40114 57015 60001 86500 333 10202 56700 86615=
85586,2010,01,22,12,00,AAXX 22124 85586 11003 83304 10134 20130 40134 52020 60004 7444/ 886// 333 20126 30/// 50290 55109 56799 88701=
85586,2010,01,22,18,00,AAXX 22184 85586 12460 63010 10172 20137 40149 54002 60001 86600 333 56700 86712=
85586,2010,01,23,00,00,AAXX 23004 85586 12960 03304 10151 20125 40122 57008 60001 333 10188=
85586,2010,01,23,12,00,AAXX 23124 85586 11340 83312 10141 20123 40137 52028 60004 7054/ 886// 333 20092 30/// 50280 55053 56799 88708=
85586,2010,01,23,18,00,AAXX 23184 85586 12960 12912 10194 20121 40154 51009 60001 70511 81500 333 56600 816450=
85586,2010,01,23,21,00,AAXX 23214 85586 42458 22911 10185 20128 40146 58007 70500 82500 333 56700 82615=
85586,2010,01,24,00,00,AAXX 24004 85586 11456 60000 10157 20125 40137 57010 60001 70500 86500 333 10196 56600 86615=
85586,2010,01,24,12,00,AAXX 24124 85586 11240 23204 10157 20130 40122 52017 60004 7050/ 82500 333 20118 30/// 50310 55079 82706=
85586,2010,01,24,18,00,AAXX 24184 85586 11456 82809 10174 20132 40142 51010 60001 70522 886// 333 56799 88710=
85586,2010,01,25,00,00,AAXX 25004 85586 11456 83005 10156 20131 40138 53003 60001 70522 885// 333 10186 30/// 56799 88615=
85586,2010,01,25,12,00,AAXX 25124 85586 11240 83004 10152 20133 40137 52024 60004 7100/ 886// 333 20//0 50280 55045 56799 88706=
85586,2010,01,25,18,00,AAXX 25184 85586 11458 42811 10199 20137 40166 51011 60001 70522 84500 333 56700 84615=
85586,2010,01,25,21,00,AAXX 25214 85586 41458 43110 10197 20138 40159 58007 70511 84500 333 56700 84615=
85586,2010,01,26,00,00,AAXX 26004 85586 12960 00000 10172 20126 40153 58007 60001 333 10205=
85586,2010,01,26,12,00,AAXX 26124 85586 11108 82604 10140 20134 40165 52021 60004 7424/ 886// 333 20128 30/// 50300 55071 56799 88702=
85586,2010,01,26,18,00,AAXX 26184 85586 12460 72506 10173 20143 40175 54001 60001 70242 87500 333 56700 87615=
85586,2010,01,27,00,00,AAXX 27004 85586 11457 80000 10150 20133 40154 54002 60001 70522 886// 333 10185 56799 88710=
85586,2010,01,27,12,00,AAXX 27124 85586 11002 70000 10125 20121 40119 57003 60004 7424/ 87600 333 20120 30/// 50250 55001 56700 87701=
85586,2010,01,27,18,00,AAXX 27184 85586 11960 02706 10188 20133 40110 54000 60001 70140=
85586,2010,01,27,21,00,AAXX 27214 85586 42960 03108 10183 20127 40105 57005=
85586,2010,01,28,00,00,AAXX 28004 85586 12360 33305 10162 20130 40115 53010 60001 83600 333 10194 56700 83708=
85586,2010,01,28,12,00,AAXX 28124 85586 12960 00000 10155 20136 40103 52020 60004 333 20096 30/// 50310 55105=
85586,2010,01,28,15,00,AAXX 28154 85586 41258 23108 10182 20146 40114 52011 70522 82600 333 56700 82705=
85586,2010,01,28,18,00,AAXX 28184 85586 12260 12810 10189 20143 40126 52012 60001 81600 333 56700 81706=
85586,2010,01,28,21,00,AAXX 28214 85586 42360 13006 10191 20156 40123 57003 81600 333 56700 81707=
85586,2010,01,29,00,00,AAXX 29004 85586 11350 83004 10162 20147 40119 57004 60001 70522 886// 333 10201 56799 88708=
85586,2010,01,29,12,00,AAXX 29124 85586 11208 80000 10143 20136 40132 52016 60004 7404/ 886// 333 20141 30/// 50310 55105 56799 88706=
85586,2010,01,29,15,00,AAXX 29154 85586 41440 82905 10181 20136 40131 54000 70544 886// 333 56799 88612=
85586,2010,01,29,18,00,AAXX 29184 85586 12960 62610 10196 20122 40132 53002 60001 80001 333 56006 86075=
85586,2010,01,29,21,00,AAXX 29214 85586 42960 62510 10198 20120 58009 80001 333 56006 86075=
85586,2010,01,30,00,00,AAXX 30004 85586 12960 40309 10163 20118 40119 56005 60001 80001 333 10201 56006 84075=
85586,2010,01,30,12,00,AAXX 30124 85586 12960 03004 10153 20118 40130 52026 60004 333 20094 30/// 50290 55071=
85586,2010,01,30,15,00,AAXX 30154 85586 42960 03008 10199 20129 40138 52010=
85586,2010,01,30,18,00,AAXX 30184 85586 12960 02414 10191 20104 51004 60001=
85586,2010,01,30,21,00,AAXX 30214 85586 42960 02512 10184 20099 40133 58010=
85586,2010,01,31,00,00,AAXX 31004 85586 12960 03607 10146 20101 40137 53003 60001 333 10202=
85586,2010,01,31,12,00,AAXX 31124 85586 12960 00000 10139 20108 40128 52020 60004 333 20066 30/// 50330 55124=
85586,2010,01,31,15,00,AAXX 31154 85586 42960 02708 10186 20109 40129 53002=
85586,2010,01,31,18,00,AAXX 31184 85586 12960 02511 10194 20127 40125 58005=
85586,2010,01,31,21,00,AAXX 31214 85586 42960 02312 10201 20102 40114 56009=
85586,2010,02,01,00,00,AAXX 01004 85586 12960 03504 10168 20098 40121 53006 60004 333 10214=
85586,2010,02,01,12,00,AAXX 01124 85586 12960 00704 10146 20120 40110 52008 60004 333 20077 30/// 50410 55124=
85586,2010,02,01,15,00,AAXX 01154 85586 42960 02806 10178 20127 40114 52005=
85586,2010,02,01,18,00,AAXX 01184 85586 12960 02609 10175 20136 40116 54002 60001=
85586,2010,02,01,21,00,AAXX 01214 85586 42960 02809 10172 20135 40109 57007=
85586,2010,02,02,00,00,AAXX 02004 85586 12460 32906 10140 20113 40108 54002 60001 333 10183 56600 83615=
85586,2010,02,02,12,00,AAXX 02124 85586 12460 83104 10140 20123 40103 52013 60004 7052/ 885// 333 20134 30/// 50030 55119 56699 88618=
85586,2010,02,02,15,00,AAXX 02154 85586 42560 83005 10152 20123 40115 52012 885// 333 56699 88620=
85586,2010,02,02,18,00,AAXX 02184 85586 12560 22508 10180 20129 40115 54001 60001 82500 333 56600 82620=
85586,2010,02,02,21,00,AAXX 02214 85586 42560 52506 10175 20133 40111 57004 85500 333 56600 85620=
85586,2010,02,03,00,00,AAXX 03004 85586 12560 42603 10152 20128 40121 53009 60001 81501 333 10183 56606 81620 83075=
85586,2010,02,03,12,00,AAXX 03124 85586 12560 20000 10142 20122 40139 52025 60004 82500 333 20072 30/// 50330 55060 56600 82620=
85586,2010,02,03,15,00,AAXX 03154 85586 42560 22313 10172 20139 40144 52006 82500 333 56600 82625=
85586,2010,02,03,18,00,AAXX 03184 85586 12960 02312 10193 20140 40141 58003 60001=
85586,2010,02,03,21,00,AAXX 03214 85586 42960 02312 10182 20137 40131 57010=
85586,2010,02,04,00,00,AAXX 04004 85586 12960 02307 10153 20113 40129 57003 60001 333 10194=
85586,2010,02,04,12,00,AAXX 04124 85586 12960 41004 10134 20103 40133 52016 60004 80001 333 20081 30/// 50270 55124 56006 84075=
85586,2010,02,04,15,00,AAXX 04154 85586 42960 32807 10182 20101 40130 54001 80001 333 56006 83075=
85586,2010,02,04,18,00,AAXX 04184 85586 12960 02319 10183 20096 40124 58006 60001=
85586,2010,02,04,21,00,AAXX 04214 85586 42960 22412 10174 20085 40114 57010 82030 333 56060 82365=
85586,2010,02,05,00,00,AAXX 05004 85586 12960 50000 10158 20100 40114 55000 60001 80001 333 10196 56006 85075=
85586,2010,02,05,12,00,AAXX 05124 85586 12960 00104 10148 20105 40143 52026 60004 333 20093 30/// 50310 55119=
85586,2010,02,05,15,00,AAXX 05154 85586 42960 03209 10191 20106 40153 52010=
85586,2010,02,05,18,00,AAXX 05184 85586 12960 02810 10189 20105 40155 50002 60001=
85586,2010,02,05,21,00,AAXX 05214 85586 42260 32509 10181 20134 40149 56006 83600 333 56700 83704=
85586,2010,02,06,00,00,AAXX 06004 85586 11358 73205 10162 20132 40140 56008 60001 70500 87600 333 10195 56700 87707=
85586,2010,02,06,12,00,AAXX 06124 85586 12560 61504 10161 20100 40151 52014 60004 86500 333 20143 30/// 50310 55111 56700 86620=
85586,2010,02,06,15,00,AAXX 06154 85586 42960 02609 10203 20099 40155 51005=
85586,2010,02,06,18,00,AAXX 06184 85586 12960 32610 10206 20116 40150 58004 60001 80001 333 56006 83075=
85586,2010,02,06,21,00,AAXX 06214 85586 42960 52809 10192 20127 40154 53002 80001 333 56006 85075=
85586,2010,02,07,00,00,AAXX 07004 85586 12960 73404 10166 20128 40159 51005 60004 80001 333 10218 56006 87075=
85586,2010,02,07,12,00,AAXX 07124 85586 12960 60000 10160 20128 40181 53019 60004 80001 333 20128 30/// 50033 50094 56006 86075=
85586,2010,02,07,15,00,AAXX 07154 85586 42960 42606 10204 20128 40193 52012 80001 333 56006 84075=
85586,2010,02,07,18,00,AAXX 07184 85586 12960 12508 10222 20136 40195 52003 60001 80001 333 56006 81075=
85586,2010,02,07,21,00,AAXX 07214 85586 42260 42407 10204 20163 40194 54002 84600 333 56700 84706=
85586,2010,02,08,00,00,AAXX 08004 85586 12260 52503 10178 20162 40201 52007 60001 85600 333 10224 56007 85706=
85586,2010,02,08,12,00,AAXX 08124 85586 11940 00000 10153 20143 40192 57005 60004 7050/ 333 20128 30/// 50360 55099=
85586,2010,02,08,15,00,AAXX 08154 85586 42960 02407 10190 20104 40191 54000=
85586,2010,02,08,18,00,AAXX 08184 85586 12960 02411 10210 20147 40175 57016 60001=
85586,2010,02,08,21,00,AAXX 08214 85586 42960 02610 10208 20150 40175 54000=
85586,2010,02,09,00,00,AAXX 09004 85586 12960 00404 10175 20124 40130 57045 60001 333 10213=
85586,2010,02,09,12,00,AAXX 09124 85586 12960 00000 10140 20113 40106 53017 60004 333 20084 30/// 50040 55099=
85586,2010,02,09,15,00,AAXX 09154 85586 42960 02806 10194 20097 40125 52021=
85586,2010,02,09,18,00,AAXX 09184 85586 12960 02210 10214 20132 40113 57013 60001=
85586,2010,02,09,21,00,AAXX 09214 85586 42960 02313 10192 20126 40101 57012=
85586,2010,02,10,00,00,AAXX 10004 85586 12960 00103 10176 20141 40101 54000 60001 333 10218=
85586,2010,02,10,12,00,AAXX 10124 85586 12960 00000 10144 20130 40089 54000 60001 333 20100 30/// 50360 55113=
85586,2010,02,10,15,00,AAXX 10154 85586 42260 13207 10188 20156 40099 52009 81600 333 56700 81705=
85586,2010,02,10,18,00,AAXX 10184 85586 12960 02906 10186 20117 40109 57011 60001=
85586,2010,02,10,21,00,AAXX 10214 85586 42960 02706 10178 20127 40107 54003=
85586,2010,02,11,00,00,AAXX 11004 85586 12960 03304 10150 20128 40116 52009 60001 333 10194=
85586,2010,02,11,12,00,AAXX 11124 85586 11457 83304 10142 20124 40143 52016 60004 7052/ 885// 333 20110 30/// 50330 55118 56099 88613=
85586,2010,02,11,15,00,AAXX 11154 85586 42460 52710 10174 20127 40153 52010 85400 333 56600 85615=
85586,2010,02,11,18,00,AAXX 11184 85586 12460 32607 10200 20128 40167 52014 60001 83400 333 56600 83620=
85586,2010,02,11,21,00,AAXX 11214 85586 42960 02410 10180 20127 40179 52012=
85586,2010,02,12,00,00,AAXX 12004 85586 12960 12504 10154 20126 40164 58016 60001 80001 333 10204 56006 81075=
85586,2010,02,12,12,00,AAXX 12124 85586 11440 83304 10134 20123 40159 52014 60004 7102/ 886// 333 20096 30/// 50300 55073 56099 88712=
85586,2010,02,12,15,00,AAXX 12154 85586 42460 32805 10172 20122 40170 52012 70520 83400 333 56600 83620=
85586,2010,02,12,18,00,AAXX 12184 85586 12460 22608 10174 20128 40170 54001 60001 82600 333 56600 82712=
85586,2010,02,12,21,00,AAXX 12214 85586 42960 02510 10168 20126 40164 57006=
85586,2010,02,13,00,00,AAXX 13004 85586 12960 10205 10148 20131 40143 57021 60001 80001 333 10188 56005 81075=
85586,2010,02,13,12,00,AAXX 13124 85586 12960 10000 10146 20113 40136 52008 60004 80001 333 20080 30/// 50350 55094 56005 81075=
85586,2010,02,13,15,00,AAXX 13154 85586 42960 02504 10204 20119 40145 52011=
85586,2010,02,13,18,00,AAXX 13184 85586 12960 02409 10196 20137 40135 57010 60001=
85586,2010,02,13,21,00,AAXX 13214 85586 42960 02609 10198 20145 40130 57005=
85586,2010,02,14,00,00,AAXX 14004 85586 12960 00205 10156 20134 40131 54000 60001 333 10212=
85586,2010,02,14,12,00,AAXX 14124 85586 11203 80000 10129 20120 40114 53014 69904 7504/ 886// 333 20102 31/// 50310 55120 56799 70000 87804=
85586,2010,02,14,15,00,AAXX 14154 85586 41320 82906 10151 20125 40129 52015 71054 886// 333 56799 88707=
85586,2010,02,14,18,00,AAXX 14184 85586 11460 23010 10189 20127 40136 52008 69901 82500 333 56700 82612=
85586,2010,02,14,21,00,AAXX 14214 85586 42960 02608 10183 20110 40137 54001=
85586,2010,02,15,00,00,AAXX 15004 85586 12960 02604 10148 20120 40143 53005 60001 333 10200=
85586,2010,02,15,12,00,AAXX 15124 85586 12960 01204 10138 20107 40124 54000 60004 333 20073 30/// 50290 55078=
85586,2010,02,15,15,00,AAXX 15154 85586 41156 62405 10160 20134 40128 54005 70520 86600 333 56600 86703=
85586,2010,02,15,18,00,AAXX 15184 85586 12160 22506 10182 20126 40128 54000 60001 82600 333 56600 82703=
85586,2010,02,15,21,00,AAXX 15214 85586 42960 22307 10164 20113 40126 54002 80001 333 56006 82070=
85586,2010,02,16,00,00,AAXX 16004 85586 12960 53205 10154 20112 40138 53011 60001 85030 333 10184 56060 85365=
85586,2010,02,16,12,00,AAXX 16124 85586 11220 80604 10126 20107 40133 52014 60004 7104/ 886// 333 20121 30/// 50290 56799 88704=
85586,2010,02,16,15,00,AAXX 16154 85586 42960 02706 10182 20126 40138 52006=
85586,2010,02,16,18,00,AAXX 16184 85586 11356 73007 10152 20127 40157 52018 60001 70500 87600 333 56700 87708=
85586,2010,02,16,21,00,AAXX 16214 85586 41458 83006 10150 20133 40171 52014 70500 887// 333 56799 88710=
85586,2010,02,17,00,00,AAXX 17004 85586 11350 83203 10149 20134 40144 57028 60001 70522 886// 333 10184 56799 88708=
85586,2010,02,17,12,00,AAXX 17124 85586 11330 80603 10126 20118 40127 52003 60004 7102/ 886// 333 20120 30/// 50240 55031 56799 88707=
85586,2010,02,17,15,00,AAXX 17154 85586 41357 52806 10160 20131 40141 52015 70522 85600 333 56700 85708=
85586,2010,02,17,18,00,AAXX 17184 85586 12460 32808 10175 20124 40152 52011 60001 82501 333 56606 82615=
85586,2010,02,17,21,00,AAXX 17214 85586 42460 22806 10184 20134 40148 58004 82501 333 56606 82615=
85586,2010,02,18,00,00,AAXX 18004 85586 12960 10000 10162 20130 40150 54002 60001 80001 333 10188 56006 81075=
85586,2010,02,18,12,00,AAXX 18124 85586 11258 10000 10135 20115 40154 53018 60004 7050/ 81600 333 20078 30/// 50310 55094 56600 81705=
85586,2010,02,18,15,00,AAXX 18154 85586 42360 22408 10180 20124 40167 52014 82600 333 56600 82708=
85586,2010,02,18,18,00,AAXX 18184 85586 12460 22307 10204 20132 40170 54003 60001 82400 333 56600 82615=
85586,2010,02,18,21,00,AAXX 18214 85586 42960 02508 10202 20130 40160 57010=
85586,2010,02,19,00,00,AAXX 19004 85586 12460 40000 10172 20158 40157 54004 60001 83601 333 10220 56006 83710=
85586,2010,02,19,12,00,AAXX 19124 85586 12960 02404 10150 20124 40165 52012 60004 333 20096 30/// 50370 55116=
85586,2010,02,19,15,00,AAXX 19154 85586 42960 22410 10208 20120 40162 54002 80001 333 56006 82070=
85586,2010,02,19,18,00,AAXX 19184 85586 12960 22415 10220 20132 40158 54004 60001 80001 333 56006 82070=
85586,2010,02,19,21,00,AAXX 19214 85586 42960 32312 10190 20133 40133 57025 80001 333 56006 83070=
85586,2010,02,20,00,00,AAXX 20004 85586 12960 32205 10168 20108 40132 54001 60001 80001 333 10219 56006 83075=
85586,2010,02,20,12,00,AAXX 20124 85586 12960 00000 10130 20114 40135 52011 60004 333 20088 30/// 50380 55116=
85586,2010,02,20,15,00,AAXX 20154 85586 42960 02707 10180 20133 40140 52006=
85586,2010,02,20,18,00,AAXX 20184 85586 12960 02413 10182 20135 40136 58004 60001=
85586,2010,02,20,21,00,AAXX 20214 85586 42960 02510 10178 20129 40131 57005=
85586,2010,02,21,00,00,AAXX 21004 85586 12460 23104 10140 20124 40132 54002 60001 82500 333 10196 56700 82615=
85586,2010,02,21,12,00,AAXX 21124 85586 11340 82804 10133 20158 40131 52009 60004 885// 333 20186 30/// 50770 55090 56499 88617=
85586,2010,02,21,15,00,AAXX 21154 85586 41458 82906 10155 20108 52013 70522 885// 333 56799 88615=
85586,2010,02,21,18,00,AAXX 21184 85586 12458 62608 10181 20113 40167 52012 60001 86500 333 56700 86615=
85586,2010,02,21,21,00,AAXX 21214 85586 42960 52708 10172 20122 40158 58009 85500 333 56700 85620=
85586,2010,02,22,00,00,AAXX 22004 85586 11456 82407 10149 20117 40160 55001 60001 70522 885// 333 10189 56799 88615=
85586,2010,02,22,12,00,AAXX 22124 85586 11456 82104 10141 20111 40185 52017 60004 7052/ 885// 333 20134 30/// 50280 55049 56799 88620=
85586,2010,02,22,15,00,AAXX 22154 85586 41558 82307 10160 20121 40187 54003 70522 884// 333 56699 88620=
85586,2010,02,22,18,00,AAXX 22184 85586 11558 82405 10170 20105 40188 54001 60001 70522 885// 333 56699 88627=
85586,2010,02,22,21,00,AAXX 22214 85586 42960 02211 10180 20078 40181 57008=
85586,2010,02,23,00,00,AAXX 23004 85586 12960 02206 10143 20109 40168 56013 60001 333 10184=
85586,2010,02,23,12,00,AAXX 23124 85586 12960 00000 10128 20103 40142 51014 60004 333 20066 30/// 50024 55038=
85586,2010,02,23,15,00,AAXX 23154 85586 42960 02706 10174 20075 40145 54003=
85586,2010,02,23,18,00,AAXX 23184 85586 12160 10180 20097 40144 54000 60001 82600 333 56600 82703=
85586,2010,02,23,21,00,AAXX 23214 85586 42960 02410 10172 20127 40160 52013=
85586,2010,02,24,00,00,AAXX 24004 85586 12960 03104 10144 20119 40138 57022 60001 333 10188=
85586,2010,02,24,12,00,AAXX 24124 85586 11458 83404 10136 20117 40162 52014 60004 7052/ 885// 333 20124 30/// 50360 55117 56099 88617=
85586,2010,02,24,15,00,AAXX 24154 85586 42560 73310 10163 20118 40176 52014 84500 333 56700 87620=
85586,2010,02,24,18,00,AAXX 24184 85586 12960 12710 10186 20118 40171 57005 60001 81500 333 56600 81620=
85586,2010,02,24,21,00,AAXX 24214 85586 42960 12907 10182 20119 40154 57017 81500 333 56600 81620=
85586,2010,02,25,00,00,AAXX 25004 85586 12960 02904 10156 20117 40152 54002 60001 333 10196=
85586,2010,02,25,12,00,AAXX 25124 85586 12960 80202 10160 20120 40176 57016 60004 885// 333 20106 30/// 50300 55076 56099 88630=
85586,2010,02,25,15,00,AAXX 25154 85586 42560 72606 10190 20119 40174 54002 87500 333 56600 87630=
85586,2010,02,25,21,00,AAXX 25214 85586 42960 83205 10176 20129 40186 54001 8807/ 333 56069 88360=
85586,2010,02,26,00,00,AAXX 26004 85586 12960 50000 10171 20132 40181 57005 60001 85070 333 10199 56060 85360=
85586,2010,02,26,12,00,AAXX 26124 85586 12960 60000 10126 20118 40180 52012 60004 86030 333 20112 50260 55010 56060 83360=
85586,2010,02,26,15,00,AAXX 26154 85586 42960 22406 10180 20112 40188 52009 82030 333 56060 82360=
85586,2010,02,26,18,00,AAXX 26184 85586 12960 22308 10204 20127 40182 54000 60001 82030 333 56060 82360=
85586,2010,02,26,21,00,AAXX 26214 85586 42960 02409 10190 20144 40172 57013=
85586,2010,02,27,00,00,AAXX 27004 85586 12960 03404 10162 20152 40162 57010 60001 333 10223=
85586,2010,03,03,15,00,AAXX 03154 85586 42960 02605 10200 20143 40164 54003=
85586,2010,03,03,18,00,AAXX 03184 85586 12960 02308 10204 20162 40164 54000 60001=
85586,2010,03,03,21,00,AAXX 03214 85586 42360 22406 10190 20155 40181 52017 82600 333 56600 82707=
85586,2010,03,04,00,00,AAXX 04004 85586 12960 02503 10164 20148 40166 57015 60001 333 10208=
85586,2010,03,04,12,00,AAXX 04124 85586 11258 20000 10145 20128 40176 54000 60004 7051/ 82600 333 20138 30/// 50260 55106 56600 82705=
85586,2010,03,04,15,00,AAXX 04154 85586 42960 02707 10184 20146 40179 54003=
85586,2010,03,04,18,00,AAXX 04184 85586 12960 42310 10184 20143 40180 54002 60001 80001 333 56006 84070=
85586,2010,03,04,21,00,AAXX 04214 85586 42960 02007 10190 20126 40170 57010=
85586,2010,03,05,00,00,AAXX 05004 85586 12960 02308 10164 20132 40169 55001 60001 333 10201=
85586,2010,03,05,12,00,AAXX 05124 85586 11203 82204 82204 10129 20118 40152 52012 60004 7400/ 886// 333 20093 30/// 50270 55112 56799 88704=
85586,2010,03,05,15,00,AAXX 05154 85586 41258 32705 10170 20152 40150 54002 71000 83600 333 56600 83704=
85586,2010,03,05,18,00,AAXX 05184 85586 11358 52307 10170 20152 40150 54000 60001 70520 85600 333 56600 85707=
85586,2010,03,05,21,00,AAXX 05214 85586 42960 03005 10190 20144 40126 57025=
85586,2010,03,06,00,00,AAXX 06004 85586 12960 00105 10158 20134 40127 55001 60001 333 10196=
85586,2010,03,06,12,00,AAXX 06124 85586 11206 80000 10137 20126 40118 53012 60004 7404/ 886// 333 20131 30/// 50210 55092 56799 88704=
85586,2010,03,06,15,00,AAXX 06154 85586 41356 42606 10181 20132 40117 55000 70544 84600 333 56700 84707=
85586,2010,03,06,18,00,AAXX 06184 85586 11356 82808 10177 20135 40132 52015 60001 70522 886// 333 56799 88708=
85586,2010,03,06,21,00,AAXX 06214 85586 42460 82807 10182 20135 40131 54001 875// 333 56799 88612=
85586,2010,03,07,00,00,AAXX 07004 85586 11458 82805 10166 20136 40144 52013 60001 70522 885// 333 10193 56799 88615=
85586,2010,03,07,12,00,AAXX 07124 85586 12460 82704 10136 20118 40148 52013 60004 885// 333 20136 30/// 50260 55027 56099 88615=
85586,2010,03,07,15,00,AAXX 07154 85586 42460 72604 10164 20119 40170 52021 87500 333 56600 87615=
85586,2010,03,07,18,00,AAXX 07184 85586 12460 62705 10184 20128 40176 52006 60001 83502 333 56606 83615 84073=
85586,2010,03,07,21,00,AAXX 07214 85586 42560 52707 10186 20134 40173 58003 83502 333 56606 83620 83075=
85586,2010,03,08,00,00,AAXX 08004 85586 12560 42604 10164 20137 40181 53008 60001 84500 333 10198 56600 84620=
85586,2010,03,08,12,00,AAXX 08124 85586 12960 11504 10150 20129 40167 54002 60004 80001 333 20122 30/// 50250 55059 56006 81075=
85586,2010,03,08,15,00,AAXX 08154 85586 42960 02408 10224 20122 40167 54001=
85586,2010,03,08,18,00,AAXX 08184 85586 12960 02418 10220 20132 40155 57013 60001=
85586,2010,03,08,21,00,AAXX 08214 85586 42960 02516 10200 20110 40133 57019=
85586,2010,03,09,00,00,AAXX 09004 85586 12960 02202 10178 20127 40137 53004 60001 333 10242=
85586,2010,03,09,12,00,AAXX 09124 85586 12960 00000 10100 20077 40121 54000 60004 333 20063 30/// 50300 55112=
85586,2010,03,09,15,00,AAXX 09154 85586 42960 02705 10174 20127 40119 54001=
85586,2010,03,09,18,00,AAXX 09184 85586 12960 02507 10184 20131 40127 52007 60001=
85586,2010,03,09,21,00,AAXX 09214 85586 42960 02705 10180 20130 40127 54000=
85586,2010,03,10,00,00,AAXX 10004 85586 12960 00000 10152 20132 40143 52015 60001 333 10202=
85586,2010,03,10,12,00,AAXX 10124 85586 11458 80000 10143 20134 40150 53010 60004 7052/ 885// 333 20093 30/// 50190 55107 56699 88610=
85586,2010,03,10,15,00,AAXX 10154 85586 41460 53004 10164 20130 40156 52006 85500 333 56600 85613=
85586,2010,03,10,18,00,AAXX 10184 85586 12460 12908 10184 20132 40158 52003 60001 81500 333 56600 81615=
85586,2010,03,10,21,00,AAXX 10214 85586 42960 03207 10186 20127 40151 58007=
85586,2010,03,11,00,00,AAXX 11004 85586 12960 03403 10156 20128 40158 53007 60001 333 10195=
85586,2010,03,11,12,00,AAXX 11124 85586 12460 80000 10154 20137 40148 53003 60004 885// 333 20118 30/// 50200 55084 56699 88615=
85586,2010,03,11,15,00,AAXX 11154 85586 42460 82605 10174 20154 40152 54004 70222 885// 333 56699 88615=
85586,2010,03,11,18,00,AAXX 11184 85586 12460 62707 10194 20131 40153 54001 60001 70220 86500 333 56600 86615=
85586,2010,03,11,21,00,AAXX 11214 85586 42460 83004 10162 20140 40153 54000 70220 886// 333 56699 88615=
85586,2010,03,12,00,00,AAXX 12004 85586 11430 80000 10155 20151 40144 57008 60001 71022 886// 333 10194 56699 88710=
85586,2010,03,12,12,00,AAXX 12124 85586 12560 80000 10151 20139 40138 52009 60004 885// 333 20149 30/// 50180 55012 56699 88620=
85586,2010,03,12,18,00,AAXX 12184 85586 12560 82708 10180 20154 40154 52006 60001 885// 333 56699 88620=
85586,2010,03,12,21,00,AAXX 12214 85586 42760 62307 10177 20127 40152 54001 86500 333 56600 86650=
85586,2010,03,13,00,00,AAXX 13004 85586 12960 00000 10153 20118 55001 60001 333 10195=
85586,2010,03,13,12,00,AAXX 13124 85586 12960 50000 10132 20107 40161 53012 60004 80001 333 20113 30/// 50210 55022 85075=
85586,2010,03,13,15,00,AAXX 13154 85586 42460 42705 10179 20122 40171 51011 84500 333 56700 81615 84625=
85586,2010,03,13,18,00,AAXX 13184 85586 12460 12509 10197 20125 40174 51004 60001 81500 333 56700 81615=
85586,2010,03,13,21,00,AAXX 13214 85586 42460 12310 10182 20130 40172 58003 81100 333 56700 81815=
85586,2010,03,14,00,00,AAXX 14004 85586 11458 82207 10158 20131 40179 53008 60001 70522 885// 333 10201 56799 88615=
85586,2010,03,14,12,00,AAXX 14124 85586 11456 81502 10144 20130 40179 54002 60004 7052/ 333 20138 30/// 50240 55062 56099 88710=
85586,2010,03,14,15,00,AAXX 14154 85586 41458 82505 10158 20136 40182 54003 70522 885// 333 56699 88615=
85586,2010,03,14,18,00,AAXX 14184 85586 12460 32507 10178 20138 40176 57006 60001 83500 333 56600 83617=
85586,2010,03,14,21,00,AAXX 14214 85586 42460 42806 10164 20137 40168 57008 84500 333 56600 84617=
85586,2010,03,15,00,00,AAXX 15004 85586 12460 43504 10146 20137 40167 54001 60001 84500 333 10188 56700 84617=
85586,2010,03,15,12,00,AAXX 15124 85586 12960 00000 10118 20109 40122 56022 60004 333 20096 30/// 50210 55047=
85586,2010,03,15,15,00,AAXX 15154 85586 42960 02704 10172 20117 40131 52009=
85586,2010,03,15,18,00,AAXX 15184 85586 12960 02810 10202 20106 40130 54000 60001=
85586,2010,03,15,21,00,AAXX 15214 85586 42960 22806 10190 20133 40128 54002 82500 333 56600 82615=
85586,2010,03,16,00,00,AAXX 16004 85586 12960 01803 10160 20133 40121 57008 60004 333 10206=
85586,2010,03,16,12,00,AAXX 16124 85586 11558 70302 10152 20126 40145 52015 60004 87500 333 20116 30/// 50280 55101 56000 87625=
85586,2010,03,16,15,00,AAXX 16154 85586 42560 83005 10180 20127 40157 52012 885// 333 56699 88625=
85586,2010,03,16,18,00,AAXX 16184 85586 12560 72708 10190 20141 40170 52013 60001 87500 333 56600 87625=
85586,2010,03,16,21,00,AAXX 16214 85586 42560 63006 10182 20142 40157 57014 86500 333 56600 86625=
85586,2010,03,17,00,00,AAXX 17004 85586 12560 70000 10172 20139 40155 54001 60001 87500 333 10200 56600 87620=
85586,2010,03,17,12,00,AAXX 17124 85586 12560 80000 10164 20124 40166 53017 60004 885// 333 20162 30/// 50180 55012 56699 88625=
85586,2010,03,17,18,00,AAXX 17184 85586 12560 12410 10198 20127 40175 54002 60001 81500 333 56600 81627=
85586,2010,03,17,21,00,AAXX 17214 85586 42960 02407 10194 20127 40175 54001=
85586,2010,03,18,00,00,AAXX 18004 85586 12960 00000 10162 20128 40171 57004 60001 333 10203=
85586,2010,03,18,12,00,AAXX 18124 85586 12360 60000 10105 20099 40171 53012 60004 83609 333 20089 30/// 50180 55060 56706 83708 83173=
85586,2010,03,18,15,00,AAXX 18154 85586 42960 22706 10190 20144 40182 52013 80009 333 56006 82173=
85586,2010,03,18,18,00,AAXX 18184 85586 12960 22408 10190 20139 40183 54000 60001 82009 333 56006 82173=
85586,2010,03,18,21,00,AAXX 18214 85586 42460 82707 10164 20143 40175 57007 885// 333 56699 88610=
85586,2010,03,19,00,00,AAXX 19004 85586 11458 83104 10153 20132 40180 53004 60001 885// 333 10192 56799 886450=
85586,2010,03,19,12,00,AAXX 19124 85586 11208 61004 10124 20112 40166 51016 60004 7404/ 86500 333 20097 30/// 50270 55059 56700 86704=
85586,2010,03,19,15,00,AAXX 19154 85586 42960 02407 10192 20112 40169 54004=
85586,2010,03,19,18,00,AAXX 19184 85586 12960 02310 10210 20132 40174 54004 60001=
85586,2010,03,19,21,00,AAXX 19214 85586 42460 32210 10192 20126 40160 57014 83600 333 56600 83710=
85586,2010,03,20,00,00,AAXX 20004 85586 11458 83606 10161 20132 40172 53012 60001 70522 885// 333 10212 56799 88615=
85586,2010,03,20,12,00,AAXX 20124 85586 11458 80504 10144 20124 40189 53008 60004 7052/ 885// 333 20121 30/// 50270 55084 56799 88615=
85586,2010,03,20,15,00,AAXX 20154 85586 42960 02608 10186 20132 40195 51007=
85586,2010,03,20,18,00,AAXX 20184 85586 12460 32314 10174 20132 40201 53006 6001 83500 333 56700 83615=
85586,2010,03,20,21,00,AAXX 20214 85586 41456 82510 10157 20135 40189 58012 70511 886// 333 56799 88710=
85586,2010,03,21,00,00,AAXX 21004 85586 11356 80306 10153 20136 40183 56007 60001 70511 886// 333 10188 56799 88709=
85586,2010,03,21,12,00,AAXX 21124 85586 12960 01002 10124 20114 40180 52009 60004 333 20086 30/// 50260 55048=
85586,2010,03,21,15,00,AAXX 21154 85586 42560 12507 10202 20131 40174 57006 81500 333 56600 81625=
85586,2010,03,21,18,00,AAXX 21184 85586 12560 12412 10190 20137 40155 57019 60001 81500 333 56600 81630=
85586,2010,03,21,21,00,AAXX 21214 85586 42960 22413 10190 20123 40141 57013 80001 333 56006 82070=
85586,2010,03,22,00,00,AAXX 22004 85586 12960 11904 10156 20120 40144 53003 60001 80001 333 10202 56006 81070=
85586,2010,03,22,12,00,AAXX 22124 85586 12960 30602 10092 20084 40136 52009 60004 80002 333 20074 30/// 50300 55101 56006 83073=
85586,2010,03,22,15,00,AAXX 22154 85586 42960 42410 10170 20102 40147 52012 80001 333 56006 84073=
85586,2010,03,22,18,00,AAXX 22184 85586 12960 32215 10190 20122 40169 52015 60001 80001 333 56006 83073=
85586,2010,03,22,21,00,AAXX 22214 85586 42960 22015 10184 20123 40170 52008 80001 333 56006 82073=
85586,2010,03,23,00,00,AAXX 23004 85586 12960 02502 10152 20095 40161 54003 60001 333 10196=
85586,2010,03,23,12,00,AAXX 23124 85586 12960 00702 10080 20073 40183 52005 60004 333 20064 30/// 50280 55098=
85586,2010,03,23,15,00,AAXX 23154 85586 42960 02803 10182 20100 40188 54002=
85586,2010,03,23,18,00,AAXX 23184 85586 12960 02312 10188 20129 40166 57021 60001=
85586,2010,03,23,21,00,AAXX 23214 85586 42960 02308 10192 20143 40147 57019=
85586,2010,03,24,00,00,AAXX 24004 85586 12960 00000 10154 20130 40140 54002 60001 333 10200=
85586,2010,03,24,12,00,AAXX 24124 85586 12960 00000 10096 20093 40147 52012 60004 333 20087 30/// 50180 55104=
85586,2010,03,24,15,00,AAXX 24154 85586 42960 02905 10180 20130 40154 52010=
85586,2010,03,24,18,00,AAXX 24184 85586 12960 02805 10190 20141 40147 58007 60001=
85586,2010,03,24,21,00,AAXX 24214 85586 42260 32605 10172 20137 40138 57009 83600 333 56700 83705=
85586,2010,03,25,00,00,AAXX 25004 85586 12960 00103 10151 20136 40135 57004 60001 333 10200=
85586,2010,03,25,12,00,AAXX 25124 85586 12960 30000 10103 20096 40133 53006 60004 80001 333 20080 30/// 50200 55103 56006 83075=
85586,2010,03,25,15,00,AAXX 25154 85586 41220 83003 10142 20135 40148 52016 71042 886// 333 56799 88704=
85586,2010,03,25,21,00,AAXX 25214 85586 41458 82907 10167 20137 40149 53007 70522 885// 333 56799 88610=
85586,2010,03,26,12,00,AAXX 26124 85586 11220 80000 10126 20113 40177 52016 60003 7104/ 886// 333 20112 30/// 50190 55058 56799 88706=
85586,2010,03,26,15,00,AAXX 26154 85586 41960 00105 10174 20117 40182 51006 70244=
85586,2010,03,26,18,00,AAXX 26184 85586 12960 02312 10186 20127 40179 58003 60001=
85586,2010,03,26,21,00,AAXX 26214 85586 42960 02408 10186 20127 40173 56006=
85586,2010,03,27,00,00,AAXX 27004 85586 11956 00304 10149 20112 40172 53002 60001 70500 333 10198=
85586,2010,03,27,12,00,AAXX 27124 85586 11103 80000 10103 20094 40161 52008 60004 7404/ 886// 333 20071 30/// 50190 55082 56799 88703=
85586,2010,03,27,15,00,AAXX 27154 85586 41240 12607 10163 20118 40162 53003 71044 81600 333 56700 81704=
85586,2010,03,27,18,00,AAXX 27184 85586 11320 82509 10159 20133 40162 50000 60001 71042 886// 333 56799 88707=
85586,2010,03,27,21,00,AAXX 27214 85586 41356 42411 10161 20132 40158 58004 70542 84600 333 56700 84709=
85586,2010,03,28,00,00,AAXX 28004 85586 11356 80308 10143 20124 40170 52011 60001 70522 886// 333 10176 56799 88709=
85586,2010,03,28,12,00,AAXX 28124 85586 11320 80904 10120 20111 40151 54003 60004 7102/ 886// 333 20120 30/// 50310 55082 56099 88708=
85586,2010,03,28,18,00,AAXX 28184 85586 11456 62311 10158 20132 40161 54002 60001 70522 86500 333 56600 88613=
85586,2010,03,28,21,00,AAXX 28214 85586 41450 52407 10150 20128 40141 57019 85500 333 56600 85612=
85586,2010,03,29,00,00,AAXX 29004 85586 11440 80507 10130 20121 40135 55006 60001 71022 886// 333 10164 56899 88710=
85586,2010,03,29,12,00,AAXX 29124 85586 11103 80602 10098 20091 40126 54002 60004 7464/ 886// 333 20094 31/// 50260 55029 56099 88702=
85586,2010,03,29,15,00,AAXX 29154 85586 41258 22805 10152 20124 40129 54004 70520 82600 333 56600 82704=
85586,2010,03,29,18,00,AAXX 29184 85586 12960 22210 10180 20123 40113 57017 60001 80001 333 56006 82070=
85586,2010,03,29,21,00,AAXX 29214 85586 42960 43006 10180 20120 40105 57007 80001 333 56007 84070=
85586,2010,03,30,00,00,AAXX 30004 85586 12960 30305 10132 20116 40113 52007 60004 80002 333 10190 56006 83075=
85586,2010,03,30,12,00,AAXX 30124 85586 12960 20000 10082 20074 40108 52008 60004 80001 333 20076 30/// 50290 55081 56006 82075=
85586,2010,03,30,15,00,AAXX 30154 85586 41120 42806 10152 20136 40116 52011 71020 84600 333 56600 84703=
85586,2010,03,30,18,00,AAXX 30184 85586 12960 23007 10180 20124 40116 54000 60001 80001 333 56006 82070=
85586,2010,03,30,21,00,AAXX 30214 85586 42960 22806 10180 20124 40116 54000 80001 333 56006 82070=
85586,2010,03,31,00,00,AAXX 31004 85586 12360 20000 10150 20142 40129 52011 60001 82600 333 10184 56700 82708=
85586,2010,03,31,12,00,AAXX 31124 85586 11210 80000 10128 20124 40166 52026 69914 7505/ 886// 333 20098 31/// 50180 55091 56799 70001 88704=
85586,2010,03,31,15,00,AAXX 31154 85586 41330 83305 10136 20129 40192 52026 71022 886// 333 56799 88706=
85586,2010,03,31,18,00,AAXX 31184 85586 12460 53206 10161 20129 40194 54002 60001 85600 333 56700 85710=
85586,2010,03,31,21,00,AAXX 31214 85586 42460 52804 10170 20137 40190 57003 85500 333 56700 87615=
85586,2010,04,01,00,00,AAXX 01004 85586 12460 80000 10162 20145 40194 53003 60001 886// 333 10182 56699 88710=
85586,2010,04,01,12,00,AAXX 01124 85586 11903 00000 10118 20112 40188 52010 60004 7444/ 333 20106 30/// 50150 55015=
85586,2010,04,01,18,00,AAXX 01184 85586 12960 22313 10179 20121 40182 57007 60001 80001 333 56006 82073=
85586,2010,04,01,21,00,AAXX 01214 85586 42960 22008 10190 20107 40173 57010 80001 333 56006 82073=
85586,2010,04,02,00,00,AAXX 02004 85586 12960 00603 10144 20104 40171 54002 60004 333 10192=
85586,2010,04,02,12,00,AAXX 02124 85586 12960 01002 10064 20055 40183 52006 60004 333 20048 30/// 50300 55089=
85586,2010,04,02,15,00,AAXX 02154 85586 42960 02408 10178 20088 40179 52008=
85586,2010,04,02,18,00,AAXX 02184 85586 12960 02415 10176 20093 40164 57015 60001=
85586,2010,04,02,21,00,AAXX 02214 85586 42960 02407 10182 20092 40151 57013=
85586,2010,04,03,00,00,AAXX 03004 85586 112960 00000 10130 20085 40161 52010 60001 333 10192=
85586,2010,04,03,12,00,AAXX 03124 85586 12960 00000 10052 20046 40144 54002 60004 333 20036 30/// 50330 55096=
85586,2010,04,03,15,00,AAXX 03154 85586 42960 02606 10160 20080 40140 56004=
85586,2010,04,03,18,00,AAXX 03184 85586 1296002407 10168 20087 40131 57009 60001=
85586,2010,04,03,21,00,AAXX 03214 85586 42960 02408 10160 20097 40130 54001=
85586,2010,04,04,00,00,AAXX 04004 85586 12960 03502 10118 20105 40139 52009 60001 333 10194=
85586,2010,04,04,12,00,AAXX 04124 85586 12960 00000 10079 20069 40132 53008 60004 333 20044 30/// 50180 55010=
85586,2010,04,04,15,00,AAXX 04154 85586 42960 02906 10173 20099 40143 51012=
85586,2010,04,04,18,00,AAXX 04184 85586 12260 12807 10171 20113 40142 54001 60001 81600 333 56700 81704=
85586,2010,04,04,21,00,AAXX 04214 85586 41240 12805 10157 20105 53004 71000 81600 333 56700 81704=
85586,2010,04,05,00,00,AAXX 05004 85586 11203 80000 10132 20122 40147 55000 60001 74422 886// 333 10179 30/// 56799 58704=
85586,2010,04,05,12,00,AAXX 05124 85586 11440 80000 10129 20114 40148 52008 60004 7102/ 885// 333 20102 30/// 56799 88612=
85586,2010,04,05,15,00,AAXX 05154 85586 41456 83007 10162 20113 40160 52012 70522 885// 333 56799 88615=
85586,2010,04,05,18,00,AAXX 05184 85586 11458 73010 10181 20116 40169 51009 60001 70522 87500 333 56700 87615=
85586,2010,04,05,21,00,AAXX 05214 85586 41458 83205 10160 20120 40194 52024 70522 885// 333 56799 88612=
85586,2010,04,06,00,00,AAXX 06004 85586 11556 83305 10154 20113 40184 58010 60001 70522 885// 333 10183 56799 88620=
85586,2010,04,06,12,00,AAXX 06124 85586 11440 80000 10145 20115 40187 52021 60004 7052/ 885// 333 20143 30/// 50170 55016 56799 88612=
85586,2010,04,06,15,00,AAXX 06154 85586 41458 82203 10160 20124 40190 54004 70522 885// 333 56699 88615=
85586,2010,04,06,18,00,AAXX 06184 85586 12460 82405 10170 20120 40203 52013 60001 885// 333 56699 88615=
85586,2010,04,06,21,00,AAXX 06214 85586 42460 82208 10154 20115 40175 57028 885// 333 56699 88615=
85586,2010,04,07,00,00,AAXX 07004 85586 12460 82104 10142 20122 40162 57014 60001 885// 333 10172 56699 88615=
85586,2010,04,07,12,00,AAXX 07124 85586 11557 80000 10144 20128 40151 53006 60004 7052/ 885// 333 20140 30/// 50170 55000 56799 88623=
85586,2010,04,07,15,00,AAXX 07154 85586 41558 82305 10157 20117 40164 52014 70522 885// 333 56799 88623=
85586,2010,04,07,18,00,AAXX 07184 85586 11558 12508 10183 20123 40156 57008 60001 70511 81500 333 56600 81623=
85586,2010,04,07,21,00,AAXX 07214 85586 41960 02307 10165 20122 40157 54001=
85586,2010,04,08,00,00,AAXX 08004 85586 12960 00000 10128 20113 40162 52004 60001 333 10184=
85586,2010,04,08,12,00,AAXX 08124 85586 11330 70000 10071 20066 40153 53005 60004 7102/ 87600 333 20053 30/// 50170 55055 56700 87608=
85586,2010,04,08,15,00,AAXX 08154 85586 41457 42805 10154 20114 40160 52010 84600 333 56600 84710=
85586,2010,04,08,18,00,AAXX 08184 85586 12960 22608 10170 20116 40160 54000 60001 80001 333 56006 82070=
85586,2010,04,08,21,00,AAXX 08214 85586 42460 22405 10170 20116 40160 54001 82600 333 56600 82710=
85586,2010,04,09,00,00,AAXX 09004 85586 11356 82104 10140 20124 40158 54003 60001 70522 886// 333 10182 56599 88709=
85586,2010,04,09,12,00,AAXX 09124 85586 11456 81704 10128 20108 40176 52013 60004 7052/ 886// 333 20128 30/// 50260 55072 56099 88710=
85586,2010,04,09,15,00,AAXX 09154 85586 41458 82705 10140 20116 40191 52015 70522 886// 333 56699 88710=
85586,2010,04,09,18,00,AAXX 09184 85586 11456 82705 10150 20117 40202 52011 60001 70522 886// 333 56699 88715=
85586,2010,04,09,21,00,AAXX 09214 85586 41460 82405 10140 20105 40186 57016 886// 333 56699 88715=
85586,2010,04,10,00,00,AAXX 10004 85586 12960 00000 10108 20085 40185 54001 60001 333 10150=
85586,2010,04,10,12,00,AAXX 10124 85586 11303 41004 10084 20076 40185 52006 60004 7464/ 84600 333 20046 30/// 50160 55000 56200 84707=
85586,2010,04,10,15,00,AAXX 10154 85586 42960 01204 10160 20098 40189 54004=
85586,2010,04,10,18,00,AAXX 10184 85586 12960 02409 10166 20113 40180 57009 60001=
85586,2010,04,10,21,00,AAXX 10214 85586 42960 12406 10176 20119 40176 56004 80001 333 56006 81075=
85586,2010,04,11,00,00,AAXX 11004 85586 12960 10000 10134 20118 40180 53004 60001 80001 333 10202 56006 81075=
85586,2010,04,11,12,00,AAXX 11124 85586 12960 01605 10123 20092 40160 53004 60004 333 20081 50180 55083=
85586,2010,04,11,15,00,AAXX 11154 85586 42960 02506 10196 20106 40154 58004 70500=
85586,2010,04,11,18,00,AAXX 11184 85586 12980 02317 10183 20110 40126 57028 60001=
85586,2010,04,11,21,00,AAXX 11214 85586 42960 02309 10176 20107 40129 53003=
85586,2010,04,12,00,00,AAXX 12004 85586 11956 00504 10127 20097 40139 51009 60001 70500 333 10198=
85586,2010,04,12,12,00,AAXX 12124 85586 11101 80000 10081 20071 40147 52007 60004 7444/ 886// 333 20061 50240 55103 56799 88703=
85586,2010,04,12,15,00,AAXX 12154 85586 41920 72408 10158 20095 40152 51006 74044 80001 333 56006 87075=
85586,2010,04,12,18,00,AAXX 12184 85586 12960 72312 10173 20100 40143 58010 60001 80001 333 56006 87075=
85586,2010,04,12,21,00,AAXX 12214 85586 42960 52506 10178 20097 40132 57011 80001 333 56006 85075=
85586,2010,04,13,12,00,AAXX 13124 85586 12960 00000 10048 20037 40162 52014 60004 333 20032 30/// 50280 55088=
85586,2010,04,13,15,00,AAXX 13154 85586 42960 02405 10170 20090 40171 52011=
85586,2010,04,13,18,00,AAXX 13184 85586 12960 02110 10160 20066 40169 54002 60001=
85586,2010,04,13,21,00,AAXX 13214 85586 42960 02705 10158 20082 40178 52009=
85586,2010,04,14,00,00,AAXX 14004 85586 12960 00000 10102 20079 40178 54001 60001 333 10172=
85586,2010,04,14,12,00,AAXX 14124 85586 12960 00000 10032 20027 40185 53015 60004 333 20028 30/// 50180 55098=
85586,2010,04,14,18,00,AAXX 14184 85586 12960 02707 10162 20095 40193 54001 60001=
85586,2010,04,15,00,00,AAXX 15004 85586 12960 00000 10113 20094 40178 53010 60001 333 10178=
85586,2010,04,15,12,00,AAXX 15124 85586 12960 00000 10058 20053 40161 53009 60004 333 20053 30/// 50160 55094=
85586,2010,04,16,12,00,AAXX 16124 85586 11550 81004 10146 20127 40136 53003 60004 7052/ 8253/ 333 20143 30/// 50150 55025 56069 82625 86363=
85586,2010,04,16,15,00,AAXX 16154 85586 41558 73005 10170 20120 40168 52032 70522 87500 333 56600 87625=
85586,2010,04,16,21,00,AAXX 16214 85586 42560 72305 10170 20086 40176 54000 87500 333 56600 87625=
85586,2010,04,17,00,00,AAXX 17004 85586 12960 11202 10148 20122 40177 54001 60001 84030 333 10196 56060 84360=
85586,2010,04,17,12,00,AAXX 17124 85586 12960 11204 10094 20084 40160 52004 60004 80001 333 20076 30/// 50140 55032 56006 81075=
85586,2010,04,17,15,00,AAXX 17154 85586 42960 22505 10180 20098 40169 52009 80001 333 56006 82075=
85586,2010,04,17,18,00,AAXX 17184 85586 12960 32410 10182 20118 40170 54001 60001 80002 333 56006 83075=
85586,2010,04,17,21,00,AAXX 17214 85586 42960 62406 10178 20131 40169 54001 82032 333 56066 82365 84075=
85586,2010,04,18,00,00,AAXX 18004 85586 12960 60000 10140 20119 40177 52009 60001 83032 333 10188 56066 83365 83075=
85586,2010,04,18,12,00,AAXX 18124 85586 11920 71004 10114 20101 40209 52014 60004 7104/ 80001 333 20103 30/// 50230 55068 56006 87075=
85586,2010,04,18,15,00,AAXX 18154 85586 41960 72004 10193 20123 40206 50001 70244 80001 333 56006 82075=
85586,2010,04,18,18,00,AAXX 18184 85586 12460 82311 10168 20125 40219 53013 60001 8113/ 333 56769 81815 88362=
85586,2010,04,18,21,00,AAXX 18214 85586 42460 72209 10164 20128 40213 58006 81130 333 56760 81815 87362=
85586,2010,04,19,00,00,AAXX 19004 85586 11956 50000 10144 20104 40215 55001 60001 70511 80001 333 10195 56006 85075=
85586,2010,04,19,12,00,AAXX 19124 85586 12960 10000 10107 20091 40205 56014 60004 7020/ 81030 333 20097 30/// 50210 55032 56060 81365=
85586,2010,04,19,15,00,AAXX 19154 85586 42960 21708 10200 20104 40211 53007 82030 333 56050 82365=
85586,2010,04,19,18,00,AAXX 19184 85586 12960 02515 10198 20126 40212 54001 60001=
85586,2010,04,19,21,00,AAXX 19214 85586 42960 02215 10170 20086 40194 57018=
85586,2010,04,20,00,00,AAXX 20004 85586 11958 40000 10123 20066 53009 60001 70500 80001 333 10212 56006 84075=
85586,2010,04,20,12,00,AAXX 20124 85586 12960 70000 10064 20047 40198 55000 60001 87030 333 20043 30/// 50230 55098 56060 87365=
85586,2010,04,20,15,00,AAXX 20154 85586 42960 42108 10164 20098 40201 53006 84030 333 56060 84365=
85586,2010,04,20,18,00,AAXX 20184 85586 12960 52411 10158 20107 40194 57007 60001 85030 333 56060 85363=
85586,2010,04,20,21,00,AAXX 20214 85586 42960 42207 10152 20107 40196 54002 80001 333 56006 84070=
85586,2010,04,21,00,00,AAXX 21004 85586 12960 00000 10108 20081 40192 57005 60001 333 10182=
85586,2010,04,21,12,00,AAXX 21124 85586 12960 00000 10030 20023 40191 53006 60004 333 20026 30/// 50180 55052=
85586,2010,04,21,15,00,AAXX 21154 85586 42960 02604 10146 20099 40206 52017=
85586,2010,04,21,18,00,AAXX 21184 85586 12960 02311 10153 20092 40192 58013 60001=
85586,2010,04,22,00,00,AAXX 22004 85586 12960 00000 10120 20083 40195 52005 60001 333 10156=
85586,2010,04,22,12,00,AAXX 22124 85586 12960 00000 10020 20012 40199 53015 60004 333 20016 30/// 50170 55092=
85586,2010,04,22,15,00,AAXX 22154 85586 42960 02608 10155 20068 40203 53008=
85586,2010,04,22,18,00,AAXX 22184 85586 12960 02212 10160 20066 40199 54004 60001=
85586,2010,04,22,21,00,AAXX 22214 85586 42960 02106 10150 20100 40188 57011=
85586,2010,04,23,00,00,AAXX 23004 85586 12960 00703 10100 20081 40192 53004 60001 333 10162=
85586,2010,04,23,12,00,AAXX 23124 85586 12960 01004 10020 20012 40192 52006 60004 333 20014 30/// 50180 55091=
85586,2010,04,23,15,00,AAXX 23154 85586 42960 32205 10150 20082 40196 54003 60001 80001 333 56006 83070=
85586,2010,04,23,18,00,AAXX 23184 85586 12960 12960 12411 10152 20083 40185 57011 80002 333 56006 81070=
85586,2010,04,23,21,00,AAXX 23214 85586 42960 22512 10142 20101 40179 57006 80001 333 56006 82070=
85586,2010,04,24,00,00,AAXX 24004 85586 12960 40000 10088 200621 40188 52009 60001 80001 333 10164 56006 84070=
85586,2010,04,24,12,00,AAXX 24124 85586 12560 50902 10042 20035 40188 52005 60004 82501 333 20016 30/// 50210 56006 82625 85075=
85586,2010,04,24,15,00,AAXX 24154 85586 42560 32405 10126 20066 40202 52018 81501 333 56506 81625 83075=
85586,2010,04,24,18,00,AAXX 24184 85586 12560 22507 10144 20078 40197 58010 60001 81501 333 56506 81625=
85586,2010,04,24,21,00,AAXX 24214 85586 42560 12410 10134 20087 40188 57009 81500 333 56600 81625=
85586,2010,04,25,00,00,AAXX 25004 85586 12960 02207 10102 20077 40193 52007 60001 333 10148=
85586,2010,04,25,12,00,AAXX 25124 85586 12960 00000 10044 20037 40182 52013 60004 7020/ 333 20022 30/// 50083=
85586,2010,04,25,15,00,AAXX 25154 85586 42960 02605 10129 20081 40213 52032=
85586,2010,04,25,18,00,AAXX 25184 85586 12960 02312 10147 20082 40203 58009 60001=
85586,2010,04,25,21,00,AAXX 25214 85586 42960 02312 10144 20082 40201 56002=
85586,2010,04,26,00,00,AAXX 26004 85586 12956 01805 10103 20065 40215 53014 60001 333 10155=
85586,2010,04,26,12,00,AAXX 26124 85586 12960 71105 10054 20043 40201 53002 60004 333 20013 30/// 50160 55095 56006 87075=
85586,2010,04,26,15,00,AAXX 26154 85586 41958 71803 10114 20064 40211 52013 70522 80006 333 56006 87275=
85586,2010,04,26,18,00,AAXX 26184 85586 12960 52206 10124 20066 40184 57027 60001 80001 333 56006 85072=
85586,2010,04,26,21,00,AAXX 26214 85586 42960 42505 10148 20075 40170 57014 80001 333 56006 84070=
85586,2010,04,27,12,00,AAXX 27124 85586 11958 60000 10033 20021 40192 53012 60004 7051/ 333 20017 30/// 50210 55023 56006 86075=
85586,2010,04,27,15,00,AAXX 27154 85586 42960 42605 10130 20064 40202 52014 80001 333 56006 84070=
85586,2010,04,27,18,00,AAXX 27184 85586 12960 02308 10154 20089 40207 54004 60001=
85586,2010,04,27,21,00,AAXX 27214 85586 42460 32506 10152 20121 40206 54000 83600 333 56600 83712=
85586,2010,04,28,00,00,AAXX 28004 85586 11350 80000 10120 20111 40235 52027 60001 71022 886// 333 10163 56799 88707=
85586,2010,04,28,12,00,AAXX 28124 85586 11930 00000 10047 20039 40237 58003 60004 7100/ 333 20044 30/// 50150 55082=
85586,2010,04,28,15,00,AAXX 28154 85586 42960 01807 10170 20077 40236 54001=
85586,2010,04,28,18,00,AAXX 28184 85586 12960 02410 10170 20102 40222 57014 60001=
85586,2010,04,28,21,00,AAXX 28214 85586 42960 32207 10162 20126 40191 57029 80001 333 56006 83070=
85586,2010,04,29,00,00,AAXX 29004 85586 12960 00000 10108 20089 40183 57009 60001 333 10193=
85586,2010,04,29,12,00,AAXX 29124 85586 12958 01104 10040 20033 40173 53007 60004 7050/ 333 20026 30/// 50140 55082=
85586,2010,04,29,15,00,AAXX 29154 85586 42960 01703 10148 20063 40194 52024=
85586,2010,04,29,18,00,AAXX 29184 85586 12960 02307 10170 20106 40177 57016 60001=
85586,2010,04,29,21,00,AAXX 29214 85586 42960 02704 10160 20080 40165 57013=
85586,2010,04,30,00,00,AAXX 30004 85586 11956 00000 10098 20068 40168 53002 60001 70500 333 10176=
85586,2010,04,30,12,00,AAXX 30124 85586 11958 60000 10037 20025 40186 52026 60004 7051/ 80001 333 20027 30/// 50210 55094 56001 86075=
85586,2010,04,30,15,00,AAXX 30154 85586 41956 42505 10162 20087 40195 51002 70511 80001 333 56006 84075=
85586,2010,04,30,18,00,AAXX 30184 85586 11956 23110 10175 20112 40183 58012 60001 70511 80001 333 56006 82075=
85586,2010,04,30,21,00,AAXX 30214 85586 42958 03210 10158 20110 40177 57006=
85586,2010,05,01,00,00,AAXX 01004 85586 11956 00000 10103 20075 40171 57008 60001 70500 333 10177=
85586,2010,05,01,12,00,AAXX 01124 85586 11920 00000 10084 20074 40178 52008 60004 7100/ 333 20048 30/// 50190 55088=
85586,2010,05,01,15,00,AAXX 01154 85586 41456 23309 10164 20108 40186 52010 70500 82500 333 56700 82615=
85586,2010,05,01,18,00,AAXX 01184 85586 11958 02806 10183 20112 40179 58007 60001 70500=
85586,2010,05,01,21,00,AAXX 01214 85586 42960 72304 10157 20111 40163 57016 80001 333 56006 87075=
85586,2010,05,02,00,00,AAXX 02004 85586 11956 00000 10121 20087 40167 51003 60001 70511 333 10191 56006 84075=
85586,2010,05,02,12,00,AAXX 02124 85586 12560 60905 10144 20111 40207 52017 60004 81531 333 20096 30/// 50170 55088 56266 81625 84365=
85586,2010,05,02,15,00,AAXX 02154 85586 42960 71002 10164 20097 40223 52016 86031 333 56066 86363=
85586,2010,05,02,18,00,AAXX 02184 85586 12960 22706 10192 20103 40217 58006 60001 81031 333 56066 81363=
85586,2010,05,02,21,00,AAXX 02214 85586 42960 32404 10174 20128 40217 54000 81031 333 56066 81363=
85586,2010,05,03,00,00,AAXX 03004 85586 12960 30000 10126 20100 40223 52009 60001 81031 333 10204 56066 81363 83075=
85586,2010,05,03,12,00,AAXX 03124 85586 11203 81002 10106 20098 40216 56003 60004 886// 333 20106 30/// 50140 55031 56099 88704=
85586,2010,05,03,15,00,AAXX 03154 85586 41958 00000 10144 20114 40027 57009 70522=
85586,2010,05,03,18,00,AAXX 03184 85586 12960 02309 10170 20125 40183 57023 60001=
85586,2010,05,03,21,00,AAXX 03214 85586 42260 53004 10140 20122 40173 57010 85600 333 56600 85704=
85586,2010,05,04,00,00,AAXX 04004 85586 11202 80000 10120 20112 40181 52007 60001 74642 886// 333 10196 56099 88703=
85586,2010,05,04,12,00,AAXX 04124 85586 11930 60000 10068 20057 40155 54000 60004 7102/ 80001 333 20065 30/// 50130 55054 56006 86073=
85586,2010,05,04,15,00,AAXX 04154 85586 41102 82305 10108 20096 40162 52010 74622 886// 333 56699 88703=
85586,2010,05,04,18,00,AAXX 04184 85586 11105 83004 10132 20123 40153 57009 60001 74622 886// 333 56699 88703=
85586,2010,05,04,21,00,AAXX 04214 85586 41105 83006 10128 20118 40161 52008 74622 886// 333 56699 88703=
85586,2010,05,05,00,00,AAXX 05004 85586 11210 83304 10131 20127 40177 52015 69921 75122 886// 333 10134 56799 88704=
85586,2010,05,05,12,00,AAXX 05124 85586 11560 80104 10142 20108 40166 53003 69944 885// 333 20130 30/// 50130 55000 56799 70004 88625=
85586,2010,05,06,00,00,AAXX 06004 85586 11456 82304 10133 20127 40204 52015 60071 76162 8657/ 333 10164 56779 86617 83358=
85586,2010,05,06,12,00,AAXX 06124 85586 11460 11903 10104 20096 40215 52004 60094 81100 333 20104 32/// 50100 55000 56500 70088 81815=
85586,2010,05,06,15,00,AAXX 06154 85586 42460 31405 10162 20117 40227 52014 83100 333 56600 83812=
85586,2010,05,06,18,00,AAXX 06184 85586 12960 01908 10194 20112 40207 57020 60001=
85586,2010,05,06,21,00,AAXX 06214 85586 42960 02206 10158 20116 40203 54004=
85586,2010,05,07,00,00,AAXX 07004 85586 11958 00000 10116 20094 40203 55001 60001 70500 333 10196=
85586,2010,05,07,12,00,AAXX 07124 85586 11960 00000 10052 20042 40210 53014 60004 333 20047 31/// 50190 55089=
85586,2010,05,07,15,00,AAXX 07154 85586 42960 02705 10160 20084 40216 52008=
85586,2010,05,07,18,00,AAXX 07184 85586 12960 02312 10154 20086 40197 57017 60001=
85586,2010,05,07,21,00,AAXX 07214 85586 42960 02805 10158 20101 40191 57006=
85586,2010,05,08,00,00,AAXX 08004 85586 11956 00000 10092 20070 40200 53007 60001 70500 333 10172=
85586,2010,05,08,12,00,AAXX 08124 85586 12960 00000 10079 20065 40185 55000 60004 333 200323 31/// 50160 55095=
85586,2010,05,08,15,00,AAXX 08154 85586 42960 02104 10168 20098 40179 58003=
85586,2010,05,08,18,00,AAXX 08184 85586 12960 02406 10183 20099 40161 57018 60001=
85586,2010,05,08,21,00,AAXX 08214 85586 42960 00000 10177 20105 40157 56004=
85586,2010,05,09,00,00,AAXX 09004 85586 11958 00000 10104 20082 40168 53009 60001 70500 333 10204=
85586,2010,05,09,12,00,AAXX 09124 85586 12960 00000 10040 20031 40150 53004 60004 333 20040 30/// 50210 55100=
85586,2010,05,09,15,00,AAXX 09154 85586 42960 02604 10182 20100 40148 54001=
85586,2010,05,09,18,00,AAXX 09184 85586 12960 02604 10180 20098 40143 57005 60001=
85586,2010,05,09,21,00,AAXX 09214 85586 42960 02804 10154 20115 40136 55007=
85586,2010,05,10,00,00,AAXX 10004 85586 12960 00000 10106 20093 40150 52013 60001 333 10196=
85586,2010,05,10,12,00,AAXX 10124 85586 11102 80902 10090 21084 40162 52008 60004 7464/ 886// 333 20086 30/// 50180 55090 56099 88701=
85586,2010,05,10,15,00,AAXX 10154 85586 41205 80000 10098 20092 40168 52006 74644 886// 333 56099 88704=
85586,2010,05,10,18,00,AAXX 10184 85586 11309 82404 10114 20104 40156 58012 60001 74644 886// 333 56099 88708=
85586,2010,05,10,21,00,AAXX 10214 85586 41304 82704 10105 20097 40146 57009 74644 886// 333 56099 88707=
85586,2010,05,11,00,00,AAXX 11004 85586 11309 80000 10102 20097 40146 54000 60001 74644 886// 333 10122 56099 88707=
85586,2010,05,11,12,00,AAXX 11124 85586 11208 80000 10094 20088 40152 52007 60004 7464/ 886// 333 20094 31/// 50140 55006 56099 88706=
85586,2010,05,11,15,00,AAXX 11154 85586 41310 80000 10104 20092 40171 52020 71022 886// 333 56099 88708=
85586,2010,05,11,18,00,AAXX 11184 85586 11220 82304 10110 20093 40158 57014 60001 71022 886// 333 56099 88708=
85586,2010,05,11,21,00,AAXX 11214 85586 41240 80000 10116 20095 40166 52008 71022 886// 333 56099 88710=
85586,2010,05,12,00,00,AAXX 12004 85586 11440 80000 10090 20078 40154 57012 60001 71022 886// 333 10118 56099 88710=
85586,2010,05,12,12,00,AAXX 12124 85586 11210 81105 10095 20091 40125 57018 60004 7102/ 886// 333 20095 30/// 50080 55000 56799 88704=
85586,2010,05,12,15,00,AAXX 12154 85586 41430 30905 10124 20096 40129 53007 70522 83600 333 56200 83715=
85586,2010,05,12,18,00,AAXX 12184 85586 11940 32505 10140 20110 40171 52009 60001 7052/ 80001 333 56006 83070=
85586,2010,05,12,21,00,AAXX 12214 85586 41935 82610 10125 20104 40119 57019 70522 8806/ 333 56069 88365=
85586,2010,05,13,12,00,AAXX 13124 85586 11930 71004 10104 20094 40131 52012 60004 7102/ 87030 333 20089 30/// 50100 55026 56069 87363=
85586,2010,05,13,15,00,AAXX 13154 85586 41930 81005 10136 20101 40133 54003 71022 8803/ 333 56069 88363=
85586,2010,05,13,18,00,AAXX 13184 85586 11940 72306 10152 20107 40117 57016 60001 70522 87030 333 56060 87363=
85586,2010,05,13,21,00,AAXX 13214 85586 41920 82205 10141 20114 40115 54003 71022 8803/ 333 56069 88362=
85586,2010,05,14,00,00,AAXX 14004 85586 11920 80000 10117 20098 40123 58008 60001 70522 8803/ 333 10154 56069 88362=
85586,2010,05,14,12,00,AAXX 14124 85586 11640 80506 10142 20093 40151 52016 60004 7052/ 8802/ 333 20113 30/// 50160 55008 56069 88440=
85586,2010,05,14,15,00,AAXX 14154 85586 41430 83005 10150 20118 40160 52010 72122 8802/ 333 56069 82615 88440=
85586,2010,05,14,18,00,AAXX 14184 85586 11420 80204 10140 20131 40156 54004 60041 78062 882// 333 56799 88815=
85586,2010,05,14,21,00,AAXX 14214 85586 41415 82808 10128 20118 40151 57005 78062 882// 333 56699 88810=
85586,2010,05,15,00,00,AAXX 15004 85586 11440 80000 10129 20118 40157 53005 60061 78066 882// 333 10152 56799 88815=
85586,2010,05,15,12,00,AAXX 15124 85586 11858 70000 10114 20099 40172 52012 60154 7058/ 87030 333 20111 32/// 50110 55000 56060 70146 88357=
85586,2010,05,15,15,00,AAXX 15154 85586 41460 50000 10151 20112 40174 53002 82101 333 56706 82815 85075=
85586,2010,05,15,18,00,AAXX 15184 85586 12560 12508 10166 20110 40166 56007 60001 81100 333 56700 88820=
85586,2010,05,15,21,00,AAXX 15214 85586 42560 12306 10154 20104 40160 58007 81100 333 56700 81820=
85586,2010,05,16,00,00,AAXX 16004 85586 11556 30000 10116 20099 40167 53007 60001 70500 83500 333 10168 56700 83620=
85586,2010,05,16,12,00,AAXX 16124 85586 12960 10802 10056 20047 40177 52003 60004 81030 333 20056 31/// 50130 55066 56060 81363=
85586,2010,05,16,15,00,AAXX 16154 85586 42960 22802 10140 20114 40187 52010 80002 333 56006 82075=
85586,2010,05,16,18,00,AAXX 16184 85586 12460 52506 10148 20118 40187 54000 60001 82602 333 56506 82710 83075=
85586,2010,05,16,21,00,AAXX 16214 85586 42460 32404 10152 20121 40205 52018 82601 333 56606 82710=
85586,2010,05,17,00,00,AAXX 17004 85586 12460 30000 10106 20094 40224 52019 60001 82600 333 10160 56000 83710=
85586,2010,05,17,12,00,AAXX 17124 85586 12560 71203 10090 20082 40265 52023 60004 87500 333 20076 31/// 50140 55071 56000 87620=
85586,2010,05,17,15,00,AAXX 17154 85586 42560 21504 10134 20089 40269 52004 82500 333 56300 82623=
85586,2010,05,17,18,00,AAXX 17184 85586 12560 22408 10152 20091 40246 57023 60001 82500 333 56600 82620=
85586,2010,05,17,21,00,AAXX 17214 85586 42960 02307 10142 20086 40249 53003=
85586,2010,05,18,00,00,AAXX 18004 85586 12960 00802 10100 20071 40252 54003 60001 333 10153=
85586,2010,05,18,12,00,AAXX 18124 85586 11915 30000 10036 20030 40221 56010 60004 7101/ 80001 333 20036 31/// 50140 55070 56006 83075=
85586,2010,05,18,15,00,AAXX 18154 85586 41458 21004 10126 20094 40229 53007 70520 80001 333 56006 82075=
85586,2010,05,18,18,00,AAXX 18184 85586 12960 32311 10130 20096 40229 54000 60001 83030 333 56060 83365=
85586,2010,05,18,21,00,AAXX 18214 85586 42960 21907 10130 20104 40183 57044 82030 333 56060 82365=
85586,2010,05,19,00,00,AAXX 19004 85586 12960 00000 10100 20092 40183 54002 60001 333 10150=
85586,2010,05,19,12,00,AAXX 19124 85586 11930 30000 10078 20072 40161 54000 60004 7100/ 80001 333 20078 30/// 50100 55074 56006 83073=
85586,2010,05,19,18,00,AAXX 19184 85586 12960 02408 10166 20102 40164 58004 60001=
85586,2010,05,19,21,00,AAXX 19214 85586 42960 00000 10155 20120 40167 53003=
85586,2010,05,20,00,00,AAXX 20004 85586 12960 00000 10104 20100 40180 52011 60001 333 10188=
85586,2010,05,20,12,00,AAXX 20124 85586 11920 50000 10033 20029 40171 53006 60004 7102/ 80001 333 20033 30/// 50110 55087 56006 85073=
85586,2010,05,20,15,00,AAXX 20154 85586 41940 40000 10122 20094 40179 52012 7052/ 80001 333 56006 84070=
85586,2010,05,20,18,00,AAXX 20184 85586 11957 32305 10150 20110 40179 54000 60001 70520 80001 333 56006 83070=
85586,2010,05,20,21,00,AAXX 20214 85586 41960 02804 10140 20110 40183 54003=
85586,2010,05,21,00,00,AAXX 21004 85586 11956 50504 10097 20072 40178 58006 60001 70500 80001 333 10152 56006 85075=
85586,2010,05,21,12,00,AAXX 21124 85586 11940 70000 10053 20043 40175 52012 60004 7101/ 82031 333 20045 30/// 50120 55071 56066 82062 87075=
85586,2010,05,21,15,00,AAXX 21154 85586 41956 72604 10123 20100 40183 51010 70511 83031 333 56066 83362 87075=
85586,2010,05,21,18,00,AAXX 21184 85586 11456 63305 10152 20107 40182 55001 60001 70511 86200 333 56700 86815=
85586,2010,05,21,21,00,AAXX 21214 85586 41456 70000 10134 20094 40180 56002 70511 82101 333 56706 82815 87075=
85586,2010,05,22,00,00,AAXX 22004 85586 11540 70000 10104 20091 40185 53005 60001 70522 87500 333 10154 56700 87615=
85586,2010,05,22,12,00,AAXX 22124 85586 11940 70804 10066 20056 40196 52013 60004 7101/ 82031 333 20064 31/// 50120 55036 56066 82060 86075=
85586,2010,05,22,15,00,AAXX 22154 85586 41558 81004 10112 20092 40210 52016 70511 81131 333 56766 81820 83360 87075=
85586,2010,05,22,18,00,AAXX 22184 85586 11540 81906 10118 20105 40212 55001 69931 71052 882// 333 56799 88825=
85586,2010,05,22,21,00,AAXX 22214 85586 41560 71005 10113 20086 40222 58010 70382 82220 333 56760 82825 87450=
85586,2010,05,23,00,00,AAXX 23004 85586 11558 40000 10093 20071 40230 51007 69911 70582 84100 333 10129 56600 84825=
85586,2010,05,23,12,00,AAXX 23124 85586 11202 81205 10042 20034 40244 52010 69944 7464/ 886// 333 20018 31/// 50110 55002 56099 70004 88702=
85586,2010,05,23,15,00,AAXX 23154 85586 41312 11205 10086 20076 40249 51005 71044 81600 333 56300 81707=
85586,2010,05,23,18,00,AAXX 23184 85586 12460 11706 10136 20053 40215 57034 60001 81500 333 56400 81612=
85586,2010,05,23,21,00,AAXX 23214 85586 42960 02406 10130 20063 40228 53013=
85586,2010,05,24,00,00,AAXX 24004 85586 12960 11002 10056 20033 40234 52006 60001 80001 333 10145 56006 81075=
85586,2010,05,24,12,00,AAXX 24124 85586 12960 21004 10032 20025 40210 57010 60004 80001 333 20032 31/// 50120 55072 56006 82075=
85586,2010,05,24,15,00,AAXX 24154 85586 42960 21206 10122 20884 40221 52010 80001 333 56006 82073=
85586,2010,05,24,18,00,AAXX 24184 85586 12960 02408 10162 20070 40200 57019 60001=
85586,2010,05,24,21,00,AAXX 24214 85586 42960 32205 10134 20078 40175 57025 80001 333 56006 83070=
85586,2010,05,25,00,00,AAXX 25004 85586 12960 40904 10076 20060 40182 52016 60001 80001 333 10164 56006 84075=
85586,2010,05,25,12,00,AAXX 25124 85586 12960 21004 10028 20020 40178 52006 60004 81031 333 20028 31/// 50100 55077 56066 81365=
85586,2010,05,25,15,00,AAXX 25154 85586 42960 21005 10142 20073 40180 54003 80001 333 56006 82075=
85586,2010,05,25,18,00,AAXX 25184 85586 12960 52210 10152 20094 40158 57023 60001 80001 333 56006 85070=
85586,2010,05,26,00,00,AAXX 26004 85586 12960 60000 10113 20103 40158 54000 60001 86030 333 10166 56006 86363=
85586,2010,05,26,12,00,AAXX 26124 85586 11940 60000 10085 20077 40201 52006 60004 7102/ 84031 333 20085 31/// 50080 55068 56066 84363=
85586,2010,05,26,15,00,AAXX 26154 85586 41950 22506 10134 20091 40205 52005 70500 81031 333 56066 81365=
85586,2010,05,26,18,00,AAXX 26184 85586 12960 22308 10142 20086 40195 58009 60001 81031 333 56066 81365=
85586,2010,05,26,21,00,AAXX 26214 85586 42960 52405 10128 20093 40186 57009 84031 333 56066 84363=
85586,2010,05,27,00,00,AAXX 27004 85586 12960 60000 10105 20093 40190 54002 60001 86030 333 10144 56060 86365=
85586,2010,05,27,12,00,AAXX 27124 85586 11920 01203 10042 20038 40180 54000 60004 7100/ 333 20042 31/// 50070 55067=
85586,2010,05,27,15,00,AAXX 27154 85586 42940 20000 10134 20078 40179 54002 70500 80001 333 56006 82060=
85586,2010,05,27,18,00,AAXX 27184 85586 12960 02208 10160 20097 40156 57023 60001=
85586,2010,05,27,21,00,AAXX 27214 85586 42960 02205 10130 20110 40156 54000=
85586,2010,05,28,00,00,AAXX 28004 85586 11956 60000 10106 20084 40143 56012 60001 87030 333 10162 56060 87362=
85586,2010,05,28,12,00,AAXX 28124 85586 11340 80705 10099 20087 401176 52021 60004 7052/ 333 20048 31/// 50090 55078 82708 88820=
85586,2010,05,28,15,00,AAXX 28154 85586 41757 73207 10134 20108 40207 52031 70522 87030 333 56060 87356=
85586,2010,05,28,18,00,AAXX 28184 85586 12560 62710 10144 20096 40190 57015 60001 86400 333 56600 86630=
85586,2010,05,28,21,00,AAXX 28214 85586 41558 82305 10135 20114 40179 57011 70520 884// 333 56699 88620=
85586,2010,05,29,00,00,AAXX 29004 85586 11556 80000 10127 20104 40196 51016 60001 885// 333 10152 56799 88620=
85586,2010,05,29,12,00,AAXX 29124 85586 11240 80000 10116 20106 40250 52028 60044 7606/ 333 20114 32/// 50050 55022 56799 70036 83706 88825=
85586,2010,05,29,15,00,AAXX 29154 85586 41320 80604 10117 20106 40277 52026 75166 886// 333 56799 85708 88620=
85586,2010,05,29,18,00,AAXX 29184 85586 11458 83404 10149 20104 40268 58009 60011 70565 885// 333 56799 88615=
85586,2010,05,29,21,00,AAXX 29214 85586 41458 52104 10136 20098 40270 53003 70522 82130 333 56760 82815 85362=
85586,2010,05,30,00,00,AAXX 30004 85586 11956 00000 10096 20073 40267 58004 60001 70522 333 10151=
85586,2010,05,30,12,00,AAXX 30124 85586 11312 71206 10068 20060 40253 52006 60014 7101/ 87600 333 20050 31/// 50070 55006 56300 70013 87707=
85586,2010,05,30,15,00,AAXX 30154 85586 42960 11503 10128 20103 40258 52005 80001 333 56006 81075=
85586,2010,05,30,18,00,AAXX 30184 85586 12960 12406 10176 20112 40235 58023 60001 80001 333 56006 81075=
85586,2010,05,30,21,00,AAXX 30214 85586 42960 02406 10150 20103 40226 57009=
85586,2010,05,31,00,00,AAXX 31004 85586 12960 00000 10090 20076 40228 54002 60001 333 10198=
85586,2010,05,31,12,00,AAXX 31124 85586 12960 11604 10046 20036 40203 52006 60004 80001 333 20046 31/// 50110 55075 56006 81075=
85586,2010,05,31,15,00,AAXX 31154 85586 42960 20000 10120 20089 40204 54000 80001 333 56006 82073=
85586,2010,05,31,18,00,AAXX 31184 85586 12960 22505 10148 20096 40194 57009 80001 333 56006 82073=
85586,2010,05,31,21,00,AAXX 31214 85586 42960 02505 10150 20098 40189 54004=
85586,2010,06,01,00,00,AAXX 01004 85586 12960 00000 10086 20078 40199 52009 60001 333 10162=
85586,2010,06,01,12,00,AAXX 01124 85586 11440 80904 10096 20088 40213 52008 60004 7102/ 885// 333 20096 31/// 50130 55079 56099 88615=
85586,2010,06,01,18,00,AAXX 01184 85586 11550 82804 10140 20084 40197 57021 60001 884// 333 56699 88620=
85586,2010,06,01,21,00,AAXX 01214 85586 41557 82205 10130 20104 40192 56005 70522 884// 333 56699 88620=
85586,2010,06,02,00,00,AAXX 02004 85586 12560 70000 10116 20086 40204 52010 60001 87500 333 10142 56700 87620=
85586,2010,06,02,12,00,AAXX 02124 85586 11557 80000 10105 20088 40201 53004 60004 7052/ 885// 333 20103 31/// 50090 55000 56799 88620=
85586,2010,06,02,15,00,AAXX 02154 85586 41550 82003 10120 20084 40208 52008 70522 884// 333 56699 88620=
85586,2010,06,02,18,00,AAXX 02184 85586 11956 82706 10134 20089 40225 52017 60001 70522 8803/ 333 56069 88362=
85586,2010,06,02,21,00,AAXX 02214 85586 41957 62708 10124 20100 40220 56005 70522 86030 333 56060 86362=
85586,2010,06,03,00,00,AAXX 03004 85586 12960 70000 10116 20101 40216 57008 60001 87030 333 10136 56060 87362=
85586,2010,06,03,12,00,AAXX 03124 85586 11940 60000 10058 20052 40260 52010 60004 7102/ 84031 333 20058 31/// 50070 55000 56066 84362 83075=
85586,2010,06,03,15,00,AAXX 03154 85586 41958 41204 10124 20076 40273 52012 7052/ 84030 333 56060 84362=
85586,2010,06,03,18,00,AAXX 03184 85586 12960 02307 10150 20102 40258 57015 60001=
85586,2010,06,03,21,00,AAXX 03214 85586 42960 01912 10136 20068 40251 56006=
85586,2010,06,04,00,00,AAXX 04004 85586 12960 00902 10082 20064 40276 52025 60001 333 10164=
85586,2010,06,04,12,00,AAXX 04124 85586 12960 01202 10046 20032 40272 52005 60004 333 20038 31/// 50110 55063=
85586,2010,06,04,15,00,AAXX 04154 85586 42960 02004 10136 20071 40278 52006=
85586,2010,06,04,18,00,AAXX 04184 85586 12960 02405 10174 20073 40257 57021 60001=
85586,2010,06,04,21,00,AAXX 04214 85586 42960 02405 10172 20097 40244 57013=
85586,2010,06,05,00,00,AAXX 05004 85586 12960 01802 10098 20072 40249 53005 60001 333 10210=
85586,2010,06,05,12,00,AAXX 05124 85586 12960 00000 10072 20043 40212 57006 60004 333 20052 31/// 50130 55082=
85586,2010,06,05,15,00,AAXX 05154 85586 42960 01506 10150 20059 40204 57008=
85586,2010,06,05,18,00,AAXX 05184 85586 12960 02407 10176 20093 40186 57018 60001=
85586,2010,06,05,21,00,AAXX 05214 85586 42960 02404 10154 20107 40178 57008=
85586,2010,06,06,00,00,AAXX 06004 85586 12960 00000 10084 20072 40190 53012 60001 333 10190=
85586,2010,06,06,12,00,AAXX 06124 85586 11920 00000 10036 20026 40204 52011 60004 7100/ 333 20029 31/// 50090 55090=
85586,2010,06,06,15,00,AAXX 06154 85586 41956 01609 10124 20082 40204 51005 70500=
85586,2010,06,06,18,00,AAXX 06184 85586 12960 02409 10145 20086 40192 58011 60001=
85586,2010,06,06,21,00,AAXX 06214 85586 42960 02308 10143 20097 40182 56010=
85586,2010,06,07,00,00,AAXX 07004 85586 11956 00000 10073 20055 40203 53017 60001 70500 333 10165=
85586,2010,06,07,12,00,AAXX 07124 85586 12960 00000 10039 20025 40211 52012 60004 333 20034 31/// 50120 55085=
85586,2010,06,07,15,00,AAXX 07154 85586 41958 01104 10132 20073 40207 54001 70500=
85586,2010,06,07,18,00,AAXX 07184 85586 12960 12307 10159 20096 40183 58022 60001 80001 333 56006 81075=
85586,2010,06,07,21,00,AAXX 07214 85586 42960 62208 10139 20106 40175 56009 80001 333 56006 86075=
85586,2010,06,08,00,00,AAXX 08004 85586 11956 00000 10082 2006 40193 53016 60001 70500 333 10177=
85586,2010,06,08,12,00,AAXX 08124 85586 11958 71004 10033 20022 40161 53008 60004 333 20024 31/// 50070 55092 56006 87075=
85586,2010,06,08,15,00,AAXX 08154 85586 41330 62704 10090 20076 40169 52012 71022 86600 333 56600 86707=
85586,2010,06,08,18,00,AAXX 08184 85586 11340 42806 10138 20103 40167 54002 60001 70520 84601 333 56606 82708 84070=
85586,2010,06,08,21,00,AAXX 08214 85586 41950 43008 10130 20096 40167 54000 70520 80001 333 56006 84070=
85586,2010,06,09,00,00,AAXX 09004 85586 11956 53304 10102 20081 40165 53003 60001 70522 80001 333 10139 56006 85075=
85586,2010,06,09,12,00,AAXX 09124 85586 11658 02010 10127 20074 40212 52013 60004 7052/ 885// 333 20094 31/// 50090 55061 56799 88625=
85586,2010,06,09,18,00,AAXX 09184 85586 12560 42710 10162 20078 40215 57012 60001 84400 333 56600 84630=
85586,2010,06,09,21,00,AAXX 09214 85586 42460 52706 10146 20085 40219 54004 85601 333 56606 83710 85070=
85586,2010,06,10,00,00,AAXX 10004 85586 11458 60000 10094 20074 40211 52009 60001 70522 82601 333 10165 56606 82710 84070=
85586,2010,06,10,12,00,AAXX 10124 85586 12960 70704 10105 20076 40199 54000 60004 87070 333 20078 30/// 50090 55041 56060 87363=
85586,2010,06,10,15,00,AAXX 10154 85586 42960 20503 10144 20067 40200 54002 82030 333 56060 82362=
85586,2010,06,10,18,00,AAXX 10184 85586 12560 53505 10148 20067 40202 54002 60001 85400 333 56600 85630=
85586,2010,06,10,21,00,AAXX 10214 85586 42560 63005 10136 20083 40196 56005 86400 333 56600 86630=
85586,2010,06,11,00,00,AAXX 11004 85586 12560 70203 10130 20103 40198 54001 60001 87500 333 10158 56700 87630=
85586,2010,06,11,12,00,AAXX 11124 85586 11530 80503 10103 20097 40205 53011 60064 7616/ 8427/ 333 20101 32/// 50060 55024 56779 70058 84820 85358=
85586,2010,06,11,15,00,AAXX 11154 85586 41540 81004 10120 20112 40227 52023 76162 85230 333 56229 85820 88357=
85586,2010,06,11,18,00,AAXX 11184 85586 11557 80208 10130 20114 40227 54000 60061 70562 8527/ 333 56779 84830 88357=
85586,2010,06,11,21,00,AAXX 11214 85586 41556 80000 10120 20108 40212 57015 70522 85260 333 56669 83820 87357=
85586,2010,06,12,00,00,AAXX 12004 85586 12560 80000 10126 20118 40224 52012 69941 70262 8327/ 333 10144 56779 83820 88359=
85586,2010,06,12,12,00,AAXX 12124 85586 11106 81104 10102 20098 40214 57008 60004 7444/ 887// 333 20102 32/// 50030 55000 56099 70062 88703=
85586,2010,06,12,15,00,AAXX 12154 85586 41240 41103 10116 20105 40204 57009 70542 83601 333 56006 83703=
85586,2010,06,12,18,00,AAXX 12184 85586 11950 72604 10151 20116 40167 57026 60001 70542 80001 333 56006 87073=
85586,2010,06,12,21,00,AAXX 12214 85586 41250 72405 10128 20113 40172 57005 70522 81610 333 56760 81705 86465=
85586,2010,06,13,00,00,AAXX 13004 85586 11950 70000 10120 20116 40169 57003 60001 70522 87010 333 10166 56060 87465=
85586,2010,06,13,12,00,AAXX 13124 85586 11320 80504 10094 20078 40134 56016 60004 7104/ 885// 333 20092 31/// 50060 55040 56799 88608=
85586,2010,06,13,15,00,AAXX 13154 85586 42460 83507 10131 20081 40140 53007 881// 333 56799 88815=
85586,2010,06,13,18,00,AAXX 13184 85586 11950 72604 10151 20116 40167 58014 60001 82101 333 56706 82820 85075=
85586,2010,06,13,21,00,AAXX 13214 85586 42460 63212 10134 20081 40119 56007 86100 333 56700 81815 85820=
85586,2010,06,14,00,00,AAXX 14004 85586 11456 83611 10116 20103 40136 53017 60061 76322 8212/ 333 10161 56779 82815 88456=
85586,2010,06,14,12,00,AAXX 14124 85586 11560 30111 10107 20078 40192 52014 60214 7016/ 832// 333 20102 31/// 50060 55053 56700 70213 83825=
85586,2010,06,14,15,00,AAXX 14154 85586 41560 83012 10130 20084 40198 52008 76062 882// 333 56699 88825=
85586,2010,06,14,18,00,AAXX 14184 85586 11560 73013 10140 20106 40203 54003 60041 70262 87200 333 56600 87830=
85586,2010,06,14,21,00,AAXX 14214 85586 41530 82708 10126 20102 40207 54004 76162 882// 333 56699 88820=
85586,2010,06,15,00,00,AAXX 15004 85586 11540 83307 10123 20107 40215 53009 60101 78062 882// 333 10142 56799 88820=
85586,2010,06,15,12,00,AAXX 15124 85586 12960 71005 10074 20064 40218 53008 60144 80001 333 20069 32/// 50060 55003 56006 70135 87075=
85586,2010,06,15,18,00,AAXX 15184 85586 12960 41005 10140 20101 40194 57013 60001 80001 333 56006 84073=
85586,2010,06,16,00,00,AAXX 16004 85586 12560 60000 10111 20104 40193 52007 60001 83101 333 20150 56606 83820 83070=
85586,2010,06,16,12,00,AAXX 16124 85586 11550 80303 10102 20098 40196 53011 60044 7616/ 8327/ 333 20102 32/// 50050 55031 56779 70040 83820 88358=
85586,2010,06,16,15,00,AAXX 16154 85586 41460 80506 10116 20101 40209 52014 72162 8357/ 333 56779 83617 87358=
85586,2010,06,16,18,00,AAXX 16184 85586 11960 70107 10146 20091 40200 58008 60021 70262 87070 333 56070 87362=
85586,2010,06,17,00,00,AAXX 17004 85586 12960 70000 10138 20086 40185 54001 60001 87070 333 10150 56070 87360=
85586,2010,06,17,12,00,AAXX 17124 85586 12560 80207 10138 20078 40143 55005 60024 8457/ 333 20125 31/// 50050 55000 56779 70016 84630 85358=
85586,2010,06,17,15,00,AAXX 17154 85586 42560 53508 10153 20073 40148 53006 85430 333 56660 82630 85357=
85586,2010,06,17,18,00,AAXX 17184 85586 11558 82711 10150 20070 40137 57010 60001 70522 8543/ 333 56669 86620 88357=
85586,2010,06,17,21,00,AAXX 17214 85586 42760 83306 10138 20121 40117 57021 8663/ 333 56669 86750 88357=
85586,2010,06,18,00,00,AAXX 18004 85586 11260 83408 10140 20117 40126 52009 69931 70252 8463/ 333 10158 56769 84705 88357=
85586,2010,06,18,12,00,AAXX 18124 85586 11460 80203 10108 20098 40146 52008 60324 7026/ 85231 333 20108 32/// 50060 55000 56866 70320 85813 83358=
85586,2010,06,18,15,00,AAXX 18154 85586 41454 50904 10124 20112 40156 52010 76162 85230 333 56660 85810 85357=
85586,2010,06,18,18,00,AAXX 18184 85586 11360 63004 10120 20110 40168 52010 60251 76162 84230 333 56660 84808 86357=
85586,2010,06,18,21,00,AAXX 18214 85586 41360 42703 10120 20110 40178 52010 70262 82230 333 56660 82807 84357=
85586,2010,06,19,00,00,AAXX 19004 85586 11460 70000 10106 20093 40213 52005 60041 70362 83231 333 10130 56066 84815 83360=
85586,2010,06,19,12,00,AAXX 19124 85586 11202 81204 10058 20052 40246 52006 60294 7466/ 886// 333 20046 32/// 50060 55004 56299 70286 88703=
85586,2010,06,19,15,00,AAXX 19154 85586 41360 11004 10100 20093 40249 51003 70142 81600 333 56200 81707=
85586,2010,06,19,18,00,AAXX 19184 85586 12460 22406 10138 20067 40234 57015 60001 82500 333 56500 82610=
85586,2010,06,19,21,00,AAXX 19214 85586 42460 12410 10126 20062 40231 56003 81500 333 56500 81615=
85586,2010,06,20,00,00,AAXX 20004 85586 12960 01202 10086 20072 40234 54003 60001 333 10140=
85586,2010,06,20,12,00,AAXX 20124 85586 11960 01005 10036 20026 40251 53007 60004 7024/ 333 20027 32/// 50080 55084=
85586,2010,06,20,15,00,AAXX 20154 85586 42960 01105 10111 20068 40247 58002=
85586,2010,06,20,18,00,AAXX 20184 85586 12960 01408 10145 20066 40230 57016 60001=
85586,2010,06,20,21,00,AAXX 20214 85586 42960 02310 10127 20078 40221 56010=
85586,2010,06,21,00,00,AAXX 21004 85586 11956 71604 10094 20063 40228 53007 60001 70500 333 10147=
85586,2010,06,21,12,00,AAXX 21124 85586 12960 09004 10044 20028 40244 56006 60004 83030 333 20037 31/// 50090 55091 56060 83360=
85586,2010,06,21,15,00,AAXX 21154 85586 42960 40000 10114 20095 40239 54001 82031 333 56060 82362=
85586,2010,06,21,18,00,AAXX 21184 85586 12960 82404 10121 20080 40248 53008 60001 8803/ 333 56069 88362=
85586,2010,06,21,21,00,AAXX 21214 85586 42960 50203 10120 20085 40228 57019 85030 333 56060 85362=
85586,2010,06,22,00,00,AAXX 22004 85586 11958 61104 10093 20071 40265 52035 60001 70511 333 10142 56060 86365=
85586,2010,06,22,12,00,AAXX 22124 85586 11120 80503 10102 20098 40154 53011 60004 7102/ 886// 333 20100 31/// 50060 55088 56799 85703 84620=
85586,2010,06,22,15,00,AAXX 22154 85586 42960 51508 10146 20104 40197 57032 80001 333 56006 85073=
85586,2010,06,22,18,00,AAXX 22184 85586 12960 52410 10180 20100 40166 57031 60001 80001 333 56006 85073=
85586,2010,06,22,21,00,AAXX 22214 85586 42960 32306 10145 20113 40166 54000 80001 333 56006 83073=
85586,2010,06,23,00,00,AAXX 23004 85586 12360 70000 10121 20115 40160 57006 60001 82601 333 10184 56606 82707 85070=
85586,2010,06,23,15,00,AAXX 23154 85586 42460 83505 10121 20115 40155 54002 885// 333 56799 88617=
85586,2010,06,23,18,00,AAXX 23184 85586 11420 83311 10125 20121 40166 52011 60021 76162 885// 333 56799 88613=
85586,2010,06,23,21,00,AAXX 23214 85586 41460 83408 10130 20117 40166 54000 70262=
85586,2010,06,24,00,00,AAXX 24004 85586 11410 81903 10105 20101 40194 52026 60261 76362 882// 333 10131 56799 88813=
85586,2010,06,24,12,00,AAXX 24124 85586 12970 00000 10059 20053 40244 52011 60374 333 20059 32/// 50030 55000 70374=
85586,2010,06,24,15,00,AAXX 24154 85586 42960 01205 10116 20086 40159 57008=
85586,2010,06,24,18,00,AAXX 24184 85586 12960 02007 10152 20088 40232 57017 60001=
85586,2010,06,24,21,00,AAXX 24214 85586 42960 01808 10150 20070 40218 57014=
85586,2010,06,25,00,00,AAXX 25004 85586 12960 01904 10082 20066 40221 54003 60001 333 10157=
85586,2010,06,25,12,00,AAXX 25124 85586 12960 81202 10024 20014 40172 56003 60004 84032 333 20024 32/// 50100 55083 56066 84362 85075=
85586,2010,06,25,15,00,AAXX 25154 85586 42960 50000 10078 20066 40182 52010 85030 333 56060 85362=
85586,2010,06,25,18,00,AAXX 25184 85586 12960 02408 10126 20047 40169 57013 60001=
85586,2010,06,25,21,00,AAXX 25214 85586 42960 02204 10124 20081 40169 54000=
85586,2010,06,26,00,00,AAXX 26004 85586 12960 60000 10058 20043 40183 52014 60001 80002 333 10130 56006 86075=
85586,2010,06,26,12,00,AAXX 26124 85586 12960 11002 10006 21002 40213 52014 60001 80002 333 20006 31/// 50110 55055 56006 81075=
85586,2010,06,26,15,00,AAXX 26154 85586 42960 10904 10100 20060 40234 52021 80002 333 56006 81075=
85586,2010,06,26,18,00,AAXX 26184 85586 12560 12604 10126 20047 40238 52004 60001 81500 333 56600 81630=
85586,2010,06,26,21,00,AAXX 26214 85586 42560 12405 10114 20054 40260 52022 81500 333 56600 81615=
85586,2010,06,27,00,00,AAXX 27004 85586 12960 00000 10058 20043 40279 52019 60001 333 10128=
85586,2010,06,27,12,00,AAXX 27124 85586 12960 01206 10034 20021 40275 56012 60004 333 20024 31/// 50080 55074=
85586,2010,06,27,15,00,AAXX 27154 85586 42960 01208 10086 20062 40277 53005=
85586,2010,06,27,18,00,AAXX 27184 85586 12960 01206 10146 20049 40250 57015 60001=
85586,2010,06,27,21,00,AAXX 27214 85586 42960 01306 10142 20016 40247 58007=
85586,2010,06,28,00,00,AAXX 28004 85586 12958 18006 10091 20001 40236 56008 60001 333 10155=
85586,2010,06,28,12,00,AAXX 28124 85586 12960 01705 10043 20002 40196 57014 60004 333 20036 31/// 50110 55093=
85586,2010,06,28,15,00,AAXX 28154 85586 42960 01307 10131 20046 40192 54001=
85586,2010,06,28,18,00,AAXX 28184 85586 12960 02708 10155 20086 40175 56015 60001=
85586,2010,06,28,21,00,AAXX 28214 85586 42960 02404 10143 20097 40178 53002=
85586,2010,06,29,00,00,AAXX 29004 85586 11256 50000 10108 20091 40198 52019 60001 70500 85600 333 10161 56700 85706=
85586,2010,06,29,12,00,AAXX 29124 85586 12960 80000 10097 20077 40232 52017 60004 885// 333 20068 31/// 50120 55093 56799 88625=
85586,2010,06,29,15,00,AAXX 29154 85586 42560 21205 10138 20065 40254 52023 82400 333 56600 82630=
85586,2010,06,29,18,00,AAXX 29184 85586 12560 43006 10152 20086 40247 56007 60001 84400 333 56600 84630=
85586,2010,06,29,21,00,AAXX 29214 85586 42560 22105 10152 20090 40234 56006 82400 333 56600 82630=
85586,2010,06,30,00,00,AAXX 30004 85586 12960 01003 10084 20076 40244 54002 60001 333 10162=
85586,2010,06,30,12,00,AAXX 30124 85586 11930 51107 10043 20039 40209 57011 60001 7101/ 80001 333 20043 31/// 50050 55051 56006 85070=
85586,2010,06,30,15,00,AAXX 30154 85586 41960 41005 10100 20082 40211 52006 70520 80001 333 56006 84070=
85586,2010,06,30,18,00,AAXX 30184 85586 11957 42406 10152 20096 40186 57025 80001 333 56006 84070=
85586,2010,06,30,21,00,AAXX 30214 85586 42960 32705 10124 20094 40163 57022 80001 333 56006 83070=
85586,2010,07,01,00,00,AAXX 01004 85586 12960 00000 10073 20067 40188 52022 333 10153=
85586,2010,07,01,12,00,AAXX 01124 85586 11320 80000 10085 20081 40178 53005 60004 7102/ 886// 333 20085 31/// 50060 55061 56799 88707=
85586,2010,07,01,15,00,AAXX 01154 85586 41330 80803 10094 20090 40203 52023 71022 886// 333 56799 88708=
85586,2010,07,01,18,00,AAXX 01184 85586 11440 82003 10101 20095 40189 57013 60001 71022 886// 333 56799 88710=
85586,2010,07,01,21,00,AAXX 01214 85586 41457 80000 10103 20090 40197 52007 70522 88600 333 56799 88713=
85586,2010,07,02,00,00,AAXX 02004 85586 12460 80604 10096 20081 40209 52014 60001 885// 333 10103 56099 88615=
85586,2010,07,02,12,00,AAXX 02124 85586 11450 80000 10084 20072 40196 52006 60001 7052/ 885// 333 20079 31/// 50090 55000 56099 88610=
85586,2010,07,02,15,00,AAXX 02154 85586 41440 80904 10094 20078 40205 52009 70522 885// 333 56099 88610=
85586,2010,07,02,18,00,AAXX 02184 85586 11456 81204 10104 20081 40185 57020 60001 70522 885// 333 56099 88613=
85586,2010,07,02,21,00,AAXX 02214 85586 41456 31905 10122 20078 40176 56009 70521 81502 333 56406 81610 83075=
85586,2010,07,03,00,00,AAXX 03004 85586 11458 01905 10070 20062 40174 54002 60001 70521 333 10126=
85586,2010,07,03,12,00,AAXX 03124 85586 11202 80702 10034 20027 40158 52011 60004 7464/ 886// 333 20034 31/// 50080 55023 56099 88703=
85586,2010,07,03,18,00,AAXX 03184 85586 11230 83102 10090 20080 40162 57008 60001 71044 333 56099 88708=
85586,2010,07,03,21,00,AAXX 03214 85586 41456 83106 10110 20080 40159 56003 70522 885// 333 56699 88615=
85586,2010,07,04,00,00,AAXX 04004 85586 11456 83604 10110 20076 40166 52008 60001 70522 885// 333 10112 56099 88613=
85586,2010,07,04,12,00,AAXX 04124 85586 12760 83507 10123 20062 40185 53007 60004 8803/ 333 20104 31/// 50080 55000 56069 88356=
85586,2010,07,04,15,00,AAXX 04154 85586 42560 53418 10153 20065 40203 52018 82530 333 56760 82625 84358=
85586,2010,07,04,18,00,AAXX 04184 85586 12560 83418 10152 20066 40186 58017 60001 882// 333 56799 888025=
85586,2010,07,04,21,00,AAXX 04214 85586 41556 83214 10121 20099 40213 53027 78022 882// 333 56799 88820=
85586,2010,07,05,00,00,AAXX 05004 85586 11540 80206 10114 20098 40221 51007 60021 78082 333 10155 56799 88825=
85586,2010,07,05,12,00,AAXX 05124 85586 12560 80704 10104 20087 40210 53012 60044 885// 333 20097 32/// 50120 55015 56799 70040 88625=
85586,2010,07,05,15,00,AAXX 05154 85586 42560 71005 10134 20102 40222 52013 87400 333 56600 87630=
85586,2010,07,05,18,00,AAXX 05184 85586 12560 73207 10144 20118 40199 57020 60001 87400 333 56600 87620=
85586,2010,07,05,21,00,AAXX 05214 85586 42560 82406 10130 20104 40180 57020 884// 333 56699 88620=
85586,2010,07,06,00,00,AAXX 06004 85586 11556 80104 1013/ 20094 40193 53011 69911 70582 333 10146 56799 88625=
85586,2010,07,06,12,00,AAXX 06124 85586 11560 83411 10134 20075 40161 57013 69914 882// 333 20108 31/// 50120 55006 56799 70001 88825=
85586,2010,07,06,15,00,AAXX 06154 85586 41556 83515 10120 20099 40150 57010 78122 882// 333 56699 88820=
85586,2010,07,06,18,00,AAXX 06184 85586 11440 82818 10108 20104 40160 52010 60131 78182 882// 333 56699 88815=
85586,2010,07,06,21,00,AAXX 06214 85586 41558 62308 10110 20100 40202 52040 76162 86200 333 56600 86820=
85586,2010,07,07,00,00,AAXX 07004 85586 11560 60000 10086 20082 40253 52050 600041 70262 86200 333 10144 56700 86820=
85586,2010,07,07,12,00,AAXX 07124 85586 11960 51005 10053 20047 40296 54000 60194 7026/ 80001 333 20053 32/// 50020 55000 56600 70188 85073=
85586,2010,07,07,15,00,AAXX 07154 85586 42970 31005 10108 20076 40294 54000 80001 333 56006 83073=
85586,2010,07,07,18,00,AAXX 07184 85586 12970 31107 10114 20081 40269 58023 60001 80001 333 56006 83073=
85586,2010,07,07,21,00,AAXX 07214 85586 42970 12209 10127 20090 40260 57010 80001 333 56006 81073=
85586,2010,07,08,00,00,AAXX 08004 85586 12960 00000 10070 20066 40260 54002 60001 333 10152=
85586,2010,07,08,12,00,AAXX 08124 85586 12960 21104 10041 20037 40234 53005 60004 81031 333 20034 31/// 50050 55084 56066 81365=
85586,2010,07,08,15,00,AAXX 08154 85586 42960 01003 10124 20056 40241 52010=
85586,2010,07,08,18,00,AAXX 08184 85586 12960 02409 10160 20066 40209 57031 60001=
85586,2010,07,08,21,00,AAXX 08214 85586 42960 02304 10152 20062 40216 52007=
85586,2010,07,09,00,00,AAXX 09004 85586 11956 00000 10093 20072 40225 53009 60001 70500 333 10164=
85586,2010,07,09,12,00,AAXX 09124 85586 12960 01209 10082 20056 40215 57006 60004 333 20052 31/// 50130 55087=
85586,2010,07,09,15,00,AAXX 09154 85586 42960 01804 10140 20100 40212 54002=
85586,2010,07,09,18,00,AAXX 09184 85586 12960 01908 10180 20094 40195 57017 60001=
85586,2010,07,10,00,00,AAXX 10004 85586 11956 00000 10134 20088 40186 53007 60001 70500 333 10188=
85586,2010,07,10,12,00,AAXX 10124 85586 12960 01104 10031 20016 40192 53007 60004 80001 333 20027 31/// 50120 55093 56006 86075=
85586,2010,07,10,15,00,AAXX 10154 85586 41958 02705 10117 20071 40212 52022 70511=
85586,2010,07,10,18,00,AAXX 10184 85586 12960 62405 10139 20081 40200 56001 60001 80001 333 56006 86075=
85586,2010,07,10,21,00,AAXX 10214 85586 42960 10000 10141 20095 40202 53002=
85586,2010,07,11,00,00,AAXX 11004 85586 11456 32404 10103 20085 40219 52015 60001 70500 83500 333 10152 56700 83615=
85586,2010,07,11,12,00,AAXX 11124 85586 11557 70404 10088 20074 40231 52006 60004 7052/ 87500 333 20088 31/// 50120 55084 56000 87630=
85586,2010,07,11,15,00,AAXX 11154 85586 41450 81811 10086 20078 40256 52015 76062=
85586,2010,07,11,18,00,AAXX 11184 85586 11560 41613 10106 20033 40256 54000 60011 70262 84500 333 56400 84620=
85586,2010,07,11,21,00,AAXX 11214 85586 42560 11810 10106 21004 40248 57009 81500 333 56400 81630=
85586,2010,07,12,00,00,AAXX 12004 85586 12560 11804 10066 21004 40257 52009 60001 81500 333 10117 56400 81630=
85586,2010,07,12,12,00,AAXX 12124 85586 12560 01504 10020 21003 40247 52004 60014 7020/ 333 20020 31/// 50110 55035 70014=
85586,2010,07,12,18,00,AAXX 12184 85586 12960 02212 10124 20017 40227 57026 60001=
85586,2010,07,12,21,00,AAXX 12214 85586 42960 01907 10120 20024 40211 57016=
85586,2010,07,13,00,00,AAXX 13004 85586 12960 00000 10052 20007 40223 52012 60001 333 10174=
85586,2010,07,13,12,00,AAXX 13124 85586 12960 00902 11016 21046 40221 52004 60004 333 21016 34/// 50130 55092=
85586,2010,07,13,15,00,AAXX 13154 85586 42960 01205 10074 20017 40234 52013=
85586,2010,07,13,18,00,AAXX 13184 85586 12960 02007 10124 20036 40206 57028 60001=
85586,2010,07,14,00,00,AAXX 14004 85586 12960 01403 10054 20046 40224 52021 60001 333 10126=
85586,2010,07,14,12,00,AAXX 14124 85586 12960 00000 11018 21023 40223 57003 60004 333 21022 34/// 50090 55081=
85586,2010,07,14,18,00,AAXX 14184 85586 12960 12506 10101 20035 40224 58007 60001 80001 333 56006 81073=
85586,2010,07,14,21,00,AAXX 14214 85586 42960 42305 10102 20062 40220 57004 80001 333 56006 84073=
85586,2010,07,15,00,00,AAXX 15004 85586 12960 30000 10052 20034 40226 53005 60001 80001 333 10122 56006 83073=
85586,2010,07,15,12,00,AAXX 15124 85586 12460 51005 10021 20016 40223 57002 60004 85500 333 20010 34/// 50070 55080 56600 85615=
85586,2010,07,15,15,00,AAXX 15154 85586 42960 01004 10082 20058 40229 52010=
85586,2010,07,15,18,00,AAXX 15184 85586 12560 22406 10118 20076 40229 54000 60001 82400 333 56600 82620=
85586,2010,07,15,21,00,AAXX 15214 85586 42960 02206 10104 20052 40202 57028=
85586,2010,07,16,00,00,AAXX 16004 85586 11956 00000 10041 20017 40218 53013 60001 333 10124=
85586,2010,07,16,12,00,AAXX 16124 85586 12960 01106 10007 20000 40213 55000 60004 333 20004 34/// 50120 55087=
85586,2010,07,16,15,00,AAXX 16154 85586 42958 01106 10088 20045 40219 53009 70500=
85586,2010,07,16,18,00,AAXX 16184 85586 12460 12707 10122 20050 40202 58016 60001 81100 333 56600 81815=
85586,2010,07,16,21,00,AAXX 16214 85586 42460 43004 10114 20063 40208 53006 84100 333 56600 84815=
85586,2010,07,17,00,00,AAXX 17004 85586 11556 40000 1007.1 20044 40225 52016 60001 70500 84100 333 10125 56600 84825=
85586,2010,07,17,12,00,AAXX 17124 85586 12960 01105 10042 20022 40234 53006 60004 333 20033 31/// 50120 55087=
85586,2010,07,17,18,00,AAXX 17184 85586 11458 12406 10141 20060 40224 58022 60001 81100 333 56600 81815=
85586,2010,07,17,21,00,AAXX 17214 85586 41958 02304 10131 20059 40208 53005 70500=
85586,2010,07,18,00,00,AAXX 18004 85586 11956 00000 10057 20025 40243 52010 60001 70500 333 10144=
85586,2010,07,18,12,00,AAXX 18124 85586 12960 01502 10010 20002 40245 52003 60004 333 20010 34/// 50130 55091=
85586,2010,07,18,18,00,AAXX 18184 85586 12960 02605 10130 20037 40258 54002 60001=
85586,2010,07,19,00,00,AAXX 19004 85586 12960 00902 10050 20039 40274 52012 60001 333 10132=
85586,2010,07,19,12,00,AAXX 19124 85586 12960 31206 10020 20010 40233 57004 60001 80001 333 20017 34/// 50110 55084 56006 83075=
85586,2010,07,19,15,00,AAXX 19154 85586 42960 00206 10100 20037 40230 54003=
85586,2010,07,19,18,00,AAXX 19184 85586 12960 01204 10152 20037 40219 57011 60001=
85586,2010,07,19,21,00,AAXX 19214 85586 42960 02110 10122 20067 40173 57046=
85586,2010,07,20,00,00,AAXX 20004 85586 12960 00000 10048 20030 40171 54002 60001 333 10162=
85586,2010,07,20,12,00,AAXX 20124 85586 12960 70904 10026 20018 40180 53003 60004 83032 333 20000 31/// 50120 55084 56066 83365 85075=
85586,2010,07,20,15,00,AAXX 20154 85586 41958 80504 10082 20054 40209 52028 76022 8803/ 333 56069 88360=
85586,2010,07,20,18,00,AAXX 20184 85586 11850 80405 10092 20083 40214 54005 60041 76162 8803/ 333 56069 88358=
85586,2010,07,20,21,00,AAXX 20214 85586 41558 82703 10081 20065 40220 52006 76122 8543/ 333 56669 84620 88358=
85586,2010,07,21,00,00,AAXX 21004 85586 11440 80000 10080 20070 40257 52036 60071 76162 8557/ 333 10102 56779 85617 84360=
85586,2010,07,21,12,00,AAXX 21124 85586 11560 21203 10019 20011 40293 52023 60134 7016/ 81501 333 20016 32/// 50020 55000 56606 70132 81623=
85586,2010,07,21,15,00,AAXX 21154 85586 42560 80000 10060 20039 40308 52016 8253/ 333 56669 82620 86360=
85586,2010,07,21,18,00,AAXX 21184 85586 12560 80203 10098 20036 40297 58010 8153/ 333 56669 81620 87363=
85586,2010,07,21,21,00,AAXX 21214 85586 42560 80000 10096 20065 40293 57004 8253/ 333 56669 82620 87363=
85586,2010,07,22,00,00,AAXX 22004 85586 12460 80000 10076 20046 40293 54000 60001 8253/ 333 10104 56669 82618 86363=
85586,2010,07,22,12,00,AAXX 22124 85586 11960 01205 10038 20031 40271 57005 60024 7026/ 333 20038 32/// 50040 55000 70015=
85586,2010,07,22,15,00,AAXX 22154 85586 42960 00903 10105 20044 40281 53012=
85586,2010,07,22,18,00,AAXX 22184 85586 12960 02705 10154 20066 40250 57029 60001=
85586,2010,07,22,21,00,AAXX 22214 85586 42960 02010 10110 20072 40238 57012=
85586,2010,07,23,00,00,AAXX 23004 85586 11956 80000 10078 20060 40232 56008 60001 70511 8803/ 333 10155 56699 88362=
85586,2010,07,23,12,00,AAXX 23124 85586 11960 80608 10079 20031 40199 57016 60004 8803/ 333 20054 31/// 50130 55095 56069 88362=
85586,2010,07,23,15,00,AAXX 23154 85586 41760 83205 10106 20033 40202 53005 76022 8802/ 333 56079 84456 88365=
85586,2010,07,23,18,00,AAXX 23184 85586 12460 70506 10092 20075 40215 52013 60131 87200 333 56600 87815=
85586,2010,07,23,21,00,AAXX 23214 85586 42560 73504 10100 20084 40210 57006 87200 333 56600 87820=
85586,2010,07,24,00,00,AAXX 24004 85586 11558 70712 10092 20072 40211 55000 60021 87200 333 10114 56700 87825=
85586,2010,07,24,12,00,AAXX 24124 85586 11558 60706 10084 20066 40244 52024 60324 7058/ 86200 333 20082 32/// 50090 55003 56700 700315 86820=
85586,2010,07,24,15,00,AAXX 24154 85586 41560 80507 10099 20067 40271 52027 78022 882// 333 56799 88820=
85586,2010,07,24,18,00,AAXX 24184 85586 11560 40308 10129 20070 40262 58008 69961 84100 333 56700 84825=
85586,2010,07,24,21,00,AAXX 24214 85586 42560 12805 10131 20059 40276 53006 81200 333 56700 81820=
85586,2010,07,25,00,00,AAXX 25004 85586 11958 01006 10082 20052 40298 52019 60001 70522 333 10139=
85586,2010,07,25,12,00,AAXX 25124 85586 12960 01205 10040 20024 40297 54000 69964 333 20025 31/// 50080 55043 70006=
85586,2010,07,25,15,00,AAXX 25154 85586 42960 01205 10112 20048 40294 57003=
85586,2010,07,25,18,00,AAXX 25184 85586 12960 01607 10150 20046 40274 57020 60001=
85586,2010,07,25,21,00,AAXX 25214 85586 42960 02406 10140 20080 40258 56016=
85586,2010,07,26,00,00,AAXX 26004 85586 12960 01804 10066 20043 40260 54002 60001 333 10162=
85586,2010,07,26,12,00,AAXX 26124 85586 12960 01505 10050 20025 40220 57006 60004 333 20030 31/// 50120 55095=
85586,2010,07,26,15,00,AAXX 26154 85586 42960 01206 10132 20047 40214 57006=
85586,2010,07,26,18,00,AAXX 26184 85586 12960 01804 10182 20080 40179 57034 60001 80001=
85586,2010,07,26,21,00,AAXX 26214 85586 42960 02009 10170 20042 40174 56006=
85586,2010,07,27,00,00,AAXX 27004 85586 12960 017003 10128 20045 40163 57011 60001 333 10184=
85586,2010,07,27,12,00,AAXX 27124 85586 12960 70000 10012 20004 40193 53012 60004 80001 333 20012 31/// 50120 55095 56006 87075=
85586,2010,07,27,15,00,AAXX 27154 85586 41558 82703 10098 20074 40225 52031 70522=
85586,2010,07,27,18,00,AAXX 27184 85586 11430 72805 10116 20088 40229 54004 60001 70522 85400 333 56600 84610 87615=
85586,2010,07,27,21,00,AAXX 27214 85586 41450 62403 10100 20082 40234 52005 70522 85430 333 56660 83615 85358=
85586,2010,07,28,00,00,AAXX 28004 85586 11460 61204 10096 20084 40258 52023 69931 70252 86500 333 10120 56600 86615=
85586,2010,07,28,12,00,AAXX 28124 85586 11940 01204 10060 20056 40241 57010 69934 7100/ 333 20046 31/// 50040 55001 70003=
85586,2010,07,28,15,00,AAXX 28154 85586 42960 01005 10112 20078 40249 52010=
85586,2010,07,28,18,00,AAXX 28184 85586 12960 02207 10140 20063 40221 57027 60001=
85586,2010,07,28,21,00,AAXX 28214 85586 42960 01905 10126 20077 40201 57010=
85586,2010,07,29,00,00,AAXX 29004 85586 12960 00000 10054 20050 40215 54001 60001 333 10148=
85586,2010,07,29,12,00,AAXX 29124 85586 11530 71103 10014 20010 40200 57003 60004 7102/ 82530 333 20003 34/// 50050 55089 56660 82623 85365=
85586,2010,07,29,15,00,AAXX 29154 85586 41940 71804 10054 20044 40200 54000 70520 87030 333 56060 87365=
85586,2010,07,29,18,00,AAXX 29184 85586 11458 61804 10114 20076 40217 52021 70520 86430 333 56660 83610 86362=
85586,2010,07,29,21,00,AAXX 29214 85586 41458 72203 10105 20074 40205 52012 70520 87430 333 56660 83610 87360=
85586,2010,07,30,00,00,AAXX 30004 85586 11956 80506 10076 20062 40211 53005 60001 70522 8803/ 333 10118 56069 88365=
85586,2010,07,30,12,00,AAXX 30124 85586 11756 81304 10073 20063 40229 52022 60034 7606/ 8802/ 333 20058 32/// 50080 55000 56079 70031 88456=
85586,2010,07,30,15,00,AAXX 30154 85586 41440 80000 10086 20076 40255 52026 76066 8212/ 333 56779 82815 88456=
85586,2010,07,30,18,00,AAXX 30184 85586 11560 22505 10126 20094 40251 58002 60021 70166 82200 333 56700 82825=
85586,2010,07,30,21,00,AAXX 30214 85586 42460 32307 10116 20057 40267 53016 83100 333 56700 83815=
85586,2010,07,31,00,00,AAXX 31004 85586 11556 30000 10071 20052 40290 52021 60001 70522 83500 333 10127 56700 83625=
85586,2010,07,31,12,00,AAXX 31124 85586 11920 21205 10016 20004 40269 55002 60024 7102/ 82030 333 20013 31/// 50090 55043 56060 70019 82365=
85586,2010,07,31,15,00,AAXX 31154 85586 41940 41304 10071 20057 40276 51008 71022 84030 333 56060 84365=
85586,2010,07,31,18,00,AAXX 31184 85586 11460 21709 10131 20055 40249 58025 60001 82100 333 56700 82815=
85586,2010,07,31,21,00,AAXX 31214 85586 42960 32008 10114 20043 40246 56003 80001 333 56006 83075=
85586,2010,08,01,00,00,AAXX 01004 85586 11956 31004 10058 20032 40252 53004 60001 70500 80001 333 10133 56006 83075=
85586,2010,08,01,12,00,AAXX 01124 85586 11457 81003 10058 20045 40225 53003 69934 7606/ 8253/ 333 20036 31/// 50100 55073 56069 70003 82620 87360=
85586,2010,08,01,15,00,AAXX 01154 85586 41558 80804 10082 20072 40239 52015 76066 8253/ 333 56369 82630 88360=
85586,2010,08,01,18,00,AAXX 01184 85586 11560 60708 10124 20070 40222 58018 60021 70166 83530 333 56460 83630 85360=
85586,2010,08,01,21,00,AAXX 01214 85586 42460 21004 10134 20065 40219 56003 81830 333 56460 81817=
85586,2010,08,02,00,00,AAXX 02004 85586 12960 01402 10090 20066 40221 54002 60001 333 10137=
85586,2010,08,02,12,00,AAXX 02124 85586 12960 01504 10044 20030 40235 52004 60024 333 20030 31/// 50080 55042 70024=
85586,2010,08,02,15,00,AAXX 02154 85586 42960 01207 10122 20072 40238 54005=
85586,2010,08,02,18,00,AAXX 02184 85586 12960 01808 10152 20086 40236 54002 60001=
85586,2010,08,02,21,00,AAXX 02214 85586 42960 02408 10140 20072 40200 57036=
85586,2010,08,03,00,00,AAXX 03004 85586 12960 31804 10068 20015 40201 54001 60001 80001 333 10156 56006 83075=
85586,2010,08,03,12,00,AAXX 03124 85586 12960 01003 11016 21022 40148 56003 60004 333 21016 34/// 50100 55094=
85586,2010,08,03,15,00,AAXX 03154 85586 42960 00204 10104 20036 40153 54004=
85586,2010,08,03,18,00,AAXX 03184 85586 12960 02806 10122 20044 40162 52009 60001=
85586,2010,08,03,21,00,AAXX 03214 85586 42960 03007 10124 20069 40174 52012=
85586,2010,08,04,00,00,AAXX 04004 85586 12960 03305 10088 20068 40180 57015 60001 333 10132=
85586,2010,08,04,12,00,AAXX 04124 85586 12560 50903 10057 20036 40214 52008 60004 85500 333 20050 31/// 50060 55091 56600 85623=
85586,2010,08,04,15,00,AAXX 04154 85586 42560 40000 10114 20030 40215 53003 81501 333 56606 81630 83073=
85586,2010,08,04,18,00,AAXX 04184 85586 12960 52705 10123 20049 40195 57020 60001 80001 333 56006 85073=
85586,2010,08,04,21,00,AAXX 04214 85586 42960 72305 10110 20050 40195 54000 80001 333 56006 87070=
85586,2010,08,05,00,00,AAXX 05004 85586 12960 60000 10071 20056 40196 54001 60001 80001 333 10130 56006 86070=
85586,2010,08,05,12,00,AAXX 05124 85586 12960 60000 10036 20029 40204 52006 60004 80001 333 20011 31/// 50060 55052 56006 86070=
85586,2010,08,05,15,00,AAXX 05154 85586 42560 52306 10114 20064 40213 52012 85401 333 56606 82630 85070=
85586,2010,08,05,21,00,AAXX 05214 85586 42960 02406 10112 20054 40188 57025=
85586,2010,08,06,00,00,AAXX 06004 85586 12960 50000 10064 20041 40202 52014 60001 80002 333 10125 56006 85073=
85586,2010,08,06,12,00,AAXX 06124 85586 12960 21004 10036 20026 40215 52011 60004 80001 333 20016 31/// 50110 55086 56006 82075=
85586,2010,08,06,15,00,AAXX 06154 85586 42960 41504 10122 20073 40216 54001 80001 333 56006 84073=
85586,2010,08,06,18,00,AAXX 06184 85586 12960 42407 10148 20074 40233 52017 60001 80001 333 56006 84073=
85586,2010,08,06,21,00,AAXX 06214 85586 42960 31908 10132 20088 40208 57025 80001 333 56006 83073=
85586,2010,08,07,00,00,AAXX 07004 85586 12960 21905 10090 20078 40212 53004 60001 80001 333 10163 56006 82075=
85586,2010,08,07,12,00,AAXX 07124 85586 12960 32004 10022 20015 40221 52012 60004 81031 333 20015 31/// 50140 55086 56066 81362 83075=
85586,2010,08,07,15,00,AAXX 07154 85586 42960 10000 10109 20078 40229 52008 80002 333 56006 81075=
85586,2010,08,07,18,00,AAXX 07184 85586 12960 32309 10132 20067 40226 58003 60001 80001 333 56006 83075=
85586,2010,08,07,21,00,AAXX 07214 85586 42460 72407 10116 20067 40238 52012 81130 333 56560 81815 87362=
85586,2010,08,08,00,00,AAXX 08004 85586 12560 81203 10096 20054 40267 52029 60001 8353/ 333 10140 56469 83620 88362=
85586,2010,08,08,12,00,AAXX 08124 85586 12960 71406 10053 20018 40249 56005 60004 80001 333 20034 31/// 50110 55054 56006 87075=
85586,2010,08,08,15,00,AAXX 08154 85586 42960 21311 10122 20031 40237 58010 80001 333 56006 82075=
85586,2010,08,08,18,00,AAXX 08184 85586 12960 71709 10174 20048 40195 57040 60001 80001 333 56006 87075=
85586,2010,08,08,21,00,AAXX 08214 85586 42960 71608 10172 20060 40178 57017 87030 333 56060 87365=
85586,2010,08,09,00,00,AAXX 09004 85586 11956 41904 10098 20024 40176 56004 60001 80001 333 10188 56006 84075=
85586,2010,08,09,12,00,AAXX 09124 85586 12960 01304 10048 20013 40167 56008 60004 333 20013 31/// 50120 55082=
85586,2010,08,09,15,00,AAXX 09154 85586 42960 22204 10112 20038 40173 54004 80001 333 56006 82073=
85586,2010,08,09,18,00,AAXX 09184 85586 12960 23004 10145 20041 40176 54003 60001 80001 333 56006 82073=
85586,2010,08,09,21,00,AAXX 09214 85586 42960 31904 10124 20057 40179 54003 80001 333 56006 83073=
85586,2010,08,10,00,00,AAXX 10004 85586 11956 00000 10058 20030 40189 52006 60001 333 10148=
85586,2010,08,10,12,00,AAXX 10124 85586 12556 81104 10076 20062 40186 53005 60004 333 20029 31/// 50110 55100=
85586,2010,08,10,15,00,AAXX 10154 85586 41440 81003 10102 20074 40187 54002 70522 884// 333 56699 88615=
85586,2010,08,10,21,00,AAXX 10214 85586 41430 83508 10102 20077 40187 57014 70522 884// 333 56699 88615=
85586,2010,08,11,00,00,AAXX 11004 85586 11540 80000 10108 20093 40175 57012 60001 70522 885// 333 10136 56799 88620=
85586,2010,08,11,12,00,AAXX 11124 85586 12560 80000 10090 20082 40171 53009 60004 8557/ 333 20088 31/// 50050 55000 56779 85627 84360=
85586,2010,08,11,15,00,AAXX 11154 85586 42560 80000 10116 20078 40172 54002 885// 333 56799 88627=
85586,2010,08,11,18,00,AAXX 11184 85586 12560 80000 10121 20096 40186 52006 60001 885// 333 56799 88630=
85586,2010,08,11,21,00,AAXX 11214 85586 41558 80000 10125 20097 40207 52020 78022 8427/ 333 56779 84830 85360=
85586,2010,08,12,00,00,AAXX 12004 85586 11560 80704 10107 20093 40227 52020 69981 70282 8327/ 333 10137 56779 83830 85360=
85586,2010,08,12,12,00,AAXX 12124 85586 12960 21104 10056 20050 40259 53007 69981 80001 333 20056 31/// 50050 55001 56006 70008 82073=
85586,2010,08,12,15,00,AAXX 12154 85586 42960 20000 10152 20078 40262 53006 80001 333 56006 82070=
85586,2010,08,12,18,00,AAXX 12184 85586 12960 02407 10176 20066 40220 57042 60001=
85586,2010,08,12,21,00,AAXX 12214 85586 42960 02410 10132 20070 40121 57009=
85586,2010,08,13,00,00,AAXX 13004 85586 12960 00000 10092 20062 40239 52012 60001 333 10181=
85586,2010,08,13,12,00,AAXX 13124 85586 11915 01204 10022 20014 40206 54001 60004 7100/ 333 20016 31/// 50140 55094=
85586,2010,08,13,15,00,AAXX 13154 85586 41958 00000 10114 20077 40202 54004 70500=
85586,2010,08,13,18,00,AAXX 13184 85586 12960 02408 10145 20071 40186 57016 60001=
85586,2010,08,13,21,00,AAXX 13214 85586 42960 02307 10128 20093 40186 54000=
85586,2010,08,14,00,00,AAXX 14004 85586 12960 00402 10084 20067 40191 52005 60001 333 10146=
85586,2010,08,14,12,00,AAXX 14124 85586 12960 01202 10036 20026 40185 56002 60004 333 20018 31/// 50140 55094=
85586,2010,08,14,15,00,AAXX 14154 85586 42960 02702 10128 20082 40193 53008=
85586,2010,08,14,18,00,AAXX 14184 85586 11958 02906 10134 20077 40191 54001 60001 70500=
85586,2010,08,14,21,00,AAXX 14214 85586 41440 82805 10100 20087 40190 54001 71040 886// 333 56699 88710=
85586,2010,08,15,00,00,AAXX 15004 85586 11440 83307 10106 20085 40190 54000 60001 71022 885// 333 10148 56799 88610=
85586,2010,08,15,12,00,AAXX 15124 85586 11658 80704 10101 20073 40175 50000 60004 7052/ 333 20097 31/// 50120 55053=
85586,2010,08,15,15,00,AAXX 15154 85586 41558 83507 10125 20057 40177 53004 70522 885// 333 56799 88630=
85586,2010,08,15,18,00,AAXX 15184 85586 12460 83212 10127 20072 40177 50000 60001 885// 333 56799 82615 88625=
85586,2010,08,15,21,00,AAXX 15214 85586 42560 23311 10133 20066 40182 53005 82500 333 56600 82625=
85586,2010,08,16,00,00,AAXX 16004 85586 11956 60104 10107 20055 40198 52015 60001 70521 86030 333 10136 56060 86360=
85586,2010,08,16,12,00,AAXX 16124 85586 12960 80806 10103 20053 40196 52012 69914 8803/ 333 20094 31/// 50110 55015 56069 70001 88365=
85586,2010,08,16,15,00,AAXX 16154 85586 42960 63208 10148 20051 40197 54003 70220 86030 333 56060 86365=
85586,2010,08,16,18,00,AAXX 16184 85586 12560 43010 10144 20070 40187 57009 60001 84130 333 56660 84365=
85586,2010,08,16,21,00,AAXX 16214 85586 42560 53212 10132 20073 40190 54003 85430 333 56660 83630 85365=
85586,2010,08,17,00,00,AAXX 17004 85586 11958 80204 10133 20065 40196 53004 60001 70522 8803/ 333 10162 56069 88365=
85586,2010,08,17,12,00,AAXX 17124 85586 12960 50206 10116 20074 40197 52016 60004 82031 333 20103 31/// 50140 55037 56066 82365 85075=
85586,2010,08,17,15,00,AAXX 17154 85586 42560 53012 10160 20092 40208 52011 85130 333 56660 85365 85073=
85586,2010,08,17,18,00,AAXX 17184 85586 12560 53510 10154 20097 40228 52020 60001 85401 333 56606 85620 83070=
85586,2010,08,17,21,00,AAXX 17214 85586 42560 53015 10144 20108 40233 53005 85430 333 56660 82620 85362=
85586,2010,08,18,00,00,AAXX 18004 85586 12560 83407 10126 20115 40236 52003 60001 8357/ 333 10172 56779 83620 85360=
85586,2010,08,18,12,00,AAXX 18124 85586 11460 71503 10118 20107 40268 53016 60034 7026/ 87600 333 20110 32/// 50070 55044 56000 70029 87710=
85586,2010,08,18,15,00,AAXX 18154 85586 42460 51304 10145 20124 40275 52008 85500 333 56600 85617=
85586,2010,08,18,18,00,AAXX 18184 85586 11115 32407 10143 20120 40254 58021 60001 71011 83100 333 56600 81702 82825=
85586,2010,08,18,21,00,AAXX 18214 85586 41956 02307 10153 20108 40244 57010 70500=
85586,2010,08,19,00,00,AAXX 19004 85586 12960 00000 10120 20106 40159 52005 60001 333 10178=
85586,2010,08,19,12,00,AAXX 19124 85586 12960 01407 10100 20081 40210 55005 60004 333 20084 31/// 50070 55079=
85586,2010,08,19,15,00,AAXX 19154 85586 42960 01208 10162 20083 40204 54004=
85586,2010,08,19,18,00,AAXX 19184 85586 12960 01512 10228 20064 40174 57030 60001=
85586,2010,08,19,21,00,AAXX 19214 85586 42960 01810 10222 20083 40159 57015=
85586,2010,08,20,00,00,AAXX 20004 85586 12960 02203 10150 20077 40158 54001 60001 333 10240=
85586,2010,08,20,12,00,AAXX 20124 85586 12960 50902 10066 20055 40162 52012 60004 80001 333 20066 31/// 50150 55100 56006 85075=
85586,2010,08,20,15,00,AAXX 20154 85586 42960 32705 10150 20092 40178 52016 333 80001 56006 83070=
85586,2010,08,20,18,00,AAXX 20184 85586 12960 52406 10160 20115 40181 54003 60001 333 80001 56006 85070=
85586,2010,08,20,21,00,AAXX 20214 85586 41215 83004 10110 20102 40175 54005 71022 886// 333 56699 88706=
85586,2010,08,21,00,00,AAXX 21004 85586 11315 83504 10104 20096 40189 53003 60001 71044 886// 333 10160 56899 88707=
85586,2010,08,21,12,00,AAXX 21124 85586 11308 80504 10077 20071 40188 52008 60004 7464/ 886// 333 20077 31/// 50100 55067 56199 88706=
85586,2010,08,21,15,00,AAXX 21154 85586 41320 81004 10084 20078 40203 52005 71044 886// 333 56199 88708=
85586,2010,08,21,18,00,AAXX 21184 85586 11320 82705 10104 20088 40189 58014 60001 71022 886// 333 56099 88709=
85586,2010,08,21,21,00,AAXX 21214 85586 41308 82502 10098 20088 40188 56001 74622 886// 333 56099 88707=
85586,2010,08,22,00,00,AAXX 22004 85586 11420 82802 10098 20088 40206 52018 60001 71044 886// 333 10110 56099 88708=
85586,2010,08,22,12,00,AAXX 22124 85586 11354 81104 10103 20086 40196 53006 60004 7105/ 886// 333 20101 31/// 50110 55000 56799 88708=
85586,2010,08,22,15,00,AAXX 22154 85586 41340 80000 10111 20087 40209 52013 71022 886// 333 56799 88709=
85586,2010,08,22,18,00,AAXX 22184 85586 11456 82604 10113 20091 40200 58009 60001 70522 885// 333 56799 88610=
85586,2010,08,22,21,00,AAXX 22214 85586 41456 82404 10114 20089 40187 56013 70522 885// 333 56799 88612=
85586,2010,08,23,00,00,AAXX 23004 85586 11340 80000 10114 20099 40198 53011 60001 71022 886// 333 10116 56799 88709=
85586,2010,08,23,12,00,AAXX 23124 85586 11556 60000 10102 20088 40212 52016 69904 7055/ 86500 333 20099 31/// 50110 55000 56700 86620=
85586,2010,08,23,15,00,AAXX 23154 85586 42560 42705 10134 20098 40222 52011 84100 333 56600 84820=
85586,2010,08,23,18,00,AAXX 23184 85586 12560 31908 10150 20096 40225 54005 60001 83100 333 56600 83820=
85586,2010,08,23,21,00,AAXX 23214 85586 42960 02205 10140 20106 40226 54001=
85586,2010,08,24,00,00,AAXX 24004 85586 12960 00804 10094 20061 40235 53007 60001 333 10154=
85586,2010,08,24,12,00,AAXX 24124 85586 12960 00000 10053 20035 40213 53004 60004 333 20028 31/// 50130 55086=
85586,2010,08,24,18,00,AAXX 24184 85586 12960 01912 10142 20097 40189 57017 60001=
85586,2010,08,24,21,00,AAXX 24214 85586 42960 02309 10130 20074 40179 57010=
85586,2010,08,25,00,00,AAXX 25004 85586 12960 00000 10094 20079 40204 52023 60001 333 10152=
85586,2010,08,25,12,00,AAXX 25124 85586 12960 00905 10034 20029 40235 52015 60004 333 20022 31/// 50080 55092=
85586,2010,08,25,15,00,AAXX 25154 85586 42960 03503 10133 20109 40248 52016=
85586,2010,08,25,18,00,AAXX 25184 85586 12960 02306 10140 20084 40234 58012 60001=
85586,2010,08,25,21,00,AAXX 25214 85586 42960 02408 10128 20095 40229 57007=
85586,2010,08,26,00,00,AAXX 26004 85586 12960 00000 10084 20076 40236 52006 60001 333 10145=
85586,2010,08,26,12,00,AAXX 26124 85586 12960 00000 10052 20046 40209 54001 60004 333 20040 31/// 50110 55010=
85586,2010,08,26,18,00,AAXX 26184 85586 12560 23207 10152 20088 54003 60001 82100 333 56600 82820=
85586,2010,08,26,21,00,AAXX 26214 85586 42560 63004 10128 20089 40230 53005 86400 333 56600 86620=
85586,2010,08,27,00,00,AAXX 27004 85586 12560 80000 10113 20088 40229 54000 60001 885// 333 10155 56099 88620=
85586,2010,08,27,12,00,AAXX 27124 85586 12560 21202 10050 20041 40212 53002 60004 81501 333 20042 31/// 50110 55039 56006 81620=
85586,2010,08,27,15,00,AAXX 27154 85586 42460 40504 10144 20103 40219 53006 84400 333 56600 84615=
85586,2010,08,27,18,00,AAXX 27184 85586 12560 32106 10152 20098 40212 56007 60001 83400 333 56600 83620=
85586,2010,08,27,21,00,AAXX 27214 85586 42560 22804 10148 20082 40193 57017 82200 333 56600 82820=
85586,2010,08,28,12,00,AAXX 28124 85586 12560 83604 10110 20090 40218 52012 60004 8553/ 333 20106 31/// 50120 55078 56069 85626 87363=
85586,2010,08,28,15,00,AAXX 28154 85586 42560 83307 10158 20090 40226 52008 8353/ 333 56769 83620 87363=
85586,2010,08,28,18,00,AAXX 28184 85586 12560 83307 10154 20088 40223 58003 60001 8353/ 333 56769 83620 87363=
85586,2010,08,28,21,00,AAXX 28214 85586 42560 73304 10142 20092 40228 53005 82530 333 56760 82620 87363=
85586,2010,08,29,00,00,AAXX 29004 85586 12460 82502 10122 20111 40242 52014 60001 8153/ 333 10168 56069 81615 88363=
85586,2010,08,29,12,00,AAXX 29124 85586 12460 41207 10106 20089 40194 57006 60004 84500 333 20106 30/// 50120 55011 56200 84615=
85586,2010,08,29,15,00,AAXX 29154 85586 42960 01806 10152 20095 40190 57004=
85586,2010,08,29,18,00,AAXX 29184 85586 12960 02410 10148 20082 40161 57025 60001=
85586,2010,08,29,21,00,AAXX 29214 85586 42960 12410 10132 20071 40168 53007 80002 333 56006 81075=
85586,2010,08,30,00,00,AAXX 30004 85586 12960 00603 10094 20074 40175 52007 60001 333 10181=
85586,2010,08,30,12,00,AAXX 30124 85586 11960 31104 10038 20025 40213 52012 60004 83030 333 20031 31/// 50130 55102 56060 83065=
85586,2010,08,30,15,00,AAXX 30154 85586 42960 42406 10122 20055 40204 56007 84030 333 56060 84365=
85586,2010,08,30,18,00,AAXX 30184 85586 12560 52408 10133 20070 40202 54002 60001 81501 333 56606 81625 84070=
85586,2010,08,30,21,00,AAXX 30214 85586 42560 72410 10118 20083 40197 54003 87401 333 56606 83625 87070=
85586,2010,08,31,00,00,AAXX 31004 85586 11958 80000 10106 20079 40205 53006 60001 70522 8803/ 333 10142 56069 88365=
85586,2010,08,31,12,00,AAXX 31124 85586 11458 80000 10093 20074 40188 53008 60004 885// 333 20089 30/// 50120 55064 56799 88615=
85586,2010,08,31,15,00,AAXX 31154 85586 42560 71906 10116 20064 40198 52012 87400 333 56600 87620=
85586,2010,08,31,18,00,AAXX 31184 85586 11558 71910 10114 20044 40192 56006 60001 70522 87430 333 56660 84620 87360=
85586,2010,08,31,21,00,AAXX 31214 85586 42560 71806 10114 20032 40199 52007 87430 333 56660 83630 87360=
85586,2010,09,01,00,00,AAXX 01004 85586 12960 52105 10101 20079 40201 54001 60001 85030 333 10130 56060 85360=
85586,2010,09,01,12,00,AAXX 01124 85586 12960 70000 10052 20045 40197 52010 60004 85031 333 20038 30/// 50100 55006 56066 85362=
85586,2010,09,01,15,00,AAXX 01154 85586 42960 70000 10096 20041 40201 52005 84031 333 56066 84363 83070=
85586,2010,09,01,18,00,AAXX 01184 85586 12960 72704 10108 20051 40203 52003 60001 86031 333 56066 86363=
85586,2010,09,01,21,00,AAXX 01214 85586 42560 52804 10122 20056 40205 54002 81131 333 56066 81825 83363=
85586,2010,09,02,00,00,AAXX 02004 85586 12960 50000 10082 20058 40221 52015 60001 84031 333 10124 56066 84363=
85586,2010,09,02,12,00,AAXX 02124 85586 12960 70000 10069 20063 40256 52015 60004 85031 333 20069 30/// 50070 55034 56066 85363=
85586,2010,09,02,15,00,AAXX 02154 85586 42960 42204 10126 20069 40258 54004 84031 333 56066 84362 83070=
85586,2010,09,02,18,00,AAXX 02184 85586 12960 42408 10132 20076 40248 57010 60001 84031 333 56066 83360 84070=
85586,2010,09,02,21,00,AAXX 02214 85586 42560 42008 10125 20082 40244 54003 83431 333 56666 83630 83070=
85586,2010,09,03,00,00,AAXX 03004 85586 12560 32403 10100 20070 40194 57010 60001 83500 333 10140 56500 83625=
85586,2010,09,03,12,00,AAXX 03124 85586 12460 41002 10062 20052 40323 52016 60004 82530 333 20030 30/// 50100 55052 56060 82613 83360=
85586,2010,09,03,15,00,AAXX 03154 85586 42560 32805 10144 20077 40331 53005 83430 333 56660 82620 83360=
85586,2010,09,03,18,00,AAXX 03184 85586 12560 32310 10140 20084 40327 54001 60001 83100 333 56600 83825=
85586,2010,09,03,21,00,AAXX 03214 85586 42960 02010 10130 20087 40298 57029=
85586,2010,09,04,00,00,AAXX 04004 85586 12960 00000 10094 20066 40294 54003 60001 333 10158=
85586,2010,09,04,12,00,AAXX 04124 85586 12960 00000 10082 20057 40249 56006 60004 333 20036 30/// 50120 55097=
85586,2010,09,04,15,00,AAXX 04154 85586 42960 01406 10150 20062 40246 54003=
85586,2010,09,04,18,00,AAXX 04184 85586 12960 02310 10170 20082 40222 57024 60001=
85586,2010,09,04,21,00,AAXX 04214 85586 42960 02311 10150 20090 40206 57016=
85586,2010,09,05,12,00,AAXX 05124 85586 12958 00000 10054 20036 40199 52013 60004 7050/ 333 20034 30/// 50130 55103=
85586,2010,09,05,15,00,AAXX 05154 85586 41958 02605 10141 20089 40210 51014 70500=
85586,2010,09,05,18,00,AAXX 05184 85586 12960 02807 10146 20101 40212 55001 60001=
85586,2010,09,05,21,00,AAXX 05214 85586 42960 02705 10143 20090 40210 54001=
85586,2010,09,06,00,00,AAXX 06004 85586 11956 00000 10092 20072 40227 53015 60001 70500 333 10159=
85586,2010,09,06,12,00,AAXX 06124 85586 11220 81204 10091 20082 40230 53006 60004 7102/ 886// 333 20066 30/// 50130 55102 56799 88704=
85586,2010,09,06,15,00,AAXX 06154 85586 41950 00000 10112 20082 40239 53006 70520=
85586,2010,09,06,18,00,AAXX 06184 85586 11350 62105 10130 20105 40229 54005 60001 70520 86600 333 56600 86708=
85586,2010,09,06,21,00,AAXX 06214 85586 41308 82405 10116 20104 40212 56008 74622 886// 333 56699 88707=
85586,2010,09,07,00,00,AAXX 07004 85586 11203 80306 10106 20098 40228 53006 60001 74644 887// 333 10132 56799 88704=
85586,2010,09,07,12,00,AAXX 07124 85586 11203 81106 10081 20072 40223 50000 60004 7444/ 886// 333 20071 30/// 50110 55025 56799 88704=
85586,2010,09,07,15,00,AAXX 07154 85586 42960 02405 10150 20121 40224 54003=
85586,2010,09,07,18,00,AAXX 07184 85586 12960 02708 10150 20112 40206 57018 60001=
85586,2010,09,07,21,00,AAXX 07214 85586 42960 03505 10160 20102 40179 57027=
85586,2010,09,08,00,00,AAXX 08004 85586 12960 20603 10108 20093 40179 54000 60001 80001 333 10172 56006 82073=
85586,2010,09,08,12,00,AAXX 08124 85586 11001 80000 10063 20059 40185 52013 60004 7444/ 886// 333 20057 30/// 50110 55086 56099 88701=
85586,2010,09,08,15,00,AAXX 08154 85586 41106 52604 10112 20104 40189 52006 74242 85600 333 56000 85702=
85586,2010,09,08,18,00,AAXX 08184 85586 11240 22904 10148 20113 40186 58003 70541 82600 333 56600 82704=
85586,2010,09,08,21,00,AAXX 08214 85586 42960 00204 10144 20108 40181 57005=
85586,2010,09,09,00,00,AAXX 09004 85586 12960 00403 10110 20091 40194 52012 60001 333 10150=
85586,2010,09,09,12,00,AAXX 09124 85586 12960 60000 10053 20047 40188 54000 60004 80001 333 20044 30/// 50130 55070 56006 86073=
85586,2010,09,09,15,00,AAXX 09154 85586 41340 52706 10134 20107 40206 52020 70522 85601 333 56606 82708 85070=
85586,2010,09,09,18,00,AAXX 09184 85586 12960 52212 10154 20114 40206 54000 60001 85001 333 56006 85070=
85586,2010,09,09,21,00,AAXX 09214 85586 42960 32804 10154 20115 40192 57014 80001 333 56006 83070=
85586,2010,09,10,00,00,AAXX 10004 85586 11958 60000 10124 20092 40208 53015 60001 70511 82031 333 10160 56066 83365 83075=
85586,2010,09,10,12,00,AAXX 10124 85586 11202 80804 10085 20076 40229 52016 60004 7444/ 886// 333 20051 30/// 50120 55087 56006 88604=
85586,2010,09,10,15,00,AAXX 10154 85586 42460 23005 10138 20092 40254 52026 82600 333 56600 82710=
85586,2010,09,10,18,00,AAXX 10184 85586 12960 02410 10160 20110 40257 54004 60001=
85586,2010,09,10,21,00,AAXX 10214 85586 42960 02306 10146 20098 40253 54004=
85586,2010,09,11,00,00,AAXX 11004 85586 11958 00406 10098 20070 40250 58005 60001 70500 333 10164=
85586,2010,09,11,12,00,AAXX 11124 85586 12960 71104 10066 20047 40208 56007 60004 80001 333 20031 30/// 50120 55096 56006 87075=
85586,2010,09,11,15,00,AAXX 11154 85586 42960 32505 10146 20092 40195 58010 80001 333 56006 83075=
85586,2010,09,11,18,00,AAXX 11184 85586 12960 72314 10144 20087 40184 57011 60001 83031 333 56066 83065 85075=
85586,2010,09,11,21,00,AAXX 11214 85586 42960 72411 10128 20081 40176 57010=
85586,2010,09,12,00,00,AAXX 12004 85586 11958 31804 10096 20052 40187 53011 60001 70511 80001 333 10148 56006 83075=
85586,2010,09,12,12,00,AAXX 12124 85586 12560 70702 10080 20068 40197 52012 60004 87500 333 20030 30/// 50130 55065 56000 87620=
85586,2010,09,12,15,00,AAXX 12154 85586 42460 42505 10080 20080 40215 52018 83130 333 56560 83813=
85586,2010,09,12,18,00,AAXX 12184 85586 12460 52708 10140 20075 40225 51010 60001 81130 333 56660 83817 84362=
85586,2010,09,12,21,00,AAXX 12214 85586 42560 52804 10122 20072 40229 54004 82530 333 56660 82623 85362=
85586,2010,09,13,00,00,AAXX 13004 85586 12960 30000 10090 20066 40243 52014 60001 83030 333 10148 56060 83362=
85586,2010,09,13,12,00,AAXX 13124 85586 12960 01205 10060 20047 40274 52011 60004 333 20026 30/// 50110 55060=
85586,2010,09,13,15,00,AAXX 13154 85586 42960 01003 10148 20061 40284 52010=
85586,2010,09,13,18,00,AAXX 13184 85586 12960 02310 10172 20086 40266 57018 60001=
85586,2010,09,13,21,00,AAXX 13214 85586 42960 01908 10152 20088 40249 57017=
85586,2010,09,14,00,00,AAXX 14004 85586 12960 00000 10090 20066 40260 52011 60001 333 10174=
85586,2010,09,14,12,00,AAXX 14124 85586 12960 40902 10036 20026 40246 53006 60004 80002 333 20030 30/// 50140 55106 56006 84075=
85586,2010,09,18,00,00,AAXX 18004 85586 12960 00802 10100 20071 40252 54003 60001 333 10153=
85586,2010,09,27,21,00,AAXX 27214 85586 NIL=
85586,2010,09,28,00,00,AAXX 28004 85586 12560 53304 10122 20078 40211 53003 60001 82530 333 10164 56760 82630 83363=
85586,2010,09,28,12,00,AAXX 28124 85586 12960 01004 10100 20070 40190 56002 60004 333 20042 31/// 50110 55043=
85586,2010,09,28,15,00,AAXX 28154 85586 42960 01808 10172 20071 40193 54004=
85586,2010,09,28,18,00,AAXX 28184 85586 12960 02212 10122 20067 40173 57019 60001=
85586,2010,09,28,21,00,AAXX 28214 85586 42960 02710 10150 20095 40162 57010=
85586,2010,09,29,00,00,AAXX 29004 85586 12960 40000 10122 20111 40172 52009 60001 80001 333 10190 56006 84073=
85586,2010,09,29,12,00,AAXX 29124 85586 11250 20000 10090 20079 40186 53013 60004 7050/ 81601 333 20046 31/// 50290 55110 56706 81704=
85586,2010,09,29,15,00,AAXX 29154 85586 NIL=
85586,2010,09,29,21,00,AAXX 29214 85586 NIL=
85586,2010,09,30,00,00,AAXX 30004 85586 12960 60000 10113 20090 40192 54001 60001 80001 333 10156 56006 86073=
85586,2010,09,30,12,00,AAXX 30124 85586 11903 00000 10082 20074 40197 52016 60004 7464/ 333 20040 31/// 50300 55073=
85586,2010,09,30,15,00,AAXX 30154 85586 NIL=
85586,2010,09,30,21,00,AAXX 30214 85586 42960 01815 10142 20076 40195 57008=
85586,2010,10,01,00,00,AAXX 01004 85586 11956 02108 10113 20059 40225 52029 60001 70500 333 10164=
85586,2010,10,01,15,00,AAXX 01154 85586 42960 01810 10160 20027 40234 54002=
85586,2010,10,01,18,00,AAXX 01184 85586 12960 02312 10156 20056 40216 57018 60001=
85586,2010,10,01,21,00,AAXX 01214 85586 42960 02212 10160 20077 40204 57012=
85586,2010,10,02,00,00,AAXX 02004 85586 11956 00000 10114 20072 40218 52013 60001 70500 333 10166=
85586,2010,10,02,15,00,AAXX 02154 85586 42960 02408 101156 20081 40201 54000=
85586,2010,10,02,18,00,AAXX 02184 85586 12960 02312 10154 20085 40190 58012 60001=
85586,2010,10,02,21,00,AAXX 02214 85586 42960 02408 10141 20089 40180 57010=
85586,2010,10,03,00,00,AAXX 03004 85586 11956 00406 10109 20082 40182 53003 60001 70500 333 10166=
85586,2010,10,03,12,00,AAXX 03124 85586 11456 83305 10110 20093 40221 52016 60004 7052/ 885// 333 20060 30/// 50160 55112 56799 88610=
85586,2010,10,03,15,00,AAXX 03154 85586 41440 82805 10120 20100 40242 52021 70522 885// 333 56699 88612=
85586,2010,10,03,18,00,AAXX 03184 85586 11456 82604 10128 20098 40231 58011 60001 70522 885// 333 56699 88615=
85586,2010,10,03,21,00,AAXX 03214 85586 41456 82405 10122 20098 40225 57006 70522 885// 333 56699 81617 88623=
85586,2010,10,04,00,00,AAXX 04004 85586 11556 80000 10110 20093 40228 53003 60001 70522 885// 333 10134 56099 88623=
85586,2010,10,04,12,00,AAXX 04124 85586 11558 80000 10110 20085 40213 54003 60004 7052/ 885// 333 20108 30/// 50110 55000 56099 88630=
85586,2010,10,04,15,00,AAXX 04154 85586 41458 82603 10122 20083 40219 52006 70522 885// 333 56099 81615 88630=
85586,2010,10,04,18,00,AAXX 04184 85586 11558 82504 10126 20087 40211 58008 60001 70522 885// 333 56099 88630=
85586,2010,10,04,21,00,AAXX 04214 85586 41558 82404 10130 20078 40201 57011 70522 885// 333 56099 88630=
85586,2010,10,05,00,00,AAXX 05004 85586 12560 80000 10118 20103 40203 54002 60001 885// 333 10138 56600 88630=
85586,2010,10,05,12,00,AAXX 05124 85586 11458 20000 10082 20066 40195 52008 60004 7052/ 81502 333 20082 30/// 50100 55000 56006 81615=
85586,2010,10,05,15,00,AAXX 05154 85586 41458 42406 10136 2068 40203 52008 70511 84500 333 56600 81615 84623=
85586,2010,10,05,18,00,AAXX 05184 85586 12560 22607 10152 20064 40210 52007 60001 81501 333 56606 81623=
85586,2010,10,05,21,00,AAXX 05214 85586 42960 12405 10146 20074 40201 58009 80002 333 56006 81075=
85586,2010,10,06,00,00,AAXX 06004 85586 12560 42404 10120 20088 40215 52014 60001 84500 333 10154 56500 84323=
85586,2010,10,06,03,00,AAXX 06034 85586 NIL=
85586,2010,10,06,09,00,AAXX 06094 85586 NIL=
85586,2010,10,06,12,00,AAXX 06124 85586 12460 40000 10113 20089 40233 52015 60004 83501 333 20064 30/// 50300 55093 56706 83618=
85586,2010,10,06,15,00,AAXX 06154 85586 42560 52305 10147 230092 40251 52019 84501 333 56606 84620 81073=
85586,2010,10,06,18,00,AAXX 06184 85586 12560 52410 10151 20102 40253 54002 60001 82231 333 56666 82823=
85586,2010,10,06,21,00,AAXX 06214 85586 42960 02309 10148 20097 40248 57005=
85586,2010,10,07,00,00,AAXX 07004 85586 12960 00000 10113 20094 40254 53005 60001 333 10160=
85586,2010,10,07,03,00,AAXX 07034 85586 NIL=
85586,2010,10,07,09,00,AAXX 07094 85586 NIL=
85586,2010,10,07,12,00,AAXX 07124 85586 12960 01206 10128 20083 40221 53006 60004 333 20068 30/// 50160 55105=
85586,2010,10,07,15,00,AAXX 07154 85586 42960 02111 10187 20097 40205 58014=
85586,2010,10,07,18,00,AAXX 07184 85586 12960 02415 10164 20097 40194 57012 60001=
85586,2010,10,07,21,00,AAXX 07214 85586 42960 02312 10156 20096 40178 56016=
85586,2010,10,08,00,00,AAXX 08004 85586 12956 00000 10116 20080 40185 53007 60001 70500 333 10193=
85586,2010,10,08,03,00,AAXX 08034 85586 NIL=
85586,2010,10,08,09,00,AAXX 08094 85586 NIL=
85586,2010,10,08,12,00,AAXX 08124 85586 12960 00000 10102 20080 40186 51008 60004 333 20034 30/// 50190 55114=
85586,2010,10,08,15,00,AAXX 08154 85586 42960 02408 10161 20086 40185 54000=
85586,2010,10,08,18,00,AAXX 08184 85586 12960 02311 10152 20082 40184 54001 60001=
85586,2010,10,08,21,00,AAXX 08214 85586 42960 32411 10143 20085 40187 53003 80001 333 56006 83075=
85586,2010,10,09,00,00,AAXX 09004 85586 12956 00506 10108 20084 40194 51006 60001 70500 80001 333 10166 56006 84075=
85586,2010,10,09,03,00,AAXX 09034 85586 NIL=
85586,2010,10,09,09,00,AAXX 09094 85586 NIL=
85586,2010,10,09,12,00,AAXX 09124 85586 11340 80000 10109 20092 40203 53010 60004 7052/ 886// 333 20103 30/// 50260 55114 56799 88707=
85586,2010,10,09,15,00,AAXX 09154 85586 41456 72407 10132 20093 40213 51010 70522 87600 333 56700 87710=
85586,2010,10,09,18,00,AAXX 09184 85586 11440 82408 10131 20098 40201 58012 60001 70522 886// 333 56799 88710=
85586,2010,10,09,21,00,AAXX 09214 85586 41340 82407 10116 20093 40195 56006 70522 886// 333 56799 88709=
85586,2010,10,10,00,00,AAXX 10004 85586 11340 80000 10113 20090 40185 58009 60001 70522 886// 333 10146 56799 88709=
85586,2010,10,10,03,00,AAXX 10034 85586 NIL=
85586,2010,10,10,09,00,AAXX 10094 85586 NIL=
85586,2010,10,10,12,00,AAXX 10124 85586 11307 80504 10096 20091 40170 52008 69904 7502/ 886// 333 20094 31/// 50110 55024 56399 70000 88704=
85586,2010,10,10,15,00,AAXX 10154 85586 41430 83307 10124 20104 40170 54000 70552 885// 333 56799 88610=
85586,2010,10,10,18,00,AAXX 10184 85586 11450 83010 10130 20103 40169 54001 60001 70522 885// 333 56799 88612=
85586,2010,10,10,21,00,AAXX 10214 85586 41456 82906 10128 20112 57004 70522 885// 333 56699 88612=
85586,2010,10,11,00,00,AAXX 11004 85586 11450 82902 10120 20108 40160 57005 60001 70522 885// 333 10136 56099 88610=
85586,2010,10,11,03,00,AAXX 11034 85586 NIL=
85586,2010,10,11,09,00,AAXX 11094 85586 NIL=
85586,2010,10,11,12,00,AAXX 11124 85586 11308 83304 10114 20109 40154 52012 69924 7505/ 886// 333 20114 31/// 50080 55000 56099 70002 88706=
85586,2010,10,11,15,00,AAXX 11154 85586 41330 83305 10126 20115 40167 52013 71055 886// 333 56799 88709=
85586,2010,10,11,18,00,AAXX 11184 85586 11456 83308 10134 20103 40172 51005 60001 70552 885// 333 56799 81610 88623=
85586,2010,10,11,21,00,AAXX 11214 85586 41456 82704 10134 20112 40162 57009 70522 885// 333 56799 83612 88623=
85586,2010,10,12,00,00,AAXX 12004 85586 12456 80000 10126 20106 40161 54002 60001 70522 885// 333 10138 56099 85615 88626=
85586,2010,10,12,03,00,AAXX 12034 85586 NIL=
85586,2010,10,12,09,00,AAXX 12094 85586 NIL=
85586,2010,10,12,12,00,AAXX 12124 85586 11556 80202 10118 20111 40194 54010 69904 7055/ 885// 333 20112 31/// 50090 55000 56099 70000 88620=
85586,2010,10,12,15,00,AAXX 12154 85586 41557 80204 10142 20090 40206 52012 70522 884// 333 56699 88625=
85586,2010,10,12,18,00,AAXX 12184 85586 11558 62807 10150 20092 40210 54004 60001 70520 86400 333 56600 86620=
85586,2010,10,12,21,00,AAXX 12214 85586 NIL=
85586,2010,10,13,00,00,AAXX 13004 85586 12560 82304 10128 20094 40180 57014 60001 885// 333 10156 56699 88627=
85586,2010,10,13,12,00,AAXX 13124 85586 12560 70000 10126 20100 40214 52011 60004 87500 333 20118 30/// 50210 55007 56600 87630=
85586,2010,10,13,15,00,AAXX 13154 85586 NIL=
85586,2010,10,13,18,00,AAXX 13184 85586 12560 72507 10164 20082 40216 54002 60001 87500 333 56600 87630=
85586,2010,10,13,21,00,AAXX 13214 85586 NIL=
85586,2010,10,14,15,00,AAXX 14154 85586 42460 62407 10140 20106 40196 52026 86430 333 56660 85517 86365=
85586,2010,10,14,21,00,AAXX 14214 85586 NIL=
85586,2010,10,15,12,00,AAXX 15124 85586 12960 30000 10080 20068 40231 52010 60004 83030 333 20046 30/// 50100 55037 56060 83362=
85586,2010,10,15,15,00,AAXX 15154 85586 42560 32309 10152 20086 40230 54002 83400 333 56600 83620=
85586,2010,10,15,18,00,AAXX 15184 85586 12960 02311 10154 20074 40218 57011 60001=
85586,2010,10,15,21,00,AAXX 15214 85586 42960 02208 10140 20073 40218 54000=
85586,2010,10,16,00,00,AAXX 16004 85586 12960 00000 10120 20090 40218 54000 60001 333 10164=
85586,2010,10,16,12,00,AAXX 16124 85586 12960 00000 10104 20085 40213 52005 60004 333 20026 30/// 50150 55099=
85586,2010,10,16,15,00,AAXX 16154 85586 42960 12408 10154 20088 40212 54001 80001 333 56006 81075=
85586,2010,10,16,18,00,AAXX 16184 85586 12960 62414 10156 20091 40206 57006 60001 80001 333 56006 86075=
85586,2010,10,16,21,00,AAXX 16214 85586 NIL=
85586,2010,10,17,00,00,AAXX 17004 85586 12960 60303 10124 20087 40206 53006 60001 80002 333 10166 56006 86075=
85586,2010,10,17,15,00,AAXX 17154 85586 41960 22608 10151 20094 40217 58013 80001 333 56006 82075=
85586,2010,10,17,21,00,AAXX 17214 85586 42960 03304 10152 20082 40194 57018=
85586,2010,10,18,00,00,AAXX 18004 85586 11958 00404 10117 20089 40210 53015 60001 70500 333 10158=
85586,2010,10,18,12,00,AAXX 18124 85586 12960 00000 10126 20085 40193 53006 60004 333 20048 30/// 50/// 55///=
85586,2010,10,18,15,00,AAXX 18154 85586 NIL=
85586,2010,10,18,18,00,AAXX 18184 85586 12960 52308 10170 20103 40192 54001 60001 80001 333 56006 85070=
85586,2010,10,18,21,00,AAXX 18214 85586 NIL=
85586,2010,10,19,00,00,AAXX 19004 85586 11958 50404 10143 20111 40182 56004 60001 70511 333 10192=
85586,2010,10,19,12,00,AAXX 19124 85586 12960 00000 10134 20114 40182 51008 60004 80001 333 20057 30/// 50/// 55/// 56006 85075=
85586,2010,10,19,15,00,AAXX 19154 85586 NIL=
85586,2010,10,19,21,00,AAXX 19214 85586 NIL=
85586,2010,10,20,00,00,AAXX 20004 85586 11104 82605 10124 20120 40192 54002 60001 74444 886// 333 10195 56799 88702=
85586,2010,10,20,15,00,AAXX 20154 85586 41110 82306 10122 20118 40223 52012 75052 886// 333 56799 88703=
85586,2010,10,20,18,00,AAXX 20184 85586 11460 82506 10138 20120 40220 54002 60021 70252 886// 333 56799 88712=
85586,2010,10,20,21,00,AAXX 20214 85586 42460 82406 10136 20107 40213 57007 885// 333 56799 88615=
85586,2010,10,21,12,00,AAXX 21124 85586 12460 61104 10130 20108 40207 53004 69924 86600 333 20110 30/// 55000 56600 70002 86712=
85586,2010,10,21,15,00,AAXX 21154 85586 NIL=
85586,2010,10,21,21,00,AAXX 21214 85586 42960 02513 10150 20102 40182 57011=
85586,2010,10,22,00,00,AAXX 22004 85586 12456 830004 10124 20106 40194 54002 60001 70511 333 10186 56699 88610=
85586,2010,10,22,12,00,AAXX 22124 85586 11456 83302 10114 20093 40192 52010 60004 7052/ 885// 333 20108 30/// 50120 55088 56099 88612=
85586,2010,10,22,15,00,AAXX 22154 85586 NIL=
85586,2010,10,22,21,00,AAXX 22214 85586 NIL=
85586,2010,10,23,00,00,AAXX 23004 85586 12560 72205 10114 20090 40210 52006 60001 87500 333 10144 56500 87620=
85586,2010,10,23,12,00,AAXX 23124 85586 12560 32202 10108 20077 40197 52004 60004 81530 333 20040 30/// 50110 55000 56060 81630 83362=
85586,2010,10,23,15,00,AAXX 23154 85586 41558 32407 10146 20078 40204 52007 70511 81530 333 56560 81620 83362=
85586,2010,10,23,18,00,AAXX 23184 85586 12560 22412 10160 20067 40201 54003 60001 81501 333 56506 81625=
85586,2010,10,23,21,00,AAXX 23214 85586 42960 22410 10156 20082 40189 57012 80001 333 56006 82075=
85586,2010,10,24,00,00,AAXX 24004 85586 12960 02403 10120 20087 40199 52010 60001 333 10164=
85586,2010,10,24,15,00,AAXX 24154 85586 42960 02608 10159 20092 40198 53007=
85586,2010,10,24,18,00,AAXX 24184 85586 12960 02411 10172 20109 40194 58003 60001=
85586,2010,10,24,21,00,AAXX 24214 85586 42960 02610 10154 20110 40198 53003=
85586,2010,10,25,00,00,AAXX 25004 85586 12960 00000 10118 20097 40195 58004 60001 333 10174=
85586,2010,10,25,15,00,AAXX 25154 85586 NIL=
85586,2010,10,25,21,00,AAXX 25214 85586 NIL=
85586,2010,10,26,00,00,AAXX 26004 85586 11558 82404 10123 20107 40176 53002 60001 70522 885// 333 10166 56799 88625=
85586,2010,10,26,15,00,AAXX 26154 85586 NIL=
85586,2010,10,26,18,00,AAXX 26184 85586 11558 83010 10145 20077 40195 52024 60001 70522 884// 333 56699 88620=
85586,2010,10,26,21,00,AAXX 26214 85586 NIL=
85586,2010,10,27,00,00,AAXX 27004 85586 12960 03309 10124 20085 40182 58006 60001 333 10162=
85586,2010,10,27,15,00,AAXX 27154 85586 NIL=
85586,2010,10,27,18,00,AAXX 27184 85586 12560 22308 10180 20100 40212 54003 60001 82100 333 56600 84820=
85586,2010,10,27,21,00,AAXX 27214 85586 42560 22707 10160 20118 40197 57013 82100 333 56600 82820=
85586,2010,10,28,00,00,AAXX 28004 85586 12960 10000 10128 20108 40186 57012 60001 80001 333 10184 56006 81075=
85586,2010,10,28,12,00,AAXX 28124 85586 12560 20606 10136 20096 40162 54002 60004 81501 333 20096 30/// 50140 55084 56106 81620=
85586,2010,10,28,15,00,AAXX 28154 85586 42560 53107 10166 20083 40161 54001 82532 333 56666 82620 83070=
85586,2010,10,28,21,00,AAXX 28214 85586 NIL=
85586,2010,10,29,15,00,AAXX 29154 85586 NIL=
85586,2010,10,29,21,00,AAXX 29214 85586 NIL=
85586,2010,10,30,00,00,AAXX 30004 85586 12960 02106 10110 20060 40253 57003 60001 333 10150=
85586,2010,10,30,12,00,AAXX 30124 85586 12960 01508 10110 20064 40233 54001 60004 333 20062 31/// 50140 55101=
85586,2010,10,30,15,00,AAXX 30154 85586 42960 11909 10180 20067 40221 57012 80002 333 56006 81073=
85586,2010,10,30,18,00,AAXX 30184 85586 12960 12412 10180 20098 40199 57022 60001 80001 333 56006 81073=
85586,2010,10,30,21,00,AAXX 30214 85586 42960 12412 10178 20098 40183 57016 80002 333 56006 81073=
85586,2010,10,31,00,00,AAXX 31004 85586 12960 10000 10142 20115 40187 53003 60001 80001 333 10214=
85586,2010,10,31,15,00,AAXX 31154 85586 NIL=
85586,2010,10,31,21,00,AAXX 31214 85586 42960 22504 10226 20160 40164 56008 80001 333 56006 82075=
85586,2010,11,01,00,00,AAXX 01004 85586 12960 03504 10153 20123 40169 53002 60001 333 10239=
85586,2010,11,01,15,00,AAXX 01154 85586 NIL=
85586,2010,11,01,21,00,AAXX 01214 85586 NIL=
85586,2010,11,02,00,00,AAXX 02004 85586 12203 83404 10132 20123 40170 53008 60001 74444 886// 333 10174 56799 88704=
85586,2010,11,02,15,00,AAXX 02154 85586 41320 83006 10144 20128 40176 53002 71054 886// 333 56799 88708=
85586,2010,11,02,21,00,AAXX 02214 85586 41308 82204 10130 20118 40169 56006 74622 886// 333 56699 87707=
85586,2010,11,03,15,00,AAXX 03154 85586 NIL=
85586,2010,11,03,21,00,AAXX 03214 85586 NIL=
85586,2010,11,04,00,00,AAXX 04004 85586 12960 22402 10120 20076 40186 52008 60001 80001 333 10174 56006 82075=
85586,2010,11,04,12,00,AAXX 04124 85586 12960 60803 10100 20089 40186 54003 60004 80002 333 20056 30/// 50110 55030 56006 86070=
85586,2010,11,04,15,00,AAXX 04154 85586 NIL=
85586,2010,11,04,18,00,AAXX 04184 85586 12960 22310 10172 20092 40195 56006 60001 80001 333 56006 82070=
85586,2010,11,04,21,00,AAXX 04214 85586 42960 02308 10160 20094 40180 57016=
85586,2010,11,05,00,00,AAXX 05004 85586 12960 10000 10126 20084 40193 52009 60001 80001 333 10176 56006 81075=
85586,2010,11,05,12,00,AAXX 05124 85586 12960 30403 10132 20101 40205 52009 60004 80001 333 20060 30/// 50170 55108 56006 83075=
85586,2010,11,05,15,00,AAXX 05154 85586 NIL=
85586,2010,11,05,18,00,AAXX 05184 85586 12960 32207 10188 20073 40183 57016 60001 80001 333 56006 83070=
85586,2010,11,05,21,00,AAXX 05214 85586 NIL=
85586,2010,11,06,00,00,AAXX 06004 85586 12960 33504 10140 20094 40174 54000 60001 80001 333 10204 56006 83075=
85586,2010,11,06,12,00,AAXX 06124 85586 12960 21506 10194 20077 40155 54002 60004 80001 333 20086 30/// 50210 55115 56006 82075=
85586,2010,11,06,15,00,AAXX 06154 85586 42960 22505 10214 20112 40144 56010 80001 333 56006 82075=
85586,2010,11,06,18,00,AAXX 06184 85586 12960 22410 10176 20123 40134 57010 60001 80001 333 56006 82075=
85586,2010,11,06,21,00,AAXX 06214 85586 42960 12410 10178 20114 40121 57013 80001 333 56006 81075=
85586,2010,11,07,15,00,AAXX 07154 85586 NIL=
85586,2010,11,07,21,00,AAXX 07214 85586 41556 82018 10109 20068 40206 572018 70522 882// 333 56799 88820=
85586,2010,11,08,00,00,AAXX 08004 85586 11858 81210 10096 20055 40221 52014 60001 8803/ 333 10169 56069 88358=
85586,2010,11,08,15,00,AAXX 08154 85586 42460 52410 10138 20064 40258 57009 85100 333 56600 85817=
85586,2010,11,08,21,00,AAXX 08214 85586 NIL=
85586,2010,11,09,00,00,AAXX 09004 85586 12960 00000 10118 20035 40256 53003 60001 333 10162=
85586,2010,11,09,15,00,AAXX 09154 85586 NIL=
85586,2010,11,09,18,00,AAXX 09184 85586 12960 02315 10182 20089 40183 57026 60001=
85586,2010,11,09,21,00,AAXX 09214 85586 42960 02114 10172 20111 40157 57027=
85586,2010,11,10,00,00,AAXX 10004 85586 12960 00000 10131 20096 40165 53008 60001 333 10246=
85586,2010,11,10,15,00,AAXX 10154 85586 NIL=
85586,2010,11,10,21,00,AAXX 10214 85586 NIL=
85586,2010,11,11,00,00,AAXX 11004 85586 12260 33003 10116 20097 40174 52011 60001 83600 333 10150 56600 83706=
85586,2010,11,11,12,00,AAXX 11124 85586 11458 82104 10113 20089 40198 52013 60004 7052/ 886// 333 20102 30/// 50280 55120 56699 88712=
85586,2010,11,11,15,00,AAXX 11154 85586 42460 82506 10128 20091 40202 52004 885// 333 56699 88618=
85586,2010,11,11,21,00,AAXX 11214 85586 NIL=
85586,2010,11,12,15,00,AAXX 12154 85586 NIL=
85586,2010,11,12,21,00,AAXX 12214 85586 NIL=
85586,2010,11,13,00,00,AAXX 13004 85586 11458 23005 10121 20089 40215 53012 60001 70511 82500 333 10152 56600 82615=
85586,2010,11,13,15,00,AAXX 13154 85586 41340 72310 10139 20107 40217 50000 70511 87600 333 56600 87707=
85586,2010,11,13,18,00,AAXX 13184 85586 11460 12409 10154 20104 40208 57009 60001 70144 81500 333 56600 81612=
85586,2010,11,13,21,00,AAXX 13214 85586 NIL=
85586,2010,11,14,15,00,AAXX 14154 85586 42460 32807 10136 20100 40200 58006 83600 333 56600 83710=
85586,2010,11,14,18,00,AAXX 14184 85586 12460 12411 10162 20099 40190 57010 60001 81500 333 56600 81615=
85586,2010,11,14,21,00,AAXX 14214 85586 42460 12410 10152 20095 40179 57011 81100 333 56600 81815=
85586,2010,11,15,00,00,AAXX 15004 85586 12960 00405 10126 20095 40191 53012 60001 333 10172=
85586,2010,11,15,12,00,AAXX 15124 85586 11412 70904 10104 20089 40171 53004 60004 7102/ 87600 333 20052 30/// 50190 55122 56400 87710=
85586,2010,11,15,15,00,AAXX 15154 85586 NIL=
85586,2010,11,15,18,00,AAXX 15184 85586 12460 42510 10148 20094 40173 54000 60001 84400 333 56600 84615=
85586,2010,11,15,21,00,AAXX 15214 85586 41458 43007 10138 20093 40168 54005 70520 84400 333 56600 84615=
85586,2010,11,16,00,00,AAXX 16004 85586 12460 82804 10126 20100 40185 52016 60001 885// 333 10156 56699 88617=
85586,2010,11,16,12,00,AAXX 16124 85586 11440 80000 10120 20099 40201 52010 60004 7102/ 885// 333 20114 30/// 50150 55073 56099 88610=
85586,2010,11,16,15,00,AAXX 16154 85586 41440 82608 10150 20120 40204 54002 71022 886// 333 56699 88710=
85586,2010,11,16,21,00,AAXX 16214 85586 NIL=
85586,2010,11,17,00,00,AAXX 17004 85586 11340 82604 10118 20099 40195 52009 60001 70522 886// 333 10157 56799 88718=
85586,2010,11,17,15,00,AAXX 17154 85586 NIL=
85586,2010,11,17,18,00,AAXX 17184 85586 12460 72609 10148 20103 40187 56007 60001 87400 333 56600 87617=
85586,2010,11,17,21,00,AAXX 17214 85586 41356 82704 10132 20116 40180 57008 70522 886// 333 56699 88608=
85586,2010,11,18,00,00,AAXX 18004 85586 11220 80000 10120 20116 40182 54002 69911 71052 886// 333 10154 56699 88705=
85586,2010,11,18,12,00,AAXX 18124 85586 12460 82703 10131 20113 40177 52005 69914 885// 333 20124 30/// 50180 55007 56699 70001 88618=
85586,2010,11,18,15,00,AAXX 18154 85586 42460 72705 10144 20098 40178 54001 87500 333 56600 87620=
85586,2010,11,18,21,00,AAXX 18214 85586 NIL=
85586,2010,11,19,00,00,AAXX 19004 85586 12960 00000 10132 20097 40177 54001 60001 333 10166=
85586,2010,11,19,15,00,AAXX 19154 85586 NIL=
85586,2010,11,19,21,00,AAXX 19214 85586 NIL=
85586,2010,11,20,00,00,AAXX 20004 85586 12960 00000 10142 20108 40161 56003 60001 803/ 333 10182 56069 88362=
85586,2010,11,20,15,00,AAXX 20154 85586 42960 02608 10184 20109 40196 52012=
85586,2010,11,20,18,00,AAXX 20184 85586 12460 52511 10186 20129 40195 50001 60001 85500 333 56600 85615=
85586,2010,11,20,21,00,AAXX 20214 85586 42560 02609 10182 20123 40196 54001=
85586,2010,11,21,00,00,AAXX 21004 85586 12960 00000 10151 20120 40209 53012 60001 333 10188=
85586,2010,11,21,12,00,AAXX 21124 85586 12460 71004 10148 20120 40220 52010 60004 85502 333 20086 30/// 50160 55111 56006 85613=
85586,2010,11,21,15,00,AAXX 21154 85586 42560 22509 10176 20114 40220 54000 81501 333 56606 81620=
85586,2010,11,21,18,00,AAXX 21184 85586 12560 32411 10182 20121 40212 57008 60001 81501 333 56606 81620 83075=
85586,2010,11,21,21,00,AAXX 21214 85586 42560 32411 10178 20129 40198 57014 81501 333 56606 81620 83075=
85586,2010,11,22,00,00,AAXX 22004 85586 12960 62403 10148 20123 40191 56007 60001 80002 333 10190 56006 86075=
85586,2010,11,22,12,00,AAXX 22124 85586 12360 33303 10146 20125 40159 54003 60004 83601 333 20090 30/// 50140 55101 56606 83809=
85586,2010,11,22,15,00,AAXX 22154 85586 NIL=
85586,2010,11,22,21,00,AAXX 22214 85586 NIL=
85586,2010,11,23,00,00,AAXX 23004 85586 12960 00304 10142 20110 40166 52015 60001 333 10182=
85586,2010,11,23,15,00,AAXX 23154 85586 NIL=
85586,2010,11,23,21,00,AAXX 23214 85586 NIL=
85586,2010,11,24,00,00,AAXX 24004 85586 12460 43005 10130 20108 40158 57003 60001 84600 333 10166 56600 84710=
85586,2010,11,24,12,00,AAXX 24124 85586 12460 80303 10131 20111 40154 52005 60004 886// 333 20121 30/// 50290 55054 56699 88712=
85586,2010,11,24,15,00,AAXX 24154 85586 NIL=
85586,2010,11,24,18,00,AAXX 24184 85586 12460 72507 10142 20121 40151 58003 60001 87600 333 56600 87612=
85586,2010,11,24,21,00,AAXX 24214 85586 42460 62808 10147 20117 40150 54001 86500 333 56600 86613=
85586,2010,11,25,00,00,AAXX 25004 85586 12460 32706 10126 20108 40150 54000 60001 83600 333 10164 56600 83712=
85586,2010,11,25,12,00,AAXX 25124 85586 12460 80000 10125 20103 40178 52017 60004 885// 333 20091 30/// 50270 55019 56699 88615=
85586,2010,11,25,15,00,AAXX 25154 85586 NIL=
85586,2010,11,25,18,00,AAXX 25184 85586 12560 52705 10160 20112 40189 54003 60001 85400 333 56600 85620=
85586,2010,11,25,21,00,AAXX 25214 85586 42460 62806 10142 20113 40176 57013 86400 333 56600 86612=
85586,2010,11,26,15,00,AAXX 26154 85586 42360 22708 10162 20104 40156 54003 82600 333 56600 82710=
85586,2010,11,26,18,00,AAXX 26184 85586 12960 02512 10180 20113 40162 53006 60001=
85586,2010,11,26,21,00,AAXX 26214 85586 42960 02511 10154 20097 40156 56006=
85586,2010,11,27,00,00,AAXX 27004 85586 12960 00304 10129 20096 40160 53004 60001 333 10182=
85586,2010,11,27,15,00,AAXX 27154 85586 NIL=
85586,2010,11,27,21,00,AAXX 27214 85586 NIL=
85586,2010,11,28,00,00,AAXX 28004 85586 12460 72505 10133 20092 40199 53004 60001 87600 333 10166 56600 87615=
85586,2010,11,28,12,00,AAXX 28124 85586 11450 80904 10112 20086 40190 52006 60004 7052/ 885// 333 20062 30/// 50120 55012 56099 88613=
85586,2010,11,28,15,00,AAXX 28154 85586 42560 22506 10148 20091 40189 54001 82500 333 56600 82620=
85586,2010,11,28,18,00,AAXX 28184 85586 11558 82608 10142 20096 40187 54002 60001 70522 885// 333 56699 88623=
85586,2010,11,28,21,00,AAXX 28214 85586 NIL=
85586,2010,11,29,00,00,AAXX 29004 85586 11458 82705 10124 20096 40189 53005 60001 70522 885// 333 10158 56699 88615=
85586,2010,11,29,15,00,AAXX 29154 85586 42560 42409 10142 20082 40195 54001 82501 333 56606 82620 83075=
85586,2010,11,29,21,00,AAXX 29214 85586 NIL=
85586,2010,11,30,00,00,AAXX 30004 85586 12960 20000 10130 20095 40176 57005 60001 80001 333 10180 56006 82075=
85586,2010,11,30,12,00,AAXX 30124 85586 12960 00000 10134 20099 40171 52005 60004 333 20066 30/// 50130 55074=
85586,2010,11,30,15,00,AAXX 30154 85586 42960 02210 10172 20078 40179 52009=
85586,2010,11,30,18,00,AAXX 30184 85586 12960 02311 10162 20094 40188 52009 60001=
85586,2010,11,30,21,00,AAXX 30214 85586 42960 42710 10152 20095 40174 57014 80001 333 56006 84070=
85586,2010,12,01,00,00,AAXX 01004 85586 12960 02608 10121 20083 40155 57020 60001 333 10176=
85586,2010,12,01,12,00,AAXX 01124 85586 12460 50000 10108 20078 40175 52012 60004 85500 333 20078 30/// 50030 55125 56600 85616=
85586,2010,12,01,15,00,AAXX 01154 85586 42960 02410 10156 20102 40173 57001=
85586,2010,12,01,18,00,AAXX 01184 85586 12960 02412 10157 20089 40173 54000 60001=
85586,2010,12,01,21,00,AAXX 01214 85586 NIL=
85586,2010,12,02,00,00,AAXX 02004 85586 12960 02405 10122 20087 40179 53015 60001 333 10162=
85586,2010,12,02,15,00,AAXX 02154 85586 42560 32310 10158 20077 40197 57011 83101 333 56606 82830=
85586,2010,12,02,21,00,AAXX 02214 85586 42960 02012 10160 20102 40193 56007=
85586,2010,12,03,00,00,AAXX 03004 85586 12960 02307 10136 20092 40168 56025 60001 333 10172=
85586,2010,12,03,15,00,AAXX 03154 85586 42960 53007 10158 20101 40179 52009 80009 333 56006 85170=
85586,2010,12,03,18,00,AAXX 03184 85586 12960 32510 10172 20105 40192 52012 60001 80001 333 56006 83070=
85586,2010,12,03,21,00,AAXX 03214 85586 42960 02410 10150 20076 40185 56006=
85586,2010,12,04,15,00,AAXX 04154 85586 42960 02808 10167 20082 40179 56007=
85586,2010,12,04,18,00,AAXX 04184 85586 12960 02511 10177 20105 40178 50001 60001=
85586,2010,12,04,21,00,AAXX 04214 85586 NIL=
85586,2010,12,05,00,00,AAXX 05004 85586 12960 00304 10148 20083 40168 56003 60001 333 10180=
85586,2010,12,05,12,00,AAXX 05124 85586 11450 83506 10134 20109 40179 52012 60004 7052/ 885// 333 20114 30/// 50180 55127 56099 88615=
85586,2010,12,05,15,00,AAXX 05154 85586 42460 53009 10157 20111 40192 52013 85500 333 56600 85617=
85586,2010,12,05,21,00,AAXX 05214 85586 42460 83306 10160 20114 40181 58015=
85586,2010,12,06,00,00,AAXX 06004 85586 11457 82003 10140 20115 40174 53007 60001 885// 333 10178 56699 88610=
85586,2010,12,06,15,00,AAXX 06154 85586 NIL=
85586,2010,12,06,21,00,AAXX 06214 85586 NIL=
85586,2010,12,07,00,00,AAXX 07004 85586 12560 72604 10136 20099 40186 57007 60001 87500 333 10170 56000 87620=
85586,2010,12,07,12,00,AAXX 07124 85586 12560 81603 10130 20093 40191 52004 60004 885// 333 20116 30/// 50110 55014 56099 88623=
85586,2010,12,07,15,00,AAXX 07154 85586 42560 82407 10152 20094 40202 52010 885// 333 56699 88620=
85586,2010,12,07,18,00,AAXX 07184 85586 12960 02411 10165 20096 40194 56006 60001=
85586,2010,12,07,21,00,AAXX 07214 85586 NIL=
85586,2010,12,08,00,00,AAXX 08004 85586 12960 02403 10140 20098 40174 57018 60001 333 10172=
85586,2010,12,08,12,00,AAXX 08124 85586 12960 02603 10142 20121 40161 52010 60004 333 20074 30/// 50300 55081=
85586,2010,12,08,15,00,AAXX 08154 85586 NIL=
85586,2010,12,08,18,00,AAXX 08184 85586 12960 02310 10176 20122 40162 54003 60001=
85586,2010,12,08,21,00,AAXX 08214 85586 42960 02210 10158 20114 40162 54000=
85586,2010,12,09,00,00,AAXX 09004 85586 12960 02204 10138 20097 40170 53006 60001 333 10182=
85586,2010,12,09,15,00,AAXX 09154 85586 NIL=
85586,2010,12,09,21,00,AAXX 09214 85586 42960 02612 10162 20107 40202 54000=
85586,2010,12,10,00,00,AAXX 10004 85586 12960 02205 10144 20103 40186 57017 60001 333 10172=
85586,2010,12,10,12,00,AAXX 10124 85586 12960 10000 10140 20080 40178 52006 60004 81030 333 20064 30/// 50240 55129 56060 81362=
85586,2010,12,10,15,00,AAXX 10154 85586 NIL=
85586,2010,12,10,18,00,AAXX 10184 85586 12560 12809 10178 20112 40186 52004 60001 81500 333 56600 81620=
85586,2010,12,10,21,00,AAXX 10214 85586 42560 12607 10180 20118 40179 58007 81500 333 56600 81623=
85586,2010,12,11,00,00,AAXX 11004 85586 12560 22804 1015220119 40185 53006 60001 82500 333 10188 56600 82623=
85586,2010,12,11,15,00,AAXX 11154 85586 NIL=
85586,2010,12,11,18,00,AAXX 11184 85586 12560 72413 10172 20088 40218 52013 60001 87500 333 56600 87626=
85586,2010,12,11,21,00,AAXX 11214 85586 42560 72413 10150 20068 40227 52009 87500 333 56600 87630=
85586,2010,12,12,00,00,AAXX 12004 85586 12560 32313 10130 20026 40242 57017 60001 81530 333 10182 56660 81623 83362=
85586,2010,12,12,15,00,AAXX 12154 85586 42960 01615 10203 21024 40257 58011=
85586,2010,12,12,21,00,AAXX 12214 85586 42960 72413 10172 20068 40221 57016=
85586,2010,12,13,00,00,AAXX 13004 85586 12960 02215 10138 20067 40214 58008 60001 333 10215=
85586,2010,12,13,15,00,AAXX 13154 85586 42960 02511 10184 20086 40160 54002=
85586,2010,12,13,21,00,AAXX 13214 85586 42960 02207 10182 20124 40121 57009=
85586,2010,12,14,00,00,AAXX 14004 85586 12960 03307 10138 20111 40122 54001 60001 333 10192=
85586,2010,12,14,12,00,AAXX 14124 85586 11450 83306 10136 20106 40145 52010 60004 7052/ 886// 333 20110 30/// 50320 55130 56099 88712=
85586,2010,12,14,15,00,AAXX 14154 85586 42460 73208 10160 20107 40144 54001 87400 333 56600 87615=
85586,2010,12,14,18,00,AAXX 14184 85586 12560 53010 10170 20102 40153 53008 60001 85400 333 56600 85620=
85586,2010,12,14,21,00,AAXX 14214 85586 NIL=
85586,2010,12,15,00,00,AAXX 15004 85586 12560 82703 10140 20119 40137 57016 60001 885// 333 10196 56099 88620=
85586,2010,12,15,12,00,AAXX 15124 85586 11558 83305 10144 20102 40172 52012 60004 7052/ 885// 333 20124 30/// 50160 55058 56099 88620=
85586,2010,12,15,15,00,AAXX 15154 85586 42560 83306 10178 20102 40176 52004 885// 333 56099 88623=
85586,2010,12,15,18,00,AAXX 15184 85586 12560 12808 10178 20106 40174 54002 60001 81500 333 56600 81630=
85586,2010,12,15,21,00,AAXX 15214 85586 42960 02506 10178 20110 40158 57016=
85586,2010,12,16,00,00,AAXX 16004 85586 12560 12404 10148 20117 40158 54000 60001 81500 333 10190 56600 81623=
85586,2010,12,16,15,00,AAXX 16154 85586 NIL=
85586,2010,12,16,21,00,AAXX 16214 85586 NIL=
85586,2010,12,17,12,00,AAXX 17124 85586 11558 81504 10147 20088 40198 520008 60004 7052/ 885// 333 20101 30/// 50240 55043 56699 88620=
85586,2010,12,17,15,00,AAXX 17154 85586 42960 02410 10168 20100 40206 52008=
85586,2010,12,17,21,00,AAXX 17214 85586 42960 02213 10164 20117 40191 56006=
85586,2010,12,18,00,00,AAXX 18004 85586 12960 01810 10152 20117 40192 54001 60001 333 10188=
85586,2010,12,18,15,00,AAXX 18154 85586 42960 02409 10164 20103 40173 54001=
85586,2010,12,18,18,00,AAXX 18184 85586 12960 02314 10168 20097 40166 57007 60001=
85586,2010,12,18,21,00,AAXX 18214 85586 NIL=
85586,2010,12,19,00,00,AAXX 19004 85586 12960 02406 10128 20085 40171 52007 60001 333 10170=
85586,2010,12,19,12,00,AAXX 19124 85586 12960 00304 10130 20088 40185 52010 60004 333 20048 30/// 50310 55125=
85586,2010,12,19,15,00,AAXX 19154 85586 42960 02507 10154 20098 40188 52003=
85586,2010,12,19,18,00,AAXX 19184 85586 12960 02412 10166 20079 40187 54001 60001=
85586,2010,12,19,21,00,AAXX 19214 85586 42960 02411 10176 20073 40170 57017=
85586,2010,12,20,00,00,AAXX 20004 85586 12960 02402 10146 20079 40170 54000 60001 333 10178=
85586,2010,12,20,12,00,AAXX 20124 85586 12960 00000 10150 20105 40155 52009 60004 333 20056 30/// 50340 55122=
85586,2010,12,20,15,00,AAXX 20154 85586 NIL=
85586,2010,12,20,18,00,AAXX 20184 85586 12960 02312 10194 20101 40162 53008 60001=
85586,2010,12,20,21,00,AAXX 20214 85586 NIL=
85586,2010,12,21,00,00,AAXX 21004 85586 12960 03506 10150 20114 40139 52009 60001 333 10195=
85586,2010,12,21,15,00,AAXX 21154 85586 NIL=
85586,2010,12,21,21,00,AAXX 21214 85586 41456 82705 10144 20119 40153 57017 70522 884// 333 56699 88612=
85586,2010,12,22,00,00,AAXX 22004 85586 11456 80000 10137 20110 40150 56004 60001 70522 885// 333 10164 56699 88612=
85586,2010,12,22,15,00,AAXX 22154 85586 NIL=
85586,2010,12,22,18,00,AAXX 22184 85586 11558 83111 10174 20118 40176 50000 60001 70522 885// 333 56799 88620=
85586,2010,12,22,21,00,AAXX 22214 85586 4560 82909 10171 20113 40166 57010 885// 333 56799 88625=
85586,2010,12,23,00,00,AAXX 23004 85586 12560 83205 10153 20114 40162 56005 60001 885// 333 10179 56799 88625=
85586,2010,12,23,15,00,AAXX 23154 85586 42560 83206 10164 20106 40193 54001 70222 884// 333 56699 88620=
85586,2010,12,23,21,00,AAXX 23214 85586 NIL=
85586,2010,12,24,00,00,AAXX 24004 85586 12960 02405 10154 20112 40182 56006 60001 333 10190=
85586,2010,12,24,12,00,AAXX 24124 85586 12960 00000 10151 20114 40182 52014 60004 333 20098 30/// 50300 55047=
85586,2010,12,24,15,00,AAXX 24154 85586 42960 02608 10182 20120 40202 52020=
85586,2010,12,24,21,00,AAXX 24214 85586 NIL=
85586,2010,12,25,00,00,AAXX 25004 85586 12960 01905 10166 20118 40163 56008 60001 333 10194=
85586,2010,12,25,12,00,AAXX 25124 85586 12960 03603 10158 20126 40143 52006 60004 333 20076 30/// 50350 55127=
85586,2010,12,25,15,00,AAXX 25154 85586 42460 12605 10176 20123 40144 54001 81600 333 56600 81710=
85586,2010,12,25,18,00,AAXX 25184 85586 11458 72807 1015820126 40151 52006 60001 71021 87500 333 56600 87612=
85586,2010,12,25,21,00,AAXX 25214 85586 42560 42806 10172 20128 40142 58008 84500 333 56600 84620=
85586,2010,12,26,00,00,AAXX 26004 85586 12460 73006 10148 20127 40143 52003 60001 87500 333 10182 56600 87610=
85586,2010,12,26,15,00,AAXX 26154 85586 41456 63306 10154 20119 40167 52007 70522 86500 333 56600 86613=
85586,2010,12,26,18,00,AAXX 26184 85586 12460 82806 10158 20128 40166 54001 60001 885// 333 56699 88615=
85586,2010,12,26,21,00,AAXX 26214 85586 41430 82605 10146 20132 40156 57010 71022 886// 333 56699 88710=
85586,2010,12,27,00,00,AAXX 27004 85586 11320 82404 10128 20119 40153 56003 69901 75022 886// 333 10170 56099 88708=
85586,2010,12,27,15,00,AAXX 27154 85586 42460 63310 10193 20132 40169 51010 86500 333 56700 86615=
85586,2010,12,27,21,00,AAXX 27214 85586 NIL=
85586,2010,12,28,15,00,AAXX 28154 85586 NIL=
85586,2010,12,28,21,00,AAXX 28214 85586 NIL=
85586,2010,12,29,00,00,AAXX 29004 85586 12460 82605 10150 20128 40170 54003 60001 885// 333 10174 56699 88615=
85586,2010,12,29,12,00,AAXX 29124 85586 11330 82402 10142 20133 40146 52006 69904 7502/ 886// 333 20140 31/// 50200 55000 56099 70000 88708=
85586,2010,12,29,15,00,AAXX 29154 85586 41450 82805 10152 20134 40153 52004 71022 886// 333 56099 88712=
85586,2010,12,29,18,00,AAXX 29184 85586 12560 82706 10180 20127 40152 54001 60001 885// 333 56099 88620=
85586,2010,12,29,21,00,AAXX 29214 85586 42560 82805 10164 20137 40147 57004 885// 333 56099 88617=
85586,2010,12,30,00,00,AAXX 30004 85586 12560 82503 10150 20119 40150 53002 60001 885// 333 10180 56099 88620=
85586,2010,12,30,12,00,AAXX 30124 85586 11320 82703 10134 20127 40149 52009 69904 7502/ 886// 333 20134 31/// 50210 55001 56099 70000 88707=
85586,2010,12,30,15,00,AAXX 30154 85586 NIL=
85586,2010,12,30,21,00,AAXX 30214 85586 NIL=
85586,2010,12,31,00,00,AAXX 31004 85586 12560 32203 10154 20126 40152 56006 60001 83400 333 10182 56600 83620=
85586,2010,12,31,15,00,AAXX 31154 85586 NIL=
85586,2010,12,31,21,00,AAXX 31214 85586 42960 02711 10174 20127 40140 56006=
