85586,2016,01,01,00,00,AAXX 01004 85586 NIL=
85586,2016,01,01,03,00,AAXX 01034 85586 NIL=
85586,2016,01,01,06,00,AAXX 01064 85586 NIL=
85586,2016,01,01,09,00,AAXX 01094 85586 NIL=
85586,2016,01,01,12,00,AAXX 01124 85586 12460 80903 10160 20124 40111 51005 60004 885// 333 20150 30/// 55033 56099 70000 88613=
85586,2016,01,01,15,00,AAXX 01154 85586 42960 12607 10188 20128 40112 52002 80001 333 56006 81075=
85586,2016,01,01,18,00,AAXX 01184 85586 12460 52711 10191 20136 40122 50010 60001 85500 333 56600 85615=
85586,2016,01,01,21,00,AAXX 01214 85586 42460 82509 10175 20137 40120 55003 885// 333 56099 88612=
85586,2016,01,02,00,00,AAXX 02004 85586 12460 82406 10165 20131 40131 53001 60001 885// 333 10203 56099 88615=
85586,2016,01,02,03,00,AAXX 02034 85586 NIL=
85586,2016,01,02,06,00,AAXX 02064 85586 NIL=
85586,2016,01,02,09,00,AAXX 02094 85586 NIL=
85586,2016,01,02,12,00,AAXX 02124 85586 12460 79903 10167 20127 40127 52009 60004 83501 333 20155 30/// 55052 56606 70000 83615 84073=
85586,2016,01,02,15,00,AAXX 02154 85586 42460 52607 10191 20134 40140 50005 81109 333 56606 81819 85173=
85586,2016,01,02,18,00,AAXX 02184 85586 12960 42511 10194 20145 40137 55006 6///1 80001 333 56006 84073=
85586,2016,01,02,21,00,AAXX 02214 85586 42460 42410 10192 20148 40135 55002 84100 333 56600 84812=
85586,2016,01,03,00,00,AAXX 03004 85586 12360 73104 10169 20148 40134 54000 60001 85501 333 10214 56606 85609=
85586,2016,01,03,03,00,AAXX 03034 85586 NIL=
85586,2016,01,03,06,00,AAXX 03064 85586 NIL=
85586,2016,01,03,09,00,AAXX 03094 85586 NIL=
85586,2016,01,03,12,00,AAXX 03124 85586 12460 83005 10168 20136 40139 51020 60003 885// 333 20158 30/// 55048 56699 70000 88613=
85586,2016,01,03,15,00,AAXX 03154 85586 42460 72707 10184 20133 40147 53008 87500 333 56600 87619=
85586,2016,01,03,18,00,AAXX 03184 85586 12560 62707 10201 20139 40142 58002 60001 86500 333 56600 86621=
85586,2016,01,03,21,00,AAXX 03214 85586 42460 72907 10189 20148 40132 56010 82501 333 56606 82613 85070=
85586,2016,01,04,00,00,AAXX 04004 85586 NIL=
85586,2016,01,04,03,00,AAXX 04034 85586 NIL=
85586,2016,01,04,06,00,AAXX 04064 85586 NIL=
85586,2016,01,04,09,00,AAXX 04094 85586 NIL=
85586,2016,01,04,12,00,AAXX 04124 85586 NIL=
85586,2016,01,04,15,00,AAXX 04154 85586 NIL=
85586,2016,01,04,18,00,AAXX 04184 85586 NIL=
85586,2016,01,04,21,00,AAXX 04214 85586 NIL=
85586,2016,01,05,00,00,AAXX 05004 85586 NIL=
85586,2016,01,05,03,00,AAXX 05034 85586 NIL=
85586,2016,01,05,06,00,AAXX 05064 85586 NIL=
85586,2016,01,05,09,00,AAXX 05094 85586 NIL=
85586,2016,01,05,12,00,AAXX 05124 85586 NIL=
85586,2016,01,05,15,00,AAXX 05154 85586 NIL=
85586,2016,01,05,18,00,AAXX 05184 85586 NIL=
85586,2016,01,05,21,00,AAXX 05214 85586 NIL=
85586,2016,01,06,00,00,AAXX 06004 85586 NIL=
85586,2016,01,06,03,00,AAXX 06034 85586 NIL=
85586,2016,01,06,06,00,AAXX 06064 85586 NIL=
85586,2016,01,06,09,00,AAXX 06094 85586 NIL=
85586,2016,01,06,12,00,AAXX 06124 85586 NIL=
85586,2016,01,06,15,00,AAXX 06154 85586 NIL=
85586,2016,01,06,18,00,AAXX 06184 85586 NIL=
85586,2016,01,06,21,00,AAXX 06214 85586 NIL=
85586,2016,01,07,00,00,AAXX 07004 85586 NIL=
85586,2016,01,07,03,00,AAXX 07034 85586 NIL=
85586,2016,01,07,06,00,AAXX 07064 85586 NIL=
85586,2016,01,07,09,00,AAXX 07094 85586 NIL=
85586,2016,01,07,12,00,AAXX 07124 85586 NIL=
85586,2016,01,07,15,00,AAXX 07154 85586 NIL=
85586,2016,01,07,18,00,AAXX 07184 85586 NIL=
85586,2016,01,07,21,00,AAXX 07214 85586 NIL=
85586,2016,01,08,00,00,AAXX 08001 85586 14460 83003 10187 20163 30053 40142 53003 60001 70222 885// 333 10228 566// 84610 88640=
85586,2016,01,08,03,00,AAXX 08034 85586 NIL=
85586,2016,01,08,06,00,AAXX 08064 85586 NIL=
85586,2016,01,08,09,00,AAXX 08094 85586 NIL=
85586,2016,01,08,12,00,AAXX 08121 85586 14560 53402 10191 20148 30068 40157 52013 60001 70222 825// 333 20153 30/// 55063 5666/ 70000 82620 85360=
85586,2016,01,08,15,00,AAXX 08154 85586 NIL=
85586,2016,01,08,18,00,AAXX 08181 85586 44960 52804 10217 20160 30070 40165 58001 70100 850// 333 56/7/ 85361=
85586,2016,01,08,21,00,AAXX 08214 85586 NIL=
85586,2016,01,09,00,00,AAXX 09001 85586 14460 72402 10185 20158 30065 40155 54001 60001 70222 816// 333 10225 56/66 81711 83367 83073=
85586,2016,01,09,03,00,AAXX 09034 85586 NIL=
85586,2016,01,09,06,00,AAXX 09064 85586 NIL=
85586,2016,01,09,09,00,AAXX 09094 85586 NIL=
85586,2016,01,09,12,00,AAXX 09121 85586 14960 0//// 10190 20153 30064 40153 52006 60001 70200 800// 333 20121 30/// 55036 70000=
85586,2016,01,09,15,00,AAXX 09154 85586 NIL=
85586,2016,01,09,18,00,AAXX 09181 85586 14960 02408 10213 20155 30056 40145 56003 60001 70200 800//=
85586,2016,01,09,21,00,AAXX 09214 85586 NIL=
85586,2016,01,10,00,00,AAXX 10001 85586 14460 22504 10183 20156 30058 40148 53005 60001 70200 826// 333 10222 566// 82710=
85586,2016,01,10,03,00,AAXX 10034 85586 NIL=
85586,2016,01,10,06,00,AAXX 10064 85586 NIL=
85586,2016,01,10,09,00,AAXX 10094 85586 NIL=
85586,2016,01,10,12,00,AAXX 10121 85586 14460 4//// 10167 20144 30063 40153 52009 60001 70200 846// 333 20112 30/// 55126 567// 70000 84711=
85586,2016,01,10,15,00,AAXX 10154 85586 NIL=
85586,2016,01,10,18,00,AAXX 10181 85586 14460 42506 10207 20140 30064 40153 58003 60001 70300 835// 333 566/6 83613 81073=
85586,2016,01,10,21,00,AAXX 10214 85586 NIL=
85586,2016,01,11,00,00,AAXX 11001 85586 14460 72703 10176 20142 30056 40146 55002 60001 70222 876// 333 10212 566// 87713=
85586,2016,01,11,03,00,AAXX 11034 85586 NIL=
85586,2016,01,11,06,00,AAXX 11064 85586 NIL=
85586,2016,01,11,12,00,AAXX 11121 85586 14560 82402 10166 20124 30065 40155 53017 60001 70222 885// 333 20127 30/// 55076 70000 88620=
85586,2016,01,11,15,00,AAXX 11151 85586 42560 62604 10194 20123 30075 40164 52010 875//==
85586,2016,01,11,18,00,AAXX 11181 85586 44560 82404 10193 20124 30075 40164 50001 70222 885// 333 567// 88631=
85586,2016,01,11,21,00,AAXX 11214 85586 NIL=
85586,2016,01,12,00,00,AAXX 12001 85586 14960 12902 10177 20129 30073 40163 53002 60001 70111 800// 333 10205 56//6 81075=
85586,2016,01,12,03,00,AAXX 12034 85586 NIL=
85586,2016,01,12,06,00,AAXX 12064 85586 NIL=
85586,2016,01,12,09,00,AAXX 12094 85586 NIL=
85586,2016,01,12,12,00,AAXX 12121 85586 14760 51202 10162 20118 30098 40189 51018 60001 70222 855// 333 20106 30/// 55023 566/6 70000 85650 82075=
85586,2016,01,12,15,00,AAXX 12154 85586 NIL=
85586,2016,01,12,18,00,AAXX 12181 85586 44960 12408 10218 20116 30099 40188 58004 70100 800// 333 56//6 81073=
85586,2016,01,12,21,00,AAXX 12214 85586 NIL=
85586,2016,01,13,00,00,AAXX 13001 85586 14960 52205 10188 20126 30081 40171 56008 60001 70222 800// 333 10236 56//6 85074=
85586,2016,01,13,03,00,AAXX 13034 85586 NIL=
85586,2016,01,13,06,00,AAXX 13064 85586 NIL=
85586,2016,01,13,09,00,AAXX 13094 85586 NIL=
85586,2016,01,13,12,00,AAXX 13121 85586 14960 00802 10184 20122 30069 40159 50005 60001 70200 800// 333 20104 30/// 55067 70000=
85586,2016,01,13,15,00,AAXX 13154 85586 NIL=
85586,2016,01,13,18,00,AAXX 13184 85586 NIL=
85586,2016,01,13,21,00,AAXX 13214 85586 NIL=
85586,2016,01,14,00,00,AAXX 14004 85586 NIL=
85586,2016,01,14,03,00,AAXX 14034 85586 NIL=
85586,2016,01,14,06,00,AAXX 14064 85586 NIL=
85586,2016,01,14,09,00,AAXX 14094 85586 NIL=
85586,2016,01,14,12,00,AAXX 14121 85586 14560 82403 10181 20152 30078 40168 51015 60001 70222 885// 333 20176 30/// 55113 566// 70000 88622=
85586,2016,01,14,15,00,AAXX 14154 85586 NIL=
85586,2016,01,14,18,00,AAXX 14181 85586 44660 22605 10216 20136 30079 40168 58005 70111 821// 333 566// 82837=
85586,2016,01,14,21,00,AAXX 14211 85586 42960 02407 10213 20134 30074 40163 56005==
85586,2016,01,15,00,00,AAXX 15001 85586 14960 02404 10184 20144 30080 40170 53004 60001 70200 800// 333 10226=
85586,2016,01,15,03,00,AAXX 15034 85586 NIL=
85586,2016,01,15,06,00,AAXX 15064 85586 NIL=
85586,2016,01,15,09,00,AAXX 15094 85586 NIL=
85586,2016,01,15,12,00,AAXX 15121 85586 14960 0//// 10185 20136 30077 40167 53004 60001 70200 800// 333 20101 30/// 55065 70000=
85586,2016,01,15,15,00,AAXX 15151 85586 42960 02506 10207 20137 30069 40158 55006==
85586,2016,01,15,18,00,AAXX 15181 85586 44960 02409 10224 20140 30063 40151 57006 70000 800//=
85586,2016,01,15,21,00,AAXX 15211 85586 41957 02408 10216 20158 30051 40140 57013 70400==
85586,2016,01,16,00,00,AAXX 16001 85586 14960 02405 10198 20153 30046 40135 55004 60001 70200 800// 333 10231=
85586,2016,01,16,03,00,AAXX 16034 85586 NIL=
85586,2016,01,16,06,00,AAXX 16064 85586 NIL=
85586,2016,01,16,09,00,AAXX 16094 85586 NIL=
85586,2016,01,16,12,00,AAXX 16121 85586 14960 0//// 10178 20153 30050 40140 53008 60001 70200 800// 333 20112 30/// 55128 70000=
85586,2016,01,16,15,00,AAXX 16151 85586 42960 02406 10211 20148 30052 40141 53002==
85586,2016,01,16,18,00,AAXX 16181 85586 14960 02407 10227 20154 30044 40132 58007 60001 70200 800//=
85586,2016,01,16,21,00,AAXX 16211 85586 42960 02407 10224 20144 30031 40119 56013==
85586,2016,01,17,00,00,AAXX 17001 85586 14960 02405 10186 20137 30036 40125 53006 60001 70200 800// 333 10237=
85586,2016,01,17,03,00,AAXX 17034 85586 NIL=
85586,2016,01,17,12,00,AAXX 17121 85586 14960 03302 10186 20139 30043 40132 53009 60001 70200 800// 333 20110 30/// 55129 70000=
85586,2016,01,17,15,00,AAXX 17151 85586 42960 02703 10205 20143 30037 40126 57007==
85586,2016,01,17,18,00,AAXX 17181 85586 14960 02505 10209 20150 30040 40129 51004 60001 70200 800//=
85586,2016,01,17,21,00,AAXX 17211 85586 42960 22606 10201 20143 30035 40124 58005 820//==
85586,2016,01,18,00,00,AAXX 18001 85586 14960 30103 10178 20142 30038 40128 53002 60001 70200 800// 333 10220 56//6 83075=
85586,2016,01,18,03,00,AAXX 18034 85586 NIL=
85586,2016,01,18,06,00,AAXX 18064 85586 NIL=
85586,2016,01,18,09,00,AAXX 18094 85586 NIL=
85586,2016,01,18,12,00,AAXX 18121 85586 14350 83404 10169 20151 30049 40139 53015 60001 71022 886// 333 20119 30/// 55121 70000 88708=
85586,2016,01,18,15,00,AAXX 18151 85586 42460 43105 10200 20153 30056 40145 51009 845//==
85586,2016,01,18,18,00,AAXX 18181 85586 44960 12906 10216 20155 30063 40152 50006 70100 800// 333 56//7 81071=
85586,2016,01,18,21,00,AAXX 18214 85586 NIL=
85586,2016,01,19,00,00,AAXX 19001 85586 14560 22902 10187 20158 30053 40142 55001 60001 70200 815// 333 10225 566/6 81620 81075=
85586,2016,01,19,03,00,AAXX 19034 85586 NIL=
85586,2016,01,19,06,00,AAXX 19064 85586 NIL=
85586,2016,01,19,09,00,AAXX 19094 85586 NIL=
85586,2016,01,19,12,00,AAXX 19121 85586 14460 80503 10182 20145 30051 40141 52013 60001 70222 885// 333 20171 30/// 55096 70000 88617=
85586,2016,01,19,15,00,AAXX 19151 85586 42560 82804 10202 20146 30060 40149 52011 885//==
85586,2016,01,19,18,00,AAXX 19181 85586 44960 02804 10218 20153 30053 40141 58007 70000 800//=
85586,2016,01,19,21,00,AAXX 19211 85586 42960 02505 10213 20157 30036 40125 56017==
85586,2016,01,20,00,00,AAXX 20001 85586 14960 02504 10182 20153 30030 40119 55006 60001 70200 800// 333 10224=
85586,2016,01,20,12,00,AAXX 20121 85586 14460 83403 10181 20156 30067 40157 52025 60001 70222 886// 333 20150 30/// 55085 566// 70000 88712=
85586,2016,01,20,15,00,AAXX 20151 85586 42460 63005 10204 20159 30072 40161 52005 865//==
85586,2016,01,20,18,00,AAXX 20181 85586 14460 72804 10210 20161 30066 40155 58006 60001 70222 875// 333 566// 87616=
85586,2016,01,20,21,00,AAXX 20211 85586 42460 62703 10203 20164 30046 40135 57023 876//==
85586,2016,01,21,00,00,AAXX 21001 85586 14460 72703 10188 20155 30045 40134 54000 60001 70222 875// 333 10219 566// 87614=
85586,2016,01,21,03,00,AAXX 21034 85586 NIL=
85586,2016,01,21,06,00,AAXX 21064 85586 NIL=
85586,2016,01,21,12,00,AAXX 21121 85586 14460 83302 10191 20154 30065 40154 53018 60001 70222 885// 333 20159 30/// 55031 566// 70000 88618=
85586,2016,01,21,15,00,AAXX 21151 85586 42460 82903 10200 20159 30076 40165 52012 888//==
85586,2016,01,21,18,00,AAXX 21181 85586 44560 82702 10213 20157 30078 40167 50002 70222 885// 333 566// 88621=
85586,2016,01,21,21,00,AAXX 21211 85586 42960 02804 10232 20149 30064 40152 57014==
85586,2016,01,22,00,00,AAXX 22001 85586 14960 02303 10194 20161 30061 40150 55003 60001 70200 800// 333 10240=
85586,2016,01,22,03,00,AAXX 22034 85586 NIL=
85586,2016,01,22,06,00,AAXX 22064 85586 NIL=
85586,2016,01,22,09,00,AAXX 22094 85586 NIL=
85586,2016,01,22,12,00,AAXX 22121 85586 14260 2//// 10183 20148 30059 40149 53012 60001 70200 826// 333 20115 30/// 55050 566// 70000 82705=
85586,2016,01,22,15,00,AAXX 22151 85586 42960 02505 10213 20150 30065 40154 51007==
85586,2016,01,22,18,00,AAXX 22181 85586 44960 02605 10227 20147 30062 40150 58002 70000 800//=
85586,2016,01,22,21,00,AAXX 22211 85586 42960 02406 10216 20158 30046 40134 58017==
85586,2016,01,23,00,00,AAXX 23001 85586 14360 12505 10189 20164 30040 40129 55006 60001 70200 816// 333 10236 566// 81707=
85586,2016,01,23,03,00,AAXX 23034 85586 NIL=
85586,2016,01,23,06,00,AAXX 23064 85586 NIL=
85586,2016,01,23,09,00,AAXX 23094 85586 NIL=
85586,2016,01,23,12,00,AAXX 23121 85586 14560 51002 10195 20154 30044 40133 51015 60001 70222 855// 333 20145 30/// 55113 566// 70000 85620=
85586,2016,01,23,15,00,AAXX 23151 85586 42660 83105 10209 20149 30056 40145 51012 865//==
85586,2016,01,23,18,00,AAXX 23181 85586 14660 83204 10214 20160 30057 40146 50001 60001 70222 882// 333 88635=
85586,2016,01,23,21,00,AAXX 23211 85586 42660 62802 10212 20149 30044 40133 57013=
85586,2016,01,24,00,00,AAXX 24001 85586 14660 83303 10194 20161 30038 40127 55007 60001 70222 885// 333 10229 88640=
85586,2016,01,24,03,00,AAXX 24034 85586 NIL=
85586,2016,01,24,06,00,AAXX 24064 85586 NIL=
85586,2016,01,24,09,00,AAXX 24094 85586 NIL=
85586,2016,01,24,12,00,AAXX 24121 85586 14560 50103 10189 20160 30064 40153 53012 60011 70166 825// 333 20165 31/// 55015 5666/ 70014 82620 85358=
85586,2016,01,24,15,00,AAXX 24151 85586 42860 22805 10211 20141 30074 40163 51014 838//==
85586,2016,01,24,18,00,AAXX 24181 85586 14560 62604 10216 20141 30078 40167 50003 60001 70222 845// 333 566/6 82625 83633 83070=
85586,2016,01,24,21,00,AAXX 24211 85586 42560 02507 10214 20149 30048 40136 56028 815//==
85586,2016,01,25,00,00,AAXX 25001 85586 14960 52304 10188 20139 30050 40139 53001 60001 70300 800// 333 10236 56//6 85075=
85586,2016,01,25,03,00,AAXX 25034 85586 NIL=
85586,2016,01,25,06,00,AAXX 25064 85586 NIL=
85586,2016,01,25,09,00,AAXX 25094 85586 NIL=
85586,2016,01,25,12,00,AAXX 25121 85586 14960 8//// 10156 20129 30047 40137 53017 60001 70222 880// 333 20127 30/// 55103 56/6/ 70000 88469=
85586,2016,01,25,15,00,AAXX 25151 85586 42960 83102 10186 20143 30065 40155 52021 880//==
85586,2016,01,25,18,00,AAXX 25181 85586 44960 82406 10200 20140 30070 40159 53007 70222 880// 333 56/6/ 88364=
85586,2016,01,25,21,00,AAXX 25211 85586 42960 42505 10211 20144 30068 40157 56004 840//==
85586,2016,01,26,00,00,AAXX 26001 85586 14960 42603 10185 20160 30077 40167 53008 60001 70111 840// 333 10229 56/6/ 84366=
85586,2016,01,26,03,00,AAXX 26034 85586 NIL=
85586,2016,01,26,06,00,AAXX 26064 85586 NIL=
85586,2016,01,26,09,00,AAXX 26094 85586 NIL=
85586,2016,01,26,12,00,AAXX 26121 85586 14960 30902 10177 20150 30088 40178 52011 60001 70200 830// 333 20111 30/// 55036 56/6/ 70000 83365=
85586,2016,01,26,15,00,AAXX 26151 85586 42660 02504 10223 20135 30089 40178 50001 811//==
85586,2016,01,26,18,00,AAXX 26181 85586 44960 42505 10211 20139 30094 40183 50007 70100 800// 333 56//6 84071=
85586,2016,01,26,21,00,AAXX 26211 85586 42960 42506 10207 20153 30081 40170 57012 840//==
85586,2016,01,27,00,00,AAXX 27001 85586 14960 62404 10189 20146 30086 40176 53005 60001 70311 860// 333 10232 56/6/ 86365=
85586,2016,01,27,03,00,AAXX 27034 85586 NIL=
85586,2016,01,27,06,00,AAXX 27064 85586 NIL=
85586,2016,01,27,09,00,AAXX 27094 85586 NIL=
85586,2016,01,27,12,00,AAXX 27121 85586 14960 8//// 10169 20131 30072 40162 53001 60001 70222 880// 333 20131 30/// 55108 56/6/ 70000 88366=
85586,2016,01,27,15,00,AAXX 27151 85586 42960 62503 10221 20138 30064 40152 55006 870//==
85586,2016,01,27,18,00,AAXX 27181 85586 14960 72406 10231 20148 30060 40148 58004 60001 70122 870// 333 56/6/ 87365=
85586,2016,01,27,21,00,AAXX 27211 85586 42960 62407 10211 20164 30052 40141 56008 870//==
85586,2016,01,28,00,00,AAXX 28001 85586 14960 72504 10191 20166 30049 40138 55003 60001 70122 800// 333 10232 56//6 87075=
85586,2016,01,28,03,00,AAXX 28034 85586 NIL=
85586,2016,01,28,06,00,AAXX 28064 85586 NIL=
85586,2016,01,28,09,00,AAXX 28094 85586 NIL=
85586,2016,01,28,12,00,AAXX 28121 85586 14960 30000 10190 20163 30040 40129 53010 60001 70200 800// 333 20132 30/// 55045 56//6 70000 83075=
85586,2016,01,28,15,00,AAXX 28151 85586 42960 42705 10217 20161 30044 40132 52004=
85586,2016,01,28,18,00,AAXX 28181 85586 44960 42408 10222 20168 30049 40137 52005 70100 800// 333 56//6 84073=
85586,2016,01,28,21,00,AAXX 28211 85586 42960 02507 10210 20156 30047 40136 57002==
85586,2016,01,29,00,00,AAXX 29001 85586 14960 02704 10180 20157 30048 40138 53001 60001 70200 800// 333 10239=
85586,2016,01,29,12,00,AAXX 29121 85586 14960 70000 10162 20143 30065 40155 52016 60001 70222 800// 333 20117 30/// 55118 56//6 70000 87073=
85586,2016,01,29,15,00,AAXX 29151 85586 42960 62604 10201 20143 30074 40163 53010 860//==
85586,2016,01,29,18,00,AAXX 29181 85586 44960 52406 10201 20148 30077 40166 53004 70222 800// 333 56//6 85073=
85586,2016,01,29,21,00,AAXX 29211 85586 42960 22605 10195 20152 30077 40166 52001 830//==
85586,2016,01,30,00,00,AAXX 30001 85586 14560 22803 10177 20152 30077 40167 54000 60001 70200 815// 333 10220 566/6 81620 81075=
85586,2016,01,30,03,00,AAXX 30034 85586 NIL=
85586,2016,01,30,06,00,AAXX 30064 85586 NIL=
85586,2016,01,30,09,00,AAXX 30094 85586 NIL=
85586,2016,01,30,12,00,AAXX 30121 85586 14960 01402 10183 20146 30058 40148 54000 60001 70200 800// 333 20127 30/// 55050 70000=
85586,2016,01,30,15,00,AAXX 30154 85586 NIL=
85586,2016,01,30,18,00,AAXX 30181 85586 14960 12408 10227 20168 30040 40128 58006 60001 70200 800// 333 56//6 81075=
85586,2016,01,30,21,00,AAXX 30211 85586 42960 02806 10207 20155 30034 40123 55005==
85586,2016,01,31,00,00,AAXX 31001 85586 14960 03103 10188 20163 30045 40134 53010 60001 70200 800// 333 10243=
85586,2016,01,31,03,00,AAXX 31034 85586 NIL=
85586,2016,01,31,06,00,AAXX 31064 85586 NIL=
85586,2016,01,31,09,00,AAXX 31094 85586 NIL=
85586,2016,01,31,12,00,AAXX 31121 85586 14456 80203 10187 20154 30058 40147 51013 60001 70522 886// 333 20181 30/// 55129 567// 70000 88714=
85586,2016,01,31,15,00,AAXX 31151 85586 41458 83106 10201 20154 30072 40161 51014 70522 885//==
85586,2016,01,31,18,00,AAXX 31181 85586 14960 33106 10225 20155 30071 40159 58001 60001 70222 800// 333 56//6 83075=
85586,2016,01,31,21,00,AAXX 31211 85586 42560 02906 10211 20161 30064 40153 58007 815//==
85586,2016,02,01,00,00,AAXX 01001 85586 14458 82402 10192 20167 30059 40148 55006 60001 70522 885// 333 10231 567// 88616=
85586,2016,02,01,03,00,AAXX 01034 85586 NIL=
85586,2016,02,01,06,00,AAXX 01064 85586 NIL=
85586,2016,02,01,09,00,AAXX 01094 85586 NIL=
85586,2016,02,01,12,00,AAXX 01121 85586 14340 83302 10173 20153 30054 40144 51008 60001 71022 886// 333 20169 30/// 55053 567// 70000 88709=
85586,2016,02,01,15,00,AAXX 01151 85586 41458 82803 10188 20153 30058 40147 51001 70522 885//==
85586,2016,02,01,18,00,AAXX 01181 85586 44460 82804 10200 20157 30053 40142 58005 70222 888// 333 567// 82812 88616=
85586,2016,02,01,21,00,AAXX 01211 85586 42560 82804 10199 20160 30045 40134 56009 885//==
85586,2016,02,02,00,00,AAXX 02001 85586 14958 02602 10183 20158 30039 40128 56006 60001 70511 800// 333 10208=
85586,2016,02,02,03,00,AAXX 02034 85586 NIL=
85586,2016,02,02,12,00,AAXX 02121 85586 14456 82603 10175 20155 30044 40134 53018 60001 70522 886// 333 20160 30/// 55013 567// 70000 88713=
85586,2016,02,02,15,00,AAXX 02151 85586 41122 82903 10177 20169 30063 40153 52020 75022 886//==
85586,2016,02,02,18,00,AAXX 02181 85586 44460 82804 10201 20168 30063 40152 50001 70122 885// 333 567// 88613=
85586,2016,02,02,21,00,AAXX 02211 85586 42460 82403 10190 20161 30058 40147 58005 885//==
85586,2016,02,03,00,00,AAXX 03001 85586 14556 82502 10183 20161 30049 40138 56009 69901 70522 886// 333 10202 567// 88723=
85586,2016,02,03,03,00,AAXX 03034 85586 NIL=
85586,2016,02,03,06,00,AAXX 03064 85586 NIL=
85586,2016,02,03,09,00,AAXX 03094 85586 NIL=
85586,2016,02,03,12,00,AAXX 03121 85586 14456 82702 10181 20159 30034 40123 51012 60001 70522 885// 333 20177 30/// 55000 79999 88611=
85586,2016,02,03,15,00,AAXX 03151 85586 42460 82803 10197 20160 30046 40135 51011 885// 333 88617==
85586,2016,02,03,18,00,AAXX 03181 85586 14560 82604 10208 20167 30048 40137 50002 60001 70222 885// 333 88622=
85586,2016,02,03,21,00,AAXX 03211 85586 42560 82405 10206 20161 30042 40131 58005 885// 333 88620==
85586,2016,02,04,00,00,AAXX 04001 85586 14460 72404 10178 20153 30053 40143 53010 60001 70222 875// 333 10218 566// 87614=
85586,2016,02,04,03,00,AAXX 04034 85586 NIL=
85586,2016,02,04,06,00,AAXX 04064 85586 NIL=
85586,2016,02,04,09,00,AAXX 04094 85586 NIL=
85586,2016,02,04,12,00,AAXX 04121 85586 14357 63602 10157 20141 30059 40149 52017 60001 71022 866// 333 20124 30/// 55001 566// 70000 86709=
85586,2016,02,04,15,00,AAXX 04151 85586 42460 22503 10187 20134 30069 40158 51012 825//==
85586,2016,02,04,18,00,AAXX 04181 85586 44960 02605 10207 20142 30067 40156 58003 70000 800//=
85586,2016,02,04,21,00,AAXX 04211 85586 42960 02605 10199 20141 30062 40151 55004==
85586,2016,02,05,00,00,AAXX 05001 85586 14460 72404 10176 20146 30067 40157 53005 60001 70222 875// 333 10216 566// 87613=
85586,2016,02,05,03,00,AAXX 05034 85586 NIL=
85586,2016,02,05,06,00,AAXX 05064 85586 NIL=
85586,2016,02,05,09,00,AAXX 05094 85586 NIL=
85586,2016,02,05,12,00,AAXX 05121 85586 14460 53002 10159 20125 30069 40159 53012 60001 70222 855// 333 20110 30/// 55093 566// 70000 85611=
85586,2016,02,05,15,00,AAXX 05151 85586 42460 02804 10174 20126 30072 40162 52003 811//==
85586,2016,02,05,18,00,AAXX 05181 85586 44960 02605 10192 20139 30068 40157 58002 70000 800//=
85586,2016,02,05,21,00,AAXX 05211 85586 42960 02505 10200 20140 30065 40154 58004==
85586,2016,02,06,00,00,AAXX 06001 85586 14460 42503 10171 20140 30063 40153 55002 60001 70211 845// 333 10207 566// 84615=
85586,2016,02,06,03,00,AAXX 06034 85586 NIL=
85586,2016,02,06,09,00,AAXX 06094 85586 NIL=
85586,2016,02,06,12,00,AAXX 06121 85586 14456 8//// 10162 20133 30057 40147 53015 60001 70522 885// 333 20118 30/// 55112 567// 70000 88612=
85586,2016,02,06,15,00,AAXX 06151 85586 42960 02704 10193 20138 30069 40158 51013==
85586,2016,02,06,18,00,AAXX 06184 85586 NIL=
85586,2016,02,06,21,00,AAXX 06211 85586 42560 42505 10196 20134 30059 40148 57011 845//==
85586,2016,02,07,00,00,AAXX 07001 85586 14460 22602 10176 20134 30059 40149 53000 60001 70111 825// 333 10211 567// 82619=
85586,2016,02,07,03,00,AAXX 07034 85586 NIL=
85586,2016,02,07,06,00,AAXX 07064 85586 NIL=
85586,2016,02,07,09,00,AAXX 07094 85586 NIL=
85586,2016,02,07,12,00,AAXX 07121 85586 14456 8//// 10161 20127 30056 40146 53017 60001 70522 885// 333 20155 30/// 55099 567// 70000 88614=
85586,2016,02,07,15,00,AAXX 07151 85586 41458 83203 10185 20136 30065 40156 52009 70522 885//==
85586,2016,02,07,18,00,AAXX 07181 85586 14458 82704 10195 20140 30061 40150 57004 60001 70522 885// 333 567// 82615 88626=
85586,2016,02,07,21,00,AAXX 07214 85586 NIL=
85586,2016,02,08,00,00,AAXX 08001 85586 14560 52304 10175 20141 30043 40133 55005 60001 70300 855// 333 10209 85628=
85586,2016,02,08,03,00,AAXX 08034 85586 NIL=
85586,2016,02,08,06,00,AAXX 08064 85586 NIL=
85586,2016,02,08,09,00,AAXX 08094 85586 NIL=
85586,2016,02,08,12,00,AAXX 08121 85586 14458 8//// 10173 20139 30066 40156 51015 60001 70522 885// 333 20127 30/// 55045 567// 70000 88616=
85586,2016,02,08,15,00,AAXX 08151 85586 42460 82503 10186 20137 30076 40166 52009 885//==
85586,2016,02,08,18,00,AAXX 08181 85586 44960 02606 10213 20146 30070 40159 58006 70000 800//=
85586,2016,02,08,21,00,AAXX 08211 85586 42960 02505 10198 20145 30053 40142 58016==
85586,2016,02,09,00,00,AAXX 09001 85586 14358 52703 10175 20153 30049 40139 55004 60001 70500 855// 333 10213 567// 85609=
85586,2016,02,09,03,00,AAXX 09034 85586 NIL=
85586,2016,02,09,06,00,AAXX 09064 85586 NIL=
85586,2016,02,09,09,00,AAXX 09094 85586 NIL=
85586,2016,02,09,12,00,AAXX 09121 85586 14360 5//// 10160 20139 30045 40135 52016 60001 70311 856// 333 20105 30/// 55070 567// 70000 85707=
85586,2016,02,09,15,00,AAXX 09151 85586 42460 43205 10203 20164 30058 40147 52014 845//==
85586,2016,02,09,18,00,AAXX 09181 85586 44460 12705 10209 20157 30060 40149 52002 70100 811// 333 566// 81812=
85586,2016,02,09,21,00,AAXX 09211 85586 42460 42805 10194 20151 30053 40142 58007 845//==
85586,2016,02,10,00,00,AAXX 10001 85586 14460 73002 10178 20144 30061 40151 53008 60001 70222 875// 333 10218 566// 87614=
85586,2016,02,10,12,00,AAXX 10121 85586 14460 73603 10170 20128 30062 40152 53011 60001 70222 875// 333 20163 30/// 55086 566// 70000 87617=
85586,2016,02,10,15,00,AAXX 10151 85586 42560 63004 10191 20127 30077 40166 51016 875//==
85586,2016,02,10,18,00,AAXX 10181 85586 14960 03005 10206 20127 30080 40169 50003 60001 70211 800//=
85586,2016,02,10,21,00,AAXX 10211 85586 42960 02605 10210 20133 30074 40163 58006==
85586,2016,02,11,00,00,AAXX 11001 85586 14560 22602 10181 20132 30071 40161 55004 60001 70200 825// 333 10216 566// 82622=
85586,2016,02,11,03,00,AAXX 11034 85586 NIL=
85586,2016,02,11,06,00,AAXX 11064 85586 NIL=
85586,2016,02,11,09,00,AAXX 11094 85586 NIL=
85586,2016,02,11,12,00,AAXX 11121 85586 14460 81802 10168 20128 30068 40158 51012 60001 70222 885// 333 20163 30/// 55083 566// 70000 88618=
85586,2016,02,11,15,00,AAXX 11151 85586 42460 82804 10184 20131 30066 40156 50001 885//==
85586,2016,02,11,18,00,AAXX 11181 85586 44460 12506 10205 20138 30062 40151 55004 70100 811// 333 566// 81817=
85586,2016,02,11,21,00,AAXX 11211 85586 42460 02606 10192 20137 30046 40135 56016 811//==
85586,2016,02,12,00,00,AAXX 12001 85586 14460 62405 10169 20133 30047 40137 52001 60001 70222 865// 333 10211 566// 86615=
85586,2016,02,12,03,00,AAXX 12034 85586 NIL=
85586,2016,02,12,06,00,AAXX 12064 85586 NIL=
85586,2016,02,12,09,00,AAXX 12094 85586 NIL=
85586,2016,02,12,12,00,AAXX 12121 85586 14960 2//// 10155 20127 30064 40155 53021 60001 70200 800// 333 20103 30/// 55067 56//6 70000 82075=
85586,2016,02,12,15,00,AAXX 12151 85586 42560 02605 10199 20130 30070 40159 51008 815//==
85586,2016,02,12,18,00,AAXX 12181 85586 44960 32509 10205 20126 30066 40155 58005 70100 800// 333 56//6 83270=
85586,2016,02,12,21,00,AAXX 12211 85586 42960 02408 10198 20131 30060 40149 58005==
85586,2016,02,13,00,00,AAXX 13001 85586 14960 02304 10173 20123 30058 40148 55003 60001 70200 800// 333 10219=
85586,2016,02,13,12,00,AAXX 13121 85586 14960 01102 10157 20113 30068 40158 51013 60001 70200 800// 333 20093 30/// 55118 70000=
85586,2016,02,13,15,00,AAXX 13151 85586 42960 02406 10205 20130 30067 40156 58001==
85586,2016,02,13,18,00,AAXX 13181 85586 14960 02407 10213 20141 30060 40149 58007 60001 70200 800//=
85586,2016,02,13,21,00,AAXX 13211 85586 42960 02408 10204 20142 30051 40140 56009==
85586,2016,02,14,00,00,AAXX 14001 85586 14958 0//// 10168 20126 30055 40145 53005 60001 70500 800// 333 10222=
85586,2016,02,14,03,00,AAXX 14034 85586 NIL=
85586,2016,02,14,06,00,AAXX 14064 85586 NIL=
85586,2016,02,14,09,00,AAXX 14094 85586 NIL=
85586,2016,02,14,12,00,AAXX 14121 85586 14960 00000 10166 20128 30044 40134 52008 60001 70200 800// 333 20091 30/// 55125 70000=
85586,2016,02,14,15,00,AAXX 14151 85586 42960 02603 10202 20115 30043 40132 52001==
85586,2016,02,14,18,00,AAXX 14181 85586 14960 02407 10202 20120 30036 40125 57008 60001 70200 800//=
85586,2016,02,14,21,00,AAXX 14211 85586 42960 02407 10201 20124 30017 40106 57020==
85586,2016,02,15,00,00,AAXX 15001 85586 14960 00403 10170 20120 30016 40106 55001 60001 70200 800// 333 10212=
85586,2016,02,15,03,00,AAXX 15034 85586 NIL=
85586,2016,02,15,06,00,AAXX 15064 85586 NIL=
85586,2016,02,15,09,00,AAXX 15094 85586 NIL=
85586,2016,02,15,12,00,AAXX 15121 85586 14960 00000 10152 20112 39992 40082 53005 60001 70200 800// 333 20079 30/// 55123 70000=
85586,2016,02,15,15,00,AAXX 15151 85586 42960 03104 10189 20134 30000 40089 52009==
85586,2016,02,15,18,00,AAXX 15181 85586 44960 02704 10183 20141 30004 40093 53004 70000 800//=
85586,2016,02,15,21,00,AAXX 15211 85586 42960 02704 10188 20139 39996 40085 58008==
85586,2016,02,16,00,00,AAXX 16001 85586 14360 82702 10159 20134 30000 40090 53004 60001 70222 886// 333 10199 566// 88708=
85586,2016,02,16,03,00,AAXX 16034 85586 NIL=
85586,2016,02,16,06,00,AAXX 16064 85586 NIL=
85586,2016,02,16,09,00,AAXX 16094 85586 NIL=
85586,2016,02,16,12,00,AAXX 16121 85586 14460 83502 10157 20123 30023 40113 51033 60001 70222 885// 333 20146 30/// 55111 566// 70000 88616=
85586,2016,02,16,15,00,AAXX 16151 85586 42460 82704 10174 20132 30041 40131 51018 885//==
85586,2016,02,16,18,00,AAXX 16181 85586 44560 82504 10177 20131 30039 40129 50001 70222 885// 333 567// 88626=
85586,2016,02,16,21,00,AAXX 16211 85586 42560 02505 10186 20137 30024 40113 58014 811//==
85586,2016,02,17,00,00,AAXX 17001 85586 14960 02304 10157 20125 30022 40112 55003 60001 70200 800// 333 10191=
85586,2016,02,17,03,00,AAXX 17034 85586 NIL=
85586,2016,02,17,06,00,AAXX 17064 85586 NIL=
85586,2016,02,17,09,00,AAXX 17094 85586 NIL=
85586,2016,02,17,12,00,AAXX 17121 85586 14960 0//// 10124 20118 30032 40123 53011 60001 70240 800// 333 20084 30/// 55028 70000=
85586,2016,02,17,15,00,AAXX 17151 85586 42960 02703 10180 20125 30039 40129 51009==
85586,2016,02,17,18,00,AAXX 17181 85586 14960 02406 10186 20131 30044 40133 53004 60001 70200 800//=
85586,2016,02,17,21,00,AAXX 17214 85586 NIL=
85586,2016,02,18,00,00,AAXX 18001 85586 14960 02504 10161 20125 30035 40125 55003 60001 70200 800// 333 10204=
85586,2016,02,18,03,00,AAXX 18034 85586 NIL=
85586,2016,02,18,06,00,AAXX 18064 85586 NIL=
85586,2016,02,18,09,00,AAXX 18094 85586 NIL=
85586,2016,02,18,12,00,AAXX 18121 85586 14960 20903 10147 20131 30076 40167 51018 60001 70111 800// 333 20100 30/// 55121 56//6 70000 82075=
85586,2016,02,18,15,00,AAXX 18151 85586 42960 02804 10191 20134 30084 40174 52011==
85586,2016,02,18,18,00,AAXX 18181 85586 44960 02407 10202 20144 30084 40173 50001 70000 800//=
85586,2016,02,18,21,00,AAXX 18214 85586 NIL=
85586,2016,02,19,00,00,AAXX 19001 85586 14960 0//// 10168 20136 30073 40163 53001 60001 70200 800// 333 10208=
85586,2016,02,19,03,00,AAXX 19034 85586 NIL=
85586,2016,02,19,06,00,AAXX 19064 85586 NIL=
85586,2016,02,19,09,00,AAXX 19094 85586 NIL=
85586,2016,02,19,12,00,AAXX 19121 85586 14960 0//// 10154 20124 30066 40157 53006 60001 70200 800// 333 20098 30/// 55119 70000=
85586,2016,02,19,15,00,AAXX 19151 85586 42960 02406 10209 20132 30064 40153 57003==
85586,2016,02,19,18,00,AAXX 19181 85586 44960 02407 10200 20133 30055 40144 57008 70000 800//=
85586,2016,02,19,21,00,AAXX 19211 85586 42960 02506 10199 20120 30041 40130 58014==
85586,2016,02,20,00,00,AAXX 20001 85586 14960 00503 10163 20113 30033 40123 56009 60001 70200 800// 333 10226=
85586,2016,02,20,03,00,AAXX 20034 85586 NIL=
85586,2016,02,20,06,00,AAXX 20064 85586 NIL=
85586,2016,02,20,09,00,AAXX 20094 85586 NIL=
85586,2016,02,20,12,00,AAXX 20121 85586 14960 0//// 10149 20099 39991 40081 58003 60001 70200 800// 333 20081 30/// 55122 70000=
85586,2016,02,20,15,00,AAXX 20151 85586 42960 02406 10192 20123 39993 40082 50000==
85586,2016,02,20,18,00,AAXX 20181 85586 14960 02505 10207 20117 39992 40080 58001 60001 70200 800//=
85586,2016,02,20,21,00,AAXX 20211 85586 42960 02906 10174 20120 39994 40083 53000==
85586,2016,02,21,00,00,AAXX 21001 85586 14958 02804 10147 20126 30002 40092 51009 60001 70500 800// 333 10216=
85586,2016,02,21,03,00,AAXX 21034 85586 NIL=
85586,2016,02,21,06,00,AAXX 21064 85586 NIL=
85586,2016,02,21,09,00,AAXX 21094 85586 NIL=
85586,2016,02,21,12,00,AAXX 21121 85586 14206 8//// 10126 20121 30001 40092 53016 60001 74622 886// 333 20094 30/// 55119 566// 70000 88705=
85586,2016,02,21,15,00,AAXX 21151 85586 41160 83303 10157 20132 30025 40115 52025 70242 886// 333 566// 88702==
85586,2016,02,21,18,00,AAXX 21181 85586 14150 72905 10155 20128 30021 40111 58004 60001 70522 876// 333 566// 87702=
85586,2016,02,21,21,00,AAXX 21211 85586 42260 82903 10159 20134 30010 40100 56011 886//==
85586,2016,02,22,00,00,AAXX 22001 85586 14360 83103 10152 20132 30013 40103 53002 60001 70222 886// 333 10166 566// 88708=
85586,2016,02,22,03,00,AAXX 22034 85586 NIL=
85586,2016,02,22,06,00,AAXX 22064 85586 NIL=
85586,2016,02,22,09,00,AAXX 22094 85586 NIL=
85586,2016,02,22,12,00,AAXX 22121 85586 14960 31002 10139 20120 30024 40115 53018 60001 70200 800// 333 20107 30/// 55014 56//6 70000 83075=
85586,2016,02,22,15,00,AAXX 22151 85586 42960 03104 10182 20136 30038 40127 50013 81001==
85586,2016,02,22,18,00,AAXX 22181 85586 44960 13404 10197 20135 30036 40125 58001 70000 80001 333 56//7 81073=
85586,2016,02,22,21,00,AAXX 22214 85586 NIL=
85586,2016,02,23,00,00,AAXX 23004 85586 14150 5//// 10136 20128 30024 40115 50001 60001 71011 85600 333 10203 566// 85701=
85586,2016,02,23,03,00,AAXX 23034 85586 NIL=
85586,2016,02,23,06,00,AAXX 23064 85586 NIL=
85586,2016,02,23,09,00,AAXX 23094 85586 NIL=
85586,2016,02,23,12,00,AAXX 23124 85586 14960 0//// 10141 20125 30033 40124 53024 60001 70200 80000 333 20094 30/// 55098 70000=
85586,2016,02,23,15,00,AAXX 23154 85586 42360 42906 10179 20146 30044 40134 53010=
85586,2016,02,23,18,00,AAXX 23184 85586 44360 32608 10193 20146 30038 40127 57006 70100 83500 333 566// 83608=
85586,2016,02,23,21,00,AAXX 23214 85586 42460 42807 10188 20147 30044 40133 53004 84500==
85586,2016,02,24,00,00,AAXX 24004 85586 14960 13004 10169 20149 30043 40133 54001 60001 70200 80001 333 10201 56//6 81075=
85586,2016,02,24,03,00,AAXX 24034 85586 NIL=
85586,2016,02,24,06,00,AAXX 24064 85586 NIL=
85586,2016,02,24,09,00,AAXX 24094 85586 NIL=
85586,2016,02,24,12,00,AAXX 24124 85586 14104 8//// 10148 20146 30069 40160 53025 60001 74644 886// 333 20142 30/// 55100 567// 70000 88702=
85586,2016,02,24,15,00,AAXX 24154 85586 41140 82905 10158 20154 30084 40175 51015 70544 886//==
85586,2016,02,24,18,00,AAXX 24184 85586 14240 82606 10174 20145 30076 40166 56008 60001 70520 886// 333 567// 88704=
85586,2016,02,24,21,00,AAXX 24214 85586 429// 02607 10180 20134 30053 40143 58021==
85586,2016,02,25,00,00,AAXX 25004 85586 14960 00105 10156 20126 30043 40133 56012 60001 70200 80000 333 10190=
85586,2016,02,25,03,00,AAXX 25034 85586 NIL=
85586,2016,02,25,06,00,AAXX 25064 85586 NIL=
85586,2016,02,25,09,00,AAXX 25094 85586 NIL=
85586,2016,02,25,12,00,AAXX 25124 85586 14950 00000 10129 20118 30033 40124 52012 60001 70500 80000 333 20077 30/// 55046 70000=
85586,2016,02,25,15,00,AAXX 25154 85586 42960 03207 10194 20130 30047 40136 53014==
85586,2016,02,25,18,00,AAXX 25184 85586 44960 02811 10187 20123 30058 40148 51013 70000 80000=
85586,2016,02,25,21,00,AAXX 25214 85586 NIL=
85586,2016,02,26,00,00,AAXX 26004 85586 14958 02407 10148 20108 30052 40143 53001 60001 70500 80000 333 10195=
85586,2016,02,26,03,00,AAXX 26034 85586 NIL=
85586,2016,02,26,06,00,AAXX 26064 85586 NIL=
85586,2016,02,26,09,00,AAXX 26094 85586 NIL=
85586,2016,02,26,12,00,AAXX 26124 85586 14160 12104 10113 20104 30058 40150 53012 60001 70144 81600 333 20066 30/// 55118 567// 70000 81702=
85586,2016,02,26,15,00,AAXX 26154 85586 42960 42607 10157 20111 30061 40151 51005 84001==
85586,2016,02,26,18,00,AAXX 26184 85586 44960 02514 10191 20120 30059 40148 58002 70000 80000=
85586,2016,02,26,21,00,AAXX 26214 85586 42960 02513 10192 20126 30047 40136 57011==
85586,2016,02,27,00,00,AAXX 27004 85586 14958 00506 10150 20120 30052 40143 53001 60001 70500 80000 333 10208=
85586,2016,02,27,03,00,AAXX 27034 85586 NIL=
85586,2016,02,27,06,00,AAXX 27064 85586 NIL=
85586,2016,02,27,09,00,AAXX 27094 85586 NIL=
85586,2016,02,27,12,00,AAXX 27124 85586 14960 0//// 10130 20104 30055 40146 53012 60001 70200 80000 333 20076 30/// 55112 70000=
85586,2016,02,27,15,00,AAXX 27154 85586 42960 02707 10184 20113 30064 40154 52009==
85586,2016,02,27,18,00,AAXX 27184 85586 14960 02510 10196 20115 30064 40153 54000 60001 70200 80000=
85586,2016,02,27,21,00,AAXX 27214 85586 NIL=
85586,2016,02,28,00,00,AAXX 28004 85586 14960 00405 10155 20099 30050 40140 55001 60001 70200 80000 333 10202=
85586,2016,02,28,03,00,AAXX 28034 85586 NIL=
85586,2016,02,28,06,00,AAXX 28064 85586 NIL=
85586,2016,02,28,09,00,AAXX 28094 85586 NIL=
85586,2016,02,28,12,00,AAXX 28124 85586 14960 00000 10133 20082 30047 40138 53016 60001 70200 80000 333 20067 30/// 55116 70000=
85586,2016,02,28,15,00,AAXX 28154 85586 42960 02907 10179 20101 30061 40151 52013==
85586,2016,02,28,18,00,AAXX 28184 85586 14960 02610 10185 20134 30063 40153 52003 60001 70200 80000=
85586,2016,02,28,21,00,AAXX 28214 85586 NIL=
85586,2016,02,29,00,00,AAXX 29004 85586 14960 03606 10146 20120 30058 40149 54001 60001 70200 80000 333 10198=
85586,2016,02,29,03,00,AAXX 29034 85586 NIL=
85586,2016,02,29,06,00,AAXX 29064 85586 NIL=
85586,2016,02,29,09,00,AAXX 29094 85586 NIL=
85586,2016,02,29,12,00,AAXX 29124 85586 14110 80703 10118 20115 30061 40153 53009 60001 71022 886// 333 20100 30/// 55112 70000 88702=
85586,2016,02,29,15,00,AAXX 29154 85586 42360 43009 10156 20122 30070 40161 52008 84500==
85586,2016,02,29,18,00,AAXX 29184 85586 44260 53006 10163 20123 30074 40164 50005 70222 85500 333 567// 85605=
85586,2016,02,29,21,00,AAXX 29214 85586 42960 02908 10170 20130 30074 40164 55001==
85586,2016,03,01,00,00,AAXX 01004 85586 14360 73304 10153 20132 30078 40169 52003 60001 70222 87500 333 10178 566// 87608=
85586,2016,03,01,03,00,AAXX 01034 85586 NIL=
85586,2016,03,01,06,00,AAXX 01064 85586 NIL=
85586,2016,03,01,09,00,AAXX 01094 85586 NIL=
85586,2016,03,01,12,00,AAXX 01124 85586 14103 81403 10110 20109 30046 40137 53004 60001 74622 886// 333 20100 30/// 55051 70000 88702=
85586,2016,03,01,15,00,AAXX 01154 85586 42960 03004 10172 20128 30041 40131 58004 81001==
85586,2016,03,01,18,00,AAXX 01184 85586 44460 22906 10166 20126 30038 40128 56004 70100 82500 333 567// 82610=
85586,2016,03,01,21,00,AAXX 01214 85586 42360 83408 10190 20149 30053 40142 51014 885//==
85586,2016,03,02,00,00,AAXX 02004 85586 14960 03103 10160 20142 30057 40147 53004 60001 70200 80000 333 10192=
85586,2016,03,02,03,00,AAXX 02034 85586 NIL=
85586,2016,03,02,06,00,AAXX 02064 85586 NIL=
85586,2016,03,02,09,00,AAXX 02094 85586 NIL=
85586,2016,03,02,12,00,AAXX 02124 85586 14460 81003 10151 20128 30048 40138 53009 60001 70222 885// 333 20119 30/// 55070 70000 88610=
85586,2016,03,02,15,00,AAXX 02154 85586 42960 02806 10181 20132 30048 40138 50002==
85586,2016,03,02,18,00,AAXX 02184 85586 14960 02709 10181 20130 30048 40138 55001 60001 70200 80000=
85586,2016,03,02,21,00,AAXX 02214 85586 42460 83008 10168 20134 30048 40138 54000 885// 333 88610==
85586,2016,03,03,00,00,AAXX 03004 85586 14460 83106 10161 20132 30053 40143 52004 60001 70222 885// 333 10191 88612=
85586,2016,03,03,06,00,AAXX 03064 85586 NIL=
85586,2016,03,03,09,00,AAXX 03094 85586 NIL=
85586,2016,03,03,12,00,AAXX 03124 85586 14240 83504 10140 20124 30062 40153 53018 60001 71022 886// 333 20137 30/// 55064 567// 70000 88706=
85586,2016,03,03,15,00,AAXX 03154 85586 41256 83103 10148 20130 30065 40156 50005 70522 886//==
85586,2016,03,03,18,00,AAXX 03184 85586 44258 82607 10159 20131 30064 40154 55002 70522 886// 333 567// 88706=
85586,2016,03,03,21,00,AAXX 03214 85586 42360 42708 10171 20137 30054 40144 58010=
85586,2016,03,04,00,00,AAXX 04004 85586 14240 82104 10151 20135 30055 40146 51001 60001 71022 886// 333 10185 567// 88706=
85586,2016,03,04,03,00,AAXX 04034 85586 NIL=
85586,2016,03,04,06,00,AAXX 04064 85586 NIL=
85586,2016,03,04,09,00,AAXX 04094 85586 NIL=
85586,2016,03,04,12,00,AAXX 04124 85586 14108 8//// 10134 20128 30053 40144 53007 60001 74244 886// 333 20130 30/// 55014 567// 70000 88702=
85586,2016,03,04,15,00,AAXX 0415/ 85586 41956 6//// 10173 20135 30058 40148 50005 70522 86601==
85586,2016,03,04,18,00,AAXX 04184 85586 44240 82706 10158 20135 30057 40147 50001 70522 886// 333 567// 88704=
85586,2016,03,04,21,00,AAXX 04214 85586 41240 83107 10158 20140 30056 40146 55001 70522 886//==
85586,2016,03,05,00,00,AAXX 05004 85586 14240 83104 10162 20147 30063 40153 52007 60001 70522 886// 333 10177 567// 88706=
85586,2016,03,05,03,00,AAXX 05034 85586 NIL=
85586,2016,03,05,06,00,AAXX 05064 85586 NIL=
85586,2016,03,05,09,00,AAXX 05094 85586 NIL=
85586,2016,03,05,12,00,AAXX 05124 85586 14456 80603 10159 20132 30062 40152 51011 60001 70522 885// 333 20138 30/// 55014 567// 70000 88612=
85586,2016,03,05,15,00,AAXX 05154 85586 41456 83404 10173 20135 30065 40155 50004 70522 885//==
85586,2016,03,05,18,00,AAXX 05184 85586 14456 52709 10198 20140 30065 40154 55000 60001 70522 85500 333 567// 85615=
85586,2016,03,05,21,00,AAXX 05214 85586 41458 62907 10177 20137 30057 40147 56008 70522 87500==
85586,2016,03,06,00,00,AAXX 06004 85586 14456 82604 10164 20134 30063 40153 53006 60001 70522 885// 333 10202 567// 88614=
85586,2016,03,06,03,00,AAXX 06034 85586 NIL=
85586,2016,03,06,06,00,AAXX 06064 85586 NIL=
85586,2016,03,06,09,00,AAXX 06094 85586 NIL=
85586,2016,03,06,12,00,AAXX 06124 85586 14560 80000 10159 20119 30084 40175 53015 60001 70222 885// 333 20154 30/// 55025 70000 88620=
85586,2016,03,06,15,00,AAXX 06154 85586 42560 82906 10177 20120 30094 40184 53010 885// 333 88622==
85586,2016,03,06,18,00,AAXX 06184 85586 14560 62608 10198 20129 30093 40182 54000 60001 70222 86500 333 566// 86628=
85586,2016,03,06,21,00,AAXX 06214 85586 42960 42512 10180 20129 30084 40174 56008=
85586,2016,03,07,00,00,AAXX 07004 85586 14960 22405 10152 20132 30082 40173 55002 60001 70111 80002 333 10201 56//6 82073=
85586,2016,03,07,03,00,AAXX 07034 85586 NIL=
85586,2016,03,07,06,00,AAXX 07064 85586 NIL=
85586,2016,03,07,09,00,AAXX 07094 85586 NIL=
85586,2016,03,07,12,00,AAXX 07124 85586 14560 80000 10156 20128 30079 40170 52008 60001 70222 885// 333 20133 30/// 55028 70000 88620=
85586,2016,03,07,15,00,AAXX 07154 85586 42560 82706 10182 20125 30082 40172 52003 885//==
85586,2016,03,07,18,00,AAXX 07184 85586 44560 52807 10192 20135 30082 40171 50001 70122 85500 333 567// 85629=
85586,2016,03,07,21,00,AAXX 0721/ 85586 42960 4//// 10197 20142 30076 40165 58007 84130==
85586,2016,03,08,00,00,AAXX 08004 85586 14460 42303 10158 20135 30085 40176 52010 60001 70300 84500 333 10200 566// 84612=
85586,2016,03,08,03,00,AAXX 08034 85586 NIL=
85586,2016,03,08,06,00,AAXX 08064 85586 NIL=
85586,2016,03,08,09,00,AAXX 08094 85586 NIL=
85586,2016,03,08,12,00,AAXX 08124 85586 14460 80903 10150 20131 30087 40178 55008 60001 70222 885// 333 20102 30/// 55036 70000 88611=
85586,2016,03,08,15,00,AAXX 08154 85586 42460 82506 10170 20138 30092 40182 52004 885//==
85586,2016,03,08,18,00,AAXX 08184 85586 44960 02511 10195 20140 30083 40172 56008 70000 80000=
85586,2016,03,08,21,00,AAXX 08214 85586 42360 22509 10188 20147 30075 40165 56007 82500==
85586,2016,03,09,00,00,AAXX 09004 85586 14960 00205 10163 20134 30075 40165 53001 60001 70200 80000 333 10197=
85586,2016,03,09,03,00,AAXX 09034 85586 NIL=
85586,2016,03,09,06,00,AAXX 09064 85586 NIL=
85586,2016,03,09,09,00,AAXX 09094 85586 NIL=
85586,2016,03,09,12,00,AAXX 09124 85586 14960 01103 10141 20122 30062 40153 51002 60001 70200 80000 333 20087 30/// 55072 70000=
85586,2016,03,09,15,00,AAXX 09154 85586 42960 02509 10204 20130 30060 40149 56002==
85586,2016,03,09,18,00,AAXX 09184 85586 14960 02514 10204 20148 30055 40144 58006 60001 70200 80000=
85586,2016,03,09,21,00,AAXX 09214 85586 42960 02708 10195 20146 30046 40135 55008==
85586,2016,03,10,00,00,AAXX 10004 85586 14358 23505 10160 20140 30051 40141 52005 60001 70500 82600 333 10217 567// 82709=
85586,2016,03,10,03,00,AAXX 10034 85586 NIL=
85586,2016,03,10,06,00,AAXX 10064 85586 NIL=
85586,2016,03,10,09,00,AAXX 10094 85586 NIL=
85586,2016,03,10,12,00,AAXX 10124 85586 14120 83404 10146 20140 30064 40155 53017 60001 71044 886// 333 20129 30/// 55111 567// 70000 88702=
85586,2016,03,10,15,00,AAXX 10154 85586 41340 83104 10158 20138 30075 40165 52012 70522 885//==
85586,2016,03,10,18,00,AAXX 10184 85586 44456 82906 10177 20139 30073 40163 57002 70522 885// 333 567// 88611=
85586,2016,03,10,21,00,AAXX 10214 85586 NIL=
85586,2016,03,11,00,00,AAXX 11004 85586 14456 82304 10163 20138 30070 40160 53001 60001 70522 885// 333 10184 567// 88611=
85586,2016,03,11,03,00,AAXX 11034 85586 NIL=
85586,2016,03,11,06,00,AAXX 11064 85586 NIL=
85586,2016,03,11,09,00,AAXX 11094 85586 NIL=
85586,2016,03,11,12,00,AAXX 11124 85586 14440 8//// 10155 20135 30074 40165 53013 60001 70522 885// 333 20153 30/// 55000 567// 70000 88610=
85586,2016,03,11,15,00,AAXX 11154 85586 41456 82803 10176 20138 30073 40163 52002 70522 885//==
85586,2016,03,11,18,00,AAXX 11184 85586 14458 82706 10178 20138 30070 40160 58004 60001 70522 885// 333 567// 88712=
85586,2016,03,11,21,00,AAXX 11214 85586 NIL=
85586,2016,03,12,00,00,AAXX 12004 85586 14440 82504 10160 20133 30056 40146 53001 60001 70522 885// 333 10193 567// 88611=
85586,2016,03,12,03,00,AAXX 12034 85586 NIL=
85586,2016,03,12,06,00,AAXX 12064 85586 NIL=
85586,2016,03,12,09,00,AAXX 12094 85586 NIL=
85586,2016,03,12,12,00,AAXX 12124 85586 14440 80305 10158 20140 30070 40160 53018 69901 75052 886// 333 20156 31/// 55000 79999 88710=
85586,2016,03,12,15,00,AAXX 12154 85586 41457 83305 10171 20144 30089 40179 51018 70522 885// 333 88612==
85586,2016,03,12,18,00,AAXX 12184 85586 NIL=
85586,2016,03,12,21,00,AAXX 12214 85586 NIL=
85586,2016,03,13,00,00,AAXX 13004 85586 14960 02103 10155 20144 30083 40174 52001 60001 70200 80000 333 10207=
85586,2016,03,13,12,00,AAXX 13124 85586 14440 80000 10154 20143 30083 40174 53015 69901 71022 886// 333 20105 30/// 55041 79999 88710=
85586,2016,03,13,15,00,AAXX 13154 85586 41457 82704 10171 20146 30092 40182 52010 70522 886// 333 88710==
85586,2016,03,13,18,00,AAXX 13184 85586 14460 82609 10197 20148 30083 40172 58008 60001 70222 885// 333 566// 82612 88617=
85586,2016,03,13,21,00,AAXX 13214 85586 42960 22412 10186 20143 30070 40160 56013 81501==
85586,2016,03,14,00,00,AAXX 14004 85586 14960 32506 10155 20134 30073 40164 53003 60001 70211 80001 333 10203 56//6 83075=
85586,2016,03,14,03,00,AAXX 14034 85586 NIL=
85586,2016,03,14,06,00,AAXX 14064 85586 NIL=
85586,2016,03,14,09,00,AAXX 14094 85586 NIL=
85586,2016,03,14,12,00,AAXX 14124 85586 14140 80000 10144 20138 30063 40154 52013 60001 71022 886// 333 20142 30/// 55034 70000 88703=
85586,2016,03,14,15,00,AAXX 14154 85586 41230 82904 10153 20140 30077 40168 53015 71022 886//==
85586,2016,03,14,18,00,AAXX 14184 85586 44257 82604 10167 20140 30072 40162 57005 70522 885// 333 567// 88605=
85586,2016,03,14,21,00,AAXX 14214 85586 41256 82406 10155 20141 30068 40159 55004 70522 886//==
85586,2016,03,15,00,00,AAXX 15004 85586 14250 82705 10149 20140 30069 40160 52001 60001 71022 886// 333 10171 88704=
85586,2016,03,15,03,00,AAXX 15034 85586 NIL=
85586,2016,03,15,06,00,AAXX 15064 85586 NIL=
85586,2016,03,15,09,00,AAXX 15094 85586 NIL=
85586,2016,03,15,12,00,AAXX 15124 85586 14240 80000 10137 20126 30069 40160 53010 60001 71022 886// 333 20136 30/// 55034 567// 70000 88704=
85586,2016,03,15,15,00,AAXX 15154 85586 NIL=
85586,2016,03,15,18,00,AAXX 15184 85586 44357 83107 10175 20141 30070 40160 56004 70522 885// 333 567// 88607=
85586,2016,03,15,21,00,AAXX 15214 85586 41358 82806 10158 20138 30062 40152 56009 70522 885//==
85586,2016,03,16,00,00,AAXX 16004 85586 14456 83503 10159 20136 30063 40153 52001 60001 70522 885// 333 10188 567// 88610=
85586,2016,03,16,03,00,AAXX 16034 85586 NIL=
85586,2016,03,16,06,00,AAXX 16064 85586 NIL=
85586,2016,03,16,09,00,AAXX 16094 85586 NIL=
85586,2016,03,16,12,00,AAXX 16124 85586 14106 8//// 10126 20123 30031 40122 53010 60001 74244 886// 333 20109 30/// 55020 567// 70000 88702=
85586,2016,03,16,15,00,AAXX 16154 85586 41456 83307 10162 20135 30054 40144 53022 70522 885//==
85586,2016,03,16,18,00,AAXX 16184 85586 14458 72911 10185 20144 30057 40146 51003 60001 70522 82501 333 567/6 82611 86075=
85586,2016,03,16,21,00,AAXX 16214 85586 NIL=
85586,2016,03,17,00,00,AAXX 17004 85586 14456 82905 10173 20144 30064 40154 53009 60001 70522 885// 333 10201 567// 88612=
85586,2016,03,17,12,00,AAXX 17124 85586 14456 82303 10167 20137 30088 40178 52027 60001 70522 885// 333 20164 30/// 55018 567// 70000 88617=
85586,2016,03,17,15,00,AAXX 17154 85586 41556 82604 10176 20130 30107 40197 51019 70522 885//==
85586,2016,03,17,18,00,AAXX 17184 85586 44558 72510 10202 20123 30099 40188 58008 70522 87500 333 567// 87633=
85586,2016,03,17,21,00,AAXX 17214 85586 NIL=
85586,2016,03,18,00,00,AAXX 18004 85586 14958 02304 10151 20111 30081 40172 55003 60001 70500 80000 333 10207=
85586,2016,03,18,03,00,AAXX 18034 85586 NIL=
85586,2016,03,18,12,00,AAXX 18124 85586 14960 00903 10132 20104 30062 40153 52006 60001 70200 80000 333 20091 30/// 55052 70000=
85586,2016,03,18,15,00,AAXX 18154 85586 42960 02007 10211 20107 30056 40145 57005==
85586,2016,03,18,18,00,AAXX 18184 85586 44960 02314 10198 20106 30048 40137 58009 70000 80000=
85586,2016,03,18,21,00,AAXX 18214 85586 42960 02413 10183 20097 30040 40129 57008==
85586,2016,03,19,00,00,AAXX 19004 85586 14960 03604 10150 20112 30045 40135 53005 60001 70200 80000 333 10212=
85586,2016,03,19,03,00,AAXX 19034 85586 NIL=
85586,2016,03,19,06,00,AAXX 19064 85586 NIL=
85586,2016,03,19,09,00,AAXX 19094 85586 NIL=
85586,2016,03,19,12,00,AAXX 19124 85586 14360 70904 10127 20114 30048 40139 53013 60001 70222 87500 333 20076 30/// 55105 566// 70000 87608=
85586,2016,03,19,15,00,AAXX 19154 85586 42460 63107 10171 20133 30059 40149 51011 87500==
85586,2016,03,19,18,00,AAXX 19184 85586 14460 83009 10188 20137 30061 40151 52002 60001 70222 885// 333 88613=
85586,2016,03,19,21,00,AAXX 19214 85586 42460 63007 10172 20130 30056 40146 58004 86500==
85586,2016,03,20,00,00,AAXX 20004 85586 14460 83303 10161 20131 30059 40149 53003 60001 70222 885// 333 10193 88613=
85586,2016,03,20,03,00,AAXX 20034 85586 NIL=
85586,2016,03,20,06,00,AAXX 20064 85586 NIL=
85586,2016,03,20,09,00,AAXX 20094 85586 NIL=
85586,2016,03,20,12,00,AAXX 20124 85586 14457 81203 10142 20119 30060 40151 53006 60001 70522 886// 333 20141 30/// 55035 70000 88710=
85586,2016,03,20,15,00,AAXX 20154 85586 42560 02706 10175 20123 30064 40154 51005 81500==
85586,2016,03,20,18,00,AAXX 20184 85586 14460 52709 10175 20131 30071 40160 53006 60001 70300 85500 333 566// 85612=
85586,2016,03,20,21,00,AAXX 20214 85586 42460 62808 10171 20131 30070 40160 54000 86500==
85586,2016,03,21,00,00,AAXX 21004 85586 14460 83304 10161 20127 30074 40164 51003 60001 70222 885// 333 10186 88615=
85586,2016,03,21,03,00,AAXX 21034 85586 NIL=
85586,2016,03,21,06,00,AAXX 21064 85586 NIL=
85586,2016,03,21,09,00,AAXX 21094 85586 NIL=
85586,2016,03,21,12,00,AAXX 21124 85586 14440 8//// 10140 20115 30075 40166 53010 60001 70522 885// 333 20138 30/// 55059 567// 70000 88611=
85586,2016,03,21,15,00,AAXX 21154 85586 41456 82705 10156 20120 30086 40177 51011 70522 885//==
85586,2016,03,21,18,00,AAXX 21184 85586 44956 02707 10174 20122 30084 40174 58002 70511 80000=
85586,2016,03,21,21,00,AAXX 21214 85586 41457 82607 10160 20126 30086 40177 52003 70500 885//==
85586,2016,03,22,00,00,AAXX 22004 85586 14340 82804 10147 20128 30087 40178 50001 60001 70522 886// 333 10184 567// 88707=
85586,2016,03,22,03,00,AAXX 22034 85586 NIL=
85586,2016,03,22,06,00,AAXX 22064 85586 NIL=
85586,2016,03,22,09,00,AAXX 22094 85586 NIL=
85586,2016,03,22,12,00,AAXX 22124 85586 14106 80000 10121 20116 30058 40150 53001 60001 74244 886// 333 20117 30/// 55037 567// 70000 88701=
85586,2016,03,22,15,00,AAXX 2215/ 85586 41357 0//// 10170 20126 30056 40146 58003 70500 81500==
85586,2016,03,22,18,00,AAXX 22184 85586 44140 82907 10151 20128 30050 40141 58005 70511 885// 333 567// 88703=
85586,2016,03,22,21,00,AAXX 22214 85586 41350 83206 10165 20140 30046 40136 55004 70522 885//==
85586,2016,03,23,00,00,AAXX 23004 85586 14456 53403 10157 20139 30045 40135 53000 60001 70522 85500 333 10178 567// 85611=
85586,2016,03,23,03,00,AAXX 23034 85586 NIL=
85586,2016,03,23,09,00,AAXX 23094 85586 NIL=
85586,2016,03,23,12,00,AAXX 23124 85586 14456 80504 10157 20121 30067 40157 53013 60001 70522 885// 333 20130 30/// 55035 567// 70000 88617=
85586,2016,03,23,15,00,AAXX 23154 85586 41556 42706 10181 20124 30075 40165 51009 70522=
85586,2016,03,23,18,00,AAXX 23184 85586 14456 22610 10188 20133 30074 40163 58001 60001 70500 82500 333 567// 82616=
85586,2016,03,23,21,00,AAXX 23214 85586 NIL=
85586,2016,03,24,00,00,AAXX 24004 85586 14456 82505 10158 20137 30074 40164 53007 60001 70522 885// 333 10201 567// 88610=
85586,2016,03,24,03,00,AAXX 24034 85586 NIL=
85586,2016,03,24,06,00,AAXX 24064 85586 NIL=
85586,2016,03,24,09,00,AAXX 24094 85586 NIL=
85586,2016,03,24,12,00,AAXX 24124 85586 14350 80306 10150 20131 30070 40161 51011 60001 70522 886// 333 20144 30/// 55059 70000 88707=
85586,2016,03,24,15,00,AAXX 24154 85586 NIL=
85586,2016,03,24,18,00,AAXX 24184 85586 44456 82906 10185 20138 30070 40160 58004 70522 885// 333 567// 88615=
85586,2016,03,24,21,00,AAXX 24214 85586 41957 62305 10171 20148 30058 40148 56012 70511 86530==
85586,2016,03,25,00,00,AAXX 25004 85586 14460 82604 10157 20141 30055 40145 57003 60001 70222 885// 333 10194 88616=
85586,2016,03,25,03,00,AAXX 25034 85586 NIL=
85586,2016,03,25,06,00,AAXX 25064 85586 NIL=
85586,2016,03,25,09,00,AAXX 25094 85586 NIL=
85586,2016,03,25,12,00,AAXX 25124 85586 14240 80703 10142 20129 30033 40124 53010 60001 71022 886// 333 20138 30/// 55000 70000 88706=
85586,2016,03,25,15,00,AAXX 25154 85586 NIL=
85586,2016,03,25,18,00,AAXX 25184 85586 44357 62508 10175 20141 30018 40108 58014 70500 86500 333 566// 86607=
85586,2016,03,25,21,00,AAXX 25214 85586 41357 42707 10172 20143 30009 40098 55009 70511 84500==
85586,2016,03,26,00,00,AAXX 26004 85586 14460 72604 10162 20137 30020 40110 52011 60001 70222 87500 333 10189 566// 87611=
85586,2016,03,26,03,00,AAXX 26034 85586 NIL=
85586,2016,03,26,06,00,AAXX 26064 85586 NIL=
85586,2016,03,26,09,00,AAXX 26094 85586 NIL=
85586,2016,03,26,12,00,AAXX 26124 85586 14460 70606 10146 20121 30043 40134 53007 60001 70222 87500 333 20113 30/// 55074 566// 70000 87615=
85586,2016,03,26,15,00,AAXX 26154 85586 42560 83105 10165 20131 30074 40164 53031 885//==
85586,2016,03,26,18,00,AAXX 26184 85586 14460 83004 10176 20142 30071 40161 58002 60001 72222 885// 333 566// 82613 88618=
85586,2016,03,26,21,00,AAXX 26214 85586 42960 62906 10186 20137 30069 40159 58002 87502==
85586,2016,03,27,00,00,AAXX 27004 85586 14960 31403 10139 20125 30071 40162 52002 60001 70122 80002 333 10201 56//6 83070=
85586,2016,03,27,03,00,AAXX 27034 85586 NIL=
85586,2016,03,27,06,00,AAXX 27064 85586 NIL=
85586,2016,03,27,09,00,AAXX 27094 85586 NIL=
85586,2016,03,27,12,00,AAXX 27124 85586 14456 8//// 10142 20128 30083 40174 51012 60001 70522 885// 333 20090 30/// 55007 567// 70000 88614=
85586,2016,03,27,15,00,AAXX 27154 85586 41456 82408 10166 20132 30090 40180 52007 70500 885//==
85586,2016,03,27,18,00,AAXX 27184 85586 14456 42608 10189 20134 30084 40174 58006 60001 70522 84500 333 567// 81617 84620=
85586,2016,03,27,21,00,AAXX 27214 85586 41458 42609 10171 20137 30081 40171 57003 70511 84500==
85586,2016,03,28,00,00,AAXX 28004 85586 14440 82505 10157 20134 30082 40173 51002 60001 70522 885// 333 10201 567// 88610=
85586,2016,03,28,03,00,AAXX 28034 85586 NIL=
85586,2016,03,28,06,00,AAXX 28064 85586 NIL=
85586,2016,03,28,09,00,AAXX 28094 85586 NIL=
85586,2016,03,28,12,00,AAXX 28124 85586 14356 8//// 10145 20127 30083 40174 53009 60001 70522 886// 333 20141 30/// 55034 567// 70000 88709=
85586,2016,03,28,15,00,AAXX 28154 85586 NIL=
85586,2016,03,28,18,00,AAXX 28184 85586 NIL=
85586,2016,03,28,21,00,AAXX 28214 85586 41456 82504 10161 20127 30061 40151 58012 70522 885//==
85586,2016,03,29,00,00,AAXX 29004 85586 14440 82903 10152 20129 30063 40154 55002 60001 70522 885// 333 10167 567// 88610=
85586,2016,03,29,03,00,AAXX 29034 85586 NIL=
85586,2016,03,29,06,00,AAXX 29064 85586 NIL=
85586,2016,03,29,09,00,AAXX 29094 85586 NIL=
85586,2016,03,29,12,00,AAXX 29124 85586 14340 80404 10144 20130 30072 40163 52014 60001 70522 886// 333 20142 30/// 55000 567// 70000 88708=
85586,2016,03,29,15,00,AAXX 29154 85586 41456 83006 10160 20131 30088 40179 51018 70522 885//==
85586,2016,03,29,18,00,AAXX 29184 85586 44120 82807 10154 20141 30094 40185 50005 71022 886// 333 567// 85703 88706=
85586,2016,03,29,21,00,AAXX 29214 85586 41350 82306 10155 20134 30086 40177 58007 70522 885//==
85586,2016,03,30,00,00,AAXX 30004 85586 14540 80000 10157 20134 30081 40172 57006 69901 70522 885// 333 10167 567// 88623=
85586,2016,03,30,03,00,AAXX 30034 85586 NIL=
85586,2016,03,30,06,00,AAXX 30064 85586 NIL=
85586,2016,03,30,09,00,AAXX 30094 85586 NIL=
85586,2016,03,30,12,00,AAXX 30124 85586 14560 82203 10158 20124 30079 40170 52004 60001 70222 885// 333 20152 30/// 55000 79999 88620=
85586,2016,03,30,15,00,AAXX 30154 85586 42460 82510 10173 20123 30085 40175 51006 885// 333 88619==
85586,2016,03,30,18,00,AAXX 30184 85586 14560 62206 10192 20128 30094 40184 52009 60001 70222 84530 333 5666/ 84620 83365=
85586,2016,03,30,21,00,AAXX 30214 85586 42960 62606 10182 20131 30100 40190 51006 86001==
85586,2016,03,31,00,00,AAXX 31004 85586 14960 11203 10130 20112 30100 40192 54001 60001 70111 80001 333 10195 56//6 81075=
85586,2016,03,31,03,00,AAXX 31034 85586 NIL=
85586,2016,03,31,06,00,AAXX 31064 85586 NIL=
85586,2016,03,31,09,00,AAXX 31094 85586 NIL=
85586,2016,03,31,12,00,AAXX 31124 85586 14960 52703 10130 20116 30074 40165 58006 60001 70222 80001 333 20099 30/// 55017 56//6 70000 85071=
85586,2016,03,31,15,00,AAXX 31154 85586 42960 42507 10188 20141 30070 40160 58004=
85586,2016,03,31,18,00,AAXX 31184 85586 44960 42412 10190 20147 30062 40151 58011 70211 80002 333 56//6 84071=
85586,2016,03,31,21,00,AAXX 31214 85586 42960 62508 10188 20143 30050 40139 57013 86002==
85586,2016,04,01,00,00,AAXX 01004 85586 14960 50404 10160 20140 30055 40145 53005 60001 70222 80002 333 10200 56//6 85074=
85586,2016,04,01,03,00,AAXX 01034 85586 NIL=
85586,2016,04,01,06,00,AAXX 01064 85586 NIL=
85586,2016,04,01,09,00,AAXX 01094 85586 NIL=
85586,2016,04,01,12,00,AAXX 01124 85586 14960 81203 10124 20118 30065 40156 52013 60001 70222 85032 333 20121 30/// 55018 56/66 70000 85365 84071=
85586,2016,04,01,15,00,AAXX 01154 85586 42360 43007 10186 20143 30081 40171 52015=
85586,2016,04,01,18,00,AAXX 01184 85586 44960 52606 10176 20121 30081 40171 52001 70211 80002 333 56//6 85073=
85586,2016,04,01,21,00,AAXX 01214 85586 42960 42605 10162 20133 30086 40176 53006=
85586,2016,04,02,00,00,AAXX 02004 85586 14460 50000 10141 20122 30091 40182 53004 60001 70222 82502 333 10200 566/6 82618 85073=
85586,2016,04,02,12,00,AAXX 02124 85586 14456 80000 10146 20123 30094 40185 52003 60001 70522 885// 333 20111 30/// 55035 567// 70000 88616=
85586,2016,04,02,15,00,AAXX 02154 85586 41658 82405 10165 20121 30090 40180 58004 70522 885//==
85586,2016,04,02,18,00,AAXX 02184 85586 14960 62411 10179 20126 30071 40161 56020 60001 70122 80001 333 56//6 86075=
85586,2016,04,02,21,00,AAXX 02214 85586 42960 22409 10167 20125 30068 40158 55003 83001==
85586,2016,04,03,00,00,AAXX 03004 85586 14956 30000 10131 20112 30065 40156 58003 60001 70500 80001 333 10188 56//6 83075=
85586,2016,04,03,03,00,AAXX 03034 85586 NIL=
85586,2016,04,03,06,00,AAXX 03064 85586 NIL=
85586,2016,04,03,09,00,AAXX 03094 85586 NIL=
85586,2016,04,03,12,00,AAXX 03124 85586 14440 80603 10137 20123 30067 40158 53019 60001 75022 886// 333 20104 30/// 55042 567// 70000 88710=
85586,2016,04,03,15,00,AAXX 03154 85586 NIL=
85586,2016,04,03,18,00,AAXX 03184 85586 14660 83310 10172 20115 30107 40197 51015 69901 70122 885// 333 567// 88633=
85586,2016,04,03,21,00,AAXX 03214 85586 NIL=
85586,2016,04,04,00,00,AAXX 04004 85586 14658 82602 10155 20111 30117 40208 51007 60001 70522 885// 333 10179 567// 88643=
85586,2016,04,04,12,00,AAXX 04124 85586 14560 5//// 10114 20105 30115 40207 51008 60001 70122 85500 333 20069 30/// 55000 567// 79999 85631=
85586,2016,04,04,15,00,AAXX 04154 85586 NIL=
85586,2016,04,04,18,00,AAXX 04184 85586 44960 12416 10185 20121 30100 40190 58015 70100 80001 333 56//6 81073=
85586,2016,04,04,21,00,AAXX 04214 85586 42960 62412 10169 20129 30087 40177 56014 86002==
85586,2016,04,05,00,00,AAXX 05004 85586 14956 30904 10139 20120 30082 40173 55006 60001 70511 80001 333 10193 56//6 83075=
85586,2016,04,05,03,00,AAXX 05034 85586 NIL=
85586,2016,04,05,06,00,AAXX 05064 85586 NIL=
85586,2016,04,05,09,00,AAXX 05094 85586 NIL=
85586,2016,04,05,12,00,AAXX 05124 85586 14957 51402 10083 20077 30051 40144 50001 60001 70511 80001 333 20076 30/// 55086 56//6 70000 85073=
85586,2016,04,05,15,00,AAXX 05154 85586 42960 62605 10160 20122 30055 40145 53003 87002==
85586,2016,04,05,18,00,AAXX 05184 85586 44960 80306 10159 20121 30063 40153 51005 70222 83032 333 56/67 83363 88071=
85586,2016,04,05,21,00,AAXX 05214 85586 42460 42304 10163 20133 30073 40163 53010 82531 333 56667 82610 84365 82075==
85586,2016,04,06,00,00,AAXX 06004 85586 14960 00000 10136 20123 30052 40143 56021 60001 70111 80000 333 10182=
85586,2016,04,06,03,00,AAXX 06034 85586 NIL=
85586,2016,04,06,06,00,AAXX 06064 85586 NIL=
85586,2016,04,06,09,00,AAXX 06094 85586 NIL=
85586,2016,04,06,12,00,AAXX 06124 85586 14120 82803 10141 20136 30058 40149 53012 69901 75022 886// 333 20101 31/// 55024 79999 88703=
85586,2016,04,06,15,00,AAXX 06154 85586 42560 63007 10165 20125 30071 40161 50012 87500==
85586,2016,04,06,18,00,AAXX 06184 85586 14960 32909 10183 20130 30071 40161 52001 60001 70111 80001 333 56//6 83072=
85586,2016,04,06,21,00,AAXX 06214 85586 42960 22908 10187 20121 30078 40168 51007 83002==
85586,2016,04,07,00,00,AAXX 07004 85586 14960 70000 10139 20112 30089 40180 52011 60001 70311 80002 333 10192 56//6 87070=
85586,2016,04,07,03,00,AAXX 07034 85586 NIL=
85586,2016,04,07,06,00,AAXX 07064 85586 NIL=
85586,2016,04,07,09,00,AAXX 07094 85586 NIL=
85586,2016,04,07,12,00,AAXX 07124 85586 14560 71403 10132 20104 30076 40167 50006 60001 70222 81530 333 20115 30/// 55060 5666/ 70000 81625 87367=
85586,2016,04,07,15,00,AAXX 07154 85586 42960 42104 10187 20109 30085 40175 50009 84030==
85586,2016,04,07,18,00,AAXX 07184 85586 44960 32412 10194 20136 30068 40157 58018 70100 80002 333 56//7 83073=
85586,2016,04,07,21,00,AAXX 07214 85586 42960 22411 10173 20139 30061 40151 55008 83001==
85586,2016,04,08,00,00,AAXX 08004 85586 14960 70903 10149 20128 30053 40144 53007 60001 70222 85032 333 10210 56/66 85365 85070=
85586,2016,04,08,03,00,AAXX 08034 85586 NIL=
85586,2016,04,08,06,00,AAXX 08064 85586 NIL=
85586,2016,04,08,09,00,AAXX 08094 85586 NIL=
85586,2016,04,08,12,00,AAXX 08124 85586 14257 81203 10117 20112 30061 40153 53012 69901 71022 886// 333 20095 31/// 55050 566// 79999 88705=
85586,2016,04,08,15,00,AAXX 08154 85586 42460 43105 10157 20121 30076 40167 51015 84500==
85586,2016,04,08,18,00,AAXX 08184 85586 44960 02414 10170 20107 30072 40162 58004 70011 80000=
85586,2016,04,08,21,00,AAXX 08214 85586 42960 02512 10155 20113 30070 40161 55001==
85586,2016,04,09,00,00,AAXX 09004 85586 14458 22604 10131 20108 30078 40169 53005 60001 70500 82500 333 10185 567// 82614=
85586,2016,04,09,03,00,AAXX 09034 85586 NIL=
85586,2016,04,09,06,00,AAXX 09064 85586 NIL=
85586,2016,04,09,09,00,AAXX 09094 85586 NIL=
85586,2016,04,09,12,00,AAXX 09124 85586 14960 01202 10086 20083 30084 40177 51009 60001 70200 80000 333 20056 30/// 55078 70000=
85586,2016,04,09,15,00,AAXX 09154 85586 42960 02906 10154 20096 30097 40188 51016==
85586,2016,04,09,18,00,AAXX 09184 85586 14960 02610 10163 20111 30094 40184 57003 60001 70200 80000=
85586,2016,04,09,21,00,AAXX 09214 85586 42960 02514 10157 20117 30093 40184 55002==
85586,2016,04,10,00,00,AAXX 10004 85586 14958 01002 10114 20093 30100 40192 53007 60001 70500 80000 333 10172=
85586,2016,04,10,03,00,AAXX 10034 85586 NIL=
85586,2016,04,10,12,00,AAXX 10124 85586 14960 51905 10097 20075 30072 40164 55003 60001 70211 80001 333 20046 30/// 55096 56//6 70000 85075=
85586,2016,04,10,15,00,AAXX 10154 85586 42960 61706 10178 20087 30067 40157 58005 87001==
85586,2016,04,10,18,00,AAXX 10184 85586 14960 72412 10189 20108 30040 40129 58025 60001 70222 80001 333 56//6 87075=
85586,2016,04,10,21,00,AAXX 10214 85586 42960 62409 10170 20111 30032 40122 56011 87001==
85586,2016,04,11,00,00,AAXX 11004 85586 14956 4//// 10126 20103 30037 40128 53006 60001 70511 80001 333 10215 56//6 84075=
85586,2016,04,11,03,00,AAXX 11034 85586 NIL=
85586,2016,04,11,06,00,AAXX 11064 85586 NIL=
85586,2016,04,11,09,00,AAXX 11094 85586 NIL=
85586,2016,04,11,12,00,AAXX 11124 85586 14260 8//// 10126 20115 30043 40134 53013 60001 70222 886// 333 20079 30/// 55041 566// 70000 88705=
85586,2016,04,11,15,00,AAXX 11154 85586 42360 02405 10163 20123 30062 40152 51020 81500==
85586,2016,04,11,18,00,AAXX 11184 85586 44960 43015 10169 20129 30068 40158 51006 70100 80002 333 56//6 84073=
85586,2016,04,11,21,00,AAXX 11214 85586 NIL=
85586,2016,04,12,00,00,AAXX 12004 85586 14960 70000 10135 20122 30070 40161 53004 60001 70222 80002 333 10181 56//6 87072=
85586,2016,04,12,03,00,AAXX 12034 85586 NIL=
85586,2016,04,12,06,00,AAXX 12064 85586 NIL=
85586,2016,04,12,09,00,AAXX 12094 85586 NIL=
85586,2016,04,12,12,00,AAXX 12124 85586 14660 81004 10149 20124 30097 40188 51017 60001 70222 885// 333 20105 30/// 55046 70000 88637=
85586,2016,04,12,15,00,AAXX 12154 85586 42660 83607 10178 20114 30111 40201 51015 885//==
85586,2016,04,12,18,00,AAXX 12184 85586 44660 83108 10176 20136 30110 40200 50001 70222 885// 333 566// 86636 88647=
85586,2016,04,12,21,00,AAXX 12214 85586 42660 83205 10163 20121 30111 40202 50002 888//==
85586,2016,04,13,00,00,AAXX 13004 85586 14660 80000 10151 20121 30113 40204 50002 60001 70222 885// 333 10179 88641=
85586,2016,04,13,03,00,AAXX 13034 85586 NIL=
85586,2016,04,13,06,00,AAXX 13064 85586 NIL=
85586,2016,04,13,09,00,AAXX 13094 85586 NIL=
85586,2016,04,13,12,00,AAXX 13124 85586 14260 80904 10126 20113 30102 40194 52004 60001 70222 885// 333 20107 30/// 55000 566// 70000 82706 88625=
85586,2016,04,13,15,00,AAXX 13154 85586 42560 82904 10148 20127 30113 40204 53005 885//==
85586,2016,04,13,18,00,AAXX 13184 85586 44560 82305 10170 20128 30099 40189 57015 70222 8653/ 333 5666/ 82630 88360=
85586,2016,04,13,21,00,AAXX 13214 85586 NIL=
85586,2016,04,14,00,00,AAXX 14004 85586 NIL=
85586,2016,04,14,03,00,AAXX 14034 85586 NIL=
85586,2016,04,14,06,00,AAXX 14064 85586 NIL=
85586,2016,04,14,09,00,AAXX 14094 85586 NIL=
85586,2016,04,14,12,00,AAXX 14124 85586 NIL=
85586,2016,04,14,15,00,AAXX 1415/ 85586 42660 8//// 10173 20133 30045 40135 56002 885//==
85586,2016,04,14,18,00,AAXX 14184 85586 NIL=
85586,2016,04,14,21,00,AAXX 14214 85586 NIL=
85586,2016,04,15,00,00,AAXX 15004 85586 NIL=
85586,2016,04,15,15,00,AAXX 15154 85586 41456 83006 10169 20158 30034 40124 58011 70522=
85586,2016,04,15,21,00,AAXX 15214 85586 NIL=
85586,2016,04,16,03,00,AAXX 16034 85586 NIL=
85586,2016,04,16,06,00,AAXX 16064 85586 NIL=
85586,2016,04,16,09,00,AAXX 16094 85586 NIL=
85586,2016,04,16,12,00,AAXX 16124 85586 NIL=
85586,2016,04,16,15,00,AAXX 1615/ 85586 42960 4//// 10207 20176 30044 40133 53003=
85586,2016,04,16,18,00,AAXX 16184 85586 NIL=
85586,2016,04,16,21,00,AAXX 16214 85586 NIL=
85586,2016,04,17,00,00,AAXX 17004 85586 NIL=
85586,2016,04,17,03,00,AAXX 17034 85586 NIL=
85586,2016,04,17,06,00,AAXX 17064 85586 NIL=
85586,2016,04,17,09,00,AAXX 17094 85586 NIL=
85586,2016,04,17,12,00,AAXX 17124 85586 NIL=
85586,2016,04,17,15,00,AAXX 17154 85586 41358 80603 10149 20146 30087 40178 50021 76066 885// 333 88608==
85586,2016,04,17,21,00,AAXX 17214 85586 NIL=
85586,2016,04,18,00,00,AAXX 18004 85586 NIL=
85586,2016,04,18,03,00,AAXX 18034 85586 NIL=
85586,2016,04,18,06,00,AAXX 18064 85586 NIL=
85586,2016,04,18,09,00,AAXX 18094 85586 NIL=
85586,2016,04,18,12,00,AAXX 18124 85586 NIL=
85586,2016,04,18,15,00,AAXX 18154 85586 42460 22607 10162 20132 30093 40183 51014 83800==
85586,2016,04,18,18,00,AAXX 18184 85586 NIL=
85586,2016,04,18,21,00,AAXX 18214 85586 NIL=
85586,2016,04,19,00,00,AAXX 19004 85586 NIL=
85586,2016,04,19,03,00,AAXX 19034 85586 NIL=
85586,2016,04,19,06,00,AAXX 19064 85586 NIL=
85586,2016,04,19,09,00,AAXX 19094 85586 NIL=
85586,2016,04,19,12,00,AAXX 19124 85586 NIL=
85586,2016,04,19,15,00,AAXX 19154 85586 41156 82306 10124 20113 30133 40225 51008 71022 886//==
85586,2016,04,19,18,00,AAXX 19184 85586 NIL=
85586,2016,04,19,21,00,AAXX 19214 85586 NIL=
85586,2016,04,20,00,00,AAXX 20004 85586 NIL=
85586,2016,04,20,03,00,AAXX 20034 85586 NIL=
85586,2016,04,20,06,00,AAXX 20064 85586 NIL=
85586,2016,04,20,09,00,AAXX 20094 85586 NIL=
85586,2016,04,20,12,00,AAXX 20124 85586 NIL=
85586,2016,04,20,15,00,AAXX 2015/ 85586 42960 0//// 10166 20112 30089 40179 50010==
85586,2016,04,20,18,00,AAXX 20184 85586 NIL=
85586,2016,04,20,21,00,AAXX 20214 85586 NIL=
85586,2016,04,21,00,00,AAXX 21004 85586 NIL=
85586,2016,04,21,03,00,AAXX 21034 85586 NIL=
85586,2016,04,21,06,00,AAXX 21064 85586 NIL=
85586,2016,04,21,09,00,AAXX 21094 85586 NIL=
85586,2016,04,21,12,00,AAXX 21124 85586 NIL=
85586,2016,04,21,15,00,AAXX 2115/ 85586 42960 2//// 10189 20136 30076 40166 58005 82001==
85586,2016,04,21,21,00,AAXX 21214 85586 42/60 22508 10171 20129 30036 40126 56016 333 56//6 82073==
85586,2016,04,22,00,00,AAXX 22004 85586 NIL=
85586,2016,04,22,03,00,AAXX 22034 85586 NIL=
85586,2016,04,22,06,00,AAXX 22064 85586 NIL=
85586,2016,04,22,09,00,AAXX 22094 85586 NIL=
85586,2016,04,22,12,00,AAXX 22124 85586 NIL=
85586,2016,04,22,15,00,AAXX 22154 85586 41456 83306 10151 20128 30074 40165 51023 70522 886//==
85586,2016,04,22,21,00,AAXX 22214 85586 NIL=
85586,2016,04,23,00,00,AAXX 23004 85586 NIL=
85586,2016,04,23,03,00,AAXX 23034 85586 NIL=
85586,2016,04,23,06,00,AAXX 23064 85586 NIL=
85586,2016,04,23,09,00,AAXX 23094 85586 NIL=
85586,2016,04,23,12,00,AAXX 23124 85586 NIL=
85586,2016,04,23,15,00,AAXX 23154 85586 41450 83508 10145 20139 30065 40156 53017 76266 885//==
85586,2016,04,23,18,00,AAXX 23184 85586 NIL=
85586,2016,04,23,21,00,AAXX 23214 85586 NIL=
85586,2016,04,24,00,00,AAXX 24004 85586 NIL=
85586,2016,04,24,03,00,AAXX 24034 85586 NIL=
85586,2016,04,24,06,00,AAXX 24064 85586 NIL=
85586,2016,04,24,09,00,AAXX 24094 85586 NIL=
85586,2016,04,24,12,00,AAXX 24124 85586 NIL=
85586,2016,04,24,18,00,AAXX 24184 85586 NIL=
85586,2016,04,24,21,00,AAXX 24214 85586 NIL=
85586,2016,04,25,15,00,AAXX 25154 85586 NIL=
85586,2016,04,25,18,00,AAXX 25184 85586 NIL=
85586,2016,04,25,21,00,AAXX 25214 85586 NIL=
85586,2016,04,26,06,00,AAXX 26064 85586 NIL=
85586,2016,04,26,12,00,AAXX 26124 85586 14960 0//// 10071 20054 30088 40181 56003 60001 70200 80000 333 20056 31/// 55092 70000=
85586,2016,04,26,15,00,AAXX 26154 85586 NIL=
85586,2016,04,26,18,00,AAXX 26184 85586 44960 02411 10174 20103 30074 40164 56011 70000 80000=
85586,2016,04,26,21,00,AAXX 26214 85586 NIL=
85586,2016,04,27,00,00,AAXX 27004 85586 14958 0//// 10101 20079 30052 40144 55001 60001 70500 80000 333 10194=
85586,2016,04,27,03,00,AAXX 27034 85586 NIL=
85586,2016,04,27,06,00,AAXX 27064 85586 NIL=
85586,2016,04,27,09,00,AAXX 27094 85586 NIL=
85586,2016,04,27,12,00,AAXX 27124 85586 14960 71104 10086 20069 30045 40138 53013 60001 70222 80001 333 20061 31/// 55101 56//6 70000 87075=
85586,2016,04,27,15,00,AAXX 27154 85586 42/60 81403 10142 20093 30052 40143 52006 8803/ 333 56/6/ 88368==
85586,2016,04,27,18,00,AAXX 27184 85586 14960 63405 10161 20111 30049 40139 58001 60001 70122 80001 333 56//6 86075=
85586,2016,04,27,21,00,AAXX 27214 85586 42/60 63204 10146 20127 30055 40146 53006 87030 333 56/6/ 87365==
85586,2016,04,28,00,00,AAXX 28004 85586 14956 80904 10131 20125 30070 40161 51014 60001 70522 8803/ 333 10173 56/6/ 88365=
85586,2016,04,28,03,00,AAXX 28034 85586 NIL=
85586,2016,04,28,06,00,AAXX 28064 85586 NIL=
85586,2016,04,28,09,00,AAXX 28094 85586 NIL=
85586,2016,04,28,12,00,AAXX 28124 85586 14950 50803 10115 20112 30069 40161 50001 60001 70511 85030 333 20106 31/// 55018 56/6/ 70000 85365=
85586,2016,04,28,15,00,AAXX 28154 85586 42/60 43203 10164 20124 30083 40173 51014 84030 333 56/6/ 84365==
85586,2016,04,28,18,00,AAXX 28184 85586 44260 72509 10153 20133 30081 40172 53001 70111 87530 333 5666/ 83605 87362=
85586,2016,04,28,21,00,AAXX 28214 85586 42/60 62405 10149 20128 30085 40176 53004 86030 333 56/6/ 86363==
85586,2016,04,29,00,00,AAXX 29004 85586 14956 82303 10133 20124 30103 40195 52018 60001 70522 8803/ 333 10173 56/6/ 88365=
85586,2016,04,29,03,00,AAXX 29034 85586 NIL=
85586,2016,04,29,06,00,AAXX 29064 85586 NIL=
85586,2016,04,29,09,00,AAXX 29094 85586 NIL=
85586,2016,04,29,12,00,AAXX 29124 85586 14959 11202 10088 20085 30103 40196 51005 60001 70500 80001 333 20086 31/// 55017 56//6 70000 81073=
85586,2016,04,29,15,00,AAXX 29154 85586 42960 02406 10173 20136 30108 40198 51004==
85586,2016,04,29,18,00,AAXX 29184 85586 44960 02409 10179 20120 30090 40180 58018 70000 80000=
85586,2016,04,29,21,00,AAXX 29214 85586 NIL=
85586,2016,04,30,00,00,AAXX 30004 85586 14960 00303 10131 20110 30074 40165 55001 60001 70200 80000 333 10198=
85586,2016,04,30,03,00,AAXX 30034 85586 NIL=
85586,2016,04,30,06,00,AAXX 30064 85586 NIL=
85586,2016,04,30,09,00,AAXX 30094 85586 NIL=
85586,2016,04,30,12,00,AAXX 30124 85586 14960 51204 10115 20091 30034 40126 58004 60001 70300 80001 333 20081 31/// 55089 56//6 70000 85075=
85586,2016,04,30,15,00,AAXX 30154 85586 NIL=
85586,2016,04,30,18,00,AAXX 30184 85586 14960 62512 10194 20120 30005 40094 56028 60001 70222 80002 333 56//6 86072=
85586,2016,04,30,21,00,AAXX 30214 85586 NIL=
85586,2016,05,01,00,00,AAXX 01004 85586 14960 72705 10141 20127 30005 40095 53011 60001 70222 80002 333 10255 56//6 87070=
85586,2016,05,01,03,00,AAXX 01034 85586 NIL=
85586,2016,05,01,06,00,AAXX 01064 85586 NIL=
85586,2016,05,01,09,00,AAXX 01094 85586 NIL=
85586,2016,05,01,12,00,AAXX 01124 85586 14950 81903 10131 20122 30070 40161 52023 60001 71022 83032 333 20121 31/// 55056 56/6/ 70000 83362 88071=
85586,2016,05,01,15,00,AAXX 01154 85586 NIL=
85586,2016,05,01,18,00,AAXX 01184 85586 14560 82606 10161 20132 30084 40174 55005 60001 70222 8353/ 333 566// 83622 88366=
85586,2016,05,01,21,00,AAXX 01214 85586 NIL=
85586,2016,05,02,00,00,AAXX 02004 85586 14956 82404 10144 20135 30100 40191 53012 69901 70522 8803/ 333 10175 56/6/ 88365=
85586,2016,05,02,03,00,AAXX 02034 85586 NIL=
85586,2016,05,02,06,00,AAXX 02064 85586 NIL=
85586,2016,05,02,09,00,AAXX 02094 85586 NIL=
85586,2016,05,02,12,00,AAXX 02124 85586 14958 8//// 10144 20126 30090 40181 58004 69901 70522 8803/ 333 20012 31/// 55000 56/6/ 79999 88363=
85586,2016,05,02,15,00,AAXX 02154 85586 NIL=
85586,2016,05,02,18,00,AAXX 02184 85586 44960 62509 10174 20122 30089 40179 55009 70211 80002 333 56//6 86071=
85586,2016,05,02,21,00,AAXX 02214 85586 NIL=
85586,2016,05,03,00,00,AAXX 03004 85586 14956 50202 10139 20128 30086 40177 53003 60001 70511 85030 333 10214 56/6/ 85364=
85586,2016,05,03,03,00,AAXX 03034 85586 NIL=
85586,2016,05,03,06,00,AAXX 03064 85586 NIL=
85586,2016,05,03,09,00,AAXX 03094 85586 NIL=
85586,2016,05,03,12,00,AAXX 03124 85586 14956 00000 10100 20097 30077 40169 52001 60001 70500 80000 333 20094 31/// 55012 70000=
85586,2016,05,03,15,00,AAXX 03154 85586 42/60 22504 10182 20145 30071 40161 58005 333 56//6 82075==
85586,2016,05,03,18,00,AAXX 03184 85586 44960 03104 10210 20140 30054 40143 57017 70000 80000=
85586,2016,05,03,21,00,AAXX 03214 85586 NIL=
85586,2016,05,04,00,00,AAXX 04004 85586 14940 50504 10138 20127 30044 40135 51003 60001 70511 80001 333 10218 56//6 85075=
85586,2016,05,04,03,00,AAXX 04034 85586 NIL=
85586,2016,05,04,06,00,AAXX 04064 85586 NIL=
85586,2016,05,04,09,00,AAXX 04094 85586 NIL=
85586,2016,05,04,12,00,AAXX 04124 85586 14240 83603 10135 20127 30061 40152 57002 60001 71022 886// 333 20127 31/// 55081 567// 70000 88704=
85586,2016,05,04,15,00,AAXX 04154 85586 NIL=
85586,2016,05,04,18,00,AAXX 04184 85586 14356 82605 10150 20129 30066 40157 57011 60001 70522 886// 333 567// 88709=
85586,2016,05,04,21,00,AAXX 04214 85586 NIL=
85586,2016,05,05,00,00,AAXX 05004 85586 14406 8//// 10134 20129 30070 40161 50000 69901 75022 886// 333 10157 567// 88710=
85586,2016,05,05,03,00,AAXX 05034 85586 NIL=
85586,2016,05,05,06,00,AAXX 05064 85586 NIL=
85586,2016,05,05,09,00,AAXX 05094 85586 NIL=
85586,2016,05,05,12,00,AAXX 05124 85586 14450 80000 10140 20131 30084 40175 53012 69921 71022 885// 333 20134 31/// 55000 70002 88613=
85586,2016,05,05,15,00,AAXX 05154 85586 42560 80503 10155 20134 30094 40185 53014 885// 333 566// 83631 88656==
85586,2016,05,05,18,00,AAXX 05184 85586 14560 53006 10167 20127 30083 40173 56013 69901 70111 85530 333 5666/ 81624 85360=
85586,2016,05,05,21,00,AAXX 05214 85586 NIL=
85586,2016,05,06,00,00,AAXX 06004 85586 14660 80000 10142 20112 30109 40199 52019 60001 70222 885// 333 10178 88640=
85586,2016,05,06,03,00,AAXX 06034 85586 NIL=
85586,2016,05,06,06,00,AAXX 06064 85586 NIL=
85586,2016,05,06,09,00,AAXX 06094 85586 NIL=
85586,2016,05,06,12,00,AAXX 06124 85586 14940 50000 10092 20089 30087 40180 53002 60001 71011 80001 333 20088 31/// 55039 56//6 79999 85071=
85586,2016,05,06,15,00,AAXX 06154 85586 NIL=
85586,2016,05,06,18,00,AAXX 06184 85586 44960 42410 10171 20133 30075 40165 58012 70111 80002 333 56//6 84071=
85586,2016,05,06,21,00,AAXX 06214 85586 NIL=
85586,2016,05,07,00,00,AAXX 07004 85586 14960 00703 10121 20113 30070 40162 55002 60001 70200 80000 333 10176=
85586,2016,05,07,03,00,AAXX 07034 85586 NIL=
85586,2016,05,07,06,00,AAXX 07064 85586 NIL=
85586,2016,05,07,09,00,AAXX 07094 85586 NIL=
85586,2016,05,07,12,00,AAXX 07124 85586 14104 81003 10108 20107 30063 40155 50009 60001 74642 85601 333 20089 31/// 55027 566/6 70000 85702 83073=
85586,2016,05,07,15,00,AAXX 07154 85586 42260 82904 10133 20122 30078 40169 51016 886// 333 88706==
85586,2016,05,07,18,00,AAXX 07184 85586 14360 83303 10144 20123 30080 40171 50002 60001 70222 885// 333 85609 88613=
85586,2016,05,07,21,00,AAXX 07214 85586 NIL=
85586,2016,05,08,00,00,AAXX 08004 85586 14560 61103 10126 20105 30097 40189 52018 60001 70222 86500 333 10148 566// 86621=
85586,2016,05,08,03,00,AAXX 08034 85586 NIL=
85586,2016,05,08,06,00,AAXX 08064 85586 NIL=
85586,2016,05,08,09,00,AAXX 08094 85586 NIL=
85586,2016,05,08,12,00,AAXX 08124 85586 14958 5//// 10077 20074 30091 40184 55003 60001 70511 80001 333 20067 31/// 55000 56//6 70000 85075=
85586,2016,05,08,15,00,AAXX 0815/ 85586 41558 4//// 10143 20124 30088 40179 58002 70511=
85586,2016,05,08,18,00,AAXX 08184 85586 14558 22508 10171 20114 30065 40155 58022 60001 70511 82500 333 567// 82628=
85586,2016,05,08,21,00,AAXX 08214 85586 NIL=
85586,2016,05,09,00,00,AAXX 09004 85586 14956 7//// 10128 20115 30062 40153 52005 60001 70522 80001 333 10174 56//6 87075=
85586,2016,05,09,03,00,AAXX 09034 85586 NIL=
85586,2016,05,09,06,00,AAXX 09064 85586 NIL=
85586,2016,05,09,09,00,AAXX 09094 85586 NIL=
85586,2016,05,09,12,00,AAXX 09124 85586 14940 71203 10090 20087 30065 40158 51014 60001 71022 80001 333 20080 31/// 55061 56//6 70000 87075=
85586,2016,05,09,15,00,AAXX 09154 85586 41/56 83604 10141 20118 30076 40167 50011 70522 8801/ 333 56/6/ 88468==
85586,2016,05,09,18,00,AAXX 09184 85586 14356 73106 10154 20124 30072 40163 58002 60001 70522 82601 333 567/6 82707 87075=
85586,2016,05,09,21,00,AAXX 09214 85586 NIL=
85586,2016,05,10,00,00,AAXX 10004 85586 14956 8//// 10137 20121 30078 40169 51011 60001 70522 8801/ 333 10160 56/6/ 88467=
85586,2016,05,10,03,00,AAXX 10034 85586 NIL=
85586,2016,05,10,06,00,AAXX 10064 85586 NIL=
85586,2016,05,10,09,00,AAXX 10094 85586 NIL=
85586,2016,05,10,12,00,AAXX 10124 85586 14958 40803 10113 20107 30062 40154 56005 60001 70522 84030 333 20084 31/// 55020 56/6/ 70000 84367=
85586,2016,05,10,15,00,AAXX 10154 85586 NIL=
85586,2016,05,10,18,00,AAXX 10184 85586 14958 83006 10175 20118 30058 40148 56012 60001 70522 8803/ 333 56/6/ 88368=
85586,2016,05,10,21,00,AAXX 10214 85586 NIL=
85586,2016,05,11,00,00,AAXX 11004 85586 14956 8//// 10134 20116 30061 40152 55001 60001 70522 8803/ 333 10200 56/7/ 88368=
85586,2016,05,11,03,00,AAXX 11034 85586 NIL=
85586,2016,05,11,06,00,AAXX 11064 85586 NIL=
85586,2016,05,11,09,00,AAXX 11094 85586 NIL=
85586,2016,05,11,12,00,AAXX 11124 85586 14660 70606 10157 20115 30065 40155 51016 60001 70222 82571 333 20111 30/// 55020 56777 70000 82640 85360 81070=
85586,2016,05,11,15,00,AAXX 11154 85586 41457 83610 10148 20137 30106 40197 53039 76362 885// 333 566// 83612 88614==
85586,2016,05,11,18,00,AAXX 11184 85586 14460 80707 10163 20123 30098 40189 55008 60051 70266 8353/ 333 560// 81610 83650 88363=
85586,2016,05,11,21,00,AAXX 11214 85586 NIL=
85586,2016,05,12,00,00,AAXX 12004 85586 14860 21304 10146 20103 30115 40206 53010 60001 70211 82030 333 10193 56/6/ 82357=
85586,2016,05,12,03,00,AAXX 12034 85586 NIL=
85586,2016,05,12,09,00,AAXX 12094 85586 NIL=
85586,2016,05,12,12,00,AAXX 12124 85586 14960 31203 10083 20076 30109 40202 53006 60001 70200 80001 333 20081 31/// 55023 56//6 70048 83075=
85586,2016,05,12,15,00,AAXX 12154 85586 NIL=
85586,2016,05,12,18,00,AAXX 12184 85586 14960 62406 10153 20133 30086 40177 56020 60001 70222 80002 333 56//6 86074=
85586,2016,05,12,21,00,AAXX 12214 85586 NIL=
85586,2016,05,13,00,00,AAXX 13004 85586 14960 70000 10129 20124 30077 40168 57003 60001 70222 80002 333 10175 56//6 87070=
85586,2016,05,13,03,00,AAXX 13034 85586 NIL=
85586,2016,05,13,06,00,AAXX 13064 85586 NIL=
85586,2016,05,13,09,00,AAXX 13094 85586 NIL=
85586,2016,05,13,12,00,AAXX 13124 85586 14958 80903 10121 20110 30044 40135 58003 60001 70522 8807/ 333 20107 31/// 55031 56/6/ 70000 88364=
85586,2016,05,13,15,00,AAXX 13154 85586 42/// 82503 10145 20127 30044 40135 51001 8807/ 333 56/6/ 88368==
85586,2016,05,13,18,00,AAXX 13184 85586 14960 8//// 10158 20126 30033 40123 56010 60001 7//22 8807/ 333 56/6/ 88368=
85586,2016,05,13,21,00,AAXX 13214 85586 NIL=
85586,2016,05,14,00,00,AAXX 14004 85586 14140 80000 10122 20120 30036 40127 58004 60001 71044 886// 333 10165 567// 88702=
85586,2016,05,14,12,00,AAXX 14124 85586 14420 8//// 10126 20124 30045 40136 53010 69901 71044 885// 333 20116 31/// 55000 567// 79999 88610=
85586,2016,05,14,15,00,AAXX 14154 85586 41656 80109 10149 20131 30075 40166 51031 70522 882// 333 567// 88841==
85586,2016,05,14,18,00,AAXX 14184 85586 14960 80208 10179 20104 30060 40150 57014 69901 70122 8807/ 333 56/6/ 85358 88363=
85586,2016,05,14,21,00,AAXX 14214 85586 NIL=
85586,2016,05,15,00,00,AAXX 15004 85586 14756 80604 10141 20120 30099 40190 53015 60011 76022 8322/ 333 10184 5676/ 83856 88457=
85586,2016,05,15,03,00,AAXX 15034 85586 NIL=
85586,2016,05,15,06,00,AAXX 15064 85586 NIL=
85586,2016,05,15,09,00,AAXX 15094 85586 NIL=
85586,2016,05,15,12,00,AAXX 15124 85586 14960 01203 10112 20104 30108 40200 53006 69941 70200 80000 333 20106 31/// 55000 70014=
85586,2016,05,15,15,00,AAXX 15154 85586 NIL=
85586,2016,05,15,18,00,AAXX 15184 85586 14960 72507 10164 20129 30097 40187 56015 60001 70211 80001 333 56//6 87075=
85586,2016,05,15,21,00,AAXX 15214 85586 NIL=
85586,2016,05,16,00,00,AAXX 16004 85586 14956 70000 10127 20118 30091 40183 53006 60001 70511 80001 333 10196 56//6 87075=
85586,2016,05,16,03,00,AAXX 16034 85586 NIL=
85586,2016,05,16,06,00,AAXX 16064 85586 NIL=
85586,2016,05,16,09,00,AAXX 16094 85586 NIL=
85586,2016,05,16,12,00,AAXX 16124 85586 14102 81203 10099 20098 30083 40175 52009 69921 74555 886// 333 20082 31/// 55057 70002 88702=
85586,2016,05,16,15,00,AAXX 16154 85586 NIL=
85586,2016,05,16,18,00,AAXX 16184 85586 14112 82305 10129 20127 30083 40174 58007 60001 71044 886// 333 85702 88704=
85586,2016,05,16,21,00,AAXX 16214 85586 41150 82606 10131 20128 30076 40167 55007 71022 886// 333 88703==
85586,2016,05,17,00,00,AAXX 17004 85586 14240 80507 10129 20123 30080 40171 53003 60001 71022 886// 333 10133 88704=
85586,2016,05,17,03,00,AAXX 17034 85586 NIL=
85586,2016,05,17,06,00,AAXX 17064 85586 NIL=
85586,2016,05,17,09,00,AAXX 17094 85586 NIL=
85586,2016,05,17,12,00,AAXX 17124 85586 14120 80403 10126 20123 30086 40178 52010 69901 75022 886// 333 20124 31/// 55000 79999 88702=
85586,2016,05,17,15,00,AAXX 17154 85586 42260 80703 10134 20121 30088 40179 53002 886// 333 88706==
85586,2016,05,17,18,00,AAXX 17184 85586 14250 83004 10134 20123 30080 40171 58005 60001 71022 886// 333 566// 85705 88707=
85586,2016,05,17,21,00,AAXX 17214 85586 NIL=
85586,2016,05,18,00,00,AAXX 18004 85586 14460 82803 10135 20117 30089 40180 51009 60001 70222 885// 333 10136 88610=
85586,2016,05,18,03,00,AAXX 18034 85586 NIL=
85586,2016,05,18,06,00,AAXX 18064 85586 NIL=
85586,2016,05,18,09,00,AAXX 18094 85586 NIL=
85586,2016,05,18,12,00,AAXX 18124 85586 14460 80503 10123 20118 30068 40160 53001 60001 70222 885// 333 20122 31/// 55000 70000 88617=
85586,2016,05,18,15,00,AAXX 18154 85586 42560 80203 10138 20117 30079 40170 53012 885// 333 88621==
85586,2016,05,18,21,00,AAXX 18214 85586 42560 63003 10147 20121 30068 40159 55002 82530 333 5676/ 82627=
85586,2016,05,19,00,00,AAXX 19004 85586 14860 80903 10133 20122 30072 40163 53004 69981 76062 8803/ 333 10165 88358=
85586,2016,05,19,03,00,AAXX 19034 85586 NIL=
85586,2016,05,19,06,00,AAXX 19064 85586 NIL=
85586,2016,05,19,09,00,AAXX 19094 85586 NIL=
85586,2016,05,19,12,00,AAXX 19124 85586 14558 80905 10131 20120 30084 40175 53007 60041 70566 885// 333 20124 32/// 55003 566// 70052 83632 88650=
85586,2016,05,19,15,00,AAXX 19154 85586 NIL=
85586,2016,05,19,18,00,AAXX 19184 85586 14660 52806 10170 20139 30077 40167 57009 60001 70222 81502 333 566/6 81640 85073=
85586,2016,05,19,21,00,AAXX 19214 85586 42460 62304 10146 20130 30076 40167 55001 87500 333 566//=
85586,2016,05,20,00,00,AAXX 20004 85586 14460 80000 10140 20135 30070 40161 58008 60011 70262 8253/ 333 10187 566// 82616 88358=
85586,2016,05,20,03,00,AAXX 20034 85586 NIL=
85586,2016,05,20,06,00,AAXX 20064 85586 NIL=
85586,2016,05,20,09,00,AAXX 20094 85586 NIL=
85586,2016,05,20,12,00,AAXX 20124 85586 14440 80602 10136 20133 30079 40170 51005 60081 71022 885// 333 20127 32/// 55022 567// 70092 88613=
85586,2016,05,20,15,00,AAXX 2015/ 85586 41356 8//// 10157 20143 30092 40183 52013 70522 885// 333 567// 82707 88629==
85586,2016,05,20,18,00,AAXX 20184 85586 14656 82904 10162 20141 30083 40173 58008 60001 70522 885// 333 567// 82633 88845=
85586,2016,05,20,21,00,AAXX 20214 85586 41458 82203 10151 20135 30081 40172 56003 70522 885// 333 567// 82712 88649==
85586,2016,05,21,00,00,AAXX 21004 85586 14356 70904 10141 20133 30083 40174 50002 60001 70522 87500 333 10178 567// 82709 87616=
85586,2016,05,21,03,00,AAXX 21034 85586 NIL=
85586,2016,05,21,06,00,AAXX 21064 85586 NIL=
85586,2016,05,21,09,00,AAXX 21094 85586 NIL=
85586,2016,05,21,12,00,AAXX 21124 85586 14756 81103 10123 20115 30102 40194 53011 60431 70588 8817/ 333 20115 32/// 55002 5676/ 70434 81850 88365=
85586,2016,05,21,15,00,AAXX 2115/ 85586 41/60 2//// 10169 20115 30118 40209 51014 70166 333 56//6 82075==
85586,2016,05,21,18,00,AAXX 21184 85586 14660 22606 10160 20120 30118 40209 50002 69921 70300 82100 333 567// 82833=
85586,2016,05,21,21,00,AAXX 2121/ 85586 42160 2//// 10162 20114 30113 40204 58005 82600 333 567// 82702==
85586,2016,05,22,00,00,AAXX 22004 85586 14956 02002 10113 20107 30116 40208 52003 60001 70500 80000 333 10173=
85586,2016,05,22,03,00,AAXX 22034 85586 NIL=
85586,2016,05,22,06,00,AAXX 22064 85586 NIL=
85586,2016,05,22,09,00,AAXX 22094 85586 NIL=
85586,2016,05,22,12,00,AAXX 22124 85586 14960 21103 10075 20068 30098 40191 55001 69941 70200 80001 333 20073 32/// 55083 56//6 70006 82075=
85586,2016,05,22,15,00,AAXX 22154 85586 42/60 41103 10159 20109 30089 40180 57009 333 56//6 84075==
85586,2016,05,22,18,00,AAXX 22184 85586 14960 5//// 10197 20097 30060 40149 58028 60001 70200 80001 333 56//6 85075=
85586,2016,05,22,21,00,AAXX 22214 85586 42/60 62203 10153 20123 30050 40140 55011 333 56//6 87075==
85586,2016,05,23,00,00,AAXX 23004 85586 14956 7//// 10112 20108 30056 40148 51008 60001 70511 80001 333 10201 56//6 87075=
85586,2016,05,23,03,00,AAXX 23034 85586 NIL=
85586,2016,05,23,06,00,AAXX 23064 85586 NIL=
85586,2016,05,23,09,00,AAXX 23094 85586 NIL=
85586,2016,05,23,12,00,AAXX 23124 85586 14950 41204 10089 20086 30045 40137 50001 60001 71011 80002 333 20082 31/// 55071 56//6 70000 84075=
85586,2016,05,23,15,00,AAXX 23154 85586 41102 82406 10118 20113 30072 40164 53026 74511 886// 333 88702==
85586,2016,05,23,18,00,AAXX 23184 85586 14104 82906 10129 20120 30074 40165 50003 60001 74541 886// 333 88702=
85586,2016,05,23,21,00,AAXX 23214 85586 41102 80000 10117 20114 30069 40161 55003 74544 886// 333 88702==
85586,2016,05,24,00,00,AAXX 24004 85586 14109 82703 10111 20110 30080 40172 53010 60001 74544 886// 333 10144 88702=
85586,2016,05,24,12,00,AAXX 24124 85586 14/03 71003 10080 20079 30092 40185 50006 60001 74542 333 20067 31/// 55011 70000=
85586,2016,05,24,15,00,AAXX 2415/ 85586 42/60 6//// 10109 20108 30096 40188 50002 87030 333 56/6/ 87363==
85586,2016,05,24,18,00,AAXX 24184 85586 14960 23103 10153 20111 30090 40181 58006 60001 70000 80001 333 56//6 82074=
85586,2016,05,24,21,00,AAXX 24214 85586 42/60 42606 10148 20101 30092 40183 53003 333 56//6=
85586,2016,05,25,00,00,AAXX 25004 85586 14960 30000 10112 20103 30099 40191 51006 60001 70111 80002 333 10176 56//6 83074=
85586,2016,05,25,06,00,AAXX 25064 85586 NIL=
85586,2016,05,25,12,00,AAXX 25124 85586 14940 11203 10086 20082 30109 40202 53005 60001 71000 80002 333 20085 31/// 55043 56//6 70000 81075=
85586,2016,05,25,15,00,AAXX 25154 85586 NIL=
85586,2016,05,25,18,00,AAXX 25184 85586 14460 72503 10173 20139 30118 40208 58002 60001 70222 87500 333 566// 81810 83616 87624=
85586,2016,05,25,21,00,AAXX 25214 85586 NIL=
85586,2016,05,26,00,00,AAXX 26004 85586 14930 00803 10121 20116 30125 40217 51011 60001 71011 80000 333 10198=
85586,2016,05,26,03,00,AAXX 26034 85586 NIL=
85586,2016,05,26,06,00,AAXX 26064 85586 NIL=
85586,2016,05,26,09,00,AAXX 26094 85586 NIL=
85586,2016,05,26,12,00,AAXX 26124 85586 14203 81003 10107 20106 30106 40198 53002 69921 74444 886// 333 20080 31/// 55019 567// 70002 88705=
85586,2016,05,26,15,00,AAXX 2615/ 85586 41208 8//// 10122 20120 30107 40199 58001 74244 886// 333 567// 88704==
85586,2016,05,26,18,00,AAXX 26184 85586 14440 82005 10153 20125 30095 40186 58011 60001 70544 885// 333 567// 88610=
85586,2016,05,26,21,00,AAXX 26214 85586 41456 82405 10141 20130 30092 40183 55006 70522 885// 333 567// 88615==
85586,2016,05,27,00,00,AAXX 27004 85586 14956 5//// 10120 20109 30087 40179 55003 60001 70522 85030 333 10156 56/6/ 85365=
85586,2016,05,27,06,00,AAXX 27064 85586 NIL=
85586,2016,05,27,09,00,AAXX 27094 85586 NIL=
85586,2016,05,27,12,00,AAXX 27124 85586 14208 81603 10104 20103 30084 40176 53005 69921 74622 886// 333 20078 31/// 55000 567// 70002 88706=
85586,2016,05,27,15,00,AAXX 27154 85586 NIL=
85586,2016,05,27,18,00,AAXX 27184 85586 14440 6//// 10155 20113 30074 40165 57016 60001 70511 82530 333 5676/ 82614 84365=
85586,2016,05,27,21,00,AAXX 27214 85586 NIL=
85586,2016,05,28,00,00,AAXX 28004 85586 14556 11101 10110 20104 30089 40181 53012 60001 70500 81500 333 10166 567// 81620=
85586,2016,05,28,03,00,AAXX 28034 85586 NIL=
85586,2016,05,28,06,00,AAXX 28064 85586 NIL=
85586,2016,05,28,09,00,AAXX 28094 85586 NIL=
85586,2016,05,28,12,00,AAXX 28124 85586 14320 81202 10113 20111 30109 40201 53016 60001 71022 886// 333 20066 31/// 55036 567// 70000 88708=
85586,2016,05,28,15,00,AAXX 28154 85586 41308 80803 10120 20111 30118 40210 50009 74422 886// 333 567// 88708==
85586,2016,05,28,18,00,AAXX 28184 85586 14308 82505 10126 20112 30109 40201 56007 60001 74444 886// 333 567// 88708=
85586,2016,05,28,21,00,AAXX 28214 85586 NIL=
85586,2016,05,29,00,00,AAXX 29004 85586 14440 8//// 10121 20112 30111 40203 50004 60001 71022 885// 333 10130 567// 88618=
85586,2016,05,29,03,00,AAXX 29034 85586 NIL=
85586,2016,05,29,06,00,AAXX 29064 85586 NIL=
85586,2016,05,29,09,00,AAXX 29094 85586 NIL=
85586,2016,05,29,12,00,AAXX 29124 85586 14940 70000 10112 20101 30100 40192 51016 69941 71066 83032 333 20111 32/// 55000 56/66 70004 83359 85070=
85586,2016,05,29,15,00,AAXX 29154 85586 NIL=
85586,2016,05,29,18,00,AAXX 29184 85586 14740 80303 10127 20119 30104 40196 58010 60021 76322 8253/ 333 567// 82650 88357=
85586,2016,05,29,21,00,AAXX 29214 85586 NIL=
85586,2016,05,30,00,00,AAXX 30004 85586 14857 81003 10122 20117 30115 40207 51009 60061 76066 8803/ 333 10146 88357=
85586,2016,05,30,03,00,AAXX 30034 85586 NIL=
85586,2016,05,30,06,00,AAXX 30064 85586 NIL=
85586,2016,05,30,09,00,AAXX 30094 85586 NIL=
85586,2016,05,30,12,00,AAXX 30124 85586 14103 81104 10092 20091 30119 40211 56004 60011 74664 886// 333 20091 32/// 55000 70100 88702=
85586,2016,05,30,15,00,AAXX 30154 85586 NIL=
85586,2016,05,30,18,00,AAXX 30184 85586 44960 02607 10165 20136 30089 40179 56026 70000 80000=
85586,2016,05,30,21,00,AAXX 30214 85586 NIL=
85586,2016,05,31,00,00,AAXX 31004 85586 44960 00403 10105 20100 30092 40184 53007 70000 80000 333 10179=
85586,2016,05,31,03,00,AAXX 31034 85586 NIL=
85586,2016,05,31,06,00,AAXX 31064 85586 NIL=
85586,2016,05,31,09,00,AAXX 31094 85586 NIL=
85586,2016,05,31,12,00,AAXX 31124 85586 14104 81203 10073 20072 30086 40179 53003 69921 74654 886// 333 20071 31/// 55062 70002 88702=
85586,2016,05,31,15,00,AAXX 31154 85586 42160 20903 10121 20118 30090 40182 53003 82500 333 566// 82602==
85586,2016,05,31,18,00,AAXX 31184 85586 44460 12706 10149 20113 30072 40163 57016 70100 81100 333 566// 81818=
85586,2016,05,31,21,00,AAXX 31214 85586 NIL=
85586,2016,06,01,00,00,AAXX 01004 85586 44960 31302 10093 20087 30077 40170 53009 70100 80002 333 10151 56//6 83075=
85586,2016,06,01,03,00,AAXX 01034 85586 NIL=
85586,2016,06,01,06,00,AAXX 01064 85586 NIL=
85586,2016,06,01,09,00,AAXX 01094 85586 NIL=
85586,2016,06,01,12,00,AAXX 01124 85586 14960 01002 10051 20044 30103 40197 53013 60001 70200 80000 333 20050 31/// 55055 70000=
85586,2016,06,01,15,00,AAXX 01154 85586 42/60 21003 10142 20095 30113 40204 51011 82030 333 56/6/ 82360==
85586,2016,06,01,18,00,AAXX 01184 85586 14960 62807 10160 20086 30111 40202 55003 60001 70200 80001 333 56//6 86075=
85586,2016,06,01,21,00,AAXX 01214 85586 NIL=
85586,2016,06,02,00,00,AAXX 02004 85586 14956 7//// 10098 20092 30117 40210 51008 60001 70511 80001 333 10173 56//6 87075=
85586,2016,06,02,03,00,AAXX 02034 85586 NIL=
85586,2016,06,02,06,00,AAXX 02064 85586 NIL=
85586,2016,06,02,09,00,AAXX 02094 85586 NIL=
85586,2016,06,02,12,00,AAXX 02124 85586 14958 80000 10083 20077 30086 40179 55008 60001 70522 8807/ 333 20078 31/// 55053 56/6/ 70000 88365=
85586,2016,06,02,15,00,AAXX 0215/ 85586 41/58 8//// 10119 20097 30089 40181 53004 70522 8807/ 333 56/6/ 88365==
85586,2016,06,02,18,00,AAXX 02184 85586 44958 7//// 10138 20112 30072 40163 56018 70522 81032 333 56/66 81363 87071=
85586,2016,06,02,21,00,AAXX 02214 85586 41/58 82406 10127 20113 30068 40159 55005 70522 8807/ 333 56/6/ 88357==
85586,2016,06,03,00,00,AAXX 03004 85586 14656 8//// 10119 20113 30077 40169 52008 60031 76166 882// 333 10143 567// 88839=
85586,2016,06,03,03,00,AAXX 03034 85586 NIL=
85586,2016,06,03,06,00,AAXX 03064 85586 NIL=
85586,2016,06,03,09,00,AAXX 03094 85586 NIL=
85586,2016,06,03,12,00,AAXX 03124 85586 14556 8//// 10109 20100 30054 40146 56003 60051 76066 882// 333 20107 32/// 55000 567// 70072 88825=
85586,2016,06,03,15,00,AAXX 03154 85586 41430 81304 10111 20106 30054 40146 53001 76366 882// 333 566// 88815==
85586,2016,06,03,18,00,AAXX 03184 85586 14440 80504 10119 20111 30041 40132 56012 60091 76066 885// 333 567// 88610=
85586,2016,06,03,21,00,AAXX 03214 85586 41350 82406 10118 20115 30047 40139 53005 76066 882// 333 566// 88809==
85586,2016,06,04,00,00,AAXX 04004 85586 14540 81703 10109 20103 30063 40155 51015 60051 70566 882// 333 10124 567// 88831=
85586,2016,06,04,03,00,AAXX 04034 85586 NIL=
85586,2016,06,04,06,00,AAXX 04064 85586 NIL=
85586,2016,06,04,09,00,AAXX 04094 85586 NIL=
85586,2016,06,04,12,00,AAXX 04124 85586 14960 01003 10057 20056 30118 40207 52010 60001 70200 80000 333 20056 32/// 55000 70138=
85586,2016,06,04,15,00,AAXX 04154 85586 NIL=
85586,2016,06,04,18,00,AAXX 04184 85586 14560 52004 10154 20089 30099 40190 58018 60001 70311 82501 333 566/6 82630 85075=
85586,2016,06,04,21,00,AAXX 04214 85586 42/60 42307 10132 20097 30098 40189 54000 333 56//6=
85586,2016,06,05,00,00,AAXX 05004 85586 14960 00000 10082 20075 30105 40198 52007 60001 70111 80000 333 10161=
85586,2016,06,05,03,00,AAXX 05034 85586 NIL=
85586,2016,06,05,06,00,AAXX 05064 85586 NIL=
85586,2016,06,05,09,00,AAXX 05094 85586 NIL=
85586,2016,06,05,12,00,AAXX 05124 85586 14960 11403 10032 20031 30110 40205 53006 60001 70200 80001 333 20021 31/// 55070 56//6 70000 81075=
85586,2016,06,05,15,00,AAXX 05154 85586 42960 01303 10123 20088 30118 40210 52008==
85586,2016,06,05,18,00,AAXX 05184 85586 14560 12508 10138 20091 30109 40200 58009 60001 70200 81500 333 566// 81620=
85586,2016,06,05,21,00,AAXX 05214 85586 NIL=
85586,2016,06,06,00,00,AAXX 06004 85586 14960 01503 10088 20066 30131 40224 53017 60001 70200 80000 333 10147=
85586,2016,06,06,03,00,AAXX 06034 85586 NIL=
85586,2016,06,06,06,00,AAXX 06064 85586 NIL=
85586,2016,06,06,09,00,AAXX 06094 85586 NIL=
85586,2016,06,06,12,00,AAXX 06124 85586 14107 81204 10046 20045 30165 40260 52009 60001 74644 886// 333 20023 31/// 55060 70000 88702=
85586,2016,06,06,15,00,AAXX 06154 85586 NIL=
85586,2016,06,06,18,00,AAXX 06184 85586 44960 0//// 10137 20090 30163 40255 56010 70000 80000=
85586,2016,06,06,21,00,AAXX 06214 85586 42960 01906 10133 20065 30158 40250 55005==
85586,2016,06,07,00,00,AAXX 07004 85586 44960 01202 10080 20060 30167 40261 51009 70000 80000 333 10149=
85586,2016,06,07,09,00,AAXX 07094 85586 NIL=
85586,2016,06,07,12,00,AAXX 07124 85586 14960 01404 10035 20028 30144 40239 50002 60001 70200 80000 333 20028 31/// 55062 70000=
85586,2016,06,07,15,00,AAXX 07154 85586 42960 01003 10117 20049 30148 40240 50005==
85586,2016,06,07,18,00,AAXX 07184 85586 14960 0//// 10159 20077 30134 40226 58014 60001 70200 80000=
85586,2016,06,07,21,00,AAXX 07214 85586 42960 01608 10165 20061 30129 40220 55004==
85586,2016,06,08,00,00,AAXX 08004 85586 14956 01604 10102 20054 30132 40225 53003 60001 70500 80000 333 10178=
85586,2016,06,08,03,00,AAXX 08034 85586 NIL=
85586,2016,06,08,06,00,AAXX 08064 85586 NIL=
85586,2016,06,08,09,00,AAXX 08094 85586 NIL=
85586,2016,06,08,12,00,AAXX 08124 85586 14960 00000 10024 20015 30115 40210 53004 60001 70200 80000 333 20024 31/// 55062 70000=
85586,2016,06,08,15,00,AAXX 08154 85586 42960 01204 10132 20070 30118 40210 50003 333 56//6 81073==
85586,2016,06,08,18,00,AAXX 08184 85586 14960 02005 10178 20079 30104 40194 57014 60001 70200 80000=
85586,2016,06,08,21,00,AAXX 08214 85586 42960 02303 10176 20066 30099 40189 55005 333 56//6 81073==
85586,2016,06,09,00,00,AAXX 09004 85586 14958 00000 10098 20046 30108 40201 53009 60001 70500 80000 333 10192=
85586,2016,06,09,03,00,AAXX 09034 85586 NIL=
85586,2016,06,09,06,00,AAXX 09064 85586 NIL=
85586,2016,06,09,09,00,AAXX 09094 85586 NIL=
85586,2016,06,09,12,00,AAXX 09124 85586 14960 7//// 10079 20043 30114 40207 53003 60001 70300 80001 333 20054 31/// 55061 56//6 70000 87075=
85586,2016,06,09,15,00,AAXX 09154 85586 NIL=
85586,2016,06,09,18,00,AAXX 09184 85586 14960 4//// 10153 20074 30117 40208 56010 60001 70111 80001 333 56//6 84075=
85586,2016,06,09,21,00,AAXX 0921/ 85586 42/60 4//// 10145 20078 30123 40214 53006 333 56//6 84170==
85586,2016,06,10,00,00,AAXX 10004 85586 14958 00000 10085 20063 30129 40222 52006 60001 70500 80000 333 10165=
85586,2016,06,10,03,00,AAXX 10034 85586 NIL=
85586,2016,06,10,06,00,AAXX 10064 85586 NIL=
85586,2016,06,10,09,00,AAXX 10094 85586 NIL=
85586,2016,06,10,12,00,AAXX 10124 85586 14923 01204 10023 20020 30129 40224 51004 60001 71000 80000 333 20019 31/// 55009 70000=
85586,2016,06,10,15,00,AAXX 10154 85586 42960 00903 10105 20072 30146 40239 51017==
85586,2016,06,10,18,00,AAXX 10184 85586 44960 02405 10133 20082 30130 40222 58015 70000 80000=
85586,2016,06,10,21,00,AAXX 10214 85586 42960 02407 10122 20094 30127 40219 55003==
85586,2016,06,11,00,00,AAXX 11004 85586 44960 0//// 10066 20062 30132 40226 51005 70000 80000 333 10138=
85586,2016,06,11,03,00,AAXX 11034 85586 NIL=
85586,2016,06,11,06,00,AAXX 11064 85586 NIL=
85586,2016,06,11,09,00,AAXX 11094 85586 NIL=
85586,2016,06,11,12,00,AAXX 11124 85586 14215 81304 10028 20027 30115 40210 53004 60001 71022 886// 333 20016 31/// 55059 70000 88704=
85586,2016,06,11,15,00,AAXX 11154 85586 41120 81403 10079 20078 30116 40209 53001 71022 886// 333 88702==
85586,2016,06,11,18,00,AAXX 11184 85586 14457 40503 10120 20090 30098 40190 58017 60001 70522 84500 333 566// 84610=
85586,2016,06,11,21,00,AAXX 11214 85586 42960 02705 10109 20087 30095 40187 55004==
85586,2016,06,12,00,00,AAXX 12004 85586 14320 50703 10071 20066 30113 40207 51017 60001 71022 85600 333 10125 566// 85709=
85586,2016,06,12,03,00,AAXX 12034 85586 NIL=
85586,2016,06,12,06,00,AAXX 12064 85586 NIL=
85586,2016,06,12,09,00,AAXX 12094 85586 NIL=
85586,2016,06,12,12,00,AAXX 12124 85586 14950 81204 10086 20077 30101 40194 58003 60001 71022 8803/ 333 20077 31/// 55033 70000 88363=
85586,2016,06,12,15,00,AAXX 12154 85586 NIL=
85586,2016,06,12,18,00,AAXX 12184 85586 14960 72106 10129 20108 30074 40165 56027 69941 70262 85022 333 56/66 85360 85070=
85586,2016,06,12,21,00,AAXX 12214 85586 42/60 83103 10125 20101 30081 40173 50004 8803/ 333 88363==
85586,2016,06,13,00,00,AAXX 13004 85586 14960 80804 10112 20095 30100 40192 53013 60001 70222 8803/ 333 10169 88361=
85586,2016,06,13,03,00,AAXX 13034 85586 NIL=
85586,2016,06,13,06,00,AAXX 13064 85586 NIL=
85586,2016,06,13,09,00,AAXX 13094 85586 NIL=
85586,2016,06,13,12,00,AAXX 13124 85586 14960 80000 10074 20071 30115 40209 53014 60001 70322 8807/ 333 20069 31/// 55003 56/6/ 70004 88365=
85586,2016,06,13,15,00,AAXX 13154 85586 42/60 60000 10119 20098 30124 40216 52012 87030 333 56/6/ 87361==
85586,2016,06,13,18,00,AAXX 13184 85586 14958 62604 10135 20094 30118 40210 57006 60001 70522 86030 333 56/6/ 86365=
85586,2016,06,13,21,00,AAXX 13214 85586 41/58 42603 10125 20102 30123 40215 53003 70511 84030 333 56/6/ 84361==
85586,2016,06,14,00,00,AAXX 14004 85586 14956 80000 10108 20100 30126 40219 51005 60001 70522 8803/ 333 10145 56/6/ 88365=
85586,2016,06,14,03,00,AAXX 14034 85586 NIL=
85586,2016,06,14,06,00,AAXX 14064 85586 NIL=
85586,2016,06,14,09,00,AAXX 14094 85586 NIL=
85586,2016,06,14,12,00,AAXX 14124 85586 14920 4//// 10044 20043 30131 40226 53010 60001 71011 84030 333 20043 31/// 55019 56/6/ 70000 84365=
85586,2016,06,14,15,00,AAXX 14154 85586 41/58 22504 10115 20098 30139 40231 51008 70500 83030 333 56/6/ 83361==
85586,2016,06,14,18,00,AAXX 14184 85586 14458 22606 10133 20100 30136 40228 58004 60001 70511 82500 333 567// 82616=
85586,2016,06,14,21,00,AAXX 14214 85586 NIL=
85586,2016,06,15,00,00,AAXX 15004 85586 14956 01603 10092 20077 30143 40236 53006 60001 70500 80000 333 10148=
85586,2016,06,15,12,00,AAXX 15124 85586 14106 80000 10062 20061 30145 40239 53012 60001 74644 886// 333 20036 31/// 55041 567// 70000 88701=
85586,2016,06,15,15,00,AAXX 15154 85586 NIL=
85586,2016,06,15,18,00,AAXX 15184 85586 14440 71705 10112 20083 30159 40252 58003 60001 70544 87500 333 567// 87610=
85586,2016,06,15,21,00,AAXX 15214 85586 42960 01905 10134 20081 30153 40245 56008 333 56//6 81075==
85586,2016,06,16,00,00,AAXX 16004 85586 14956 01004 10081 20067 30164 40258 51012 60001 70500 80000 333 10142=
85586,2016,06,16,06,00,AAXX 16064 85586 NIL=
85586,2016,06,16,09,00,AAXX 16094 85586 NIL=
85586,2016,06,16,12,00,AAXX 16124 85586 14150 21204 10046 20042 30114 40209 58015 60001 71000 81601 333 20038 31/// 55041 566/6 70000 81702 81075=
85586,2016,06,16,15,00,AAXX 1615/ 85586 42960 0//// 10132 20073 30110 40202 57004==
85586,2016,06,16,18,00,AAXX 16184 85586 44960 2//// 10177 20073 30081 40171 58028 70100 80001 333 56//6 82073=
85586,2016,06,16,21,00,AAXX 16214 85586 42/60 42005 10146 20062 30073 40164 56009 333 56//6 84073==
85586,2016,06,17,00,00,AAXX 17004 85586 44960 01805 10118 20043 30075 40167 51002 70000 80000 333 10183=
85586,2016,06,17,03,00,AAXX 17034 85586 NIL=
85586,2016,06,17,06,00,AAXX 17064 85586 NIL=
85586,2016,06,17,09,00,AAXX 17094 85586 NIL=
85586,2016,06,17,12,00,AAXX 17124 85586 14960 11205 10030 20026 30078 40173 53010 60001 70200 80001 333 20018 31/// 55038 56//6 70000 81075=
85586,2016,06,17,15,00,AAXX 17154 85586 NIL=
85586,2016,06,17,18,00,AAXX 17184 85586 44960 02503 10138 20076 30074 40165 58013 70000 80000=
85586,2016,06,17,21,00,AAXX 17214 85586 NIL=
85586,2016,06,18,00,00,AAXX 18004 85586 44940 0//// 10071 20067 30096 40189 53017 71000 80000 333 10143=
85586,2016,06,18,03,00,AAXX 18034 85586 NIL=
85586,2016,06,18,06,00,AAXX 18064 85586 NIL=
85586,2016,06,18,09,00,AAXX 18094 85586 NIL=
85586,2016,06,18,12,00,AAXX 18124 85586 14930 11205 10024 20023 30104 40199 54000 60001 71000 80001 333 20010 31/// 55057 56//6 70000 81075=
85586,2016,06,18,18,00,AAXX 18184 85586 14950 02605 10125 20090 30081 40173 58021 60001 70500 80000=
85586,2016,06,18,21,00,AAXX 18214 85586 42/60 42604 10124 20094 30079 40171 55002 333 56//6 84075==
85586,2016,06,19,00,00,AAXX 19004 85586 14940 21004 10068 20062 30081 40174 50002 60001 71000 80001 333 10133 56//6 82075=
85586,2016,06,19,03,00,AAXX 19034 85586 NIL=
85586,2016,06,19,06,00,AAXX 19064 85586 NIL=
85586,2016,06,19,09,00,AAXX 19094 85586 NIL=
85586,2016,06,19,12,00,AAXX 19124 85586 14320 81103 10081 20080 30092 40185 53015 69921 71044 886// 333 20029 31/// 55054 567// 70002 88709=
85586,2016,06,19,15,00,AAXX 19154 85586 NIL=
85586,2016,06,19,18,00,AAXX 19184 85586 14556 83305 10132 20085 30106 40198 57003 60001 70522 885// 333 567// 82621 88624=
85586,2016,06,19,21,00,AAXX 19214 85586 NIL=
85586,2016,06,20,00,00,AAXX 20004 85586 14556 80000 10111 20094 30116 40208 53008 60001 70522 885// 333 10132 567// 88625=
85586,2016,06,20,06,00,AAXX 20064 85586 NIL=
85586,2016,06,20,12,00,AAXX 20124 85586 14320 8//// 10100 20076 30143 40236 53012 60001 70522 886// 333 20098 31/// 55000 567// 70000 88708=
85586,2016,06,20,15,00,AAXX 20154 85586 NIL=
85586,2016,06,20,18,00,AAXX 20184 85586 14456 82204 10125 20076 30133 40225 58012 60001 70522 885// 333 567// 88612=
85586,2016,06,20,21,00,AAXX 20214 85586 NIL=
85586,2016,06,21,00,00,AAXX 21004 85586 44940 0//// 10067 20057 30124 40218 50000 70500 80000 333 10137=
85586,2016,06,21,03,00,AAXX 21034 85586 NIL=
85586,2016,06,21,06,00,AAXX 21064 85586 NIL=
85586,2016,06,21,09,00,AAXX 21094 85586 NIL=
85586,2016,06,21,12,00,AAXX 21124 85586 14103 8//// 10053 20052 30117 40211 53002 69901 74244 886// 333 20035 31/// 55014 567// 79999 88701=
85586,2016,06,21,15,00,AAXX 21154 85586 NIL=
85586,2016,06,21,18,00,AAXX 21184 85586 14940 02505 10103 20077 30104 40196 58016 60001 70522 80000=
85586,2016,06,21,21,00,AAXX 21214 85586 41956 02504 10109 20083 30098 40190 56008 70500==
85586,2016,06,22,00,00,AAXX 22004 85586 14926 01102 10057 20053 30099 40193 53001 60001 71000 80000 333 10116=
85586,2016,06,22,03,00,AAXX 22034 85586 NIL=
85586,2016,06,22,06,00,AAXX 22064 85586 NIL=
85586,2016,06,22,09,00,AAXX 22094 85586 NIL=
85586,2016,06,22,12,00,AAXX 22124 85586 14103 81103 10047 20046 30116 40210 53014 69921 74654 886// 333 20037 31/// 55044 70002 88702=
85586,2016,06,22,15,00,AAXX 22154 85586 41105 81603 10069 20068 30133 40227 52014 74644 886// 333 88702==
85586,2016,06,22,18,00,AAXX 22184 85586 14457 71003 10119 20086 30118 40210 58013 69921 70554 82601 333 566/6 82710 86075=
85586,2016,06,22,21,00,AAXX 22214 85586 42/60 60000 10113 20087 30113 40205 55003 333 56//6 86073==
85586,2016,06,23,00,00,AAXX 23004 85586 14960 22303 10067 20053 30114 40208 55001 60001 70122 80001 333 10132 56//6 82073=
85586,2016,06,23,03,00,AAXX 23034 85586 NIL=
85586,2016,06,23,06,00,AAXX 23064 85586 NIL=
85586,2016,06,23,09,00,AAXX 23094 85586 NIL=
85586,2016,06,23,12,00,AAXX 23124 85586 NIL=
85586,2016,06,23,15,00,AAXX 23154 85586 NIL=
85586,2016,06,23,18,00,AAXX 23184 85586 44957 82606 10117 20075 30092 40184 58006 70522 8803/ 333 56/6/ 88361=
85586,2016,06,23,21,00,AAXX 23214 85586 NIL=
85586,2016,06,24,00,00,AAXX 24004 85586 44958 2//// 10108 20089 30101 40193 51010 70511 80001 333 10130 56//6 82073=
85586,2016,06,24,03,00,AAXX 24034 85586 NIL=
85586,2016,06,24,06,00,AAXX 24064 85586 NIL=
85586,2016,06,24,09,00,AAXX 24094 85586 NIL=
85586,2016,06,24,12,00,AAXX 24124 85586 14550 70000 10062 20059 30108 40202 53014 60001 71022 87500 333 20054 31/// 55007 566// 70000 87620=
85586,2016,06,24,15,00,AAXX 24154 85586 41556 41404 10106 20080 30107 40199 54000 70511 84500 333 566// 84620==
85586,2016,06,24,18,00,AAXX 24184 85586 44560 21805 10132 20077 30087 40178 58020 70100 82200 333 566// 82826=
85586,2016,06,24,21,00,AAXX 24214 85586 NIL=
85586,2016,06,25,00,00,AAXX 25004 85586 44556 2//// 10071 20059 30080 40173 52001 70500 82100 333 10142 566// 82826=
85586,2016,06,25,03,00,AAXX 25034 85586 NIL=
85586,2016,06,25,12,00,AAXX 25124 85586 14356 81103 10084 20077 30107 40200 52011 60001 70522 886// 333 20029 31/// 55053 567// 70000 88707=
85586,2016,06,25,15,00,AAXX 25154 85586 41456 20903 10124 20085 30111 40203 52005 70522 82500 333 567// 82612==
85586,2016,06,25,18,00,AAXX 25184 85586 14458 13108 10132 20077 30104 40196 58009 60001 70511 81500 333 567// 81612=
85586,2016,06,25,21,00,AAXX 25214 85586 41958 03103 10125 20094 30108 40200 53005 70500==
85586,2016,06,26,00,00,AAXX 26004 85586 14940 01102 10071 20065 30113 40207 52005 60001 71000 80000 333 10137=
85586,2016,06,26,03,00,AAXX 26034 85586 NIL=
85586,2016,06,26,06,00,AAXX 26064 85586 NIL=
85586,2016,06,26,09,00,AAXX 26094 85586 NIL=
85586,2016,06,26,12,00,AAXX 26124 85586 14920 01203 10037 20036 30130 40225 51012 60001 71000 80000 333 20035 31/// 55058 70000=
85586,2016,06,26,15,00,AAXX 26154 85586 41/40 21003 10085 20081 30142 40236 51012 71000 333 56//6 83075==
85586,2016,06,26,18,00,AAXX 26184 85586 14956 0//// 10150 20083 30126 40217 56014 60001 70500 80000=
85586,2016,06,26,21,00,AAXX 26214 85586 NIL=
85586,2016,06,27,00,00,AAXX 27004 85586 14940 00000 10078 20069 30126 40220 51003 60001 71000 80000 333 10156=
85586,2016,06,27,06,00,AAXX 27064 85586 NIL=
85586,2016,06,27,12,00,AAXX 27124 85586 14920 01404 10048 20045 30106 40200 53000 60001 71000 80000 333 20036 31/// 55057 70000=
85586,2016,06,27,15,00,AAXX 27154 85586 41940 01103 10115 20080 30104 40196 57002 70500==
85586,2016,06,27,18,00,AAXX 27184 85586 44940 02406 10137 20096 30091 40182 57012 70500 80000=
85586,2016,06,27,21,00,AAXX 27214 85586 41940 02703 10126 20095 30084 40176 56009 70500==
85586,2016,06,28,00,00,AAXX 28004 85586 14920 00901 10082 20078 30088 40181 50006 60001 71000 80000 333 10147=
85586,2016,06,28,12,00,AAXX 28124 85586 14102 81203 10051 20050 30067 40161 52011 69921 74654 886// 333 20027 31/// 55056 70002 88702=
85586,2016,06,28,15,00,AAXX 28154 85586 41103 80905 10083 20082 30076 40169 50010 74422 886// 333 566// 88702==
85586,2016,06,28,18,00,AAXX 28184 85586 44108 82512 10096 20088 30062 40154 58014 74622 886// 333 566// 88702=
85586,2016,06,28,21,00,AAXX 2821/ 85586 41225 8//// 10103 20092 30071 40163 50009 71022 886// 333 566// 88705==
85586,2016,06,29,00,00,AAXX 29004 85586 44320 8//// 10102 20090 30086 40178 53013 70522 886// 333 10104 566// 88708=
85586,2016,06,29,03,00,AAXX 29034 85586 NIL=
85586,2016,06,29,12,00,AAXX 29124 85586 14560 81703 10094 20077 30101 40194 55003 60001 70222 885// 333 20089 31/// 55002 70000 88624=
85586,2016,06,29,15,00,AAXX 29154 85586 NIL=
85586,2016,06,29,18,00,AAXX 29184 85586 14560 51708 10139 20073 30090 40181 58016 60001 70222 82502 333 566/6 82630 85073=
85586,2016,06,29,21,00,AAXX 29214 85586 42/60 61905 10128 20077 30078 40169 57013 333 56//6 87072==
85586,2016,06,30,00,00,AAXX 30004 85586 14960 30000 10081 20064 30087 40180 50010 60001 70122 80001 333 10148 56//6 83075=
85586,2016,06,30,06,00,AAXX 30064 85586 NIL=
85586,2016,06,30,09,00,AAXX 30094 85586 NIL=
85586,2016,06,30,12,00,AAXX 30124 85586 14940 71704 10074 20065 30080 40173 55004 60001 71022 80002 333 20062 31/// 55006 56//6 70000 87072=
85586,2016,06,30,15,00,AAXX 30154 85586 NIL=
85586,2016,06,30,18,00,AAXX 30184 85586 44956 82006 10135 20090 30065 40156 58016 70522 80007 333 56//6 88271=
85586,2016,06,30,21,00,AAXX 30214 85586 41/57 82505 10117 20098 30067 40159 53001 70522 8803/ 333 56/6/ 88367==
85586,2016,07,01,00,00,AAXX 01004 85586 44950 80000 10098 20089 30076 40168 50008 71022 8803/ 333 10142 56/6/ 88365=
85586,2016,07,01,03,00,AAXX 01034 85586 NIL=
85586,2016,07,01,06,00,AAXX 01064 85586 NIL=
85586,2016,07,01,09,00,AAXX 01094 85586 NIL=
85586,2016,07,01,12,00,AAXX 01124 85586 14103 50903 10055 20054 30071 40165 52004 60001 74644 85600 333 20036 31/// 55000 567// 70000 85702=
85586,2016,07,01,15,00,AAXX 01154 85586 NIL=
85586,2016,07,01,18,00,AAXX 01184 85586 14220 80000 10098 20086 30060 40152 58018 60001 71022 886// 333 567// 88705=
85586,2016,07,01,21,00,AAXX 01214 85586 41118 82704 10089 20081 30055 40148 55006 71022 886// 333 566// 88703==
85586,2016,07,02,00,00,AAXX 02004 85586 14220 83303 10083 20074 30067 40160 51011 60001 71044 886// 333 10108 567// 88705=
85586,2016,07,02,03,00,AAXX 02034 85586 NIL=
85586,2016,07,02,06,00,AAXX 02064 85586 NIL=
85586,2016,07,02,09,00,AAXX 02094 85586 NIL=
85586,2016,07,02,12,00,AAXX 02124 85586 14558 83505 10095 20057 30077 40170 53017 60001 70522 885// 333 20076 31/// 55000 567// 70000 88625=
85586,2016,07,02,15,00,AAXX 02154 85586 NIL=
85586,2016,07,02,18,00,AAXX 02184 85586 14558 80103 10120 20077 30083 40175 58005 60001 70522 885// 333 567// 88627=
85586,2016,07,02,21,00,AAXX 02214 85586 41556 80803 10104 20096 30083 40175 50001 76022 885// 333 567// 88624==
85586,2016,07,03,00,00,AAXX 03004 85586 14656 8//// 10099 20090 30083 40176 51001 69921 70588 885// 333 10121 567// 88645=
85586,2016,07,03,03,00,AAXX 03034 85586 NIL=
85586,2016,07,03,12,00,AAXX 03124 85586 14520 8//// 10095 20089 30091 40184 53016 60021 76166 885// 333 20094 32/// 55000 567// 70020 88620=
85586,2016,07,03,15,00,AAXX 03154 85586 NIL=
85586,2016,07,03,18,00,AAXX 03184 85586 14858 80410 10126 20095 30088 40180 58018 60021 76066 8802/ 333 56/6/ 88558=
85586,2016,07,03,21,00,AAXX 03214 85586 42/60 63504 10133 20090 30105 40197 52015 87010 333 56/6/ 82457 87463==
85586,2016,07,04,00,00,AAXX 04004 85586 14956 61103 10092 20083 30115 40208 51011 60001 70522 86010 333 10134 56/6/ 86463=
85586,2016,07,04,03,00,AAXX 04034 85586 NIL=
85586,2016,07,04,06,00,AAXX 04064 85586 NIL=
85586,2016,07,04,09,00,AAXX 04094 85586 NIL=
85586,2016,07,04,12,00,AAXX 04124 85586 14950 11403 10062 20053 30130 40224 53018 60001 71000 80001 333 20059 31/// 55002 56//6 70022 81075=
85586,2016,07,04,15,00,AAXX 0415/ 85586 42960 0//// 10137 20090 30138 40230 53008==
85586,2016,07,04,18,00,AAXX 04184 85586 44960 02510 10141 20102 30124 40215 58016 70000 80000=
85586,2016,07,04,21,00,AAXX 04214 85586 NIL=
85586,2016,07,05,00,00,AAXX 05004 85586 44960 00000 10088 20080 30123 40216 51003 70000 80000 333 10162=
85586,2016,07,05,03,00,AAXX 05034 85586 NIL=
85586,2016,07,05,06,00,AAXX 05064 85586 NIL=
85586,2016,07,05,09,00,AAXX 05094 85586 NIL=
85586,2016,07,05,12,00,AAXX 05124 85586 14304 21304 10017 20014 30162 40258 53020 60001 74600 82600 333 20017 31/// 55059 566// 70000 82709=
85586,2016,07,05,15,00,AAXX 05154 85586 NIL=
85586,2016,07,05,18,00,AAXX 05184 85586 44960 02905 10129 20088 30175 40267 58006 70000 80000=
85586,2016,07,05,21,00,AAXX 05214 85586 42960 02505 10117 20084 30179 40272 53003==
85586,2016,07,06,00,00,AAXX 06004 85586 44932 0//// 10062 20058 30188 40283 51009 71000 80000 333 10133=
85586,2016,07,06,03,00,AAXX 06034 85586 NIL=
85586,2016,07,06,06,00,AAXX 06064 85586 NIL=
85586,2016,07,06,09,00,AAXX 06094 85586 NIL=
85586,2016,07,06,12,00,AAXX 06124 85586 14103 81204 10035 20034 30154 40249 56003 69921 74654 886// 333 20022 31/// 55059 70002 88702=
85586,2016,07,06,15,00,AAXX 06154 85586 NIL=
85586,2016,07,06,18,00,AAXX 06184 85586 14957 01404 10127 20088 30126 40218 58021 60001 70500 80000=
85586,2016,07,06,21,00,AAXX 06214 85586 42960 01905 10142 20071 30112 40203 56014==
85586,2016,07,07,00,00,AAXX 07004 85586 14960 00000 10078 20054 30104 40197 57008 60001 70200 80000 333 10150=
85586,2016,07,07,03,00,AAXX 07034 85586 NIL=
85586,2016,07,07,06,00,AAXX 07064 85586 NIL=
85586,2016,07,07,09,00,AAXX 07094 85586 NIL=
85586,2016,07,07,12,00,AAXX 07124 85586 14937 2//// 10014 20007 30070 40165 53009 60001 71000 80001 333 20013 31/// 55060 56//6 70000 82075=
85586,2016,07,07,15,00,AAXX 07154 85586 41/56 22603 10097 20055 30081 40173 51014 70500 333 56//6 82075==
85586,2016,07,07,18,00,AAXX 07184 85586 14958 03103 10149 20063 30067 40158 58013 60001 70500 80000=
85586,2016,07,07,21,00,AAXX 07214 85586 41958 02703 10129 20092 30062 40153 57005 70500 333 56//6 81072==
85586,2016,07,08,00,00,AAXX 08004 85586 14340 50000 10079 20073 30073 40166 53010 60001 71000 85600 333 10150 567// 85706=
85586,2016,07,08,03,00,AAXX 08034 85586 NIL=
85586,2016,07,08,06,00,AAXX 08064 85586 NIL=
85586,2016,07,08,09,00,AAXX 08094 85586 NIL=
85586,2016,07,08,12,00,AAXX 08124 85586 14540 80805 10095 20076 30114 40207 53015 60001 70522 885// 333 20079 31/// 55064 567// 70000 88620=
85586,2016,07,08,15,00,AAXX 08154 85586 41558 80407 10122 20079 30128 40220 53014 70522 885// 333 567// 88625==
85586,2016,07,08,18,00,AAXX 08184 85586 14558 83504 10128 20081 30111 40203 58015 60001 70522 885// 333 567// 88623=
85586,2016,07,08,21,00,AAXX 08214 85586 NIL=
85586,2016,07,09,00,00,AAXX 09004 85586 14556 80000 10104 20090 30110 40203 51000 60001 70522 885// 333 10131 567// 88629=
85586,2016,07,09,03,00,AAXX 09034 85586 NIL=
85586,2016,07,09,06,00,AAXX 09064 85586 NIL=
85586,2016,07,09,09,00,AAXX 09094 85586 NIL=
85586,2016,07,09,12,00,AAXX 09124 85586 14103 31104 10048 20047 30086 40180 51009 60001 74644 83600 333 20043 31/// 55000 567// 70000 83702=
85586,2016,07,09,15,00,AAXX 09154 85586 NIL=
85586,2016,07,09,18,00,AAXX 09184 85586 14940 02406 10134 20093 30068 40159 58019 60001 70544 80000=
85586,2016,07,09,21,00,AAXX 09214 85586 41/56 22407 10115 20096 30073 40165 53004 70500 333 56//6 83075==
85586,2016,07,10,00,00,AAXX 10004 85586 14256 8//// 10097 20091 30080 40172 51008 60001 70522 885// 333 10141 567// 88606=
85586,2016,07,10,03,00,AAXX 10034 85586 NIL=
85586,2016,07,10,06,00,AAXX 10064 85586 NIL=
85586,2016,07,10,09,00,AAXX 10094 85586 NIL=
85586,2016,07,10,12,00,AAXX 10124 85586 14450 80705 10096 20082 30073 40165 56008 60001 71022 8753/ 333 20087 31/// 55058 566/6 70000 87616 88363=
85586,2016,07,10,15,00,AAXX 10154 85586 NIL=
85586,2016,07,10,18,00,AAXX 10184 85586 14440 80303 10116 20099 30080 40171 55006 69901 76022 8663/ 333 562// 85517 85627 88357=
85586,2016,07,10,21,00,AAXX 10214 85586 41557 81104 10120 20103 30061 40153 55019 76062 8353/ 333 562// 83620 88357==
85586,2016,07,11,00,00,AAXX 11004 85586 14356 80805 10109 20103 30071 40163 53010 69981 76062 885// 333 10128 562// 83707 88613=
85586,2016,07,11,03,00,AAXX 11034 85586 NIL=
85586,2016,07,11,06,00,AAXX 11064 85586 NIL=
85586,2016,07,11,09,00,AAXX 11094 85586 NIL=
85586,2016,07,11,12,00,AAXX 11124 85586 14460 50000 10100 20095 30105 40198 53033 60371 70166 81130 333 20100 32/// 55000 5666/ 70376 81810 85360=
85586,2016,07,11,15,00,AAXX 11154 85586 NIL=
85586,2016,07,11,18,00,AAXX 11184 85586 44460 13107 10151 20103 30125 40216 58001 70100 81100 333 566// 81819=
85586,2016,07,11,21,00,AAXX 11214 85586 NIL=
85586,2016,07,12,00,00,AAXX 12004 85586 44960 30000 10097 20093 30131 40224 53003 70100 80002 333 10157 56//6 83071=
85586,2016,07,12,03,00,AAXX 12034 85586 NIL=
85586,2016,07,12,06,00,AAXX 12064 85586 NIL=
85586,2016,07,12,09,00,AAXX 12094 85586 NIL=
85586,2016,07,12,12,00,AAXX 12124 85586 14960 81303 10076 20070 30081 40174 57006 60001 70222 8803/ 333 20066 31/// 55043 70000 88365=
85586,2016,07,12,15,00,AAXX 12154 85586 NIL=
85586,2016,07,12,18,00,AAXX 12184 85586 44960 80000 10114 20086 30047 40139 58023 70222 8803/ 333 56/6/ 88363=
85586,2016,07,12,21,00,AAXX 12214 85586 NIL=
85586,2016,07,13,00,00,AAXX 13004 85586 44956 80904 10099 20093 30049 40141 58002 71022 8807/ 333 10122 56/6/ 88363=
85586,2016,07,13,03,00,AAXX 13034 85586 NIL=
85586,2016,07,13,06,00,AAXX 13064 85586 NIL=
85586,2016,07,13,09,00,AAXX 13094 85586 NIL=
85586,2016,07,13,12,00,AAXX 13124 85586 14240 83511 10101 20096 30024 40116 53030 60071 76566 886// 333 20095 32/// 55000 567// 70068 88706=
85586,2016,07,13,15,00,AAXX 13154 85586 NIL=
85586,2016,07,13,21,00,AAXX 13214 85586 41558 83514 10140 20097 30056 40147 53021 76022 882// 333 567// 88829==
85586,2016,07,14,00,00,AAXX 14004 85586 NIL=
85586,2016,07,14,03,00,AAXX 14034 85586 NIL=
85586,2016,07,14,06,00,AAXX 14064 85586 NIL=
85586,2016,07,14,09,00,AAXX 14094 85586 NIL=
85586,2016,07,14,12,00,AAXX 14124 85586 NIL=
85586,2016,07,14,15,00,AAXX 14154 85586 42960 01904 10130 20097 30154 40246 50001==
85586,2016,07,14,21,00,AAXX 14214 85586 42960 02007 10147 20061 30132 40223 56007==
85586,2016,07,15,00,00,AAXX 15004 85586 NIL=
85586,2016,07,15,03,00,AAXX 15034 85586 NIL=
85586,2016,07,15,06,00,AAXX 15064 85586 NIL=
85586,2016,07,15,09,00,AAXX 15094 85586 NIL=
85586,2016,07,15,12,00,AAXX 15124 85586 NIL=
85586,2016,07,15,15,00,AAXX 15154 85586 NIL=
85586,2016,07,15,18,00,AAXX 15184 85586 NIL=
85586,2016,07,15,21,00,AAXX 15214 85586 NIL=
85586,2016,07,16,09,00,AAXX 16094 85586 NIL=
85586,2016,07,16,12,00,AAXX 16124 85586 NIL=
85586,2016,07,16,15,00,AAXX 16154 85586 42/60 62308 10122 20071 30096 40188 53004 333 56//6 86071==
85586,2016,07,16,18,00,AAXX 16184 85586 NIL=
85586,2016,07,16,21,00,AAXX 16214 85586 NIL=
85586,2016,07,17,06,00,AAXX 17064 85586 NIL=
85586,2016,07,17,09,00,AAXX 17094 85586 NIL=
85586,2016,07,17,12,00,AAXX 17124 85586 NIL=
85586,2016,07,17,15,00,AAXX 17154 85586 42/60 80105 10112 20093 30097 40189 51022 8803/ 333 88366==
85586,2016,07,17,21,00,AAXX 17214 85586 41656 80606 10109 20093 30135 40228 51034 76322=
85586,2016,07,18,00,00,AAXX 18004 85586 NIL=
85586,2016,07,18,03,00,AAXX 18034 85586 NIL=
85586,2016,07,18,06,00,AAXX 18064 85586 NIL=
85586,2016,07,18,09,00,AAXX 18094 85586 NIL=
85586,2016,07,18,12,00,AAXX 18124 85586 14920 31003 10048 20045 30139 40224 55004 60001 71000 80001 333 20048 31/// 55000 56//6 70118 83075=
85586,2016,07,18,15,00,AAXX 18154 85586 NIL=
85586,2016,07,18,18,00,AAXX 18184 85586 44960 0//// 10172 20076 30090 40180 58037 70000 80000=
85586,2016,07,18,21,00,AAXX 18214 85586 NIL=
85586,2016,07,19,00,00,AAXX 19004 85586 44960 11201 10093 20089 30072 40165 57006 70100 80001 333 10174 56//6 81071=
85586,2016,07,19,03,00,AAXX 19034 85586 NIL=
85586,2016,07,19,06,00,AAXX 19064 85586 NIL=
85586,2016,07,19,09,00,AAXX 19094 85586 NIL=
85586,2016,07,19,12,00,AAXX 19124 85586 14356 80000 10098 20097 30076 40168 53017 60001 70522 886// 333 20058 31/// 55068 567// 70000 88709=
85586,2016,07,19,15,00,AAXX 19154 85586 NIL=
85586,2016,07,19,18,00,AAXX 19184 85586 44330 8//// 10127 20110 30092 40184 50001 71022 888// 333 566// 85808 88612=
85586,2016,07,19,21,00,AAXX 19214 85586 NIL=
85586,2016,07,20,00,00,AAXX 20004 85586 14440 80000 10110 20094 30116 40208 51013 69901 71022 885// 333 10127 567// 88616=
85586,2016,07,20,03,00,AAXX 20034 85586 NIL=
85586,2016,07,20,06,00,AAXX 20064 85586 NIL=
85586,2016,07,20,09,00,AAXX 20094 85586 NIL=
85586,2016,07,20,12,00,AAXX 20124 85586 14956 4//// 10057 20054 30134 40228 51014 60001 74100 80001 333 20056 31/// 55000 56//6 79999 84075=
85586,2016,07,20,15,00,AAXX 20154 85586 NIL=
85586,2016,07,20,18,00,AAXX 20184 85586 14960 02407 10156 20114 30132 40223 58016 60001 70200 80000=
85586,2016,07,20,21,00,AAXX 20214 85586 NIL=
85586,2016,07,21,00,00,AAXX 21004 85586 14956 20000 10109 20103 30126 40219 52004 60001 70500 80001 333 10176 56//6 82075=
85586,2016,07,21,03,00,AAXX 21034 85586 NIL=
85586,2016,07,21,06,00,AAXX 21064 85586 NIL=
85586,2016,07,21,09,00,AAXX 21094 85586 NIL=
85586,2016,07,21,12,00,AAXX 21124 85586 14940 20000 10072 20060 30093 40196 55001 60001 70500 80001 333 20072 31/// 55059 56//6 70000 82075=
85586,2016,07,21,15,00,AAXX 21154 85586 41958 01304 10158 20100 30098 40189 53005 70500==
85586,2016,07,21,18,00,AAXX 21184 85586 14960 02410 10157 20115 30091 40182 55007 60001 70200 80000=
85586,2016,07,21,21,00,AAXX 21214 85586 NIL=
85586,2016,07,22,00,00,AAXX 22004 85586 14950 22506 10122 20114 30088 40180 53010 60001 70500 80001 333 10200 56//6 82075=
85586,2016,07,22,12,00,AAXX 22124 85586 14912 31003 10059 20058 30094 40188 51005 60001 71000 80001 333 20056 31/// 55068 56//6 70000 83075=
85586,2016,07,22,15,00,AAXX 22154 85586 41/08 22405 10113 20109 30096 40188 52003 71100 333 56//6 83073==
85586,2016,07,22,18,00,AAXX 22184 85586 44002 82805 10112 20109 30093 40184 58004 72822 886// 333 566// 88701=
85586,2016,07,22,21,00,AAXX 22214 85586 NIL=
85586,2016,07,23,00,00,AAXX 23004 85586 14015 80403 10106 20103 30099 40191 53008 60001 71022 886// 333 10134 566// 88701=
85586,2016,07,23,03,00,AAXX 23034 85586 NIL=
85586,2016,07,23,06,00,AAXX 23064 85586 NIL=
85586,2016,07,23,09,00,AAXX 23094 85586 NIL=
85586,2016,07,23,12,00,AAXX 23124 85586 14960 71303 10110 20104 30075 40167 58012 69961 76022 87030 333 20091 31/// 55006 56/7/ 70006 87359=
85586,2016,07,23,15,00,AAXX 23154 85586 NIL=
85586,2016,07,23,18,00,AAXX 23184 85586 14960 82505 10146 20132 30063 40154 58012 69941 70222 8803/ 333 88362=
85586,2016,07,23,21,00,AAXX 23214 85586 NIL=
85586,2016,07,24,00,00,AAXX 24004 85586 14960 80000 10121 20115 30067 40159 53006 60001 70222 8803/ 333 10161 88364=
85586,2016,07,24,03,00,AAXX 24034 85586 NIL=
85586,2016,07,24,06,00,AAXX 24064 85586 NIL=
85586,2016,07,24,09,00,AAXX 24094 85586 NIL=
85586,2016,07,24,12,00,AAXX 24124 85586 14456 81203 10117 20112 30064 40156 54000 69901 76022 885// 333 20113 31/// 55000 70004 88617=
85586,2016,07,24,15,00,AAXX 24154 85586 NIL=
85586,2016,07,24,18,00,AAXX 24184 85586 14560 83106 10131 20115 30057 40148 57009 69961 70266 8553/ 333 5610/ 85623 87358=
85586,2016,07,24,21,00,AAXX 24214 85586 41640 80803 10126 20121 30056 40147 57002 78166=
85586,2016,07,25,00,00,AAXX 25004 85586 14240 82704 10124 20121 30081 40173 51024 60161 76366 885// 333 10149 561// 83705 85630 88359=
85586,2016,07,25,03,00,AAXX 25034 85586 NIL=
85586,2016,07,25,06,00,AAXX 25064 85586 NIL=
85586,2016,07,25,09,00,AAXX 25094 85586 NIL=
85586,2016,07,25,12,00,AAXX 25124 85586 14456 82206 10107 20101 30138 40231 53033 60131 70566 885// 333 20107 32/// 55000 567// 70296 88612=
85586,2016,07,25,15,00,AAXX 25154 85586 NIL=
85586,2016,07,25,18,00,AAXX 25184 85586 44660 52309 10130 20087 30173 40265 50004 70122 85500 333 566// 85640=
85586,2016,07,25,21,00,AAXX 25214 85586 42660 02409 10129 20061 30185 40277 53012 81500 333 566// 81646==
85586,2016,07,26,00,00,AAXX 26004 85586 14940 01903 10090 20063 30188 40282 53003 60001 70500 80000 333 10137=
85586,2016,07,26,03,00,AAXX 26034 85586 NIL=
85586,2016,07,26,06,00,AAXX 26064 85586 NIL=
85586,2016,07,26,09,00,AAXX 26094 85586 NIL=
85586,2016,07,26,12,00,AAXX 26124 85586 14960 2//// 10061 20052 30126 40220 58008 60001 70200 80001 333 20055 31/// 55058 56//6 70000 82075=
85586,2016,07,26,15,00,AAXX 2615/ 85586 42960 0//// 10118 20075 30122 40214 58003==
85586,2016,07,26,18,00,AAXX 26184 85586 14960 21605 10165 20090 30091 40181 56032 60001 70200 80001 333 56//6 82075=
85586,2016,07,26,21,00,AAXX 26214 85586 NIL=
85586,2016,07,27,00,00,AAXX 27004 85586 14956 81804 10132 20079 30066 40157 56010 60001 70522 8801/ 333 10179 56/6/ 88468=
85586,2016,07,27,03,00,AAXX 27034 85586 NIL=
85586,2016,07,27,06,00,AAXX 27064 85586 NIL=
85586,2016,07,27,09,00,AAXX 27094 85586 NIL=
85586,2016,07,27,12,00,AAXX 27124 85586 14960 82305 10092 20073 30065 40158 53013 60001 70222 8803/ 333 20081 31/// 55065 56/6/ 70000 88362=
85586,2016,07,27,15,00,AAXX 27154 85586 42960 00804 10145 20089 30067 40158 50004==
85586,2016,07,27,18,00,AAXX 27184 85586 14960 02510 10144 20103 30061 40152 58007 60001 70200 80000=
85586,2016,07,27,21,00,AAXX 27214 85586 NIL=
85586,2016,07,28,00,00,AAXX 28004 85586 14960 50905 10107 20096 30076 40168 53011 60001 70200 80001 333 10158 56//6 85075=
85586,2016,07,28,03,00,AAXX 28034 85586 NIL=
85586,2016,07,28,06,00,AAXX 28064 85586 NIL=
85586,2016,07,28,09,00,AAXX 28094 85586 NIL=
85586,2016,07,28,12,00,AAXX 28124 85586 14920 31103 10060 20059 30077 40171 54000 69921 71052 80001 333 20049 31/// 55064 56//6 70002 83075=
85586,2016,07,28,15,00,AAXX 28154 85586 NIL=
85586,2016,07,28,18,00,AAXX 28184 85586 44958 62506 10130 20100 30092 40183 58003 70500 80002 333 56//6 86071=
85586,2016,07,28,21,00,AAXX 28214 85586 NIL=
85586,2016,07,29,00,00,AAXX 29004 85586 44956 60000 10095 20089 30102 40195 52005 71000 80002 333 10166 56//6 86070=
85586,2016,07,29,03,00,AAXX 29034 85586 NIL=
85586,2016,07,29,06,00,AAXX 29064 85586 NIL=
85586,2016,07,29,09,00,AAXX 29094 85586 NIL=
85586,2016,07,29,12,00,AAXX 29124 85586 14103 80000 10055 20054 30092 40186 53007 69921 74654 886// 333 20050 31/// 55059 70002 88702=
85586,2016,07,29,15,00,AAXX 29154 85586 41107 82505 10096 20095 30103 40196 53011 72811 886// 333 566// 88702==
85586,2016,07,29,18,00,AAXX 29184 85586 44360 32507 10130 20109 30086 40177 58017 70100 83500 333 566// 83607=
85586,2016,07,29,21,00,AAXX 29214 85586 NIL=
85586,2016,07,30,00,00,AAXX 30004 85586 44558 40804 10103 20098 30080 40172 52009 71000 84600 333 10139 566// 84729=
85586,2016,07,30,03,00,AAXX 30034 85586 NIL=
85586,2016,07,30,06,00,AAXX 30064 85586 NIL=
85586,2016,07,30,09,00,AAXX 30094 85586 NIL=
85586,2016,07,30,12,00,AAXX 30124 85586 14102 80903 10059 20058 30078 40172 53007 69921 74654 886// 333 20054 31/// 55068 70002 88702=
85586,2016,07,30,15,00,AAXX 30154 85586 NIL=
85586,2016,07,30,18,00,AAXX 30184 85586 14360 71603 10114 20109 30079 40171 58008 60001 70222 87600 333 566// 87707=
85586,2016,07,30,21,00,AAXX 30214 85586 NIL=
85586,2016,07,31,00,00,AAXX 31004 85586 14240 80000 10098 20095 30088 40181 52013 60001 71022 82602 333 10139 566/6 82704 87070=
85586,2016,07,31,03,00,AAXX 31034 85586 NIL=
85586,2016,07,31,12,00,AAXX 31124 85586 14357 41103 10070 20067 30115 40209 53021 60001 70500 84600 333 20069 31/// 55028 567// 70000 84708=
85586,2016,07,31,15,00,AAXX 3115/ 85586 42460 2//// 10138 20093 30128 40220 51014 83500 333 567// 83614==
85586,2016,07,31,18,00,AAXX 31184 85586 14960 52807 10136 20099 30139 40231 51015 60001 70211 85010 333 56/6/ 85467=
85586,2016,07,31,21,00,AAXX 31214 85586 NIL=
85586,2016,08,01,00,00,AAXX 01004 85586 14956 01102 10089 20081 30160 40253 51017 60001 70500 80000 333 10159=
85586,2016,08,01,03,00,AAXX 01034 85586 NIL=
85586,2016,08,01,06,00,AAXX 01064 85586 NIL=
85586,2016,08,01,09,00,AAXX 01094 85586 NIL=
85586,2016,08,01,12,00,AAXX 01124 85586 14960 51503 10067 20053 30120 40214 57006 60001 70200 80001 333 20060 31/// 55067 56//6 70000 85075=
85586,2016,08,01,15,00,AAXX 01154 85586 42/60 21504 10144 20077 30117 40208 58003 333 56//6 83075==
85586,2016,08,01,18,00,AAXX 01184 85586 14960 4//// 10181 20098 30092 40182 58025 60001 70200 80001 333 56//6 84075=
85586,2016,08,01,21,00,AAXX 01214 85586 42/60 42405 10162 20120 30079 40169 56016 333 56//6=
85586,2016,08,02,00,00,AAXX 02004 85586 44956 40000 10099 20085 30084 40176 53005 70500 80001 333 10196 56//6 84075=
85586,2016,08,02,03,00,AAXX 02034 85586 NIL=
85586,2016,08,02,06,00,AAXX 02064 85586 NIL=
85586,2016,08,02,09,00,AAXX 02094 85586 NIL=
85586,2016,08,02,12,00,AAXX 02124 85586 14956 41102 10039 20036 30088 40183 53011 69921 70500 80001 333 20031 31/// 55051 56//6 70002 84075=
85586,2016,08,02,15,00,AAXX 0215/ 85586 41/58 2//// 10139 20092 30096 40187 51008 70500 333 56//6 83075==
85586,2016,08,02,18,00,AAXX 02184 85586 44960 42606 10141 20098 30082 40173 58015 70100 80001 333 56//6 84075=
85586,2016,08,02,21,00,AAXX 02214 85586 42/60 62506 10131 20105 30079 40170 55003 333 56//6 86071==
85586,2016,08,03,00,00,AAXX 03004 85586 14956 51003 10096 20090 30092 40185 53013 60001 70511 80001 333 10145 56//6 85075=
85586,2016,08,03,03,00,AAXX 03034 85586 NIL=
85586,2016,08,03,06,00,AAXX 03064 85586 NIL=
85586,2016,08,03,09,00,AAXX 03094 85586 NIL=
85586,2016,08,03,12,00,AAXX 03124 85586 14104 81003 10080 20079 30119 40206 53010 69921 74652 886// 333 20063 31/// 55055 70002 88702=
85586,2016,08,03,15,00,AAXX 03154 85586 41117 80904 10089 20088 30122 40215 50008 71022 886// 333 566// 88703==
85586,2016,08,03,18,00,AAXX 03184 85586 44256 72307 10118 20105 30104 40196 56017 70522 87500 333 566// 87605=
85586,2016,08,03,21,00,AAXX 03214 85586 41/57 42507 10120 20096 30100 40192 55008 70500 333 56//6=
85586,2016,08,04,00,00,AAXX 04004 85586 44960 50802 10084 20078 30108 40201 51010 70111 80005 333 10139 56//6 85073=
85586,2016,08,04,03,00,AAXX 04034 85586 NIL=
85586,2016,08,04,12,00,AAXX 04124 85586 14940 20000 10058 20054 30085 40179 54000 60001 71000 80002 333 20053 31/// 55036 56//6 70000 82072=
85586,2016,08,04,15,00,AAXX 04154 85586 42/60 62004 10130 20089 30096 40188 51012 333 56//6 86075==
85586,2016,08,04,18,00,AAXX 04184 85586 14960 22411 10141 20115 30084 40175 58011 60001 70200 80001 333 56//6 82075=
85586,2016,08,04,21,00,AAXX 04214 85586 42960 02508 10132 20109 30081 40172 55004 333 56//6 81075==
85586,2016,08,05,00,00,AAXX 05004 85586 14950 50000 10088 20082 30095 40188 53014 60001 71022 80001 333 10151 56//6 85075=
85586,2016,08,05,03,00,AAXX 05034 85586 NIL=
85586,2016,08,05,06,00,AAXX 05064 85586 NIL=
85586,2016,08,05,09,00,AAXX 05094 85586 NIL=
85586,2016,08,05,12,00,AAXX 05124 85586 14960 01905 10055 20042 30115 40209 53013 60001 70200 80000 333 20041 31/// 55073 70000=
85586,2016,08,05,15,00,AAXX 0515/ 85586 42960 0//// 10137 20071 30127 40219 51012==
85586,2016,08,05,18,00,AAXX 05184 85586 44960 02308 10162 20097 30116 40207 58010 70000 80000=
85586,2016,08,05,21,00,AAXX 05214 85586 42960 02408 10150 20103 30113 40204 55004==
85586,2016,08,06,00,00,AAXX 06004 85586 44960 0//// 10099 20077 30128 40221 53016 70000 80000 333 10177=
85586,2016,08,06,03,00,AAXX 06034 85586 NIL=
85586,2016,08,06,06,00,AAXX 06064 85586 NIL=
85586,2016,08,06,09,00,AAXX 06094 85586 NIL=
85586,2016,08,06,12,00,AAXX 06124 85586 14960 01906 10060 20038 30149 40243 53017 60001 70200 80000 333 20036 31/// 55078 70000=
85586,2016,08,06,15,00,AAXX 0615/ 85586 42960 0//// 10138 20074 30150 40242 50001==
85586,2016,08,06,18,00,AAXX 06184 85586 14960 02510 10158 20097 30130 40221 58020 60001 70200 80000=
85586,2016,08,06,21,00,AAXX 06214 85586 42960 02308 10154 20098 30124 40215 55007==
85586,2016,08,07,00,00,AAXX 07004 85586 14958 22005 10115 20084 30136 40228 53012 60001 70500 80001 333 10179 82075=
85586,2016,08,07,03,00,AAXX 07034 85586 NIL=
85586,2016,08,07,06,00,AAXX 07064 85586 NIL=
85586,2016,08,07,09,00,AAXX 07094 85586 NIL=
85586,2016,08,07,12,00,AAXX 07124 85586 14960 82003 10097 20082 30121 40214 53007 60001 70322 8803/ 333 20071 31/// 55084 56/6/ 70000 88367=
85586,2016,08,07,15,00,AAXX 07154 85586 42/60 82106 10124 20091 30129 40221 50007 8803/ 333 56/6/ 88366==
85586,2016,08,07,18,00,AAXX 07184 85586 14960 12407 10159 20111 30118 40209 58011 69901 70111 80001 333 56//6 81075=
85586,2016,08,07,21,00,AAXX 07214 85586 42960 02407 10149 20119 30114 40205 55004==
85586,2016,08,08,00,00,AAXX 08004 85586 14958 00000 10102 20093 30132 40225 53019 60001 70500 80000 333 10180=
85586,2016,08,08,12,00,AAXX 08124 85586 14956 01203 10070 20069 30131 40225 53003 69921 74100 80000 333 20054 31/// 55058 70002=
85586,2016,08,08,15,00,AAXX 08154 85586 41358 01606 10132 20116 30138 40230 51007 70500 81100 333 566// 81808==
85586,2016,08,08,18,00,AAXX 08184 85586 14960 01304 10181 20120 30112 40202 58025 60001 70200 80000=
85586,2016,08,08,21,00,AAXX 08214 85586 42960 02306 10176 20117 30103 40193 56010==
85586,2016,08,09,00,00,AAXX 09004 85586 44958 01803 10151 20095 30110 40201 51007 70500 80000 333 10200=
85586,2016,08,09,03,00,AAXX 09034 85586 NIL=
85586,2016,08,09,06,00,AAXX 09064 85586 NIL=
85586,2016,08,09,09,00,AAXX 09094 85586 NIL=
85586,2016,08,09,12,00,AAXX 09124 85586 14960 01105 10083 20066 30083 40176 57004 60001 70200 80000 333 20059 31/// 55072 70000=
85586,2016,08,09,15,00,AAXX 09154 85586 42960 02505 10149 20103 30088 40179 51003==
85586,2016,08,09,18,00,AAXX 09184 85586 44960 32508 10173 20100 30072 40162 57014 70000 80002 333 56//6 83073=
85586,2016,08,09,21,00,AAXX 09214 85586 42960 02405 10159 20107 30066 40156 56007==
85586,2016,08,10,00,00,AAXX 10004 85586 44957 00000 10103 20094 30069 40161 51003 70500 80000 333 10189=
85586,2016,08,10,03,00,AAXX 10034 85586 NIL=
85586,2016,08,10,06,00,AAXX 10064 85586 NIL=
85586,2016,08,10,09,00,AAXX 10094 85586 NIL=
85586,2016,08,10,12,00,AAXX 10124 85586 14103 81003 10046 20045 30063 40157 52014 60001 74644 886// 333 20031 31/// 55081 70000 88702=
85586,2016,08,10,15,00,AAXX 10154 85586 41112 80104 10096 20095 30090 40183 51025 71044 886// 333 88702==
85586,2016,08,10,18,00,AAXX 10184 85586 14230 83407 10112 20103 30098 40190 50010 60001 71022 886// 333 88705=
85586,2016,08,10,21,00,AAXX 10214 85586 41230 83503 10116 20102 30112 40204 50013 71022 886// 333 88706==
85586,2016,08,11,00,00,AAXX 11004 85586 14457 80000 10108 20097 30117 40209 52006 60001 70522 885// 333 10116 88615=
85586,2016,08,11,03,00,AAXX 11034 85586 NIL=
85586,2016,08,11,06,00,AAXX 11064 85586 NIL=
85586,2016,08,11,09,00,AAXX 11094 85586 NIL=
85586,2016,08,11,12,00,AAXX 11124 85586 14940 21803 10076 20069 30128 40222 53003 60001 71000 80002 333 20076 31/// 55000 56//6 70000 82071=
85586,2016,08,11,15,00,AAXX 11154 85586 41/56 41806 10141 20096 30132 40224 50005 70500 333 56//6 84070==
85586,2016,08,11,18,00,AAXX 11184 85586 44960 42411 10148 20108 30108 40199 58024 70100 80002 333 56//6 84073=
85586,2016,08,11,21,00,AAXX 11214 85586 42/60 22307 10147 20115 30098 40189 55010 333 56//6 82071==
85586,2016,08,12,00,00,AAXX 12004 85586 44958 00505 10099 20093 30097 40190 58002 71000 80000 333 10181=
85586,2016,08,12,03,00,AAXX 12034 85586 NIL=
85586,2016,08,12,06,00,AAXX 12064 85586 NIL=
85586,2016,08,12,09,00,AAXX 12094 85586 NIL=
85586,2016,08,12,12,00,AAXX 12124 85586 14903 70000 10066 20065 30088 40182 53002 69921 74944 80001 333 20066 31/// 55072 56//1 70002 87075=
85586,2016,08,12,15,00,AAXX 1215/ 85586 41206 8//// 10101 20100 30093 40185 50006 74244 886// 333 567// 88704==
85586,2016,08,12,18,00,AAXX 12184 85586 14103 82508 10107 20104 30082 40174 58010 60001 74644 886// 333 567// 88702=
85586,2016,08,12,21,00,AAXX 12214 85586 42/60 62407 10129 20099 30080 40171 55004 333 56//6 87070==
85586,2016,08,13,00,00,AAXX 13004 85586 14956 81003 10106 20089 30094 40186 52014 60001 70522 8801/ 333 10150 56/6/ 88465=
85586,2016,08,13,03,00,AAXX 13034 85586 NIL=
85586,2016,08,13,06,00,AAXX 13064 85586 NIL=
85586,2016,08,13,09,00,AAXX 13094 85586 NIL=
85586,2016,08,13,12,00,AAXX 13124 85586 14958 01903 10103 20091 30111 40204 53006 60001 70400 80000 333 20092 31/// 55016 70000=
85586,2016,08,13,15,00,AAXX 13154 85586 41/58 22204 10170 20120 30114 40204 53003 70500 333 56//6 83075==
85586,2016,08,13,18,00,AAXX 13184 85586 14960 72409 10144 20119 30093 40184 58020 60001 70311 87030 333 56/6/ 87365=
85586,2016,08,13,21,00,AAXX 13214 85586 41120 82504 10123 20118 30092 40184 55002 71011 886// 333 567//=
85586,2016,08,14,00,00,AAXX 14004 85586 14106 83404 10116 20113 30107 40199 53015 60001 74644 886// 333 10183 567// 88702=
85586,2016,08,14,03,00,AAXX 14034 85586 NIL=
85586,2016,08,14,06,00,AAXX 14064 85586 NIL=
85586,2016,08,14,09,00,AAXX 14094 85586 NIL=
85586,2016,08,14,12,00,AAXX 14124 85586 14101 80702 10082 20081 30116 40209 53007 60001 74644 886// 333 20081 31/// 55042 567// 70000 88701=
85586,2016,08,14,15,00,AAXX 14154 85586 41107 80405 10115 20113 30126 40218 53012 74244 886// 333 567// 88702==
85586,2016,08,14,18,00,AAXX 14184 85586 14960 82705 10145 20115 30112 40204 58014 60001 70211 8803/ 333 56/6/ 88365=
85586,2016,08,14,21,00,AAXX 14214 85586 42/60 62404 10135 20114 30112 40204 53003 87030 333 56/6/ 87365==
85586,2016,08,15,00,00,AAXX 15004 85586 14958 70000 10114 20103 30122 40214 53009 60001 70522 87030 333 10170 56/6/ 87365=
85586,2016,08,15,03,00,AAXX 15034 85586 NIL=
85586,2016,08,15,06,00,AAXX 15064 85586 NIL=
85586,2016,08,15,09,00,AAXX 15094 85586 NIL=
85586,2016,08,15,12,00,AAXX 15124 85586 14960 71303 10117 20100 30085 40177 55007 60001 70222 80002 333 20096 31/// 55025 56//6 70000 87071=
85586,2016,08,15,15,00,AAXX 15154 85586 41/59 22104 10198 20136 30085 40174 57001 70500 333 56//6 82073==
85586,2016,08,15,18,00,AAXX 15184 85586 44960 32408 10165 20133 30071 40161 58014 70100 80002 333 56//6 83071=
85586,2016,08,15,21,00,AAXX 15214 85586 42960 03304 10150 20123 30066 40157 56005==
85586,2016,08,16,00,00,AAXX 16004 85586 14120 83004 10116 20113 30072 40164 53005 60001 71022 886// 333 10211 88702=
85586,2016,08,16,03,00,AAXX 16034 85586 NIL=
85586,2016,08,16,12,00,AAXX 16124 85586 14460 71603 10099 20098 30098 40191 53013 69921 70252 87500 333 20095 31/// 55074 566// 70002 85612 87650=
85586,2016,08,16,15,00,AAXX 1615/ 85586 42460 2//// 10159 20123 30105 40196 50008 83500 333 566// 83614==
85586,2016,08,16,18,00,AAXX 16184 85586 44460 72508 10152 20127 30106 40197 50002 70211 87500 333 566// 87613=
85586,2016,08,16,21,00,AAXX 16214 85586 41220 82605 10129 20123 30110 40202 53001 71022 886// 333 566// 88705==
85586,2016,08,17,00,00,AAXX 17004 85586 14103 81003 10117 20114 30123 40215 51015 60001 74622 886// 333 10168 88702=
85586,2016,08,17,03,00,AAXX 17034 85586 NIL=
85586,2016,08,17,06,00,AAXX 17064 85586 NIL=
85586,2016,08,17,09,00,AAXX 17094 85586 NIL=
85586,2016,08,17,12,00,AAXX 17124 85586 14960 31203 10022 20021 30156 40252 52015 69921 70252 80002 333 20014 31/// 55018 56//6 70002 83070=
85586,2016,08,17,15,00,AAXX 17154 85586 42960 01404 10143 20081 30167 40259 50011 333 56//6 81075==
85586,2016,08,17,18,00,AAXX 17184 85586 14960 12411 10146 20077 30162 40254 57005 60001 70200 80002 333 56//6 81075=
85586,2016,08,17,21,00,AAXX 17214 85586 42960 02411 10143 20085 30157 40249 57003==
85586,2016,08,18,00,00,AAXX 18004 85586 14960 02005 10107 20081 30169 40262 53010 60001 70200 80000 333 10173=
85586,2016,08,18,03,00,AAXX 18034 85586 NIL=
85586,2016,08,18,06,00,AAXX 18064 85586 NIL=
85586,2016,08,18,09,00,AAXX 18094 85586 NIL=
85586,2016,08,18,12,00,AAXX 18124 85586 14960 00904 10048 20042 30170 40265 53003 60001 70200 80000 333 20043 31/// 55081 70000=
85586,2016,08,18,15,00,AAXX 18154 85586 42960 01706 10140 20062 30170 40262 50002==
85586,2016,08,18,18,00,AAXX 18184 85586 44960 02414 10144 20103 30164 40256 58009 70000 80000=
85586,2016,08,18,21,00,AAXX 18214 85586 42960 02312 10147 20080 30157 40249 55005==
85586,2016,08,19,00,00,AAXX 19004 85586 14958 5//// 10099 20045 30161 40254 52003 60001 70500 80001 333 10166 56//6 85075=
85586,2016,08,19,03,00,AAXX 19034 85586 NIL=
85586,2016,08,19,06,00,AAXX 19064 85586 NIL=
85586,2016,08,19,09,00,AAXX 19094 85586 NIL=
85586,2016,08,19,12,00,AAXX 19124 85586 14960 51102 10033 20027 30160 40255 53007 60001 70200 85030 333 20019 31/// 55089 56/6/ 70000 85365=
85586,2016,08,19,15,00,AAXX 19154 85586 42/60 22604 10123 20071 30159 40251 58001 83030 333 56/6/ 83363==
85586,2016,08,19,18,00,AAXX 19184 85586 44960 22407 10135 20080 30150 40242 58008 70100 82030 333 56/6/ 82361=
85586,2016,08,19,21,00,AAXX 19214 85586 42/60 22705 10131 20086 30152 40244 53001 82030 333 56/6/ 82361==
85586,2016,08,20,00,00,AAXX 20004 85586 14958 00000 10082 20076 30167 40261 53013 60001 70500 80000 333 10141=
85586,2016,08,20,03,00,AAXX 20034 85586 NIL=
85586,2016,08,20,06,00,AAXX 20064 85586 NIL=
85586,2016,08,20,09,00,AAXX 20094 85586 NIL=
85586,2016,08,20,12,00,AAXX 20124 85586 14203 2//// 10036 20035 30172 40267 53004 60001 74600 82600 333 20026 31/// 55081 567// 70000 82704=
85586,2016,08,20,15,00,AAXX 2015/ 85586 42960 0//// 10124 20071 30167 40259 58007==
85586,2016,08,20,18,00,AAXX 20184 85586 14960 5//// 10171 20061 30144 40235 58023 60001 70200 80001 333 56//6 85075=
85586,2016,08,20,21,00,AAXX 20214 85586 42/60 41707 10179 20031 30132 40222 57012 333 56//6=
85586,2016,08,21,00,00,AAXX 21004 85586 14958 5//// 10122 20061 30135 40227 50003 60001 70500 80001 333 10181 56//6 85075=
85586,2016,08,21,03,00,AAXX 21034 85586 NIL=
85586,2016,08,21,06,00,AAXX 21064 85586 NIL=
85586,2016,08,21,09,00,AAXX 21094 85586 NIL=
85586,2016,08,21,12,00,AAXX 21124 85586 14960 21507 10085 20045 30093 40186 53004 60001 70200 80001 333 20064 31/// 55087 56//6 70000 82075=
85586,2016,08,21,15,00,AAXX 21154 85586 42/60 21605 10174 20061 30081 40171 56013 333 56//6 82075==
85586,2016,08,21,18,00,AAXX 21184 85586 14960 31906 10224 20042 30058 40146 58024 60001 70200 80001 333 56//6 83075=
85586,2016,08,21,21,00,AAXX 21214 85586 42/60 21807 10236 20032 30033 40121 56023 333 56//6 83075==
85586,2016,08,22,00,00,AAXX 22004 85586 14960 20503 10163 20048 30036 40126 53001 60001 70200 80001 333 10251 56//6 82075=
85586,2016,08,22,03,00,AAXX 22034 85586 NIL=
85586,2016,08,22,06,00,AAXX 22064 85586 NIL=
85586,2016,08,22,09,00,AAXX 22094 85586 NIL=
85586,2016,08,22,12,00,AAXX 22124 85586 14960 01003 10075 20055 30016 40108 53010 60001 70200 80000 333 20065 31/// 55095 70000=
85586,2016,08,22,15,00,AAXX 22154 85586 42960 02909 10142 20101 30053 40144 51038==
85586,2016,08,22,18,00,AAXX 22184 85586 14960 03313 10149 20106 30058 40149 50005 60001 70200 80000=
85586,2016,08,22,21,00,AAXX 22214 85586 42960 03210 10136 20102 30061 40152 53003==
85586,2016,08,23,00,00,AAXX 23004 85586 14560 83005 10123 20106 30067 40159 51007 60001 70311 885// 333 10159 88620=
85586,2016,08,23,03,00,AAXX 23034 85586 NIL=
85586,2016,08,23,06,00,AAXX 23064 85586 NIL=
85586,2016,08,23,09,00,AAXX 23094 85586 NIL=
85586,2016,08,23,12,00,AAXX 23124 85586 14340 80000 10113 20105 30072 40164 53016 69901 75022 885// 333 20111 31/// 55091 566// 79999 85708 88612=
85586,2016,08,23,15,00,AAXX 23154 85586 41356 80103 10118 20106 30084 40176 51013 70522 885// 333 566// 82707 88615==
85586,2016,08,23,18,00,AAXX 23184 85586 14560 83105 10123 20099 30072 40164 57011 69901 70222 885// 333 88620=
85586,2016,08,23,21,00,AAXX 23214 85586 42360 80000 10119 20100 30066 40158 58007 885// 333 82708 88623==
85586,2016,08,24,00,00,AAXX 24004 85586 14560 80000 10119 20103 30058 40150 57008 60001 70222 885// 333 10126 88621=
85586,2016,08,24,12,00,AAXX 24124 85586 14558 80304 10123 20084 30091 40183 53016 60001 70522 885// 333 20102 31/// 55000 567// 79999 88632=
85586,2016,08,24,15,00,AAXX 24154 85586 41558 83405 10142 20091 30103 40194 53012 70522 885// 333 567// 88627==
85586,2016,08,24,18,00,AAXX 24184 85586 14658 83212 10154 20082 30101 40192 58002 60001 70522 885// 333 567// 88636=
85586,2016,08,24,21,00,AAXX 24214 85586 42660 23207 10166 20084 30097 40187 55005 82500 333 567// 82641==
85586,2016,08,25,00,00,AAXX 25004 85586 14656 80000 10121 20090 30105 40197 53009 60001 70511 885// 333 10177 567// 88644=
85586,2016,08,25,03,00,AAXX 25034 85586 NIL=
85586,2016,08,25,06,00,AAXX 25064 85586 NIL=
85586,2016,08,25,09,00,AAXX 25094 85586 NIL=
85586,2016,08,25,12,00,AAXX 25124 85586 14960 01003 10073 20064 30097 40190 53005 60001 70200 80000 333 20065 31/// 55032 70000=
85586,2016,08,25,15,00,AAXX 25154 85586 41958 00104 10168 20091 30102 40192 52006 70500==
85586,2016,08,25,18,00,AAXX 25184 85586 14960 02410 10152 20104 30099 40190 58004 60001 70200 80000=
85586,2016,08,25,21,00,AAXX 25214 85586 41/58 42509 10143 20115 30099 40190 53000 70500 333 56//6=
85586,2016,08,26,00,00,AAXX 26004 85586 14956 0//// 10102 20096 30108 40201 53009 60001 70500 80000 333 10169=
85586,2016,08,26,03,00,AAXX 26034 85586 NIL=
85586,2016,08,26,06,00,AAXX 26064 85586 NIL=
85586,2016,08,26,09,00,AAXX 26094 85586 NIL=
85586,2016,08,26,12,00,AAXX 26124 85586 14958 7//// 10097 20078 30107 40200 53004 60001 70511 80001 333 20051 31/// 55097 56//6 70000 87075=
85586,2016,08,26,15,00,AAXX 26154 85586 41/58 61807 10143 20083 30110 40201 50003 70511 333 56//6 87075==
85586,2016,08,26,18,00,AAXX 26184 85586 14958 62412 10144 20093 30089 40180 58020 60001 70511 80001 333 56//6 86075=
85586,2016,08,26,21,00,AAXX 26214 85586 42/60 62311 10135 20082 30082 40173 55009 333 56//6 87075==
85586,2016,08,27,00,00,AAXX 27004 85586 14956 3//// 10105 20067 30095 40187 51014 60001 70511 80001 333 10171 56//6 83075=
85586,2016,08,27,03,00,AAXX 27034 85586 NIL=
85586,2016,08,27,06,00,AAXX 27064 85586 NIL=
85586,2016,08,27,09,00,AAXX 27094 85586 NIL=
85586,2016,08,27,12,00,AAXX 27124 85586 14660 70000 10076 20062 30117 40211 53021 60001 70222 85530 333 20059 30/// 55060 5666/ 70000 85640 87363=
85586,2016,08,27,15,00,AAXX 27154 85586 42660 22705 10128 20053 30133 40225 51019 82500 333 566// 82646==
85586,2016,08,27,18,00,AAXX 27184 85586 14660 62410 10135 20036 30123 40215 58010 60001 70311 86500 333 566// 86645=
85586,2016,08,27,21,00,AAXX 27214 85586 42660 62505 10127 20054 30114 40206 57009 83502 333 566/6 83646=
85586,2016,08,28,00,00,AAXX 28004 85586 14960 50000 10088 20056 30118 40211 52002 60001 70222 80002 333 10137 56//6 85070=
85586,2016,08,28,12,00,AAXX 28124 85586 14960 21103 10048 20039 30127 40227 53009 60001 70200 80001 333 20034 30/// 55033 56//6 70000 82075=
85586,2016,08,28,15,00,AAXX 28154 85586 42960 02607 10129 20074 30136 40228 51010==
85586,2016,08,28,18,00,AAXX 28184 85586 14560 12608 10140 20078 30128 40220 58009 60001 70200 81500 333 566// 81625=
85586,2016,08,28,21,00,AAXX 28214 85586 42960 02413 10129 20082 30133 40225 53005==
85586,2016,08,29,00,00,AAXX 29004 85586 14960 01003 10086 20067 30155 40248 53022 60001 70200 80000 333 10153=
85586,2016,08,29,03,00,AAXX 29034 85586 NIL=
85586,2016,08,29,06,00,AAXX 29064 85586 NIL=
85586,2016,08,29,09,00,AAXX 29094 85586 NIL=
85586,2016,08,29,12,00,AAXX 29124 85586 14960 00000 10040 20037 30154 40249 53003 60001 70200 80000 333 20030 30/// 55090 70000=
85586,2016,08,29,15,00,AAXX 29154 85586 42960 02105 10159 20089 30153 40244 57001==
85586,2016,08,29,18,00,AAXX 29184 85586 44960 02412 10145 20094 30135 40226 58018 70000 80000=
85586,2016,08,29,21,00,AAXX 29214 85586 42960 02508 10134 20101 30130 40222 57007==
85586,2016,08,30,00,00,AAXX 30004 85586 14960 00000 10092 20089 30142 40235 53013 60001 70200 80000 333 10175=
85586,2016,08,30,03,00,AAXX 30034 85586 NIL=
85586,2016,08,30,06,00,AAXX 30064 85586 NIL=
85586,2016,08,30,09,00,AAXX 30094 85586 NIL=
85586,2016,08,30,12,00,AAXX 30124 85586 14104 8//// 10073 20072 30138 40232 53002 60001 74744 886// 333 20059 31/// 55095 567// 70000 88702=
85586,2016,08,30,15,00,AAXX 30154 85586 42960 02506 10123 20090 30135 40227 58003 333 56//6 81071==
85586,2016,08,30,18,00,AAXX 30184 85586 44960 02607 10157 20103 30113 40204 58021 70000 80000=
85586,2016,08,31,00,00,AAXX 31004 85586 NIL=
85586,2016,08,31,03,00,AAXX 31034 85586 NIL=
85586,2016,08,31,06,00,AAXX 31064 85586 NIL=
85586,2016,08,31,09,00,AAXX 31094 85586 NIL=
85586,2016,08,31,12,00,AAXX 31124 85586 NIL=
85586,2016,08,31,15,00,AAXX 31154 85586 41556 42006 10138 20072 30129 40221 51020 70522 82530 333 5676/ 82631=
85586,2016,08,31,21,00,AAXX 31214 85586 NIL=
85586,2016,09,01,00,00,AAXX 01004 85586 NIL=
85586,2016,09,01,03,00,AAXX 01034 85586 NIL=
85586,2016,09,01,15,00,AAXX 01154 85586 42960 02406 10112 20035 30180 40273 50008==
85586,2016,09,02,00,00,AAXX 02004 85586 NIL=
85586,2016,09,02,03,00,AAXX 02034 85586 NIL=
85586,2016,09,02,06,00,AAXX 02064 85586 NIL=
85586,2016,09,02,09,00,AAXX 02094 85586 NIL=
85586,2016,09,02,12,00,AAXX 02124 85586 NIL=
85586,2016,09,02,15,00,AAXX 02154 85586 42960 02605 10099 20037 30173 40266 58003==
85586,2016,09,02,18,00,AAXX 02184 85586 NIL=
85586,2016,09,03,00,00,AAXX 03004 85586 NIL=
85586,2016,09,03,03,00,AAXX 03034 85586 NIL=
85586,2016,09,03,06,00,AAXX 03064 85586 NIL=
85586,2016,09,03,09,00,AAXX 03094 85586 NIL=
85586,2016,09,03,12,00,AAXX 03124 85586 NIL=
85586,2016,09,03,15,00,AAXX 03154 85586 42960 02805 10118 20059 30120 40212 50001==
85586,2016,09,03,21,00,AAXX 03214 85586 NIL=
85586,2016,09,04,00,00,AAXX 04004 85586 NIL=
85586,2016,09,04,03,00,AAXX 04034 85586 NIL=
85586,2016,09,04,06,00,AAXX 04064 85586 NIL=
85586,2016,09,04,09,00,AAXX 04094 85586 NIL=
85586,2016,09,04,12,00,AAXX 04124 85586 NIL=
85586,2016,09,04,15,00,AAXX 04154 85586 42960 02905 10133 20071 30098 40189 50005==
85586,2016,09,04,21,00,AAXX 04214 85586 NIL=
85586,2016,09,05,00,00,AAXX 05004 85586 NIL=
85586,2016,09,05,03,00,AAXX 05034 85586 NIL=
85586,2016,09,05,06,00,AAXX 05064 85586 NIL=
85586,2016,09,05,09,00,AAXX 05094 85586 NIL=
85586,2016,09,05,12,00,AAXX 05124 85586 NIL=
85586,2016,09,05,15,00,AAXX 05154 85586 42960 02304 10146 20092 30139 40230 50001==
85586,2016,09,05,18,00,AAXX 05184 85586 NIL=
85586,2016,09,05,21,00,AAXX 05214 85586 NIL=
85586,2016,09,06,00,00,AAXX 06004 85586 NIL=
85586,2016,09,06,03,00,AAXX 06034 85586 NIL=
85586,2016,09,06,06,00,AAXX 06064 85586 NIL=
85586,2016,09,06,09,00,AAXX 06094 85586 NIL=
85586,2016,09,06,12,00,AAXX 06124 85586 NIL=
85586,2016,09,06,15,00,AAXX 06154 85586 42960 01506 10182 20045 30102 40192 58002==
85586,2016,09,06,21,00,AAXX 06214 85586 NIL=
85586,2016,09,07,00,00,AAXX 07004 85586 NIL=
85586,2016,09,07,03,00,AAXX 07034 85586 NIL=
85586,2016,09,07,06,00,AAXX 07064 85586 NIL=
85586,2016,09,07,09,00,AAXX 07094 85586 NIL=
85586,2016,09,07,12,00,AAXX 07124 85586 NIL=
85586,2016,09,07,15,00,AAXX 0715/ 85586 42/60 2//// 10191 20088 30081 40171 52011 333 56//6 83075==
85586,2016,09,07,18,00,AAXX 07184 85586 NIL=
85586,2016,09,07,21,00,AAXX 07214 85586 NIL=
85586,2016,09,08,00,00,AAXX 08004 85586 NIL=
85586,2016,09,08,03,00,AAXX 08034 85586 NIL=
85586,2016,09,08,06,00,AAXX 08064 85586 NIL=
85586,2016,09,08,09,00,AAXX 08094 85586 NIL=
85586,2016,09,08,12,00,AAXX 08124 85586 NIL=
85586,2016,09,08,15,00,AAXX 08154 85586 41/58 62505 10160 20114 30101 40192 58003 70522 333 56//6 86072==
85586,2016,09,09,03,00,AAXX 09034 85586 NIL=
85586,2016,09,09,12,00,AAXX 09124 85586 NIL=
85586,2016,09,09,15,00,AAXX 0915/ 85586 42/60 4//// 10207 20103 30080 40169 50006 333 56//6 84072==
85586,2016,09,09,18,00,AAXX 09184 85586 NIL=
85586,2016,09,09,21,00,AAXX 09214 85586 NIL=
85586,2016,09,10,00,00,AAXX 10004 85586 NIL=
85586,2016,09,10,03,00,AAXX 10034 85586 NIL=
85586,2016,09,10,06,00,AAXX 10064 85586 NIL=
85586,2016,09,10,09,00,AAXX 10094 85586 NIL=
85586,2016,09,10,12,00,AAXX 10124 85586 NIL=
85586,2016,09,10,15,00,AAXX 10154 85586 42460 42907 10147 20115 30095 40186 51011=
85586,2016,09,10,18,00,AAXX 10184 85586 NIL=
85586,2016,09,10,21,00,AAXX 10214 85586 NIL=
85586,2016,09,11,00,00,AAXX 11004 85586 NIL=
85586,2016,09,11,03,00,AAXX 11034 85586 NIL=
85586,2016,09,11,06,00,AAXX 11064 85586 NIL=
85586,2016,09,11,09,00,AAXX 11094 85586 NIL=
85586,2016,09,11,12,00,AAXX 11124 85586 NIL=
85586,2016,09,11,15,00,AAXX 11154 85586 41558 83404 10140 20099 30138 40230 51011 70522 885// 333 567// 88627==
85586,2016,09,11,18,00,AAXX 11184 85586 NIL=
85586,2016,09,11,21,00,AAXX 11214 85586 NIL=
85586,2016,09,12,00,00,AAXX 12004 85586 NIL=
85586,2016,09,12,03,00,AAXX 12034 85586 NIL=
85586,2016,09,12,06,00,AAXX 12064 85586 NIL=
85586,2016,09,12,09,00,AAXX 12094 85586 NIL=
85586,2016,09,12,15,00,AAXX 12154 85586 41658 82706 10143 20100 30147 40239 50005 70522 888// 333 566// 82840 88650==
85586,2016,09,13,12,00,AAXX 13124 85586 NIL=
85586,2016,09,13,15,00,AAXX 13154 85586 42/60 61507 10155 20081 30110 40201 58013 333 56//6 87075==
85586,2016,09,13,18,00,AAXX 13184 85586 NIL=
85586,2016,09,14,00,00,AAXX 14004 85586 NIL=
85586,2016,09,14,06,00,AAXX 14064 85586 NIL=
85586,2016,09,14,09,00,AAXX 14094 85586 NIL=
85586,2016,09,14,12,00,AAXX 14124 85586 NIL=
85586,2016,09,14,15,00,AAXX 14154 85586 42560 83308 10145 20106 30133 40224 51024 885// 333 88626==
85586,2016,09,14,18,00,AAXX 14184 85586 NIL=
85586,2016,09,14,21,00,AAXX 14214 85586 NIL=
85586,2016,09,15,00,00,AAXX 15004 85586 NIL=
85586,2016,09,15,03,00,AAXX 15034 85586 NIL=
85586,2016,09,15,06,00,AAXX 15064 85586 NIL=
85586,2016,09,15,09,00,AAXX 15094 85586 NIL=
85586,2016,09,15,12,00,AAXX 15124 85586 NIL=
85586,2016,09,15,15,00,AAXX 15154 85586 42560 81904 10141 20104 30109 40200 58004 885// 333 566// 88621==
85586,2016,09,16,00,00,AAXX 16004 85586 NIL=
85586,2016,09,16,03,00,AAXX 16034 85586 NIL=
85586,2016,09,16,06,00,AAXX 16064 85586 NIL=
85586,2016,09,16,09,00,AAXX 16094 85586 NIL=
85586,2016,09,16,15,00,AAXX 1615/ 85586 41357 8//// 10137 20107 30089 40180 52006 70522 866// 333 566// 88709==
85586,2016,09,17,00,00,AAXX 17004 85586 NIL=
85586,2016,09,17,03,00,AAXX 17034 85586 NIL=
85586,2016,09,17,06,00,AAXX 17064 85586 NIL=
85586,2016,09,17,09,00,AAXX 17094 85586 NIL=
85586,2016,09,17,12,00,AAXX 17124 85586 NIL=
85586,2016,09,17,15,00,AAXX 17154 85586 41560 02606 10149 20089 30116 40207 51007 70500 81500 333 567// 81626==
85586,2016,09,17,18,00,AAXX 17184 85586 NIL=
85586,2016,09,17,21,00,AAXX 17214 85586 NIL=
85586,2016,09,18,03,00,AAXX 18034 85586 NIL=
85586,2016,09,18,06,00,AAXX 18064 85586 NIL=
85586,2016,09,18,09,00,AAXX 18094 85586 NIL=
85586,2016,09,18,15,00,AAXX 18154 85586 42960 01305 10204 20088 30076 40165 57011==
85586,2016,09,18,21,00,AAXX 18214 85586 NIL=
85586,2016,09,19,00,00,AAXX 19004 85586 NIL=
85586,2016,09,19,03,00,AAXX 19034 85586 NIL=
85586,2016,09,19,06,00,AAXX 19064 85586 NIL=
85586,2016,09,19,09,00,AAXX 19094 85586 NIL=
85586,2016,09,19,15,00,AAXX 19154 85586 42/60 22803 10166 20103 30052 40142 50009 333 82075==
85586,2016,09,20,00,00,AAXX 20004 85586 NIL=
85586,2016,09,20,03,00,AAXX 20034 85586 NIL=
85586,2016,09,20,06,00,AAXX 20064 85586 NIL=
85586,2016,09,20,09,00,AAXX 20094 85586 NIL=
85586,2016,09,20,12,00,AAXX 20124 85586 NIL=
85586,2016,09,20,15,00,AAXX 20154 85586 41107 82804 10111 20106 30065 40157 50008 72822 886// 333 566// 88702==
85586,2016,09,20,21,00,AAXX 20214 85586 NIL=
85586,2016,09,21,00,00,AAXX 21004 85586 NIL=
85586,2016,09,21,15,00,AAXX 21154 85586 41256 82805 10120 20112 30087 40179 51016 70522 886// 333 88704==
85586,2016,09,21,18,00,AAXX 21184 85586 NIL=
85586,2016,09,22,00,00,AAXX 22004 85586 NIL=
85586,2016,09,22,03,00,AAXX 22034 85586 NIL=
85586,2016,09,22,06,00,AAXX 22064 85586 NIL=
85586,2016,09,22,09,00,AAXX 22094 85586 NIL=
85586,2016,09,22,12,00,AAXX 22124 85586 NIL=
85586,2016,09,22,15,00,AAXX 22154 85586 42960 01605 10210 20103 30067 40156 58017 333 56//6 81070==
85586,2016,09,22,18,00,AAXX 22184 85586 NIL=
85586,2016,09,22,21,00,AAXX 22214 85586 NIL=
85586,2016,09,23,03,00,AAXX 23034 85586 NIL=
85586,2016,09,23,06,00,AAXX 23064 85586 NIL=
85586,2016,09,23,09,00,AAXX 23094 85586 NIL=
85586,2016,09,23,15,00,AAXX 23154 85586 41450 83407 10130 20097 30117 40209 51020 70522 885// 333 566// 88611==
85586,2016,09,23,21,00,AAXX 23214 85586 NIL=
85586,2016,09,24,03,00,AAXX 24034 85586 NIL=
85586,2016,09,24,12,00,AAXX 24124 85586 NIL=
85586,2016,09,24,15,00,AAXX 24154 85586 41220 83306 10112 20095 30087 40179 52010 71044 886// 333 567// 88704==
85586,2016,09,24,18,00,AAXX 24184 85586 NIL=
85586,2016,09,24,21,00,AAXX 24214 85586 NIL=
85586,2016,09,25,00,00,AAXX 25004 85586 NIL=
85586,2016,09,25,03,00,AAXX 25034 85586 NIL=
85586,2016,09,25,06,00,AAXX 25064 85586 NIL=
85586,2016,09,25,09,00,AAXX 25094 85586 NIL=
85586,2016,09,25,15,00,AAXX 25154 85586 41456 83104 10123 20100 30097 40189 50003 70522 885// 333 567// 88611==
85586,2016,09,26,00,00,AAXX 26004 85586 NIL=
85586,2016,09,26,03,00,AAXX 26034 85586 NIL=
85586,2016,09,26,06,00,AAXX 26064 85586 NIL=
85586,2016,09,26,09,00,AAXX 26094 85586 NIL=
85586,2016,09,26,15,00,AAXX 2615/ 85586 42460 8//// 10143 20103 30073 40164 58004 885// 333 566// 88612==
85586,2016,09,26,18,00,AAXX 26184 85586 NIL=
85586,2016,09,26,21,00,AAXX 26214 85586 NIL=
85586,2016,09,27,00,00,AAXX 27004 85586 NIL=
85586,2016,09,27,03,00,AAXX 27034 85586 NIL=
85586,2016,09,27,15,00,AAXX 27154 85586 41356 43009 10129 20103 30075 40166 53013 70522=
85586,2016,09,27,21,00,AAXX 27214 85586 NIL=
85586,2016,09,28,00,00,AAXX 28004 85586 NIL=
85586,2016,09,28,03,00,AAXX 28034 85586 NIL=
85586,2016,09,28,06,00,AAXX 28064 85586 NIL=
85586,2016,09,28,09,00,AAXX 28094 85586 NIL=
85586,2016,09,28,12,00,AAXX 28124 85586 NIL=
85586,2016,09,28,15,00,AAXX 28154 85586 42460 83307 10135 20111 30090 40181 53017 885// 333 88613==
85586,2016,09,28,21,00,AAXX 28214 85586 NIL=
85586,2016,09,29,00,00,AAXX 29004 85586 NIL=
85586,2016,09,29,03,00,AAXX 29034 85586 NIL=
85586,2016,09,29,06,00,AAXX 29064 85586 NIL=
85586,2016,09,29,09,00,AAXX 29094 85586 NIL=
85586,2016,09,29,12,00,AAXX 29124 85586 NIL=
85586,2016,09,29,15,00,AAXX 29154 85586 42660 63409 10156 20093 30117 40208 50006 87500 333 567// 87648==
85586,2016,09,29,18,00,AAXX 29184 85586 NIL=
85586,2016,09,29,21,00,AAXX 29214 85586 NIL=
85586,2016,09,30,00,00,AAXX 30004 85586 NIL=
85586,2016,09,30,03,00,AAXX 30034 85586 NIL=
85586,2016,09,30,06,00,AAXX 30064 85586 NIL=
85586,2016,09,30,09,00,AAXX 30094 85586 NIL=
85586,2016,09,30,12,00,AAXX 30124 85586 NIL=
85586,2016,09,30,15,00,AAXX 30154 85586 42960 01907 10188 20092 30103 40193 58007==
85586,2016,09,30,18,00,AAXX 30184 85586 NIL=
85586,2016,09,30,21,00,AAXX 30214 85586 NIL=
85586,2016,10,01,00,00,AAXX 01004 85586 NIL=
85586,2016,10,01,03,00,AAXX 01034 85586 NIL=
85586,2016,10,01,06,00,AAXX 01064 85586 NIL=
85586,2016,10,01,09,00,AAXX 01094 85586 NIL=
85586,2016,10,01,15,00,AAXX 01154 85586 41240 83005 10129 20116 30089 40181 51016 70544 886// 333 567// 88705==
85586,2016,10,01,21,00,AAXX 01214 85586 NIL=
85586,2016,10,02,00,00,AAXX 02004 85586 NIL=
85586,2016,10,02,03,00,AAXX 02034 85586 NIL=
85586,2016,10,02,06,00,AAXX 02064 85586 NIL=
85586,2016,10,02,09,00,AAXX 02094 85586 NIL=
85586,2016,10,02,15,00,AAXX 02154 85586 42960 02706 10159 20111 30084 40175 54000==
85586,2016,10,02,21,00,AAXX 02214 85586 NIL=
85586,2016,10,03,00,00,AAXX 03004 85586 NIL=
85586,2016,10,03,03,00,AAXX 03034 85586 NIL=
85586,2016,10,03,06,00,AAXX 03064 85586 NIL=
85586,2016,10,03,09,00,AAXX 03094 85586 NIL=
85586,2016,10,03,12,00,AAXX 03124 85586 NIL=
85586,2016,10,03,15,00,AAXX 03154 85586 41958 03104 10153 20100 30102 40193 50011 70500==
85586,2016,10,03,21,00,AAXX 03214 85586 NIL=
85586,2016,10,04,00,00,AAXX 04004 85586 NIL=
85586,2016,10,04,06,00,AAXX 04064 85586 NIL=
85586,2016,10,04,09,00,AAXX 04094 85586 NIL=
85586,2016,10,04,12,00,AAXX 04124 85586 NIL=
85586,2016,10,04,15,00,AAXX 04154 85586 42960 01808 10205 20093 30136 40226 57008==
85586,2016,10,04,21,00,AAXX 04214 85586 NIL=
85586,2016,10,05,00,00,AAXX 05004 85586 NIL=
85586,2016,10,05,15,00,AAXX 05154 85586 42/60 22510 10174 20089 30114 40204 58010 333 56//6 82075==
85586,2016,10,05,18,00,AAXX 05184 85586 NIL=
85586,2016,10,05,21,00,AAXX 05214 85586 NIL=
85586,2016,10,06,00,00,AAXX 06004 85586 NIL=
85586,2016,10,06,03,00,AAXX 06034 85586 NIL=
85586,2016,10,06,06,00,AAXX 06064 85586 NIL=
85586,2016,10,06,09,00,AAXX 06094 85586 NIL=
85586,2016,10,06,12,00,AAXX 06124 85586 NIL=
85586,2016,10,06,15,00,AAXX 06154 85586 42/60 22406 10186 20092 30075 40165 58009 333 56//6 83073==
85586,2016,10,06,21,00,AAXX 06214 85586 NIL=
85586,2016,10,07,00,00,AAXX 07004 85586 NIL=
85586,2016,10,07,03,00,AAXX 07034 85586 NIL=
85586,2016,10,07,15,00,AAXX 07154 85586 42960 02607 10147 20086 30088 40179 55003==
85586,2016,10,08,00,00,AAXX 08004 85586 NIL=
85586,2016,10,08,03,00,AAXX 08034 85586 NIL=
85586,2016,10,08,06,00,AAXX 08064 85586 NIL=
85586,2016,10,08,09,00,AAXX 08094 85586 NIL=
85586,2016,10,08,15,00,AAXX 08154 85586 42/60 22607 10152 20094 30090 40181 58003 333 56//6 82073==
85586,2016,10,08,21,00,AAXX 08214 85586 NIL=
85586,2016,10,09,00,00,AAXX 09004 85586 NIL=
85586,2016,10,09,03,00,AAXX 09034 85586 NIL=
85586,2016,10,09,06,00,AAXX 09064 85586 NIL=
85586,2016,10,09,09,00,AAXX 09094 85586 NIL=
85586,2016,10,09,12,00,AAXX 09124 85586 NIL=
85586,2016,10,09,15,00,AAXX 09154 85586 42/60 42511 10167 20095 30064 40154 57004 333 56//6 84075==
85586,2016,10,09,18,00,AAXX 09184 85586 NIL=
85586,2016,10,09,21,00,AAXX 09214 85586 NIL=
85586,2016,10,10,00,00,AAXX 10004 85586 NIL=
85586,2016,10,10,03,00,AAXX 10034 85586 NIL=
85586,2016,10,10,06,00,AAXX 10064 85586 NIL=
85586,2016,10,10,09,00,AAXX 10094 85586 NIL=
85586,2016,10,10,15,00,AAXX 10154 85586 42960 02508 10145 20100 30109 40200 58004 333 56//6 81075==
85586,2016,10,10,18,00,AAXX 10184 85586 NIL=
85586,2016,10,10,21,00,AAXX 10214 85586 NIL=
85586,2016,10,11,03,00,AAXX 11034 85586 NIL=
85586,2016,10,11,06,00,AAXX 11064 85586 NIL=
85586,2016,10,11,09,00,AAXX 11094 85586 NIL=
85586,2016,10,11,15,00,AAXX 1115/ 85586 42/60 6//// 10156 20104 30085 40176 53002 86030 333 56/6/ 86365==
85586,2016,10,11,18,00,AAXX 11184 85586 NIL=
85586,2016,10,12,00,00,AAXX 12004 85586 NIL=
85586,2016,10,12,03,00,AAXX 12034 85586 NIL=
85586,2016,10,12,06,00,AAXX 12064 85586 NIL=
85586,2016,10,12,09,00,AAXX 12094 85586 NIL=
85586,2016,10,12,12,00,AAXX 12124 85586 NIL=
85586,2016,10,12,15,00,AAXX 12154 85586 42/60 82603 10156 20100 30095 40186 51013 8803/ 333 56/6/ 88362==
85586,2016,10,12,21,00,AAXX 12214 85586 NIL=
85586,2016,10,13,00,00,AAXX 13004 85586 NIL=
85586,2016,10,13,03,00,AAXX 13034 85586 NIL=
85586,2016,10,13,06,00,AAXX 13064 85586 NIL=
85586,2016,10,13,09,00,AAXX 13094 85586 NIL=
85586,2016,10,13,15,00,AAXX 13154 85586 41215 62511 10153 20123 30096 40187 55004 71000 86600 333 566// 86704==
85586,2016,10,13,18,00,AAXX 13184 85586 NIL=
85586,2016,10,14,00,00,AAXX 14004 85586 NIL=
85586,2016,10,14,03,00,AAXX 14034 85586 NIL=
85586,2016,10,14,06,00,AAXX 14064 85586 NIL=
85586,2016,10,14,09,00,AAXX 14094 85586 NIL=
85586,2016,10,14,15,00,AAXX 14154 85586 41220 82503 10130 20127 30063 40154 58003 71022 886// 333 566// 88705==
85586,2016,10,14,18,00,AAXX 14184 85586 NIL=
85586,2016,10,14,21,00,AAXX 14214 85586 NIL=
85586,2016,10,15,00,00,AAXX 15004 85586 NIL=
85586,2016,10,15,03,00,AAXX 15034 85586 NIL=
85586,2016,10,15,12,00,AAXX 15124 85586 NIL=
85586,2016,10,15,15,00,AAXX 15154 85586 41460 83604 10134 20123 30041 40132 53005 70262 885// 333 567// 82610 88650==
85586,2016,10,15,21,00,AAXX 15214 85586 NIL=
85586,2016,10,16,00,00,AAXX 16004 85586 NIL=
85586,2016,10,16,03,00,AAXX 16034 85586 NIL=
85586,2016,10,16,06,00,AAXX 16064 85586 NIL=
85586,2016,10,16,09,00,AAXX 16094 85586 NIL=
85586,2016,10,16,15,00,AAXX 16154 85586 41460 62909 10135 20121 30102 40193 51023 70266=
85586,2016,10,16,18,00,AAXX 16184 85586 NIL=
85586,2016,10,16,21,00,AAXX 16214 85586 NIL=
85586,2016,10,17,00,00,AAXX 17004 85586 NIL=
85586,2016,10,17,03,00,AAXX 17034 85586 NIL=
85586,2016,10,17,06,00,AAXX 17064 85586 NIL=
85586,2016,10,17,09,00,AAXX 17094 85586 NIL=
85586,2016,10,17,12,00,AAXX 17124 85586 NIL=
85586,2016,10,17,15,00,AAXX 17154 85586 42660 42707 10142 20080 30096 40187 51006 84500 333 566// 84646==
85586,2016,10,17,21,00,AAXX 17214 85586 NIL=
85586,2016,10,18,00,00,AAXX 18004 85586 NIL=
85586,2016,10,18,03,00,AAXX 18034 85586 NIL=
85586,2016,10,18,06,00,AAXX 18064 85586 NIL=
85586,2016,10,18,09,00,AAXX 18094 85586 NIL=
85586,2016,10,18,15,00,AAXX 18154 85586 42560 03207 10136 20070 30140 40232 51017 81100 333 567// 81825==
85586,2016,10,18,21,00,AAXX 18214 85586 NIL=
85586,2016,10,19,00,00,AAXX 19004 85586 NIL=
85586,2016,10,19,03,00,AAXX 19034 85586 NIL=
85586,2016,10,19,06,00,AAXX 19064 85586 NIL=
85586,2016,10,19,09,00,AAXX 19094 85586 NIL=
85586,2016,10,19,12,00,AAXX 19124 85586 NIL=
85586,2016,10,19,15,00,AAXX 19154 85586 42960 02511 10145 20085 30137 40228 58005==
85586,2016,10,19,18,00,AAXX 19184 85586 NIL=
85586,2016,10,19,21,00,AAXX 19214 85586 NIL=
85586,2016,10,20,00,00,AAXX 20004 85586 NIL=
85586,2016,10,20,03,00,AAXX 20034 85586 NIL=
85586,2016,10,20,06,00,AAXX 20064 85586 NIL=
85586,2016,10,20,09,00,AAXX 20094 85586 NIL=
85586,2016,10,20,12,00,AAXX 20124 85586 NIL=
85586,2016,10,20,15,00,AAXX 20154 85586 42960 02412 10169 20106 30095 40185 57009==
85586,2016,10,20,18,00,AAXX 20184 85586 NIL=
85586,2016,10,20,21,00,AAXX 20214 85586 NIL=
85586,2016,10,21,00,00,AAXX 21004 85586 NIL=
85586,2016,10,21,03,00,AAXX 21034 85586 NIL=
85586,2016,10,21,06,00,AAXX 21064 85586 NIL=
85586,2016,10,21,09,00,AAXX 21094 85586 NIL=
85586,2016,10,21,12,00,AAXX 21124 85586 NIL=
85586,2016,10,21,15,00,AAXX 21154 85586 42/60 42414 10163 20119 30036 40126 53013 333 56//6=
85586,2016,10,21,21,00,AAXX 21214 85586 NIL=
85586,2016,10,22,00,00,AAXX 22004 85586 NIL=
85586,2016,10,22,03,00,AAXX 22034 85586 NIL=
85586,2016,10,22,06,00,AAXX 22064 85586 NIL=
85586,2016,10,22,09,00,AAXX 22094 85586 NIL=
85586,2016,10,22,15,00,AAXX 22154 85586 42660 82907 10159 20086 30086 40177 50006 885// 333 88638==
85586,2016,10,22,18,00,AAXX 22184 85586 NIL=
85586,2016,10,22,21,00,AAXX 22214 85586 NIL=
85586,2016,10,23,00,00,AAXX 23004 85586 NIL=
85586,2016,10,23,03,00,AAXX 23034 85586 NIL=
85586,2016,10,23,06,00,AAXX 23064 85586 NIL=
85586,2016,10,23,09,00,AAXX 23094 85586 NIL=
85586,2016,10,23,15,00,AAXX 23154 85586 42660 42910 10175 20100 30112 40202 51014 84500 333 567// 84641==
85586,2016,10,24,15,00,AAXX 24154 85586 42560 02508 10172 20106 30145 40236 52006 81100 333 566// 81825==
85586,2016,10,24,21,00,AAXX 24214 85586 42960 02315 10160 20112 30138 40229 53000 333 56//6 81073==
85586,2016,10,25,00,00,AAXX 25004 85586 NIL=
85586,2016,10,25,12,00,AAXX 25124 85586 NIL=
85586,2016,10,25,15,00,AAXX 25154 85586 42960 02512 10177 20118 30124 40213 57016 333 56//6 81072==
85586,2016,10,25,18,00,AAXX 25184 85586 NIL=
85586,2016,10,25,21,00,AAXX 25214 85586 42960 02317 10171 20125 30085 40175 57016==
85586,2016,10,26,00,00,AAXX 26004 85586 NIL=
85586,2016,10,26,03,00,AAXX 26034 85586 NIL=
85586,2016,10,26,06,00,AAXX 26064 85586 NIL=
85586,2016,10,26,09,00,AAXX 26094 85586 NIL=
85586,2016,10,26,15,00,AAXX 26154 85586 42960 02710 10209 20144 30071 40160 58014==
85586,2016,10,26,18,00,AAXX 26184 85586 NIL=
85586,2016,10,26,21,00,AAXX 26214 85586 42960 02507 10186 20124 30030 40119 55013==
85586,2016,10,27,00,00,AAXX 27004 85586 NIL=
85586,2016,10,27,03,00,AAXX 27034 85586 NIL=
85586,2016,10,27,06,00,AAXX 27064 85586 NIL=
85586,2016,10,27,09,00,AAXX 27094 85586 NIL=
85586,2016,10,27,12,00,AAXX 27124 85586 NIL=
85586,2016,10,27,15,00,AAXX 27154 85586 42360 22911 10171 20137 30041 40131 52022 82600 333 566// 82708==
85586,2016,10,27,21,00,AAXX 27214 85586 42360 02910 10164 20130 30035 40125 55004 81600 333 566// 81709==
85586,2016,10,28,00,00,AAXX 28004 85586 NIL=
85586,2016,10,28,03,00,AAXX 28034 85586 NIL=
85586,2016,10,28,06,00,AAXX 28064 85586 NIL=
85586,2016,10,28,09,00,AAXX 28094 85586 NIL=
85586,2016,10,28,15,00,AAXX 28154 85586 41456 83107 10153 20126 30082 40173 53011 70522 885// 333 566// 88613==
85586,2016,10,28,21,00,AAXX 28214 85586 41558 82705 10164 20126 30077 40167 57011 70522 885// 333 566// 88631==
85586,2016,10,29,00,00,AAXX 29004 85586 NIL=
85586,2016,10,29,03,00,AAXX 29034 85586 NIL=
85586,2016,10,29,06,00,AAXX 29064 85586 NIL=
85586,2016,10,29,09,00,AAXX 29094 85586 NIL=
85586,2016,10,29,15,00,AAXX 29154 85586 41958 02412 10174 20130 30086 40176 51008 70500==
85586,2016,10,29,21,00,AAXX 29214 85586 41358 22608 10155 20123 30084 40175 58006 70500 83600 333 566// 83709==
85586,2016,10,30,00,00,AAXX 30004 85586 NIL=
85586,2016,10,30,03,00,AAXX 30034 85586 NIL=
85586,2016,10,30,06,00,AAXX 30064 85586 NIL=
85586,2016,10,30,09,00,AAXX 30094 85586 NIL=
85586,2016,10,30,12,00,AAXX 30124 85586 NIL=
85586,2016,10,30,15,00,AAXX 3015/ 85586 41456 8//// 10163 20127 30095 40186 52013 70522 885// 333 567// 88610==
85586,2016,10,30,18,00,AAXX 30184 85586 NIL=
85586,2016,10,30,21,00,AAXX 30214 85586 41256 82608 10143 20124 30082 40173 55007 70522 886// 333 567// 88706==
85586,2016,10,31,00,00,AAXX 31004 85586 NIL=
85586,2016,10,31,03,00,AAXX 31034 85586 NIL=
85586,2016,10,31,06,00,AAXX 31064 85586 NIL=
85586,2016,10,31,09,00,AAXX 31094 85586 NIL=
85586,2016,10,31,15,00,AAXX 31154 85586 42/60 62511 10154 20102 30081 40172 50001 87030 333 56/6/ 87365==
85586,2016,10,31,18,00,AAXX 31184 85586 NIL=
85586,2016,10,31,21,00,AAXX 31214 85586 42/60 62607 10148 20101 30083 40174 51004 87030 333 56/6/ 87365==
85586,2016,11,01,00,00,AAXX 01004 85586 NIL=
85586,2016,11,01,03,00,AAXX 01034 85586 NIL=
85586,2016,11,01,06,00,AAXX 01064 85586 NIL=
85586,2016,11,01,09,00,AAXX 01094 85586 NIL=
85586,2016,11,01,15,00,AAXX 01154 85586 42960 01711 10154 20065 30144 40235 50001==
85586,2016,11,01,21,00,AAXX 01214 85586 42960 02313 10180 20081 30120 40210 57014==
85586,2016,11,02,00,00,AAXX 02004 85586 NIL=
85586,2016,11,02,03,00,AAXX 02034 85586 NIL=
85586,2016,11,02,06,00,AAXX 02064 85586 NIL=
85586,2016,11,02,09,00,AAXX 02094 85586 NIL=
85586,2016,11,02,15,00,AAXX 02154 85586 42960 01808 10202 20052 30112 40201 58008==
85586,2016,11,02,21,00,AAXX 02214 85586 42960 02312 10195 20095 30088 40176 56014==
85586,2016,11,03,00,00,AAXX 03004 85586 NIL=
85586,2016,11,03,03,00,AAXX 03034 85586 NIL=
85586,2016,11,03,06,00,AAXX 03064 85586 NIL=
85586,2016,11,03,09,00,AAXX 03094 85586 NIL=
85586,2016,11,03,12,00,AAXX 03124 85586 NIL=
85586,2016,11,03,15,00,AAXX 0315/ 85586 42960 0//// 10267 20084 30086 40173 58010 333 56//6 81073==
85586,2016,11,03,21,00,AAXX 03214 85586 42960 02414 10261 20134 30043 40130 56022==
85586,2016,11,04,00,00,AAXX 04004 85586 12960 03103 10186 20122 30054 40143 53011 60001 333 10312==
85586,2016,11,04,03,00,AAXX 04034 85586 NIL=
85586,2016,11,04,12,00,AAXX 04124 85586 12960 02403 10197 20137 30051 40140 53011 60004 333 20126 30/// 55114 70000==
85586,2016,11,04,15,00,AAXX 04154 85586 42960 02511 10197 20128 30055 40144 50004==
85586,2016,11,04,18,00,AAXX 04184 85586 42960 03109 10178 20123 30063 40153 53008==
85586,2016,11,04,21,00,AAXX 04214 85586 42460 23209 10173 20131 30073 40163 51010 83500 333 566// 83613==
85586,2016,11,05,00,00,AAXX 05004 85586 11256 43304 10140 20127 30077 40168 53003 60001 70500 85600 333 10209 567// 85705==
85586,2016,11,05,03,00,AAXX 05034 85586 NIL=
85586,2016,11,05,06,00,AAXX 05064 85586 NIL=
85586,2016,11,05,09,00,AAXX 05094 85586 NIL=
85586,2016,11,05,12,00,AAXX 05124 85586 41120 81703 10136 20127 30060 40151 52006 71020 886// 333 20127 30/// 55121 567// 88703==
85586,2016,11,05,15,00,AAXX 05154 85586 41120 83207 10135 20121 30077 40168 53016 71022 886// 333 567// 88702==
85586,2016,11,05,18,00,AAXX 05184 85586 11240 82907 10142 20123 30079 40170 52004 60001 70522 886// 333 567// 88704==
85586,2016,11,05,21,00,AAXX 05214 85586 41256 82906 10144 20123 30073 40164 56007 70522 886// 333 567// 88706==
85586,2016,11,06,00,00,AAXX 06004 85586 41220 82504 10127 20118 30080 40172 51007 71022 886// 333 10155 567// 88705==
85586,2016,11,06,03,00,AAXX 06034 85586 NIL=
85586,2016,11,06,06,00,AAXX 06064 85586 NIL=
85586,2016,11,06,09,00,AAXX 06094 85586 NIL=
85586,2016,11,06,12,00,AAXX 0612/ 85586 41220 8//// 10127 20118 30068 40159 53009 71022 886// 333 20111 30/// 55000 567// 88704==
85586,2016,11,06,15,00,AAXX 06154 85586 41258 42707 10137 20111 30071 40162 53005 70522=
85586,2016,11,06,18,00,AAXX 06184 85586 12260 22412 10164 20124 30070 40160 56003 60001 81630 333 5676/ 81705 83365==
85586,2016,11,06,21,00,AAXX 06214 85586 42/60 22409 10165 20123 30060 40150 56009 82030 333 56/6/ 82365==
85586,2016,11,07,00,00,AAXX 07004 85586 11/56 40306 10142 20121 30065 40156 53003 60001 70511 84030 333 10184 56/6/ 84365==
85586,2016,11,07,03,00,AAXX 07034 85586 NIL=
85586,2016,11,07,06,00,AAXX 07064 85586 NIL=
85586,2016,11,07,09,00,AAXX 07094 85586 NIL=
85586,2016,11,07,12,00,AAXX 07124 85586 11960 01204 10136 20133 30070 40161 50006 60004 70140 333 20098 30/// 55075 70000==
85586,2016,11,07,15,00,AAXX 07154 85586 42960 02506 10191 20134 30064 40153 58007==
85586,2016,11,07,18,00,AAXX 07184 85586 12960 02511 10183 20128 30061 40151 58002 60001 333 56//6 81075==
85586,2016,11,07,21,00,AAXX 07214 85586 42460 22710 10163 20125 30067 40157 53004 83500 333 566// 83610==
85586,2016,11,08,00,00,AAXX 08004 85586 12460 83605 10138 20115 30075 40166 53009 60001 886// 333 10198 88710==
85586,2016,11,08,03,00,AAXX 08034 85586 NIL=
85586,2016,11,08,06,00,AAXX 08064 85586 NIL=
85586,2016,11,08,09,00,AAXX 08094 85586 NIL=
85586,2016,11,08,12,00,AAXX 08124 85586 12460 02503 10139 20105 30075 40166 51011 60004 81600 333 20102 30/// 55096 566// 70000 81710==
85586,2016,11,08,15,00,AAXX 08154 85586 41458 02708 10157 20113 30085 40176 53009 70500 81600 333 566// 81710==
85586,2016,11,08,18,00,AAXX 08184 85586 42360 42710 10163 20123 30086 40176 53003 84600 333 566// 84708==
85586,2016,11,08,21,00,AAXX 08214 85586 42460 02711 10153 20113 30079 40170 57008 81600 333 566// 81710==
85586,2016,11,09,00,00,AAXX 09004 85586 12/60 20706 10125 20108 30088 40180 53010 60001 333 10180 56//6 82075==
85586,2016,11,09,03,00,AAXX 09034 85586 NIL=
85586,2016,11,09,06,00,AAXX 09064 85586 NIL=
85586,2016,11,09,12,00,AAXX 09124 85586 12960 03503 10148 20107 30070 40161 50006 60004 333 20072 30/// 55108 70000==
85586,2016,11,09,15,00,AAXX 09154 85586 42960 02408 10179 20108 30069 40159 55001 333 56//6 81073==
85586,2016,11,09,18,00,AAXX 09184 85586 42960 02413 10185 20107 30062 40152 56007 333 56//6 81074==
85586,2016,11,09,21,00,AAXX 09214 85586 42960 02508 10178 20100 30051 40141 56012==
85586,2016,11,10,00,00,AAXX 10004 85586 12960 00506 10134 20099 30055 40146 53004 60001 333 10192==
85586,2016,11,10,03,00,AAXX 10034 85586 NIL=
85586,2016,11,10,06,00,AAXX 10064 85586 NIL=
85586,2016,11,10,09,00,AAXX 10094 85586 NIL=
85586,2016,11,10,12,00,AAXX 1012/ 85586 12960 0//// 10152 20104 30060 40151 51012 60004 333 20065 30/// 55113 70000==
85586,2016,11,10,15,00,AAXX 10154 85586 42960 02510 10175 20097 30064 40154 51004==
85586,2016,11,10,18,00,AAXX 10184 85586 42960 02415 10175 20102 30062 40152 58002==
85586,2016,11,10,21,00,AAXX 10214 85586 42960 02605 10191 20100 30051 40140 58011==
85586,2016,11,11,00,00,AAXX 11004 85586 11956 00303 10138 20097 30056 40147 53005 60001 70500 333 10200==
85586,2016,11,11,03,00,AAXX 11034 85586 NIL=
85586,2016,11,11,06,00,AAXX 11064 85586 NIL=
85586,2016,11,11,09,00,AAXX 11094 85586 NIL=
85586,2016,11,11,12,00,AAXX 1112/ 85586 11958 0//// 10145 20109 30067 40158 51012 60004 70500 333 20071 30/// 55116 70000==
85586,2016,11,11,15,00,AAXX 11154 85586 42960 02808 10158 20112 30072 40162 53006==
85586,2016,11,11,18,00,AAXX 11184 85586 12960 02810 10160 20097 30073 40163 55000 60001==
85586,2016,11,11,21,00,AAXX 11214 85586 42960 02708 10154 20100 30072 40163 54001==
85586,2016,11,12,00,00,AAXX 12004 85586 11458 03103 10123 20100 30073 40165 53001 60001 70500 81500 333 10177 81612==
85586,2016,11,12,12,00,AAXX 12124 85586 11456 82704 10125 20097 30070 40162 53009 60004 70522 885// 333 20104 30/// 55118 567// 70000 88611==
85586,2016,11,12,15,00,AAXX 12154 85586 42460 62606 10144 20099 30073 40164 50003 83501 333 567/6 83612 84075==
85586,2016,11,12,18,00,AAXX 12184 85586 12460 82709 10143 20104 30075 40166 53002 60001 885// 333 567// 88611==
85586,2016,11,12,21,00,AAXX 12214 85586 41458 82806 10138 20104 30071 40162 55004 70522 885// 333 567// 88612==
85586,2016,11,13,00,00,AAXX 13004 85586 11456 82903 10132 20108 30076 40167 52005 60001 70522 885// 333 10158 567// 88611==
85586,2016,11,13,03,00,AAXX 13034 85586 NIL=
85586,2016,11,13,06,00,AAXX 13064 85586 NIL=
85586,2016,11,13,09,00,AAXX 13094 85586 NIL=
85586,2016,11,13,12,00,AAXX 13124 85586 12460 60203 10126 20091 30088 40180 52014 60004 86601 333 20096 30/// 55032 566/6 70000 86713 81073==
85586,2016,11,13,15,00,AAXX 13154 85586 42/60 42708 10149 20091 30090 40181 53001 333 56//6=
85586,2016,11,13,18,00,AAXX 13184 85586 12/60 22413 10156 20100 30089 40180 50001 60001 333 56//6 83073==
85586,2016,11,13,21,00,AAXX 13214 85586 42960 02612 10149 20097 30093 40184 53003 333 56//6 81075==
85586,2016,11,14,00,00,AAXX 14004 85586 12960 03006 10125 20102 30093 40185 54000 60001 333 10166 56//6 81073==
85586,2016,11,14,03,00,AAXX 14034 85586 NIL=
85586,2016,11,14,06,00,AAXX 14064 85586 NIL=
85586,2016,11,14,09,00,AAXX 14094 85586 NIL=
85586,2016,11,14,12,00,AAXX 14124 85586 12960 00803 10127 20086 30085 40177 53005 60004 333 20046 30/// 55093 56//6 70000 81073==
85586,2016,11,14,15,00,AAXX 14154 85586 42960 02410 10167 20099 30090 40180 53005 333 56//6 81073==
85586,2016,11,14,18,00,AAXX 14184 85586 NIL=
85586,2016,11,14,21,00,AAXX 14214 85586 42/60 42415 10170 20118 30074 40164 55008 333 56//6=
85586,2016,11,15,00,00,AAXX 15004 85586 12/60 40000 10136 20111 30085 40176 53009 60001 333 10194 56//6 85073==
85586,2016,11,15,03,00,AAXX 15034 85586 NIL=
85586,2016,11,15,06,00,AAXX 15064 85586 NIL=
85586,2016,11,15,09,00,AAXX 15094 85586 NIL=
85586,2016,11,15,12,00,AAXX 1512/ 85586 12960 0//// 10154 20120 30088 40179 52003 60004 333 20080 30/// 55102 56//6 70000 81073==
85586,2016,11,15,15,00,AAXX 15154 85586 42960 02409 10177 20122 30082 40172 58006==
85586,2016,11,15,18,00,AAXX 15184 85586 42960 02415 10192 20121 30072 40161 57009==
85586,2016,11,15,21,00,AAXX 15214 85586 42960 02416 10195 20120 30060 40149 58014==
85586,2016,11,16,00,00,AAXX 16004 85586 12/60 22507 10153 20095 30071 40162 53011 60001 333 10203 56//6 82073==
85586,2016,11,16,12,00,AAXX 16124 85586 12960 02205 10150 20098 30081 40172 51009 60004 333 20078 30/// 55119 70000==
85586,2016,11,16,15,00,AAXX 16154 85586 42960 02609 10181 20106 30082 40172 50003 333 56//6 81074==
85586,2016,11,16,18,00,AAXX 16184 85586 42/60 22515 10180 20089 30077 40167 58005 333 56//6 82072==
85586,2016,11,16,21,00,AAXX 16214 85586 42960 02508 10186 20089 30069 40159 56008==
85586,2016,11,17,00,00,AAXX 17004 85586 11958 00205 10150 20090 30073 40164 53004 60001 70500 333 10195==
85586,2016,11,17,03,00,AAXX 17034 85586 NIL=
85586,2016,11,17,06,00,AAXX 17064 85586 NIL=
85586,2016,11,17,09,00,AAXX 17094 85586 NIL=
85586,2016,11,17,12,00,AAXX 17124 85586 12960 01706 10200 20058 30062 40151 53002 60004 333 20074 30/// 55120 70000==
85586,2016,11,17,15,00,AAXX 1715/ 85586 42960 0//// 10297 20054 30045 40131 58018==
85586,2016,11,17,18,00,AAXX 17184 85586 12960 02414 10236 20094 30024 40112 56021 60001==
85586,2016,11,17,21,00,AAXX 17214 85586 42960 02704 10223 20093 30007 40095 58016==
85586,2016,11,18,00,00,AAXX 1800/ 85586 11958 0//// 10170 20093 30008 40097 53001 60001 70500 333 10310==
85586,2016,11,18,03,00,AAXX 18034 85586 NIL=
85586,2016,11,18,06,00,AAXX 18064 85586 NIL=
85586,2016,11,18,09,00,AAXX 18094 85586 NIL=
85586,2016,11,18,12,00,AAXX 1812/ 85586 12960 0//// 10158 20118 30044 40134 51031 60004 333 20077 30/// 55111 70000==
85586,2016,11,18,15,00,AAXX 18154 85586 42960 02909 10177 20124 30051 40141 53008==
85586,2016,11,18,18,00,AAXX 18184 85586 11958 03117 10177 20129 30062 40152 51012 60001 70500==
85586,2016,11,18,21,00,AAXX 18214 85586 41958 03011 10176 20134 30062 40152 53000 70500==
85586,2016,11,19,00,00,AAXX 1900/ 85586 11956 0//// 10145 20127 30062 40153 55002 60001 70500 333 10190==
85586,2016,11,19,03,00,AAXX 19034 85586 NIL=
85586,2016,11,19,06,00,AAXX 19064 85586 NIL=
85586,2016,11,19,12,00,AAXX 19124 85586 12560 80303 10153 20121 30075 40166 51014 60004 885// 333 20102 30/// 55116 566// 70000 88621==
85586,2016,11,19,15,00,AAXX 19154 85586 42560 62808 10179 20120 30076 40166 55000 86500 333 566// 86628==
85586,2016,11,19,18,00,AAXX 19184 85586 12560 03009 10184 20127 30067 40156 58009 60001 81100 333 566// 81820==
85586,2016,11,19,21,00,AAXX 19214 85586 42460 02807 10173 20112 30058 40148 56009 81100 333 566// 81810==
85586,2016,11,20,00,00,AAXX 20004 85586 12560 22903 10146 20127 30069 40160 53010 60001 82500 333 10198 567// 82623==
85586,2016,11,20,03,00,AAXX 20034 85586 NIL=
85586,2016,11,20,06,00,AAXX 20064 85586 NIL=
85586,2016,11,20,09,00,AAXX 20094 85586 NIL=
85586,2016,11,20,12,00,AAXX 2012/ 85586 12560 8//// 10131 20107 30081 40172 50007 60004 885// 333 20125 30/// 55075 566// 70000 88621==
85586,2016,11,20,15,00,AAXX 20154 85586 42560 82707 10149 20109 30075 40167 55006 885// 333 566// 88626==
85586,2016,11,20,18,00,AAXX 20184 85586 42560 42512 10162 20106 30069 40159 58006 85500 333 566// 85632==
85586,2016,11,20,21,00,AAXX 20214 85586 42/60 22509 10164 20103 30060 40150 56009 82030 333 56/6/ 82365==
85586,2016,11,21,00,00,AAXX 21004 85586 12/60 22603 10130 20095 30067 40158 53006 60001 82030 333 10174 56/6/ 82365==
85586,2016,11,21,03,00,AAXX 21034 85586 NIL=
85586,2016,11,21,06,00,AAXX 21064 85586 NIL=
85586,2016,11,21,09,00,AAXX 21094 85586 NIL=
85586,2016,11,21,12,00,AAXX 2112/ 85586 12960 0//// 10140 20093 30062 40153 51007 60004 333 20067 30/// 55052 56//6 70000 81073==
85586,2016,11,21,15,00,AAXX 21154 85586 42760 02908 10164 20102 30059 40149 58002 81100 333 566// 81850==
85586,2016,11,21,18,00,AAXX 21184 85586 42460 02810 10177 20109 30061 40151 55001 81500 333 566// 81617==
85586,2016,11,21,21,00,AAXX 21214 85586 42460 42808 10172 20111 30063 40153 50002 84130 333 5666/ 81810 83366==
85586,2016,11,22,00,00,AAXX 22004 85586 12/60 22803 10149 20109 30063 40154 52001 60001 82030 333 10182 56/6/ 82365==
85586,2016,11,22,03,00,AAXX 22034 85586 NIL=
85586,2016,11,22,06,00,AAXX 22064 85586 NIL=
85586,2016,11,22,09,00,AAXX 22094 85586 NIL=
85586,2016,11,22,12,00,AAXX 2212/ 85586 12960 0//// 10167 20106 30079 40169 51010 60004 333 20094 30/// 55117 70000==
85586,2016,11,22,15,00,AAXX 22154 85586 42960 02708 10182 20111 30078 40168 56001==
85586,2016,11,22,18,00,AAXX 22184 85586 42960 02609 10184 20127 30076 40166 57002 333 56//6 81073==
85586,2016,11,22,21,00,AAXX 22214 85586 42460 42607 10182 20118 30069 40159 57006 81501 333 567/6 81617=
85586,2016,11,23,00,00,AAXX 23004 85586 11/58 22405 10153 20121 30066 40157 56004 60001 70500 333 10192 56//6 83075==
85586,2016,11,23,03,00,AAXX 23034 85586 NIL=
85586,2016,11,23,06,00,AAXX 23064 85586 NIL=
85586,2016,11,23,09,00,AAXX 23094 85586 NIL=
85586,2016,11,23,12,00,AAXX 23124 85586 12460 82805 10153 20121 30075 40166 51017 60004 885// 333 20109 30/// 55102 567// 70000 88615==
85586,2016,11,23,15,00,AAXX 23154 85586 42560 42608 10179 20124 30088 40178 51013=
85586,2016,11,23,18,00,AAXX 23184 85586 12460 62706 10180 20127 30089 40179 52002 60001 87500 333 567// 81614 87650==
85586,2016,11,23,21,00,AAXX 23214 85586 42460 42506 10179 20118 30086 40176 57004 81530 333 5676/ 81617 84365==
85586,2016,11,24,00,00,AAXX 24004 85586 11/58 62304 10157 20125 30088 40179 53002 60001 70511 333 10191 56//6 86075==
85586,2016,11,24,03,00,AAXX 24034 85586 NIL=
85586,2016,11,24,12,00,AAXX 24124 85586 12960 00000 10180 20123 30062 40152 50002 60004 333 20101 30/// 55042 70000==
85586,2016,11,24,15,00,AAXX 24154 85586 42960 02709 10179 20133 30064 40154 52001==
85586,2016,11,24,18,00,AAXX 24184 85586 12/60 42508 10202 20140 30055 40144 58009 60001 333 84075==
85586,2016,11,24,21,00,AAXX 24214 85586 42460 62512 10179 20143 30054 40144 55001 86500 333 567// 86610==
85586,2016,11,25,00,00,AAXX 25004 85586 11458 62606 10163 20131 30058 40148 53004 60001 70522 87500 333 10202 567// 87616==
85586,2016,11,25,03,00,AAXX 25034 85586 NIL=
85586,2016,11,25,06,00,AAXX 25064 85586 NIL=
85586,2016,11,25,09,00,AAXX 25094 85586 NIL=
85586,2016,11,25,12,00,AAXX 25124 85586 12560 80504 10160 20116 30061 40151 52015 60004 885// 333 20155 30/// 55110 566// 70000 88625==
85586,2016,11,25,15,00,AAXX 25154 85586 42560 63208 10190 20119 30072 40161 50010 82500 333 566// 82624 87646==
85586,2016,11,25,18,00,AAXX 25184 85586 12/60 43112 10198 20127 30084 40173 51013 60001 85030 333 56/6/ 85365==
85586,2016,11,25,21,00,AAXX 25214 85586 42760 43112 10192 20135 30080 40169 55004=
85586,2016,11,26,00,00,AAXX 26004 85586 12760 43206 10172 20140 30095 40185 53015 60001 85500 333 10211 566// 85656==
85586,2016,11,26,03,00,AAXX 26034 85586 NIL=
85586,2016,11,26,06,00,AAXX 26064 85586 NIL=
85586,2016,11,26,09,00,AAXX 26094 85586 NIL=
85586,2016,11,26,12,00,AAXX 26124 85586 12760 00604 10185 20107 30103 40193 51007 60004 81500 333 20118 30/// 55067 566// 70000 81656==
85586,2016,11,26,15,00,AAXX 26154 85586 42760 02611 10200 20128 30106 40195 53004 81100 333 566// 81850==
85586,2016,11,26,18,00,AAXX 26184 85586 42960 02515 10199 20141 30097 40186 58009==
85586,2016,11,26,21,00,AAXX 26214 85586 42960 02515 10193 20146 30088 40177 57010==
85586,2016,11,27,00,00,AAXX 27004 85586 12960 02411 10164 20135 30096 40186 53007 60001 333 10209==
85586,2016,11,27,03,00,AAXX 27034 85586 NIL=
85586,2016,11,27,06,00,AAXX 27064 85586 NIL=
85586,2016,11,27,09,00,AAXX 27094 85586 NIL=
85586,2016,11,27,12,00,AAXX 27124 85586 12960 01805 10165 20109 30097 40187 51010 60004 333 20089 30/// 55119 70000==
85586,2016,11,27,15,00,AAXX 27154 85586 42560 02415 10193 20117 30093 40183 56004 81100 333 566// 81832==
85586,2016,11,27,18,00,AAXX 27184 85586 42960 02319 10185 20128 30095 40185 53002==
85586,2016,11,27,21,00,AAXX 27214 85586 42960 02316 10186 20117 30086 40175 57009==
85586,2016,11,28,00,00,AAXX 28004 85586 12960 02206 10152 20108 30099 40190 53012 60001 333 10200==
85586,2016,11,28,03,00,AAXX 28034 85586 NIL=
85586,2016,11,28,06,00,AAXX 28064 85586 NIL=
85586,2016,11,28,09,00,AAXX 28094 85586 NIL=
85586,2016,11,28,12,00,AAXX 28124 85586 12960 01605 10186 20095 30078 40168 50000 60004 333 20084 30/// 55120 70000==
85586,2016,11,28,15,00,AAXX 28154 85586 42960 02808 10214 20118 30061 40150 58016==
85586,2016,11,28,18,00,AAXX 28184 85586 42960 02419 10195 20126 30046 40135 56016==
85586,2016,11,28,21,00,AAXX 28214 85586 42960 02412 10188 20131 30037 40126 57009==
85586,2016,11,29,00,00,AAXX 29004 85586 12960 03606 10155 20127 30042 40132 53004 60001 333 10219==
85586,2016,11,29,03,00,AAXX 29034 85586 NIL=
85586,2016,11,29,06,00,AAXX 29064 85586 NIL=
85586,2016,11,29,09,00,AAXX 29094 85586 NIL=
85586,2016,11,29,12,00,AAXX 29124 85586 11108 80103 10140 20135 30029 40120 52010 60004 74244 886// 333 20095 30/// 55125 567// 70000 88702==
85586,2016,11,29,15,00,AAXX 29154 85586 41240 83110 10166 20136 30033 40123 52003 71022 886// 333 567// 88706==
85586,2016,11,29,18,00,AAXX 29184 85586 11356 83110 10169 20140 30039 40129 52007 60001 70522 886// 333 567// 88708==
85586,2016,11,29,21,00,AAXX 29214 85586 41340 83009 10168 20141 30037 40127 58002 70522 886// 333 567// 88709==
85586,2016,11,30,00,00,AAXX 30004 85586 11340 83106 10160 20139 30035 40125 55002 60001 70522 886// 333 10178 567// 88709==
85586,2016,11,30,03,00,AAXX 30034 85586 NIL=
85586,2016,11,30,12,00,AAXX 30124 85586 11440 83604 10159 20132 30055 40145 53022 60004 70522 886// 333 20152 30/// 55002 567// 70000 88711==
85586,2016,11,30,15,00,AAXX 30154 85586 41457 83108 10168 20136 30069 40159 53014 70522 886// 333 567// 88712==
85586,2016,11,30,18,00,AAXX 30184 85586 11558 83109 10180 20136 30070 40150 50002 60001 70522 886// 333 567// 88722==
85586,2016,11,30,21,00,AAXX 30214 85586 41458 42707 10188 20133 30062 40151 57008 70522 84500 333 567// 84614==
85586,2016,12,01,00,00,AAXX 01004 85586 11558 22203 10154 20129 30058 40148 55005 60001 70511 82500 333 10191 567// 82620==
85586,2016,12,01,03,00,AAXX 01034 85586 NIL=
85586,2016,12,01,06,00,AAXX 01064 85586 NIL=
85586,2016,12,01,09,00,AAXX 01094 85586 NIL=
85586,2016,12,01,12,00,AAXX 01124 85586 11456 82104 10151 20123 30064 40155 52012 60004 70522 886// 333 20144 30/// 55031 566// 70000 88714==
85586,2016,12,01,15,00,AAXX 01154 85586 41458 82606 10168 20126 30074 40164 53009 70522 886// 333 566// 88713==
85586,2016,12,01,18,00,AAXX 01184 85586 12460 82609 10170 20136 30065 40155 58008 60001 886// 333 566// 88714==
85586,2016,12,01,21,00,AAXX 01214 85586 42460 82609 10163 20129 30056 40146 56008 886// 333 88710==
85586,2016,12,02,00,00,AAXX 02004 85586 12360 82504 10150 20127 30055 40146 55002 60001 886// 333 10194 88709==
85586,2016,12,02,03,00,AAXX 02034 85586 NIL=
85586,2016,12,02,06,00,AAXX 02064 85586 NIL=
85586,2016,12,02,09,00,AAXX 02094 85586 NIL=
85586,2016,12,02,12,00,AAXX 02124 85586 11240 80304 10140 20129 30068 40159 51014 60004 71022 886// 333 20135 30/// 55015 70000 88704==
85586,2016,12,02,15,00,AAXX 02154 85586 41256 83006 10159 20136 30079 40169 51013 71022 886// 333 88706==
85586,2016,12,02,18,00,AAXX 02184 85586 41357 82909 10175 20141 30077 40167 58003 70522 885// 333 566// 88609==
85586,2016,12,02,21,00,AAXX 02214 85586 41258 83007 10165 20145 30073 40163 58003 70522 888// 333 566//=
85586,2016,12,03,00,00,AAXX 03004 85586 42360 83004 10157 20139 30076 40167 53002 886// 333 10181 566// 88708==
85586,2016,12,03,12,00,AAXX 0312/ 85586 42460 8//// 10150 20123 30071 40162 53009 885// 333 20143 30/// 55000 566// 88610==
85586,2016,12,03,15,00,AAXX 03154 85586 42460 82806 10163 20123 30079 40169 53008 885// 333 566// 88614==
85586,2016,12,03,18,00,AAXX 03184 85586 42460 82809 10171 20123 30084 40174 51005 885// 333 566// 88616==
85586,2016,12,03,21,00,AAXX 03214 85586 42560 82709 10173 20123 30077 40167 57007 885// 333 566// 88620==
85586,2016,12,04,00,00,AAXX 04004 85586 42460 82503 10161 20127 30073 40163 58004 885// 333 10180 566// 86616 88625==
85586,2016,12,04,03,00,AAXX 04034 85586 NIL=
85586,2016,12,04,06,00,AAXX 04064 85586 NIL=
85586,2016,12,04,09,00,AAXX 04094 85586 NIL=
85586,2016,12,04,12,00,AAXX 04124 85586 41460 83306 10163 20129 30093 40183 52022 75622 888// 333 20157 30/// 55002 566// 85616 88643==
85586,2016,12,04,15,00,AAXX 04154 85586 41658 63407 10188 20117 30101 40191 50008 70522 87500 333 566// 87649==
85586,2016,12,04,18,00,AAXX 04184 85586 42660 62911 10191 20138 30099 40189 56002 87500 333 567// 87647==
85586,2016,12,04,21,00,AAXX 04214 85586 42460 42908 10190 20145 30094 40184 56005 84500 333 567// 84614==
85586,2016,12,05,00,00,AAXX 05004 85586 12960 02403 10163 20131 30096 40187 53002 60001 333 10204==
85586,2016,12,05,03,00,AAXX 05034 85586 NIL=
85586,2016,12,05,06,00,AAXX 05064 85586 NIL=
85586,2016,12,05,09,00,AAXX 05094 85586 NIL=
85586,2016,12,05,12,00,AAXX 05124 85586 12960 02006 10161 20107 30091 40182 51012 60001 333 20106 30/// 55060==
85586,2016,12,05,15,00,AAXX 05154 85586 42960 02416 10202 20119 30087 40176 57004==
85586,2016,12,05,18,00,AAXX 05184 85586 12960 02319 10196 20110 30078 40167 58008 60001==
85586,2016,12,05,21,00,AAXX 05214 85586 42960 02318 10198 20114 30061 40150 57018==
85586,2016,12,06,00,00,AAXX 06004 85586 12960 02207 10164 20094 30064 40154 53002 60001 333 10210==
85586,2016,12,06,09,00,AAXX 06094 85586 NIL=
85586,2016,12,06,12,00,AAXX 06124 85586 12960 03404 10169 20094 30059 40149 51010 60004 333 20072 30/// 55118 70000==
85586,2016,12,06,15,00,AAXX 06154 85586 42960 02413 10185 20106 30066 40156 53005==
85586,2016,12,06,21,00,AAXX 06214 85586 42960 02414 10175 20114 30063 40153 50001==
85586,2016,12,07,00,00,AAXX 07004 85586 12960 00000 10145 20108 30064 40155 53001 60001 333 10196==
85586,2016,12,07,03,00,AAXX 07034 85586 NIL=
85586,2016,12,07,09,00,AAXX 07094 85586 NIL=
85586,2016,12,07,12,00,AAXX 07124 85586 12460 23303 10145 20108 30071 40162 53016 60004 82500 333 20093 30/// 55115 566// 70000 82610==
85586,2016,12,07,15,00,AAXX 07154 85586 42460 42909 10161 20119 30078 40168 51008 82502 333 566/6 82610 82075==
85586,2016,12,07,18,00,AAXX 07184 85586 12460 62809 10174 20126 30080 40170 50001 60001 87500 333 566// 87610==
85586,2016,12,08,00,00,AAXX 08004 85586 12460 43003 10143 20117 30063 40154 57008 60001 82501 333 10177 566/6 82612 85075==
85586,2016,12,08,03,00,AAXX 08034 85586 NIL=
85586,2016,12,08,06,00,AAXX 08064 85586 NIL=
85586,2016,12,08,09,00,AAXX 08094 85586 NIL=
85586,2016,12,08,12,00,AAXX 08124 85586 12460 83403 10151 20107 30054 40145 52017 60004 885// 333 20137 30/// 55043 70000 88616==
85586,2016,12,08,15,00,AAXX 08154 85586 42/60 63010 10177 20120 30058 40148 51005 333 56//6 86075==
85586,2016,12,08,18,00,AAXX 08184 85586 42/60 62912 10185 20128 30054 40143 58004 333 56//6 86072==
85586,2016,12,08,21,00,AAXX 08214 85586 42/60 42707 10178 20121 30047 40137 58008 333 56//6=
85586,2016,12,09,00,00,AAXX 09004 85586 42/60 22603 10155 20121 30049 40139 51003 333 10191 56//6 83072==
85586,2016,12,09,03,00,AAXX 09034 85586 NIL=
85586,2016,12,09,06,00,AAXX 09064 85586 NIL=
85586,2016,12,09,09,00,AAXX 09094 85586 NIL=
85586,2016,12,09,12,00,AAXX 09124 85586 11660 60605 10153 20142 30098 40189 51016 60064 70166 87170 333 20121 32/// 55103 5666/ 70056 83849 87356==
85586,2016,12,09,15,00,AAXX 09154 85586 42460 43206 10193 20126 30108 40198 52012 84130 333 5666/ 81819 84356==
85586,2016,12,09,18,00,AAXX 09184 85586 42/60 22807 10203 20131 30100 40189 58007 81032 333 56/66 81358 83072==
85586,2016,12,09,21,00,AAXX 09214 85586 42/60 42507 10180 20134 30096 40186 58004 84030 333 56/6/ 84359==
85586,2016,12,10,00,00,AAXX 10004 85586 42/60 20000 10172 20140 30106 40196 53009 82030 333 10209 56/6/ 82360==
85586,2016,12,10,03,00,AAXX 10034 85586 NIL=
85586,2016,12,10,06,00,AAXX 10064 85586 NIL=
85586,2016,12,10,09,00,AAXX 10094 85586 NIL=
85586,2016,12,10,12,00,AAXX 10124 85586 42/60 22404 10167 20138 30110 40201 52006 333 20109 30/// 55051 56//6 82073==
85586,2016,12,10,15,00,AAXX 10154 85586 42/60 22508 10195 20133 30107 40197 58002 333 56//6 83072==
85586,2016,12,10,18,00,AAXX 10184 85586 12/60 62411 10193 20131 30107 40197 50001 60001 333 56//6 86075==
85586,2016,12,10,21,00,AAXX 10214 85586 42960 02413 10203 20128 30091 40180 56016 333 56//6 81075==
85586,2016,12,11,00,00,AAXX 1100/ 85586 12/60 4//// 10177 20142 30091 40181 55001 60001 333 10216 56//6 84075==
85586,2016,12,11,03,00,AAXX 11034 85586 NIL=
85586,2016,12,11,09,00,AAXX 11094 85586 NIL=
85586,2016,12,11,12,00,AAXX 11124 85586 11/58 82803 10174 20149 30087 40177 53007 60004 70500 333 20123 30/// 55119 70000==
85586,2016,12,11,15,00,AAXX 11154 85586 42960 02511 10197 20139 30076 40165 58011==
85586,2016,12,11,18,00,AAXX 11184 85586 12960 02418 10184 20137 30064 40154 56012 60001==
85586,2016,12,11,21,00,AAXX 11214 85586 42960 02314 10212 20132 30050 40139 53014==
85586,2016,12,12,00,00,AAXX 12004 85586 12960 02305 10173 20129 30058 40148 53007 60001 333 10219==
85586,2016,12,12,09,00,AAXX 12094 85586 NIL=
85586,2016,12,12,12,00,AAXX 1212/ 85586 12960 0//// 10169 20123 30066 40156 51010 60004 333 20108 30/// 55118 70000==
85586,2016,12,12,15,00,AAXX 12154 85586 42960 02410 10201 20124 30063 40152 58003==
85586,2016,12,12,18,00,AAXX 12184 85586 42960 02420 10202 20118 30053 40142 58011==
85586,2016,12,12,21,00,AAXX 12214 85586 42960 02316 10199 20118 30048 40137 56004==
85586,2016,12,13,00,00,AAXX 1300/ 85586 12960 0//// 10154 20108 30057 40147 53009 60001 333 10214==
85586,2016,12,13,03,00,AAXX 13034 85586 NIL=
85586,2016,12,13,06,00,AAXX 13064 85586 NIL=
85586,2016,12,13,09,00,AAXX 13094 85586 NIL=
85586,2016,12,13,12,00,AAXX 1312/ 85586 12960 0//// 10202 20087 30062 40151 50007 60001 333 20088 30/// 55118==
85586,2016,12,13,15,00,AAXX 13154 85586 42960 02410 10197 20100 30054 40143 58008==
85586,2016,12,13,18,00,AAXX 13184 85586 12960 02417 10194 20102 30042 40131 58013 60001==
85586,2016,12,13,21,00,AAXX 13214 85586 42960 02510 10195 20103 30028 40117 57013==
85586,2016,12,14,00,00,AAXX 14004 85586 12960 03605 10166 20105 30036 40126 53006 60001 333 10263 56//6 81075==
85586,2016,12,14,09,00,AAXX 14094 85586 NIL=
85586,2016,12,14,12,00,AAXX 14124 85586 12960 00503 10163 20109 30030 40120 52008 60004 333 20085 30/// 55118 70000==
85586,2016,12,14,15,00,AAXX 14154 85586 42960 02807 10194 20091 30033 40122 53003==
85586,2016,12,14,18,00,AAXX 14184 85586 42960 03007 10186 20115 30036 40125 52003==
85586,2016,12,14,21,00,AAXX 14214 85586 42960 02709 10184 20118 30036 40125 50001==
85586,2016,12,15,00,00,AAXX 15004 85586 42/60 43404 10157 20134 30040 40130 53003 333 10206 56//6 84072==
85586,2016,12,15,03,00,AAXX 15034 85586 NIL=
85586,2016,12,15,09,00,AAXX 15094 85586 NIL=
85586,2016,12,15,12,00,AAXX 15124 85586 41457 83505 10157 20136 30059 40149 51026 70522 885// 333 20097 30/// 55116 566// 88611==
85586,2016,12,15,15,00,AAXX 15154 85586 42460 63111 10191 20144 30061 40150 51003 86800 333 566// 83816 86622==
85586,2016,12,15,18,00,AAXX 15184 85586 12460 02913 10190 20143 30056 40145 57005 60001 81100 333 566// 81818==
85586,2016,12,15,21,00,AAXX 15214 85586 42460 62809 10177 20143 30058 40148 51002 86500 333 566// 86617==
85586,2016,12,16,00,00,AAXX 16004 85586 12360 22704 10163 20142 30057 40147 55002 60001 82500 333 10197 566// 82609==
85586,2016,12,16,03,00,AAXX 16034 85586 NIL=
85586,2016,12,16,09,00,AAXX 16094 85586 NIL=
85586,2016,12,16,12,00,AAXX 16124 85586 11457 80504 10171 20137 30089 40179 53014 60004 70522 885// 333 20134 30/// 55066 566// 70000 88614==
85586,2016,12,16,15,00,AAXX 16154 85586 41122 83106 10159 20151 30093 40184 51006 71022 886// 333 566// 88702==
85586,2016,12,16,18,00,AAXX 16184 85586 11557 82708 10194 20145 30084 40173 56010 60001 70522 885// 333 566// 88629==
85586,2016,12,16,21,00,AAXX 16214 85586 42960 02509 10191 20134 30064 40153 56019==
85586,2016,12,17,00,00,AAXX 17004 85586 11958 02505 10167 20135 30067 40157 53002 60001 70500 333 10208==
85586,2016,12,17,03,00,AAXX 17034 85586 NIL=
85586,2016,12,17,09,00,AAXX 17094 85586 NIL=
85586,2016,12,17,12,00,AAXX 17124 85586 11440 82905 10152 20129 30081 40172 51017 60004 70511 885// 333 20118 30/// 55048 567// 70000 88612==
85586,2016,12,17,15,00,AAXX 17154 85586 41456 82806 10170 20132 30080 40170 57002 70522 886// 333 567// 82612 88619==
85586,2016,12,17,18,00,AAXX 17184 85586 12460 22910 10185 20130 30082 40172 50003 60001 82500 333 567// 82613==
85586,2016,12,17,21,00,AAXX 17214 85586 42460 82707 10171 20139 30085 40175 53003 885// 333 566// 88610==
85586,2016,12,18,00,00,AAXX 18004 85586 12460 63004 10162 20139 30092 40183 52007 60001 86500 333 10196 566// 86616==
85586,2016,12,18,03,00,AAXX 18034 85586 NIL=
85586,2016,12,18,09,00,AAXX 18094 85586 NIL=
85586,2016,12,18,12,00,AAXX 1812/ 85586 12460 6//// 10171 20135 30077 40167 52001 60004 87500 333 20156 30/// 55037 566// 70000 87612==
85586,2016,12,18,15,00,AAXX 18154 85586 42960 02416 10183 20139 30063 40153 57014==
85586,2016,12,18,18,00,AAXX 18184 85586 12960 02517 10189 20134 30055 40144 58008 60001==
85586,2016,12,18,21,00,AAXX 18214 85586 42960 02413 10198 20127 30035 40124 58020==
85586,2016,12,19,00,00,AAXX 19004 85586 12960 00204 10171 20121 30029 40119 55006 60001 333 10213==
85586,2016,12,19,03,00,AAXX 19034 85586 NIL=
85586,2016,12,19,09,00,AAXX 19094 85586 NIL=
85586,2016,12,19,12,00,AAXX 19124 85586 12960 00000 10169 20117 30024 40114 52008 60004 333 20088 30/// 55108 70000==
85586,2016,12,19,15,00,AAXX 19154 85586 42960 03507 10200 20126 30030 40119 50006==
85586,2016,12,19,18,00,AAXX 19184 85586 12460 02611 10187 20132 30046 40135 51016 60001 81500 333 566// 81610==
85586,2016,12,19,21,00,AAXX 19214 85586 42960 02710 10178 20121 30049 40140 50004==
85586,2016,12,20,00,00,AAXX 20004 85586 12/60 23007 10144 20112 30052 40143 53002 60001 333 10201 56//6 83075==
85586,2016,12,20,03,00,AAXX 20034 85586 NIL=
85586,2016,12,20,12,00,AAXX 20124 85586 12960 03603 10148 20110 30067 40158 53011 60004 333 20073 30/// 55118 70000==
85586,2016,12,20,15,00,AAXX 20154 85586 42360 02610 10173 20125 30071 40161 53004 81600 333 566// 81708==
85586,2016,12,20,18,00,AAXX 20184 85586 11225 62709 10161 20131 30078 40168 50006 60001 71022 87600 333 566// 87706==
85586,2016,12,20,21,00,AAXX 20214 85586 42260 82707 10161 20140 30076 40166 50001 886// 333 566// 88705==
85586,2016,12,21,00,00,AAXX 21004 85586 NIL=
85586,2016,12,21,03,00,AAXX 21034 85586 NIL=
85586,2016,12,21,06,00,AAXX 21064 85586 NIL=
85586,2016,12,21,09,00,AAXX 21094 85586 NIL=
85586,2016,12,21,12,00,AAXX 21124 85586 12960 02205 10183 20129 30055 40145 53003 60004 333 20096 30/// 55063 70000==
85586,2016,12,21,15,00,AAXX 21154 85586 42960 02413 10197 20137 30060 40149 52006==
85586,2016,12,21,18,00,AAXX 21184 85586 12960 02417 10203 20126 30055 40144 57003 60001 333 56//6 81073==
85586,2016,12,21,21,00,AAXX 21214 85586 NIL=
85586,2016,12,22,00,00,AAXX 22004 85586 NIL=
85586,2016,12,22,03,00,AAXX 22034 85586 NIL=
85586,2016,12,22,06,00,AAXX 22064 85586 NIL=
85586,2016,12,22,09,00,AAXX 22094 85586 NIL=
85586,2016,12,22,12,00,AAXX 2212/ 85586 11957 0//// 10149 20108 30068 40159 51026 60004 70500 333 20091 30/// 55116 56//6 70000 81074==
85586,2016,12,22,15,00,AAXX 22154 85586 41958 02508 10181 20106 30077 40167 50008 70500==
85586,2016,12,22,18,00,AAXX 22184 85586 12960 02514 10180 20102 30074 40164 58002 60001==
85586,2016,12,22,21,00,AAXX 22214 85586 42960 02513 10172 20097 30065 40155 58009==
85586,2016,12,23,00,00,AAXX 2300/ 85586 12960 0//// 10158 20095 30058 40148 55007 60001 333 10191==
85586,2016,12,23,03,00,AAXX 23034 85586 NIL=
85586,2016,12,23,09,00,AAXX 23094 85586 NIL=
85586,2016,12,23,12,00,AAXX 2312/ 85586 12960 0//// 10162 20089 30080 40170 53028 60004 333 20083 30/// 55107 70000==
85586,2016,12,23,15,00,AAXX 23154 85586 42960 03110 10173 20125 30088 40178 51009==
85586,2016,12,23,18,00,AAXX 23184 85586 12960 02709 10167 20113 30088 40178 54000 60001==
85586,2016,12,23,21,00,AAXX 23214 85586 42960 02609 10161 20105 30073 40163 57015==
85586,2016,12,24,00,00,AAXX 24004 85586 12960 03604 10147 20109 30063 40154 56010 60001 333 10183==
85586,2016,12,24,03,00,AAXX 24034 85586 NIL=
85586,2016,12,24,09,00,AAXX 24094 85586 NIL=
85586,2016,12,24,12,00,AAXX 24124 85586 11350 20104 10138 20106 30068 40159 52014 60004 70500 82501 333 20076 30/// 55116 566/6 70000 82609 81073==
85586,2016,12,24,15,00,AAXX 24154 85586 42960 02808 10162 20108 30071 40161 51004==
85586,2016,12,24,18,00,AAXX 24184 85586 12960 02510 10180 20125 30061 40151 58010 60001==
85586,2016,12,24,21,00,AAXX 24214 85586 42960 02609 10174 20126 30046 40136 57015==
85586,2016,12,25,00,00,AAXX 25004 85586 12460 02805 10152 20125 30045 40135 55001 60001 81500 333 10185 566// 81610==
85586,2016,12,25,09,00,AAXX 25094 85586 NIL=
85586,2016,12,25,12,00,AAXX 25124 85586 12960 00704 10159 20115 30058 40148 53011 60004 333 20089 30/// 55109 70000==
85586,2016,12,25,15,00,AAXX 25154 85586 42660 23112 10185 20123 30069 40159 53010 83100 333 83845==
85586,2016,12,25,18,00,AAXX 25184 85586 12960 03113 10197 20123 30070 40159 50002 60001 81010 333 56/6/ 81356==
85586,2016,12,25,21,00,AAXX 25214 85586 42660 43113 10189 20138 30073 40163 53003 84501 333 566/6 84645 84073==
85586,2016,12,26,00,00,AAXX 26004 85586 12560 81904 10150 20108 30078 40169 52005 60001 885// 333 10209 566// 88622==
85586,2016,12,26,03,00,AAXX 26034 85586 NIL=
85586,2016,12,26,09,00,AAXX 26094 85586 NIL=
85586,2016,12,26,12,00,AAXX 26124 85586 11450 81904 10136 20128 30081 40172 53011 60154 76062 8253/ 333 20132 32/// 55096 5607/ 70148 82610 88357==
85586,2016,12,26,15,00,AAXX 26154 85586 41460 42608 10166 20136 30092 40182 51014 70162 83501 333 566/6 83610 82075==
85586,2016,12,26,18,00,AAXX 26184 85586 NIL=
85586,2016,12,26,21,00,AAXX 26214 85586 NIL=
85586,2016,12,27,00,00,AAXX 27004 85586 12960 02604 10164 20130 30080 40170 56010 60001 333 10198==
85586,2016,12,27,12,00,AAXX 27124 85586 12960 01704 10189 20125 30054 40143 52004 69924 333 20109 31/// 55093 70002==
85586,2016,12,27,15,00,AAXX 27154 85586 42960 02410 10198 20127 30048 40137 57006==
85586,2016,12,27,18,00,AAXX 27184 85586 12960 02414 10194 20127 30036 40125 58012 60001==
85586,2016,12,27,21,00,AAXX 27214 85586 42960 02412 10187 20123 30025 40114 56011==
85586,2016,12,28,00,00,AAXX 28004 85586 12960 03406 10160 20128 30027 40117 53001 60001 333 10220==
85586,2016,12,28,12,00,AAXX 28124 85586 11357 83206 10158 20138 30041 40131 53017 60004 71022 886// 333 20129 30/// 55113 566// 70000 88708==
85586,2016,12,28,15,00,AAXX 28154 85586 42460 83108 10177 20137 30054 40144 51013 885// 333 566// 88612==
85586,2016,12,28,18,00,AAXX 28184 85586 12460 82910 10189 20142 30053 40142 58001 60001 885// 333 566// 88612==
85586,2016,12,28,21,00,AAXX 28214 85586 42460 83007 10181 20139 30045 40134 58008 885// 333 566// 88614==
85586,2016,12,29,00,00,AAXX 29004 85586 12460 82704 10166 20136 30041 40131 57004 60001 885// 333 10201 566// 88613==
85586,2016,12,29,12,00,AAXX 29124 85586 11458 83304 10158 20130 30050 40140 52018 60004 70511 885// 333 20150 30/// 55006 566// 70000 88612==
85586,2016,12,29,15,00,AAXX 29154 85586 41458 83108 10168 20132 30068 40158 52017 70511 885// 333 566// 88613==
85586,2016,12,29,18,00,AAXX 29184 85586 12560 83008 10187 20138 30070 40160 50003 60001 885// 333 566// 88620==
85586,2016,12,29,21,00,AAXX 29214 85586 42560 22609 10191 20131 30064 40153 58006 82100 333 566// 82825==
85586,2016,12,30,00,00,AAXX 30004 85586 12560 62403 10167 20138 30057 40147 56006 60001 87500 333 10201 566// 87623==
85586,2016,12,30,12,00,AAXX 30124 85586 14460 80803 10161 20136 30055 40145 50006 60001 70311 885// 333 20120 30/// 55022 566// 70000 88617=
85586,2016,12,30,15,00,AAXX 30154 85586 42460 83005 10185 20136 30065 40155 51010 885// 333 566// 88618==
85586,2016,12,30,18,00,AAXX 30184 85586 14560 82706 10189 20132 30068 40157 52003 60001 70222 885// 333 566// 88622=
85586,2016,12,30,21,00,AAXX 30214 85586 42560 62408 10193 20138 30058 40147 58009 87500 333 566// 87625==
85586,2016,12,31,00,00,AAXX 31004 85586 14560 12506 10168 20139 30058 40148 55001 60001 70200 81500 333 10206 566// 81625=
85586,2016,12,31,03,00,AAXX 31034 85586 NIL=
85586,2016,12,31,06,00,AAXX 31064 85586 NIL=
85586,2016,12,31,09,00,AAXX 31094 85586 NIL=
85586,2016,12,31,12,00,AAXX 31124 85586 14560 80000 10165 20121 30083 40173 52014 60001 70222 885// 333 20132 30/// 55025 70000 88620=
85586,2016,12,31,15,00,AAXX 31154 85586 42560 82906 10184 20125 30090 40180 51007 885// 333 88624==
85586,2016,12,31,18,00,AAXX 31184 85586 14560 32409 10202 20128 30085 40174 57005 60001 70111 83500 333 566// 83628=
