85586,2011,01,01,00,00,AAXX 01004 85586 12960 02405 10162 20117 40141 56010 60001 333 10194=
85586,2011,01,01,15,00,AAXX 01154 85586 NIL=
85586,2011,01,01,21,00,AAXX 01214 85586 NIL=
85586,2011,01,02,00,00,AAXX 02004 85586 12960 02405 10168 20125 40155 56006 60001 333 10205=
85586,2011,01,02,12,00,AAXX 02124 85586 12960 00704 10172 20122 40158 51014 60004 333 20096 30/// 50240 55078=
85586,2011,01,02,15,00,AAXX 02154 85586 42460 12608 10213 20107 40163 51004 81100 333 56600 81815=
85586,2011,01,02,18,00,AAXX 02184 85586 12460 12611 10214 20118 40168 53007 60001 81100 333 56600 81815=
85586,2011,01,02,21,00,AAXX 02214 85586 NIL=
85586,2011,01,03,00,00,AAXX 03004 85586 12960 02304 10172 20130 40155 53002 60001 333 10223=
85586,2011,01,03,15,00,AAXX 03154 85586 42960 02507 10180 20090 40161 58002=
85586,2011,01,03,18,00,AAXX 03184 85586 12960 02310 10204 20093 40169 53008 60001=
85586,2011,01,03,21,00,AAXX 03214 85586 42960 02308 10214 20132 40170 54002=
85586,2011,01,04,00,00,AAXX 04004 85586 12560 02404 10174 20139 40166 57015 60001 81500 333 10222 56600 81620=
85586,2011,01,04,12,00,AAXX 04124 85586 12560 40000 10166 20127 40191 52007 60004 81130 333 20100 30/// 50360 55124 56660 81820 84358=
85586,2011,01,04,15,00,AAXX 04154 85586 NIL=
85586,2011,01,04,21,00,AAXX 04214 85586 42560 22215 10200 20124 40198 54003 82100 333 56600 82820=
85586,2011,01,05,00,00,AAXX 05004 85586 12960 02207 10174 20123 40179 57020 60001 333 10224=
85586,2011,01,05,12,00,AAXX 05124 85586 12960 00000 10172 20127 40158 58003 60004 333 20096 30/// 50330 55114=
85586,2011,01,05,15,00,AAXX 05154 85586 NIL=
85586,2011,01,05,18,00,AAXX 05184 85586 12960 02310 10200 20134 40136 57007 60001=
85586,2011,01,05,21,00,AAXX 05214 85586 42960 024089 10198 20136 40119 57017=
85586,2011,01,06,00,00,AAXX 06004 85586 12960 00206 10163 20129 40118 57002 60001 333 10220=
85586,2011,01,06,15,00,AAXX 06154 85586 NIL=
85586,2011,01,06,18,00,AAXX 06184 85586 12460 73012 10194 20142 40150 53007 60001 87500 333 56700 87615=
85586,2011,01,06,21,00,AAXX 06214 85586 NIL=
85586,2011,01,07,15,00,AAXX 07154 85586 NIL=
85586,2011,01,07,18,00,AAXX 07184 85586 12460 32607 10194 20140 40165 58002 60001 83500 333 56700 83620=
85586,2011,01,07,21,00,AAXX 07214 85586 NIL=
85586,2011,01,08,15,00,AAXX 08154 85586 NIL=
85586,2011,01,08,21,00,AAXX 08214 85586 NIL=
85586,2011,01,09,00,00,AAXX 09004 85586 12460 83206 10163 20127 40149 57010 60001 885// 333 10198 56799 88615=
85586,2011,01,09,12,00,AAXX 09124 85586 11340 83304 10146 20132 40128 52012 60004 7102/ 886// 333 20128 30/// 50310 55077 56099 88709=
85586,2011,01,09,15,00,AAXX 09154 85586 41456 73109 10172 20137 40138 52011 70522 87500 333 56600 87615=
85586,2011,01,09,18,00,AAXX 09184 85586 12560 23210 10196 20141 40143 52005 60001 82500 333 56600 82620=
85586,2011,01,09,21,00,AAXX 09214 85586 42460 53006 10190 20159 40147 52004 85500 333 56600 85615=
85586,2011,01,10,00,00,AAXX 10004 85586 12460 73305 10171 20145 40154 52007 60001 87500 333 10200 56600 87617=
85586,2011,01,10,12,00,AAXX 10124 85586 12460 80000 10160 20144 40151 52011 60004 885// 333 20138 30/// 50030 55056 56699 88617=
85586,2011,01,10,15,00,AAXX 10154 85586 41560 52807 10185 20133 40157 52006 85500 333 56600 85620=
85586,2011,01,10,18,00,AAXX 10184 85586 12960 02408 10202 20142 40158 54001 60001=
85586,2011,01,10,21,00,AAXX 10214 85586 NIL=
85586,2011,01,11,00,00,AAXX 11004 85586 12960 62204 10156 20124 40147 54004 60001 86400 333 10216 56600 86620=
85586,2011,01,11,15,00,AAXX 11154 85586 NIL=
85586,2011,01,11,21,00,AAXX 11214 85586 NIL=
85586,2011,01,12,00,00,AAXX 12004 85586 12460 43205 10147 20121 40133 57019 60001 84400 333 10204 56600 84615=
85586,2011,01,12,15,00,AAXX 12154 85586 NIL=
85586,2011,01,12,18,00,AAXX 12184 85586 12260 32710 10194 20134 40144 51002 60001 83600 333 56700 83706=
85586,2011,01,12,21,00,AAXX 12214 85586 42460 4210 10187 20139 40134 58010 84500 333 56700 84612=
85586,2011,01,13,00,00,AAXX 13004 85586 11458 52808 10166 20136 40133 55001 60001 70522 85500 333 10196 56700 85615=
85586,2011,01,13,12,00,AAXX 13124 85586 11460 40306 10162 20120 40135 52026 60004 84500 333 20112 30/// 50310 550099 56700 88412=
85586,2011,01,13,15,00,AAXX 13154 85586 42460 73206 10166 20132 40154 52018 87500 333 56600 87615=
85586,2011,01,13,21,00,AAXX 13214 85586 42560 82610 10188 20143 40150 57010 70320 885// 333 56699 88620=
85586,2011,01,14,00,00,AAXX 14004 85586 12960 00000 10174 20135 40147 55001 60001 333 10190=
85586,2011,01,14,15,00,AAXX 14154 85586 NIL=
85586,2011,01,14,21,00,AAXX 14214 85586 42960 02312 10174 20132 40148 54002=
85586,2011,01,15,00,00,AAXX 15004 85586 12960 02705 10160 20113 40142 56006 60001 333 10192=
85586,2011,01,15,12,00,AAXX 15124 85586 12560 10304 10136 20114 40150 52009 60004 81500 333 20072 30/// 50340 55100 56600 81620=
85586,2011,01,15,15,00,AAXX 15154 85586 42960 12407 10176 20114 40163 52013 80002 333 56006 81075=
85586,2011,01,15,18,00,AAXX 15184 85586 12960 02409 10182 20121 40162 54001 60001=
85586,2011,01,15,21,00,AAXX 15214 85586 42960 02609 10190 20122 40158 57004=
85586,2011,01,16,00,00,AAXX 16004 85586 12960 02604 10172 20119 40164 53006 60001 333 10194=
85586,2011,01,16,12,00,AAXX 16124 85586 11860 71205 10150 20121 40173 58003 69944 7016/ 87030 333 20116 31/// 50380 55120 56060 70004 87358=
85586,2011,01,16,15,00,AAXX 16154 85586 42560 11905 10224 20125 40165 57008 81500 333 56600 81623=
85586,2011,01,16,18,00,AAXX 16184 85586 12560 12415 10198 20127 40159 57006 60001 81500 333 56600 81623=
85586,2011,01,16,21,00,AAXX 16214 85586 42960 02416 10194 20112 40137 57021=
85586,2011,01,17,00,00,AAXX 17004 85586 12960 12407 10160 20087 40154 52016 60001 80001 333 10230 56006 81075=
85586,2011,01,17,12,00,AAXX 17124 85586 12960 02104 10160 20093 40144 53006 60004 333 20080 30/// 50310 55099=
85586,2011,01,17,15,00,AAXX 17154 85586 42960 02310 10220 20115 40162 52018=
85586,2011,01,17,21,00,AAXX 17214 85586 42960 02210 10186 20108 40138 57012=
85586,2011,01,18,00,00,AAXX 18004 85586 12960 02005 10172 20102 40131 56005 60001 333 10224=
85586,2011,01,18,12,00,AAXX 18124 85586 12960 00000 10137 20108 40149 52015 60004 333 20078 30/// 50122=
85586,2011,01,18,15,00,AAXX 18154 85586 42960 02410 10186 20117 40161 52013=
85586,2011,01,18,21,00,AAXX 18214 85586 NIL=
85586,2011,01,19,00,00,AAXX 19004 85586 12260 32006 10156 20135 40162 52009 60001 83600 333 10192 56600 83704=
85586,2011,01,19,15,00,AAXX 19154 85586 42960 02309 10200 20134 40167 58007=
85586,2011,01,19,18,00,AAXX 19184 85586 12960 02316 10195 20139 40156 57011 60001=
85586,2011,01,19,21,00,AAXX 19214 85586 42960 02312 10200 20122 40144 57012=
85586,2011,01,20,00,00,AAXX 20004 85586 12960 01804 10171 20117 40147 57002 60001 333 10224=
85586,2011,01,20,15,00,AAXX 20154 85586 42960 02806 10200 20130 40162 52014=
85586,2011,01,20,18,00,AAXX 20184 85586 12960 02510 10200 20123 40162 54000 60001=
85586,2011,01,20,21,00,AAXX 20214 85586 NIL=
85586,2011,01,21,00,00,AAXX 21004 85586 12960 02704 10162 20104 40123 54005 60001 333 10206=
85586,2011,01,21,12,00,AAXX 21124 85586 12960 00000 10142 200120 40135 52011 60004 333 20086 30/// 50380 55118=
85586,2011,01,21,15,00,AAXX 21154 85586 NIL=
85586,2011,01,21,21,00,AAXX 21214 85586 NIL=
85586,2011,01,22,00,00,AAXX 22004 85586 12460 33007 10164 20124 40127 57015 60001 83600 333 10184 56600 83715=
85586,2011,01,22,12,00,AAXX 22124 85586 12960 12404 10156 20130 40135 52006 60004 80002 333 20076 30/// 50360 55118 56006 81075=
85586,2011,01,22,15,00,AAXX 22154 85586 NIL=
85586,2011,01,22,18,00,AAXX 22184 85586 12960 12409 10186 20127 40131 57003 60001 80001 333 56006 81075=
85586,2011,01,22,21,00,AAXX 22214 85586 42960 12807 10184 20132 40116 57015 80001 333 56006 81075=
85586,2011,01,23,00,00,AAXX 23004 85586 12460 40207 10152 20135 40113 57003 60001 84500 333 10196 56600 84613=
85586,2011,01,23,12,00,AAXX 23124 85586 11450 83307 10146 20137 40122 52012 60004 7102/ 885// 333 20138 30/// 50370 56099 88612=
85586,2011,01,23,15,00,AAXX 23154 85586 42560 12908 10186 20136 40130 52008 81500 333 56600 81620=
85586,2011,01,23,18,00,AAXX 23184 85586 12560 22910 10192 20150 40136 52007 60001 82500 333 56600 82620=
85586,2011,01,23,21,00,AAXX 23214 85586 41450 82806 10180 20162 40134 58002 70522 886// 333 56699 88710=
85586,2011,01,24,00,00,AAXX 24004 85586 11450 83004 10170 20154 40132 54002 60001 70522 886// 333 10202 56099 88710=
85586,2011,01,24,15,00,AAXX 24154 85586 NIL=
85586,2011,01,24,21,00,AAXX 24214 85586 NIL=
85586,2011,01,25,00,00,AAXX 25004 85586 12960 02506 10174 20147 40120 57048 60001 333 10232=
85586,2011,01,25,12,00,AAXX 25124 85586 11230 80000 10151 20144 40138 52020 60004 71022 886// 333 20146 30/// 50360 55079 56699 88705=
85586,2011,01,25,15,00,AAXX 25154 85586 NIL=
85586,2011,01,25,18,00,AAXX 25184 85586 12560 62406 10192 20136 40162 52016 60001 86500 333 56600 86620=
85586,2011,01,25,21,00,AAXX 25214 85586 42560 62705 10180 20131 40145 57016 86500 333 56600 86620=
85586,2011,01,26,00,00,AAXX 26004 85586 12560 51903 10170 20131 40135 57010 60001 85500 333 10200 56500 85625=
85586,2011,01,26,12,00,AAXX 26124 85586 11330 80000 10159 20152 40153 52020 60004 71022 886// 333 20149 30/// 50300 55031 56799 88708=
85586,2011,01,26,15,00,AAXX 26154 85586 NIL=
85586,2011,01,26,18,00,AAXX 26184 85586 12560 12507 10206 20132 40159 54000 60001 81500 333 56600 81620=
85586,2011,01,26,21,00,AAXX 26214 85586 42560 72405 10189 20139 40153 57008 87500 333 56600 87620=
85586,2011,01,27,00,00,AAXX 27004 85586 12960 02303 10174 40139 40148 57005 60001 333 10211=
85586,2011,01,27,15,00,AAXX 27154 85586 41420 80604 10160 20144 40153 52036 71022 886// 333 56299 88710=
85586,2011,01,27,21,00,AAXX 27214 85586 42960 02207 10190 20125 40134 57021=
85586,2011,01,28,00,00,AAXX 28004 85586 12960 02306 10174 20133 40131 54004 60001 333 10190=
85586,2011,01,28,12,00,AAXX 28124 85586 12960 00000 10142 20115 40122 52011 60004 333 20086 30/// 50260 55053=
85586,2011,01,28,15,00,AAXX 28154 85586 42960 02707 10184 20114 40132 52004=
85586,2011,01,28,21,00,AAXX 28214 85586 NIL=
85586,2011,01,29,00,00,AAXX 29004 85586 12960 03304 10160 20111 40136 54003 60001 333 10206=
85586,2011,01,29,12,00,AAXX 29124 85586 12456 83305 1014. 20124 40160 52012 60004 7052/ 885// 333 20094 30/// 50360 55119 56099 88613=
85586,2011,01,29,15,00,AAXX 29154 85586 42560 12908 10178 20129 40179 52019 81500 333 56600 81620=
85586,2011,01,29,18,00,AAXX 29184 85586 12560 32807 10180 20128 40189 52010 60001 83500 333 56600 83620=
85586,2011,01,29,21,00,AAXX 29214 85586 42560 12506 10178 20115 40191 51002 81500 333 56600 81620=
85586,2011,01,30,00,00,AAXX 30004 85586 12560 52404 10150 20114 40197 52006 60001 85500 333 10190 56600 85620=
85586,2011,01,30,12,00,AAXX 30124 85586 12460 80000 10121 20115 40196 52016 60004 87600 333 20084 30/// 50330 55097 56600 87710=
85586,2011,01,30,15,00,AAXX 30154 85586 42460 23106 10164 20104 40207 52012 82500 333 56600 82618=
85586,2011,01,30,18,00,AAXX 30184 85586 12460 22708 10182 20128 40200 58006 60001 82600 333 56600 82712=
85586,2011,01,30,21,00,AAXX 30214 85586 42460 22807 10182 20128 40178 57004 82600 333 56600 82710=
85586,2011,01,31,00,00,AAXX 31004 85586 11104 82506 10158 20151 40184 57003 60001 74222 886// 333 10192 56699 88702=
85586,2011,01,31,12,00,AAXX 31124 85586 11108 70000 10146 20137 40180 52012 60004 74242 87600 333 20138 30/// 50300 55085 56000 87702=
85586,2011,01,31,15,00,AAXX 31154 85586 NIL=
85586,2011,01,31,18,00,AAXX 31184 85586 12960 02311 10202 20134 40205 52023 60001=
85586,2011,01,31,21,00,AAXX 31214 85586 42960 02411 10195 20112 40155 57048=
85586,2011,02,01,00,00,AAXX 01004 85586 12960 02308 10188 20124 40134 57020 60001 333 10210=
85586,2011,02,01,15,00,AAXX 01154 85586 42960 02307 10204 20117 40134 52014=
85586,2011,02,01,18,00,AAXX 01184 85586 12960 02412 10220 20124 40146 52011 60001=
85586,2011,02,01,21,00,AAXX 01214 85586 42960 02709 10172 20105 40144 54001=
85586,2011,02,02,00,00,AAXX 02004 85586 12960 03504 10160 20120 40125 57019 60001 333 10222=
85586,2011,02,02,15,00,AAXX 02154 85586 42960 02606 10196 20096 40163 53004=
85586,2011,02,02,18,00,AAXX 02184 85586 12960 02511 10204 20118 40155 58008 60001=
85586,2011,02,02,21,00,AAXX 02214 85586 NIL=
85586,2011,02,03,15,00,AAXX 03154 85586 NIL=
85586,2011,02,03,18,00,AAXX 03184 85586 12960 02210 10204 20124 40194 54005 60001=
85586,2011,02,03,21,00,AAXX 03214 85586 NIL=
85586,2011,02,04,00,00,AAXX 04004 85586 12960 02404 10173 20106 40146 53015 60001 333 10212=
85586,2011,02,04,12,00,AAXX 04124 85586 12960 00000 10142 20097 40112 52015 60004 333 20076 30/// 50360 55125=
85586,2011,02,04,15,00,AAXX 04154 85586 42960 03006 10200 20088 40138 52026=
85586,2011,02,04,18,00,AAXX 04184 85586 12960 02310 10176 20106 40120 57018 60001=
85586,2011,02,04,21,00,AAXX 04214 85586 NIL=
85586,2011,02,05,00,00,AAXX 05004 85586 12960 03506 10162 20116 40102 56008 60001 333 10206=
85586,2011,02,05,12,00,AAXX 05124 85586 12960 03603 10141 20103 40104 52017 60004 333 20084 30/// 50380 55117=
85586,2011,02,05,15,00,AAXX 05154 85586 NIL=
85586,2011,02,05,21,00,AAXX 05214 85586 NIL=
85586,2011,02,06,00,00,AAXX 06004 85586 12560 23204 10160 20120 40122 54004 60001 82400 333 10178 56600 82620=
85586,2011,02,06,15,00,AAXX 06154 85586 NIL=
85586,2011,02,06,18,00,AAXX 06184 85586 12960 32710 10194 20126 40140 56006 60001 80001 333 56006 83070=
85586,2011,02,06,21,00,AAXX 06214 85586 42960 52406 10184 20132 40140 54000 80001 333 56006 85070=
85586,2011,02,07,00,00,AAXX 07004 85586 12960 22703 10162 20118 40139 54001 60001 80001 333 10206 56006 82070=
85586,2011,02,07,12,00,AAXX 07124 85586 12960 80000 10154 20126 40178 52018 60004 885// 333 20128 50330 55070 56699 88622=
85586,2011,02,07,15,00,AAXX 07154 85586 42560 72605 10188 20124 40183 52006 87500 333 56600 87625=
85586,2011,02,07,18,00,AAXX 07184 85586 12960 02606 10208 20129 40176 58005 60001=
85586,2011,02,07,21,00,AAXX 07214 85586 42960 02209 10198 20122 40162 57015=
85586,2011,02,08,00,00,AAXX 08004 85586 12960 02504 10164 20128 40158 57005 60001 333 10210=
85586,2011,02,08,15,00,AAXX 08154 85586 NIL=
85586,2011,02,08,21,00,AAXX 08214 85586 NIL=
85586,2011,02,09,15,00,AAXX 09154 85586 NIL=
85586,2011,02,09,21,00,AAXX 09214 85586 NIL=
85586,2011,02,10,15,00,AAXX 10154 85586 NIL=
85586,2011,02,10,18,00,AAXX 10184 85586 12560 32409 10209 20130 40131 56004 60001 83100 333 56700 83820=
85586,2011,02,10,21,00,AAXX 10214 85586 NIL=
85586,2011,02,11,12,00,AAXX 11124 85586 12765 60000 10166 20141 40140 52011 60004 86500 333 20151 30/// 50300 55089 56600 86660=
85586,2011,02,11,15,00,AAXX 11154 85586 42765 63004 10208 20134 40146 52008 86500 333 56600 86600=
85586,2011,02,11,18,00,AAXX 11184 85586 12765 62807 10195 20141 40156 52009 60001 86500 333 56600 86660=
85586,2011,02,11,21,00,AAXX 11214 85586 42765 52907 10194 20138 40157 54000 85500 333 56600 85656=
85586,2011,02,12,12,00,AAXX 12124 85586 12960 20000 10166 20140 40171 52016 60004 82030 333 20124 30/// 50370 55036 56700 82365=
85586,2011,02,12,15,00,AAXX 12154 85586 NIL=
85586,2011,02,12,18,00,AAXX 12184 85586 12765 42607 10210 20147 40194 52009 60001 81130 333 56060 81853 83365=
85586,2011,02,12,21,00,AAXX 12214 85586 42765 42808 10210 20147 40196 52002 81131 333 56066 81853=
85586,2011,02,13,00,00,AAXX 13004 85586 12765 32603 10188 20156 40202 52005 60001 81101 333 10218 56006 81853=
85586,2011,02,13,12,00,AAXX 13124 85586 12960 00000 10168 20147 40189 52005 60004 333 20117 30/// 50400 55100=
85586,2011,02,13,15,00,AAXX 13154 85586 42960 02309 10207 20144 40190 52002=
85586,2011,02,13,18,00,AAXX 13184 85586 12960 02311 10216 20142 40176 58013 60001=
85586,2011,02,13,21,00,AAXX 13214 85586 42960 02410 10212 20148 40154 57022=
85586,2011,02,14,00,00,AAXX 14004 85586 12960 00000 10200 20139 40152 57003 60001 333 10227=
85586,2011,02,14,15,00,AAXX 14154 85586 NIL=
85586,2011,02,14,18,00,AAXX 14184 85586 12960 02809 10206 20132 40133 50000 60001=
85586,2011,02,14,21,00,AAXX 14214 85586 42960 02707 10205 20137 40130 58002=
85586,2011,02,15,00,00,AAXX 15004 85586 12960 00000 10174 20135 40135 53004 60001 333 10216=
85586,2011,02,15,15,00,AAXX 15154 85586 41256 83209 10179 20136 40171 52010 70522 885// 333 56799 81704 88615=
85586,2011,02,15,18,00,AAXX 15184 85586 12558 73009 10208 20138 40165 58005 60001 70522 87500 333 56700 87620=
85586,2011,02,15,21,00,AAXX 15214 85586 42960 02610 10203 20143 40151 56014=
85586,2011,02,16,00,00,AAXX 16004 85586 12958 02404 10172 20141 40159 53007 60001 333 10213=
85586,2011,02,16,12,00,AAXX 16124 85586 11440 80000 10166 20141 40163 52023 60004 7052/ 885// 333 20164 30/// 50360 55055 56799 83709 88615=
85586,2011,02,16,15,00,AAXX 16154 85586 NIL=
85586,2011,02,16,21,00,AAXX 16214 85586 NIL=
85586,2011,02,17,00,00,AAXX 17004 85586 12960 02404 10173 20122 40186 58002 60001 333 10216=
85586,2011,02,17,12,00,AAXX 17124 85586 12960 01002 10140 20119 40183 52004 60004 333 20096 30/// 50270 55080=
85586,2011,02,17,15,00,AAXX 17154 85586 42960 02607 10192 20119 40187 52004=
85586,2011,02,17,18,00,AAXX 17184 85586 12960 02411 10200 20128 40180 57007 60001=
85586,2011,02,17,21,00,AAXX 17214 85586 42960 02410 10198 20136 40160 57020=
85586,2011,02,18,00,00,AAXX 1800/ 85586 12960 02408 10224 20127 40189 52004 60001=
85586,2011,02,18,12,00,AAXX 18124 85586 11212 80000 10132 20123 40155 52010 60004 7104/ 886// 333 20116 30/// 50360 55117 56099 88706=
85586,2011,02,18,15,00,AAXX 18154 85586 41440 83305 10166 20143 40164 52009 70522 886// 333 56099 88710=
85586,2011,02,18,18,00,AAXX 18184 85586 11457 73007 10184 20145 40162 58002 60001 70522 87500 333 56600 87613=
85586,2011,02,18,21,00,AAXX 18214 85586 41450 82805 10160 20144 40155 57006 886// 333 56699 88710=
85586,2011,02,19,00,00,AAXX 19004 85586 11457 72804 10156 20130 40156 54001 60001 70522 87500 333 10192 56600 87612=
85586,2011,02,19,12,00,AAXX 19124 85586 11457 80000 10160 20134 40164 52008 60004 70522 885// 333 20156 30/// 50220 55014 56099 88617=
85586,2011,02,19,15,00,AAXX 19154 85586 42560 82707 10180 20131 40172 52008 885// 333 56099 88623=
85586,2011,02,19,18,00,AAXX 19184 85586 12560 72806 10190 20126 40169 58003 60001 87500 333 56600 87630=
85586,2011,02,19,21,00,AAXX 19214 85586 42560 32805 10192 20125 40152 57017 83500 333 56600 83630=
85586,2011,02,20,00,00,AAXX 20004 85586 12560 10000 10168 20123 40153 54001 60001 81500 333 10201 56600 81630=
85586,2011,02,20,15,00,AAXX 20154 85586 NIL=
85586,2011,02,20,18,00,AAXX 20184 85586 11456 83005 10193 20128 40175 50000 60001 70522 885// 333 56799 88615=
85586,2011,02,20,21,00,AAXX 20214 85586 41556 82506 10196 20127 40155 57019 70522 885// 333 56799 88620=
85586,2011,02,21,00,00,AAXX 21004 85586 12958 02404 10171 20129 40149 56007 60001 70522 333 10198=
85586,2011,02,21,15,00,AAXX 21154 85586 41460 72408 10198 20118 40173 52020 81530 333 56760 81615 87374=
85586,2011,02,21,18,00,AAXX 21184 85586 12460 82508 10206 20132 40173 50000 60001 82530 333 56769 81615 88368=
85586,2011,02,21,21,00,AAXX 21214 85586 41960 02511 10198 20128 40161 57012=
85586,2011,02,22,00,00,AAXX 22004 85586 12960 02406 10168 20113 40158 56004 60001 333 10208=
85586,2011,02,22,15,00,AAXX 22154 85586 41960 02609 10189 20128 40166 58008=
85586,2011,02,22,18,00,AAXX 22184 85586 12960 02512 10194 20136 40168 51002 60001=
85586,2011,02,22,21,00,AAXX 22214 85586 NIL=
85586,2011,02,23,00,00,AAXX 23004 85586 12960 02508 10163 20113 40159 56001 60001 333 10206=
85586,2011,02,23,12,00,AAXX 23124 85586 11206 80902 10130 20121 40130 52008 60004 7464/ 886// 333 20106 30/// 50310 55119 56099 88704=
85586,2011,02,23,15,00,AAXX 23154 85586 41456 82406 10166 20138 40141 52011 70544 886// 333 56099 88710=
85586,2011,02,23,18,00,AAXX 23184 85586 11458 82807 10178 20129 40143 51002 60001 70522 87500 333 56600 87612=
85586,2011,02,23,21,00,AAXX 23214 85586 42460 72407 10170 20125 40135 57008 87500 333 56600 87615=
85586,2011,02,24,00,00,AAXX 24004 85586 12460 82404 10146 10112 40133 53004 60001 885// 333 10181 56699 88613=
85586,2011,02,24,12,00,AAXX 24124 85586 11456 80204 10146 20120 40139 52011 60004 7052/ 885// 333 20138 30/// 50240 55035 56099 88615=
85586,2011,02,24,15,00,AAXX 24154 85586 NIL=
85586,2011,02,24,21,00,AAXX 24214 85586 42960 02410 10212 20125 40152 53002=
85586,2011,02,25,00,00,AAXX 25004 85586 12560 10000 10162 20136 40147 52006 60001 81100 333 10214 56600 81820=
85586,2011,02,25,12,00,AAXX 25124 85586 12960 01002 10140 20131 40165 52012 60004 333 20100 30/// 50260 55075=
85586,2011,02,25,15,00,AAXX 25154 85586 42960 02608 10190 20124 40175 52011=
85586,2011,02,25,18,00,AAXX 25184 85586 12960 02710 10210 20134 40180 51005 60001=
85586,2011,02,25,21,00,AAXX 25214 85586 42960 02511 10200 20137 40187 52007=
85586,2011,02,26,00,00,AAXX 26004 85586 12960 02004 10174 20132 40174 56003 60001 333 10214=
85586,2011,02,26,15,00,AAXX 26154 85586 41456 42709 10182 20130 40195 51009 70522 84500 333 56700 84612=
85586,2011,02,26,21,00,AAXX 26214 85586 NIL=
85586,2011,02,27,15,00,AAXX 27154 85586 NIL=
85586,2011,02,27,21,00,AAXX 27214 85586 41456 82708 10171 20130 40159 56002 70522 885// 333 56799 88615=
85586,2011,02,28,12,00,AAXX 28124 85586 11456 80000 10159 20119 40173 52017 60004 7052/ 885// 333 20148 30/// 50320 55000 56799 88616=
85586,2011,02,28,15,00,AAXX 28154 85586 41958 02607 10197 20123 40165 58006 70522=
85586,2011,02,28,18,00,AAXX 28184 85586 12960 02210 10194 20122 40155 57011 60001=
85586,2011,02,28,21,00,AAXX 28214 85586 NIL=
85586,2011,03,01,00,00,AAXX 01004 85586 11458 82704 10169 20133 40146 53008 60001 70500 885// 333 10206 56799 88612=
85586,2011,03,01,12,00,AAXX 01124 85586 11306 81502 10130 20123 40130 52008 60004 7462/ 886// 333 20108 30/// 50340 55083 56099 88708=
85586,2011,03,01,15,00,AAXX 01154 85586 NIL=
85586,2011,03,01,18,00,AAXX 01184 85586 12460 63005 10180 20127 40155 54000 60001 333 56600 86712=
85586,2011,03,01,21,00,AAXX 01214 85586 NIL=
85586,2011,03,02,00,00,AAXX 02004 85586 12560 73104 10134 20095 40145 52008 60001 87500 333 10184 56600 87620=
85586,2011,03,02,12,00,AAXX 02124 85586 12560 72102 10160 20124 40153 52014 60004 87500 333 20136 30/// 50240 55056 56600 87620=
85586,2011,03,02,15,00,AAXX 02154 85586 42560 12508 10189 20142 40157 52005 81500 333 56600 81620=
85586,2011,03,02,18,00,AAXX 02184 85586 112960 02407 10200 20144 40157 58001 60001=
85586,2011,03,02,21,00,AAXX 02214 85586 42560 12508 10196 20153 40144 57012 81500 333 56600 81620=
85586,2011,03,03,00,00,AAXX 03004 85586 12960 00407 10164 20137 40142 53001 60001 333 10208=
85586,2011,03,03,12,00,AAXX 03124 85586 11903 00000 10123 20115 40134 52010 60001 7464/ 333 20096 30/// 50300 55099=
85586,2011,03,03,15,00,AAXX 03154 85586 NIL=
85586,2011,03,03,18,00,AAXX 03184 85586 12960 02707 10212 20134 40153 52006 60001=
85586,2011,03,03,21,00,AAXX 03214 85586 NIL=
85586,2011,03,04,00,00,AAXX 04004 85586 12960 03103 10164 20128 40146 57002 60001 333 10202=
85586,2011,03,04,15,00,AAXX 04154 85586 42560 42407 10184 20122 40155 52005 84530 333 56660 84620=
85586,2011,03,04,21,00,AAXX 04214 85586 42560 32005 10190 20136 40164 51003 83509 333 56606 82620 83173=
85586,2011,03,05,15,00,AAXX 05154 85586 44456 83308 10191 20137 40167 51012 70522 885// 333 56799 88612=
85586,2011,03,05,18,00,AAXX 05184 85586 11456 82909 10201 20137 40163 58003 60001 70522 885// 333 56799 88615=
85586,2011,03,05,21,00,AAXX 05214 85586 NIL=
85586,2011,03,06,00,00,AAXX 06004 85586 11558 82604 10181 20134 40158 53005 60001 70522 885// 333 10211 56799 88620=
85586,2011,03,06,15,00,AAXX 06154 85586 NIL=
85586,2011,03,06,21,00,AAXX 06214 85586 NIL=
85586,2011,03,07,12,00,AAXX 07124 85586 12960 01002 10132 20121 40152 52008 60004 333 20096 30/// 50180 55022=
85586,2011,03,07,15,00,AAXX 07154 85586 42960 02805 10180 20132 40159 52007=
85586,2011,03,07,21,00,AAXX 07214 85586 42456 82705 10165 20145 40150 56004=
85586,2011,03,08,00,00,AAXX 08004 85586 12460 73102 10168 20152 40153 53002 60001 87500 333 10194 56600 87615=
85586,2011,03,08,12,00,AAXX 08124 85586 12560 80404 10154 20132 40152 52006 60004 885// 333 20154 30/// 50280 55066 56099 88620=
85586,2011,03,08,15,00,AAXX 08154 85586 NIL=
85586,2011,03,08,21,00,AAXX 08214 85586 NIL=
85586,2011,03,09,00,00,AAXX 09004 85586 11457 82603 10162 20145 40158 52009 60001 70522 886// 333 10196 56099 88710=
85586,2011,03,09,12,00,AAXX 09124 85586 11457 20602 10134 20125 40176 52004 60004 7051/ 82600 333 20096 30/// 50240 55030 56600 82710=
85586,2011,03,09,15,00,AAXX 09154 85586 42960 02608 10190 20128 40179 51003=
85586,2011,03,09,18,00,AAXX 09184 85586 12560 12706 10190 20131 40175 57004 60001 81500 333 56600 81625=
85586,2011,03,09,21,00,AAXX 09214 85586 NIL=
85586,2011,03,10,00,00,AAXX 10004 85586 12460 12502 10170 20145 40159 56007 60001 81500 333 10210 56600 81610=
85586,2011,03,10,15,00,AAXX 10154 85586 42460 43310 10192 20136 40182 52011 84500 333 56700 84615=
85586,2011,03,10,18,00,AAXX 10184 85586 12460 73008 10190 20162 40188 52006 60001 87600 333 56600 87712=
85586,2011,03,10,21,00,AAXX 10214 85586 42560 42705 10180 20133 40181 57007 84500 333 56600 84620=
85586,2011,03,11,00,00,AAXX 11004 85586 12460 40000 10171 20150 40185 52004 60001 84500 333 10202 56700 84615=
85586,2011,03,11,12,00,AAXX 11124 85586 12560 30000 10175 20142 40180 53006 60004 83500 333 20148 30/// 50270 55068 56600 83625=
85586,2011,03,11,15,00,AAXX 11154 85586 42560 23207 10214 20136 40185 52005 82500 333 56600 82630=
85586,2011,03,11,18,00,AAXX 11184 85586 12960 02408 10224 20127 40189 52004 60001=
85586,2011,03,11,21,00,AAXX 11214 85586 42960 02707 10200 20122 40189 54000=
85586,2011,03,12,00,00,AAXX 12004 85586 12460 73303 10190 20168 40191 52002 60001 87500 333 10225 56600 87617=
85586,2011,03,12,15,00,AAXX 12154 85586 42660 31806 10179 20109 40244 50005 83400 333 56600 83640=
85586,2011,03,12,18,00,AAXX 12184 85586 12660 12313 10195 20112 40226 57018 60001 81100 333 56600 81840=
85586,2011,03,12,21,00,AAXX 12214 85586 42960 02314 10207 20111 40202 57023=
85586,2011,03,13,00,00,AAXX 13004 85586 12960 01610 10190 20114 40193 57010 60001 333 10229=
85586,2011,03,13,15,00,AAXX 13154 85586 42960 02506 10184 20078 40160 51001=
85586,2011,03,13,18,00,AAXX 13184 85586 12960 02411 10180 20077 40155 57005 60001=
85586,2011,03,13,21,00,AAXX 13214 85586 42960 12407 10171 20097 40144 57010 80002 333 56006 81075=
85586,2011,03,14,00,00,AAXX 14004 85586 12960 23602 10130 20098 40146 53002 60001 80002 333 10194 56006 82075=
85586,2011,03,14,12,00,AAXX 14124 85586 12560 72802 10126 20118 40167 52012 60004 81530 333 20114 30/// 50340 55107 56660 81620 87360=
85586,2011,03,14,15,00,AAXX 14154 85586 42460 83105 10162 20118 40179 52012=
85586,2011,03,14,18,00,AAXX 14184 85586 12560 73007 10176 20123 40179 56000 60001 81530 333 56660 81620 87362=
85586,2011,03,14,21,00,AAXX 14214 85586 42560 72703 10160 20131 40173 57006 82130 333 56660 82825 87362=
85586,2011,03,15,00,00,AAXX 15004 85586 12560 82703 10140 20126 40170 56003 60001 8153/ 333 10180 56660 81625 88362=
85586,2011,03,15,15,00,AAXX 15154 85586 41960 80903 10152 20123 40105 52012 76062 8807/ 333 56069 88360=
85586,2011,03,15,18,00,AAXX 15184 85586 11960 82305 10174 20129 40218 52022 69921 76062 8807/ 333 56069 88362=
85586,2011,03,15,21,00,AAXX 15214 85586 NIL=
85586,2011,03,16,00,00,AAXX 16004 85586 11960 71403 10140 20136 40205 57009 69931 70262 87070 333 10176 56060 87362=
85586,2011,03,16,12,00,AAXX 16124 85586 12960 00000 10116 20107 40194 53006 69954 333 20088 31/// 50180 55000 70005=
85586,2011,03,16,15,00,AAXX 16154 85586 42960 00914 10200 20097 40207 52013=
85586,2011,03,16,18,00,AAXX 16184 85586 12960 02411 10180 20100 40207 54000 60001=
85586,2011,03,16,21,00,AAXX 16214 85586 NIL=
85586,2011,03,17,00,00,AAXX 17004 85586 12960 00000 10144 20100 40185 57016 60001 333 10215=
85586,2011,03,17,12,00,AAXX 17124 85586 12960 00000 10102 20089 40188 52003 60004 333 20065 30/// 50240 55105=
85586,2011,03,17,15,00,AAXX 17154 85586 42960 01810 10232 20108 40188 51002=
85586,2011,03,17,21,00,AAXX 17214 85586 42960 02312 10200 20107 40161 56004=
85586,2011,03,18,00,00,AAXX 18004 85586 12960 00000 10152 20105 40148 57012 60001 333 10245=
85586,2011,03,18,15,00,AAXX 18154 85586 42960 02308 10186 20142 40155 52003=
85586,2011,03,18,18,00,AAXX 18184 85586 12960 02010 10180 20126 40152 56003 60001=
85586,2011,03,18,21,00,AAXX 18214 85586 42960 02708 10172 20116 40141 57010=
85586,2011,03,19,00,00,AAXX 19004 85586 12960 03405 10135 20092 40150 52007 60001 333 10200=
85586,2011,03,19,12,00,AAXX 19124 85586 11340 83304 10126 20115 40161 52012 60004 7102/ 886// 333 20094 30/// 50300 55102 56099 88708=
85586,2011,03,19,15,00,AAXX 19154 85586 41358 42706 10150 20114 40167 52006 70522 84500 333 56600 82710 83617=
85586,2011,03,19,18,00,AAXX 19184 85586 11457 82606 10154 20110 40166 56001 60001 70522 885// 333 56699 88613=
85586,2011,03,19,21,00,AAXX 19214 85586 NIL=
85586,2011,03,20,00,00,AAXX 20004 85586 11457 80000 10126 20113 40150 56003 60001 70522 886// 333 10157 56699 88710=
85586,2011,03,20,12,00,AAXX 20124 85586 11208 80603 10101 20095 40163 52006 60004 7464/ 886// 333 20100 30/// 50160 55028 56099 88705=
85586,2011,03,20,15,00,AAXX 20154 85586 41320 82804 10134 20118 40177 52014 71042 886// 333 56099 88707=
85586,2011,03,20,18,00,AAXX 20184 85586 11450 83107 10154 20128 40177 54000 60001 70522 886// 333 56099 88710=
85586,2011,03,20,21,00,AAXX 20214 85586 41340 83104 10154 20128 40164 57013 70522 886// 333 56099 88709=
85586,2011,03,21,00,00,AAXX 21004 85586 11340 82403 10134 20122 40170 53006 60001 71022 886// 333 10160 56099 88708=
85586,2011,03,21,12,00,AAXX 21124 85586 11102 80000 10100 20094 40170 53007 60004 7464/ 886// 333 20100 30/// 50110 55002 56099 88703=
85586,2011,03,21,15,00,AAXX 21154 85586 41957 02703 10154 20108 40172 53002 70542=
85586,2011,03,21,18,00,AAXX 21184 85586 12460 22407 10168 20125 40175 52003 60001 82600 333 56600 82710=
85586,2011,03,21,21,00,AAXX 21214 85586 42360 32407 10163 20134 40169 58006 82601 333 56606 82708=
85586,2011,03,22,00,00,AAXX 22004 85586 12960 00404 10142 20124 40170 53001 60001 333 10184=
85586,2011,03,22,12,00,AAXX 22124 85586 11960 20000 10110 20102 40162 53003 60004 70240 80001 333 20090 30/// 50280 55085 56005 82073=
85586,2011,03,22,15,00,AAXX 22154 85586 NIL=
85586,2011,03,22,18,00,AAXX 22184 85586 12960 02314 10191 20132 40154 57005 60001=
85586,2011,03,22,21,00,AAXX 22214 85586 42960 02313 10184 20130 40149 57005=
85586,2011,03,23,12,00,AAXX 23124 85586 12960 00000 10082 20076 40177 53006 60004 333 20070 30/// 50290 55103=
85586,2011,03,23,15,00,AAXX 23154 85586 42960 02407 10175 20084 40172 58003=
85586,2011,03,23,18,00,AAXX 23184 85586 12960 02315 10167 20102 40161 57011=
85586,2011,03,23,21,00,AAXX 23214 85586 42960 02307 10176 20110 40144 57017=
85586,2011,03,24,00,00,AAXX 24004 85586 12960 00203 10140 20105 40134 57001 60001 333 10180=
85586,2011,03,24,12,00,AAXX 24124 85586 12960 00000 10064 20058 40130 53005 60004 333 20048 30/// 50280 55101=
85586,2011,03,24,15,00,AAXX 24154 85586 41958 02706 10154 20100 40136 52008 70500=
85586,2011,03,24,18,00,AAXX 24184 85586 12960 02606 10167 20114 40143 52008 60001=
85586,2011,03,24,21,00,AAXX 24214 85586 42460 22606 10158 20123 40148 52005 82600 333 56700 82710=
85586,2011,03,25,00,00,AAXX 25004 85586 12460 60000 10133 20117 40160 52011 60001 86500 333 10170 56700 86615=
85586,2011,03,25,12,00,AAXX 25124 85586 12560 80000 10136 20104 40179 52008 60004 885// 333 20135 30/// 50290 55099 56099 88623=
85586,2011,03,25,15,00,AAXX 25154 85586 42560 72404 10154 20108 40193 52014 87500 333 56600 87623=
85586,2011,03,25,18,00,AAXX 25184 85586 12560 22809 10172 20111 40192 55001 60001 81502 333 56606 81630=
85586,2011,03,25,21,00,AAXX 25214 85586 NIL=
85586,2011,03,26,00,00,AAXX 26004 85586 12960 00000 10130 20108 40202 52006 60001 333 10179=
85586,2011,03,26,12,00,AAXX 26124 85586 12960 01505 10110 20089 40184 52004 60004 333 20080 30/// 50180 55059=
85586,2011,03,26,15,00,AAXX 26154 85586 42960 01407 10204 20073 40179 58005=
85586,2011,03,26,18,00,AAXX 26184 85586 12960 02413 10184 20078 40160 57019 60001=
85586,2011,03,26,21,00,AAXX 26214 85586 42960 02417 10178 20070 40148 57011=
85586,2011,03,27,00,00,AAXX 27004 85586 12960 02202 10136 20065 40154 53005 60001 333 10240=
85586,2011,03,27,12,00,AAXX 27124 85586 12960 02002 10066 20055 40161 52004 60004 333 20040 30/// 50310 55101=
85586,2011,03,27,15,00,AAXX 27154 85586 42960 12405 10186 20066 40166 52007 80002 333 56006 81075=
85586,2011,03,27,18,00,AAXX 27184 85586 12960 72411 10176 20083 40158 58008 60001 80002 333 56006 87070=
85586,2011,03,27,21,00,AAXX 27214 85586 42960 52410 10176 20083 40154 56004 80002 333 56006 85070=
85586,2011,03,28,00,00,AAXX 28004 85586 12960 12205 10130 20064 40161 53007 60001 80002 333 10192 56006 81075=
85586,2011,03,28,12,00,AAXX 28124 85586 12960 01202 10070 20062 40154 53003 60004 333 20036 30/// 50270 55082=
85586,2011,03,28,15,00,AAXX 28154 85586 42960 02605 10176 20060 40154 54000=
85586,2011,03,28,18,00,AAXX 28184 85586 12960 02411 10166 20077 40151 57003 60001=
85586,2011,03,28,21,00,AAXX 28214 85586 42960 02406 10160 20093 40145 56005=
85586,2011,03,29,00,00,AAXX 29004 85586 12960 03603 10124 20098 40152 53006 60001 333 10188=
85586,2011,03,29,12,00,AAXX 29124 85586 11320 80000 10064 20057 40167 52010 60004 7101/ 886// 333 20042 30/// 50320 55104 56699 88708=
85586,2011,03,29,15,00,AAXX 29154 85586 41458 12605 10144 20098 40176 52009 70522 81600 333 56600 81710=
85586,2011,03,29,18,00,AAXX 29184 85586 11458 12505 10160 20103 40167 58009 60001 70511 81600 333 56600 81710=
85586,2011,03,29,21,00,AAXX 29214 85586 42960 03306 10167 20074 40161 57006=
85586,2011,03,30,00,00,AAXX 30004 85586 12960 03604 10120 20090 40166 52005 60001 333 10170=
85586,2011,03,30,15,00,AAXX 30154 85586 NIL=
85586,2011,03,30,18,00,AAXX 30184 85586 12960 02706 10188 20111 40176 52008 60001=
85586,2011,03,30,21,00,AAXX 30214 85586 NIL=
85586,2011,03,31,15,00,AAXX 31154 85586 42960 02804 10218 20107 40186 52010=
85586,2011,03,31,18,00,AAXX 31184 85586 12960 02211 10202 20111 40173 57012 60001=
85586,2011,03,31,21,00,AAXX 31214 85586 42960 02212 10190 20102 40163 57010=
85586,2011,04,01,15,00,AAXX 01154 85586 42960 01907 10236 20106 40159 54000=
85586,2011,04,01,18,00,AAXX 01184 85586 12960 02317 10178 20095 40145 57013 60001=
85586,2011,04,01,21,00,AAXX 01214 85586 NIL=
85586,2011,04,02,12,00,AAXX 02124 85586 12960 00000 10050 20039 40158 52004 60004 333 20032 30/// 50310 55101=
85586,2011,04,02,15,00,AAXX 02154 85586 41958 02504 10150 20084 40162 52004 70500=
85586,2011,04,02,18,00,AAXX 02184 85586 12960 02407 10164 20086 40152 57010 60001=
85586,2011,04,02,21,00,AAXX 02214 85586 42960 02806 10152 20092 40151 56001=
85586,2011,04,03,00,00,AAXX 03004 85586 12960 03604 10120 20094 40155 52004 60001 333 10170=
85586,2011,04,03,12,00,AAXX 03124 85586 11205 30000 10072 20064 40165 52005 60004 7464/ 83600 333 20040 30/// 50280 55098 56600 83704=
85586,2011,04,03,15,00,AAXX 03154 85586 42460 12805 10144 20088 40173 52008 81600 333 56600 81710=
85586,2011,04,03,18,00,AAXX 03184 85586 12460 12405 10158 20104 40167 58006 60001 81600 333 56600 81710=
85586,2011,04,03,21,00,AAXX 03214 85586 42460 13104 10154 20114 40159 57008 81600 333 56600 81710=
85586,2011,04,04,00,00,AAXX 04004 85586 12960 00000 10130 20105 40159 54000 60001 333 10162=
85586,2011,04,04,12,00,AAXX 04124 85586 12950 20000 10090 20078 40159 52006 60004 7050/ 80001 333 20050 30/// 50270 55089 56006 82075=
85586,2011,04,04,15,00,AAXX 04154 85586 42960 02407 10182 20107 40169 52011=
85586,2011,04,04,18,00,AAXX 04184 85586 12960 02210 10184 20087 40173 52004 60001=
85586,2011,04,04,21,00,AAXX 04214 85586 42960 03205 10185 20085 40133 57039=
85586,2011,04,05,00,00,AAXX 05004 85586 12960 20000 10134 20075 40131 57003 60001 80001 333 10206 56006 82075=
85586,2011,04,05,15,00,AAXX 05154 85586 NIL=
85586,2011,04,05,21,00,AAXX 05214 85586 NIL=
85586,2011,04,06,15,00,AAXX 06154 85586 NIL=
85586,2011,04,06,18,00,AAXX 06184 85586 12958 02710 10194 20113 40171 56005 60001 70522=
85586,2011,04,06,21,00,AAXX 06214 85586 42960 02806 10182 20114 40175 55000 70522 80001 333 56006 85075=
85586,2011,04,07,00,00,AAXX 07004 85586 11956 70000 10134 20103 40180 53004 60001 70522 80001 333 10196 56006 87075=
85586,2011,04,07,15,00,AAXX 07154 85586 41940 03206 10160 20111 40209 52015 70500=
85586,2011,04,07,21,00,AAXX 07214 85586 41103 82404 10126 20114 40194 57013 74622 886// 333 56699 88703=
85586,2011,04,08,15,00,AAXX 08154 85586 NIL=
85586,2011,04,08,18,00,AAXX 08184 85586 11420 82505 10150 20114 40168 52004 60001 886// 333 56699 88710=
85586,2011,04,08,21,00,AAXX 08214 85586 NIL=
85586,2011,04,09,12,00,AAXX 09124 85586 11450 80000 10140 20122 40170 52013 60004 7052/ 885// 333 20134 30/// 50140 55003 56099 88617=
85586,2011,04,09,15,00,AAXX 09154 85586 41440 83104 10146 20125 40187 52017 70522 885// 333 56699 82710 88616=
85586,2011,04,09,18,00,AAXX 09184 85586 11350 83105 10154 20130 40184 58003 60001 70522 885// 333 56699 83709 88617=
85586,2011,04,09,21,00,AAXX 09214 85586 41450 82804 10152 20130 40182 56002 70522 885// 333 56699 82710 88623=
85586,2011,04,10,00,00,AAXX 10004 85586 11557 80000 10140 20122 40157 52005 60001 70522 885// 333 10160 56099 88630=
85586,2011,04,10,12,00,AAXX 10124 85586 11658 70000 10130 20119 40204 52015 60004 7052/ 8750 333 20104 30/// 50120 55000 56600 87640=
85586,2011,04,10,15,00,AAXX 10154 85586 41658 80000 10168 20116 40209 52005 70522 885// 333 56699 88640=
85586,2011,04,10,18,00,AAXX 10184 85586 11558 82404 10188 20093 40202 58007 60001 70522 885// 333 56699 81625 88633=
85586,2011,04,10,21,00,AAXX 10214 85586 41658 82404 10170 20107 40196 57006 70522 885// 333 56699 88633=
85586,2011,04,11,00,00,AAXX 11004 85586 11658 71803 10160 20103 40192 57004 60001 70522 87500 333 10190 56600 87633=
85586,2011,04,11,12,00,AAXX 11124 85586 12960 00000 10090 20082 40171 57003 60004 333 20076 30/// 50190 55000=
85586,2011,04,11,15,00,AAXX 11154 85586 42960 32205 10182 20087 40170 52002 80001 333 56006 83070=
85586,2011,04,11,21,00,AAXX 11214 85586 NIL=
85586,2011,04,12,15,00,AAXX 12154 85586 NIL=
85586,2011,04,12,18,00,AAXX 12184 85586 11958 82706 10170 20090 40175 52010 60001 70522 8803/ 333 56069 88365=
85586,2011,04,12,21,00,AAXX 12214 85586 NIL=
85586,2011,04,13,15,00,AAXX 13154 85586 42460 63314 10193 20102 40181 53007 86200 333 56799 82815 85820=
85586,2011,04,13,21,00,AAXX 13214 85586 NIL=
85586,2011,04,14,15,00,AAXX 14154 85586 NIL=
85586,2011,04,14,18,00,AAXX 14184 85586 12560 32209 10180 20113 40216 52009 60001 83100 333 56600 83820=
85586,2011,04,14,21,00,AAXX 14214 85586 42960 02012 10178 20092 40189 57025=
85586,2011,04,15,00,00,AAXX 15004 85586 12960 01502 10132 2077 40202 52020 60001 333 10188=
85586,2011,04,15,12,00,AAXX 15124 85586 12960 01503 10090 20074 40199 56002 60004 333 20058 31/// 50140 55062=
85586,2011,04,15,15,00,AAXX 15154 85586 42960 01810 10188 20093 40205 52005=
85586,2011,04,15,18,00,AAXX 15184 85586 12960 01811 10234 20112 40199 57005 60001=
85586,2011,04,15,21,00,AAXX 15214 85586 42960 01508 10194 20056 40173 57025=
85586,2011,04,16,00,00,AAXX 16004 85586 12960 02303 10152 20086 40184 52010 60001 333 10254=
85586,2011,04,16,12,00,AAXX 16124 85586 12960 11502 10086 20062 40169 56003 60004 80001 333 20054 31/// 50240 55101 56006 81075=
85586,2011,04,16,15,00,AAXX 16154 85586 42960 12408 10166 20068 40175 52006 80002 333 56006 81075=
85586,2011,04,16,18,00,AAXX 16184 85586 12960 22411 10166 20073 40181 52006 60001 80002 333 56006 82075=
85586,2011,04,16,21,00,AAXX 16214 85586 42960 12411 10168 20069 40184 51003 80002 333 56006 81075=
85586,2011,04,17,00,00,AAXX 17004 85586 12960 12205 10130 20066 40199 52014 60001 80002 333 10188 56006 81075=
85586,2011,04,17,15,00,AAXX 17154 85586 42960 01008 10191 20037 40198 58003=
85586,2011,04,17,18,00,AAXX 17184 85586 12960 01915 10254 20017 40167 57028 60001=
85586,2011,04,17,21,00,AAXX 17214 85586 42960 02215 10184 20089 40166 56004=
85586,2011,04,18,00,00,AAXX 18004 85586 12960 02304 10127 20072 40173 53006 60001 333 10256=
85586,2011,04,18,12,00,AAXX 18124 85586 12960 01404 10084 20057 40166 53004 60004 333 20058 30/// 50310 55107=
85586,2011,04,18,15,00,AAXX 18154 85586 NIL=
85586,2011,04,18,21,00,AAXX 18214 85586 NIL=
85586,2011,04,19,00,00,AAXX 19004 85586 12960 00000 10108 20069 40172 53002 60001 333 10176=
85586,2011,04,19,15,00,AAXX 19154 85586 NIL=
85586,2011,04,19,18,00,AAXX 19184 85586 12560 82707 10162 20092 40210 52002 60001 885// 333 56699 88630=
85586,2011,04,19,21,00,AAXX 19214 85586 42560 63005 10144 20103 40195 57004 86500 333 56600 86620=
85586,2011,04,20,12,00,AAXX 20124 85586 11556 80000 10126 20110 40191 56001 60004 70522 885// 333 20122 30/// 50130 55011 56099 88620=
85586,2011,04,20,15,00,AAXX 20154 85586 42560 82203 10150 20096 40193 52003 885// 333 56699 88620=
85586,2011,04,20,18,00,AAXX 20184 85586 12960 02212 10174 20097 40168 57025 60001=
85586,2011,04,20,21,00,AAXX 20214 85586 NIL=
85586,2011,04,21,00,00,AAXX 21004 85586 12960 00203 10128 20111 40155 57012 60001 333 10175=
85586,2011,04,21,12,00,AAXX 21124 85586 11440 80000 10092 20084 40140 57006 60004 71022 886// 333 20060 30/// 50200 55061 56099 88710=
85586,2011,04,21,15,00,AAXX 21154 85586 41450 63106 10136 20099 40148 53008 70522 82502 333 56606 82617 86070=
85586,2011,04,21,18,00,AAXX 21184 85586 12560 43307 10162 20093 40153 52004 60001 81502 333 56606 81620 84070=
85586,2011,04,21,21,00,AAXX 21214 85586 42960 23308 10154 20093 40153 54000 81301 333 56066 81363=
85586,2011,04,22,00,00,AAXX 22004 85586 12960 13603 10130 20081 40161 52008 60001 81030 333 10168 56060 81363=
85586,2011,04,22,12,00,AAXX 22124 85586 11950 83505 10122 20106 40183 52012 60044 76062 8803/ 333 20118 32/// 50240 55069 56069 70038 88360=
85586,2011,04,22,15,00,AAXX 22154 85586 41440 81910 10120 20111 40223 52040 76166=
85586,2011,04,22,18,00,AAXX 22184 85586 11456 81505 10132 20112 40235 52012 60061 76066 8353/ 333 56669 83615 88358=
85586,2011,04,22,21,00,AAXX 22214 85586 41460 71004 10144 20103 40239 52004 70166 81830 333 56660 81810 87359=
85586,2011,04,23,15,00,AAXX 23154 85586 NIL=
85586,2011,04,23,21,00,AAXX 23214 85586 42960 02108 10203 20099 4010182 56007=
85586,2011,04,24,00,00,AAXX 24004 85586 12956 00000 10123 20097 40187 53003 60001 333 10210=
85586,2011,04,24,15,00,AAXX 24154 85586 42960 01612 10184 20083 40184 58008=
85586,2011,04,24,18,00,AAXX 24184 85586 12960 01910 10234 20108 40165 57017 60001=
85586,2011,04,24,21,00,AAXX 24214 85586 42960 02210 10184 20115 40155 57017=
85586,2011,04,25,00,00,AAXX 25004 85586 12958 00000 10134 20100 40163 53008 60001 70500 333 10241=
85586,2011,04,25,12,00,AAXX 25124 85586 12960 01506 10123 20087 40152 56006 60004 333 20102 31/// 50210 55103=
85586,2011,04,25,15,00,AAXX 25154 85586 42960 01103 10194 20106 40146 57005=
85586,2011,04,25,18,00,AAXX 25184 85586 12960 02405 10188 20111 40134 57012 60001=
85586,2011,04,25,21,00,AAXX 25214 85586 NIL=
85586,2011,04,26,00,00,AAXX 26004 85586 12960 00000 10122 20104 40147 53017 60001 333 10201=
85586,2011,04,26,12,00,AAXX 26124 85586 11420 80000 10111 20104 40169 52008 60004 7102/ 886// 333 20056 31/// 50270 55102 56099 88710=
85586,2011,04,26,15,00,AAXX 26154 85586 NIL=
85586,2011,04,26,18,00,AAXX 26184 85586 11450 82405 10150 20110 40190 52010 60001 70522 886// 333 56699 88712=
85586,2011,04,26,21,00,AAXX 26214 85586 NIL=
85586,2011,04,27,00,00,AAXX 27004 85586 11450 80000 10124 20100 40190 57011 60001 70522 886// 333 10154 56699 88710=
85586,2011,04,27,12,00,AAXX 27124 85586 11312 80000 10120 20109 40194 52010 69904 7502/ 886// 333 20117 31/// 50140 55000 56099 70000 88709=
85586,2011,04,27,15,00,AAXX 27154 85586 NIL=
85586,2011,04,27,18,00,AAXX 27184 85586 12460 22109 10158 20118 40210 52004 69921 82500 333 56600 82615=
85586,2011,04,27,21,00,AAXX 27214 85586 NIL=
85586,2011,04,28,00,00,AAXX 28004 85586 11305 80403 10124 20110 40211 52021 60001 71022 886// 333 10162 56699 88703=
85586,2011,04,28,15,00,AAXX 28154 85586 NIL=
85586,2011,04,28,18,00,AAXX 28184 85586 12560 22216 10154 20081 40219 57005 60001 82100 333 56600 82820=
85586,2011,04,28,21,00,AAXX 28214 85586 42960 01812 10140 20087 40207 57012=
85586,2011,04,29,00,00,AAXX 29004 85586 12960 01803 10120 20092 40201 57005 60001 333 10174=
85586,2011,04,29,15,00,AAXX 29154 85586 42960 02205 10138 20077 40183 57012=
85586,2011,04,29,18,00,AAXX 29184 85586 12960 02310 10150 20070 40185 52002 60001=
85586,2011,04,29,21,00,AAXX 29214 85586 NIL=
85586,2011,04,30,00,00,AAXX 30004 85586 12956 00000 10084 20058 40166 53012 60001 70500 333 10153=
85586,2011,04,30,12,00,AAXX 30124 85586 12458 30904 10054 20043 40179 53012 60004 70500 83500 333 20046 31/// 50210 55102 56600 83612=
85586,2011,04,30,15,00,AAXX 30154 85586 42458 32905 10134 20092 40183 51006 70522 83500 333 56700 83610=
85586,2011,04,30,18,00,AAXX 30184 85586 12458 62606 10132 20094 40175 58008 60001 70522 86500 333 56700 86612=
85586,2011,04,30,21,00,AAXX 30214 85586 42340 82505 10113 20091 40184 55001 70522 886// 333 56799 88707=
85586,2011,05,01,00,00,AAXX 01004 85586 11420 80000 10108 20091 40189 52015 60001 71022 886// 333 10146 56799 88706=
85586,2011,05,01,15,00,AAXX 01154 85586 NIL=
85586,2011,05,01,21,00,AAXX 01214 85586 41101 82604 10113 20104 40165 55000 74644 886// 333 56799 88703=
85586,2011,05,02,00,00,AAXX 02004 85586 11201 80000 10111 20096 40169 53004 60001 74644 886// 333 10131 56799 88704=
85586,2011,05,02,12,00,AAXX 02124 85586 11220 11004 10062 20054 40159 56002 60004 7104/ 81600 333 20048 31/// 50210 55016 56600 81704=
85586,2011,05,02,15,00,AAXX 02154 85586 NIL=
85586,2011,05,02,18,00,AAXX 02184 85586 12960 02507 10162 20101 40159 57006 60001=
85586,2011,05,02,21,00,AAXX 02214 85586 42960 02707 10154 20103 40155 57004=
85586,2011,05,03,00,00,AAXX 03004 85586 2960 00403 10106 20089 40169 53013 60001 333 10172=
85586,2011,05,03,12,00,AAXX 03124 85586 11202 81002 10054 20045 40165 53004 60004 7464/ 886// 333 20038 31/// 50190 55088 56099 88704=
85586,2011,05,03,15,00,AAXX 03154 85586 41950 02802 10132 20107 40163 28002 70542=
85586,2011,05,03,21,00,AAXX 03214 85586 42960 02705 10160 20088 40167 54000=
85586,2011,05,04,00,00,AAXX 04004 85586 12960 00000 10098 20072 40159 57009 60001 333 10173=
85586,2011,05,04,12,00,AAXX 04124 85586 12960 51204 10080 20060 40151 53003 60004 80001 333 20042 30/// 50220 55082 56006 85075=
85586,2011,05,04,15,00,AAXX 04154 85586 NIL=
85586,2011,05,04,18,00,AAXX 04184 85586 12960 51809 10226 20032 40128 57020 60001 80001 333 56006 85075=
85586,2011,05,04,21,00,AAXX 04214 85586 42960 51511 10243 20043 40122 55006 80001 333 56006 85075=
85586,2011,05,05,00,00,AAXX 05004 85586 12960 20602 10146 20100 40130 52008 60001 80001 333 10252 56006 82075=
85586,2011,05,05,15,00,AAXX 05154 85586 42960 33008 10154 20112 40159 52016 80001 333 56006 83073=
85586,2011,05,05,18,00,AAXX 05184 85586 12960 42710 10165 20097 40169 52010 60001 80001 333 56006 84060=
85586,2011,05,05,21,00,AAXX 05214 85586 NIL=
85586,2011,05,06,00,00,AAXX 06004 85586 12656 81704 10131 20104 40170 53003 60001 70522 885// 333 10167 56799 88625=
85586,2011,05,06,15,00,AAXX 06154 85586 NIL=
85586,2011,05,06,21,00,AAXX 06214 85586 NIL=
85586,2011,05,07,00,00,AAXX 07004 85586 12556 80000 10136 20096 40172 56008 60001 70522 885// 333 10152 56799 88625=
85586,2011,05,07,15,00,AAXX 07154 85586 41440 82804 10153 20086 40214 52026 70522 885// 333 56799 88615=
85586,2011,05,07,18,00,AAXX 07184 85586 11456 20604 10174 20078 40217 51004 60001 70522 82500 333 56700 82615=
85586,2011,05,07,21,00,AAXX 07214 85586 41456 12211 10155 20077 40220 53002 70522 81100 333 56700 81815=
85586,2011,05,08,00,00,AAXX 08004 85586 12956 01004 10097 20059 40209 56013 60001 70500 333 10186=
85586,2011,05,08,12,00,AAXX 08124 85586 11930 01002 10050 20041 40169 56001 60004 7100/ 333 20048 30/// 50180 55041=
85586,2011,05,08,15,00,AAXX 08154 85586 41440 13302 10142 20072 40173 53004 70500 81500 333 56600 81615=
85586,2011,05,08,18,00,AAXX 08184 85586 11957 02406 10152 20077 40166 58007 60001 70500=
85586,2011,05,08,21,00,AAXX 08214 85586 42960 02605 10146 20103 40165 56001=
85586,2011,05,09,00,00,AAXX 09004 85586 12460 60000 10096 20084 40169 52004 60001 86600 333 10180 56600 86710=
85586,2011,05,09,12,00,AAXX 09124 85586 11304 81005 10080 20070 40133 57012 60004 7464/ 886// 333 20080 30/// 50230 55084 56099 88709=
85586,2011,05,09,15,00,AAXX 09154 85586 NIL=
85586,2011,05,09,21,00,AAXX 09214 85586 NIL=
85586,2011,05,10,00,00,AAXX 10004 85586 11330 83302 10104 20088 40140 57012 60001 70522 886// 333 10126 56099 88709=
85586,2011,05,10,12,00,AAXX 10124 85586 11420 81004 10098 20086 40158 52004 60004 7102/ 886// 333 20092 30/// 50140 55007 56099 88710=
85586,2011,05,10,15,00,AAXX 10154 85586 NIL=
85586,2011,05,10,18,00,AAXX 10184 85586 11420 82104 10100 20068 40166 54001 60001 71022 886// 333 56699 88710=
85586,2011,05,10,21,00,AAXX 10214 85586 41320 82804 10098 20078 40198 52022 71022 886// 333 56699 88708=
85586,2011,05,11,00,00,AAXX 11004 85586 11556 60000 10090 20062 40209 52031 60001 70522 81530 333 10114 56660 81620 86362=
85586,2011,05,11,12,00,AAXX 11124 85586 11956 61504 10082 20065 40186 57008 60004 7051/ 80001 333 20041 30/// 50160 55000 56006 86075=
85586,2011,05,11,15,00,AAXX 11154 85586 NIL=
85586,2011,05,11,18,00,AAXX 11184 85586 11958 81705 10184 20088 40166 57012 60001 70522 8803/ 333 56069 88362=
85586,2011,05,11,21,00,AAXX 11214 85586 NIL=
85586,2011,05,12,00,00,AAXX 12004 85586 11958 71708 10157 20077 40150 53003 60001 70522 80001 333 10206 56006 87075=
85586,2011,05,12,12,00,AAXX 12124 85586 12960 70000 10101 20046 40139 53018 60004 8003/ 333 20097 30/// 50180 55029 56006 88362=
85586,2011,05,12,15,00,AAXX 12154 85586 NIL=
85586,2011,05,12,21,00,AAXX 12214 85586 NIL=
85586,2011,05,13,00,00,AAXX 13004 85586 11956 50000 10114 20092 40164 51008 60001 70522 85030 333 10154 56060 85362=
85586,2011,05,13,15,00,AAXX 13154 85586 NIL=
85586,2011,05,13,18,00,AAXX 13184 85586 11315 82803 10124 20106 40187 54000 60001 71022 886// 333 56699 88708=
85586,2011,05,13,21,00,AAXX 13214 85586 NIL=
85586,2011,05,14,00,00,AAXX 14004 85586 11220 80205 10124 20104 40175 54001 60001 71022 886// 333 10140 56799 88704=
85586,2011,05,14,12,00,AAXX 14124 85586 11304 80000 10098 20094 40180 53003 60004 7464/ 886// 333 20098 30/// 50140 55035 56099 88707=
85586,2011,05,14,15,00,AAXX 14154 85586 41203 80302 10103 20096 40194 52014 74644 886// 333 56099 88706=
85586,2011,05,14,18,00,AAXX 14184 85586 11312 82803 10114 20108 40189 58005 60001 71044 886// 333 56099 88707=
85586,2011,05,14,21,00,AAXX 14214 85586 41205 82203 10110 20100 40185 56004 74644 886// 333 56099 88706=
85586,2011,05,15,00,00,AAXX 15004 85586 11215 82402 10106 20098 40197 52012 60001 71044 886// 333 10116 56099 88706=
85586,2011,05,15,12,00,AAXX 15124 85586 11315 80000 10100 20091 40204 52004 69934 7505/ 886// 333 20100 31/// 50100 55000 56099 70003 88707=
85586,2011,05,15,15,00,AAXX 15154 85586 41320 82402 10109 20099 40216 52012 71055 886// 333 56099 88707=
85586,2011,05,15,18,00,AAXX 15184 85586 11440 82403 10116 20097 40210 58006 69931 70522 886// 333 56099 88610=
85586,2011,05,15,21,00,AAXX 15214 85586 41450 80000 10114 20095 40206 577004 70522 885// 333 56099 88612=
85586,2011,05,16,00,00,AAXX 16004 85586 11450 80000 10110 20088 40214 52008 60001 70522 885// 333 10120 56099 88615=
85586,2011,05,16,12,00,AAXX 16124 85586 12460 21502 10046 20037 40211 56002 69934 81601 333 20046 31/// 50090 55000 56606 70003 81710=
85586,2011,05,16,15,00,AAXX 16154 85586 NIL=
85586,2011,05,16,18,00,AAXX 16184 85586 12960 01908 10170 20077 40193 57024 60001=
85586,2011,05,16,21,00,AAXX 16214 85586 42960 02406 10154 20087 40186 57008=
85586,2011,05,17,00,00,AAXX 17004 85586 12960 50904 10101 20088 40184 58002 60001 80001 333 10172 56006 85075=
85586,2011,05,17,15,00,AAXX 17154 85586 41940 02803 10102 20064 40178 52006 70500=
85586,2011,05,17,21,00,AAXX 17214 85586 42960 02004 10138 20096 40161 57020=
85586,2011,05,18,00,00,AAXX 18004 85586 11958 00404 10096 20074 40183 53018 60001 70500 333 10156=
85586,2011,05,18,15,00,AAXX 18154 85586 41220 83404 10121 20095 40197 53007 70522 886// 333 56799 88706=
85586,2011,05,18,21,00,AAXX 18214 85586 41330 80000 10118 20091 40173 56007 70522 886// 333 56799 88709=
85586,2011,05,19,15,00,AAXX 19154 85586 NIL=
85586,2011,05,19,18,00,AAXX 19184 85586 12560 83108 10160 20076 40209 52009 60001 885// 333 56699 88620=
85586,2011,05,19,21,00,AAXX 19214 85586 41458 83005 10138 20090 40225 52016 70522 885// 333 56699 88617=
85586,2011,05,20,15,00,AAXX 20154 85586 NIL=
85586,2011,05,20,18,00,AAXX 20184 85586 12960 62507 10152 20061 40191 54001 60001 86030 333 56060 86362=
85586,2011,05,20,21,00,AAXX 20214 85586 NIL=
85586,2011,05,21,00,00,AAXX 21004 85586 12960 50000 10088 20066 40178 58002 60001 80001 333 10162 56006 85075=
85586,2011,05,21,12,00,AAXX 21124 85586 11420 80000 10106 20095 40185 53004 69904 7502/ 886// 333 20066 31/// 50090 55017 56099 70000 88710=
85586,2011,05,21,15,00,AAXX 21154 85586 41440 81002 10110 20100 40196 52011 71055 885// 333 56099 82710 88618=
85586,2011,05,21,18,00,AAXX 21184 85586 11460 32804 10157 20121 40180 58016 60021 70152 82101 333 56606 82818=
85586,2011,05,21,21,00,AAXX 21214 85586 42560 12503 10144 20100 40185 53005 81500 333 56600 81625=
85586,2011,05,22,00,00,AAXX 22004 85586 12960 31003 10092 20080 40194 52009 60001 83030 333 10162 56060 83362=
85586,2011,05,22,12,00,AAXX 22124 85586 12560 61003 10098 20088 40211 53004 60024 81530 333 20052 31/// 50120 55041 56660 70019 81630 86360=
85586,2011,05,22,15,00,AAXX 22154 85586 42960 10703 10156 20094 40220 52009 81030 333 56060 81360=
85586,2011,05,22,18,00,AAXX 22184 85586 12560 12309 10160 20083 40213 58007 60001 81500 333 56600 81625=
85586,2011,05,22,21,00,AAXX 22214 85586 42960 02306 10146 20092 40210 56003=
85586,2011,05,23,00,00,AAXX 23004 85586 12960 00000 10084 20066 40211 53001 60001 333 10169=
85586,2011,05,23,15,00,AAXX 23154 85586 41958 03204 10132 20085 40192 52011 70500=
85586,2011,05,23,21,00,AAXX 23214 85586 NIL=
85586,2011,05,24,15,00,AAXX 24154 85586 42560 40000 10122 20087 40234 52015 84530 333 56660 82630 84362=
85586,2011,05,24,21,00,AAXX 24214 85586 NIL=
85586,2011,05,25,00,00,AAXX 25004 85586 11956 00000 10082 20071 40264 52017 60001 70500 333 10152=
85586,2011,05,25,12,00,AAXX 25124 85586 12960 00904 10056 20045 40220 52018 60004 333 20041 30/// 50180 55062=
85586,2011,05,25,15,00,AAXX 25154 85586 NIL=
85586,2011,05,25,18,00,AAXX 25184 85586 12960 02508 10184 20089 40179 57022 60001=
85586,2011,05,25,21,00,AAXX 25214 85586 42960 03004 10171 20101 40168 56011=
85586,2011,05,26,00,00,AAXX 26004 85586 11956 08004 10089 20067 40184 53014 60001 70500 333 10211=
85586,2011,05,26,15,00,AAXX 26154 85586 41105 80000 10084 20073 40203 52013 74622 886// 333 56699 88703=
85586,2011,05,26,21,00,AAXX 26214 85586 41320 81903 10112 20087 40195 57008 71022 886// 333 56699 88708=
85586,2011,05,27,00,00,AAXX 27004 85586 11430 80000 10104 20087 40207 52011 60001 71022 886// 333 10111 56099 88710=
85586,2011,05,27,12,00,AAXX 27124 85586 11312 81804 10076 20066 40205 55002 60004 71022 886// 333 20070 30/// 50080 55000 56099 88707=
85586,2011,05,27,15,00,AAXX 27154 85586 NIL=
85586,2011,05,27,21,00,AAXX 27214 85586 NIL=
85586,2011,05,28,00,00,AAXX 28004 85586 11312 80604 10098 20091=
85586,2011,05,28,12,00,AAXX 28124 85586 11958 71205 10075 20056 40174 57006 60004 7052/ 80002 333 20026 30/// 50110 55023 56006 87070=
85586,2011,05,28,15,00,AAXX 28154 85586 41956 81305 10140 20042 40162 57012 70522 80002 333 56006 88070=
85586,2011,05,28,18,00,AAXX 28184 85586 11957 82505 10172 20077 40151 57011 60001 70522 80002 333 56006 88070=
85586,2011,05,28,21,00,AAXX 28214 85586 41957 82602 10174 20099 40140 57010 70522 80002 333 56006 88070=
85586,2011,05,29,12,00,AAXX 29124 85586 11940 00000 10022 20007 40174 53009 60004 7100/ 333 20014 30/// 50140 55000=
85586,2011,05,29,15,00,AAXX 29154 85586 41940 03204 10124 20058 40175 51003 70500=
85586,2011,05,29,21,00,AAXX 29214 85586 41958 02304 10126 20091 40147 57012 70500=
85586,2011,05,30,00,00,AAXX 30004 85586 11556 40504 10067 2049 40158 53009 60001 70500 84600 333 10141 56700 84704=
85586,2011,05,30,15,00,AAXX 30154 85586 41220 81004 10110 20083 40198 52024 71022 886// 333 56699 88704=
85586,2011,05,30,18,00,AAXX 30184 85586 11440 82703 10114 20076 40197 54001 60001 70522 886// 333 56699 88712=
85586,2011,05,30,21,00,AAXX 30214 85586 NIL=
85586,2011,05,31,00,00,AAXX 31004 85586 11208 30000 10046 20031 40197 51015 60001 74600 83600 333 10122 56700 83704=
85586,2011,05,31,12,00,AAXX 31124 85586 11908 41004 10027 20015 40169 55000 60004 74244 80001 333 20024 30/// 50140 55030 56006 84075=
85586,2011,05,31,15,00,AAXX 31154 85586 41240 20603 10082 20064 40184 52018 70544 82600 333 56700 82704=
85586,2011,05,31,18,00,AAXX 31184 85586 11220 50000 10104 20079 40163 58020 60001 70522 84601 333 56706 84704 81075=
85586,2011,05,31,21,00,AAXX 31214 85586 NIL=
85586,2011,06,01,12,00,AAXX 01124 85586 11430 80405 10090 20062 40158 54000 60004 7052/ 885// 333 20090 30/// 50180 55067 56099 88613=
85586,2011,06,01,15,00,AAXX 01154 85586 41430 80604 10104 20063 40182 52024 70522 885// 333 56099 88615=
85586,2011,06,01,18,00,AAXX 01184 85586 11557 83304 10126 20063 40173 58009 60001 70522 885// 333 56099 88625=
85586,2011,06,01,21,00,AAXX 01214 85586 42960 03305 10136 20069 40170 56003=
85586,2011,06,02,00,00,AAXX 02004 85586 12960 00000 10070 20045 40182 52012 60001 333 10144=
85586,2011,06,02,12,00,AAXX 02124 85586 12460 20905 10046 20036 40188 54000 60004 81601 333 20046 30/// 50120 55031 56606 81710=
85586,2011,06,02,15,00,AAXX 02154 85586 42460 51005 10100 20075 40199 52012 85600 333 56600 85715=
85586,2011,06,02,21,00,AAXX 02214 85586 NIL=
85586,2011,06,03,00,00,AAXX 03004 85586 12960 10000 10076 20060 40209 52008 60001 80001 333 10168 56006 81075=
85586,2011,06,03,12,00,AAXX 03124 85586 12960 31005 10053 20038 40206 54000 60004 80001 333 20053 30/// 50110 55040 56006 83075=
85586,2011,06,03,15,00,AAXX 03154 85586 NIL=
85586,2011,06,03,21,00,AAXX 03214 85586 42960 02208 10134 20112 40184 57011=
85586,2011,06,04,00,00,AAXX 04004 85586 12960 00304 10108 20093 40185 54000 60001 333 10170=
85586,2011,06,04,15,00,AAXX 04154 85586 NIL=
85586,2011,06,04,21,00,AAXX 04214 85586 NIL=
85586,2011,06,05,15,00,AAXX 05154 85586 42460 81205 10128 20077 40155 58012 8353/ 333 56789 83615 88357=
85586,2011,06,05,18,00,AAXX 05184 85586 12560 82905 10156 20084 40143 57011 60001 885// 333 56799 88625=
85586,2011,06,05,21,00,AAXX 05214 85586 42560 83004 10152 20095 40131 56012 885// 333 56799 88625=
85586,2011,06,06,12,00,AAXX 06124 85586 11560 80206 10118 20092 40167 52022 60064 7018/ 885// 333 20114 32/// 50140 55003 56799 70060 88625=
85586,2011,06,06,15,00,AAXX 06154 85586 NIL=
85586,2011,06,06,18,00,AAXX 06184 85586 12560 62707 10164 20081 40191 52003 60001 86100 333 56700 86820=
85586,2011,06,06,21,00,AAXX 06214 85586 NIL=
85586,2011,06,07,15,00,AAXX 07154 85586 NIL=
85586,2011,06,07,21,00,AAXX 07214 85586 42660 43207 10146 20106 40181 57024 84100 333 56600 84840=
85586,2011,06,08,00,00,AAXX 08004 85586 11560 70000 10134 20118 40192 52009 60011 78022 87200 333 10170 56600 87820=
85586,2011,06,08,12,00,AAXX 08124 85586 11460 80000 10117 20109 40232 52030 60064 70282 882// 333 22/// 50050 55008 56699 70065 88818=
85586,2011,06,08,15,00,AAXX 08154 85586 42960 41004 10154 20118 40252 52020 80001 333 56006 84073=
85586,2011,06,08,18,00,AAXX 08184 85586 12560 32705 10170 20112 40253 54001 60001 83100 333 56600 83820=
85586,2011,06,08,21,00,AAXX 08214 85586 42560 22308 10146 20106 40259 52006 82800 333 56600 82820=
85586,2011,06,09,00,00,AAXX 09004 85586 12960 00000 10110 20092 40261 52002 60001 333 10173=
85586,2011,06,09,12,00,AAXX 09124 85586 12960 21204 10087 20077 40249 55002 60004 81031 333 20079 31/// 50070 55069 56066 81065=
85586,2011,06,09,15,00,AAXX 09154 85586 NIL=
85586,2011,06,09,21,00,AAXX 09214 85586 42960 02303 10160 20100 40212 57020=
85586,2011,06,10,00,00,AAXX 10004 85586 12960 00000 10100 20085 40215 52002 60001 333 10198=
85586,2011,06,10,15,00,AAXX 10154 85586 NIL=
85586,2011,06,10,18,00,AAXX 10184 85586 12960 02206 10172 20096 40185 57008 60001=
85586,2011,06,10,21,00,AAXX 10214 85586 42960 02506 10140 20113 40180 57008=
85586,2011,06,11,00,00,AAXX 11004 85586 12220 80605 10116 20101 40183 53003 60001 71011 886// 333 10174 56799 88704=
85586,2011,06,11,15,00,AAXX 11154 85586 42956 60000 10148 20100 40174 55001 70500 80001 333 56006 86075=
85586,2011,06,11,21,00,AAXX 11214 85586 NIL=
85586,2011,06,12,12,00,AAXX 12124 85586 12960 01804 10056 20042 40219 53014 60004 333 20042=
85586,2011,06,12,15,00,AAXX 12154 85586 42960 015011 10148 20069 40225 51008=
85586,2011,06,12,21,00,AAXX 12214 85586 NIL=
85586,2011,06,13,00,00,AAXX 13004 85586 12958 01404 10143 20065 40175 58002 60001 70500 333 10216=
85586,2011,06,13,12,00,AAXX 13124 85586 12960 31204 10074 20049 40130 57016 60004 80001 333 20070 30/// 50160 55094 56006 83075=
85586,2011,06,13,15,00,AAXX 13154 85586 NIL=
85586,2011,06,13,21,00,AAXX 13214 85586 42960 02803 10144 20067 40128 52010=
85586,2011,06,14,00,00,AAXX 14004 85586 12960 40503 10088 20071 40143 52014 60001 80001 333 10178 56006 84075=
85586,2011,06,14,12,00,AAXX 14124 85586 11457 80703 10086 20074 40158 53006 60004 7052/ 885// 333 20006 30/// 50130 55093 56099 88615=
85586,2011,06,14,15,00,AAXX 14154 85586 NIL=
85586,2011,06,14,18,00,AAXX 14184 85586 12460 82704 10121 20064 40170 54002 60001 885// 333 56699 88615=
85586,2011,06,14,21,00,AAXX 14214 85586 NIL=
85586,2011,06,15,00,00,AAXX 15004 85586 12960 40000 10075 20050 40179 56002 60001 80002 333 10136 56006 84075=
85586,2011,06,15,12,00,AAXX 15124 85586 12558 80000 10070 20056 40167 56002 60004 7052/ 885// 333 20046 30/// 50060 55002 56099 88626=
85586,2011,06,15,15,00,AAXX 15154 85586 41558 80903 10111 20053 40175 52008 70522 885// 333 56099 88630=
85586,2011,06,15,18,00,AAXX 15184 85586 11558 82805 10128 20046 40167 58008 60001 70522 83502 333 56606 83630 85075=
85586,2011,06,15,21,00,AAXX 15214 85586 41958 72603 10120 20043 40168 53001 70522 80002 333 56006 87075=
85586,2011,06,16,00,00,AAXX 16004 85586 11958 50000 10050 20027 40172 53004 60001 70522 80001 333 10130 56006 85075=
85586,2011,06,16,15,00,AAXX 16154 85586 41560 41506 10102 20066 40182 52012 70520 85500 333 56500 85620=
85586,2011,06,16,18,00,AAXX 16184 85586 12958 03205 10150 20058 40187 52005 60001=
85586,2011,06,16,21,00,AAXX 16214 85586 NIL=
85586,2011,06,17,15,00,AAXX 17154 85586 41940 01004 10098 20092 40157 54001 70520=
85586,2011,06,17,18,00,AAXX 17184 85586 12560 22705 10158 20059 40165 52008 60001=
85586,2011,06,17,21,00,AAXX 17214 85586 NIL=
85586,2011,06,18,15,00,AAXX 18154 85586 NIL=
85586,2011,06,18,21,00,AAXX 18214 85586 NIL=
85586,2011,06,19,00,00,AAXX 19004 85586 11556 83309 10126 20105 40146 52013 60041 78088 882// 333 10139 56799 88825=
85586,2011,06,19,12,00,AAXX 19124 85586 11460 70408 10112 20067 40131 57004 60244 7016/ 83832 333 20096 32/// 50070 55011 56166 70236 81810 83615 85362=
85586,2011,06,19,15,00,AAXX 19154 85586 42460 60411 10144 20068 40134 53003 70222 83831 333 56176 81810 83620 85075=
85586,2011,06,19,18,00,AAXX 19184 85586 12560 73612 10164 20081 40121 58013 60001 85501 333 56106 85620=
85586,2011,06,19,21,00,AAXX 19214 85586 42560 83507 10160 20068 40108 57013 84532 333 56877 84620 84360 85075=
85586,2011,06,20,15,00,AAXX 20154 85586 NIL=
85586,2011,06,20,18,00,AAXX 20184 85586 11557 80304 10110 20092 40169 52009 60091 76162 885// 333 56799 88620=
85586,2011,06,20,21,00,AAXX 20214 85586 41540 80206 10100 20088 40161 57008 76162 885// 333 56699 88620=
85586,2011,06,21,00,00,AAXX 21004 85586 11460 80807 10096 20062 40169 52007 60041 70266 885// 333 10112 56099 88617=
85586,2011,06,21,12,00,AAXX 21124 85586 11560 80905 10094 20070 40219 52017 60154 7606/ 8153/ 333 20080 32/// 50040 55000 56069 70152 81625 88357=
85586,2011,06,21,15,00,AAXX 21154 85586 42560 61504 10124 20078 40236 52016 86500 333 56200 86630=
85586,2011,06,21,18,00,AAXX 21184 85586 12960 41608 10152 20061 40231 57005 60001 80001 333 56006 85073=
85586,2011,06,21,21,00,AAXX 21214 85586 NIL=
85586,2011,06,22,00,00,AAXX 22004 85586 12960 30000 10096 20072 40226 52010 60001 80001 333 10164 56006 83070=
85586,2011,06,22,15,00,AAXX 22154 85586 NIL=
85586,2011,06,22,18,00,AAXX 22184 85586 12960 02405 10144 20088 40250 57003 60001=
85586,2011,06,22,21,00,AAXX 22214 85586 42960 02307 10132 20092 40242 57008=
85586,2011,06,23,00,00,AAXX 23004 85586 11958 00000 10074 20051 4026 52016 60001 70500 333 10146=
85586,2011,06,23,12,00,AAXX 23124 85586 11208 21405 10031 20018 40230 57017 60004 7464/ 82600 333 20024 31/// 50120 55091 56600 82704=
85586,2011,06,23,15,00,AAXX 23154 85586 41960 00904 10082 20048 40225 57004 70500=
85586,2011,06,23,18,00,AAXX 23184 85586 12960 02306 10144 20062 40222 57003 60001=
85586,2011,06,23,21,00,AAXX 23214 85586 42960 02205 10122 20078 40209 57013=
85586,2011,06,24,00,00,AAXX 24004 85586 11958 01204 10064 20041 40230 53019 60001 70500 333 10152=
85586,2011,06,24,06,00,AAXX 24064 85586 NIL=
85586,2011,06,24,12,00,AAXX 24124 85586 12960 00000 10036 20026 40240 53012 60004 333 20011 31/// 50120 55079=
85586,2011,06,24,15,00,AAXX 24154 85586 NIL=
85586,2011,06,24,18,00,AAXX 24184 85586 12960 01610 10152 20059 40233 58019 60001=
85586,2011,06,24,21,00,AAXX 24214 85586 42960 01610 10134 20042 40225 56008=
85586,2011,06,25,00,00,AAXX 25004 85586 11956 01605 10078 20033 40239 53012 60001 70500 333 10154=
85586,2011,06,25,06,00,AAXX 25064 85586 NIL=
85586,2011,06,25,12,00,AAXX 25124 85586 12960 21205 10026 20011 40226 56002 60004 80001 333 20026 31/// 50120 55090 56006 82075=
85586,2011,06,25,15,00,AAXX 25154 85586 42960 01507 10070 20028 40225 56001=
85586,2011,06,25,18,00,AAXX 25184 85586 12960 01806 10138 20024 40209 57016 60001=
85586,2011,06,25,21,00,AAXX 25214 85586 42960 01907 10136 20016 40195 57014=
85586,2011,06,26,00,00,AAXX 26004 85586 12960 01404 10064 21008 40201 53006 60001 333 10151=
85586,2011,06,26,15,00,AAXX 26154 85586 42960 01205 10090 20015 40171 53004=
85586,2011,06,26,18,00,AAXX 26184 85586 12960 02504 10150 20036 40148 58021 60001=
85586,2011,06,26,21,00,AAXX 26214 85586 42960 02603 10136 20049 40143 57005=
85586,2011,06,27,00,00,AAXX 27004 85586 12960 00603 10050 20039 40152 52008 60001 333 10162=
85586,2011,06,27,15,00,AAXX 27154 85586 41556 81005 10090 20068 40193 52013 70522 885// 333 56099 88623=
85586,2011,06,27,18,00,AAXX 27184 85586 11558 70000 10118 20052 40178 58015 60001 70522 87500 333 56600 87626=
85586,2011,06,27,21,00,AAXX 27214 85586 42560 32704 10120 20054 40176 56002 83500 333 56600 83620=
85586,2011,06,28,00,00,AAXX 28004 85586 12560 30000 10046 20035 40186 52010 60001 83500 333 10132 56600 83623=
85586,2011,06,28,06,00,AAXX 28064 85586 NIL=
85586,2011,06,28,12,00,AAXX 28124 85586 11557 81005 10066 20056 40225 52026 60004 71022 885// 333 20020 31/// 50070 55025 56699 70000 88630=
85586,2011,06,28,15,00,AAXX 28154 85586 NIL=
85586,2011,06,28,18,00,AAXX 28184 85586 11557 80000 10115 20069 40241 52001 60001 70522 885// 333 56699 88627=
85586,2011,06,28,21,00,AAXX 28214 85586 41556 81103 10110 20071 40237 58004 70522 885// 333 56699 88630=
85586,2011,06,29,00,00,AAXX 29004 85586 11556 80000 10104 20066 40253 53015 60001 70522 885// 333 10117 56799 88625=
85586,2011,06,29,06,00,AAXX 29064 85586 NIL=
85586,2011,06,29,12,00,AAXX 29124 85586 11520 80906 10073 20055 40226 56006 60004 7052/ 885// 333 20064 31/// 50090 55000 56799 88625=
85586,2011,06,29,15,00,AAXX 29154 85586 41540 80904 10107 20062 40229 53004 70522 885// 333 56799 88625=
85586,2011,06,29,18,00,AAXX 29184 85586 11320 83206 10124 20102 40214 58014 69901 75022 886// 333 56799 85709 83620=
85586,2011,06,29,21,00,AAXX 29214 85586 NIL=
85586,2011,06,30,00,00,AAXX 30004 85586 11656 81404 10107 20091 40237 53038 60121 76066 8802/ 333 10126 56069 88462=
85586,2011,06,30,06,00,AAXX 30064 85586 NIL=
85586,2011,06,30,12,00,AAXX 30124 85586 12960 01508 10049 20012 40261 53009 60134 333 20047 32/// 50080 55000 70125=
85586,2011,06,30,15,00,AAXX 30154 85586 42960 01414 10094 20012 40261 51001=
85586,2011,06,30,18,00,AAXX 30184 85586 12960 01715 10124 21009 40244 58016 60001=
85586,2011,06,30,21,00,AAXX 30214 85586 NIL=
85586,2011,07,01,00,00,AAXX 01004 85586 11958 01505 10064 20020 40250 53010 60001 70500 333 10134=
85586,2011,07,01,06,00,AAXX 01064 85586 NIL=
85586,2011,07,01,12,00,AAXX 01124 85586 12960 01503 10000 21022 40234 56002 60004 333 20000 31/// 50160 55093=
85586,2011,07,01,15,00,AAXX 01154 85586 NIL=
85586,2011,07,01,18,00,AAXX 01184 85586 12960 01608 10116 21005 40226 58019 60001=
85586,2011,07,01,21,00,AAXX 01214 85586 42960 01505 10114 21009 40222 55004=
85586,2011,07,02,00,00,AAXX 02004 85586 12960 01904 10038 20015 40231 52009 60001 333 10122=
85586,2011,07,02,06,00,AAXX 02064 85586 NIL=
85586,2011,07,02,12,00,AAXX 02124 85586 12960 00903 11008 21017 40242 52006 60004 333 21008 34/// 50160 55086=
85586,2011,07,02,15,00,AAXX 02154 85586 42960 00903 10064 20021 40256 52014=
85586,2011,07,02,18,00,AAXX 02184 85586 12960 02405 10096 20031 40241 58015 60001=
85586,2011,07,02,21,00,AAXX 02214 85586 42960 02407 10094 20044 40232 57010=
85586,2011,07,03,00,00,AAXX 03004 85586 12960 00000 10030 20015 40229 56002 60001 333 10104=
85586,2011,07,03,06,00,AAXX 03064 85586 NIL=
85586,2011,07,03,12,00,AAXX 03124 85586 12960 01204 11006 21018 40184 56012 60004 333 21006 34/// 50140 55081=
85586,2011,07,03,15,00,AAXX 03154 85586 42960 01004 10074 20018 40187 52003=
85586,2011,07,03,18,00,AAXX 03184 85586 12960 02804 10114 20028 40171 58016 60001=
85586,2011,07,03,21,00,AAXX 03214 85586 42960 02803 10108 20039 40157 57014=
85586,2011,07,04,00,00,AAXX 04004 85586 11956 00000 10020 20000 40168 53011 60001 70500 333 10122=
85586,2011,07,04,06,00,AAXX 04064 85586 NIL=
85586,2011,07,04,12,00,AAXX 04124 85586 11408 81104 10021 20004 40180 53016 60004 74644 885// 333 21014 34/// 50080 55081 56799 88615=
85586,2011,07,04,15,00,AAXX 04154 85586 NIL=
85586,2011,07,04,18,00,AAXX 04184 85586 11556 73008 10118 20055 40187 58002 60001 70522 87500 333 56700 87620=
85586,2011,07,04,21,00,AAXX 04214 85586 NIL=
85586,2011,07,05,00,00,AAXX 05004 85586 11556 80000 10101 20053 40207 52013 60001 70511 885// 333 10126 56799 88625=
85586,2011,07,05,06,00,AAXX 05064 85586 NIL=
85586,2011,07,05,12,00,AAXX 05124 85586 12560 11010 10078 20043 40217 53007 60004 81200 333 21074 31/// 50093 55014 56700 81825=
85586,2011,07,05,15,00,AAXX 05154 85586 NIL=
85586,2011,07,05,18,00,AAXX 05184 85586 12560 43004 10152 20042 40229 52010 60001 84101 333 56606 83820=
85586,2011,07,05,21,00,AAXX 05214 85586 42560 32206 10136 20053 40209 57020 83500 333 56600 83620=
85586,2011,07,06,00,00,AAXX 06004 85586 11956 00000 10072 20038 40206 56004 60001 70511 333 10154=
85586,2011,07,06,06,00,AAXX 06064 85586 NIL=
85586,2011,07,06,12,00,AAXX 06124 85586 12956 00000 10033 20024 40223 53018 60004 7050/ 333 21021 31/// 50078 55014=
85586,2011,07,06,15,00,AAXX 06154 85586 41956 01004 10090 20046 40214 57007=
85586,2011,07,06,18,00,AAXX 06184 85586 11957 02208 10128 20062 40225 52011 60001 70500=
85586,2011,07,06,21,00,AAXX 06214 85586 42960 02008 10120 20073 40217 58008=
85586,2011,07,07,00,00,AAXX 07004 85586 11956 00000 10057 20038 40212 58007 60001 70500 333 10134=
85586,2011,07,07,06,00,AAXX 07064 85586 NIL=
85586,2011,07,07,12,00,AAXX 07124 85586 11950 00000 10020 20005 40159 57012 60004 7100/ 333 20010 31/// 50130 55077=
85586,2011,07,07,15,00,AAXX 07154 85586 41957 01506 10112 20037 40153 57005 70500=
85586,2011,07,07,18,00,AAXX 07184 85586 11958 01004 10140 20049 40136 57016 60001 70500=
85586,2011,07,07,21,00,AAXX 07214 85586 41956 03205 10128 20073 40132 57004 70500=
85586,2011,07,08,00,00,AAXX 08004 85586 11456 83604 10100 20087 40147 53014 60001 70500 886// 333 10192 56099 88710=
85586,2011,07,08,06,00,AAXX 08064 85586 NIL=
85586,2011,07,08,12,00,AAXX 08124 85586 NIL=
85586,2011,07,08,15,00,AAXX 08154 85586 NIL=
85586,2011,07,08,18,00,AAXX 08184 85586 11457 63007 10146 20089 40146 57023 60001 70522 86500 333 56600 83613 86617=
85586,2011,07,09,00,00,AAXX 09004 85586 12960 00000 10076 20062 40135 57005 60001 333 10154=
85586,2011,07,09,06,00,AAXX 09064 85586 NIL=
85586,2011,07,09,12,00,AAXX 09124 85586 12560 70903 10100 20077 40205 52018 60004 81530 333 20046 31/// 50100 55050 56660 81630 87362=
85586,2011,07,09,15,00,AAXX 09154 85586 42660 80000 10130 20083 40221 52016 8353/ 333 56669 83640 87360=
85586,2011,07,09,18,00,AAXX 09184 85586 11656 82403 10136 20089 40215 58006 60001 70522 8253/ 333 56669 82640 88360=
85586,2011,07,09,21,00,AAXX 09214 85586 42556 83602 10134 20102 40214 56001 70522 8253/ 333 56669 82630 88358=
85586,2011,07,10,00,00,AAXX 10004 85586 12550 50000 10114 20096 40222 52008 60001 70522 85500 333 10146 56600 85626=
85586,2011,07,10,06,00,AAXX 10064 85586 NIL=
85586,2011,07,10,12,00,AAXX 10124 85586 11958 41004 10074 20064 40153 56017 60004 7050/ 80001 333 20053 31/// 50140 55000 56006 84075=
85586,2011,07,10,15,00,AAXX 10154 85586 41940 70000 10119 20097 40158 53007 70511 80001 333 56006 87075=
85586,2011,07,10,18,00,AAXX 10184 85586 11420 72905 10142 20096 40135 58023 60001 70511 82501 333 56706 82640 82610 87075=
85586,2011,07,10,21,00,AAXX 10214 85586 NIL=
85586,2011,07,11,00,00,AAXX 11004 85586 11208 82904 10108 20087 40159 52015 69901 75044 886// 333 10146 56799 88704=
85586,2011,07,11,06,00,AAXX 11064 85586 NIL=
85586,2011,07,11,12,00,AAXX 11124 85586 11558 80405 10106 20099 40182 52018 60014 7052/ 886// 333 20099 31/// 50080 55036 56799 70013 88625=
85586,2011,07,11,15,00,AAXX 11154 85586 NIL=
85586,2011,07,11,18,00,AAXX 11184 85586 12560 63307 10150 20094 40211 54000 60001 86500 333 56600 86630=
85586,2011,07,11,21,00,AAXX 11214 85586 42560 72908 10130 20102 40214 52004 87100 333 56600 87825=
85586,2011,07,12,00,00,AAXX 12004 85586 11558 80000 10128 20103 40231 52017 69981 7822 882// 333 10156 56799 88825=
85586,2011,07,12,03,00,AAXX 12034 85586 NIL=
85586,2011,07,12,06,00,AAXX 12064 85586 NIL=
85586,2011,07,12,09,00,AAXX 12094 85586 NIL=
85586,2011,07,12,12,00,AAXX 12124 85586 12960 01204 10051 20038 40246 53006 69994 333 20049 31/// 50090 55012 70009=
85586,2011,07,12,15,00,AAXX 12154 85586 42960 01905 10130 20100 40237 57007=
85586,2011,07,12,18,00,AAXX 12184 85586 12560 22309 10148 20107 40215 57021 69901 82100 333 56600 82820=
85586,2011,07,12,21,00,AAXX 12214 85586 42960 22211 10136 20102 40197 57017 80001 333 56006 82073=
85586,2011,07,13,00,00,AAXX 13004 85586 11958 00000 10083 20060 40196 53002 60001 70500 333 10154=
85586,2011,07,13,12,00,AAXX 13124 85586 11303 80904 10054 20045 40168 57007 60004 7464/ 886// 333 20030 31/// 50160 55094 56099 88704=
85586,2011,07,13,15,00,AAXX 13154 85586 41303 70000 10080 20074 40171 53002 74444 87600 333 56000 87707=
85586,2011,07,13,18,00,AAXX 13184 85586 11304 82803 10086 20078 40162 57008 60001 74644 886// 333 56099 88704=
85586,2011,07,13,21,00,AAXX 13214 85586 41558 30303 10116 20072 40169 53007 70544 83500 333 56600 83620=
85586,2011,07,14,00,00,AAXX 14004 85586 12960 00000 10080 20068 40174 52005 60001 333 10124=
85586,2011,07,14,03,00,AAXX 14034 85586 NIL=
85586,2011,07,14,06,00,AAXX 14064 85586 NIL=
85586,2011,07,14,09,00,AAXX 14094 85586 NIL=
85586,2011,07,14,12,00,AAXX 14124 85586 12560 70309 10100 20056 40156 57004 60004 81530 333 20058 31/// 50100 55022 56170 81620 87362=
85586,2011,07,14,15,00,AAXX 14154 85586 42560 70214 10128 20044 40154 54001 87530 333 56330 83630 87360=
85586,2011,07,14,18,00,AAXX 14184 85586 12560 73212 10130 20041 40134 57019 60001 87500 333 56100 87630=
85586,2011,07,14,21,00,AAXX 14214 85586 41440 83008 10102 20090 40139 52005 76062 885// 333 56799 88610=
85586,2011,07,15,00,00,AAXX 15004 85586 11340 83408 10090 20080 40168 52027 60061 76366 885// 333 10150 56099 88608=
85586,2011,07,15,03,00,AAXX 15034 85586 NIL=
85586,2011,07,15,06,00,AAXX 15064 85586 NIL=
85586,2011,07,15,09,00,AAXX 15094 85586 NIL=
85586,2011,07,15,12,00,AAXX 15124 85586 NIL=
85586,2011,07,15,15,00,AAXX 15154 85586 41560 53207 10132 20086 40201 52009 70260 85100 333 56600 85820=
85586,2011,07,15,18,00,AAXX 15184 85586 12560 42810 10132 20082 40207 52005 60011 84100 333 56700 84820=
85586,2011,07,15,21,00,AAXX 15214 85586 42460 63204 10112 20081 40214 52007 86100 333 56500 84617 86825=
85586,2011,07,16,00,00,AAXX 16004 85586 11456 83404 10104 20081 40218 52005 60011 76066 885// 333 10152 56099 88615=
85586,2011,07,16,03,00,AAXX 16034 85586 NIL=
85586,2011,07,16,06,00,AAXX 16064 85586 NIL=
85586,2011,07,16,09,00,AAXX 16094 85586 NIL=
85586,2011,07,16,12,00,AAXX 16124 85586 11560 51007 10073 20050 40272 52022 60164 85200 333 20071 32/// 50080 55059 56700 70161 85820=
85586,2011,07,16,15,00,AAXX 16154 85586 42460 10206 10126 20057 40287 51016 81100 333 56700 81815=
85586,2011,07,16,18,00,AAXX 16184 85586 12460 12607 10136 20060 40264 58021 60001 81100 333 56700 81815=
85586,2011,07,16,21,00,AAXX 16214 85586 42960 02306 10121 20062 40261 56003=
85586,2011,07,17,00,00,AAXX 17004 85586 11956 00000 10063 20033 40262 54001 60001 70500 333 10143=
85586,2011,07,17,03,00,AAXX 17034 85586 NIL=
85586,2011,07,17,06,00,AAXX 17064 85586 NIL=
85586,2011,07,17,09,00,AAXX 17094 85586 NIL=
85586,2011,07,17,12,00,AAXX 17124 85586 NIL=
85586,2011,07,17,15,00,AAXX 17154 85586 42960 00704 10109 20052 40265 51014=
85586,2011,07,17,18,00,AAXX 17184 85586 12460 12508 10133 20062 40249 58016 60001 81100 333 56700 81815=
85586,2011,07,17,21,00,AAXX 17214 85586 42960 02706 10123 20049 40254 53005=
85586,2011,07,18,00,00,AAXX 18004 85586 11656 30000 10064 20041 40263 52007 60001 70500 83500 333 10135 56700 83620=
85586,2011,07,18,03,00,AAXX 18034 85586 NIL=
85586,2011,07,18,06,00,AAXX 18064 85586 NIL=
85586,2011,07,18,09,00,AAXX 18094 85586 NIL=
85586,2011,07,18,12,00,AAXX 18124 85586 11560 41804 10059 20042 40276 53006 60014 84500 333 20054 32/// 50120 55094 56700 70013 84625=
85586,2011,07,18,15,00,AAXX 18154 85586 42460 11006 10101 20063 40267 58008 81100 333 56700 81815=
85586,2011,07,18,18,00,AAXX 18184 85586 12460 12311 10119 20049 40241 57024 60001 81100 333 56700 81815=
85586,2011,07,18,21,00,AAXX 18214 85586 NIL=
85586,2011,07,19,00,00,AAXX 19004 85586 11956 01505 10072 20035 40220 56007 60001 70500 333 10121=
85586,2011,07,19,03,00,AAXX 19034 85586 NIL=
85586,2011,07,19,06,00,AAXX 19064 85586 NIL=
85586,2011,07,19,09,00,AAXX 19094 85586 NIL=
85586,2011,07,19,12,00,AAXX 19124 85586 11902 11205 10008 20003 40165 57015 60004 74640 80001 333 20001 31/// 50070 55087 56005 81073=
85586,2011,07,19,15,00,AAXX 19154 85586 41930 41004 10082 20056 40164 52004 71000 80001 333 56005 84073=
85586,2011,07,19,18,00,AAXX 19184 85586 11960 42506 10114 20058 40165 54000 60001 70240 80001 333 56005 84073=
85586,2011,07,19,21,00,AAXX 19214 85586 42960 02804 10114 20021 40173 52009=
85586,2011,07,20,00,00,AAXX 20004 85586 12960 10000 10040 20016 40189 52012 60001 80001 333 10123 56005 81073=
85586,2011,07,20,03,00,AAXX 20034 85586 NIL=
85586,2011,07,20,06,00,AAXX 20064 85586 NIL=
85586,2011,07,20,09,00,AAXX 20094 85586 NIL=
85586,2011,07,20,12,00,AAXX 20124 85586 12960 61003 10022 20012 40239 52014 60004 85031 333 21008 31/// 50130 55077 56066 85362 83075=
85586,2011,07,20,15,00,AAXX 20154 85586 42960 21003 10088 20040 40263 52023 82030 333 56050 82362=
85586,2011,07,20,18,00,AAXX 20184 85586 12960 02505 10124 20034 40270 52007 60001=
85586,2011,07,20,21,00,AAXX 20214 85586 42960 22206 10110 20045 40262 57008 80001 333 56005 82070=
85586,2011,07,21,00,00,AAXX 21004 85586 12960 21502 10052 20034 40274 52013 60001 80001 333 10126 56006 82075=
85586,2011,07,21,03,00,AAXX 21034 85586 NIL=
85586,2011,07,21,06,00,AAXX 21064 85586 NIL=
85586,2011,07,21,09,00,AAXX 21094 85586 NIL=
85586,2011,07,21,12,00,AAXX 21124 85586 12960 51205 10040 20016 40255 56004 60004 80001 333 20012 31/// 50150 55084 56006 85075=
85586,2011,07,21,15,00,AAXX 21154 85586 42960 01206 10114 20040 40251 57005=
85586,2011,07,21,18,00,AAXX 21184 85586 12960 02205 10162 20027 40239 57011 60001=
85586,2011,07,21,21,00,AAXX 21214 85586 42960 01804 10170 20070 40202 57038=
85586,2011,07,22,00,00,AAXX 22004 85586 12960 01604 10080 20047 40207 52006 60001 333 10184=
85586,2011,07,22,03,00,AAXX 22034 85586 NIL=
85586,2011,07,22,06,00,AAXX 22064 85586 NIL=
85586,2011,07,22,09,00,AAXX 22094 85586 NIL=
85586,2011,07,22,12,00,AAXX 22124 85586 12960 00000 10062 20032 40164 56010 60004 333 20062 31/// 50080 55090=
85586,2011,07,22,15,00,AAXX 22154 85586 42960 01006 10132 20056 40173 52012=
85586,2011,07,22,18,00,AAXX 22184 85586 12960 02409 10162 20062 40163 57010 60001=
85586,2011,07,22,21,00,AAXX 22214 85586 42960 02205 10148 20098 40153 57010=
85586,2011,07,23,00,00,AAXX 23004 85586 11956 00604 10086 20062 40171 53015 60001 70500 333 10191=
85586,2011,07,23,03,00,AAXX 23034 85586 NIL=
85586,2011,07,23,06,00,AAXX 23064 85586 NIL=
85586,2011,07,23,09,00,AAXX 23094 85586 NIL=
85586,2011,07,23,12,00,AAXX 23124 85586 12960 60000 10029 20008 40172 56004 60004 80001 333 20024 31/// 50120 55095 56006 86075=
85586,2011,07,23,15,00,AAXX 23154 85586 41220 60000 10098 20085 40171 54000 71044 81601 333 56706 81704 86075=
85586,2011,07,23,18,00,AAXX 23184 85586 11940 52607 10136 20076 40147 58021 60001 70544 80001 333 56006 85075=
85586,2011,07,23,21,00,AAXX 23214 85586 42960 63306 10124 20093 40154 53006 70511 82601 333 56706 82708 86075=
85586,2011,07,24,00,00,AAXX 24004 85586 11440 80000 10115 20093 40167 51017 60001 70522 885// 333 10138 56799 88612=
85586,2011,07,24,03,00,AAXX 24034 85586 NIL=
85586,2011,07,24,06,00,AAXX 24064 85586 NIL=
85586,2011,07,24,09,00,AAXX 24094 85586 NIL=
85586,2011,07,24,12,00,AAXX 24124 85586 11320 80404 10093 20075 40178 53021 60004 886// 333 20089 31/// 50120 55081 56799 88709=
85586,2011,07,24,15,00,AAXX 24154 85586 41320 80205 10103 20072 40185 51008 70522 886// 333 56799 88709=
85586,2011,07,24,18,00,AAXX 24184 85586 11440 83309 10114 20078 40185 55000 60001 70522 885// 333 56799 88612=
85586,2011,07,24,21,00,AAXX 24214 85586 41456 83307 10114 20074 40487 53002 70522 885// 333 56799 88615=
85586,2011,07,25,00,00,AAXX 25004 85586 11556 83407 10114 20068 40199 51002 60001 70522 885// 333 10116 56799 88625=
85586,2011,07,25,03,00,AAXX 25034 85586 NIL=
85586,2011,07,25,06,00,AAXX 25064 85586 NIL=
85586,2011,07,25,09,00,AAXX 25094 85586 NIL=
85586,2011,07,25,12,00,AAXX 25124 85586 12960 21205 10026 20011 40226 56002 60004 80001 333 20026 31/// 50120 55090 56006 82075=
85586,2011,07,25,15,00,AAXX 25154 85586 41460 50606 10108 20077 40274 52017 78066 85200 333 56700 85815=
85586,2011,07,25,18,00,AAXX 25184 85586 12560 32304 10162 20061 40288 52013 69941 83100 333 56500 83820=
85586,2011,07,25,21,00,AAXX 25214 85586 42960 02208 10132 20066 40255 57033=
85586,2011,07,26,00,00,AAXX 26004 85586 12960 01702 10086 20070 40260 53006 60001 333 10165=
85586,2011,07,26,03,00,AAXX 26034 85586 NIL=
85586,2011,07,26,06,00,AAXX 26064 85586 NIL=
85586,2011,07,26,09,00,AAXX 26094 85586 NIL=
85586,2011,07,26,12,00,AAXX 26124 85586 12960 31205 10040 20024 40176 57011 69944 80001 333 20036 31/// 50120 55067 56006 70004 83075=
85586,2011,07,26,15,00,AAXX 26154 85586 42960 31905 10122 20054 40172 57005 80001 333 56005 83073=
85586,2011,07,26,18,00,AAXX 26184 85586 12960 32308 10140 20063 40157 57015 60001 80001 333 56005 83070=
85586,2011,07,26,21,00,AAXX 26214 85586 42960 02307 10130 20084 40139 57018=
85586,2011,07,27,00,00,AAXX 27004 85586 12960 30000 10074 20059 40161, 52021 60001 80001 333 10156 56006 83075=
85586,2011,07,27,03,00,AAXX 27034 85586 NIL=
85586,2011,07,27,06,00,AAXX 27064 85586 NIL=
85586,2011,07,27,09,00,AAXX 27094 85586 NIL=
85586,2011,07,27,12,00,AAXX 27124 85586 12960 61204 10008 20000 40180 53006 60004 80001 333 20008 31/// 50140 55092 56006 86075=
85586,2011,07,27,15,00,AAXX 27154 85586 42960 60603 10082 60066 40191 52011 80001 333 56006 86075=
85586,2011,07,27,18,00,AAXX 27184 85586 12960 72504 10122 20063 40178 58013 60001 80002 333 56006 87073=
85586,2011,07,27,21,00,AAXX 27214 85586 42960 52304 10120 20054 40181 53003 80001 333 56006 85075=
85586,2011,07,28,00,00,AAXX 28004 85586 12960 00000 10060 20046 40199 52018 60001 333 10125=
85586,2011,07,28,03,00,AAXX 28034 85586 NIL=
85586,2011,07,28,06,00,AAXX 28064 85586 NIL=
85586,2011,07,28,09,00,AAXX 28094 85586 NIL=
85586,2011,07,28,12,00,AAXX 28124 85586 12560 80000 10068 20051 40200 54000 60004 85501 333 20042 31/// 50070 55053 56606 85620 84073=
85586,2011,07,28,15,00,AAXX 28154 85586 42560 80304 10110 20090 40218 52020 885// 333 56599 88625=
85586,2011,07,28,18,00,AAXX 28184 85586 11405 83306 10110 20100 40206 57012 60001 75322 885// 333 56599 88610=
85586,2011,07,28,21,00,AAXX 28214 85586 41310 83005 10102 20091 40187 57017 76162 885// 333 56599 88608=
85586,2011,07,29,00,00,AAXX 29004 85586 11320 80000 10108 20098 40208 53019 60131 75066 886// 333 10124 56799 88709=
85586,2011,07,29,03,00,AAXX 29034 85586 NIL=
85586,2011,07,29,06,00,AAXX 29064 85586 NIL=
85586,2011,07,29,09,00,AAXX 29094 85586 NIL=
85586,2011,07,29,12,00,AAXX 29124 85586 11520 21104 10042 20031 40202 56006 60164 82500 333 20034 32/// 50080 55000 56700 82625=
85586,2011,07,29,15,00,AAXX 29154 85586 41450 41203 10102 20090 40209 52010 70510 84600 333 56600 84712=
85586,2011,07,29,18,00,AAXX 29184 85586 12460 42206 10140 20079 40164 57033 60001 84100 333 56500 84815=
85586,2011,07,29,21,00,AAXX 29214 85586 42460 62306 10112 20082 40165 54001 86130 333 56550 86362=
85586,2011,07,30,00,00,AAXX 30004 85586 11556 80000 10094 20076 40167 54000 60001 70522 882// 333 10144 56799 88825=
85586,2011,07,30,03,00,AAXX 30034 85586 NIL=
85586,2011,07,30,06,00,AAXX 30064 85586 NIL=
85586,2011,07,30,09,00,AAXX 30094 85586 NIL=
85586,2011,07,30,12,00,AAXX 30124 85586 12960 60000 10062 20046 40168 53009 69924 86030 333 20059 31/// 50080 55069 56060 86362=
85586,2011,07,30,15,00,AAXX 30154 85586 42460 40000 10104 20086 40174 51007 81130 333 56660 81815 84362=
85586,2011,07,30,18,00,AAXX 30184 85586 12460 52907 10122 20072 40165 58008 60001 82130 333 56770 82815 5360=
85586,2011,07,30,21,00,AAXX 30214 85586 41458 70408 10104 20045 40184 53018 70511 87100 333 56700 82612 87815=
85586,2011,07,31,00,00,AAXX 31004 85586 11456 41004 10073 20032 40200 52015 60001 70511 81101 333 10133 56706 81815 84075=
85586,2011,07,31,03,00,AAXX 31034 85586 NIL=
85586,2011,07,31,06,00,AAXX 31064 85586 NIL=
85586,2011,07,31,09,00,AAXX 31094 85586 NIL=
85586,2011,07,31,12,00,AAXX 31124 85586 12960 41504 10032 20025 40192 56002 60004 81601 333 20026 31/// 50110 55042 56606 81706 84075=
85586,2011,07,31,15,00,AAXX 31154 85586 NIL=
85586,2011,07,31,18,00,AAXX 31184 85586 12960 32404 10116 20034 40234 52021 60001 81501 333 56606 81620 83075=
85586,2011,07,31,21,00,AAXX 31214 85586 42560 23004 10118 20041 40250 52016 81101 333 56606 81815=
85586,2011,08,01,00,00,AAXX 01004 85586 12960 00000 10054 20040 40270 52020 60001 333 10124=
85586,2011,08,01,03,00,AAXX 01034 85586 NIL=
85586,2011,08,01,06,00,AAXX 01064 85586 NIL=
85586,2011,08,01,09,00,AAXX 01094 85586 NIL=
85586,2011,08,01,12,00,AAXX 01124 85586 12360 10904 10014 20004 40314 52019 60004 81600 333 20014 31/// 55120 55084 56600 81707=
85586,2011,08,01,15,00,AAXX 01154 85586 42960 50000 10104 20051 40304 58010 80002 333 56006 85075=
85586,2011,08,01,18,00,AAXX 01184 85586 11558 62405 10124 20032 40299 57006 60001 70520 86501 333 56505 83630 86070=
85586,2011,08,01,21,00,AAXX 01214 85586 42560 62004 10102 20048 40263 57035 86530 333 56550 82630 85362=
85586,2011,08,02,00,00,AAXX 02004 85586 12560 82403 10082 20058 40269 53007 60001 8553/ 333 10126 56669 85630 83360=
85586,2011,08,02,03,00,AAXX 02034 85586 NIL=
85586,2011,08,02,06,00,AAXX 02064 85586 NIL=
85586,2011,08,02,09,00,AAXX 02094 85586 NIL=
85586,2011,08,02,12,00,AAXX 02124 85586 11560 80902 10066 20055 40262 54000 60024 7216/ 8553/ 333 20056 32/// 50100 55042 56769 70018 85620 86360=
85586,2011,08,02,15,00,AAXX 02154 85586 42560 70606 10110 20055 40276 52013 87500 333 56500 87620=
85586,2011,08,02,18,00,AAXX 02184 85586 12560 62708 10142 20061 40272 57004 60001 86501 333 56505 85620 83070=
85586,2011,08,02,21,00,AAXX 02214 85586 42560 22107 10132 20076 40272 54000 82100 333 56500 82820=
85586,2011,08,03,00,00,AAXX 03004 85586 12960 01805 10086 20053 40281 52010 60001 333 10160=
85586,2011,08,03,03,00,AAXX 03034 85586 NIL=
85586,2011,08,03,06,00,AAXX 03064 85586 NIL=
85586,2011,08,03,09,00,AAXX 03094 85586 NIL=
85586,2011,08,03,12,00,AAXX 03124 85586 13960 01404 10036 20009 40254 57021 60004 333 20034 31/// 50120 55061=
85586,2011,08,03,15,00,AAXX 03154 85586 42960 42004 10129 20058 40245 56006 80001 333 56006 84075=
85586,2011,08,03,18,00,AAXX 03184 85586 12960 51411 10154 20025 40217 58026 60001 80001 333 56006 85075=
85586,2011,08,03,21,00,AAXX 03214 85586 42960 01405 10173 20004 40185 57030=
85586,2011,08,04,00,00,AAXX 04004 85586 11956 40000 10101 20022 40185 58003 60001 70500 80001 333 10175 56006 84075=
85586,2011,08,04,03,00,AAXX 04034 85586 NIL=
85586,2011,08,04,06,00,AAXX 04064 85586 NIL=
85586,2011,08,04,09,00,AAXX 04094 85586 NIL=
85586,2011,08,04,12,00,AAXX 04124 85586 12960 70000 10014 20001 40177 53007 60004 83031 333 20007 34/// 50120 55095 56066 83365 87075=
85586,2011,08,04,15,00,AAXX 04154 85586 41958 70603 10070 20050 40193 52021 70522 87031 333 56055 86365 84073=
85586,2011,08,04,18,00,AAXX 04184 85586 12560 73503 10112 20043 40195 54002 60001 87530 333 56660 84620 86362=
85586,2011,08,04,21,00,AAXX 04214 85586 42560 72703 10106 20077 40197 54002 87530 333 56660 84630 86360=
85586,2011,08,05,00,00,AAXX 05004 85586 11558 80000 10104 20071 40210 53011 60001 70522 885// 333 10122 56799 88625=
85586,2011,08,05,03,00,AAXX 05034 85586 NIL=
85586,2011,08,05,06,00,AAXX 05064 85586 NIL=
85586,2011,08,05,09,00,AAXX 05094 85586 NIL=
85586,2011,08,05,12,00,AAXX 05124 85586 11460 81105 10067 20056 40215 53007 69914 8253/ 333 20047 31/// 50090 55000 56769 82615 88362=
85586,2011,08,05,15,00,AAXX 05154 85586 41458 70904 10098 20072 40240 52027 70522 87530 333 56450 82617 87360=
85586,2011,08,05,18,00,AAXX 05184 85586 12460 72404 10128 20061 40227 57013 60001 87130 333 56550 82815 87360=
85586,2011,08,05,21,00,AAXX 05214 85586 41958 71004 10114 20073 40209 57018 70522 87030 333 56050 87362=
85586,2011,08,06,00,00,AAXX 06004 85586 11958 80000 10109 20078 40212 53003 60001 70522 8803/ 333 10134 56069 88362=
85586,2011,08,06,03,00,AAXX 06034 85586 NIL=
85586,2011,08,06,06,00,AAXX 06064 85586 NIL=
85586,2011,08,06,09,00,AAXX 06094 85586 NIL=
85586,2011,08,06,12,00,AAXX 06124 85586 11560 81605 10084 20063 40191 57009 69904 7026/ 83532 333 20060 31/// 55090 55011 56466 70000 83520 85360 85073=
85586,2011,08,06,15,00,AAXX 06154 85586 42560 82403 10126 20053 40195 52007 81532 333 56677 81630 83360 85073=
85586,2011,08,06,18,00,AAXX 06184 85586 12560 82802 10134 20073 40191 58007 60001 81532 333 56677 81630 84361 85073=
85586,2011,08,06,21,00,AAXX 06214 85586 42560 42502 10148 20066 40187 57004 81531 333 56666 81630 84073=
85586,2011,08,07,00,00,AAXX 07004 85586 12960 40000 10092 20066 40188 53001 60001 84030 333 10154 56060 84362=
85586,2011,08,07,03,00,AAXX 07034 85586 NIL=
85586,2011,08,07,06,00,AAXX 07064 85586 NIL=
85586,2011,08,07,09,00,AAXX 07094 85586 NIL=
85586,2011,08,07,12,00,AAXX 07124 85586 12960 51202 10046 20037 40169 56002 60004 83032 333 20046 31/// 50080 55013 56066 83365 85075=
85586,2011,08,07,15,00,AAXX 07154 85586 42960 70000 10108 20082 40173 52004 87030 333 56060 87361=
85586,2011,08,07,18,00,AAXX 07184 85586 12960 80602 10134 20100 40175 55002 60001 8803/ 333 56069 88360=
85586,2011,08,07,21,00,AAXX 07214 85586 41458 70000 10140 20084 40166 56002 70522 83530 333 56660 83615 87360=
85586,2011,08,08,00,00,AAXX 08004 85586 11456 83103 10111 20100 40180 52014 69941 76062 8553/ 333 10166 56669 85615 88359=
85586,2011,08,08,03,00,AAXX 08034 85586 NIL=
85586,2011,08,08,06,00,AAXX 08064 85586 NIL=
85586,2011,08,08,09,00,AAXX 08094 85586 NIL=
85586,2011,08,08,12,00,AAXX 08124 85586 11960 60000 10110 20097 40192 52015 69964 7026/ 83031 333 20086 31/// 50110 55000 56066 70006 83363 85075=
85586,2011,08,08,15,00,AAXX 08154 85586 41958 40403 10140 20115 40195 52005 70522 8003/ 333 56060 86358=
85586,2011,08,08,18,00,AAXX 08184 85586 11457 83207 10140 20120 40213 52017 60001 70522 885// 333 56699 88617=
85586,2011,08,08,21,00,AAXX 08214 85586 41440 83005 10128 20111 40207 57006 70522 885// 333 56699 88615=
85586,2011,08,09,00,00,AAXX 09004 85586 11440 81804 10116 20105 40197 57011 60001 70522 885// 333 10162 56099 88615=
85586,2011,08,09,03,00,AAXX 09034 85586 NIL=
85586,2011,08,09,06,00,AAXX 09064 85586 NIL=
85586,2011,08,09,09,00,AAXX 09094 85586 NIL=
85586,2011,08,09,12,00,AAXX 09124 85586 11001 80000 10096 20092 40190 53005 60004 74444 886// 333 20094 31/// 50060 55021 56099 70000 88701=
85586,2011,08,09,15,00,AAXX 09154 85586 41960 10603 10133 20115 40189 54000 70140 80001 333 56005 81075=
85586,2011,08,09,18,00,AAXX 09184 85586 11110 82803 10111 20107 40184 57005 60001 71042 886// 333 56699 88702=
85586,2011,08,09,21,00,AAXX 09214 85586 41350 70000 10120 20102 40186 53002 70522 87600 333 56600 87707=
85586,2011,08,10,00,00,AAXX 10004 85586 11105 80000 10102 20098 40194 52006 60001 74242 886// 333 10150 56799 88704=
85586,2011,08,10,03,00,AAXX 10034 85586 NIL=
85586,2011,08,10,06,00,AAXX 10064 85586 NIL=
85586,2011,08,10,09,00,AAXX 10094 85586 NIL=
85586,2011,08,10,12,00,AAXX 10124 85586 11902 11002 10098 20094 40200 53005 60004 74440 80001 333 20070 31/// 50050 55025 56006 81073=
85586,2011,08,10,15,00,AAXX 10154 85586 41960 00000 10136 20114 40211 52013 70240=
85586,2011,08,10,18,00,AAXX 10184 85586 11106 22304 10134 20117 40187 58024 60001 74040 82600 333 56600 82704=
85586,2011,08,10,21,00,AAXX 10214 85586 41105 52404 10127 20121 40178 57009 74442 85600 333 56600 85704=
85586,2011,08,11,00,00,AAXX 11004 85586 11102 80000 10111 20107 40194 53015 60001 74442 886// 333 10160 56699 88702=
85586,2011,08,11,03,00,AAXX 11034 85586 NIL=
85586,2011,08,11,06,00,AAXX 11064 85586 NIL=
85586,2011,08,11,09,00,AAXX 11094 85586 NIL=
85586,2011,08,11,12,00,AAXX 11124 85586 11903 01103 10065 20061 40189 54000 60004 74240 333 20062 31/// 50060 55051=
85586,2011,08,11,15,00,AAXX 11154 85586 41915 01003 10120 20102 40196 52008 74041=
85586,2011,08,11,18,00,AAXX 11184 85586 11150 10000 10119 20103 40186 58009 60001 70541 81600 333 56600 81702=
85586,2011,08,11,21,00,AAXX 11214 85586 41140 32404 10131 20110 40178 57008 70500 83600 333 56600 83702=
85586,2011,08,12,00,00,AAXX 12004 85586 11220 80000 10111 20107 40195 53017 60001 71041 886// 333 10145 56699 88706=
85586,2011,08,12,03,00,AAXX 12034 85586 NIL=
85586,2011,08,12,06,00,AAXX 12064 85586 NIL=
85586,2011,08,12,09,00,AAXX 12094 85586 NIL=
85586,2011,08,12,12,00,AAXX 12124 85586 11456 70802 10110 20098 40196 56002 69904 7502/ 87500 333 20090 31/// 50140 55057 56000 70000 85710 86620=
85586,2011,08,12,15,00,AAXX 12154 85586 41330 80303 10134 20121 40121 52015 71022 885// 333 56099 82707 88610=
85586,2011,08,12,18,00,AAXX 12184 85586 11450 82204 10148 20126 40208 58003 60011 70522 885// 333 56099 84612 86625=
85586,2011,08,12,21,00,AAXX 12214 85586 41456 62406 10142 20096 40211 53003 70522 86500 333 56600 82610 85626=
85586,2011,08,13,00,00,AAXX 13004 85586 11558 31805 10112 20089 40226 52015 60001 70522 81530 333 10152 56660 81625 83362=
85586,2011,08,13,03,00,AAXX 13034 85586 NIL=
85586,2011,08,13,06,00,AAXX 13064 85586 NIL=
85586,2011,08,13,09,00,AAXX 13094 85586 NIL=
85586,2011,08,13,12,00,AAXX 13124 85586 12960 10000 10044 20032 40218 53003 60014 80001 333 20028 31/// 50080 55011 56006 70010 81075=
85586,2011,08,13,15,00,AAXX 13154 85586 42960 01207 10140 20045 40226 58003=
85586,2011,08,13,18,00,AAXX 13184 85586 12960 01811 10178 20020 40195 57031 60001=
85586,2011,08,13,21,00,AAXX 13214 85586 42960 02311 10142 20074 40181 57014=
85586,2011,08,14,00,00,AAXX 14004 85586 12960 02304 10096 20066 40184 53004 60001 333 10184=
85586,2011,08,14,03,00,AAXX 14034 85586 NIL=
85586,2011,08,14,06,00,AAXX 14064 85586 NIL=
85586,2011,08,14,09,00,AAXX 14094 85586 NIL=
85586,2011,08,14,12,00,AAXX 14124 85586 12960 01204 10004 21004 40162 56004 60004 333 20004 31/// 50140 55087=
85586,2011,08,14,15,00,AAXX 14154 85586 42960 02803 10110 20062 40171 52009=
85586,2011,08,14,18,00,AAXX 14184 85586 12560 12405 10120 20048 40165 58006 60001 81500 333 56600 81625=
85586,2011,08,14,21,00,AAXX 14214 85586 42560 22506 10112 20043 40163 56002 82500 333 56600 82625=
85586,2011,08,15,00,00,AAXX 15004 85586 12560 40000 10084 20050 40175 52012 60001 84500 333 10124 56600 84620=
85586,2011,08,15,03,00,AAXX 15034 85586 NIL=
85586,2011,08,15,06,00,AAXX 15064 85586 NIL=
85586,2011,08,15,09,00,AAXX 15094 85586 NIL=
85586,2011,08,15,12,00,AAXX 15124 85586 12460 70000 10074 20046 40182 53010 69904 87500 333 20070 31/// 55097 56600 82817 87650=
85586,2011,08,15,15,00,AAXX 15154 85586 42760 70000 10106 20064 40191 52010 87500 333 56600 87656=
85586,2011,08,15,18,00,AAXX 15184 85586 12760 82803 10127 20084 40176 58014 69901 8557/ 333 56669 85656 83363=
85586,2011,08,15,21,00,AAXX 15214 85586 41660 80000 10114 20088 40171 57005 76022 8457/ 333 56669 84640 85362=
85586,2011,08,16,00,00,AAXX 16004 85586 11660 80000 10100 20081 40178 53007 69911 76062 8557/ 333 10129 56669 85640 84362=
85586,2011,08,16,03,00,AAXX 16034 85586 NIL=
85586,2011,08,16,06,00,AAXX 16064 85586 NIL=
85586,2011,08,16,09,00,AAXX 16094 85586 NIL=
85586,2011,08,16,12,00,AAXX 16124 85586 11558 80603 10087 20081 40227 52024 60304 78086 882// 333 20087 32/// 50050 55000 56799 70229 82820 86835=
85586,2011,08,16,15,00,AAXX 16154 85586 41558 72808 10110 20090 40242 52016 78182 87200 333 56600 83820 87830=
85586,2011,08,16,18,00,AAXX 16184 85586 12560 53014 10140 20085 40247 52005 60031 85200 333 56700 85825=
85586,2011,08,16,21,00,AAXX 16214 85586 42560 53010 10124 20096 40241 57006 85200 333 56700 83820 83830=
85586,2011,08,17,00,00,AAXX 17004 85586 12560 30000 10113 20094 40245 53004 69901 83500 333 10152 56600 83820=
85586,2011,08,17,03,00,AAXX 17034 85586 NIL=
85586,2011,08,17,06,00,AAXX 17064 85586 NIL=
85586,2011,08,17,09,00,AAXX 17094 85586 NIL=
85586,2011,08,17,12,00,AAXX 17124 85586 12960 60000 10076 20064 40215 57010 60034 80009 333 20058 31/// 50060 55039 56006 70028 86170=
85586,2011,08,17,15,00,AAXX 17154 85586 42960 70303 10110 20070 40223 52010 87030 333 56070 87362=
85586,2011,08,17,18,00,AAXX 17184 85586 12560 73007 10132 20076 40252 52028 60001 87130 333 56770 86358=
85586,2011,08,17,21,00,AAXX 17214 85586 41657 83206 10120 20096 40205 57037 70522 885// 333 56799 88633=
85586,2011,08,18,00,00,AAXX 18004 85586 12558 80000 10114 20096 40203 57002 69901 70522 8357/ 333 10145 56779 83620 85358=
85586,2011,08,18,03,00,AAXX 18034 85586 NIL=
85586,2011,08,18,06,00,AAXX 18064 85586 NIL=
85586,2011,08,18,09,00,AAXX 18094 85586 NIL=
85586,2011,08,18,12,00,AAXX 18124 85586 11560 40804 10070 20060 40198 56002 60164 7016/ 82531 333 20070 32/// 50060 55000 56166 70156 82630=
85586,2011,08,18,15,00,AAXX 18154 85586 42460 61004 10106 20071 40206 52007 86500 333 56500 82817 86620=
85586,2011,08,18,18,00,AAXX 18184 85586 12460 42705 10142 20096 40211 52005 60011 84300 333 56600 84915=
85586,2011,08,18,21,00,AAXX 18214 85586 42560 51208 10118 20081 40215 52004 85201 333 56505 84820 84070=
85586,2011,08,19,00,00,AAXX 19004 85586 12560 21702 10084 20043 40234 52020 60001 82500 333 10142 56600 82620=
85586,2011,08,19,03,00,AAXX 19034 85586 NIL=
85586,2011,08,19,06,00,AAXX 19064 85586 NIL=
85586,2011,08,19,09,00,AAXX 19094 85586 NIL=
85586,2011,08,19,12,00,AAXX 19124 85586 12960 01203 10022 20012 40259 52008 60014 333 20008 31/// 50090 55052 70011=
85586,2011,08,19,15,00,AAXX 19154 85586 42960 01204 10118 20051 40265 52005=
85586,2011,08,19,18,00,AAXX 19184 85586 12960 02310 10134 20064 40250 57014 60001=
85586,2011,08,19,21,00,AAXX 19214 85586 42960 02009 10125 20080 40240 57025=
85586,2011,08,20,00,00,AAXX 20004 85586 12960 01802 20066 20047 40236 56003 60001 333 10138=
85586,2011,08,20,03,00,AAXX 20034 85586 NIL=
85586,2011,08,20,06,00,AAXX 20064 85586 NIL=
85586,2011,08,20,09,00,AAXX 20094 85586 NIL=
85586,2011,08,20,12,00,AAXX 20124 85586 12960 01202 10024 20014 40201 57006 60004 333 20020 31/// 50140 55100=
85586,2011,08,20,15,00,AAXX 20154 85586 42960 02403 10110 20045 40207 52006=
85586,2011,08,20,18,00,AAXX 20184 85586 12960 02506 10132 20051 40186 57014 60001=
85586,2011,08,20,21,00,AAXX 20214 85586 42960 02703 10124 20048 40188 53002=
85586,2011,08,21,00,00,AAXX 21004 85586 12960 00000 10060 20041 40197 52009 60001 333 10134=
85586,2011,08,21,03,00,AAXX 21034 85586 NIL=
85586,2011,08,21,06,00,AAXX 21064 85586 NIL=
85586,2011,08,21,09,00,AAXX 21094 85586 NIL=
85586,2011,08,21,12,00,AAXX 21124 85586 12960 00000 10016 20003 40215 53010 60004 333 21007 34/// 50120 55099=
85586,2011,08,21,15,00,AAXX 21154 85586 42960 02604 10116 20072 40212 50001=
85586,2011,08,21,18,00,AAXX 21184 85586 12960 02706 10126 20062 40208 58004 60001=
85586,2011,08,21,21,00,AAXX 21214 85586 42460 22605 10126 20078 40124 53007 82100 333 56700 82815=
85586,2011,08,22,00,00,AAXX 22004 85586 12956 00000 10066 20043 40222 51005 60001 70500 333 10129=
85586,2011,08,22,03,00,AAXX 22034 85586 NIL=
85586,2011,08,22,06,00,AAXX 22064 85586 NIL=
85586,2011,08,22,09,00,AAXX 22094 85586 NIL=
85586,2011,08,22,12,00,AAXX 22124 85586 11456 81204 10084 20068 40258 52014 60004 7052/ 85/// 333 20041 31/// 50120 55094 56799 88615=
85586,2011,08,22,15,00,AAXX 22154 85586 41458 71704 10108 20069 40275 52019 70522 87500 333 56500 87617=
85586,2011,08,22,18,00,AAXX 22184 85586 12458 12807 10132 20071 40253 58023 60001 70522 81500 333 56700 81615=
85586,2011,08,22,21,00,AAXX 22214 85586 42960 01603 10130 20080 40242 57011=
85586,2011,08,23,00,00,AAXX 23004 85586 12956 40000 10069 20051 40257 53013 60001 70500 333 10134=
85586,2011,08,23,03,00,AAXX 23034 85586 NIL=
85586,2011,08,23,06,00,AAXX 23064 85586 NIL=
85586,2011,08,23,09,00,AAXX 23094 85586 NIL=
85586,2011,08,23,12,00,AAXX 23124 85586 12956 71104 10061 20048 40181 57022 60004 7052/ 80001 333 20029 31/// 50120 55063 56006 87075=
85586,2011,08,23,15,00,AAXX 23154 85586 41958 51205 10118 20077 40166 57011 70520 85030 333 56040 85362=
85586,2011,08,23,18,00,AAXX 23184 85586 11958 72210 10134 20102 40142 57012 60001 70522 87030 333 56050 87362=
85586,2011,08,23,21,00,AAXX 23214 85586 42960 80000 10124 20080 40140 57012 8803/ 333 56059 88309=
85586,2011,08,24,00,00,AAXX 24004 85586 NIL=
85586,2011,08,24,03,00,AAXX 24034 85586 NIL=
85586,2011,08,24,06,00,AAXX 24064 85586 NIL=
85586,2011,08,24,09,00,AAXX 24094 85586 NIL=
85586,2011,08,24,12,00,AAXX 24124 85586 11410 80000 10106 20098 40194 52014 60064 7636/ 8353/ 333 20090 32/// 50110 50390 56669 70062 83510 85360=
85586,2011,08,24,15,00,AAXX 24154 85586 41420 70803 10115 20107 40216 52021 76362 87530 333 56440 84612 86358=
85586,2011,08,24,18,00,AAXX 24184 85586 11440 72704 10118 20102 40230 52014 60111 70526 87530 333 56660 84615 86357=
85586,2011,08,24,21,00,AAXX 24214 85586 42460 72808 10115 20098 40242 52012 87530 333 56660 84617 87358=
85586,2011,08,25,00,00,AAXX 25004 85586 12460 20000 10100 20089 40255 52014 60001 82500 333 10132 56600 82615=
85586,2011,08,25,03,00,AAXX 25034 85586 NIL=
85586,2011,08,25,06,00,AAXX 25064 85586 NIL=
85586,2011,08,25,09,00,AAXX 25094 85586 NIL=
85586,2011,08,25,12,00,AAXX 25124 85586 11440 71207 10076 20067 40205 57012 60114 71011 82501 333 20050 31/// 50100 55005 56206 70114 82613 87075=
85586,2011,08,25,15,00,AAXX 25154 85586 41930 71207 10110 20078 40217 52011 71022 87031 333 56044 83365 86070=
85586,2011,08,25,18,00,AAXX 25184 85586 11940 80903 10128 20093 40187 57028 60001 70522 8803/ 333 56049 88362=
85586,2011,08,25,21,00,AAXX 25214 85586 41940 81804 10112 20100 40167 52020 70522 8803/ 333 56049 88360=
85586,2011,08,26,00,00,AAXX 26004 85586 11940 81903 10100 20089 40177 52009 60001 70522 8803/ 333 10131 56069 88360=
85586,2011,08,26,03,00,AAXX 26034 85586 NIL=
85586,2011,08,26,06,00,AAXX 26064 85586 NIL=
85586,2011,08,26,09,00,AAXX 26094 85586 NIL=
85586,2011,08,26,12,00,AAXX 26124 85586 11640 80000 10092 20082 40151 53006 60004 70522 8153/ 333 20081 31/// 50060 55007 56669 81640 88362=
85586,2011,08,26,15,00,AAXX 26154 85586 41540 83505 10118 20097 40152 55001 70522 8353/ 333 56779 83630 88361=
85586,2011,08,26,18,00,AAXX 26184 85586 11556 83309 10124 20087 40152 52004 60001 70522 8553/ 333 56779 85620 88360=
85586,2011,08,26,21,00,AAXX 26214 85586 41157 83510 10121 20077 40165 52009 70522 8453/ 333 56779 84620 88360=
85586,2011,08,27,00,00,AAXX 27004 85586 11457 83307 10118 20063 40172 52007 60001 70522 8583/ 333 10130 56779 82810 85620 88360=
85586,2011,08,27,03,00,AAXX 27034 85586 NIL=
85586,2011,08,27,06,00,AAXX 27064 85586 NIL=
85586,2011,08,27,09,00,AAXX 27094 85586 NIL=
85586,2011,08,27,12,00,AAXX 27124 85586 11456 60706 10099 20086 40237 52027 60064 70566 86200 333 20097 32/// 50080 55000 56700 86815=
85586,2011,08,27,15,00,AAXX 27154 85586 41460 33306 10138 20093 40245 51009 83200 333 56700 83815=
85586,2011,08,27,18,00,AAXX 27184 85586 12560 12909 10149 20098 40141 58013 60001 81200 333 56700 81820=
85586,2011,08,27,21,00,AAXX 27214 85586 42460 32907 10144 20093 40226 56005 81101 333 56706 81820 82075=
85586,2011,08,28,00,00,AAXX 28004 85586 11356 80000 10114 20094 40219 58009 60001 70522 886// 333 10154 56799 88708=
85586,2011,08,28,03,00,AAXX 28034 85586 NIL=
85586,2011,08,28,06,00,AAXX 28064 85586 NIL=
85586,2011,08,28,09,00,AAXX 28094 85586 NIL=
85586,2011,08,28,12,00,AAXX 28124 85586 12458 80204 10104 20083 40198 53014 60004 70522 8257/ 333 20093 31/// 50120 55085 56760 82612 88359=
85586,2011,08,28,15,00,AAXX 28154 85586 41460 83510 10136 2088/ 40198 50001 8253/ 333 56769 82615 88358=
85586,2011,08,28,18,00,AAXX 28184 85586 41460 83312 10151 20070 40191 58007 8253/ 333 56769 82615 88358=
85586,2011,08,28,21,00,AAXX 28214 85586 41440 83315 10112 20089 40202 53011 76362 8222/ 333 56779 82812 88440=
85586,2011,08,29,00,00,AAXX 29004 85586 11556 80306 10092 20060 40237 52034 60081 70566 84200 333 10153 56700 84825=
85586,2011,08,29,03,00,AAXX 29034 85586 NIL=
85586,2011,08,29,06,00,AAXX 29064 85586 NIL=
85586,2011,08,29,09,00,AAXX 29094 85586 NIL=
85586,2011,08,29,12,00,AAXX 29124 85586 11960 01106 10071 20052 40261 52022 60094 333 20058 32/// 50110 55003 70089=
85586,2011,08,29,15,00,AAXX 29154 85586 42960 42705 10125 20057 40260 54000 84100 333 56600 84815=
85586,2011,08,29,18,00,AAXX 29184 85586 12460 32305 10152 20068 40262 54002 60001 83100 333 56500 83815=
85586,2011,08,29,21,00,AAXX 29214 85586 42960 02206 10136 20068 40275 52013=
85586,2011,08,30,00,00,AAXX 30004 85586 12958 00000 10091 20057 40283 52011 60001 70500 333 10154=
85586,2011,08,30,03,00,AAXX 30034 85586 NIL=
85586,2011,08,30,06,00,AAXX 30064 85586 NIL=
85586,2011,08,30,09,00,AAXX 30094 85586 NIL=
85586,2011,08,30,12,00,AAXX 30124 85586 12960 01109 10070 20029 40257 55006 60004 333 20058 31/// 50090 55099=
85586,2011,08,30,15,00,AAXX 30154 85586 42960 01507 10130 20053 40246 57009=
85586,2011,08,30,18,00,AAXX 30184 85586 12960 02007 10187 20041 40225 57021 60001=
85586,2011,08,30,21,00,AAXX 30214 85586 42960 01804 10198 20078 40209 57016=
85586,2011,08,31,00,00,AAXX 31004 85586 12960 60000 10120 20039 40204 56004 60001 80001 333 10202 56006 86075=
85586,2011,08,31,03,00,AAXX 31034 85586 NIL=
85586,2011,08,31,06,00,AAXX 31064 85586 NIL=
85586,2011,08,31,09,00,AAXX 31094 85586 NIL=
85586,2011,08,31,12,00,AAXX 31124 85586 12960 61206 10086 20033 40146 57020 60004 80001 333 20070 31/// 50160 55103 56006 86075=
85586,2011,08,31,15,00,AAXX 31154 85586 42960 62404 10180 20073 40141 57005 80001 333 56006 86075=
85586,2011,08,31,18,00,AAXX 31184 85586 12960 62604 10176 20072 40141 54000 60004 80001 333 56006 86075=
85586,2011,08,31,21,00,AAXX 31214 85586 42960 22803 10152 20087 40141 54000 80001 333 56006 82075=
85586,2011,09,01,00,00,AAXX 01004 85586 12960 30000 10100 20075 40143 53002 60001 80001 333 10188 56006 83075=
85586,2011,09,01,03,00,AAXX 01034 85586 NIL=
85586,2011,09,01,06,00,AAXX 01064 85586 NIL=
85586,2011,09,01,09,00,AAXX 01094 85586 NIL=
85586,2011,09,01,12,00,AAXX 01124 85586 11450 70704 10090 20082 40165 52010 60004 7102/ 87500 333 20050 31/// 50140 55102 56100 87613=
85586,2011,09,01,15,00,AAXX 01154 85586 42960 32705 10134 20095 40182 52018 80001 333 56005 83073=
85586,2011,09,01,18,00,AAXX 01184 85586 12960 72506 10132 20076 40196 52014 60001 87500 333 56500 87620=
85586,2011,09,01,21,00,AAXX 01214 85586 42357 83005 10114 20075 40204 52007 70522 885// 333 56699 88617=
85586,2011,09,02,00,00,AAXX 02004 85586 12560 43303 10110 20080 40203 55001 60001 84500 333 10142 56600 84620=
85586,2011,09,02,03,00,AAXX 02034 85586 NIL=
85586,2011,09,02,06,00,AAXX 02064 85586 NIL=
85586,2011,09,02,09,00,AAXX 02094 85586 NIL=
85586,2011,09,02,12,00,AAXX 02124 85586 11556 30903 10058 20041 40191 53003 69904 70500 83500 333 20045 31/// 50110 55053 56600 83623=
85586,2011,09,02,15,00,AAXX 02154 85586 42560 51507 10130 20090 40206 52016 85500 333 56400 85620=
85586,2011,09,02,18,00,AAXX 02184 85586 12560 43006 10162 20082 40192 57012 60001 84500 333 56700 84630=
85586,2011,09,02,21,00,AAXX 02214 85586 42960 02707 10150 20085 40185 57007=
85586,2011,09,03,00,00,AAXX 03004 85586 12560 30105 10118 20089 40204 53025 60001 83500 333 10164 56700 83625=
85586,2011,09,03,03,00,AAXX 03034 85586 NIL=
85586,2011,09,03,06,00,AAXX 03064 85586 NIL=
85586,2011,09,03,09,00,AAXX 03094 85586 NIL=
85586,2011,09,03,12,00,AAXX 03124 85586 11458 80804 10106 20093 40221 51006 60044 70566 8212/ 333 20084 32/// 50080 55081 56769 82815 86456=
85586,2011,09,03,15,00,AAXX 03154 85586 42560 32405 10133 20090 40221 50000 83200 333 56600 83825=
85586,2011,09,03,18,00,AAXX 03184 85586 12460 12311 10143 20093 40212 56008 60001 81100 333 56700 81815=
85586,2011,09,03,21,00,AAXX 03214 85586 42960 02508 10136 20072 40221 53009=
85586,2011,09,04,00,00,AAXX 04004 85586 12458 12404 10104 20066 40238 52015 60001 81100 333 10153 56700 81815=
85586,2011,09,04,03,00,AAXX 04034 85586 NIL=
85586,2011,09,04,06,00,AAXX 04064 85586 NIL=
85586,2011,09,04,09,00,AAXX 04094 85586 NIL=
85586,2011,09,04,12,00,AAXX 04124 85586 12560 11005 10064 20053 40282 52026 60004 81500 333 20039 31/// 50140 55085 56700 81625=
85586,2011,09,04,15,00,AAXX 04154 85586 42460 22306 10141 20064 40279 58002 82100 333 56700 82815=
85586,2011,09,04,18,00,AAXX 04184 85586 12460 12411 10144 20057 40273 56004 60001 81100 333 56700 81815=
85586,2011,09,04,21,00,AAXX 04214 85586 42960 02312 10133 20072 40271 58002=
85586,2011,09,05,00,00,AAXX 05004 85586 12958 00000 10094 20058 40287 53014 60001 70500 333 10154=
85586,2011,09,05,03,00,AAXX 05034 85586 NIL=
85586,2011,09,05,06,00,AAXX 05064 85586 NIL=
85586,2011,09,05,09,00,AAXX 05094 85586 NIL=
85586,2011,09,05,12,00,AAXX 05124 85586 12960 01904 10054 20045 40269 54000 69904 333 20042 31/// 50130 55107=
85586,2011,09,05,15,00,AAXX 05154 85586 42960 01610 10130 20063 40269 54002=
85586,2011,09,05,18,00,AAXX 05184 85586 12960 02211 10148 20067 40236 57032 60001=
85586,2011,09,05,21,00,AAXX 05214 85586 42960 02110 10126 20082 40222 57014=
85586,2011,09,06,00,00,AAXX 06004 85586 12960 22204 10100 20070 40226 52004 60001 80001 333 10166 56006 82075=
85586,2011,09,06,03,00,AAXX 06034 85586 NIL=
85586,2011,09,06,06,00,AAXX 06064 85586 NIL=
85586,2011,09,06,09,00,AAXX 06094 85586 NIL=
85586,2011,09,06,12,00,AAXX 06124 85586 12960 31503 10036 20026 40213 52012 60004 80001 333 20036 31/// 50160 55104 56006 83075=
85586,2011,09,06,15,00,AAXX 06154 85586 42960 02108 10142 20064 40228 52025=
85586,2011,09,06,18,00,AAXX 06184 85586 12960 02713 10150 20078 40225 57003 60001=
85586,2011,09,06,21,00,AAXX 06214 85586 42960 02710 10138 20076 40216 57009=
85586,2011,09,07,00,00,AAXX 07004 85586 12960 00000 10084 20062 40229 52027 60001 333 10164=
85586,2011,09,07,03,00,AAXX 07034 85586 NIL=
85586,2011,09,07,06,00,AAXX 07064 85586 NIL=
85586,2011,09,07,09,00,AAXX 07094 85586 NIL=
85586,2011,09,07,12,00,AAXX 07124 85586 12960 10000 10018 20010 40239 52013 60004 80001 333 20008 31/// 50130 55093 56006 81075=
85586,2011,09,07,15,00,AAXX 07154 85586 42960 20204 10120 20061 40249 52010 80002 333 56006 82073=
85586,2011,09,07,18,00,AAXX 07184 85586 12560 22408 10138 20062 40245 58004 60001 81501 333 56606 81625=
85586,2011,09,07,21,00,AAXX 07214 85586 42560 12411 10126 20070 40248 53003 81100 333 56600 81817=
85586,2011,09,08,00,00,AAXX 08004 85586 12960 00000 10082 20064 40263 52015 60001 333 10140=
85586,2011,09,08,03,00,AAXX 08034 85586 NIL=
85586,2011,09,08,06,00,AAXX 08064 85586 NIL=
85586,2011,09,08,09,00,AAXX 08094 85586 NIL=
85586,2011,09,08,12,00,AAXX 08124 85586 11930 51006 10051 20042 40263 57003 69904 71011 83031 333 20030 31/// 50014 55102 56066 83365=
85586,2011,09,08,15,00,AAXX 08154 85586 41958 62704 10112 20084 40257 57004 70522 86050 333 56050 86362=
85586,2011,09,08,18,00,AAXX 08184 85586 12960 62308 10144 20067 40233 57024 60001 86030 333 56050 86362=
85586,2011,09,08,21,00,AAXX 08214 85586 42560 82005 10120 20092 40236 51003 885// 333 56599 88630=
85586,2011,09,09,00,00,AAXX 09004 85586 12956 80000 10115 20084 40239 53002 60001 70522 8802/ 333 10146 56069 88456=
85586,2011,09,09,03,00,AAXX 09034 85586 NIL=
85586,2011,09,09,06,00,AAXX 09064 85586 NIL=
85586,2011,09,09,09,00,AAXX 09094 85586 NIL=
85586,2011,09,09,12,00,AAXX 09124 85586 11960 80000 10114 20087 40232 51006 69904 84030 333 20094 31/// 50052 55012 56060 84358=
85586,2011,09,09,15,00,AAXX 09154 85586 42860 32304 10142 20069 40243 52013 83030 333 56050 83358=
85586,2011,09,09,18,00,AAXX 09184 85586 12560 52407 10152 20088 40129 57024 60001 85530 333 56550 84625 84358=
85586,2011,09,09,21,00,AAXX 09214 85586 41205 82105 10124 20113 40225 52005 74622 886// 333 56699 88704=
85586,2011,09,10,00,00,AAXX 10004 85586 NIL=
85586,2011,09,10,03,00,AAXX 10034 85586 NIL=
85586,2011,09,10,06,00,AAXX 10064 85586 NIL=
85586,2011,09,10,09,00,AAXX 10094 85586 NIL=
85586,2011,09,10,12,00,AAXX 10124 85586 12560 41506 10117 20090 40253 53006 60004 84500 333 20093 31/// 50120 55064 56700 84625=
85586,2011,09,10,15,00,AAXX 10154 85586 42960 51610 10173 20106 40261 51009 80001 333 56006 82075=
85586,2011,09,10,18,00,AAXX 10184 85586 12960 02312 10159 20099 40254 58007 60001=
85586,2011,09,10,21,00,AAXX 10214 85586 42960 02308 10149 20104 40246 56008=
85586,2011,09,11,00,00,AAXX 11004 85586 12956 00204 10114 20090 40256 53009 60001 70500 333 10191=
85586,2011,09,11,03,00,AAXX 11034 85586 NIL=
85586,2011,09,11,06,00,AAXX 11064 85586 NIL=
85586,2011,09,11,09,00,AAXX 11094 85586 NIL=
85586,2011,09,11,12,00,AAXX 11124 85586 12960 21803 10118 20090 40236 53004 60004 80001 333 20056 31/// 50160 55101 56006 82075=
85586,2011,09,11,15,00,AAXX 11154 85586 42960 11707 10204 20091 40239 52003 80002 333 56006 81075=
85586,2011,09,11,18,00,AAXX 11184 85586 12960 12407 10192 20084 40229 57010 60001 80002 333 56006 81075=
85586,2011,09,11,21,00,AAXX 11214 85586 42960 12410 10174 20083 40214 57015 80002 333 56006 81075=
85586,2011,09,12,00,00,AAXX 12004 85586 12960 00000 10120 20086 40223 53009 60001 333 10230=
85586,2011,09,12,03,00,AAXX 12034 85586 NIL=
85586,2011,09,12,06,00,AAXX 12064 85586 NIL=
85586,2011,09,12,09,00,AAXX 12094 85586 NIL=
85586,2011,09,12,12,00,AAXX 12124 85586 12960 01606 10114 20084 40208 56004 60004 333 20060 31/// 50180 55107=
85586,2011,09,12,15,00,AAXX 12154 85586 42960 01604 10190 20084 40188 57020=
85586,2011,09,12,18,00,AAXX 12184 85586 12960 01810 10230 20105 40173 57015 60001=
85586,2011,09,12,21,00,AAXX 12214 85586 42960 02110 10174 20108 40157 57016=
85586,2011,09,13,00,00,AAXX 13004 85586 12960 00000 10130 20104 40161 53004 60001 333 10240=
85586,2011,09,13,03,00,AAXX 13034 85586 NIL=
85586,2011,09,13,06,00,AAXX 13064 85586 NIL=
85586,2011,09,13,09,00,AAXX 13094 85586 NIL=
85586,2011,09,13,12,00,AAXX 13124 85586 12960 01902 10100 20081 40147 56003 60004 333 20084 31/// 50150 55108=
85586,2011,09,13,15,00,AAXX 13154 85586 42960 02407 10182 20096 40148 54002=
85586,2011,09,13,18,00,AAXX 13184 85586 12960 02406 10152 20085 40161 51003 60001=
85586,2011,09,13,21,00,AAXX 13214 85586 42960 02805 10155 20111 40167 52016=
85586,2011,09,14,00,00,AAXX 14004 85586 12960 03303 10106 20089 40171 53004 60001 333 10183=
85586,2011,09,14,03,00,AAXX 14034 85586 NIL=
85586,2011,09,14,06,00,AAXX 14064 85586 NIL=
85586,2011,09,14,09,00,AAXX 14094 85586 NIL=
85586,2011,09,14,12,00,AAXX 14124 85586 11330 80000 10108 20100 40181 53012 69904 71022 886// 333 20082 30/// 50190 55101 56799 88707=
85586,2011,09,14,15,00,AAXX 14154 85586 41320 82707 10110 20098 40202 52020 75022 886// 333 56699 88707=
85586,2011,09,14,18,00,AAXX 14184 85586 11457 83005 10120 20098 40224 52022 69921 70522 886// 333 56799 88712=
85586,2011,09,14,21,00,AAXX 14214 85586 41457 83005 10116 20084 40202 57022 70522 885// 333 56699 88617=
85586,2011,09,15,00,00,AAXX 15004 85586 12556 80000 10119 20086 40198 56004 60001 70522 885// 333 10124 56799 88620=
85586,2011,09,15,03,00,AAXX 15034 85586 NIL=
85586,2011,09,15,06,00,AAXX 15064 85586 NIL=
85586,2011,09,15,09,00,AAXX 15094 85586 NIL=
85586,2011,09,15,12,00,AAXX 15124 85586 11440 83304 10114 20081 40191 52014 69904 7102/ 885// 333 20110 31/// 50120 55000 56799 886012=
85586,2011,09,15,15,00,AAXX 15154 85586 41440 72610 10143 20089 40181 56009 70522 83501 333 56706 83615 84075=
85586,2011,09,15,18,00,AAXX 15184 85586 12958 03005 10152 20094 40182 51002 60001=
85586,2011,09,15,21,00,AAXX 15214 85586 41556 82706 10120 20100 40164 57028 70522 885// 333 56699 88620=
85586,2011,09,16,00,00,AAXX 16004 85586 12456 80000 10117 20082 40204 53048 60001 70522 885// 333 10154 56799 88615=
85586,2011,09,16,03,00,AAXX 16034 85586 NIL=
85586,2011,09,16,06,00,AAXX 16064 85586 NIL=
85586,2011,09,16,09,00,AAXX 16094 85586 NIL=
85586,2011,09,16,12,00,AAXX 16124 85586 11558 80000 10116 20087 40251 52022 60004 7052/ 885// 333 20104 31/// 50140 55060 56799 88625=
85586,2011,09,16,15,00,AAXX 16154 85586 41557 62208 10145 20095 40255 52036 70522 86500 333 56500 86625=
85586,2011,09,16,18,00,AAXX 16184 85586 12460 32012 10181 20085 40242 58012 60001 83100 333 56700 83815=
85586,2011,09,16,21,00,AAXX 16214 85586 42960 01912 10183 20078 40236 58005=
85586,2011,09,17,00,00,AAXX 17004 85586 12456 02304 10131 20057 40247 53009 60001 70500 333 10185=
85586,2011,09,17,03,00,AAXX 17034 85586 NIL=
85586,2011,09,17,06,00,AAXX 17064 85586 NIL=
85586,2011,09,17,09,00,AAXX 17094 85586 NIL=
85586,2011,09,17,12,00,AAXX 17124 85586 12960 31704 10070 20038 40204 56002 60004 80002 333 20044 31/// 50130 55079 56006 83075=
85586,2011,09,17,15,00,AAXX 17154 85586 42960 32107 10160 20054 40192 57012 80001 333 56006 83075=
85586,2011,09,17,18,00,AAXX 17184 85586 12960 32413 10136 20044 40183 57009 60001 80001 333 56006 83075=
85586,2011,09,17,21,00,AAXX 17214 85586 42960 52407 10132 20058 40182 56001 80001 333 56006 85075=
85586,2011,09,18,00,00,AAXX 18004 85586 12960 30403 10090 20068 40191 52009 60001 80001 333 10171 56006 83075=
85586,2011,09,18,03,00,AAXX 18034 85586 NIL=
85586,2011,09,18,06,00,AAXX 18064 85586 NIL=
85586,2011,09,18,09,00,AAXX 18094 85586 NIL=
85586,2011,09,18,12,00,AAXX 18124 85586 11440 80000 10090 20078 40214 52012 60004 71022 886// 333 20034 30/// 50180 55104 56099 88710=
85586,2011,09,18,15,00,AAXX 18154 85586 41440 80000 10110 20084 40223 52009 70522 885// 333 56099 83610 88613=
85586,2011,09,18,18,00,AAXX 18184 85586 11550 82404 10136 20076 40220 58003 60001 70522 885// 333 56099 88625=
85586,2011,09,18,21,00,AAXX 18214 85586 42457 72604 10126 20070 40223 53003 70522 87500 333 56600 87618=
85586,2011,09,19,00,00,AAXX 19004 85586 11457 80000 10110 20067 40229 53006 60001 70522 885// 333 10144 56099 88615=
85586,2011,09,19,06,00,AAXX 19064 85586 NIL=
85586,2011,09,19,09,00,AAXX 19094 85586 NIL=
85586,2011,09,19,12,00,AAXX 19124 85586 11440 81204 10094 20078 40228 53006 60004 70522 886// 333 20081 30/// 50070 55006 56099 88710=
85586,2011,09,19,15,00,AAXX 19154 85586 41457 81005 10114 20095 40224 57004 70522 885// 333 56099 88613=
85586,2011,09,19,18,00,AAXX 19184 85586 12960 01305 10174 20093 40201 57023 60001=
85586,2011,09,19,21,00,AAXX 19214 85586 42560 12310 10126 20092 40190 57011 81500 333 56600 81620=
85586,2011,09,20,00,00,AAXX 20004 85586 12960 00404 10104 20094 40195 53005 60001 333 10182=
85586,2011,09,20,03,00,AAXX 20034 85586 NIL=
85586,2011,09,20,06,00,AAXX 20064 85586 NIL=
85586,2011,09,20,09,00,AAXX 20094 85586 NIL=
85586,2011,09,20,12,00,AAXX 20124 85586 11106 81703 10093 20089 40193 53010 69904 74244 886// 333 20090 30/// 50230 55056 56099 88702=
85586,2011,09,20,15,00,AAXX 20154 85586 41210 82305 10104 20090 40202 52010 71022 886// 333 56599 88704=
85586,2011,09,20,18,00,AAXX 20184 85586 11430 82405 10114 20091 40183 57017 60001 71022 886// 333 56599 88712=
85586,2011,09,20,21,00,AAXX 20214 85586 41430 82805 10104 20083 40177 57006 71022 885// 333 56699 88610=
85586,2011,09,21,00,00,AAXX 21004 85586 12960 83306 10113 20091 40181 53003 60001 70522 885// 333 10126 56799 88612=
85586,2011,09,21,03,00,AAXX 21034 85586 NIL=
85586,2011,09,21,06,00,AAXX 21064 85586 NIL=
85586,2011,09,21,09,00,AAXX 21094 85586 NIL=
85586,2011,09,21,12,00,AAXX 21124 85586 11203 83504 10096 20087 40165 55000 60004 7464/ 886// 333 20093 31/// 50140 55000 56799 88704=
85586,2011,09,21,15,00,AAXX 21154 85586 41208 82704 10111 20098 40174 51009 74244 886// 333 56799 88706=
85586,2011,09,21,18,00,AAXX 21184 85586 11206 82306 10119 20108 40175 54000 69901 75044 886// 333 56799 88707=
85586,2011,09,21,21,00,AAXX 21214 85586 41340 83204 10124 20104 40174 54001 70544 886// 333 56799 88709=
85586,2011,09,22,00,00,AAXX 22004 85586 11320 82404 10114 20105 40194 52019 69921 71044 886// 333 10126 56799 88608=
85586,2011,09,22,03,00,AAXX 22034 85586 NIL=
85586,2011,09,22,06,00,AAXX 22064 85586 NIL=
85586,2011,09,22,09,00,AAXX 22094 85586 NIL=
85586,2011,09,22,12,00,AAXX 22124 85586 11558 81404 10112 20095 40222 52026 60024 7052/ 886// 333 20103 31/// 50110 55000 56799 70017 88625=
85586,2011,09,22,15,00,AAXX 22154 85586 42460 72705 10140 20110 40248 52016 87500 333 56600 87615=
85586,2011,09,22,18,00,AAXX 22184 85586 12560 31807 10150 20092 40231 57014 60001 83500 333 56500 83620=
85586,2011,09,22,21,00,AAXX 22214 85586 42960 02308 10140 20069 40214 57016=
85586,2011,09,23,00,00,AAXX 23004 85586 11958 31704 10103 20065 40227 53012 60001 70500 80001 333 10152 56006 83075=
85586,2011,09,23,03,00,AAXX 23034 85586 NIL=
85586,2011,09,23,06,00,AAXX 23064 85586 NIL=
85586,2011,09,23,09,00,AAXX 23094 85586 NIL=
85586,2011,09,23,12,00,AAXX 23124 85586 12960 51802 10066 20056 40212 53010 60004 80001 333 20034 30/// 50130 55068 56006 85075=
85586,2011,09,23,15,00,AAXX 23154 85586 41958 32206 10162 20104 40212 54000 70500 80001 333 56005 83073=
85586,2011,09,23,18,00,AAXX 23184 85586 11958 52407 10155 20095 40199 57010 60001 70500 85030 333 56050 85362=
85586,2011,09,23,21,00,AAXX 23214 85586 42560 22706 10130 20102 40180 57021 82500 333 56600 82620=
85586,2011,09,24,00,00,AAXX 24004 85586 12460 33103 10116 20099 40194 53003 60001 81602 333 10166 56606 81710 83075=
85586,2011,09,24,03,00,AAXX 24034 85586 NIL=
85586,2011,09,24,06,00,AAXX 24064 85586 NIL=
85586,2011,09,24,09,00,AAXX 24094 85586 NIL=
85586,2011,09,24,12,00,AAXX 24124 85586 11201 81202 10090 20082 40194 56002 60004 7464/ 886// 333 20086 31/// 50160 55085 56099 88704=
85586,2011,09,24,15,00,AAXX 24154 85586 41240 32406 10144 20110 40190 57004 70544 83601 333 56606 83705=
85586,2011,09,24,18,00,AAXX 24184 85586 11958 32505 10154 20110 40181 57009 60001 80001 333 56006 83075=
85586,2011,09,24,21,00,AAXX 24214 85586 42960 62603 10172 20097 40169 57012 80002 333 56006 86075=
85586,2011,09,25,00,00,AAXX 25004 85586 12960 70304 10120 20099 40184 52016 60001 80003 333 10180 56006 87073=
85586,2011,09,25,03,00,AAXX 25034 85586 NIL=
85586,2011,09,25,06,00,AAXX 25064 85586 NIL=
85586,2011,09,25,09,00,AAXX 25094 85586 NIL=
85586,2011,09,25,12,00,AAXX 25124 85586 11905 70000 10084 20074 40190 52007 60004 7464/ 80002 333 20076 31/// 50150 55085 56006 87073=
85586,2011,09,25,15,00,AAXX 25154 85586 41956 73002 10150 20114 40194 52004 70542 80002 333 56006 87072=
85586,2011,09,25,18,00,AAXX 25184 85586 11956 72804 10204 20118 40184 58010 60001 80002 333 56006 87070=
85586,2011,09,25,21,00,AAXX 25214 85586 42960 42405 10183 20102 40177 57007 80001 333 56006 84070=
85586,2011,09,26,00,00,AAXX 26004 85586 12960 00000 10130 20095 40188 52011 60001 333 10248=
85586,2011,09,26,03,00,AAXX 26034 85586 NIL=
85586,2011,09,26,06,00,AAXX 26064 85586 NIL=
85586,2011,09,26,15,00,AAXX 26154 85586 NIL=
85586,2011,09,26,21,00,AAXX 26214 85586 NIL=
85586,2011,09,27,09,00,AAXX 27094 85586 NIL=
85586,2011,09,27,12,00,AAXX 27124 85586 12960 70000 10103 20089 40166 53012 60004 80001 333 20058 30/// 50210 55078 56006 87075=
85586,2011,09,27,15,00,AAXX 27154 85586 42960 52706 10164 20096 40172 52009 80001 333 56006 85073=
85586,2011,09,27,18,00,AAXX 27184 85586 12960 22307 10190 20122 40177 52004 60001 333 80001 82073=
85586,2011,09,27,21,00,AAXX 27214 85586 42460 52805 10148 20112 40191 52019 85500 333 56600 85617=
85586,2011,09,28,00,00,AAXX 28004 85586 12956 02904 10124 20103 40176 58013 60001 70511 333 10192=
85586,2011,09,28,03,00,AAXX 28034 85586 NIL=
85586,2011,09,28,06,00,AAXX 28064 85586 NIL=
85586,2011,09,28,09,00,AAXX 28094 85586 NIL=
85586,2011,09,28,12,00,AAXX 28124 85586 12960 71004 10111 20089 40206 53013 60004 83031 333 20084 30/// 50220 55104 56066 82365 87075=
85586,2011,09,28,15,00,AAXX 28154 85586 42460 72606 10161 20097 40219 52013 82101 333 56706 82815 87075=
85586,2011,09,28,18,00,AAXX 28184 85586 12960 22409 10167 20099 40210 58009 60001 80001 333 56006 82075=
85586,2011,09,28,21,00,AAXX 28214 85586 42460 22609 10158 20118 40208 56002 82100 333 56700 82815=
85586,2011,09,29,00,00,AAXX 29004 85586 12956 00000 10133 20113 40212 53004 60001 70522 333 10178=
85586,2011,09,29,03,00,AAXX 29034 85586 NIL=
85586,2011,09,29,06,00,AAXX 29064 85586 NIL=
85586,2011,09,29,09,00,AAXX 29094 85586 NIL=
85586,2011,09,29,12,00,AAXX 29124 85586 12460 71403 10128 20113 40197 57007 69904 87600 333 20061 30/// 50180 55093 56600 87612=
85586,2011,09,29,15,00,AAXX 29154 85586 42960 01905 10190 20113 40191 56005=
85586,2011,09,29,18,00,AAXX 29184 85586 12960 02208 10205 20125 40154 57037 60001=
85586,2011,09,29,21,00,AAXX 29214 85586 42960 02207 10172 20112 40143 57011=
85586,2011,09,30,00,00,AAXX 30004 85586 11960 03003 10134 20106 40142 54001 60001 333 10212=
85586,2011,09,30,03,00,AAXX 30034 85586 NIL=
85586,2011,09,30,06,00,AAXX 30064 85586 NIL=
85586,2011,09,30,09,00,AAXX 30094 85586 NIL=
85586,2011,09,30,12,00,AAXX 30124 85586 12960 50703 10085 20071 40157 53011 69904 80001 333 20044 30/// 50260 55101 56006 85073=
85586,2011,09,30,15,00,AAXX 30154 85586 42960 02206 10162 20077 40162 52006=
85586,2011,09,30,18,00,AAXX 30184 85586 12960 02211 10148 20063 40165 51004 60001=
85586,2011,09,30,21,00,AAXX 30214 85586 42960 52408 10140 20096 40166 54000=
85586,2011,10,01,00,00,AAXX 01004 85586 12960 40000 10110 20091 40192 52025 69904 80001 333 10165 56006 84073=
85586,2011,10,01,03,00,AAXX 01034 85586 NIL=
85586,2011,10,01,06,00,AAXX 01064 85586 NIL=
85586,2011,10,01,09,00,AAXX 01094 85586 NIL=
85586,2011,10,01,12,00,AAXX 01124 85586 12960 00000 10077 20067 40207 52004 69904 333 20028 30/// 50290 55092=
85586,2011,10,01,15,00,AAXX 01154 85586 42960 02408 10165 20080 40205 56002=
85586,2011,10,01,18,00,AAXX 01184 85586 12960 02310 10160 20081 40194 57011 60001=
85586,2011,10,01,21,00,AAXX 01214 85586 42960 02511 10148 20083 40192 56002=
85586,2011,10,02,00,00,AAXX 02004 85586 12960 01803 10126 20081 40194 51002 60001 333 10170=
85586,2011,10,02,03,00,AAXX 02034 85586 NIL=
85586,2011,10,02,06,00,AAXX 02064 85586 NIL=
85586,2011,10,02,09,00,AAXX 02094 85586 NIL=
85586,2011,10,02,12,00,AAXX 02124 85586 12960 01104 10123 20084 40176 56014 60004 333 20034 30/// 50240 55110=
85586,2011,10,02,15,00,AAXX 02154 85586 42960 01307 10227 20095 40149 570254=
85586,2011,10,02,18,00,AAXX 02184 85586 12960 02311 10206 20072 40132 57017 60001=
85586,2011,10,02,21,00,AAXX 02214 85586 42960 02406 10162 20093 40120 56014=
85586,2011,10,03,00,00,AAXX 03004 85586 12956 00307 10126 20078 40129 5009 60001 70500 333 10253=
85586,2011,10,03,03,00,AAXX 03034 85586 NIL=
85586,2011,10,03,06,00,AAXX 03064 85586 NIL=
85586,2011,10,03,09,00,AAXX 03094 85586 NIL=
85586,2011,10,03,12,00,AAXX 03124 85586 12458 83606 10124 20087 40172 52024 60004 7052/ 333 20063 30/// 50190 55113 56899 88615=
85586,2011,10,03,15,00,AAXX 03154 85586 41458 83208 10138 20092 40190 52019 70522 885// 333 56799 88617=
85586,2011,10,03,18,00,AAXX 03184 85586 12560 42811 10172 20086 40185 57005 60001 84500 333 56600 84625=
85586,2011,10,03,21,00,AAXX 03214 85586 42560 63508 10140 20091 40192 52007 86500 333 56700 86620=
85586,2011,10,04,00,00,AAXX 04004 85586 12456 80000 10132 20087 40181 58012 60001 70522 885// 333 10176 56799 88615=
85586,2011,10,04,03,00,AAXX 04034 85586 NIL=
85586,2011,10,04,06,00,AAXX 04064 85586 NIL=
85586,2011,10,04,09,00,AAXX 04094 85586 NIL=
85586,2011,10,04,12,00,AAXX 04124 85586 12960 22304 10138 20099 40215 53013 60004 82030 333 20081 30/// 50220 55043 56060 83368=
85586,2011,10,04,15,00,AAXX 04154 85586 42860 53006 10152 20098 40225 52009 85030 333 56070 85358=
85586,2011,10,04,18,00,AAXX 04184 85586 12960 42208 10158 20064 40195 57028 60001 84030 333 56050 84360=
85586,2011,10,04,21,00,AAXX 04214 85586 42960 42208 10142 20073 40185 57010 84030 333 56050 84365=
85586,2011,10,05,00,00,AAXX 05004 85586 12956 50000 10108 20067 40193 53006 60001 70511 80001 333 10162 56006 85075=
85586,2011,10,05,03,00,AAXX 05034 85586 NIL=
85586,2011,10,05,06,00,AAXX 05064 85586 NIL=
85586,2011,10,05,09,00,AAXX 05094 85586 NIL=
85586,2011,10,05,12,00,AAXX 05124 85586 12960 70000 10080 20068 40171 57006 60004 87030 333 20060 30/// 50170 55090 56060 87368=
85586,2011,10,05,15,00,AAXX 05154 85586 42958 32705 10160 20103 40161 57010 81031 333 56066 81368 83075=
85586,2011,10,05,18,00,AAXX 05184 85586 12960 52409 10154 20108 401520 57009 60001 80001 333 56006 85075=
85586,2011,10,05,21,00,AAXX 05214 85586 42960 52510 10142 20106 40159 53007 80001 333 56006 85075=
85586,2011,10,06,00,00,AAXX 06004 85586 12960 73003 10110 20093 40176 52017 60001 80001 333 10164 56006 87075=
85586,2011,10,06,03,00,AAXX 06034 85586 NIL=
85586,2011,10,06,06,00,AAXX 06064 85586 NIL=
85586,2011,10,06,09,00,AAXX 06094 85586 NIL=
85586,2011,10,06,12,00,AAXX 06124 85586 12460 50905 10116 20082 40181 52004 60004 81501 333 20083 30/// 50180 55094 56606 81615 85075=
85586,2011,10,06,15,00,AAXX 06154 85586 42560 52307 10158 20098 40195 52015 85500 333 56500 85625=
85586,2011,10,06,18,00,AAXX 06184 85586 12560 62207 10164 20088 40197 51002 60001 86501 333 56505 83630 85073=
85586,2011,10,06,21,00,AAXX 06214 85586 42460 72305 10142 20108 40204 52005 87500 333 56500 87612=
85586,2011,10,07,00,00,AAXX 07004 85586 12560 32404 10120 20094 40206 53003 60001 81501 333 10176 56606 81630 83075=
85586,2011,10,07,03,00,AAXX 07034 85586 NIL=
85586,2011,10,07,06,00,AAXX 07064 85586 NIL=
85586,2011,10,07,09,00,AAXX 07094 85586 NIL=
85586,2011,10,07,12,00,AAXX 07124 85586 12560 50000 10076 20060 40213 52004 60004 84530 333 20050 30/// 55036 56660 84625=
85586,2011,10,07,15,00,AAXX 07154 85586 42560 32806 10143 20056 40220 52006 83100 333 56600 83820=
85586,2011,10,07,18,00,AAXX 07184 85586 12560 22010 10150 20070 40224 53004 60001 82100 333 56500 82825=
85586,2011,10,07,21,00,AAXX 07214 85586 42960 02311 10140 20075 40216 56007=
85586,2011,10,08,00,00,AAXX 08004 85586 12960 02208 10104 20059 40222 52006 60001 333 10158=
85586,2011,10,08,03,00,AAXX 08034 85586 NIL=
85586,2011,10,08,06,00,AAXX 08064 85586 NIL=
85586,2011,10,08,09,00,AAXX 08094 85586 NIL=
85586,2011,10,08,12,00,AAXX 08124 85586 12960 81006 10095 20063 40243 52022 60004 333 20017 30/// 50220 55096=
85586,2011,10,08,15,00,AAXX 08154 85586 42460 12608 10148 20069 40247 51006 81100 333 56700 81815=
85586,2011,10,08,18,00,AAXX 08184 85586 12460 12412 10144 20058 40243 58004 60001 81100 333 56700 81815=
85586,2011,10,08,21,00,AAXX 08214 85586 42960 02312 10141 20077 40225 57018=
85586,2011,10,09,00,00,AAXX 09004 85586 12958 00000 10102 20057 40223 58002 60001 333 10151=
85586,2011,10,09,03,00,AAXX 09034 85586 NIL=
85586,2011,10,09,06,00,AAXX 09064 85586 NIL=
85586,2011,10,09,09,00,AAXX 09094 85586 NIL=
85586,2011,10,09,12,00,AAXX 09124 85586 12960 00000 10086 20062 40188 55000 60004 333 20019 30/// 50180 55111=
85586,2011,10,09,15,00,AAXX 09154 85586 42960 02410 10151 20079 40182 56005=
85586,2011,10,09,18,00,AAXX 09184 85586 12960 02315 10157 20082 40162 57020 60001=
85586,2011,10,09,21,00,AAXX 09214 85586 42960 02315 10143 20084 40157 56005=
85586,2011,10,10,00,00,AAXX 10004 85586 12958 02105 10104 20082 40177 53018 60001 333 10159=
85586,2011,10,10,03,00,AAXX 10034 85586 NIL=
85586,2011,10,10,06,00,AAXX 10064 85586 NIL=
85586,2011,10,10,09,00,AAXX 10094 85586 NIL=
85586,2011,10,10,12,00,AAXX 10124 85586 12960 80000 10103 20065 40209 52023 60004 80001 333 20054 30/// 50260 55114 87075=
85586,2011,10,10,15,00,AAXX 10154 85586 42960 73306 10144 20073 40209 53002 81130 333 56760 81815 87362=
85586,2011,10,10,18,00,AAXX 10184 85586 12460 62409 10151 20077 40208 54001 60001 81130 333 56760 81815 86362=
85586,2011,10,10,21,00,AAXX 10214 85586 42960 22414 10136 20090 40201 58007 80001 333 56006 82075=
85586,2011,10,11,00,00,AAXX 11004 85586 12958 00000 10104 20062 40204 53002 60001 70500 333 10153=
85586,2011,10,11,03,00,AAXX 11034 85586 NIL=
85586,2011,10,11,06,00,AAXX 11064 85586 NIL=
85586,2011,10,11,09,00,AAXX 11094 85586 NIL=
85586,2011,10,11,12,00,AAXX 11124 85586 11458 40602 10090 20074 40192 52012 60004 70511 81530 333 20045 30/// 50190 55099 56660 81615 84363=
85586,2011,10,11,15,00,AAXX 11154 85586 41457 52406 10126 20063 40193 51002 70522 85500 333 56500 85617=
85586,2011,10,11,18,00,AAXX 11184 85586 12460 62506 10128 20023 40208 52013 60001 86500 333 56500 86615=
85586,2011,10,11,21,00,AAXX 11214 85586 42560 32707 10134 20031 40201 56006 83500 333 56600 83630=
85586,2011,10,12,00,00,AAXX 1200/ 85586 12960 00000 10106 20082 40235 53007 60004 333 20042 30/// 50260 55094=
85586,2011,10,12,03,00,AAXX 12034 85586 NIL=
85586,2011,10,12,06,00,AAXX 12064 85586 NIL=
85586,2011,10,12,09,00,AAXX 12094 85586 NIL=
85586,2011,10,12,12,00,AAXX 12124 85586 12560 60804 10096 20031 40205 52006 60004 86500 333 20026 30/// 50130 55026 56600 86620=
85586,2011,10,12,15,00,AAXX 12154 85586 42560 62710 10134 20057 40202 51004 86500 333 56600 86625=
85586,2011,10,12,18,00,AAXX 12184 85586 12560 22207 10140 20034 40206 56003 60001 82100 333 56500 82825=
85586,2011,10,12,21,00,AAXX 12214 85586 42960 42205 10136 20052 40192 57013 80001 333 56005 84070=
85586,2011,10,13,00,00,AAXX 13004 85586 12960 50000 10096 20054 40193 54000 60001 80001 333 10146 56006 85075=
85586,2011,10,13,03,00,AAXX 13034 85586 NIL=
85586,2011,10,13,06,00,AAXX 13064 85586 NIL=
85586,2011,10,13,09,00,AAXX 13094 85586 NIL=
85586,2011,10,13,12,00,AAXX 13124 85586 12960 71004 10106 20047 40175 52007 60004 85031 333 20068 30/// 50120 55056 85362 83075=
85586,2011,10,13,15,00,AAXX 13154 85586 42960 42406 10150 20040 40192 52017 84030 333 56050 84360=
85586,2011,10,13,18,00,AAXX 13184 85586 12960 52211 10150 20040 40164 57027 60001 85031 333 56055 83360=
85586,2011,10,13,21,00,AAXX 13214 85586 42960 42308 10136 20063 40174 52009 84030 333 56050 84362=
85586,2011,10,14,00,00,AAXX 14004 85586 12960 32604 10110 20076 40180 53006 60001 83030 333 10154 56060 83362=
85586,2011,10,14,03,00,AAXX 14034 85586 NIL=
85586,2011,10,14,06,00,AAXX 14064 85586 NIL=
85586,2011,10,14,09,00,AAXX 14094 85586 NIL=
85586,2011,10,14,12,00,AAXX 14124 85586 12960 50204 10121 20077 40223 52028 60004 85030 333 20068 30/// 50180 55064 85365=
85586,2011,10,14,15,00,AAXX 14154 85586 42960 52705 10150 20069 40234 52011 85030 333 56060 85365=
85586,2011,10,14,18,00,AAXX 14184 85586 12960 02710 10170 20061 40249 52016 60001=
85586,2011,10,14,21,00,AAXX 14214 85586 42960 03006 10150 20083 40254 52005=
85586,2011,10,15,00,00,AAXX 15004 85586 12956 00000 10114 20087 40266 51011 60001 70500 333 10172=
85586,2011,10,15,03,00,AAXX 15034 85586 NIL=
85586,2011,10,15,06,00,AAXX 15064 85586 NIL=
85586,2011,10,15,09,00,AAXX 15094 85586 NIL=
85586,2011,10,15,12,00,AAXX 15124 85586 12960 00000 10106 20082 40235 53007 60004 333 20042 30/// 50260 55094=
85586,2011,10,15,15,00,AAXX 15154 85586 42960 02411 10156 20092 40230 58004=
85586,2011,10,15,18,00,AAXX 15184 85586 12960 02315 10161 20094 40220 56010 60001=
85586,2011,10,15,21,00,AAXX 15214 85586 42960 02316 10151 20095 40212 56008=
85586,2011,10,16,00,00,AAXX 16004 85586 12958 02004 10113 20085 40217 53004 60001 70500 333 10164=
85586,2011,10,16,03,00,AAXX 16034 85586 NIL=
85586,2011,10,16,06,00,AAXX 16064 85586 NIL=
85586,2011,10,16,09,00,AAXX 16094 85586 NIL=
85586,2011,10,16,12,00,AAXX 16124 85586 12960 01906 10117 20073 40206 53007 60004 333 20041 30/// 50280 55120=
85586,2011,10,16,15,00,AAXX 16154 85586 42960 32411 10161 20094 40197 58007 80001 333 56006 83075=
85586,2011,10,16,18,00,AAXX 16184 85586 12960 12315 10171 20097 40183 57014 60001 80001 333 56006 81075=
85586,2011,10,16,21,00,AAXX 16214 85586 42960 02307 10164 20094 40175 56008=
85586,2011,10,17,00,00,AAXX 17004 85586 12958 00204 10124 20085 40173 53002 60001 70500 333 10185=
85586,2011,10,17,03,00,AAXX 17034 85586 NIL=
85586,2011,10,17,06,00,AAXX 17064 85586 NIL=
85586,2011,10,17,09,00,AAXX 17094 85586 NIL=
85586,2011,10,17,12,00,AAXX 17124 85586 12560 60000 10100 20083 40194 52013 60004 81531 333 20054 30/// 50190 55120 56066 81620 83363=
85586,2011,10,17,15,00,AAXX 17154 85586 42560 52806 10152 20054 40198 52005 85530 333 56660 85360=
85586,2011,10,17,18,00,AAXX 17184 85586 12960 52310 10162 20052 40203 51003 60001 85030 333 56060 85362=
85586,2011,10,17,21,00,AAXX 17214 85586 42960 62206 10142 20086 40202 54000 86030 333 56050 86362=
85586,2011,10,18,00,00,AAXX 18004 85586 12560 33604 10116 20087 40208 52006 60001 83530 333 10166 56860 38620 85360=
85586,2011,10,18,03,00,AAXX 18034 85586 NIL=
85586,2011,10,18,06,00,AAXX 18064 85586 NIL=
85586,2011,10,18,09,00,AAXX 18094 85586 NIL=
85586,2011,10,18,12,00,AAXX 18124 85586 12960 10000 10120 20076 40217 52008 60004 80001 333 20060 30/// 50140 55058 56006 81075=
85586,2011,10,18,15,00,AAXX 18154 85586 42960 02706 10162 20070 40221 51004=
85586,2011,10,18,18,00,AAXX 18184 85586 12960 02007 10170 20054 40231 52010 60001=
85586,2011,10,18,21,00,AAXX 18214 85586 42960 02708 10154 20074 40213 57018=
85586,2011,10,19,00,00,AAXX 19004 85586 12960 00404 10120 20090 40229 52016 60001 333 10172=
85586,2011,10,19,03,00,AAXX 19034 85586 NIL=
85586,2011,10,19,06,00,AAXX 19064 85586 NIL=
85586,2011,10,19,09,00,AAXX 19094 85586 NIL=
85586,2011,10,19,12,00,AAXX 19124 85586 12960 00603 10114 20087 40215 56002 60004 333 20062 30/// 50170 55111=
85586,2011,10,19,15,00,AAXX 19154 85586 42960 02605 10156 20092 40211 57004=
85586,2011,10,19,18,00,AAXX 19184 85586 12960 02406 10170 20096 40202 57009 60001=
85586,2011,10,19,21,00,AAXX 19214 85586 42960 02404 10168 20086 40191 55011=
85586,2011,10,20,00,00,AAXX 20004 85586 12960 00404 10120 20090 40198 52007 60001 333 10174=
85586,2011,10,20,03,00,AAXX 20034 85586 NIL=
85586,2011,10,20,06,00,AAXX 20064 85586 NIL=
85586,2011,10,20,09,00,AAXX 20094 85586 NIL=
85586,2011,10,20,12,00,AAXX 20124 85586 12240 20000 10113 20096 40191 53012 60004 7100/ 82600 333 20055 30/// 50240 55115 56700 82704=
85586,2011,10,20,15,00,AAXX 20154 85586 42208 72807 10136 20102 40192 53002 74611 87600 333 56700 87704=
85586,2011,10,20,18,00,AAXX 20184 85586 12460 22608 10158 20110 40192 54000 60001 70144 82100 333 56700 82815=
85586,2011,10,20,21,00,AAXX 20214 85586 42460 82914 10143 20092 40182 58010 885// 333 56799 88615=
85586,2011,10,21,00,00,AAXX 21004 85586 12256 80108 10124 20105 40187 53005 60001 70522 886// 333 10165 56799 88607=
85586,2011,10,21,06,00,AAXX 21064 85586 NIL=
85586,2011,10,21,09,00,AAXX 21094 85586 NIL=
85586,2011,10,21,12,00,AAXX 21124 85586 12358 80904 10121 20088 40200 52013 60004 7052/ 886// 333 20108 30/// 50220 55082 56799 88709=
85586,2011,10,21,15,00,AAXX 21154 85586 42258 22508 10151 20106 40200 55000 70522 82600 333 56700 82704=
85586,2011,10,21,18,00,AAXX 21184 85586 12320 82608 10136 20109 40189 58011 60001 71022 886// 333 56799 88707=
85586,2011,10,21,21,00,AAXX 21214 85586 42960 32805 10171 20103 40174 56014 80001 333 56006 83075=
85586,2011,10,22,00,00,AAXX 22004 85586 12958 00306 10123 20087 40187 53012 60001 70500 333 10173=
85586,2011,10,22,03,00,AAXX 22034 85586 NIL=
85586,2011,10,22,06,00,AAXX 22064 85586 NIL=
85586,2011,10,22,09,00,AAXX 22094 85586 NIL=
85586,2011,10,22,12,00,AAXX 22124 85586 12960 12304 10114 20087 40181 51011 60004 81030 333 20059 30/// 50240 55076 56060 81365=
85586,2011,10,22,15,00,AAXX 22154 85586 42258 12807 10146 20097 40185 53005 70500 81600 333 56700 81704=
85586,2011,10,22,18,00,AAXX 22184 85586 12960 02709 10154 20071 40182 58003 60001=
85586,2011,10,22,21,00,AAXX 22214 85586 42960 02808 10147 20082 40178 56004=
85586,2011,10,23,00,00,AAXX 23004 85586 12958 03404 10114 20076 401184 53006 60001 70500 333 10162=
85586,2011,10,23,03,00,AAXX 23034 85586 NIL=
85586,2011,10,23,06,00,AAXX 23064 85586 NIL=
85586,2011,10,23,09,00,AAXX 23094 85586 NIL=
85586,2011,10,23,12,00,AAXX 23124 85586 12450 83303 10106 20082 40187 53006 60004 7052/ 885// 333 20064 30/// 50190 55118 56099 88617=
85586,2011,10,23,15,00,AAXX 23154 85586 41456 72908 10134 20069 40203 52016 70522 87500 333 56600 87618=
85586,2011,10,23,18,00,AAXX 23184 85586 12560 12407 10150 20064 40200 58003 60001 81500 333 56600 81630=
85586,2011,10,23,21,00,AAXX 23214 85586 42960 02806 10140 20063 40194 56006=
85586,2011,10,24,00,00,AAXX 24004 85586 12560 42803 10118 20076 40204 52010 60001 83501 333 10152 56606 83625 83075=
85586,2011,10,24,03,00,AAXX 24034 85586 NIL=
85586,2011,10,24,06,00,AAXX 24064 85586 NIL=
85586,2011,10,24,09,00,AAXX 24094 85586 NIL=
85586,2011,10,24,12,00,AAXX 24124 85586 12660 11003 10138 20074 40241 51009 60004 81500 333 20092 30/// 50160 55075 56600 81640=
85586,2011,10,24,15,00,AAXX 24154 85586 42560 32308 10154 20071 40246 52005 83500 333 56600 83626=
85586,2011,10,24,18,00,AAXX 24184 85586 12960 02311 10150 20070 40234 58012 60001=
85586,2011,10,24,21,00,AAXX 24214 85586 42960 02308 10152 20068 40224 57010=
85586,2011,10,25,00,00,AAXX 25004 85586 12960 02306 10104 20081 40232 52008 60001 333 10162=
85586,2011,10,25,03,00,AAXX 25034 85586 NIL=
85586,2011,10,25,06,00,AAXX 25064 85586 NIL=
85586,2011,10,25,09,00,AAXX 25094 85586 NIL=
85586,2011,10,25,12,00,AAXX 25124 85586 12960 01004 10120 20083 40190 56006 60004 333 20046 30/// 50220 55115=
85586,2011,10,25,15,00,AAXX 25154 85586 42960 02211 10150 20084 40187 57004=
85586,2011,10,25,18,00,AAXX 25184 85586 12960 02309 10168 20086 40176 57011 60001=
85586,2011,10,25,21,00,AAXX 25214 85586 42960 02308 101620 20070 40157 57019=
85586,2011,10,26,00,00,AAXX 26004 85586 12960 00000 10120 20070 40168 52011 60001 333 10174=
85586,2011,10,26,03,00,AAXX 26034 85586 NIL=
85586,2011,10,26,06,00,AAXX 26064 85586 NIL=
85586,2011,10,26,09,00,AAXX 26094 85586 NIL=
85586,2011,10,26,12,00,AAXX 26124 85586 12460 70303 10108 20085 40163 54000 60004 87600 333 20090 30/// 50240 55116 56700 87712=
85586,2011,10,26,15,00,AAXX 26154 85586 42960 02507 10138 20073 40161 56002=
85586,2011,10,26,18,00,AAXX 26184 85586 12460 42308 10140 20084 40153 57007 60001 84500 333 56500 84617=
85586,2011,10,26,21,00,AAXX 26214 85586 41457 82307 10108 20082 40150 56003 70522 885// 333 56599 88610=
85586,2011,10,27,00,00,AAXX 27004 85586 12456 83505 10117 20091 40159 53008 60001 70522 885// 333 10152 56799 88610=
85586,2011,10,27,03,00,AAXX 27034 85586 NIL=
85586,2011,10,27,06,00,AAXX 27064 85586 NIL=
85586,2011,10,27,09,00,AAXX 27094 85586 NIL=
85586,2011,10,27,12,00,AAXX 27124 85586 12458 83604 10114 20073 40172 52022 60004 7052/ 885// 333 20097 30/// 50240 55071 56799 88612=
85586,2011,10,27,15,00,AAXX 27154 85586 42960 62508 10133 20084 40185 52013 70522 86500 333 56700 86617=
85586,2011,10,27,18,00,AAXX 27184 85586 12960 02208 10150 20056 40197 51002 60001=
85586,2011,10,27,21,00,AAXX 27214 85586 42960 02507 10150 20062 40174 57023=
85586,2011,10,28,00,00,AAXX 28004 85586 12958 00000 10108 20069 40173 55001 60001 70500 333 10152=
85586,2011,10,28,03,00,AAXX 28034 85586 NIL=
85586,2011,10,28,06,00,AAXX 28064 85586 NIL=
85586,2011,10,28,09,00,AAXX 28094 85586 NIL=
85586,2011,10,28,12,00,AAXX 28124 85586 12960 00000 10116 20073 40178 51007 60004 333 20018 30/// 50260 55084=
85586,2011,10,28,15,00,AAXX 28154 85586 42960 02010 10174 20088 40179 54001=
85586,2011,10,28,18,00,AAXX 28184 85586 12960 02213 10152 20098 40174 57005 60001=
85586,2011,10,28,21,00,AAXX 28214 85586 42960 02111 10150 20110 40164 57010=
85586,2011,10,29,00,00,AAXX 29004 85586 12960 02404 10133 20074 40178 53014 60001 333 10176=
85586,2011,10,29,03,00,AAXX 29034 85586 NIL=
85586,2011,10,29,06,00,AAXX 29064 85586 NIL=
85586,2011,10,29,09,00,AAXX 29094 85586 NIL=
85586,2011,10,29,12,00,AAXX 29124 85586 12960 01205 10128 20062 40190 52004 60004 333 20040 30/// 50220 55112=
85586,2011,10,29,15,00,AAXX 29154 85586 42960 02310 10170 20062 40189 56001=
85586,2011,10,29,18,00,AAXX 29184 85586 12960 02315 10160 20066 40171 57018 60001=
85586,2011,10,29,21,00,AAXX 29214 85586 42960 02112 10182 20074 40159 57012=
85586,2011,10,30,00,00,AAXX 30004 85586 12960 01803 10130 20077 40164 52005 60001 333 10184=
85586,2011,10,30,06,00,AAXX 30064 85586 NIL=
85586,2011,10,30,09,00,AAXX 30094 85586 NIL=
85586,2011,10,30,12,00,AAXX 30124 85586 11115 12403 10104 20094 40161 54000 60004 74140 81600 333 20050 30/// 50230 55118 56500 81702=
85586,2011,10,30,15,00,AAXX 30154 85586 41220 62705 10124 20102 40161 51002 71022 86600 333 56600 86704=
85586,2011,10,30,18,00,AAXX 30184 85586 11430 42408 10150 20092 40155 57005 60001 71022 84500 333 56500 84613=
85586,2011,10,30,21,00,AAXX 30214 85586 41450 52605 10142 20096 40158 53002 70522 85500 333 56600 85613=
85586,2011,10,31,00,00,AAXX 31004 85586 11450 72903 10120 20093 40163 52005 60001 70522 87500 333 10154 56600 87613=
85586,2011,10,31,06,00,AAXX 31064 85586 NIL=
85586,2011,10,31,09,00,AAXX 31094 85586 NIL=
85586,2011,10,31,12,00,AAXX 31124 85586 11440 80000 10108 20077 40158 56002 60004 7052/ 886// 333 20104 30/// 50160 55045 56099 88713=
85586,2011,10,31,15,00,AAXX 31154 85586 41450 82604 10122 20078 40168 52011 70522 885// 333 56099 88617=
85586,2011,10,31,18,00,AAXX 31184 85586 11450 82907 10140 20074 40170 51002 60001 70522 885// 333 56099 88617=
85586,2011,10,31,21,00,AAXX 31214 85586 41450 82805 10134 20075 40172 51002 70522 885// 333 56099 88617=
85586,2011,11,01,00,00,AAXX 01004 85586 12450 82802 10120 20072 40169 58003 60001 70522 885// 333 10142 56099 88613=
85586,2011,11,01,03,00,AAXX 01034 85586 NIL=
85586,2011,11,01,06,00,AAXX 01064 85586 NIL=
85586,2011,11,01,09,00,AAXX 01094 85586 NIL=
85586,2011,11,01,12,00,AAXX 01124 85586 12330 81104 10121 20086 40193 52024 60004 7052/ 886// 333 20117 30/// 50240 55000 56799 88707=
85586,2011,11,01,15,00,AAXX 01154 85586 41440 82307 10146 20066 40205 52014 70522 885// 333 56799 88612=
85586,2011,11,01,18,00,AAXX 01184 85586 11458 12611 10166 20047 40208 53002 60001 70500 81500 333 56700 81615=
85586,2011,11,01,21,00,AAXX 01214 85586 41958 02411 10156 20082 40199 58009 70500=
85586,2011,11,02,00,00,AAXX 02004 85586 12956 02304 10121 20080 40193 56006 60001 70500 333 10175=
85586,2011,11,02,03,00,AAXX 02034 85586 NIL=
85586,2011,11,02,06,00,AAXX 02064 85586 NIL=
85586,2011,11,02,09,00,AAXX 02094 85586 NIL=
85586,2011,11,02,12,00,AAXX 02124 85586 12958 60000 10127 20088 40175 51006 60004 7051/ 80001 333 20043 30/// 50240 55066 56006 86075=
85586,2011,11,02,15,00,AAXX 02154 85586 41958 42312 10158 20091 40176 53002 70511 80001 333 56006 84075=
85586,2011,11,02,18,00,AAXX 02184 85586 11960 02315 10171 20093 40176 55000 60001=
85586,2011,11,02,21,00,AAXX 02214 85586 41960 02411 10162 20097 40176 58001=
85586,2011,11,03,00,00,AAXX 03004 85586 12958 00406 10122 20089 40176 55000 60001 70500 333 10173=
85586,2011,11,03,06,00,AAXX 03064 85586 NIL=
85586,2011,11,03,09,00,AAXX 03094 85586 NIL=
85586,2011,11,03,12,00,AAXX 03124 85586 12958 50000 10128 20097 40168 53012 60004 7051/ 80001 333 20041 30/// 50280 55119 56006 85075=
85586,2011,11,03,15,00,AAXX 03154 85586 42960 52807 10155 20086 40178 52011 80001 333 56006 85073=
85586,2011,11,03,18,00,AAXX 03184 85586 12960 02215 10170 20090 40180 51004 60001 80001 333 56006 83075=
85586,2011,11,03,21,00,AAXX 03214 85586 42960 02111 10140 20100 40189 52010=
85586,2011,11,04,00,00,AAXX 04004 85586 12958 01904 10121 20093 40190 55000 60001 70500 333 10172=
85586,2011,11,04,06,00,AAXX 04064 85586 NIL=
85586,2011,11,04,09,00,AAXX 04094 85586 NIL=
85586,2011,11,04,12,00,AAXX 04124 85586 11208 50000 10094 20083 40193 52003 60004 7464/ 85601 333 20046 30/// 50220 55119 56606 85706 85075=
85586,2011,11,04,15,00,AAXX 04154 85586 42960 02406 10160 20080 40189 56004 80001 333 56006 83073=
85586,2011,11,04,18,00,AAXX 04184 85586 12960 02012 10154 20087 40194 57005 60001=
85586,2011,11,04,21,00,AAXX 04214 85586 42960 01912 10144 20088 40183 57011=
85586,2011,11,05,00,00,AAXX 05004 85586 12960 10305 10124 20096 40182 56001 60001 80001 333 10172 56006 81075=
85586,2011,11,05,03,00,AAXX 05034 85586 NIL=
85586,2011,11,05,06,00,AAXX 05064 85586 NIL=
85586,2011,11,05,09,00,AAXX 05094 85586 NIL=
85586,2011,11,05,12,00,AAXX 05124 85586 11450 10000 10106 20089 40174 52004 60004 7052/ 81600 333 20050 30/// 50240 55116 56600 81710=
85586,2011,11,05,15,00,AAXX 05154 85586 42960 02405 10162 20083 40169 58005=
85586,2011,11,05,18,00,AAXX 05184 85586 12960 02410 10170 20089 40160 57013 60001=
85586,2011,11,05,21,00,AAXX 05214 85586 42960 02406 10186 20076 40136 57023=
85586,2011,11,06,00,00,AAXX 06004 85586 12960 10303 10130 20078 40136 54000 60001 80001 333 10206 56006 81075=
85586,2011,11,06,03,00,AAXX 06034 85586 NIL=
85586,2011,11,06,06,00,AAXX 06064 85586 NIL=
85586,2011,11,06,09,00,AAXX 06094 85586 NIL=
85586,2011,11,06,12,00,AAXX 06124 85586 12960 50000 10132 20093 40134 52012 60004 80001 333 20076 30/// 50240 55112 56006 85075=
85586,2011,11,06,15,00,AAXX 06154 85586 41457 72908 10156 20110 40151 52016 70522 84601 333 56606 84613 85075=
85586,2011,11,06,18,00,AAXX 06184 85586 12960 22708 10164 20102 40158 52007 60001 80002 333 56006 82073=
85586,2011,11,06,21,00,AAXX 06214 85586 42960 22806 10160 20093 40155 58003 80001 333 56006 82073=
85586,2011,11,07,00,00,AAXX 07004 85586 12560 73304 10128 20103 40164 52009 60001 87500 333 10184 56600 87620=
85586,2011,11,07,06,00,AAXX 07064 85586 NIL=
85586,2011,11,07,09,00,AAXX 07094 85586 NIL=
85586,2011,11,07,12,00,AAXX 07124 85586 11330 80000 10104 20098 40160 53003 60004 71022 886// 333 20090 30/// 50300 55101 56799 88708=
85586,2011,11,07,15,00,AAXX 07154 85586 42960 62706 10144 20114 40159 54001 86031 333 56066 85362 83073=
85586,2011,11,07,18,00,AAXX 07184 85586 12960 53205 10154 20087 40160 54001 60001 85030 333 56070 85362=
85586,2011,11,07,21,00,AAXX 07214 85586 41356 82705 10130 20112 40160 54001 70522 886// 333 56699 88707=
85586,2011,11,08,00,00,AAXX 08004 85586 12220 83304 10127 20112 40167 53007 60001 71022 886// 333 10156 56799 88706=
85586,2011,11,08,03,00,AAXX 08034 85586 NIL=
85586,2011,11,08,06,00,AAXX 08064 85586 NIL=
85586,2011,11,08,09,00,AAXX 08094 85586 NIL=
85586,2011,11,08,12,00,AAXX 08124 85586 11340 83406 10129 20107 40153 52020 60004 7052/ 886// 333 20103 30/// 50280 55024 56799 88708=
85586,2011,11,08,15,00,AAXX 08154 85586 42460 82805 10140 20100 40176 52022 886// 333 56699 88710=
85586,2011,11,08,18,00,AAXX 08184 85586 12560 73010 10158 20090 40191 52015 60001 87530 333 56770 83620 86358=
85586,2011,11,08,21,00,AAXX 08214 85586 42560 43008 10157 20094 40190 54001 84501 333 56707 83620=
85586,2011,11,09,00,00,AAXX 09004 85586 12960 43105 10143 20109 40190 53001 60001 84030 333 10162 56060 84362=
85586,2011,11,09,06,00,AAXX 09064 85586 NIL=
85586,2011,11,09,09,00,AAXX 09094 85586 NIL=
85586,2011,11,09,12,00,AAXX 09124 85586 11460 51708 10143 20105 40241 52026 60024 85100 333 20089 31/// 50280 55046 56700 70019 85815=
85586,2011,11,09,15,00,AAXX 09154 85586 42460 12312 10167 20107 40240 54000 81100 333 56700 81815=
85586,2011,11,09,18,00,AAXX 09184 85586 12960 02318 10184 20075 40219 58021 60001=
85586,2011,11,09,21,00,AAXX 09214 85586 42960 02121 10184 20076 40210 56009=
85586,2011,11,10,00,00,AAXX 10004 85586 12960 03304 10137 20091 40214 53003 60001 333 10189=
85586,2011,11,10,03,00,AAXX 10034 85586 NIL=
85586,2011,11,10,06,00,AAXX 10064 85586 NIL=
85586,2011,11,10,09,00,AAXX 10094 85586 NIL=
85586,2011,11,10,12,00,AAXX 10124 85586 12960 01607 10154 20047 40169 57007 60004 333 20084 30/// 50260 55122=
85586,2011,11,10,15,00,AAXX 10154 85586 42960 02208 10214 20074 40166 56003=
85586,2011,11,10,18,00,AAXX 10184 85586 12960 02212 10180 20100 40136 57032 60001=
85586,2011,11,10,21,00,AAXX 10214 85586 42960 01808 10160 20084 40144 57010=
85586,2011,11,11,00,00,AAXX 11004 85586 12960 10505 1013020078 40156 52011 60001 80002 333 10226 56006 81075=
85586,2011,11,11,06,00,AAXX 11064 85586 NIL=
85586,2011,11,11,09,00,AAXX 11094 85586 NIL=
85586,2011,11,11,12,00,AAXX 11124 85586 12960 13103 10126 20081 40152 52006 60004 80001 333 20040 30/// 50280 55131 56006 81075=
85586,2011,11,11,15,00,AAXX 11154 85586 41115 33008 10136 20111 40161 52010 74600 82600 333 56600 82702=
85586,2011,11,11,18,00,AAXX 11184 85586 12960 03007 10164 20094 40184 52022 60001=
85586,2011,11,11,21,00,AAXX 11214 85586 42960 02406 10150 20092 40153 57031=
85586,2011,11,12,00,00,AAXX 12004 85586 12960 10000 10120 20080 40160 52007 60001 80001 333 10166 56006 81075=
85586,2011,11,12,06,00,AAXX 12064 85586 NIL=
85586,2011,11,12,09,00,AAXX 12094 85586 NIL=
85586,2011,11,12,12,00,AAXX 12124 85586 11458 83307 10128 20076 40166 52006 60004 7052/ 885// 333 20100 30/// 50230 55121 56099 84615 88620=
85586,2011,11,12,15,00,AAXX 12154 85586 41556 83208 10138 20078 40181 52015 70522 885// 333 56099 81620 88630=
85586,2011,11,12,18,00,AAXX 12184 85586 11558 83107 10148 20068 40185 52004 60001 70522 885// 333 56099 88630=
85586,2011,11,12,21,00,AAXX 12214 85586 42560 83107 10146 20074 40184 54001 885// 333 56099 88630=
85586,2011,11,13,00,00,AAXX 13004 85586 12560 73403 10124 20075 40192 52008 60001 87500 333 10152 56600 87630=
85586,2011,11,13,03,00,AAXX 13034 85586 NIL=
85586,2011,11,13,06,00,AAXX 13064 85586 NIL=
85586,2011,11,13,09,00,AAXX 13094 85586 NIL=
85586,2011,11,13,12,00,AAXX 13124 85586 12960 70000 10151 20087 40213 51012 60004 87030 333 20123 30/// 50280 55000 56099 87362=
85586,2011,11,13,15,00,AAXX 13154 85586 42560 82507 10172 20082 40210 58003 885// 333 56799 88625=
85586,2011,11,13,18,00,AAXX 13184 85586 12960 52511 10192 20086 40206 56003 60001 85500 333 56060 85662=
85586,2011,11,13,21,00,AAXX 13214 85586 42960 72309 101171 20096 40196 58010 87030 333 56060 87362=
85586,2011,11,14,00,00,AAXX 14004 85586 12960 20000 10138 20092 40192 56005 60001 81031 333 10195 56066 81362=
85586,2011,11,14,03,00,AAXX 14034 85586 NIL=
85586,2011,11,14,06,00,AAXX 14064 85586 NIL=
85586,2011,11,14,09,00,AAXX 14094 85586 NIL=
85586,2011,11,14,12,00,AAXX 14124 85586 12960 00000 10153 20097 40179 53009 60004 333 20064 30/// 50280 55046=
85586,2011,11,14,15,00,AAXX 14154 85586 41315 42508 10180 20100 40173 57005 70520 84600 333 56500 84708=
85586,2011,11,14,18,00,AAXX 14184 85586 11458 22409 10162 20111 40147 57025 60001 70500 82600 333 56500 82710=
85586,2011,11,14,21,00,AAXX 14214 85586 41330 83007 10140 20113 40139 57009 71022 886// 333 56799 88707=
85586,2011,11,15,00,00,AAXX 15004 85586 11208 83306 10124 20110 40155 53015 60001 74644 886// 333 10185 56799 88704=
85586,2011,11,15,03,00,AAXX 15034 85586 NIL=
85586,2011,11,15,06,00,AAXX 15064 85586 NIL=
85586,2011,11,15,09,00,AAXX 15094 85586 NIL=
85586,2011,11,15,12,00,AAXX 15124 85586 12220 83305 10124 20109 40171 52026 60004 7102/ 886// 333 20117 30/// 50280 55085 56799 88706=
85586,2011,11,15,15,00,AAXX 15154 85586 41450 83005 10136 20103 40178 52008 70522 886// 333 56799 88710=
85586,2011,11,15,18,00,AAXX 15184 85586 11240 82705 10130 20120 40181 51003 60001 71022 886// 333 56699 88706=
85586,2011,11,15,21,00,AAXX 15214 85586 41320 82306 10130 20120 40154 57028 71022 886// 333 56599 88707=
85586,2011,11,16,00,00,AAXX 16004 85586 12220 83306 10131 20115 40162 53008 60001 71022 886// 333 10142 56799 88706=
85586,2011,11,16,06,00,AAXX 16064 85586 NIL=
85586,2011,11,16,09,00,AAXX 16094 85586 NIL=
85586,2011,11,16,12,00,AAXX 16124 85586 11440 80000 10122 20106 40179 52007 69904 7055/ 885// 333 20120 30/// 50170 55000 56099 70000 82610 88617=
85586,2011,11,16,15,00,AAXX 16154 85586 41450 82603 10150 20093 40185 52006 70522 885// 333 56099 82610 88620=
85586,2011,11,16,18,00,AAXX 16184 85586 11450 82705 10148 20091 40185 54000 60001 70522 885// 333 56099 84612 88623=
85586,2011,11,16,21,00,AAXX 16214 85586 41450 82705 10148 20084 40182 57003 70522 885// 333 56699 85612 88623=
85586,2011,11,17,00,00,AAXX 17004 85586 11456 82403 10130 20095 40178 56004 60001 70522 885// 333 10152 56699 81612 88623=
85586,2011,11,17,15,00,AAXX 17154 85586 NIL=
85586,2011,11,17,18,00,AAXX 17184 85586 12960 02210 10190 20095 40179 54001 60001=
85586,2011,11,17,21,00,AAXX 17214 85586 42960 02207 10165 20105 40180 54001=
85586,2011,11,18,00,00,AAXX 18004 85586 12960 22406 10130 20095 40162 57018 60001 80001 333 10192 56006 82075=
85586,2011,11,18,12,00,AAXX 18124 85586 11456 82403 10132 20085 40188 52012 60004 7052/ 885// 333 20120 30/// 50160 55093 56099 83615 88623=
85586,2011,11,18,15,00,AAXX 18154 85586 42560 03006 10150 20095 40194 52006 885// 333 56799 88620=
85586,2011,11,18,21,00,AAXX 18214 85586 NIL=
85586,2011,11,19,00,00,AAXX 19004 85586 12960 22006 10144 20092 40178 56004 60001 80001 333 10174 56006 82070=
85586,2011,11,19,12,00,AAXX 19124 85586 12560 80404 10134 20088 40203 52024 60004 86500 333 20049 30/// 50260 55056 56700 86630=
85586,2011,11,19,15,00,AAXX 19154 85586 42460 12809 10176 20089 40210 51009 81100 333 56700 81815=
85586,2011,11,19,18,00,AAXX 19184 85586 12960 02610 10184 20083 40216 53005 60001=
85586,2011,11,19,21,00,AAXX 19214 85586 42960 02310 10181 20087 40206 58009=
85586,2011,11,20,00,00,AAXX 20004 85586 42960 42404 10141 20088 40200 56007 60001 80001 333 10186 56006 84075=
85586,2011,11,20,12,00,AAXX 20124 85586 12960 40000 10151 20098 40207 52032 60004 81130 333 20081 30/// 50320 55111 56760 81815 83365=
85586,2011,11,20,15,00,AAXX 20154 85586 42460 22808 10184 20088 40219 52013 81100 333 56700 82815=
85586,2011,11,20,18,00,AAXX 20184 85586 12960 02711 10182 20096 40218 55001 60001=
85586,2011,11,20,21,00,AAXX 20214 85586 42960 12509 10171 20117 40222 53004 81100 333 56700 81815=
85586,2011,11,21,00,00,AAXX 21004 85586 42960 00000 10146 20120 40232 53009 60001 333 10194=
85586,2011,11,21,12,00,AAXX 21124 85586 12960 02405 10147 20102 40209 53007 60004 333 20066 30/// 50320 55121=
85586,2011,11,21,15,00,AAXX 21154 85586 42960 02414 10188 20106 40198 58010=
85586,2011,11,21,18,00,AAXX 21184 85586 12960 02010 10200 20120 40180 57019 60001=
85586,2011,11,21,21,00,AAXX 21214 85586 42960 02210 10178 20095 40159 57029=
85586,2011,11,22,00,00,AAXX 22004 85586 12960 02704 10155 20092 40161 51003 60001 333 10204=
85586,2011,11,22,12,00,AAXX 22124 85586 12960 02402 10142 20094 40149 52007 60004 333 20076 30/// 50220 55123=
85586,2011,11,22,15,00,AAXX 22154 85586 42960 02207 10182 20099 40146 56003=
85586,2011,11,22,18,00,AAXX 22184 85586 12960 02012 10180 20088 40140 57006 60001=
85586,2011,11,22,21,00,AAXX 22214 85586 42960 02812 10162 20094 40167 52027=
85586,2011,11,23,00,00,AAXX 23004 85586 12560 12904 10128 20101 40182 52015 60001 81500 333 10192 56600 81620=
85586,2011,11,23,12,00,AAXX 23124 85586 12960 11202 10142 20076 40212 52016 60004 80002 333 20058 30/// 50220 55124 56006 81075=
85586,2011,11,23,15,00,AAXX 23154 85586 42960 42310 10166 20090 40221 52009 80002 333 56006 84075=
85586,2011,11,23,18,00,AAXX 23184 85586 12960 12310 10184 20103 40213 58008 60001 80001 333 56006 81075=
85586,2011,11,23,21,00,AAXX 23214 85586 42560 12409 10174 20123 40215 53002 81500 333 56600 81623=
85586,2011,11,24,00,00,AAXX 24004 85586 12960 02603 10140 20113 40210 57005 60001 333 10194=
85586,2011,11,24,12,00,AAXX 24124 85586 11960 00000 10130 20113 40195 56002 60004 7014/ 333 20100 30/// 50240 55125=
85586,2011,11,24,15,00,AAXX 24154 85586 42160 22806 10154 20108 40199 52005 82600 333 56600 82703=
85586,2011,11,24,18,00,AAXX 24184 85586 12960 02513 10182 20087 40181 57019 60001=
85586,2011,11,24,21,00,AAXX 24214 85586 42960 02312 10180 20085 40179 54002=
85586,2011,11,25,00,00,AAXX 25004 85586 12960 02006 10160 20094 40171 57008 60001 333 10184=
85586,2011,11,25,12,00,AAXX 25124 85586 12960 02804 10149 20096 40173 54000 60004 333 20078 30/// 50310 55109=
85586,2011,11,25,15,00,AAXX 25154 85586 42960 02206 10184 20089 40167 56006=
85586,2011,11,25,18,00,AAXX 25184 85586 12960 02012 10180 20097 40157 57010 60001=
85586,2011,11,25,21,00,AAXX 25214 85586 42960 02010 10172 20104 40139 57017=
85586,2011,11,26,00,00,AAXX 26004 85586 12960 02007 10143 20105 40145 53006 60001 333 10186=
85586,2011,11,26,12,00,AAXX 26124 85586 11220 82904 10134 20120 40141 53014 60004 7102/ 333 20084 30/// 50330 55126 56799 88704=
85586,2011,11,26,15,00,AAXX 26154 85586 41330 83010 10154 20117 40151 51009 70522 886// 333 56799 88707=
85586,2011,11,26,21,00,AAXX 26214 85586 42458 72910 10163 20112 40147 53002 70522 87500 333 56700 87615=
85586,2011,11,27,00,00,AAXX 27004 85586 12558 82904 10144 20102 40164 52015 60001 70522 885// 333 10176 56799 88620=
85586,2011,11,27,15,00,AAXX 27154 85586 41560 72607 10166 20084 40203 52016 87500 333 56700 87625=
85586,2011,11,27,18,00,AAXX 27184 85586 12960 02411 10189 20087 40204 50001 60001=
85586,2011,11,27,21,00,AAXX 27214 85586 NIL=
85586,2011,11,28,00,00,AAXX 28004 85586 12960 02406 10132 20096 40204 53012 60001 333 10191=
85586,2011,11,28,12,00,AAXX 28124 85586 12960 01103 10160 20067 40175 53003 60004 333 20060 30/// 50220 55087=
85586,2011,11,28,15,00,AAXX 28154 85586 42960 02312 10180 20096 40170 56005=
85586,2011,11,28,21,00,AAXX 28214 85586 42960 02012 10200 20110 40148 57025=
85586,2011,11,29,00,00,AAXX 29004 85586 12960 00000 10170 20084 40153 52009 60001 333 10228=
85586,2011,11,29,12,00,AAXX 29124 85586 12960 03303 10180 20111 40147 52006 60004 333 20084 30/// 50260 55125=
85586,2011,11,29,15,00,AAXX 29154 85586 42960 02307 10210 20104 40161 52013=
85586,2011,11,29,18,00,AAXX 29184 85586 12960 01812 10224 20127 40143 57017 60001=
85586,2011,11,29,21,00,AAXX 29214 85586 42960 02410 10204 20093 40127 57016=
85586,2011,11,30,00,00,AAXX 30004 85586 12960 00000 10168 20086 40140 52013 60001 333 10224=
85586,2011,11,30,12,00,AAXX 30124 85586 12960 02903 10150 20093 40129 52004 60004 333 20076 30/// 50250 55124=
85586,2011,11,30,15,00,AAXX 30154 85586 42960 03007 10168 20100 40140 52011=
85586,2011,11,30,18,00,AAXX 30184 85586 12560 13008 10181 20106 40147 52007 60001 81500 333 56600 81625=
85586,2011,11,30,21,00,AAXX 30214 85586 42560 12807 10170 20107 40145 58002 81500 333 56600 81625=
85586,2011,12,01,00,00,AAXX 01004 85586 12960 02402 10142 20100 40155 54000 60001 333 10200=
85586,2011,12,01,15,00,AAXX 01154 85586 12460 82805 10146 20106 40160 52016 885// 333 56699 88613=
85586,2011,12,01,21,00,AAXX 01214 85586 NIL=
85586,2011,12,02,15,00,AAXX 02154 85586 42560 82407 10165 20096 40198 54001 886// 333 56799 88620=
85586,2011,12,02,18,00,AAXX 02184 85586 12560 62708 10172 20072 40207 52008 60001 86500 333 56600 86630=
85586,2011,12,02,21,00,AAXX 02214 85586 NIL=
85586,2011,12,03,12,00,AAXX 03124 85586 11558 31007 10151 20087 40197 56009 60004 7052/ 83500 333 20074 30/// 50330 55062 56700 83625=
85586,2011,12,03,15,00,AAXX 03154 85586 42960 02709 10192 20094 40187 58009=
85586,2011,12,03,18,00,AAXX 03184 85586 12960 02415 10193 20108 40177 57012 60001=
85586,2011,12,03,21,00,AAXX 03214 85586 42960 02319 10176 20128 40173 56003=
85586,2011,12,04,00,00,AAXX 04004 85586 12958 02308 10154 20133 40182 53008 60001 70500 333 10195=
85586,2011,12,04,12,00,AAXX 04124 85586 11340 11602 10142 20097 40166 53002 60004 7054/ 81600 333 20094 30/// 50240 55116 56600 81706=
85586,2011,12,04,15,00,AAXX 04154 85586 41556 12410 10176 20100 40162 58004 70500 81500 333 56600 81620=
85586,2011,12,04,18,00,AAXX 04184 85586 12960 02311 10178 20104 40157 57005 60001=
85586,2011,12,04,21,00,AAXX 04214 85586 42960 02313 10178 20102 40145 57011=
85586,2011,12,05,00,00,AAXX 05004 85586 12960 02306 10144 20102 40155 52009 60001 333 10190=
85586,2011,12,05,12,00,AAXX 05124 85586 12560 10903 10159 20098 40151 52008 60004 81500 333 20120 30/// 50260 55114 56600 81620=
85586,2011,12,05,15,00,AAXX 05154 85586 42960 02507 10182 20110 40156 51003=
85586,2011,12,05,18,00,AAXX 05184 85586 12360 32208 10180 20120 40152 54001 60001 83600 333 56500 83078=
85586,2011,12,05,21,00,AAXX 05214 85586 NIL=
85586,2011,12,06,00,00,AAXX 06004 85586 12460 82805 10144 20116 40143 53004 60001 885// 333 10192 56099 88610=
85586,2011,12,06,12,00,AAXX 06124 85586 11450 83305 10148 20118 40146 52004 60004 7052/ 885// 333 20136 30/// 50240 55105 56099 88610=
85586,2011,12,06,15,00,AAXX 06154 85586 42460 73207 10162 20116 40157 52011 87500 333 56700 87613=
85586,2011,12,06,18,00,AAXX 06184 85586 12460 83208 10180 20112 40162 52005 60001 885// 333 56799 88617=
85586,2011,12,06,21,00,AAXX 06214 85586 42560 62807 10175 20118 40165 51003 86500 333 56600 86620=
85586,2011,12,07,12,00,AAXX 07124 85586 11456 83004 10153 20109 40183 52013 60004 7052/ 885// 333 20141 30/// 50330 55037 56799 88615=
85586,2011,12,07,15,00,AAXX 07154 85586 NIL=
85586,2011,12,07,18,00,AAXX 07184 85586 12958 02609 10193 20113 40184 58004 60001=
85586,2011,12,07,21,00,AAXX 07214 85586 42958 42609 10187 20097 40176 58007 80001 333 56006 84075=
85586,2011,12,08,15,00,AAXX 08154 85586 42320 82907 10169 20124 40164 53007 71022 886// 333 56799 88707=
85586,2011,12,08,21,00,AAXX 08214 85586 41440 82808 10153 20125 40160 56005 70522 886// 333 56799 88710=
85586,2011,12,09,12,00,AAXX 09124 85586 11240 80000 10134 20114 40157 53007 60004 7052/ 886// 333 20125 30/// 50310 55007 56799 88706=
85586,2011,12,09,15,00,AAXX 09154 85586 42460 82706 10150 20111 40153 56003 886// 333 56699 88713=
85586,2011,12,09,18,00,AAXX 09184 85586 12460 82408 10160 20102 40144 57008 60001 885// 333 56599 88617=
85586,2011,12,09,21,00,AAXX 09214 85586 41458 83210 10150 20100 40139 56004 70522 885// 333 56799 88615=
85586,2011,12,10,00,00,AAXX 10004 85586 11356 82304 10142 20108 40145 51005 60001 70522 886// 333 10164 56699 88710=
85586,2011,12,10,12,00,AAXX 10124 85586 11556 81403 10140 20088 40183 52012 60004 7052/ 885// 333 20132 30/// 50190 55001 56099 88620=
85586,2011,12,10,15,00,AAXX 10154 85586 42558 22507 10170 20095 40187 52004 70511 82500 333 56600 56600 82660=
85586,2011,12,10,18,00,AAXX 10184 85586 12560 12312 10176 20102 40181 58006 60001 81500 333 56600 81623=
85586,2011,12,10,21,00,AAXX 10214 85586 42560 22508 10180 20118 40170 57011 82500 333 56600 82620=
85586,2011,12,11,00,00,AAXX 11004 85586 12960 02404 10160 20114 40168 55002 60001 333 10194=
85586,2011,12,11,12,00,AAXX 11124 85586 12960 00000 10160 20108 40184 52006 60004 333 20096 30/// 50230 55095=
85586,2011,12,11,15,00,AAXX 11154 85586 42960 02310 10178 20096 40176 58006=
85586,2011,12,11,18,00,AAXX 11184 85586 12560 12311 10194 20093 40167 57009 60001 81500 333 56600 81620=
85586,2011,12,11,21,00,AAXX 11214 85586 42560 12309 10188 20088 40154 57013 81100 333 56600 81820=
85586,2011,12,12,00,00,AAXX 12004 85586 12960 02305 10160 20095 40160 53006 60001 333 10201=
85586,2011,12,12,12,00,AAXX 12124 85586 12960 02703 10150 20113 40160 52010 60004 333 20070 30/// 50300 55126=
85586,2011,12,12,15,00,AAXX 12154 85586 NIL=
85586,2011,12,12,18,00,AAXX 12184 85586 12960 02307 10190 20130 40152 56004 60001=
85586,2011,12,12,21,00,AAXX 12214 85586 NIL=
85586,2011,12,13,00,00,AAXX 13004 85586 12560 42003 10144 20098 40144 57007 70500 84600 333 10192 56600 84625=
85586,2011,12,13,15,00,AAXX 13154 85586 NIL=
85586,2011,12,13,21,00,AAXX 13214 85586 42460 82706 10152 20117 40181 57044 886// 333 56699 88615=
85586,2011,12,14,00,00,AAXX 14004 85586 12458 80000 10148 20122 40166 57015 70522 886// 333 10164 56799 88615=
85586,2011,12,14,15,00,AAXX 14154 85586 42460 82804 10152 20106 40177 52013 885// 333 56699 88615=
85586,2011,12,14,21,00,AAXX 14214 85586 42458 82606 10174 20128 40162 56010 70522 885// 333 56799 82615 88620=
85586,2011,12,15,12,00,AAXX 15124 85586 11220 80000 10143 20126 40157 52022 69904 7502/ 886// 333 20137 31/// 50290 55000 56799 70000 88704=
85586,2011,12,15,15,00,AAXX 15154 85586 NIL=
85586,2011,12,15,18,00,AAXX 15184 85586 11456 82406 10162 20128 40177 52012 60001 70522 885// 333 56599 88613=
85586,2011,12,15,21,00,AAXX 15214 85586 NIL=
85586,2011,12,16,00,00,AAXX 16004 85586 11558 82703 10142 20110 40161 54000 70522 885// 333 10164 56799 88620=
85586,2011,12,16,12,00,AAXX 16124 85586 11550 80000 10150 20097 40177 52010 60004 7052/ 885// 333 20142 30/// 50160 55000 56099 88623=
85586,2011,12,16,15,00,AAXX 16154 85586 NIL=
85586,2011,12,16,21,00,AAXX 16214 85586 NIL=
85586,2011,12,17,00,00,AAXX 17004 85586 12560 42404 10156 20104 20184 57011 60001 84500 333 10184 56600 84623=
85586,2011,12,17,12,00,AAXX 17124 85586 11556 80000 10146 20116 40191 52008 60004 70528 885// 333 20104 30/// 50170 55000 56099 88615=
85586,2011,12,17,15,00,AAXX 17154 85586 41458 83005 10168 20119 40198 52007 70522 885// 333 56099 88615=
85586,2011,12,17,18,00,AAXX 17184 85586 11458 62507 10188 20126 40196 58002 60001 70522 86500 333 56600 86615=
85586,2011,12,17,21,00,AAXX 17214 85586 41457 82504 10174 20130 40192 57004 70522 885// 333 56699 88615=
85586,2011,12,18,00,00,AAXX 18004 85586 11350 82404 10144 20118 40189 56003 60001 70522 886// 333 10192 56099 88708=
85586,2011,12,18,12,00,AAXX 18124 85586 11425 80000 10150 20129 40179 52006 60004 7052/ 886// 333 20142 30/// 50160 55019 56099 88710=
85586,2011,12,18,15,00,AAXX 18154 85586 41450 62607 10176 20129 40178 56001 70522 86600 333 56600 86710=
85586,2011,12,18,18,00,AAXX 18184 85586 11457 52507 10180 2018 40168 57010 60001 70522 85500 333 56600 85610=
85586,2011,12,18,21,00,AAXX 18214 85586 42560 12409 10204 20123 40146 57021 81100 333 56600 81820=
85586,2011,12,19,00,00,AAXX 19004 85586 12960 02303 10176 20102 4014 53001 60001 333 10212=
85586,2011,12,19,12,00,AAXX 19124 85586 12960 01005 10171 20121 40157 53012 60004 333 20107 30/// 50330 55069=
85586,2011,12,19,15,00,AAXX 19154 85586 41960 02608 10199 20118 40158 55001=
85586,2011,12,19,18,00,AAXX 19184 85586 11960 02612 10188 20116 40158 53002 60001=
85586,2011,12,19,21,00,AAXX 19214 85586 42960 02908 10194 20097 40144 58014=
85586,2011,12,20,00,00,AAXX 20004 85586 12960 00000 10174 20097 40153 53008 60001 333 10204=
85586,2011,12,20,03,00,AAXX 20034 85586 NIL=
85586,2011,12,20,06,00,AAXX 20064 85586 NIL=
85586,2011,12,20,09,00,AAXX 20094 85586 NIL=
85586,2011,12,20,12,00,AAXX 20124 85586 12960 02004 10174 20113 40154 52024 60004 333 20074 30/// 50350 55129=
85586,2011,12,20,15,00,AAXX 20154 85586 41960 02410 10191 20120 40160 53003=
85586,2011,12,20,18,00,AAXX 20184 85586 12960 02316 10211 20118 40159 50001 60001=
85586,2011,12,20,21,00,AAXX 20214 85586 42960 02318 10202 20115 40144 57014=
85586,2011,12,21,00,00,AAXX 21004 85586 12960 02306 10174 20124 40149 53003 60001 333 10213=
85586,2011,12,21,03,00,AAXX 21034 85586 NIL=
85586,2011,12,21,06,00,AAXX 21064 85586 NIL=
85586,2011,12,21,09,00,AAXX 21094 85586 NIL=
85586,2011,12,21,12,00,AAXX 21124 85586 12960 02604 10166 20126 40161 52023 60004 333 20093 30/// 50350 55128=
85586,2011,12,21,15,00,AAXX 21154 85586 41960 02315 10193 20093 40166 53008=
85586,2011,12,21,18,00,AAXX 21184 85586 12960 02315 10206 20115 40173 51007 60001=
85586,2011,12,21,21,00,AAXX 21214 85586 42960 02315 10193 20081 40169 56004=
85586,2011,12,22,00,00,AAXX 22004 85586 12960 02306 10161 20091 40175 53006 60001 333 10208=
85586,2011,12,22,03,00,AAXX 22034 85586 NIL=
85586,2011,12,22,06,00,AAXX 22064 85586 NIL=
85586,2011,12,22,09,00,AAXX 22094 85586 NIL=
85586,2011,12,22,12,00,AAXX 22124 85586 12960 01609 10184 20062 40152 52012 60004 333 20076 30/// 50290 55127=
85586,2011,12,22,15,00,AAXX 22154 85586 42960 02312 10178 20083 40146 57005=
85586,2011,12,22,18,00,AAXX 22184 85586 12960 02317 10184 20078 40133 57013 60001=
85586,2011,12,22,21,00,AAXX 22214 85586 42960 32316 10186 20076 40120 57007 80001 333 56006 83075=
85586,2011,12,23,00,00,AAXX 23004 85586 12960 32405 10153 20074 40127 53007 60001 80001 333 10206 56006 83075=
85586,2011,12,23,03,00,AAXX 23034 85586 NIL=
85586,2011,12,23,06,00,AAXX 23064 85586 NIL=
85586,2011,12,23,09,00,AAXX 23094 85586 NIL=
85586,2011,12,23,12,00,AAXX 23124 85586 12960 21807 10170 20038 40129 52012 60004 80001 333 20072 30/// 50310 55125 56006 82075=
85586,2011,12,23,15,00,AAXX 23154 85586 42960 12313 10160 20054 40140 52011 80001 333 56006 81075=
85586,2011,12,23,18,00,AAXX 23184 85586 12960 02410 10160 20067 40151 52010 60001=
85586,2011,12,23,21,00,AAXX 23214 85586 42960 02407 10176 20067 40132 58018=
85586,2011,12,24,00,00,AAXX 24004 85586 12960 03303 10158 20060 40128 56004 60001 333 10200=
85586,2011,12,24,03,00,AAXX 24034 85586 NIL=
85586,2011,12,24,06,00,AAXX 24064 85586 NIL=
85586,2011,12,24,09,00,AAXX 24094 85586 NIL=
85586,2011,12,24,12,00,AAXX 24124 85586 12960 02803 10140 20084 40144 52012 60004 333 20050 30/// 50330 55126=
85586,2011,12,24,15,00,AAXX 24154 85586 42960 03307 10176 20099 40152 52007=
85586,2011,12,24,18,00,AAXX 24184 85586 12960 02807 10178 20108 40147 57004 60001=
85586,2011,12,24,21,00,AAXX 24214 85586 42960 02904 10186 20118 40140 57007=
85586,2011,12,25,00,00,AAXX 25004 85586 12960 03003 10160 20114 40140 54000 60001 333 10190=
85586,2011,12,25,03,00,AAXX 25034 85586 NIL=
85586,2011,12,25,06,00,AAXX 25064 85586 NIL=
85586,2011,12,25,09,00,AAXX 25094 85586 NIL=
85586,2011,12,25,12,00,AAXX 25124 85586 11440 82703 10134 20105 40160 52014 60004 7052/ 885// 333 20086 30/// 50300 55126 56099 88610=
85586,2011,12,25,15,00,AAXX 25154 85586 41457 32606 10154 20104 40163 52003 83500 333 56600 83610=
85586,2011,12,25,18,00,AAXX 25184 85586 12960 62806 10178 20102 40161 58002 60001 80002 333 56006 86075=
85586,2011,12,25,21,00,AAXX 25214 85586 42960 42806 10176 20112 40152 57008 80001 333 56005 84075=
85586,2011,12,26,00,00,AAXX 26004 85586 12360 72703 10145 20119 40155 53003 60001 86601 333 10186 56605 86708=
85586,2011,12,26,03,00,AAXX 26034 85586 NIL=
85586,2011,12,26,06,00,AAXX 26064 85586 NIL=
85586,2011,12,26,09,00,AAXX 26094 85586 NIL=
85586,2011,12,26,12,00,AAXX 26124 85586 11456 82904 10151 20118 40172 52012 60004 7052/ 886// 333 20137 30/// 50330 55083 56799 88708=
85586,2011,12,26,15,00,AAXX 26154 85586 41960 52509 10184 20104 40113 58006 80001 333 56006 85075=
85586,2011,12,26,18,00,AAXX 26184 85586 12960 52711 10196 20125 40155 57011 60001 80001 333 56006 87075=
85586,2011,12,26,21,00,AAXX 26214 85586 42460 72408 10184 20131 40136 57016 81530 333 56760 81612 87365=
85586,2011,12,27,00,00,AAXX 27004 85586 12458 82804 10161 20123 40141 53003 60001 70522 885// 333 10198 56799 88612=
85586,2011,12,27,03,00,AAXX 27034 85586 NIL=
85586,2011,12,27,06,00,AAXX 27064 85586 NIL=
85586,2011,12,27,09,00,AAXX 27094 85586 NIL=
85586,2011,12,27,12,00,AAXX 27124 85586 11356 83205 10153 20119 40152 52021 60004 7052/ 886// 333 20138 30/// 50330 55074 56799 88709=
85586,2011,12,27,15,00,AAXX 27154 85586 41458 72910 10173 20120 40159 53008 70522 875// 333 56799 87612=
85586,2011,12,27,18,00,AAXX 27184 85586 12456 872710 10183 20120 40164 51005 60001 70522 885// 333 56799 88612=
85586,2011,12,27,21,00,AAXX 27214 85586 42458 22808 10194 20129 40165 50001 70522 82500 333 56700 82615=
85586,2011,12,28,00,00,AAXX 28004 85586 12458 83005 10166 20123 40159 56006 60001 70522 885// 333 10195 56799 88615=
85586,2011,12,28,06,00,AAXX 28064 85586 NIL=
85586,2011,12,28,09,00,AAXX 28094 85586 NIL=
85586,2011,12,28,12,00,AAXX 28124 85586 11340 80000 10161 20123 40162 52024 60004 7052/ 886// 333 20154 30/// 50330 55058 56799 88708=
85586,2011,12,28,15,00,AAXX 28154 85586 41458 82606 10171 20135 40166 51002 70522 885// 333 56799 87614=
85586,2011,12,28,18,00,AAXX 28184 85586 12458 82710 10186 20131 40174 53010 60001 70522 885// 333 56799 82615 88620=
85586,2011,12,28,21,00,AAXX 28214 85586 42456 82509 10174 20127 40163 58011 70522 885// 333 56799 82615 88620=
85586,2011,12,29,00,00,AAXX 29004 85586 11457 82804 10154 10123 40161 56003 70522 60001 885// 333 10184 56099 88615=
85586,2011,12,29,03,00,AAXX 29034 85586 NIL=
85586,2011,12,29,06,00,AAXX 29064 85586 NIL=
85586,2011,12,29,09,00,AAXX 29094 85586 NIL=
85586,2011,12,29,12,00,AAXX 29124 85586 11440 80000 10144 20112 40159 52006 60004 7052/ 885// 333 20140 30/// 50140 55000 56099 88613=
85586,2011,12,29,15,00,AAXX 29154 85586 41457 23005 10176 20113 40159 54000 70522 82500 333 56600 82618=
85586,2011,12,29,18,00,AAXX 29184 85586 11457 52508 10184 20119 40155 57004 60001 70511 85500 333 56600 85615=
85586,2011,12,29,21,00,AAXX 29214 85586 41456 82705 10160 20113 40150 57005 70522 885// 333 56099 88610=
85586,2011,12,30,00,00,AAXX 30004 85586 11456 82604 10146 20116 40147 55002 60001 70522 885// 333 10188 56099 88612=
85586,2011,12,30,06,00,AAXX 30064 85586 NIL=
85586,2011,12,30,09,00,AAXX 30094 85586 NIL=
85586,2011,12,30,12,00,AAXX 30124 85586 11309 83602 10130 20117 40128 52007 60004 7462/ 886// 333 20098 30/// 50210 55040 56099 88706=
85586,2011,12,30,15,00,AAXX 30154 85586 41450 83007 10154 20123 40145 52017 70522 886// 333 56099 88712=
85586,2011,12,30,18,00,AAXX 30184 85586 11457 62809 10180 20111 40151 60001 70522 86500 333 56600 86615=
85586,2011,12,30,21,00,AAXX 30214 85586 42460 22807 10190 20122 40143 57007 82500 333 56600 82617=
85586,2011,12,31,00,00,AAXX 31004 85586 12560 53005 10166 20110 40145 53002 60001 85500 333 10194 56600 85623=
85586,2011,12,31,06,00,AAXX 31064 85586 NIL=
85586,2011,12,31,09,00,AAXX 31094 85586 NIL=
85586,2011,12,31,12,00,AAXX 31124 85586 11340 83204 10158 20131 40165 52026 60004 7052/ 886// 333 20099 30/// 50330 55058 56799 88708=
85586,2011,12,31,15,00,AAXX 31154 85586 41356 82909 10171 20130 40169 51005 70522 886// 333 56799 88709=
85586,2011,12,31,18,00,AAXX 31184 85586 11456 82809 10192 20123 40179 60001 70522 885// 333 56799 86615 88620=
85586,2011,12,31,21,00,AAXX 31214 85586 42958 02608 10197 20119 40163 58015 70500=
