85586,2005,01,01,00,00,AAXX 01004 85586 NIL=
85586,2005,01,01,03,00,AAXX 01034 85586 NIL=
85586,2005,01,01,06,00,AAXX 01064 85586 NIL=
85586,2005,01,01,09,00,AAXX 01094 85586 NIL=
85586,2005,01,01,12,00,AAXX 01124 85586 31240 70000 10148 20141 40162 52/// 7102/ 87600 333 20136 30/// 50380 55127 56600 87704=
85586,2005,01,01,15,00,AAXX 01154 85586 41259 13008 10193 20157 40164 52003 70511 81600 333 56600 81704=
85586,2005,01,01,18,00,AAXX 01184 85586 31240 52710 10187 20160 40167 52003 70522 85600 333 56600 85704=
85586,2005,01,01,21,00,AAXX 01214 85586 41240 83106 10171 20155 40162 58005 70522 886// 333 56699 88704=
85586,2005,01,02,00,00,AAXX 02004 85586 NIL=
85586,2005,01,02,03,00,AAXX 02034 85586 NIL=
85586,2005,01,02,06,00,AAXX 02064 85586 NIL=
85586,2005,01,02,09,00,AAXX 02094 85586 NIL=
85586,2005,01,02,12,00,AAXX 02124 85586 31104 80703 10145 20141 40168 53/// 7444/ 886// 333 20138 30/// 50310 55051 56799 88703=
85586,2005,01,02,15,00,AAXX 02154 85586 42960 02807 10190 20158 40158 58009=
85586,2005,01,02,18,00,AAXX 02184 85586 32960 02710 10208 20131 40153 57003=
85586,2005,01,02,21,00,AAXX 02214 85586 42960 02411 10232 20135 40128 57025=
85586,2005,01,03,00,00,AAXX 03004 85586 NIL=
85586,2005,01,03,03,00,AAXX 03034 85586 NIL=
85586,2005,01,03,06,00,AAXX 03064 85586 NIL=
85586,2005,01,03,09,00,AAXX 03094 85586 NIL=
85586,2005,01,03,12,00,AAXX 03124 85586 31958 02504 10181 20136 40101 52/// 7050/ 333 20106 30/// 50440 55109=
85586,2005,01,03,15,00,AAXX 03154 85586 42960 02606 10218 20133 40103 51004=
85586,2005,01,03,18,00,AAXX 03184 85586 32960 03312 10196 20126 40124 52020=
85586,2005,01,03,21,00,AAXX 03214 85586 42560 22912 10196 20126 40130 51006 82500 333 56700 82620=
85586,2005,01,04,00,00,AAXX 04004 85586 NIL=
85586,2005,01,04,03,00,AAXX 04034 85586 NIL=
85586,2005,01,04,06,00,AAXX 04064 85586 NIL=
85586,2005,01,04,09,00,AAXX 04094 85586 NIL=
85586,2005,01,04,12,00,AAXX 04124 85586 11440 83212 10144 20121 40150 52/// 69904 7502/ 886// 333 20142 30/// 50440 55114 56899 70000 88712=
85586,2005,01,04,15,00,AAXX 04154 85586 41456 82706 10164 20126 40164 52015 70552 886// 333 56799 88712=
85586,2005,01,04,18,00,AAXX 04184 85586 11558 73111 10199 20129 40165 50002 69901 70552 82101 333 56706 82820 85075=
85586,2005,01,04,21,00,AAXX 04214 85586 41556 72807 10193 20135 40156 57010 70522 87500 333 56700 87620=
85586,2005,01,05,00,00,AAXX 05004 85586 NIL=
85586,2005,01,05,03,00,AAXX 05034 85586 NIL=
85586,2005,01,05,06,00,AAXX 05064 85586 NIL=
85586,2005,01,05,09,00,AAXX 05094 85586 NIL=
85586,2005,01,05,12,00,AAXX 05124 85586 32960 00000 10154 20127 40163 52/// 333 20086 30/// 20250 55028=
85586,2005,01,05,15,00,AAXX 05154 85586 42960 02806 10184 20129 40170 52008=
85586,2005,01,05,18,00,AAXX 05184 85586 32960 02616 10204 20152 40160 57009=
85586,2005,01,05,21,00,AAXX 05214 85586 42960 02416 10214 20138 40141 57018=
85586,2005,01,06,00,00,AAXX 06004 85586 NIL=
85586,2005,01,06,03,00,AAXX 06034 85586 NIL=
85586,2005,01,06,06,00,AAXX 06064 85586 NIL=
85586,2005,01,06,09,00,AAXX 06094 85586 NIL=
85586,2005,01,06,12,00,AAXX 06124 85586 32960 03604 10164 20124 40112 56/// 333 20088 30/// 50340 55128=
85586,2005,01,06,15,00,AAXX 06154 85586 42960 02512 10198 20141 40107 56004=
85586,2005,01,06,18,00,AAXX 06184 85586 32960 02416 10182 20118 40111 54003=
85586,2005,01,06,21,00,AAXX 06214 85586 42960 42707 10176 20106 40112 54001 80001 333 56006 84075=
85586,2005,01,07,00,00,AAXX 07004 85586 NIL=
85586,2005,01,07,03,00,AAXX 07034 85586 NIL=
85586,2005,01,07,06,00,AAXX 07064 85586 NIL=
85586,2005,01,07,09,00,AAXX 07094 85586 NIL=
85586,2005,01,07,12,00,AAXX 07124 85586 32960 00503 10144 20120 40133 53/// 333 20068 30/// 50400 55126=
85586,2005,01,07,15,00,AAXX 07154 85586 42960 03209 10178 20131 40171 52019=
85586,2005,01,07,18,00,AAXX 07184 85586 32960 02908 10184 20134 40161 52010=
85586,2005,01,07,21,00,AAXX 07214 85586 42960 03008 10180 20131 40158 58003=
85586,2005,01,08,00,00,AAXX 08004 85586 NIL=
85586,2005,01,08,03,00,AAXX 08034 85586 NIL=
85586,2005,01,08,06,00,AAXX 08064 85586 NIL=
85586,2005,01,08,09,00,AAXX 08094 85586 NIL=
85586,2005,01,08,12,00,AAXX 08124 85586 31920 00000 10128 20120 40159 53/// 7104/ 333 20083 30/// 50350 55129=
85586,2005,01,08,15,00,AAXX 08154 85586 NIL=
85586,2005,01,08,18,00,AAXX 08184 85586 32960 02509 10192 20139 40167 53003=
85586,2005,01,08,21,00,AAXX 08214 85586 42960 02517 10188 20149 40148 58019=
85586,2005,01,09,00,00,AAXX 09004 85586 NIL=
85586,2005,01,09,03,00,AAXX 09034 85586 NIL=
85586,2005,01,09,06,00,AAXX 09064 85586 NIL=
85586,2005,01,09,09,00,AAXX 09094 85586 NIL=
85586,2005,01,09,12,00,AAXX 09124 85586 32960 12506 10156 20134 40135 56/// 80001 333 20093 30/// 50330 55111 56006 81075=
85586,2005,01,09,15,00,AAXX 09154 85586 42960 02608 10192 20140 40129 56006=
85586,2005,01,09,18,00,AAXX 09184 85586 32960 02508 10182 20130 40126 54003=
85586,2005,01,09,21,00,AAXX 09214 85586 42960 02612 10184 20122 40111 57015 333 56=
85586,2005,01,10,00,00,AAXX 10004 85586 NIL=
85586,2005,01,10,03,00,AAXX 10034 85586 NIL=
85586,2005,01,10,06,00,AAXX 10064 85586 NIL=
85586,2005,01,10,09,00,AAXX 10094 85586 NIL=
85586,2005,01,10,12,00,AAXX 10124 85586 31340 83106 10140 20128 40128 52/// 7051/ 886// 333 20104 30/// 50300 55127 56799 88708=
85586,2005,01,10,15,00,AAXX 10154 85586 41440 82810 10152 20128 40143 52015 70522 885// 333 56699 88612=
85586,2005,01,10,18,00,AAXX 10184 85586 32460 42706 10164 20128 40141 54001 84500 333 56600 84615=
85586,2005,01,10,21,00,AAXX 10214 85586 42960 02806 10166 20131 40127 57014=
85586,2005,01,11,00,00,AAXX 11004 85586 NIL=
85586,2005,01,11,03,00,AAXX 11034 85586 NIL=
85586,2005,01,11,06,00,AAXX 11064 85586 NIL=
85586,2005,01,11,09,00,AAXX 11094 85586 NIL=
85586,2005,01,11,12,00,AAXX 11124 85586 32960 03003 10148 20127 40155 52/// 333 20086 30/// 50400 55073=
85586,2005,01,11,15,00,AAXX 11154 85586 42960 03308 10177 20135 40166 52012=
85586,2005,01,11,18,00,AAXX 11184 85586 32960 02906 10182 20130 40159 58007=
85586,2005,01,11,21,00,AAXX 11214 85586 42960 03003 10182 20132 40141 57018=
85586,2005,01,12,00,00,AAXX 12004 85586 NIL=
85586,2005,01,12,03,00,AAXX 12034 85586 NIL=
85586,2005,01,12,06,00,AAXX 12064 85586 NIL=
85586,2005,01,12,09,00,AAXX 12094 85586 NIL=
85586,2005,01,12,12,00,AAXX 12124 85586 32960 50503 10168 20147 40165 52/// 80001 333 20104 30/// 50360 55122 56005 85075=
85586,2005,01,12,15,00,AAXX 12154 85586 42960 52907 10183 20151 40170 52005 80001 333 56005 85075=
85586,2005,01,12,18,00,AAXX 12184 85586 32960 52610 10195 20148 40169 57010 80001 333 56005 85075=
85586,2005,01,12,21,00,AAXX 12214 85586 42960 22706 10198 20141 40147 57012 80001 333 56005 82075=
85586,2005,01,13,00,00,AAXX 13004 85586 NIL=
85586,2005,01,13,03,00,AAXX 13034 85586 NIL=
85586,2005,01,13,06,00,AAXX 13064 85586 NIL=
85586,2005,01,13,09,00,AAXX 13094 85586 NIL=
85586,2005,01,13,12,00,AAXX 13124 85586 32960 20000 10160 20120 40142 52/// 80001 333 20078 30/// 50310 55123 56006 82075=
85586,2005,01,13,15,00,AAXX 13154 85586 42960 00206 10194 20133 40139 54002 80001 333 56006 82075=
85586,2005,01,13,18,00,AAXX 13184 85586 32960 12912 10180 20133 40145 51005 80001 333 56006 81075=
85586,2005,01,13,21,00,AAXX 13214 85586 42960 13110 10176 20127 40139 56006 80001 333 56006 81075=
85586,2005,01,14,03,00,AAXX 14034 85586 NIL=
85586,2005,01,14,06,00,AAXX 14064 85586 NIL=
85586,2005,01,14,09,00,AAXX 14094 85586 NIL=
85586,2005,01,14,12,00,AAXX 14124 85586 32560 13102 10134 20112 40170 52/// 81500 333 20084 30/// 50360 55124 56000 81625=
85586,2005,01,14,15,00,AAXX 14154 85586 42560 23110 10162 20118 40167 54003 82500 333 56600 82625=
85586,2005,01,14,18,00,AAXX 14184 85586 32960 02714 10174 20113 40169 54003=
85586,2005,01,14,21,00,AAXX 14214 85586 42960 12516 10170 20118 40162 57007 80002 333 56006 81075=
85586,2005,01,15,00,00,AAXX 15004 85586 NIL=
85586,2005,01,15,06,00,AAXX 15064 85586 NIL=
85586,2005,01,15,12,00,AAXX 15124 85586 32960 03003 10153 20122 40162 53/// 333 20083 30/// 50410 55125=
85586,2005,01,15,15,00,AAXX 15154 85586 42960 02907 10186 20127 40160 54001=
85586,2005,01,15,18,00,AAXX 15184 85586 32960 02507 10202 20148 40152 57007=
85586,2005,01,15,21,00,AAXX 15214 85586 42960 02508 10200 20139 40139 57013=
85586,2005,01,16,00,00,AAXX 16004 85586 NIL=
85586,2005,01,16,06,00,AAXX 16064 85586 NIL=
85586,2005,01,16,12,00,AAXX 16124 85586 32960 03103 10162 20142 40149 53/// 333 20083 30/// 50450 55126=
85586,2005,01,16,15,00,AAXX 16154 85586 41359 63211 10173 20155 40166 52017 70522 86600 333 56700 86708=
85586,2005,01,16,18,00,AAXX 16184 85586 32460 23212 10190 20152 40171 52005 82600 333 56700 82710=
85586,2005,01,16,21,00,AAXX 16214 85586 42360 63410 10190 20152 40170 54001 86600 333 56700 86708=
85586,2005,01,17,00,00,AAXX 17004 85586 NIL=
85586,2005,01,17,06,00,AAXX 17064 85586 NIL=
85586,2005,01,17,12,00,AAXX 17124 85586 31450 83304 10150 20138 40175 52/// 7052/ 885// 333 20146 30/// 50280 55076 56799 88613=
85586,2005,01,17,15,00,AAXX 17154 85586 41450 83108 10172 20141 40180 52006 70522 885// 333 56799 88615=
85586,2005,01,17,18,00,AAXX 17184 85586 32560 12510 10196 20143 40174 57006 81500 333 56600 81625=
85586,2005,01,18,00,00,AAXX 18004 85586 NIL=
85586,2005,01,18,06,00,AAXX 18064 85586 NIL=
85586,2005,01,18,12,00,AAXX 18124 85586 31430 83604 10146 20137 40180 52/// 7102/ 886// 333 20144 30/// 50300 55065 56099 88710=
85586,2005,01,18,15,00,AAXX 18154 85586 41456 82504 10160 20143 40182 54003 70522 885// 333 56099 88615=
85586,2005,01,18,18,00,AAXX 18184 85586 NIL=
85586,2005,01,18,21,00,AAXX 18214 85586 42560 72608 10180 20149 40161 57012 87500 333 56600 87620=
85586,2005,01,19,00,00,AAXX 19004 85586 NIL=
85586,2005,01,19,06,00,AAXX 19064 85586 NIL=
85586,2005,01,19,12,00,AAXX 19124 85586 31340 81303 10141 20114 40155 52/// 7052/ 886// 333 20126 30/// 50360 55048 56799 88705=
85586,2005,01,19,15,00,AAXX 19154 85586 41356 22810 10186 20131 40155 50000 70522 82600 333 56700 82708=
85586,2005,01,19,18,00,AAXX 19184 85586 31358 32809 10184 20128 40151 53003 70511 83600 333 56700 83708=
85586,2005,01,19,21,00,AAXX 19214 85586 42360 13004 10187 20128 40143 57008 81600 333 56700 81708=
85586,2005,01,20,12,00,AAXX 20124 85586 31440 83607 10155 20119 40155 52/// 7052/ 886// 333 20144 30/// 50360 55086 56799 88710=
85586,2005,01,20,15,00,AAXX 20154 85586 41440 83012 10167 20124 40162 52007 70522 886// 333 56799 88712=
85586,2005,01,20,18,00,AAXX 20184 85586 31558 43216 10193 20122 40156 58006 70522 84500 333 56700 84620=
85586,2005,01,20,21,00,AAXX 20214 85586 42960 03214 10188 20124 40147 57009=
85586,2005,01,21,12,00,AAXX 21124 85586 32560 83304 10162 20117 40181 52/// 885// 333 20134 30/// 50260 55051 56099 88627=
85586,2005,01,21,15,00,AAXX 21154 85586 42960 03110 10196 20128 40186 52006=
85586,2005,01,21,18,00,AAXX 21184 85586 32960 02806 10204 20130 40188 54000=
85586,2005,01,21,21,00,AAXX 21214 85586 42560 32410 10196 20132 40175 57011 81502 333 56606 81630=
85586,2005,01,22,12,00,AAXX 22124 85586 32960 01404 10156 20123 40190 52/// 333 20092 30/// 50300 55099=
85586,2005,01,22,15,00,AAXX 22154 85586 42960 02410 10200 20142 40191 54003=
85586,2005,01,22,18,00,AAXX 22184 85586 32960 02510 10204 20150 40187 56004=
85586,2005,01,22,21,00,AAXX 22214 85586 42960 02516 10196 20141 40175 57012=
85586,2005,01,23,12,00,AAXX 23124 85586 32260 43106 10167 20128 40194 52/// 84600 333 20124 30/// 50360 55126 56700 84706=
85586,2005,01,23,15,00,AAXX 23154 85586 42960 03205 10193 20142 40196 51002=
85586,2005,01,23,18,00,AAXX 23184 85586 32258 22806 10197 20138 40195 50001 82600 333 56700 82706=
85586,2005,01,23,21,00,AAXX 23214 85586 42960 03010 10196 20126 40189 57006=
85586,2005,01,24,12,00,AAXX 24124 85586 32960 03003 10153 20105 40187 52/// 333 20088 30/// 50390 55128=
85586,2005,01,24,15,00,AAXX 24154 85586 41958 03007 10196 20124 40181 56004 70500=
85586,2005,01,24,18,00,AAXX 24184 85586 32960 02514 10211 20132 40171 57009=
85586,2005,01,24,21,00,AAXX 24214 85586 42960 02812 10209 20132 40154 57017=
85586,2005,01,25,12,00,AAXX 25124 85586 32358 80404 10144 20132 40162 52/// 7052/ 886// 333 20093 30/// 50370 55127 56899 88707=
85586,2005,01,25,15,00,AAXX 25154 85586 41356 13212 10194 20139 40167 51006 70522 81600 333 56700 81708=
85586,2005,01,25,18,00,AAXX 25184 85586 31358 43306 10200 20147 40164 54002 70511 84500 333 56600 84610=
85586,2005,01,25,21,00,AAXX 25214 85586 42460 12906 10190 20141 40165 54001 81500 333 56600 81615=
85586,2005,01,26,12,00,AAXX 26124 85586 32560 82804 10150 20119 40171 52/// 885// 333 20116 30/// 50290 55100 56099 88620=
85586,2005,01,26,15,00,AAXX 26154 85586 42560 82806 10164 20119 40180 52010 885// 333 56699 88627=
85586,2005,01,26,18,00,AAXX 26184 85586 32560 42810 10184 20121 40184 51004 84500 333 56600 84627=
85586,2005,01,26,21,00,AAXX 26214 85586 42560 22707 10188 20121 40180 56004 82500 333 56600 82627=
85586,2005,01,27,12,00,AAXX 27124 85586 31656 61905 10156 20096 40188 51/// 86500 333 20144 30/// 50410 55035 56700 86625=
85586,2005,01,27,15,00,AAXX 27154 85586 41958 02518 10185 20103 40174 57013 70510=
85586,2005,01,27,18,00,AAXX 27184 85586 32960 02516 10185 20112 40167 57008=
85586,2005,01,28,12,00,AAXX 28124 85586 31956 00903 10147 20115 40153 51/// 7050/ 333 20079 30/// 50380 55113=
85586,2005,01,28,15,00,AAXX 28154 85586 41956 02607 10188 20118 40148 58006 70500=
85586,2005,01,28,18,00,AAXX 28184 85586 32960 02518 10206 20118 40135 57011=
85586,2005,01,28,21,00,AAXX 28214 85586 42960 02714 10206 20125 40117 57018=
85586,2005,01,29,12,00,AAXX 29124 85586 31456 80000 10138 20129 40144 52/// 7052/ 885// 333 20102 30/// 50340 55121 56099 88610=
85586,2005,01,29,15,00,AAXX 29154 85586 41456 12706 10174 20139 40154 52011 70522 81500 333 56600 81615=
85586,2005,01,29,18,00,AAXX 29184 85586 32560 42714 10180 20128 40162 51007 84800 333 56600 81820 83640=
85586,2005,01,29,21,00,AAXX 29214 85586 42560 42416 10176 20120 40165 54003 84801 333 56606 81820 83633=
85586,2005,01,30,12,00,AAXX 30124 85586 32960 02406 10122 20088 40202 52/// 333 20048 30/// 50340 55093=
85586,2005,01,30,15,00,AAXX 30154 85586 42560 12708 10160 20105 40199 54001 81500 333 56600 81625=
85586,2005,01,30,18,00,AAXX 30184 85586 32560 12516 10176 20096 40194 57005 81100 333 56600 81825=
85586,2005,01,30,21,00,AAXX 30214 85586 42560 12514 10172 20096 40191 54003 81100 333 56600 81825=
85586,2005,01,31,12,00,AAXX 31124 85586 32960 02404 10152 20058 40205 57/// 333 20056 30/// 50430 55128=
85586,2005,01,31,15,00,AAXX 31154 85586 42960 02614 10182 20076 40187 57017=
85586,2005,01,31,21,00,AAXX 31214 85586 42960 02511 10231 20086 40127 57041=
85586,2005,02,01,12,00,AAXX 01124 85586 32960 01004 10166 20072 40103 53/// 333 20068 30/// 50480 55128=
85586,2005,02,01,15,00,AAXX 01154 85586 42956 03209 10192 20123 40105 51002=
85586,2005,02,01,18,00,AAXX 01184 85586 32958 02912 10209 20120 40105 58002=
85586,2005,02,01,21,00,AAXX 01214 85586 41958 02706 10201 20110 40098 57008 70500=
85586,2005,02,02,12,00,AAXX 02124 85586 31440 83602 10144 20132 40125 52/// 7052/ 886// 333 20084 30/// 50320 55123 56099 88710=
85586,2005,02,02,15,00,AAXX 02154 85586 41456 43106 10172 20129 40134 52010 84500 333 56700 84615=
85586,2005,02,02,18,00,AAXX 02184 85586 31458 82706 10190 20138 40137 54003 70511 82500 333 56700 82617=
85586,2005,02,02,21,00,AAXX 02214 85586 41958 53110 10190 20132 40129 57008 70511 80001 333 56006 85075=
85586,2005,02,03,12,00,AAXX 03124 85586 31558 80000 10142 20123 40159 52/// 7052/ 885// 333 20094 30/// 50300 55103 56099 88620=
85586,2005,02,03,21,00,AAXX 03214 85586 42960 03106 10200 20124 40160 57011=
85586,2005,02,04,12,00,AAXX 04124 85586 31960 00903 10156 20120 40150 52/// 7052/ 333 20082 30/// 50400 55083=
85586,2005,02,04,15,00,AAXX 04154 85586 41956 03107 10194 20125 40159 51009 70500=
85586,2005,02,04,18,00,AAXX 04184 85586 32960 02715 10206 20124 40149 58008=
85586,2005,02,04,21,00,AAXX 04214 85586 41256 12712 10196 20139 40139 57011 70500 81600 333 5670 81706=
85586,2005,02,05,12,00,AAXX 05124 85586 31240 80703 10159 20119 40150 52/// 7052/ 886// 333 20143 30/// 50410 55109 56799 88706=
85586,2005,02,05,15,00,AAXX 05154 85586 41456 82806 10184 20117 40148 50002 70522 885// 333 56799 88612=
85586,2005,02,06,12,00,AAXX 06124 85586 31956 00000 10134 20122 40137 52/// 7050/ 333 20096 30/// 50270 55044=
85586,2005,02,06,18,00,AAXX 06184 85586 32960 02610 10200 20144 40145 54001=
85586,2005,02,07,09,00,AAXX 07094 85586 0900 NIL=
85586,2005,02,07,12,00,AAXX 07124 85586 31456 80000 10134 20124 40157 52/// 7052/ 885// 333 20090 30/// 50310 55097 56099 88610=
85586,2005,02,07,15,00,AAXX 07154 85586 41558 12810 10196 20149 40164 52009 70511 81500 333 56600 81620=
85586,2005,02,07,18,00,AAXX 07184 85586 32960 02708 10198 20143 40165 54002=
85586,2005,02,07,21,00,AAXX 07214 85586 42560 32708 10186 20146 40157 57009 83500 333 56600 83620=
85586,2005,02,08,12,00,AAXX 08124 85586 31240 81404 10145 20121 40136 51/// 7052/ 886// 333 20144 30/// 50400 55100 56799 88706=
85586,2005,02,08,15,00,AAXX 08154 85586 41256 12509 10196 20139 40128 58006 70520 81600 333 56700 81704=
85586,2005,02,08,18,00,AAXX 08184 85586 31220 72612 10196 20147 40128 54001 74000 87600 333 56700 87704=
85586,2005,02,08,21,00,AAXX 08214 85586 41340 83112 10183 20147 40125 58003 70522 886// 333 56799 88708=
85586,2005,02,09,00,00,AAXX 09004 85586 31340 82803 10161 20132 40126 52/// 7052/ 886// 333 10147 30/// 50380 55047 56799 88708=
85586,2005,02,09,09,00,AAXX 09094 85586 0900 NIL=
85586,2005,02,09,15,00,AAXX 09154 85586 41340 83604 10172 20139 40137 52011 70522 886// 333 56799 88708=
85586,2005,02,09,18,00,AAXX 09184 85586 31456 82912 10196 20144 40138 52002 70522 885// 333 56799 88612=
85586,2005,02,09,21,00,AAXX 09214 85586 41440 83407 10186 20149 40138 54001 70522 885// 333 56799 88612=
85586,2005,02,10,12,00,AAXX 10124 85586 31330 82104 10154 20146 40139 52/// 7102/ 886// 333 20150 30/// 50300 55009 56099 88707=
85586,2005,02,10,15,00,AAXX 10154 85586 41440 83104 10173 20145 40147 52009 70522 885// 333 56799 88612=
85586,2005,02,10,18,00,AAXX 10184 85586 31458 83106 10190 20159 40149 54002 70522 885// 333 56799 88617=
85586,2005,02,10,21,00,AAXX 10214 85586 41450 82806 10176 20158 40139 57010 70522 885// 333 56799 88613=
85586,2005,02,11,12,00,AAXX 11124 85586 11320 80000 10154 20148 40142 52/// 69904 7505/ 888// 333 20154 31/// 50270 55000 56099 70000 83707 83813 88620=
85586,2005,02,11,15,00,AAXX 11154 85586 41450 83006 10180 20159 40150 52008 70555 888// 333 56799 83810 88620=
85586,2005,02,11,18,00,AAXX 11184 85586 11458 82804 10190 20165 40160 52010 69911 70522 888// 333 56699 83813 88620=
85586,2005,02,11,21,00,AAXX 11214 85586 41458 83104 10180 20149 40154 58006 70522 885// 333 56799 83615 88626=
85586,2005,02,12,12,00,AAXX 12124 85586 31440 60203 10179 20144 40157 52/// 7052/ 86500 333 20166 30/// 50280 55000 56700 86612=
85586,2005,02,12,15,00,AAXX 12154 85586 41456 23407 10219 20129 40164 52009 70522 82500 333 56700 82615=
85586,2005,02,12,18,00,AAXX 12184 85586 32460 33008 10234 20126 40164 50000 83800 333 56700 81815 82625=
85586,2005,02,12,21,00,AAXX 12214 85586 42960 12812 10222 20140 40164 55000 80001 333 56006 81075=
85586,2005,02,13,12,00,AAXX 13124 85586 31658 60903 10173 20142 40173 52/// 7051/ 86500 333 20122 30/// 50380 55084 56700 86640=
85586,2005,02,13,15,00,AAXX 13154 85586 42460 42810 10214 20147 40179 52008 81101 333 56706 81812 84075=
85586,2005,02,13,18,00,AAXX 13184 85586 32960 32811 10223 20150 40179 55000 80001 333 56006 83075=
85586,2005,02,13,21,00,AAXX 13214 85586 42960 32712 10221 20147 40169 57010 80001 333 56006 83075=
85586,2005,02,14,12,00,AAXX 14124 85586 32960 00000 10168 20134 40182 53/// 333 20105 30/// 50400 55119=
85586,2005,02,14,15,00,AAXX 14154 85586 42960 03107 10207 20149 40181 54001=
85586,2005,02,14,18,00,AAXX 14184 85586 32960 02703 10217 20149 40175 57006=
85586,2005,02,14,21,00,AAXX 14214 85586 42960 02613 10206 20165 40156 57019=
85586,2005,02,15,12,00,AAXX 15124 85586 32960 00902 10151 20135 40146 53/// 333 20100 30/// 50370 55122=
85586,2005,02,15,15,00,AAXX 15154 85586 42960 02710 10190 20149 40150 52005=
85586,2005,02,15,18,00,AAXX 15184 85586 32960 02710 10205 20158 40147 58002=
85586,2005,02,15,21,00,AAXX 15214 85586 42460 52808 10193 20166 40138 57010 85600 333 56700 85710=
85586,2005,02,16,12,00,AAXX 16124 85586 31456 83503 10172 20141 40133 51/// 7052/ 885// 333 20157 30/// 50400 55092 56799 88612=
85586,2005,02,16,15,00,AAXX 16154 85586 41456 83112 10191 20145 40148 52015 70522 888// 333 56799 81810 88615=
85586,2005,02,16,18,00,AAXX 16184 85586 31440 82709 10204 20152 40150 51003 70522 888// 333 56799 81815 88620=
85586,2005,02,16,21,00,AAXX 16214 85586 41456 83007 10199 20156 40144 58006 70522 888// 333 56799 82815 88625=
85586,2005,02,17,12,00,AAXX 17124 85586 31456 80000 10182 20158 40150 51/// 7052/ 885// 333 20174 30/// 50380 55015 56799 88615=
85586,2005,02,17,15,00,AAXX 17154 85586 41456 83107 10193 20153 40166 52016 70522 888// 333 56799 81815 88620=
85586,2005,02,17,18,00,AAXX 17184 85586 31456 82909 10200 20159 40164 50001 70522 888// 333 56799 81815 88625=
85586,2005,02,17,21,00,AAXX 17214 85586 41456 82704 10194 20149 40158 57007 70522 888// 333 56799 81815 88625=
85586,2005,02,18,12,00,AAXX 18124 85586 32960 20000 10147 20140 40137 57/// 80001 333 20114 30/// 50360 55000 56005 82075=
85586,2005,02,18,15,00,AAXX 18154 85586 42460 32710 10195 20172 40150 52015 82601 333 56006 82710=
85586,2005,02,18,18,00,AAXX 18184 85586 32460 62608 10201 20170 40143 57007 85601 333 56606 85710=
85586,2005,02,18,21,00,AAXX 18214 85586 42360 82706 10180 20161 40137 57007 886// 333 56699 88708=
85586,2005,02,19,12,00,AAXX 19124 85586 31350 80000 10170 20154 40138 53/// 7052/ 886// 333 20167 30/// 50300 55061 56799 88709=
85586,2005,02,19,15,00,AAXX 19154 85586 42460 50000 10196 20173 40143 52006 85500 333 56700 85615=
85586,2005,02,19,18,00,AAXX 19184 85586 32460 72507 10208 20177 40155 52011 85501 333 56706 83615 84075=
85586,2005,02,19,21,00,AAXX 19214 85586 42460 83105 10186 20170 40146 58009 885// 333 56799 88615=
85586,2005,02,20,12,00,AAXX 20124 85586 31440 83103 10165 20133 40165 52/// 7052/ 885// 333 20156 30/// 50420 55045 56799 88615=
85586,2005,02,20,15,00,AAXX 20154 85586 41456 83306 10177 20137 40178 52013 70522 885// 333 56799 88615=
85586,2005,02,20,18,00,AAXX 20184 85586 31450 83010 10189 20143 40178 50000 70522 888// 333 56799 81810 88620=
85586,2005,02,20,21,00,AAXX 20214 85586 41556 82907 10182 20135 40169 56009 70522 885// 333 56799 88620=
85586,2005,02,21,12,00,AAXX 21124 85586 31340 80603 10152 20126 40141 54/// 7052/ 886// 333 20142 30/// 50330 55002 56799 88708=
85586,2005,02,21,15,00,AAXX 21154 85586 41340 83205 10166 20128 40149 51009 70522 886// 333 56600 88708=
85586,2005,02,21,18,00,AAXX 21184 85586 31456 72807 10184 20134 40142 58007 70522 87500 333 56700 87615=
85586,2005,02,21,21,00,AAXX 21214 85586 41456 83212 10176 20138 40128 56014 70522 885// 333 56700 88618=
85586,2005,02,22,12,00,AAXX 22124 85586 31357 80402 10122 20116 40139 52/// 7102/ 886// 333 20090 30/// 50290 55012 56799 88707=
85586,2005,02,22,15,00,AAXX 22154 85586 42960 02907 10190 20158 40142 52004=
85586,2005,02,22,18,00,AAXX 22184 85586 32360 52510 10183 20156 40140 54002 85600 333 56700 85708=
85586,2005,02,23,12,00,AAXX 23124 85586 31340 71202 10146 20137 40142 53/// 7102/ 87600 333 20142 30/// 50330 55025 56700 87707=
85586,2005,02,23,15,00,AAXX 23154 85586 41359 32706 10178 20165 40136 52005 70511 83600 333 56700 83707=
85586,2005,02,23,18,00,AAXX 23184 85586 32960 02412 10194 20146 40133 58013=
85586,2005,02,23,21,00,AAXX 23214 85586 42960 02810 10190 20158 40128 57005=
85586,2005,02,24,12,00,AAXX 24124 85586 31456 80903 10161 20132 40163 52/// 7051/ 885// 333 20141 30/// 50430 55095 56799 88615=
85586,2005,02,24,15,00,AAXX 24154 85586 41558 53205 10211 20140 40162 50001 70521 81501 333 56706 81620 84075=
85586,2005,02,24,18,00,AAXX 24184 85586 31458 73105 10202 20146 40164 54001 70511 81501 333 56706 81615 87075=
85586,2005,02,24,21,00,AAXX 24214 85586 42960 63010 10216 20149 40152 57011 80001 333 56006 86075=
85586,2005,02,25,12,00,AAXX 25124 85586 31220 72503 10152 20136 40144 56/// 7401/ 83601 333 20131 30/// 50430 55084 56706 83704 84075=
85586,2005,02,25,15,00,AAXX 25154 85586 41958 12906 10226 20155 40128 57013 70541 80001 333 56006 81075=
85586,2005,02,25,18,00,AAXX 25184 85586 32960 02609 10231 20152 40117 57011=
85586,2005,02,25,21,00,AAXX 25214 85586 41960 03214 10224 20148 40102 57015=
85586,2005,02,26,12,00,AAXX 26124 85586 31358 83303 10172 20162 40104 53/// 7052/ 886// 333 20108 30/// 50410 55110 56799 88708=
85586,2005,02,26,15,00,AAXX 26154 85586 42460 73307 10196 20171 40116 52012 87500 333 56700 87613=
85586,2005,02,26,18,00,AAXX 26184 85586 32960 63112 10207 20176 40117 52003 80001 333 56006 86073=
85586,2005,02,26,21,00,AAXX 26214 85586 42460 73210 10202 20171 40121 52003 82501 333 56606 82615 85073=
85586,2005,02,27,12,00,AAXX 27124 85586 32560 83603 10185 20169 40137 53/// 885// 333 20180 30/// 50340 55065 56699 88620=
85586,2005,02,27,15,00,AAXX 27154 85586 42560 83305 10193 20168 40142 52005 885// 333 56699 88622=
85586,2005,02,27,18,00,AAXX 27184 85586 32560 83207 10207 20175 40134 52004 885// 333 56699 88623=
85586,2005,02,27,21,00,AAXX 27214 85586 42560 53006 10206 20175 40146 54002 85500 333 56600 85625=
85586,2005,02,28,12,00,AAXX 28124 85586 31456 80000 10183 20152 40164 52/// 7052/ 885// 333 20171 30/// 50380 55011 56099 88515=
85586,2005,02,28,15,00,AAXX 28154 85586 41456 82905 10204 20143 40173 51010 70522 888// 333 56799 81815 88620=
85586,2005,02,28,18,00,AAXX 28184 85586 31456 83211 10207 20153 40178 51006 70522 888// 333 56799 81815 88625=
85586,2005,02,28,21,00,AAXX 28214 85586 41556 83306 10201 20148 40175 58004 70522 886// 333 56799 88620=
85586,2005,03,01,12,00,AAXX 01124 85586 31558 82303 10191 20146 40185 52/// 7052/ 885// 333 20176 30/// 50340 55000 56799 88625=
85586,2005,03,01,15,00,AAXX 01154 85586 41458 82307 10212 20134 40193 51009 70522 888// 333 56799 82815 88625=
85586,2005,03,01,18,00,AAXX 01184 85586 32960 62606 10226 20143 40194 51002 80001 333 56006 86075=
85586,2005,03,01,21,00,AAXX 01214 85586 42960 72412 10216 20144 40180 57014 83031 333 56066 83365 84075=
85586,2005,03,02,12,00,AAXX 02124 85586 32960 00000 10140 20133 40179 53/// 333 20098 30/// 50310 55033=
85586,2005,03,02,15,00,AAXX 02154 85586 42960 02705 10212 20175 40171 58005=
85586,2005,03,02,18,00,AAXX 02184 85586 31960 02610 10207 20148 40163 57009=
85586,2005,03,02,21,00,AAXX 02214 85586 42960 02410 10201 20170 40149 57014=
85586,2005,03,03,12,00,AAXX 03124 85586 32960 00000 10144 20130 40129 53/// 333 20108 30/// 50400 55117=
85586,2005,03,03,15,00,AAXX 03154 85586 42960 02807 10195 20155 40133 52006=
85586,2005,03,03,18,00,AAXX 03184 85586 31108 72908 10179 20171 40143 52009 74441 87600 333 56700 87703=
85586,2005,03,04,12,00,AAXX 04124 85586 31208 41303 10165 20155 40180 51/// 7424/ 84600 333 20147 30/// 50340 55061 56700 84704=
85586,2005,03,04,15,00,AAXX 04154 85586 41260 42812 10204 20158 40183 52004 70244 81601 333 56706 81704 83075=
85586,2005,03,04,18,00,AAXX 04184 85586 32960 12520 10235 20155 40167 58014 80001 333 56006 81075=
85586,2005,03,04,21,00,AAXX 04214 85586 42960 12518 10234 20128 40152 57016 80001 333 56006 81075=
85586,2005,03,05,12,00,AAXX 05124 85586 31956 03403 10137 20123 40167 52/// 7050/ 333 20088 30/// 50380 55108=
85586,2005,03,05,15,00,AAXX 05154 85586 41958 02708 10209 20110 40167 51003 70500=
85586,2005,03,05,18,00,AAXX 05184 85586 32960 02618 10207 20105 40157 58010=
85586,2005,03,05,21,00,AAXX 05214 85586 42960 02806 10203 20096 40139 57017=
85586,2005,03,06,12,00,AAXX 06124 85586 31958 70704 10122 20102 40172 52/// 7051/ 87030 333 20075 30/// 50360 55113 56060 87368=
85586,2005,03,06,15,00,AAXX 06154 85586 41558 83215 10162 20113 40199 52027 70522 885// 333 56799 88620=
85586,2005,03,06,18,00,AAXX 06184 85586 32460 73212 10183 20122 40211 51013 81130 333 56760 81815 87368=
85586,2005,03,06,21,00,AAXX 06214 85586 41958 82905 10176 20125 40200 58011 70522 8803/ 333 56060 88368=
85586,2005,03,07,12,00,AAXX 07124 85586 32960 50902 10117 20110 40183 53/// 85030 333 20090 30/// 50230 55008 56060 85363=
85586,2005,03,07,15,00,AAXX 07154 85586 42960 63107 10172 20142 40196 52014 83031 333 56066 83363 83073=
85586,2005,03,07,18,00,AAXX 07184 85586 32460 72707 10160 20135 40201 52004 81131 333 56066 81817 84363=
85586,2005,03,07,21,00,AAXX 07214 85586 42560 82412 10177 20113 40206 52006 84131 333 56066 84820 83363=
85586,2005,03,08,12,00,AAXX 08124 85586 32960 21004 10131 20096 40184 56/// 80001 333 20088 30/// 50330 55033 56006 82075=
85586,2005,03,08,15,00,AAXX 08154 85586 42960 12712 10181 20094 40185 53003 80001 333 56006 81075=
85586,2005,03,08,18,00,AAXX 08184 85586 39660 02518 10181 20098 40182 58004=
85586,2005,03,08,21,00,AAXX 08214 85586 42960 02512 10191 20098 40174 57008=
85586,2005,03,09,12,00,AAXX 09124 85586 32960 00000 10129 20084 40166 56/// 333 20077 30/// 50420 55114=
85586,2005,03,09,15,00,AAXX 09154 85586 42960 02907 10200 20089 40161 58003=
85586,2005,03,09,18,00,AAXX 09184 85586 32960 02812 10214 20102 40154 57006=
85586,2005,03,09,21,00,AAXX 09214 85586 42960 03206 10187 20101 40142 57014=
85586,2005,03,10,12,00,AAXX 10124 85586 32960 00000 10138 20115 40144 52/// 333 20090 30/// 50230 55117=
85586,2005,03,10,15,00,AAXX 10154 85586 42960 03106 10185 20149 40159 52016=
85586,2005,03,10,18,00,AAXX 10184 85586 32960 02907 10202 20164 40150 58008=
85586,2005,03,10,21,00,AAXX 10214 85586 42960 03008 10200 20164 40136 57014=
85586,2005,03,11,12,00,AAXX 11124 85586 32960 50903 10159 20146 40172 52/// 84031 333 20124 30/// 50200 55104 56066 84363=
85586,2005,03,11,15,00,AAXX 11154 85586 41520 83106 10169 20153 40185 52013 79592 8497/ 333 56779 84920 85360=
85586,2005,03,11,18,00,AAXX 11184 85586 11530 80000 10165 20150 40191 52005 60241 78198 8427/ 333 56779 84822 86358=
85586,2005,03,11,21,00,AAXX 11214 85586 41560 82402 10180 20168 40183 58007 70282 8427/ 333 56779 84823 85363=
85586,2005,03,12,12,00,AAXX 12124 85586 11958 71302 10155 20151 40203 52/// 60304 7104/ 85011 333 20148 32/// 50150 55001 56066 70303 85463=
85586,2005,03,12,15,00,AAXX 12154 85586 42560 72303 10196 20180 40217 52015 83131 333 56066 83823 84363=
85586,2005,03,12,18,00,AAXX 12184 85586 32560 50302 10237 20182 40195 58019 81131 333 56066 81823=
85586,2005,03,12,21,00,AAXX 12214 85586 42960 32409 10203 20172 40196 54002 80001 333 56006 83073=
85586,2005,03,13,12,00,AAXX 13124 85586 32960 01403 10165 20145 40151 57/// 333 20117 31/// 50430 55076=
85586,2005,03,13,15,00,AAXX 13154 85586 42960 02509 10231 20159 40140 57009=
85586,2005,03,13,18,00,AAXX 13184 85586 32960 02507 10220 20147 40135 57005=
85586,2005,03,13,21,00,AAXX 13214 85586 41206 83109 10162 20144 40134 56003 74400 886// 333 56799 88704=
85586,2005,03,14,12,00,AAXX 14124 85586 31320 80802 10136 20127 40134 54/// 7102/ 886// 333 20134 31/// 50270 55084 56099 88707=
85586,2005,03,14,15,00,AAXX 14154 85586 41203 82606 10138 20131 40153 52019 74642 886// 333 56699 88704=
85586,2005,03,14,18,00,AAXX 14184 85586 31458 82702 10168 20158 40148 55004 70544 885// 333 56099 88615=
85586,2005,03,14,21,00,AAXX 14214 85586 42460 83104 10168 20152 40141 57007 885// 333 56699 88618=
85586,2005,03,15,00,00,AAXX 15004 85586 32560 30104 10150 20133 40141 54001 83500 333 10174 56800 83626=
85586,2005,03,15,12,00,AAXX 15124 85586 31558 50904 10150 20136 40162 52/// 7052/ 85500 333 20114 31/// 50170 55004 56200 85620=
85586,2005,03,15,15,00,AAXX 15154 85586 42560 32506 10198 20152 40173 52013 83500 333 56600 83625=
85586,2005,03,15,18,00,AAXX 15184 85586 32560 13110 10202 20146 40179 52006 81500 333 56600 81630=
85586,2005,03,15,21,00,AAXX 15214 85586 42960 02606 10196 20139 40169 57012=
85586,2005,03,16,00,00,AAXX 16004 85586 32960 00000 10166 20139 40167 54001 333 10212=
85586,2005,03,16,12,00,AAXX 16124 85586 32960 01506 10136 20126 40167 57/// 333 20108 31/// 50250 55096=
85586,2005,03,16,15,00,AAXX 16154 85586 42960 02607 10200 20152 40170 52005=
85586,2005,03,16,18,00,AAXX 16184 85586 32960 02411 10196 20171 40166 58004=
85586,2005,03,16,21,00,AAXX 16214 85586 42960 02512 10179 20160 40158 57009=
85586,2005,03,17,00,00,AAXX 17004 85586 32960 10000 10158 20141 40163 53005 80001 333 10204 56005 81073=
85586,2005,03,17,12,00,AAXX 17124 85586 32960 30000 10124 20118 40205 52/// 82031 333 20112 30/// 50230 55104 56066 82365=
85586,2005,03,17,15,00,AAXX 17154 85586 42960 02703 10183 20158 40213 52009=
85586,2005,03,17,18,00,AAXX 17184 85586 32960 02312 10194 20159 40206 58007=
85586,2005,03,17,21,00,AAXX 17214 85586 42960 02417 10202 20158 40197 57009=
85586,2005,03,18,00,00,AAXX 18004 85586 32960 00000 10163 20142 40198 54000 333 10205=
85586,2005,03,18,12,00,AAXX 18124 85586 32960 01603 10139 20089 40166 56/// 333 20093 30/// 50340 55104=
85586,2005,03,18,15,00,AAXX 18154 85586 42960 02709 10255 20075 40152 57010=
85586,2005,03,18,18,00,AAXX 18184 85586 32960 12515 10211 20112 40144 57009 80001 333 56006 81075=
85586,2005,03,18,21,00,AAXX 18214 85586 42960 42516 10193 20097 40144 56002 80001 333 56006 84075=
85586,2005,03,19,00,00,AAXX 19004 85586 31958 30000 10151 20098 40150 51005 70511 80001 333 10256 56006 83075=
85586,2005,03,19,12,00,AAXX 19124 85586 31958 02303 10126 20102 40165 51/// 7050/ 333 20088 30/// 50420 55113=
85586,2005,03,19,15,00,AAXX 19154 85586 41956 33005 10183 20098 40170 51006 70500 80001 333 56006 83075=
85586,2005,03,19,18,00,AAXX 19184 85586 31958 32906 10182 20115 40166 58004 70511 80001 333 56006 83075=
85586,2005,03,19,21,00,AAXX 19214 85586 41958 42706 10176 20121 40159 56006 70511 84030 333 56060 84365=
85586,2005,03,20,00,00,AAXX 20004 85586 31958 00707 10156 20125 40176 53017 70511 333 10199=
85586,2005,03,20,12,00,AAXX 20124 85586 32960 72403 10132 20125 40163 52/// 84032 333 20118 30/// 50230 55109 56066 84363 83075=
85586,2005,03,20,15,00,AAXX 20154 85586 42960 62806 10186 20158 40163 54001 84032 333 5656066 84363 83075=
85586,2005,03,20,18,00,AAXX 20184 85586 32360 42710 10192 20149 40148 57015 81601 333 56606 81707 84075=
85586,2005,03,20,21,00,AAXX 20214 85586 42960 32516 10204 20157 40134 57014 80002 333 56006 83075=
85586,2005,03,21,00,00,AAXX 21004 85586 32960 30000 10166 20126 40141 53007 80002 333 10212 56006 83075=
85586,2005,03,21,12,00,AAXX 21124 85586 32960 30000 10114 20101 40134 53/// 80002 333 20114 30/// 50220 55087 56006 83070=
85586,2005,03,21,15,00,AAXX 21154 85586 42960 22806 10188 20157 40143 52010 80002 333 56006 82073=
85586,2005,03,21,18,00,AAXX 21184 85586 32960 12706 10180 20117 40141 54002 80002 333 56006 81075=
85586,2005,03,21,21,00,AAXX 21214 85586 42560 13206 10166 20102 40145 53005 81100 333 56600 81825=
85586,2005,03,22,00,00,AAXX 22004 85586 32960 00000 10124 20104 40157 52011 333 10188=
85586,2005,03,22,12,00,AAXX 22124 85586 31108 20000 10090 20084 40163 53/// 7460/ 82600 333 20074 30/// 50330 55101 56600 82703=
85586,2005,03,22,15,00,AAXX 22154 85586 41320 63104 10134 20122 40183 52011 71044 86600 333 56600 86707=
85586,2005,03,22,18,00,AAXX 22184 85586 32960 03106 10164 20136 40174 58008=
85586,2005,03,22,21,00,AAXX 22214 85586 42360 32504 10168 20137 40167 57007 83600 333 56600 83710=
85586,2005,03,23,00,00,AAXX 23004 85586 32460 13104 10138 20122 40173 53005 81600 333 10174 56600 81710=
85586,2005,03,23,12,00,AAXX 23124 85586 32960 00000 10100 20094 40166 56/// 333 20084 30/// 50300 55083=
85586,2005,03,23,15,00,AAXX 23154 85586 42960 03006 10180 20154 40159 57006=
85586,2005,03,23,18,00,AAXX 23184 85586 32960 03106 10186 20140 40157 54002=
85586,2005,03,23,21,00,AAXX 23214 85586 42960 02808 10186 20154 40157 54001=
85586,2005,03,24,00,00,AAXX 24004 85586 32960 00000 10148 20134 40170 52010 333 10192=
85586,2005,03,24,12,00,AAXX 24124 85586 31240 80505 10135 20115 40173 53/// 7052/ 886// 333 20119 30/// 50320 55104 56799 88705=
85586,2005,03,24,15,00,AAXX 24154 85586 41356 82704 10154 20123 40183 52010 70522 886// 333 56799 88708=
85586,2005,03,24,18,00,AAXX 24184 85586 31358 63205 10163 20116 40173 57009 70522 86600 333 56700 86710=
85586,2005,03,24,21,00,AAXX 24214 85586 41340 82803 10141 20114 40160 57014 70052 886// 333 56799 88707=
85586,2005,03,25,00,00,AAXX 25004 85586 31240 70505 10148 20124 40153 56007 70522 84630 333 10177 56760 84706 83365=
85586,2005,03,25,12,00,AAXX 25124 85586 31220 60804 10126 20112 40147 52/// 7401/ 82630 333 20091 30/// 50290 55027 56760 82702 84365=
85586,2005,03,25,15,00,AAXX 25154 85586 41220 72906 10159 20122 40155 51009 74021 876// 333 56799 87706=
85586,2005,03,25,18,00,AAXX 25184 85586 31320 83109 10163 20125 40151 58004 74022 886// 333 56799 88708=
85586,2005,03,25,21,00,AAXX 25214 85586 41230 82804 10143 20131 40150 58002 72822 886// 333 56799 88706=
85586,2005,03,26,00,00,AAXX 26004 85586 31356 83207 10141 20123 40155 53005 70542 886// 333 10175 56799 88707=
85586,2005,03,26,12,00,AAXX 26124 85586 32560 80000 10130 20115 40183 52/// 885// 333 20128 30/// 50180 55032 56699 88623=
85586,2005,03,26,15,00,AAXX 26154 85586 42560 62505 10152 20128 40197 52014 86500 333 56600 86627=
85586,2005,03,26,18,00,AAXX 26184 85586 32560 13010 10177 20144 40196 54000 81500 333 56600 81627=
85586,2005,03,26,21,00,AAXX 26214 85586 42960 12908 10166 20123 40190 57006 81500 333 56600 81627=
85586,2005,03,27,00,00,AAXX 27004 85586 32960 00000 10130 20119 40194 54002 333 10179=
85586,2005,03,27,12,00,AAXX 27124 85586 32460 61104 10126 20113 40171 57/// 86500 333 20124 30/// 50230 55074 56700 86613=
85586,2005,03,27,15,00,AAXX 27154 85586 42960 12105 10188 20142 40163 57007 80001 333 56005 81075=
85586,2005,03,27,18,00,AAXX 27184 85586 32960 52309 10167 20135 40155 57008 80001 333 56005 85075=
85586,2005,03,27,21,00,AAXX 27214 85586 42960 62407 10165 20122 40134 57011 80001 333 56005 86075=
85586,2005,03,28,00,00,AAXX 28004 85586 32960 50000 10119 20103 40150 52005 80001 333 10191 56005 85075=
85586,2005,03,28,12,00,AAXX 28124 85586 31958 60000 10076 20067 40165 52/// 7052/ 86030 333 20058 31/// 50300 55100 56060 83662=
85586,2005,03,28,15,00,AAXX 28154 85586 42960 42906 10164 20108 40170 52005 84030 333 56060 84362=
85586,2005,03,28,18,00,AAXX 28184 85586 32960 32406 10176 20122 40167 54003 80001 333 56006 83072=
85586,2005,03,28,21,00,AAXX 28214 85586 42960 60000 10182 20117 40165 57013 80002 333 56006 86072=
85586,2005,03,29,00,00,AAXX 29004 85586 32960 60000 10140 20107 40169 52014 80002 333 10200 56006 86072=
85586,2005,03,29,12,00,AAXX 29124 85586 32960 40000 10070 20062 40159 54/// 80001 333 20052 31/// 50250 55072 56006 84075=
85586,2005,03,29,15,00,AAXX 29154 85586 42960 72508 10160 20114 40159 54003 80002 333 56006 87075=
85586,2005,03,29,18,00,AAXX 29184 85586 32960 72612 10164 20117 40154 57005 80002 333 56006 87073=
85586,2005,03,29,21,00,AAXX 29214 85586 42960 82704 10147 20121 40152 56003 80002 333 56006 88073=
85586,2005,03,30,00,00,AAXX 30004 85586 32960 73602 10128 20108 40151 54001 80002 333 10174 56006 87073=
85586,2005,03,30,12,00,AAXX 30124 85586 31440 83403 10126 20104 40172 52/// 7052/ 885// 333 20114 30/// 50260 55022 56799 88615=
85586,2005,03,30,15,00,AAXX 30154 85586 41440 82706 10136 20103 40173 51007 70522 886// 333 56799 88710=
85586,2005,03,30,18,00,AAXX 30184 85586 31458 62803 10156 20099 40178 51006 70522 86500 333 56700 86615=
85586,2005,03,30,21,00,AAXX 30214 85586 42560 72506 10144 20099 40179 54001 82531 333 56766 82620 84365=
85586,2005,03,31,00,00,AAXX 31004 85586 31956 83104 10128 20107 40175 58004 70522 8803/ 333 10158 56069 88362=
85586,2005,03,31,12,00,AAXX 31124 85586 31958 80403 10113 20092 40187 51/// 7052/ 8803/ 333 20103 30/// 50230 55019 56069 88362=
85586,2005,03,31,15,00,AAXX 31154 85586 41558 82704 10141 20099 40193 51006 70522 8211/ 333 56769 82820 86457=
85586,2005,03,31,18,00,AAXX 31184 85586 31560 82511 10146 20101 40187 58006 70522 8117/ 333 56769 81820 83457 85365=
85586,2005,03,31,21,00,AAXX 31214 85586 42560 83007 10163 20089 40119 57015 8117/ 333 56769 81820 83457 85365=
85586,2005,04,01,00,00,AAXX 01004 85586 31956 70403 10133 20102 40182 55000 70522 87030 333 10165 56060 87362=
85586,2005,04,01,12,00,AAXX 01124 85586 32960 20602 10066 20058 40180 52/// 82030 333 20066 31/// 50240 55062 56060 82363=
85586,2005,04,01,15,00,AAXX 01154 85586 42960 02806 10152 20117 40185 52007=
85586,2005,04,01,18,00,AAXX 01184 85586 32960 12510 10164 20106 40182 54002 80002 333 56006 81075=
85586,2005,04,01,21,00,AAXX 01214 85586 42960 12506 10146 20095 40183 54001 80002 333 56006 81075=
85586,2005,04,02,12,00,AAXX 02124 85586 31340 80906 10100 20092 40196 54/// 7102/ 886// 333 20094 30/// 50340 55100 56000 88707=
85586,2005,04,02,15,00,AAXX 02154 85586 42960 02508 10144 20109 40198 51003=
85586,2005,04,02,18,00,AAXX 02184 85586 32360 32610 10144 20114 40192 57006 83600 333 56600 83708=
85586,2005,04,02,21,00,AAXX 02214 85586 42360 32807 10141 20111 40185 57007 83600 333 56600 83708=
85586,2005,04,03,00,00,AAXX 03004 85586 32960 03602 10116 20103 40186 54001 333 10154=
85586,2005,04,03,12,00,AAXX 03124 85586 32960 00000 10098 20086 40162 53/// 333 20050 30/// 50200 55090=
85586,2005,04,03,15,00,AAXX 03154 85586 42960 03005 10176 20132 40169 52009=
85586,2005,04,03,18,00,AAXX 03184 85586 32960 03205 10169 20112 40176 51007=
85586,2005,04,03,21,00,AAXX 03214 85586 42260 23207 10148 20122 40176 54001 82600 333 56700 82706=
85586,2005,04,04,00,00,AAXX 04004 85586 32960 00202 10119 20113 40184 52008 333 10176=
85586,2005,04,04,12,00,AAXX 04124 85586 31250 80704 10101 20095 40182 53/// 7102/ 886// 333 20100 30/// 50190 55106 56799 88705=
85586,2005,04,04,15,00,AAXX 04154 85586 42260 42905 10130 20112 40188 52007 84600 333 56700 84706=
85586,2005,04,04,18,00,AAXX 04184 85586 32260 13105 10146 20118 40173 58015 81600 333 56700 81706=
85586,2005,04,04,21,00,AAXX 04214 85586 41108 82705 10132 20123 40170 57003 74642 886// 333 56799 88703=
85586,2005,04,05,00,00,AAXX 05004 85586 31120 83602 10125 20117 40170 54000 71022 886// 333 10149 56799 88703=
85586,2005,04,05,12,00,AAXX 05124 85586 31903 01204 10083 20077 40183 52/// 7444/ 333 20062 30/// 50230 55054=
85586,2005,04,05,15,00,AAXX 05154 85586 41920 03006 10156 20112 40190 51008 74044=
85586,2005,04,05,18,00,AAXX 05184 85586 31260 12611 10161 20113 40181 58008 70144 81600 333 56700 81704=
85586,2005,04,05,21,00,AAXX 05214 85586 41960 02711 10176 20108 40161 57020 70240=
85586,2005,04,06,00,00,AAXX 06004 85586 31956 00103 10127 20089 40160 56008 70500 333 10195=
85586,2005,04,06,12,00,AAXX 06124 85586 31956 01003 10069 20059 40172 52/// 7050/ 333 20041 30/// 50280 55099=
85586,2005,04,06,15,00,AAXX 06154 85586 41956 03106 10157 20102 40170 54001 70500=
85586,2005,04,06,18,00,AAXX 06184 85586 32960 02712 10171 20082 40116 50002=
85586,2005,04,06,21,00,AAXX 06214 85586 42960 02712 10155 20086 40171 53003=
85586,2005,04,07,00,00,AAXX 07004 85586 31256 12804 10121 20095 40184 52012 70500 81600 333 10174 56600 81704=
85586,2005,04,07,12,00,AAXX 07124 85586 32960 01204 10080 20072 40202 53/// 333 20060 30/// 50180 55105=
85586,2005,04,07,15,00,AAXX 07154 85586 42960 02106 10190 20103 40197 54002=
85586,2005,04,07,18,00,AAXX 07184 85586 32960 02610 10170 20128 40177 57020=
85586,2005,04,07,21,00,AAXX 07214 85586 42960 02509 10152 20128 40165 57013=
85586,2005,04,08,12,00,AAXX 08124 85586 32960 01202 10060 20034 40166 53/// 333 20040 30/// 50240 55107=
85586,2005,04,08,15,00,AAXX 08154 85586 42960 02805 10149 20098 40172 52008=
85586,2005,04,08,18,00,AAXX 08184 85586 32960 03006 10156 20116 40168 58003=
85586,2005,04,08,21,00,AAXX 08214 85586 42960 03105 10147 20112 40170 54001=
85586,2005,04,09,00,00,AAXX 09004 85586 32960 00000 10110 20093 40170 54000 333 10163=
85586,2005,04,09,12,00,AAXX 09124 85586 31257 30000 10072 20064 40163 53/// 7101/ 82600 333 20045 30/// 50190 55104 56000 82704=
85586,2005,04,09,15,00,AAXX 09154 85586 41120 23005 10120 20109 40166 52005 71000 82600 333 56000 82702=
85586,2005,04,09,18,00,AAXX 09184 85586 32960 02908 10156 20124 40156 57009=
85586,2005,04,09,21,00,AAXX 09214 85586 42960 03009 10148 20117 40156 54001=
85586,2005,04,10,00,00,AAXX 10004 85586 32960 00104 10118 20111 40154 54002 333 10158=
85586,2005,04,10,12,00,AAXX 10124 85586 31102 80000 10090 20086 40157 53/// 7444/ 886// 333 20045 30/// 50220 55101 56099 88702=
85586,2005,04,10,15,00,AAXX 10154 85586 41120 30000 10121 20115 40169 52013 71042 83600 333 56000 83703=
85586,2005,04,10,18,00,AAXX 10184 85586 31960 03103 10150 20124 40161 58008 70141=
85586,2005,04,10,21,00,AAXX 10214 85586 42960 02507 10153 20118 40151 57010=
85586,2005,04,11,00,00,AAXX 11004 85586 32960 00903 10120 20107 40162 52011 333 10158=
85586,2005,04,11,12,00,AAXX 11124 85586 32960 70000 10088 20077 40184 52/// 87030 333 20057 30/// 50230 55076 56060 87362=
85586,2005,04,11,15,00,AAXX 11154 85586 42960 42507 10169 20118 40180 50002 84030 333 56060 84362=
85586,2005,04,11,18,00,AAXX 11184 85586 32960 42512 10165 20105 40164 57016 81130 333 56760 81815 84362=
85586,2005,04,11,21,00,AAXX 11214 85586 42460 22707 10158 20096 40150 57015 81130 333 56760 81815 81362=
85586,2005,04,12,00,00,AAXX 12004 85586 31940 01103 10123 20092 40149 55001 70500 333 10170=
85586,2005,04,12,12,00,AAXX 12124 85586 31956 10000 10056 20041 40149 52/// 7051/ 81030 333 20049 30/// 50220 55094 56070 81362=
85586,2005,04,12,15,00,AAXX 12154 85586 41958 42904 10151 20102 40154 52007 70511 84030 333 56070 84362=
85586,2005,04,12,18,00,AAXX 12184 85586 31958 63106 10146 20102 40151 58003 70511 86030 333 56070 86360=
85586,2005,04,12,21,00,AAXX 12214 85586 42960 22604 10152 20102 40148 58003 82030 333 56070 82362=
85586,2005,04,13,00,00,AAXX 13004 85586 31540 30000 10124 20100 40154 53006 70511 83500 333 10161 56600 83620=
85586,2005,04,13,12,00,AAXX 13124 85586 32560 70000 10100 20091 40184 52/// 87500 333 20076 30/// 50240 55082 56000 87620=
85586,2005,04,13,15,00,AAXX 13154 85586 42560 83006 10140 20106 40195 52012 885// 333 56799 88630=
85586,2005,04,13,18,00,AAXX 13184 85586 32960 02804 10166 20114 40188 57006=
85586,2005,04,13,21,00,AAXX 13214 85586 42960 02706 10160 20093 40179 57009=
85586,2005,04,14,00,00,AAXX 14004 85586 32960 00000 10106 20089 40179 54001 333 10168=
85586,2005,04,14,12,00,AAXX 14124 85586 32960 00000 10064 20056 40188 53/// 333 20052 30/// 50260 55058=
85586,2005,04,14,15,00,AAXX 14154 85586 42960 02808 10150 20115 40196 51010=
85586,2005,04,14,18,00,AAXX 14184 85586 32960 02615 10154 20098 40188 57008=
85586,2005,04,14,21,00,AAXX 14214 85586 42960 12508 10140 20104 40182 57006 80001 333 56006 81075=
85586,2005,04,15,00,00,AAXX 15004 85586 32960 10000 10100 20085 40183 54000 80001 333 10164 56006 81075=
85586,2005,04,15,12,00,AAXX 15124 85586 32960 01405 10116 20101 40124 57/// 333 20048 30/// 50170 55095=
85586,2005,04,15,15,00,AAXX 15154 85586 42960 01505 10223 20122 40121 54000=
85586,2005,04,15,18,00,AAXX 15184 85586 32960 02810 10215 20133 40094 57027=
85586,2005,04,15,21,00,AAXX 15214 85586 42960 03105 10194 20140 40083 57011=
85586,2005,04,16,00,00,AAXX 16004 85586 32960 00203 10135 20117 40094 53008 333 10248=
85586,2005,04,16,12,00,AAXX 16124 85586 31240 60000 10087 20081 40149 52/// 7102/ 86600 333 20053 30/// 50250 55106 56600 86704=
85586,2005,04,16,15,00,AAXX 16154 85586 41256 12203 10174 20117 40156 51009 70522 81600 333 56600 81707=
85586,2005,04,16,18,00,AAXX 16184 85586 31957 03005 10160 20126 40155 54001 70500=
85586,2005,04,16,21,00,AAXX 16214 85586 41958 02606 10154 20128 40166 52010 70500=
85586,2005,04,17,00,00,AAXX 17004 85586 31256 82402 10131 20121 40168 54002 70522 886// 333 10178 56699 88706=
85586,2005,04,17,15,00,AAXX 17154 85586 41956 22804 10174 20111 40170 50002 70544 80001 333 56006 82075=
85586,2005,04,17,18,00,AAXX 17184 85586 31958 52906 10166 20110 40166 58004 70541 80001 333 56006 85075=
85586,2005,04,17,21,00,AAXX 17214 85586 42960 02906 10163 20112 40157 57009=
85586,2005,04,18,00,00,AAXX 18004 85586 31956 00506 10126 20102 40162 51004 70511 333 10178=
85586,2005,04,18,12,00,AAXX 18124 85586 31958 41403 10089 20079 40157 53/// 7051/ 80001 333 20053 30/// 50220 55094 56006 84075=
85586,2005,04,18,15,00,AAXX 18154 85586 41958 61407 10219 20092 40151 58002 70511 80001 333 56006 86075=
85586,2005,04,18,18,00,AAXX 18184 85586 32960 42516 10206 20114 40139 57012 80001 333 56006 84075=
85586,2005,04,18,21,00,AAXX 18214 85586 42960 43604 10203 20123 40135 57005 84030 333 56060 84365=
85586,2005,04,19,00,00,AAXX 19004 85586 31956 00000 10129 20096 40154 52017 70500 333 10223=
85586,2005,04,19,12,00,AAXX 19124 85586 32960 01502 10100 20081 40159 54/// 333 20096 30/// 50300 55105=
85586,2005,04,19,15,00,AAXX 19154 85586 42960 02704 10246 20097 40152 54002=
85586,2005,04,19,18,00,AAXX 19184 85586 32960 12510 10214 20117 40138 57015 80001 333 56006 81075=
85586,2005,04,19,18,02,AAXX 19184 85586 32960 12510 10214 20117 40138 57015 80001 333 56006 81075=
85586,2005,04,19,21,00,AAXX 19214 85586 42960 43504 10178 20109 40137 54003 80001 333 56006 84075=
85586,2005,04,20,00,00,AAXX 20004 85586 32960 43504 10140 20113 40146 53008 80001 333 10260 56006 84075=
85586,2005,04,20,12,00,AAXX 20124 85586 31101 80000 10096 20088 40168 52/// 7464/ 886// 333 20073 30/// 50330 55102 56099 88702=
85586,2005,04,20,15,00,AAXX 20154 85586 41104 83601 10128 20124 40180 52013 74444 886// 333 56099 88702=
85586,2005,04,20,18,00,AAXX 20184 85586 31240 83105 10144 20133 40168 58012 71042 886// 333 56099 88704=
85586,2005,04,20,21,00,AAXX 20214 85586 41120 83203 10130 20126 40165 57003 71022 886// 333 56099 88703=
85586,2005,04,21,00,00,AAXX 21004 85586 31230 80000 10115 20111 40168 53003 71022 886// 333 10141 56099 88704=
85586,2005,04,21,12,00,AAXX 21124 85586 31101 81204 10070 20062 40180 53/// 7464/ 886// 333 20070 30/// 50210 55000 56399 88702=
85586,2005,04,21,18,00,AAXX 21184 85586 31203 82506 10126 20123 40159 57016 73444 886// 333 56699 88706=
85586,2005,04,21,21,00,AAXX 21214 85586 41956 02705 10140 20108 40147 57012 70542=
85586,2005,04,22,00,00,AAXX 22004 85586 32956 00904 10104 20093 40159 52011 333 10140=
85586,2005,04,22,12,00,AAXX 22124 85586 31902 30000 10072 20068 40166 53/// 7444/ 80001 333 20052 30/// 50160 55063 56005 83075=
85586,2005,04,22,15,00,AAXX 22154 85586 41108 82505 10105 20099 40176 52011 74242 886// 333 56099 88702=
85586,2005,04,22,18,00,AAXX 22184 85586 31108 82405 10119 20113 40171 58004 74442 886// 333 56099 88702=
85586,2005,04,22,21,00,AAXX 22214 85586 41220 82905 10120 20116 40164 57007 71022 886// 333 56099 88704=
85586,2005,04,23,00,00,AAXX 23004 85586 31120 80000 10117 20113 40169 53005 71022 886// 333 10140 56099 88703=
85586,2005,04,23,12,00,AAXX 23124 85586 31940 41503 10091 20081 40157 7051/ 84030 333 20083 30/// 50180 55008 56060 84362=
85586,2005,04,23,15,00,AAXX 23154 85586 41956 50303 10134 20112 40163 53007 70511 85030 333 56060 85312=
85586,2005,04,23,18,00,AAXX 23184 85586 31956 83003 10155 20112 40150 57012 70521 8803/ 333 56069 88312=
85586,2005,04,23,21,00,AAXX 23214 85586 41956 80000 10148 20118 40150 50001 70522 8803/ 333 56069 88310=
85586,2005,04,24,00,00,AAXX 24004 85586 31940 70000 10142 20123 40156 53006 70522 87030 333 10177 56060 87362=
85586,2005,04,24,12,00,AAXX 24124 85586 31956 10000 10082 20074 40159 53/// 7051/ 81031 333 20071 30/// 50210 55017 56066 81365=
85586,2005,04,24,15,00,AAXX 24154 85586 41956 12904 10177 20118 40153 58004 70500 80001 333 56006 81075=
85586,2005,04,24,18,00,AAXX 24184 85586 31920 12907 10159 20119 40151 50002 74000 80001 333 56006 81075=
85586,2005,04,24,21,00,AAXX 24214 85586 42960 02804 10163 20112 40152 55001=
85586,2005,04,25,00,00,AAXX 25004 85586 31956 00703 10114 20090 40160 51003 70500 333 10178=
85586,2005,04,25,12,00,AAXX 25124 85586 31550 60806 10114 20103 40195 52/// 7052/ 86500 333 20066 30/// 50270 55102 56200 86620=
85586,2005,04,25,18,00,AAXX 25184 85586 31956 03006 10172 20117 40192 54003 70511=
85586,2005,04,25,21,00,AAXX 25214 85586 41958 02802 10162 20128 40191 54002 70500=
85586,2005,04,26,00,00,AAXX 26004 85586 32560 80000 10140 20117 40206 52015 885// 333 10184 56099 88620=
85586,2005,04,26,12,00,AAXX 26124 85586 31556 80000 10130 20107 40212 54/// 70522 885// 333 20104 30/// 50220 55081 56099 88620=
85586,2005,04,26,15,00,AAXX 26154 85586 41440 83102 10146 20117 40221 52011 70522 885// 333 56099 88617=
85586,2005,04,26,18,00,AAXX 26184 85586 31556 82604 10166 20122 40211 58009 70522 885// 333 56099 88625=
85586,2005,04,26,21,00,AAXX 26214 85586 41556 70000 10150 20114 40211 54001 70522 87500 333 56000 87625=
85586,2005,04,27,00,00,AAXX 27004 85586 31558 82604 10138 20106 40217 53006 70522 885// 333 10169 56099 88626=
85586,2005,04,27,12,00,AAXX 27124 85586 32360 50000 10086 20074 40220 54/// 82631 333 20078 30/// 50170 55000 56766 82709=
85586,2005,04,27,15,00,AAXX 27154 85586 42560 73304 10152 20113 40221 54003 82530 333 56760 82620 85366=
85586,2005,04,27,18,00,AAXX 27184 85586 32460 80000 10146 20093 40221 54000 8553/ 333 56760 85615 84365=
85586,2005,04,27,21,00,AAXX 27214 85586 42460 73103 10149 20116 40208 57013 81530 333 56760 81617 87365=
85586,2005,04,28,00,00,AAXX 28004 85586 32960 40000 10108 20092 40203 52006 82031 333 10167 56066 82365=
85586,2005,04,28,12,00,AAXX 28124 85586 12560 42405 10110 20095 40210 52/// 60034 81531 333 20082 32/// 50170 55005 56666 70030 81623=
85586,2005,04,28,15,00,AAXX 28154 85586 42960 02403 10166 20126 40219 52021=
85586,2005,04,28,18,00,AAXX 28184 85586 32960 02708 10186 20145 40203 58016=
85586,2005,04,28,21,00,AAXX 28214 85586 42960 02412 10186 20149 40200 57003=
85586,2005,04,29,00,00,AAXX 29004 85586 32960 00000 10125 20097 40212 52010 333 10193=
85586,2005,04,29,12,00,AAXX 29124 85586 31958 10000 10083 20065 40184 57/// 7051/ 80001 333 20071 31/// 50210 55094 56006 81075=
85586,2005,04,29,15,00,AAXX 29154 85586 42960 21209 10227 20096 40171 54001 80001 333 56006 82075=
85586,2005,04,29,18,00,AAXX 29184 85586 32960 12609 10207 20105 40154 57017 80001 333 56006 81075=
85586,2005,04,29,21,00,AAXX 29214 85586 42960 00000 10174 20117 40154 56002=
85586,2005,04,30,00,00,AAXX 30004 85586 31956 00505 10126 20104 40165 51010 70500 333 10239=
85586,2005,04,30,12,00,AAXX 30124 85586 31202 80705 10104 20097 40176 51/// 7464/ 886// 333 20093 31/// 50190 55100 56099 88704=
85586,2005,04,30,15,00,AAXX 30154 85586 41208 80000 10116 20103 40189 51014 74244 86/// 333 56700 88704=
85586,2005,04,30,18,00,AAXX 30184 85586 31220 82807 10131 20104 40184 58005 74044 886// 333 56799 88706=
85586,2005,04,30,21,00,AAXX 30214 85586 41230 82505 10115 20094 40188 53004 70544 886// 333 56799 88705=
85586,2005,05,01,00,00,AAXX 01004 85586 31240 82305 10116 20093 40202 52013 70542 886// 333 10154 56799 88704=
85586,2005,05,01,12,00,AAXX 01124 85586 31320 80902 10092 20080 40183 57/// 70522 886// 333 20092 30/// 50170 55018 56099 88708=
85586,2005,05,01,15,00,AAXX 01154 85586 41430 83104 10106 20087 40189 53007 70522 886// 333 56099 88710=
85586,2005,05,01,18,00,AAXX 01184 85586 31456 22808 10134 20104 40175 57014 70522 82500 333 56600 82615=
85586,2005,05,01,21,00,AAXX 01214 85586 41456 80000 10116 20087 40171 56004 70522 885// 333 56099 88613=
85586,2005,05,02,00,00,AAXX 02004 85586 31458 80000 10110 20086 40174 54003 70522 885// 333 10138 56099 88615=
85586,2005,05,02,12,00,AAXX 02124 85586 11220 81204 10100 20092 40155 56/// 69914 7502/ 886// 333 20098 31/// 50150 55021 56099 70001 88706=
85586,2005,05,02,15,00,AAXX 02154 85586 41215 80000 10114 20107 40153 54001 71055 886// 333 56099 88706=
85586,2005,05,02,18,00,AAXX 02184 85586 11430 83104 10140 20112 40133 57020 69901 70522 885// 333 56699 88613=
85586,2005,05,02,21,00,AAXX 02214 85586 41458 83104 10144 20112 40128 56005 70522 8453/ 333 56779 84617 85363=
85586,2005,05,03,00,00,AAXX 03004 85586 31558 80000 10140 20113 40143 52015 70522 885// 333 10150 56099 88620=
85586,2005,05,03,12,00,AAXX 03124 85586 11458 70000 10121 20117 40131 53/// 69954 7102/ 82571 333 20121 31/// 50130 55001 56666 70005 82623 85363=
85586,2005,05,03,15,00,AAXX 03154 85586 41530 80506 10135 20117 40144 52013 76162 8252/ 333 56669 82620 87460=
85586,2005,05,03,18,00,AAXX 03184 85586 11558 83606 10149 20128 40132 58010 60041 76062 8552/ 333 56669 85623 84460=
85586,2005,05,03,21,00,AAXX 03214 85586 42560 73307 10169 20139 40130 54001 83370 333 56660 83823 84460=
85586,2005,05,04,00,00,AAXX 04004 85586 32560 33612 10167 20122 40134 52004 83200 333 10170 56800 83825=
85586,2005,05,04,12,00,AAXX 04124 85586 11540 82409 10116 20112 40219 52/// 60314 7616/ 8882/ 333 20116 32/// 50090 55001 56779 70311 83620 88458=
85586,2005,05,04,15,00,AAXX 04154 85586 41357 70000 10125 20116 40247 52028 70562 96520 333 56660 82709=
85586,2005,05,04,18,00,AAXX 04184 85586 11560 62605 10154 20102 40245 54001 60021 70262 83231 333 56666 83823=
85586,2005,05,04,21,00,AAXX 04214 85586 42560 52407 10138 20102 40247 54002 83201 333 56606 83825=
85586,2005,05,05,00,00,AAXX 05004 85586 31958 00000 10111 20092 40250 50002 70500 333 10156=
85586,2005,05,05,12,00,AAXX 05124 85586 12960 71804 10082 20046 40224 56/// 60014 80001 333 20071 31/// 50150 55035 56006 70019 87075=
85586,2005,05,05,15,00,AAXX 05154 85586 42960 61105 10125 20057 40226 51003 80001 333 56006 86075=
85586,2005,05,05,18,00,AAXX 05184 85586 32960 42007 10173 20051 40212 58012 80001 333 56006 84075=
85586,2005,05,05,21,00,AAXX 05214 85586 42960 32514 10143 20084 40214 54001 80001 333 56006 83075=
85586,2005,05,06,12,00,AAXX 06124 85586 32960 01203 10032 20012 40250 52/// 333 20022 34/// 50120 55076=
85586,2005,05,06,15,00,AAXX 06154 85586 41956 03003 10127 20080 40249 51002 70500=
85586,2005,05,06,18,00,AAXX 06184 85586 32960 03005 10153 20075 40237 57011=
85586,2005,05,06,21,00,AAXX 06214 85586 42960 32707 10132 20076 40230 57008 80001 333 56006 83075=
85586,2005,05,07,00,00,AAXX 07004 85586 31956 00000 10066 20049 40235 53003 70500 333 10154=
85586,2005,05,07,12,00,AAXX 07124 85586 31920 80000 10068 20060 40193 56/// 7102/ 8801/ 333 20044 31/// 50220 55102 56069 88460=
85586,2005,05,07,15,00,AAXX 07154 85586 41940 81004 10102 20095 40203 53010 70522 8803/ 333 56069 88360=
85586,2005,05,07,18,00,AAXX 07184 85586 31956 81204 10128 20100 40180 58021 70522 8803/ 333 56069 88360=
85586,2005,05,07,21,00,AAXX 07214 85586 41956 80810 10124 20097 40178 54002 70522 8803/ 333 56069 88360=
85586,2005,05,08,00,00,AAXX 08004 85586 31656 81506 10126 20089 40174 56004 70522 8553/ 333 10131 56369 85650 88360=
85586,2005,05,08,12,00,AAXX 08124 85586 11958 60000 10094 20080 40194 52/// 60024 7052/ 86030 333 20094 31/// 50150 55000 56060 70016 86360=
85586,2005,05,08,15,00,AAXX 08154 85586 42960 33604 10178 20116 40198 51005 80001 333 56006 83075=
85586,2005,05,08,18,00,AAXX 08184 85586 32960 33006 10170 20109 40191 57007 80001 333 56006 83075=
85586,2005,05,08,21,00,AAXX 08214 85586 42960 62904 10160 20113 40185 55006 80001 333 56006 86075=
85586,2005,05,09,00,00,AAXX 09004 85586 32960 60000 10122 20104 40192 52005 80001 333 10180 56006 86075=
85586,2005,05,09,12,00,AAXX 09124 85586 31958 80000 10114 20108 40180 57/// 7102/ 8807/ 333 20114 31/// 50090 55081 56079 88362=
85586,2005,05,09,15,00,AAXX 09154 85586 41220 80000 10131 20127 40183 53003 71042 8667/ 333 56779 86704 83362=
85586,2005,05,09,18,00,AAXX 09184 85586 31960 83002 10146 20136 40176 58007 70242 85071 333 56066 85362 83070=
85586,2005,05,09,21,00,AAXX 09214 85586 42960 80000 10150 20133 40172 57004 8807/ 333 56069 88362=
85586,2005,05,10,00,00,AAXX 10004 85586 32960 80000 10133 20124 40169 53003 8807/ 333 10151 56069 88362=
85586,2005,05,10,12,00,AAXX 10124 85586 12560 60000 10114 20110 40203 52/// 60054 86200 333 20114 32/// 50100 55000 56600 70047 86825=
85586,2005,05,10,15,00,AAXX 10154 85586 42460 12403 10164 20148 40216 52014 81100 333 56600 81817=
85586,2005,05,10,18,00,AAXX 10184 85586 32560 12407 10166 20127 40207 57008 81100 333 56600 81822=
85586,2005,05,10,21,00,AAXX 10214 85586 42960 02407 10162 20132 40202 57006=
85586,2005,05,11,00,00,AAXX 11004 85586 32960 01905 10122 20108 40213 52012 333 10178=
85586,2005,05,11,12,00,AAXX 11124 85586 32160 61203 10086 20068 40158 57/// 80001 333 20084 31/// 50150 55086 56006 86075=
85586,2005,05,11,15,00,AAXX 11154 85586 42960 52606 10147 20096 40157 55001 80001 333 56006 85075=
85586,2005,05,11,18,00,AAXX 11184 85586 32960 82706 10154 20094 40141 58016 80031 333 56066 82365 86075=
85586,2005,05,11,21,00,AAXX 11214 85586 41958 72503 10146 20102 40134 57007 70522 87030 333 56060 87365=
85586,2005,05,12,00,00,AAXX 12004 85586 31956 50000 10114 20091 40143 53009 70522 80001 333 10165 56006 85075=
85586,2005,05,12,12,00,AAXX 12124 85586 31958 61503 10072 20060 40143 52/// 7051/ 81031 333 20063 31/// 50160 55047=
85586,2005,05,12,15,00,AAXX 12154 85586 42960 40203 10158 20097 40150 51010 81031 333 56066 81362 83075=
85586,2005,05,12,18,00,AAXX 12184 85586 32960 23107 10171 20095 40143 56007 81031 333 56066 81362=
85586,2005,05,12,21,00,AAXX 12214 85586 42460 83107 10163 20069 40149 53006 8453/ 333 56769 84610 84360=
85586,2005,05,13,00,00,AAXX 13004 85586 31456 83105 10151 20121 40169 52009 70522 885// 333 10174 56799 88615=
85586,2005,05,13,12,00,AAXX 13124 85586 11658 81204 10110 20098 40187 52/// 69924 70522 8353/ 333 20110 31/// 50210 55064 56069 70002 83650 88360=
85586,2005,05,13,15,00,AAXX 13154 85586 41660 81804 10136 20069 40190 54003 70262 8353/ 333 56069 83633 88360=
85586,2005,05,13,18,00,AAXX 13184 85586 12660 82106 10140 20085 40178 57012 69911 8253/ 333 56069 82633 88360=
85586,2005,05,13,21,00,AAXX 13214 85586 42560 82406 10130 20083 40179 54001 81532 333 56066 81625 85360=
85586,2005,05,14,00,00,AAXX 14004 85586 32960 81804 10106 20077 40183 53005 8803/ 333 10142 56069 88360=
85586,2005,05,14,12,00,AAXX 14124 85586 12560 50000 10062 20045 40187 54/// 69914 83501 333 20056 31/// 50150 55000 56006 70001 83626 83075=
85586,2005,05,14,15,00,AAXX 14154 85586 42560 61808 10130 20078 40188 54003 81501 333 56406 81626 86075=
85586,2005,05,14,18,00,AAXX 14184 85586 32560 31906 10168 20070 40161 57022 81501 333 56406 81626 83075=
85586,2005,05,14,21,00,AAXX 14214 85586 42560 22406 10150 20088 40156 56006 81101 333 56406 81820=
85586,2005,05,15,00,00,AAXX 15004 85586 32960 02304 10092 20070 40168 53001 333 10175=
85586,2005,05,15,12,00,AAXX 15124 85586 32960 00000 10028 20018 40209 52/// 333 20025 31/// 50160 55082=
85586,2005,05,15,15,00,AAXX 15154 85586 42960 01407 10129 20076 40212 52006=
85586,2005,05,15,18,00,AAXX 15184 85586 32960 02411 10142 20089 40204 58007=
85586,2005,05,15,21,00,AAXX 15214 85586 42960 02512 10130 20083 40205 54000=
85586,2005,05,16,00,00,AAXX 16004 85586 32960 00000 10061 20055 40214 52007 333 10154=
85586,2005,05,16,12,00,AAXX 16124 85586 32960 01303 10008 20003 40201 57/// 333 20008 34/// 50130 55097=
85586,2005,05,16,15,00,AAXX 16154 85586 42960 00403 10125 20071 40197 54000=
85586,2005,05,16,18,00,AAXX 16184 85586 32960 22805 10154 20053 40171 58025=
85586,2005,05,16,21,00,AAXX 16214 85586 42960 02706 10148 20073 40178 54001=
85586,2005,05,17,00,00,AAXX 17004 85586 32960 00903 10073 20053 40173 57007 333 10156=
85586,2005,05,17,12,00,AAXX 17124 85586 11560 71004 10086 20066 40168 51/// 60014 7216/ 87200 333 20056 32/// 50190 55096 56800 70014 87825=
85586,2005,05,17,15,00,AAXX 17154 85586 41560 73609 10136 20082 40177 53011 70366 87200 333 56800 87825=
85586,2005,05,17,18,00,AAXX 17184 85586 11560 83611 10152 20105 40172 58005 69961 70282 8322/ 333 56879 83820 85456=
85586,2005,05,17,21,00,AAXX 17214 85586 41556 83604 10121 20093 40181 53009 71798 8633/ 333 56779 83925 83827=
85586,2005,05,18,00,00,AAXX 18004 85586 11540 80505 10117 20097 40185 53004 60021 78086 882// 333 10157 56799 88820=
85586,2005,05,18,12,00,AAXX 18124 85586 11558 53514 10137 20110 40176 52/// 60044 7808/ 85200 333 20113 32/// 50120 55007 56800 70040 85825=
85586,2005,05,18,15,00,AAXX 18154 85586 41960 83522 10148 20118 40178 58002 70388 882// 333 56800 88820=
85586,2005,05,18,18,00,AAXX 18184 85586 11556 83603 10108 20096 40196 51017 60211 76188 8212/ 333 56879 82820 86656=
85586,2005,05,18,21,00,AAXX 18214 85586 41558 73605 10113 20092 40204 52008 78082 87200 333 56800 87825=
85586,2005,05,19,00,00,AAXX 19004 85586 11560 10907 10092 20072 40219 52014 60031 70188 81200 333 10156 56700 81820=
85586,2005,05,19,12,00,AAXX 19124 85586 12560 50605 10083 20072 40214 57/// 60254 85200 333 20053 32/// 50070 55011 56600 70252 85825=
85586,2005,05,19,15,00,AAXX 19154 85586 42560 72009 10106 20087 40228 52015 87200 333 56600 87825=
85586,2005,05,19,18,00,AAXX 19184 85586 11560 70602 10133 20097 40211 58017 69911 70282 87200 333 56600 87825=
85586,2005,05,19,21,00,AAXX 19214 85586 41560 52703 10128 20087 40209 54002 70282 85200 333 56600 85825=
85586,2005,05,20,00,00,AAXX 20004 85586 11560 10000 10077 20057 40217 52007 69911 70281 81100 333 10133 56600 81825=
85586,2005,05,20,12,00,AAXX 20124 85586 12960 01403 10040 20034 40245 52/// 69924 333 20025 32/// 50010 55017 70002=
85586,2005,05,20,15,00,AAXX 20154 85586 42960 01604 10120 20094 40257 52011=
85586,2005,05,20,18,00,AAXX 20184 85586 32960 01910 10148 20060 40249 58007=
85586,2005,05,20,21,00,AAXX 20214 85586 42960 01910 10141 20065 40234 57015=
85586,2005,05,21,00,00,AAXX 21004 85586 32960 01802 10084 20056 40239 53003 333 10152=
85586,2005,05,21,12,00,AAXX 21124 85586 32960 01503 10042 20031 40209 57/// 333 20037 31/// 50130 55097=
85586,2005,05,21,15,00,AAXX 21154 85586 42960 01805 10126 20031 40203 57003=
85586,2005,05,21,18,00,AAXX 21184 85586 32960 02403 10163 20070 40174 52027=
85586,2005,05,21,21,00,AAXX 21214 85586 42960 02703 10141 20113 40164 57011=
85586,2005,05,22,00,00,AAXX 22004 85586 32960 20903 10063 20053 40169 53003 80001 333 10166 56005 82075=
85586,2005,05,22,12,00,AAXX 22124 85586 32460 80903 10068 20062 40167 57/// 84501 333 20035 31/// 50140 55098 56606 84617 84073=
85586,2005,05,22,15,00,AAXX 22154 85586 42460 80000 10098 20082 40179 53013 8457/ 333 56669 84617 85363=
85586,2005,05,22,18,00,AAXX 22184 85586 32460 83602 10121 20103 40166 58012 8357/ 333 56669 83617 86362=
85586,2005,05,22,21,00,AAXX 22214 85586 42560 83509 10121 20103 40157 57009 8657/ 333 56669 86620 84362=
85586,2005,05,23,00,00,AAXX 23004 85586 32560 80603 10115 20087 40162 52005 8657/ 333 10126 56669 86620 83362=
85586,2005,05,23,12,00,AAXX 23124 85586 11556 80214 10106 20086 40130 52/// 60124 7638/ 882// 333 20102 32/// 50150 55000 56899 70125 88820=
85586,2005,05,23,15,00,AAXX 23154 85586 41460 83610 10107 20096 40146 51016 70286 882// 333 56899 88820=
85586,2005,05,23,18,00,AAXX 23184 85586 11460 73512 10152 20095 40137 58009 60021 70366 87100 333 56800 87820=
85586,2005,05,23,21,00,AAXX 23214 85586 41460 83512 10136 20096 40144 53008 72586 882// 333 56800 81815 88825=
85586,2005,05,24,00,00,AAXX 24004 85586 11640 80205 10122 20106 40167 52022 60061 78186 882// 333 11550 58899 88820=
85586,2005,05,24,12,00,AAXX 24124 85586 12560 71103 10124 20104 40203 52/// 60154 87100 333 20116 32/// 50130 55026 56700 70159 87820=
85586,2005,05,24,15,00,AAXX 24154 85586 42460 73403 10161 20110 30137 40227 52025 87100 333 56700 81815 86820=
85586,2005,05,24,18,00,AAXX 24184 85586 32560 12905 10166 20119 40212 58014 81200 333 56700 81825=
85586,2005,05,24,21,00,AAXX 24214 85586 42560 22703 10144 20121 40220 53007 81130 333 56760 81820=
85586,2005,05,25,00,00,AAXX 25004 85586 31958 00000 10106 20089 40220 50001 70511 333 10167=
85586,2005,05,25,12,00,AAXX 25124 85586 12960 80000 10099 20085 40218 54/// 69924 8803/ 333 20079 32/// 50150 55072 56069 70002 88365=
85586,2005,05,25,15,00,AAXX 25154 85586 41208 80704 10113 20104 40222 53005 74422 886// 333 56099 88704=
85586,2005,05,25,18,00,AAXX 25184 85586 31460 83603 10131 20115 40199 57023 70242 8113/ 333 56769 81815 88365=
85586,2005,05,25,21,00,AAXX 25214 85586 41458 82503 10124 20110 40200 55001 70542 81131 333 56766 81815 84365=
85586,2005,05,26,00,00,AAXX 26004 85586 31456 80904 10119 20105 40206 51006 70522 8113/ 333 10135 56769 81815 87362=
85586,2005,05,26,12,00,AAXX 26124 85586 11958 81004 10103 20090 40205 53/// 69924 7052/ 8803/ 333 20097 31/// 50150 55000 56069 70002 88359=
85586,2005,05,26,15,00,AAXX 26154 85586 42960 83603 10146 20095 40219 52016 8803/ 333 56069 88359=
85586,2005,05,26,18,00,AAXX 26184 85586 32960 83504 10154 20104 40207 57012 8803/ 333 56069 88359=
85586,2005,05,26,21,00,AAXX 26214 85586 41858 83204 10143 20109 40209 53002 70522 8803/ 333 56069 88358=
85586,2005,05,27,12,00,AAXX 27124 85586 12560 81202 10120 20114 40193 57/// 69964 8157/ 333 20119 31/// 50070 55000 56669 70006 81620 88363=
85586,2005,05,27,15,00,AAXX 27154 85586 42560 80000 10148 20124 40198 52007 8157/ 333 56669 81620 88363=
85586,2005,05,27,18,00,AAXX 27184 85586 32960 73102 10152 20122 40178 57020 87070 333 56060 87363=
85586,2005,05,27,21,00,AAXX 27214 85586 42960 72404 10141 20118 40166 57012 87070 333 56060 87365=
85586,2005,05,28,00,00,AAXX 28004 85586 32960 40000 10115 20106 40168 54002 82031 333 10158 56066 82365=
85586,2005,05,28,12,00,AAXX 28124 85586 32960 82102 10100 20096 40160 54/// 86071 333 20086 31/// 50080 55000 56066 86365=
85586,2005,05,28,15,00,AAXX 28154 85586 42960 80907 10136 20120 40163 51004 85071 333 56066 85365 83073=
85586,2005,05,28,18,00,AAXX 28184 85586 31958 83203 10143 20122 40155 58008 70522 8807/ 333 56069 88362=
85586,2005,05,28,21,00,AAXX 28214 85586 41957 80504 10139 20127 40167 51012 70522 8801/ 333 56069 88460=
85586,2005,05,29,00,00,AAXX 29004 85586 11256 80503 10151 20134 40184 53017 69911 75088 886// 333 10153 56899 88707=
85586,2005,05,29,12,00,AAXX 29124 85586 11558 61503 10136 20127 40222 52/// 60044 7052/ 81231 333 20134 32/// 50120 55000 56766 70046 81820 83365=
85586,2005,05,29,15,00,AAXX 29154 85586 42960 11805 10176 20131 40220 50001 80001 333 56006 81075=
85586,2005,05,29,18,00,AAXX 29184 85586 32560 61609 10201 20132 40197 57023 81101 333 56706 81825 85075=
85586,2005,05,29,21,00,AAXX 29214 85586 42960 01807 10195 20136 40177 57019=
85586,2005,05,30,00,00,AAXX 30004 85586 31958 01905 10135 20102 40183 53004 70500 333 10205=
85586,2005,05,30,12,00,AAXX 30124 85586 31208 70805 10078 20070 40174 53/// 7424/ 82601 333 20054 31/// 50170 55086 56706 82704 85075=
85586,2005,05,30,15,00,AAXX 30154 85586 41958 62003 10129 20108 40165 58008 70544 80001 333 56006 86075=
85586,2005,05,30,18,00,AAXX 30184 85586 31960 22605 10165 20114 40149 57015 70141 80001 333 56006 82075=
85586,2005,05,30,21,00,AAXX 30214 85586 42960 42407 10146 20109 40142 56008 80001 333 56006 84075=
85586,2005,05,31,00,00,AAXX 31004 85586 31956 00000 10100 20083 40156 53013 70500 333 10169=
85586,2005,05,31,12,00,AAXX 31124 85586 31912 51402 10046 20040 40162 53/// 7102/ 80001 333 20046 31/// 50210 55084 56006 85075=
85586,2005,05,31,15,00,AAXX 31154 85586 41950 50704 10120 20109 40173 52011 70542 80001 333 56006 85073=
85586,2005,05,31,21,00,AAXX 31214 85586 42960 13004 10146 20094 40174 54002 80001 333 56006 81073=
85586,2005,06,01,00,00,AAXX 01004 85586 32960 00000 10100 20084 40188 52013 333 10154=
85586,2005,06,01,12,00,AAXX 01124 85586 31904 21204 10050 20043 40184 56/// 7464/ 80001 333 20050 31/// 50180 55073 56006 82073=
85586,2005,06,01,15,00,AAXX 01154 85586 41950 70000 10120 20108 40175 57007 70542 80001 333 56006 87073=
85586,2005,06,01,18,00,AAXX 01184 85586 31350 72606 10140 20115 40160 57015 70522 82601 333 56606 82707 87073=
85586,2005,06,01,21,00,AAXX 01214 85586 41102 80102 10115 20111 40156 57004 74442 886// 333 56699 88703=
85586,2005,06,02,12,00,AAXX 02124 85586 11120 82402 10118 20114 40191 52/// 60044 7535/ 886// 333 20112 32/// 50090 55047 56699 70040 88702=
85586,2005,06,02,15,00,AAXX 02154 85586 41250 83603 10130 20126 40205 52014 75155 886// 333 56699 88705=
85586,2005,06,02,18,00,AAXX 02184 85586 11460 63005 10144 20134 40193 58011 60011 70152 83531 333 56666 83615=
85586,2005,06,02,21,00,AAXX 02214 85586 42460 62406 10133 20122 40197 53003 82201 333 56606 82817 84073=
85586,2005,06,03,00,00,AAXX 03004 85586 32460 40000 10102 20098 40205 52007 81101 333 10148 56606 81817 83073=
85586,2005,06,03,12,00,AAXX 03124 85586 11930 20000 10051 20049 40209 53/// 60014 7100/ 80001 333 20053 31/// 50060 55014 55014 70013 82073=
85586,2005,06,03,15,00,AAXX 03154 85586 42460 31203 10132 20118 40217 52010 81101 333 56005 81815=
85586,2005,06,03,18,00,AAXX 03184 85586 32460 61203 10142 20121 40208 58008 81101 333 56005 81815 85070=
85586,2005,06,03,21,00,AAXX 03214 85586 42960 42406 10139 20105 40211 53003 80001 333 56005 84073=
85586,2005,06,04,00,00,AAXX 04004 85586 32960 21603 10080 20076 40212 54001 80001 333 10144 56005 82073=
85586,2005,06,04,12,00,AAXX 04124 85586 31958 51405 10072 20056 40214 52/// 7052/ 83031 333 20055 31/// 50120 55055 56066 83365 82075=
85586,2005,06,04,15,00,AAXX 04154 85586 42960 51207 10105 20080 40219 51007 85030 333 56060 85360=
85586,2005,06,04,18,00,AAXX 04184 85586 32960 11303 10172 20071 40208 58009 81030 333 56060 81365=
85586,2005,06,04,21,00,AAXX 04214 85586 42960 02407 10142 20091 40210 50001=
85586,2005,06,05,00,00,AAXX 05004 85586 31956 00000 10074 20057 40226 53007 70500 333 10176=
85586,2005,06,05,12,00,AAXX 05124 85586 32960 41405 10043 20027 40205 56/// 80001 333 20038 31/// 50150 55085 56006 84075=
85586,2005,06,05,15,00,AAXX 05154 85586 41958 81603 10109 20081 30109 40199 50002 70511 83031 333 56006 83365 85075=
85586,2005,06,05,18,00,AAXX 05184 85586 32960 81606 10156 20052 40179 58019 80001 333 56006 88075=
85586,2005,06,05,21,00,AAXX 05214 85586 42960 71605 10142 20070 40173 56007 87030 333 56060 87365=
85586,2005,06,06,12,00,AAXX 06124 85586 32960 61206 10044 20037 40203 52/// 80001 333 20026 31/// 50180 55034 56006 86073=
85586,2005,06,06,15,00,AAXX 06154 85586 42960 42304 10116 20083 40207 51008 80001 333 56006 84073=
85586,2005,06,06,18,00,AAXX 06184 85586 32960 32506 10134 20100 40192 57016 80001 333 56006 83073=
85586,2005,06,06,21,00,AAXX 06214 85586 42960 22604 10132 20104 40187 56004 80001 333 56006 82073=
85586,2005,06,07,00,00,AAXX 07004 85586 31958 00000 10063 20046 40195 51005 70500 333 10143=
85586,2005,06,07,12,00,AAXX 07124 85586 32960 81204 10094 20083 40187 57/// 8803/ 333 20056 31/// 50220 55084 56069 88363=
85586,2005,06,07,15,00,AAXX 07154 85586 41958 81004 10118 20098 40194 52007 70522 8803/ 333 56069 88362=
85586,2005,06,07,18,00,AAXX 07184 85586 31558 80904 10142 20106 40189 58004 70522 8353/ 333 56069 83620 88362=
85586,2005,06,07,21,00,AAXX 07214 85586 41456 80000 10150 20118 40188 54001 76022 885// 333 56099 88617=
85586,2005,06,08,00,00,AAXX 08004 85586 11450 81204 10116 20107 40202 52013 60021 76062 885// 333 10152 56099 88615=
85586,2005,06,08,12,00,AAXX 08124 85586 12960 71207 10102 20094 40186 57/// 60024 87070 333 20085 32/// 50060 55000 56060 70021 87363=
85586,2005,06,08,15,00,AAXX 08154 85586 42960 50901 10125 20114 40183 54002 84031 333 56066 84365=
85586,2005,06,08,18,00,AAXX 08184 85586 32960 02409 10136 20107 40169 57014=
85586,2005,06,08,21,00,AAXX 08214 85586 42960 22607 10125 20097 40170 54001 80001 333 56005 82073=
85586,2005,06,09,00,00,AAXX 09004 85586 32960 40000 10087 20083 40176 52005 80001 333 10153 56005 84073=
85586,2005,06,09,12,00,AAXX 09124 85586 31458 80000 10085 20081 40162 53/// 7102/ 885// 333 20068 31/// 50090 55061 56699 88615=
85586,2005,06,09,15,00,AAXX 09154 85586 41457 80000 10111 20104 40164 52003 71022 8257/ 333 56669 82615 88363=
85586,2005,06,09,18,00,AAXX 09184 85586 31457 83107 10121 20100 40161 58003 70522 82571 333 56666 82615 85363=
85586,2005,06,09,21,00,AAXX 09214 85586 41957 80905 10115 20096 40162 54001 70522 8807/ 333 56069 88363=
85586,2005,06,10,00,00,AAXX 10004 85586 31957 80000 10102 20096 40167 52004 71022 8807/ 333 10130 56069 88363=
85586,2005,06,10,12,00,AAXX 10124 85586 11540 80204 10116 20103 40175 52/// 7638/ 882// 333 20102 32/// 50090 55000 56799 88820=
85586,2005,06,10,15,00,AAXX 10154 85586 41540 82003 10111 20097 40203 52028 76186 882// 333 56799 88820=
85586,2005,06,10,18,00,AAXX 10184 85586 11458 81503 10124 20104 40203 50001 60121 76086 882// 333 56799 82815 86825=
85586,2005,06,10,21,00,AAXX 10214 85586 41240 80000 10121 20109 40201 55002 75366 886// 333 56899 88704=
85586,2005,06,11,00,00,AAXX 11004 85586 11556 71303 10116 20103 40205 53004 69931 70566 87200 333 10131 56700 87825=
85586,2005,06,11,12,00,AAXX 11124 85586 12960 22305 10062 20045 40208 55/// 60124 82030 333 20042 32/// 50080 55000 56060 70126 82365=
85586,2005,06,11,15,00,AAXX 11154 85586 42960 11306 10122 20078 40210 53004 80001 333 56006 81075=
85586,2005,06,11,18,00,AAXX 11184 85586 32560 12414 10134 20082 40196 58014 81100 333 56700 81820=
85586,2005,06,11,21,00,AAXX 11214 85586 42560 12511 10129 20072 40193 56003 81100 333 56700 81820=
85586,2005,06,12,00,00,AAXX 12004 85586 32960 01804 10086 20066 40198 53004 333 10144=
85586,2005,06,12,12,00,AAXX 12124 85586 32960 71804 10070 20056 40184 57/// 87030 333 20030 31/// 50160 55082 56060 87361=
85586,2005,06,12,15,00,AAXX 12154 85586 42960 81608 10096 20068 40177 57006 8803/ 333 56069 88360=
85586,2005,06,12,18,00,AAXX 12184 85586 32960 81910 10134 20068 40162 57014 8093/ 333 56069 88360=
85586,2005,06,12,21,00,AAXX 12214 85586 42960 82206 10110 20056 40164 53002 8803/ 333 56069 88360=
85586,2005,06,13,00,00,AAXX 13004 85586 32960 82106 10096 20058 40164 54001 8803/ 333 10137 56069 88360=
85586,2005,06,13,12,00,AAXX 13124 85586 32960 81706 10080 20052 40167 54/// 8803/ 333 20073 31/// 50150 55000 56069 88360=
85586,2005,06,13,15,00,AAXX 13154 85586 42960 71208 10112 20073 40171 53005 87030 333 56060 87360=
85586,2005,06,13,21,00,AAXX 13214 85586 41958 80000 10114 20077 40166 53006 70522 8803/ 333 56069 88360=
85586,2005,06,14,00,00,AAXX 14004 85586 31958 80000 10096 20076 40169 54002 70522 8803/ 333 10134 56069 88360=
85586,2005,06,14,12,00,AAXX 14124 85586 11956 81203 10096 20092 40165 53/// 60034 7616/ 8807/ 333 20096 32/// 50009 55000 56069 70032 88360=
85586,2005,06,14,15,00,AAXX 14154 85586 41958 80502 10113 20109 40164 54000 76166 8807/ 333 56069 88360=
85586,2005,06,14,18,00,AAXX 14184 85586 11560 81002 10130 20121 40149 57015 60041 76166 8127/ 333 56069 81820 87362=
85586,2005,06,14,21,00,AAXX 14214 85586 41957 81402 10124 20120 40161 53012 76166 8807/ 333 56069 88360=
85586,2005,06,15,00,00,AAXX 15004 85586 11956 81505 10116 20112 40169 52008 60051 76166 8807/ 333 10131 56069 88360=
85586,2005,06,15,12,00,AAXX 15124 85586 12560 80903 10106 20102 40185 52/// 60134 8327/ 333 20106 32/// 50060 55000 56669 70126 83820 88358=
85586,2005,06,15,15,00,AAXX 15154 85586 41560 81505 10122 20114 40195 52009 70262 8227/ 333 56669 82820 88359=
85586,2005,06,15,18,00,AAXX 15184 85586 11560 71105 10134 20122 40179 58015 60021 70162 82271 333 56066 82823 84362=
85586,2005,06,15,21,00,AAXX 15214 85586 41560 73003 10132 20124 40170 57009 70262 85230 333 56060 85820=
85586,2005,06,16,00,00,AAXX 16004 85586 11560 80000 10119 20115 40180 52010 60021 76062 885// 333 10137 56699 88620=
85586,2005,06,16,12,00,AAXX 16124 85586 11556 80303 10136 20124 40187 53/// 60194 7606/ 882// 333 20121 32/// 50070 55001 56799 70199 88820=
85586,2005,06,16,15,00,AAXX 16154 85586 41456 80104 10149 20135 40198 51011 70566 882// 333 56799 81815 87825=
85586,2005,06,16,18,00,AAXX 16184 85586 11206 83205 10136 20127 40186 50001 60011 75362 886// 333 56799 88704=
85586,2005,06,16,21,00,AAXX 16214 85586 41208 82703 10124 20111 40194 53007 75165 886// 333 56799 88704=
85586,2005,06,17,00,00,AAXX 17004 85586 11556 80304 10124 20110 40207 52013 60011 70555 882// 333 10157 56799 88820=
85586,2005,06,17,12,00,AAXX 17124 85586 11240 82603 10116 20107 40200 55/// 60034 7515/ 886// 333 20114 32/// 50070 55000 56899 70034 88704=
85586,2005,06,17,15,00,AAXX 17154 85586 41208 80303 10122 20111 40209 52009 74455 886// 333 56899 88704=
85586,2005,06,17,18,00,AAXX 17184 85586 11240 82606 10125 20110 40191 58018 69911 71054 886// 333 56799 88708=
85586,2005,06,17,21,00,AAXX 17214 85586 41340 80803 10132 20112 40183 56007 70544 886// 333 56799 82708 88610=
85586,2005,06,18,00,00,AAXX 18004 85586 11456 82510 10124 20111 40173 56010 69911 70584 885// 333 10133 56799 88615=
85586,2005,06,18,12,00,AAXX 18124 85586 11840 80000 10114 20107 40175 52/// 60084 7616/ 8802/ 333 20111 32/// 50080 55000 56079 70081 88557=
85586,2005,06,18,15,00,AAXX 18154 85586 41560 80804 10140 20133 40189 51013 70266 8253/ 333 56279 82630 88359=
85586,2005,06,18,18,00,AAXX 18184 85586 12560 82806 10146 20120 40184 57004 69961 8353/ 333 56669 83620 88359=
85586,2005,06,18,21,00,AAXX 18214 85586 42560 80000 10136 20107 40180 56004 8253/ 333 56069 82630 88359=
85586,2005,06,19,00,00,AAXX 19004 85586 11540 82204 10124 20109 40189 52009 69921 76062 8353/ 333 10164 56069 83625 88359=
85586,2005,06,19,12,00,AAXX 19124 85586 11002 81204 10120 20113 40177 57/// 60024 7466/ 886// 333 20112 32/// 50060 55000 56099 70018 88701=
85586,2005,06,19,18,00,AAXX 19184 85586 31456 81506 10156 20142 40169 58011 70522 885// 333 56499 88610=
85586,2005,06,19,21,00,AAXX 19214 85586 42460 71604 10154 20137 40155 57014 81502 333 56506 81610 87075=
85586,2005,06,20,00,00,AAXX 20004 85586 32460 81504 10130 20117 40152 54003 82502 333 10166 56406 82610 87075=
85586,2005,06,20,12,00,AAXX 20124 85586 31940 80000 10113 20109 40154 54/// 7102/ 8807/ 333 20106 31/// 50080 55028 56069 88360=
85586,2005,06,20,15,00,AAXX 20154 85586 41240 80403 10108 20104 40173 52019 71022 887// 333 56799 88704=
85586,2005,06,20,18,00,AAXX 20184 85586 31230 73005 10138 20131 40151 57022 71022 83730 333 56760 83706 84363=
85586,2005,06,20,21,00,AAXX 20214 85586 41102 83302 10118 20114 40159 53007 74622 886// 333 56799 88703=
85586,2005,06,21,00,00,AAXX 21004 85586 31102 83407 10117 20113 40171 52012 74442 886// 333 10143 56799 88702=
85586,2005,06,21,12,00,AAXX 21124 85586 31107 82705 10108 20104 40189 53/// 7464/ 886// 333 20104 31/// 50090 55002 56699 88703=
85586,2005,06,21,15,00,AAXX 21154 85586 41458 80807 10116 20112 40206 52016 76164 8357/ 333 56669 83615 85360=
85586,2005,06,21,18,00,AAXX 21184 85586 11560 70907 10146 20122 40208 52003 60051 82570 333 56660 82825 85362=
85586,2005,06,21,21,00,AAXX 21214 85586 42560 82303 10154 20130 40210 54002 8327/ 333 56669 83825 85362=
85586,2005,06,22,00,00,AAXX 22004 85586 32560 71803 10135 20123 40227 52017 83570 333 10158 56660 83627 84363=
85586,2005,06,22,12,00,AAXX 22124 85586 31960 41405 10106 20092 40203 57/// 60054 80001 333 20097 32/// 50080 55001 56006 70052 84075=
85586,2005,06,22,15,00,AAXX 22154 85586 42960 21004 10156 20122 40203 50001 80001 333 56006 82075=
85586,2005,06,22,18,00,AAXX 22184 85586 32960 43103 10189 20147 40184 57018 84030 333 56060 84365=
85586,2005,06,22,21,00,AAXX 22214 85586 41203 82507 10129 20115 40182 56003 74611 886// 333 56699 88704=
85586,2005,06,23,00,00,AAXX 23004 85586 31202 80706 10119 20106 40194 53011 74441 886// 333 10191 56899 88704=
85586,2005,06,23,12,00,AAXX 23124 85586 11202 82603 10104 20094 40192 53/// 69924 7444/ 886// 333 20088 32/// 50110 55072 56899 70002 88704=
85586,2005,06,23,15,00,AAXX 23154 85586 41203 80906 10112 20103 40205 51012 74444 886// 333 56899 88704=
85586,2005,06,23,18,00,AAXX 23184 85586 31204 82604 10124 20119 40193 58012 74444 886// 333 56899 88706=
85586,2005,06,23,21,00,AAXX 23214 85586 41203 80503 10131 20118 40169 56003 74444 886// 333 56899 88704=
85586,2005,06,24,00,00,AAXX 24004 85586 31202 82103 10121 20108 40198 51008 74444 886// 333 10133 56899 88704=
85586,2005,06,24,12,00,AAXX 24124 85586 11002 81204 10094 20090 40206 53/// 69914 7464/ 886// 333 20094 32/// 50090 56399 70001 88701=
85586,2005,06,24,15,00,AAXX 24154 85586 41108 80904 10110 20103 40209 51004 74644 886// 333 56299 88703=
85586,2005,06,24,18,00,AAXX 24184 85586 31206 82508 10126 20119 40189 57020 74644 886// 333 56599 88706=
85586,2005,06,24,21,00,AAXX 24214 85586 41202 80000 10114 20108 40195 53006 74644 886// 333 56099 88706=
85586,2005,06,25,00,00,AAXX 25004 85586 31102 80404 10106 20102 40191 56004 74644 886// 333 10149 56099 88704=
85586,2005,06,25,12,00,AAXX 25124 85586 31002 80000 10088 20083 40208 54/// 7464/ 886// 333 20082 32/// 50110 55023 56099 88701=
85586,2005,06,25,15,00,AAXX 25154 85586 41102 82604 10114 20110 40214 52011 74644 886// 333 56099 88704=
85586,2005,06,25,18,00,AAXX 25184 85586 31315 70000 10128 20121 40201 58013 71044 87600 333 56000 87707=
85586,2005,06,25,21,00,AAXX 25214 85586 41102 80104 10116 20109 40197 56004 74644 886// 333 56099 88704=
85586,2005,06,26,00,00,AAXX 26004 85586 31102 80000 10104 20097 40198 54000 74644 886// 333 10131 56099 88704=
85586,2005,06,26,12,00,AAXX 26124 85586 31908 81103 10089 20085 40184 53/// 7424/ 8807/ 333 20089 31/// 50060 55002 56069 88363=
85586,2005,06,26,15,00,AAXX 26154 85586 41930 82706 10112 20108 40182 54001 71042 8807/ 333 56069 88363=
85586,2005,06,26,18,00,AAXX 26184 85586 31930 80000 10119 20115 40179 54003 71042 8807/ 333 56069 88363=
85586,2005,06,26,21,00,AAXX 26214 85586 41940 81006 10116 20112 40183 52004 71022 8807/ 333 56069 88362=
85586,2005,06,27,00,00,AAXX 27004 85586 11958 81802 10120 20116 40174 57009 69911 76122 8807/ 333 56069 88360=
85586,2005,06,27,12,00,AAXX 27124 85586 11559 83602 10118 20111 40156 57/// 60114 76162 8357/ 333 20118 32/// 50060 55000 56066 70112 83625 86358=
85586,2005,06,27,15,00,AAXX 27154 85586 41540 82710 10131 20125 40170 53014 76366 8357/ 333 56066 83625 86358=
85586,2005,06,27,18,00,AAXX 27184 85586 11556 82003 10118 20112 40188 52018 60241 76366 8257/ 333 56669 82625 88358=
85586,2005,06,27,21,00,AAXX 27214 85586 41958 80903 10112 20104 40193 52004 76166 8807/ 333 56069 88359=
85586,2005,06,28,00,00,AAXX 28004 85586 11560 81303 10113 20106 40188 58004 60101 70262 8157/ 333 10133 56066 81627 88362=
85586,2005,06,28,12,00,AAXX 28124 85586 11760 81312 10129 20109 40138 57/// 60344 7026/ 8802/ 333 20112 32/// 50070 55000 56060 70348 88456=
85586,2005,06,28,15,00,AAXX 28154 85586 41460 80907 10138 20112 40129 56009 72162 8117/ 333 56769 81815 88358=
85586,2005,06,28,18,00,AAXX 28184 85586 11560 83407 10166 20131 40124 56004 69931 70362 8323/ 333 56769 83820 85359=
85586,2005,06,28,21,00,AAXX 28214 85586 41540 80505 10150 20129 40134 51009 78022 882// 333 56799 88820=
85586,2005,06,29,00,00,AAXX 29004 85586 11556 83606 10155 20126 40139 53006 69911 70582 882// 333 10169 56899 88820=
85586,2005,06,29,12,00,AAXX 29124 85586 11558 83505 10149 20130 40172 52/// 60014 7808/ 882// 333 20141 32/// 50080 55000 56899 70019 88820=
85586,2005,06,29,15,00,AAXX 29154 85586 41560 83203 10159 20128 40190 52018 70288 882// 333 56799 88825=
85586,2005,06,29,18,00,AAXX 29184 85586 11460 62907 10173 20136 40179 58010 69921 70181 82101 333 56706 82815 86075=
85586,2005,06,29,21,00,AAXX 29214 85586 42960 73005 10159 20133 40174 57005 80001 333 56006 87075=
85586,2005,06,30,00,00,AAXX 30004 85586 31256 30000 10124 20110 40173 55002 70511 83600 333 10187 56700 83704=
85586,2005,06,30,12,00,AAXX 30124 85586 11103 80000 10096 20090 40164 53/// 69934 7464/ 886// 333 20094 32/// 50140 55053 56099 70003 88704=
85586,2005,06,30,15,00,AAXX 30154 85586 41540 80906 10134 20125 40175 52012 71044 8453/ 333 56269 84620 88360=
85586,2005,06,30,18,00,AAXX 30184 85586 31556 83606 10160 20138 40165 58009 70522 8453/ 333 56869 84625 88360=
85586,2005,06,30,21,00,AAXX 30214 85586 41456 80304 10144 20129 40173 52007 70552=
85586,2005,07,01,00,00,AAXX 01004 85586 11456 80000 10128 20119 40177 53004 69921 75052 886// 333 10163 56099 88710=
85586,2005,07,01,12,00,AAXX 01124 85586 12560 80510 10126 20097 40163 56/// 69924 7022/ 84501 333 20086 32/// 50090 55000 56206 70002 84620 86075=
85586,2005,07,01,15,00,AAXX 01154 85586 42560 80408 10160 20111 40165 54003 81531 333 56266 81630 83360 87075=
85586,2005,07,01,18,00,AAXX 01184 85586 32560 83208 10160 20093 40152 57013 885// 333 56799 88626=
85586,2005,07,01,21,00,AAXX 01214 85586 42560 83410 10150 20110 40158 53005=
85586,2005,07,02,00,00,AAXX 02004 85586 32560 80410 10130 20101 40155 54003 8453/ 333 10170 56879 84620 88359=
85586,2005,07,02,12,00,AAXX 02124 85586 12460 83308 10132 20123 40175 52/// 60304 882// 333 20125 32/// 50090 55032 56799 70299 88817=
85586,2005,07,02,15,00,AAXX 02154 85586 42560 53606 10146 20129 40189 52014 85500 333 56700 85620=
85586,2005,07,02,18,00,AAXX 02184 85586 32560 73309 10157 20135 40178 58010 87500 333 56700 87620=
85586,2005,07,03,00,00,AAXX 03004 85586 32560 80106 10140 20126 40201 52012 8453/ 333 10161 56779 84620 85363=
85586,2005,07,03,12,00,AAXX 03124 85586 12460 80603 10121 20115 40220 53/// 69934 8353/ 333 20111 31/// 50090 55007 56779 70003 83613 85360=
85586,2005,07,03,15,00,AAXX 03154 85586 42560 70703 10135 20123 40233 52014 82531 333 56766 82620 84365=
85586,2005,07,03,18,00,AAXX 03184 85586 32560 63405 10154 20127 40234 54001 82530 333 56660 82620 84365=
85586,2005,07,03,21,00,AAXX 03214 85586 42560 53005 10143 20121 40242 52008 82131 333 56666 52820=
85586,2005,07,04,00,00,AAXX 04004 85586 32560 30000 10108 20100 40257 52014 81131 333 10161 56666 81823=
85586,2005,07,04,12,00,AAXX 04124 85586 31203 81305 10076 20066 40278 52/// 7444/ 886// 333 20044 32/// 50110 55022 56699 88704=
85586,2005,07,04,15,00,AAXX 04154 85586 41920 01407 10104 20093 40275 58003 74044=
85586,2005,07,04,18,00,AAXX 04184 85586 31960 01810 10154 20098 40251 57002 70244=
85586,2005,07,04,21,00,AAXX 04214 85586 41960 02207 10159 20080 40236 56015 70240=
85586,2005,07,05,00,00,AAXX 05004 85586 31956 01803 10106 20074 40541 53004 70500 333 10166=
85586,2005,07,05,12,00,AAXX 05124 85586 32960 71404 10080 20033 40156 57/// 80001 333 20078 31/// 50140 55082 56006 87075=
85586,2005,07,05,15,00,AAXX 05154 85586 42960 81406 10111 20057 40162 51007 8803/ 333 56069 88365=
85586,2005,07,05,18,00,AAXX 05184 85586 32960 80904 10145 20084 40156 58008 84031 333 56066 84365 84075=
85586,2005,07,05,21,00,AAXX 05214 85586 42960 60000 10147 20091 40147 56009 86030 333 56060 86365=
85586,2005,07,06,00,00,AAXX 06004 85586 31956 30000 10084 20066 40164 52016 70511 83030 333 10149 56060 83365=
85586,2005,07,06,12,00,AAXX 06124 85586 31902 80000 10070 20066 40167 57/// 7464/ 83032 333 20048 31/// 50110 55026 56066 83360 86075=
85586,2005,07,06,15,00,AAXX 06154 85586 41950 81004 10100 20091 40180 53015 71044 8803/ 333 56069 88360=
85586,2005,07,06,18,00,AAXX 06184 85586 31550 83306 10138 20121 40163 57017 70522 8353/ 333 56769 83625 88360=
85586,2005,07,06,21,00,AAXX 06214 85586 41560 83108 10136 20109 40179 53016 70522=
85586,2005,07,07,00,00,AAXX 07004 85586 31550 83604 10128 20102 40192 52012 70522 8453/ 333 10152 56869 84625 88360=
85586,2005,07,07,12,00,AAXX 07124 85586 32560 80403 10114 20090 40194 54/// 885// 333 20114 31/// 50120 55010 56099 88623=
85586,2005,07,07,15,00,AAXX 07154 85586 42560 83604 10130 20103 40224 52020 885// 333 56099 88630=
85586,2005,07,07,18,00,AAXX 07184 85586 32560 83604 10136 20098 40203 58010 885// 333 56099 88630=
85586,2005,07,07,21,00,AAXX 07214 85586 42560 80408 10140 20097 40221 53018 8251/ 333 56069 82530 88461=
85586,2005,07,08,00,00,AAXX 08004 85586 11560 80000 10132 20089 40226 51004 76022 8453/ 333 10142 56069 84630 88360=
85586,2005,07,08,12,00,AAXX 08124 85586 12460 81807 10111 20102 40243 57/// 69974 8152/ 333 20108 31/// 50090 55000 56669 70007 81615 87460=
85586,2005,07,08,15,00,AAXX 08154 85586 42460 31808 10137 20120 40235 57007 81501 333 56606 81617=
85586,2005,07,08,18,00,AAXX 08184 85586 32960 02409 10160 20126 40217 57018=
85586,2005,07,08,21,00,AAXX 08214 85586 42960 02507 10167 20117 40205 57011=
85586,2005,07,09,00,00,AAXX 09004 85586 32960 12205 10115 20108 40212 53005 80001 333 10178 56006 81073=
85586,2005,07,09,12,00,AAXX 09124 85586 32960 51304 10082 20078 40190 57/// 80001 333 20070 31/// 50130 55068 56006 85073=
85586,2005,07,09,15,00,AAXX 09154 85586 42960 01205 10122 20094 40203 53013 80001 333 56006 86073=
85586,2005,07,09,18,00,AAXX 09184 85586 32960 42509 10147 20114 40194 57008 80001 333 56006 84073=
85586,2005,07,09,21,00,AAXX 09214 85586 42960 62507 10138 20106 40198 57006 80001 333 56006 86073=
85586,2005,07,10,00,00,AAXX 10004 85586 32960 52602 10085 20077 40211 52011 80001 333 10168 56006 85073=
85586,2005,07,10,12,00,AAXX 10124 85586 32960 61604 10092 20065 40213 54/// 80001 333 20062 31/// 50160 55076 56006 86075=
85586,2005,07,10,15,00,AAXX 10154 85586 42960 31707 10163 20071 40205 58006 80001 333 56006 83075=
85586,2005,07,10,18,00,AAXX 10184 85586 32960 12012 10191 20098 40183 57021 80001 333 56006 81075=
85586,2005,07,10,21,00,AAXX 10214 85586 42960 21808 10188 20103 40169 57014 80001 333 56006 82075=
85586,2005,07,11,00,00,AAXX 11004 85586 32960 31707 10146 20093 40170 50000 80001 333 10198 56006 83075=
85586,2005,07,11,12,00,AAXX 11124 85586 32960 61404 10084 20052 40099 57/// 80001 333 20081 31/// 50220 55089 56006 86075=
85586,2005,07,11,15,00,AAXX 11154 85586 41956 63305 10134 20100 40134 53006 70511 80001 333 56006 86075=
85586,2005,07,11,18,00,AAXX 11184 85586 32960 72505 10164 20106 40131 50002 80001 333 56006 87075=
85586,2005,07,12,00,00,AAXX 12004 85586 31540 63603 10134 20114 40157 52026 70522 86500 333 10166 56700 86620=
85586,2005,07,12,12,00,AAXX 12124 85586 32660 70403 10116 20087 40182 52/// 85630 333 20116 31/// 50130 50077 56060 85633 84360=
85586,2005,07,12,15,00,AAXX 12154 85586 42560 60110 10156 20101 40199 52017 83501 333 56806 83626 85075=
85586,2005,07,12,18,00,AAXX 12184 85586 32556 60210 10154 20094 40189 58010 86500 333 56800 86626=
85586,2005,07,12,21,00,AAXX 12214 85586 42557 73610 10148 20101 40188 54001 83501 333 56806 83626 85075=
85586,2005,07,13,00,00,AAXX 13004 85586 32550 83506 10136 20111 40202 51014 885// 333 10162 56899 88623=
85586,2005,07,13,12,00,AAXX 13124 85586 11558 80000 10114 20104 40220 52/// 69934 7026/ 8653/ 333 20096 31/// 50100 55050 56069 70003 86625 83360=
85586,2005,07,13,15,00,AAXX 13154 85586 41556 73504 10140 20110 40220 54001 70522 81501 333 56806 81625 87075=
85586,2005,07,13,18,00,AAXX 13184 85586 31356 82408 10116 20097 40212 57009 70522 885// 333 56599 88609=
85586,2005,07,13,21,00,AAXX 13214 85586 41456 82206 10102 20089 40209 56004 75052 885// 333 56599 82815 88620=
85586,2005,07,14,00,00,AAXX 14004 85586 11556 81504 10096 20085 40213 53004 70252 885// 333 10148 56599 88626=
85586,2005,07,14,12,00,AAXX 14124 85586 12660 80702 10082 20078 40201 53/// 60044 8453/ 333 20082 32/// 50100 55025 56669 70035 84640 85360=
85586,2005,07,14,15,00,AAXX 14154 85586 41560 70605 10096 20074 40212 52011 76022 8253/ 333 56660 82625 85360=
85586,2005,07,14,18,00,AAXX 14184 85586 11560 60103 10126 20077 40198 58013 60011 70262 8323/ 333 56660 83820 83360=
85586,2005,07,14,21,00,AAXX 14214 85586 41560 32905 10126 20071 40206 53008 70162 82230 333 56660 82823 81362=
85586,2005,07,15,00,00,AAXX 15004 85586 32560 30907 10087 20073 40218 52011 83200 333 10128 56600 83823=
85586,2005,07,15,12,00,AAXX 15124 85586 12560 31302 10045 20041 40203 53/// 60014 82501 333 20032 31/// 50070 55042 56606 70014 82625=
85586,2005,07,15,15,00,AAXX 15154 85586 42560 41407 10114 20076 40207 52007 81501 333 56606 81625 83073=
85586,2005,07,15,18,00,AAXX 15184 85586 32960 61606 10138 20059 40204 58002 80001 333 56006 86075=
85586,2005,07,15,21,00,AAXX 15214 85586 42960 52405 10124 20097 40200 57005 80001 333 56006 85075=
85586,2005,07,16,12,00,AAXX 16124 85586 31960 80000 10059 20042 40270 52/// 7052/ 8807/ 333 20024 31/// 50090 55065 56069 88360=
85586,2005,07,16,15,00,AAXX 16154 85586 42960 80604 10098 20071 40291 52022 8807/ 333 56069 88360=
85586,2005,07,16,21,00,AAXX 16214 85586 42960 12606 10133 20063 40277 56006 80001 333 56006 81075=
85586,2005,07,17,00,00,AAXX 17004 85586 31956 00000 10084 20060 40287 53013 70510 333 10137=
85586,2005,07,17,12,00,AAXX 17124 85586 39602 00000 10055 20036 40257 57/// 333 20034 31/// 50120 55024=
85586,2005,07,17,15,00,AAXX 17154 85586 41956 02603 10113 20071 40249 56006 70500=
85586,2005,07,17,18,00,AAXX 17184 85586 32960 01906 10154 20067 40220 57028=
85586,2005,07,17,21,00,AAXX 17214 85586 42960 02307 10137 20095 40212 56008=
85586,2005,07,18,00,00,AAXX 18004 85586 31956 02305 10083 20059 40217 53006 70500 333 10165=
85586,2005,07,18,12,00,AAXX 18124 85586 32960 01404 10042 20033 40210 57/// 333 20028 31/// 50160 55087=
85586,2005,07,18,15,00,AAXX 18154 85586 42960 00902 10100 20067 40217 52009=
85586,2005,07,18,18,00,AAXX 18184 85586 32960 02906 10126 20062 40207 58009=
85586,2005,07,18,21,00,AAXX 18214 85586 42960 02706 10126 20083 40207 54000=
85586,2005,07,19,00,00,AAXX 19004 85586 32960 82504 10098 20079 40208 54000 885// 333 10138 56099 88623=
85586,2005,07,19,12,00,AAXX 19124 85586 31420 80902 10074 20066 40182 57/// 7102/ 885// 333 20074 31/// 50140 55092 56099 88615=
85586,2005,07,19,15,00,AAXX 19154 85586 41530 81204 10090 20082 40188 53007 71022 885// 333 56099 88620=
85586,2005,07,19,18,00,AAXX 19184 85586 31556 82702 10104 20075 40174 58014 70522 885// 333 56099 88626=
85586,2005,07,19,21,00,AAXX 19214 85586 41556 80000 10104 20066 40176 54002 70522 885// 333 56099 88626=
85586,2005,07,20,00,00,AAXX 20004 85586 31558 80000 10098 20071 40176 54000 70522 885// 333 10107 56099 88626=
85586,2005,07,20,12,00,AAXX 20124 85586 31557 80904 10089 20085 40199 52/// 7102/ 885// 333 20087 31/// 50110 55000 56699 88627=
85586,2005,07,20,15,00,AAXX 20154 85586 41557 81303 10096 20088 40222 52023 71022 885// 333 56699 88627=
85586,2005,07,20,18,00,AAXX 20184 85586 31559 81003 10110 20082 40218 58003 70522 885// 333 56699 88630=
85586,2005,07,20,21,00,AAXX 20214 85586 42560 70000 10124 20098 40234 53016 87500 333 56600 87630=
85586,2005,07,21,00,00,AAXX 21004 85586 32560 21202 10096 20081 40250 52015 82500 333 10130 56600 82630=
85586,2005,07,21,12,00,AAXX 21124 85586 31959 21205 10056 20050 40264 53/// 7100/ 80001 333 20051 31/// 50080 55006 56006 82073=
85586,2005,07,21,15,00,AAXX 21154 85586 42960 01407 10113 20077 40268 52006=
85586,2005,07,21,18,00,AAXX 21184 85586 32960 02707 10149 20081 40244 58023=
85586,2005,07,21,21,00,AAXX 21214 85586 42960 01809 10146 20079 40240 57004=
85586,2005,07,22,00,00,AAXX 22004 85586 32960 01803 10089 20079 40244 54002 333 10155=
85586,2005,07,22,12,00,AAXX 22124 85586 31958 01303 10021 20001 40209 54/// 7050/ 333 20017 31/// 50120 55096=
85586,2005,07,22,15,00,AAXX 22154 85586 41956 10000 10111 20062 40211 53005 70500 333 56006 81075=
85586,2005,07,22,18,00,AAXX 22184 85586 31956 12907 10126 20059 40208 58003 70500 333 56006 81075=
85586,2005,07,22,21,00,AAXX 22214 85586 41958 02604 10122 20072 40204 53004 70500=
85586,2005,07,23,00,00,AAXX 23004 85586 31940 00903 10063 20044 40221 52015 70500 333 10135=
85586,2005,07,23,12,00,AAXX 23124 85586 31220 81205 10062 20045 40224 58/// 7102/ 886// 333 20019 31/// 50150 55097 56799 88704=
85586,2005,07,23,15,00,AAXX 23154 85586 41920 01103 10083 20068 40231 51008 71042=
85586,2005,07,23,18,00,AAXX 23184 85586 31940 03004 10119 20087 40218 70542=
85586,2005,07,23,21,00,AAXX 23214 85586 41240 82603 10111 20089 40218 55000 70540 886// 333 56799 88704=
85586,2005,07,24,00,00,AAXX 24004 85586 31340 80000 10106 20084 40220 53002 70522 886// 333 10121 56799 88709=
85586,2005,07,24,12,00,AAXX 24124 85586 31102 81202 10066 20063 40228 53/// 7464/ 886// 333 20066 31/// 50120 55052 56099 88703=
85586,2005,07,24,15,00,AAXX 24154 85586 41102 80904 10070 20066 40225 54003 74644 886// 333 56099 88703=
85586,2005,07,24,18,00,AAXX 24184 85586 31312 42805 10106 20095 40203 57020 70544 84600 333 56600 84707=
85586,2005,07,24,21,00,AAXX 24214 85586 41302 82804 10086 20080 40213 53009 74644 886// 333 56699 88706=
85586,2005,07,25,00,00,AAXX 25004 85586 31201 82702 10084 20078 40207 58006 74644 886// 333 20107 56099 88704=
85586,2005,07,25,12,00,AAXX 25124 85586 31101 80000 10044 20039 40195 56/// 7464/ 886// 333 20042 31/// 50100 55014 56099 88702=
85586,2005,07,25,15,00,AAXX 25154 85586 41101 80000 10060 20057 40203 52009 74644 886// 333 56099 88702=
85586,2005,07,25,18,00,AAXX 25184 85586 31315 82704 10096 20090 40172 58029 71044 83601 333 56006 83707 84075=
85586,2005,07,25,21,00,AAXX 25214 85586 41309 82404 10090 20082 40167 56005 74644 886// 333 56099 88707=
85586,2005,07,26,00,00,AAXX 26004 85586 31315 82204 10086 20082 40177 52010 71044 886// 333 10102 56099 88708=
85586,2005,07,26,12,00,AAXX 26124 85586 31103 71003 10070 20066 40177 53/// 7444/ 886// 333 20068 50060 55011 56799 88702=
85586,2005,07,26,15,00,AAXX 26154 85586 41105 80000 10077 20073 40192 52018 7444/ 886// 333 56799 88702=
85586,2005,07,26,18,00,AAXX 26184 85586 31109 81403 10087 20083 40185 58009 74444 886// 333 56799 88703=
85586,2005,07,26,21,00,AAXX 26214 85586 41230 80000 10092 20084 40185 54000 71042 886// 333 56799 88704=
85586,2005,07,27,00,00,AAXX 27004 85586 31250 80000 10089 20085 40190 52005 71042 886// 333 10193 56799 88706=
85586,2005,07,27,12,00,AAXX 27124 85586 31320 81803 10081 20077 40182 57/// 7102/ 886// 333 20081 31/// 50080 55000 56799 88708=
85586,2005,07,27,15,00,AAXX 27154 85586 41340 81603 10097 20082 40183 54001 70522 886// 333 56799 88708=
85586,2005,07,27,18,00,AAXX 27184 85586 31356 62704 10133 20099 40157 57025 70522 82630 333 56760 82709 84365=
85586,2005,07,27,21,00,AAXX 27214 85586 41950 70000 10116 20094 40156 54001 70522 87030 333 56060 87365=
85586,2005,07,28,00,00,AAXX 28004 85586 31956 70000 10094 20086 40158 54001 71022 87030 333 10134 56060 87365=
85586,2005,07,28,12,00,AAXX 28124 85586 31220 70000 10098 20088 40161 52/// 7102/ 84630 333 20084 31/// 50080 55020 56760 84704 83365=
85586,2005,07,28,15,00,AAXX 28154 85586 41220 70904 10109 20096 40164 51004 71042 82630 333 56760 82704 85365=
85586,2005,07,28,18,00,AAXX 28184 85586 31240 82904 10124 20104 40156 57008 70542 886// 333 56799 88709=
85586,2005,07,28,21,00,AAXX 28214 85586 41230 80000 10121 20103 40154 50002 70522 886// 333 56799 88709=
85586,2005,07,29,00,00,AAXX 29004 85586 31540 80000 10121 20096 40163 51009 70522 885// 333 10125 56799 88620=
85586,2005,07,29,12,00,AAXX 29124 85586 31540 80000 10099 20084 40158 57/// 7052/ 8253/ 333 20085 31/// 50090 55000 56769 82620 86365=
85586,2005,07,29,15,00,AAXX 29154 85586 41958 70704 10129 20098 40168 53011 70522 87030 333 56060 87365=
85586,2005,07,29,18,00,AAXX 29184 85586 31558 63010 10147 20099 40153 58015 70522 81130 333 56760 81820 85365=
85586,2005,07,29,21,00,AAXX 29214 85586 42560 73307 10135 20101 40157 53004 81130 333 56760 81820 86362=
85586,2005,07,30,00,00,AAXX 30004 85586 31958 70306 10127 20086 40180 52023 70522 87030 333 10151 56070 87362=
85586,2005,07,30,12,00,AAXX 30124 85586 31958 80000 10120 20088 40175 53/// 7052/ 8803/ 333 20116 31/// 50120 55030 56069 88360=
85586,2005,07,30,15,00,AAXX 30154 85586 41915 80404 10114 20107 40196 52021 76062 8803/ 333 56089 88360=
85586,2005,07,30,18,00,AAXX 30184 85586 11560 83606 10137 20125 40185 58010 60051 70266 8653/ 333 56879 86626 88360=
85586,2005,07,30,21,00,AAXX 30214 85586 41556 83410 10138 20124 40192 53007 70522 8453/ 333 56879 84626 88359=
85586,2005,07,31,00,00,AAXX 31004 85586 31556 83502 10130 20115 40208 53015 70522 8353/ 333 10146 56879 83620 88360=
85586,2005,07,31,12,00,AAXX 31124 85586 11530 80000 10100 20092 40192 57/// 60054 7102/ 8253/ 333 20088 31/// 50008 55000 56069 70047 82626 88360=
85586,2005,07,31,15,00,AAXX 31154 85586 41930 80000 10116 20109 40183 57007 71022 8803/ 333 56069 88360=
85586,2005,07,31,18,00,AAXX 31184 85586 31556 81908 10140 20128 40194 53010 70522 8553/ 333 56569 85620 88360=
85586,2005,07,31,21,00,AAXX 31214 85586 42960 30906 10144 20114 40160 57033 83030 333 56060 83360=
85586,2005,08,01,00,00,AAXX 01004 85586 32960 30000 10100 20092 40169 53008 80001 333 10150 56006 83075=
85586,2005,08,01,12,00,AAXX 01124 85586 31958 82504 10116 20110 40169 53/// 7102/ 8807/ 333 20096 31/// 50130 55013 56699 88363=
85586,2005,08,01,15,00,AAXX 01154 85586 41960 80000 10128 20121 40182 52013 76062 8807/ 333 56699 88363=
85586,2005,08,01,18,00,AAXX 01184 85586 11960 83605 10151 20107 40176 58006 69911 70261 8807/ 333 56699 88363=
85586,2005,08,01,21,00,AAXX 01214 85586 41959 83602 10151 20114 40178 54002 76022 8807/ 333 56699 88362=
85586,2005,08,02,00,00,AAXX 02004 85586 11540 83307 10125 20121 40192 52013 60021 76062 8457/ 333 10153 56669 84623 88362=
85586,2005,08,02,12,00,AAXX 02124 85586 11356 80000 10113 20109 40192 53/// 60074 7102/ 8362/ 333 20113 32/// 50060 55000 56669 70070 83608 85463=
85586,2005,08,02,15,00,AAXX 02154 85586 41356 70202 10126 20117 40198 52006 71022 82620 333 56660 82608 85463=
85586,2005,08,02,18,00,AAXX 02184 85586 32360 60000 10140 20123 40183 58014 82631 333 56666 81708 83363=
85586,2005,08,02,21,00,AAXX 02214 85586 42960 72403 10140 20123 40168 57015 86031 333 56066 86363=
85586,2005,08,03,00,00,AAXX 03004 85586 31940 72703 10132 20112 40171 56003 70522 87030 333 10155 56060 87362=
85586,2005,08,03,12,00,AAXX 03124 85586 11958 73605 10134 20112 40166 52/// 69914 7052/ 87030 333 20123 31/// 50120 55002 56060 70001 87365=
85586,2005,08,03,15,00,AAXX 03154 85586 41958 83307 10147 20105 40177 52011 70522 8807/ 333 56060 88362=
85586,2005,08,03,21,00,AAXX 03214 85586 41220 82209 10112 20101 40182 51009 76164 8262/ 333 56779 82704 88457=
85586,2005,08,04,00,00,AAXX 04004 85586 11440 82003 10114 20098 40191 53008 60051 71066 8322/ 333 10152 56779 82815 85459=
85586,2005,08,04,12,00,AAXX 04124 85586 11958 71604 10103 20082 40159 57/// 60074 7052/ 87030 333 20094 32/// 50080 55000 56060 70077 87365=
85586,2005,08,04,15,00,AAXX 04154 85586 42560 72004 10113 20092 40149 58009 82530 333 56680 82620 86365=
85586,2005,08,04,18,00,AAXX 04184 85586 32560 62506 10148 20098 40188 53005 82130 333 56880 82820 84365=
85586,2005,08,04,21,00,AAXX 04214 85586 41558 82506 10122 20107 40185 52031 70522=
85586,2005,08,05,00,00,AAXX 05004 85586 11556 82210 10104 20060 40217 52030 69901 78022 882// 333 10153 56899 88825=
85586,2005,08,05,12,00,AAXX 05124 85586 12960 01504 10048 20035 40266 52/// 60024 333 20048 32/// 50110 55026 70016=
85586,2005,08,05,15,00,AAXX 05154 85586 42960 02305 10114 20070 40275 52011=
85586,2005,08,05,18,00,AAXX 05184 85586 32960 01808 10148 20029 40254 57020=
85586,2005,08,05,21,00,AAXX 05214 85586 42965 12512 10133 20074 40255 55000 80001 333 56006 81075=
85586,2005,08,06,00,00,AAXX 06004 85586 32960 02004 10082 20054 40190 52024 333 10152=
85586,2005,08,06,12,00,AAXX 06124 85586 32960 11706 10054 20036 40237 57/// 80001 333 20044 31/// 50130 55097 56006 81075=
85586,2005,08,06,15,00,AAXX 06154 85586 42960 11706 10106 20052 40224 57011 80001 333 56006 81075=
85586,2005,08,06,18,00,AAXX 06184 85586 32960 41810 10146 20028 40193 57030 80002 333 56006 84075=
85586,2005,08,06,21,00,AAXX 06214 85586 42960 61808 10140 20029 40176 57017 80002 333 56006 86075=
85586,2005,08,07,00,00,AAXX 07004 85586 32960 51804 10094 20031 40173 57013 80002 333 10158 56006 85075=
85586,2005,08,07,12,00,AAXX 07124 85586 32960 21205 10025 20020 40179 52/// 80001 333 20006 34/// 50080 55104 56005 82073=
85586,2005,08,07,15,00,AAXX 07154 85586 42960 22305 10102 20063 40183 52009 80001 333 56005 82073=
85586,2005,08,07,18,00,AAXX 07184 85586 32960 23102 10128 20075 40180 54002 80001 333 56005 82073=
85586,2005,08,07,21,00,AAXX 07214 85586 42960 40000 10131 20065 40168 57012 80001 333 56005 82073=
85586,2005,08,08,00,00,AAXX 08004 85586 32960 10802 10061 20053 40185 52015 80001 333 10134 56005 81073=
85586,2005,08,08,12,00,AAXX 08124 85586 31902 01307 10039 20035 40182 53/// 7444/ 333 20025 31/// 50090 55100=
85586,2005,08,08,15,00,AAXX 08154 85586 41930 20804 10118 20109 40186 52007 71040 80001 333 56006 82073=
85586,2005,08,08,18,00,AAXX 08184 85586 31957 33204 10148 20105 40171 58015 70540 80001 333 56006 83073=
85586,2005,08,08,21,00,AAXX 08214 85586 42960 43107 10141 20109 40168 57003 80001 333 56006 84073=
85586,2005,08,09,00,00,AAXX 09004 85586 32960 50803 10098 20085 40176 52007 80001 333 10151 56005 85073=
85586,2005,08,09,12,00,AAXX 09124 85586 31220 80000 10101 20088 40193 54/// 7102/ 886// 333 20053 31/// 50120 55086 56099 88704=
85586,2005,08,09,15,00,AAXX 09154 85586 41230 70000 10114 20093 40203 53010 70522 87600 333 56700 87706=
85586,2005,08,09,18,00,AAXX 09184 85586 31956 13404 10156 20106 40182 58019 70522 80001 333 56006 81075=
85586,2005,08,09,21,00,AAXX 09214 85586 41956 12604 10141 20107 40187 53004 70522 80001 333 56006 81075=
85586,2005,08,10,00,00,AAXX 10004 85586 31920 40904 10104 20093 40197 52010 71011 80001 333 10164 56006 84075=
85586,2005,08,10,06,00,AAXX 10064 85586 31920 40904 10104 20093 40197 52010 71011 80001 333 10164 56006 84075=
85586,2005,08,10,12,00,AAXX 10124 85586 31958 71204 10081 20069 40176 53/// 7121/ 87030 333 20062 31/// 50120 55064 56060 87365=
85586,2005,08,10,15,00,AAXX 10154 85586 41956 80000 10131 20112 40195 52019 70522 8803/ 333 56069 88362=
85586,2005,08,10,18,00,AAXX 10184 85586 31458 63603 10154 20110 40184 58010 70522 81130 333 56760 81815 86365=
85586,2005,08,10,21,00,AAXX 10214 85586 42960 60000 10179 20115 40170 57013 81001 333 56006 86075=
85586,2005,08,11,00,00,AAXX 11004 85586 31956 51204 10152 20097 40165 56006 70511 80001 333 10180 56006 85075=
85586,2005,08,11,12,00,AAXX 11124 85586 32560 71508 10101 20084 40171 54/// 81501 333 20082 31/// 50130 55046 56406 81530 87075=
85586,2005,08,11,15,00,AAXX 11154 85586 41940 62408 10152 20113 40177 52007 80002 333 56006 86073=
85586,2005,08,11,21,00,AAXX 11214 85586 41304 72704 10140 20113 40176 54001 74622 84601 333 56606 84707 83075=
85586,2005,08,12,00,00,AAXX 12004 85586 31304 52602 10096 20088 40196 52019 74642 86202 333 10166 56606 82707 84073=
85586,2005,08,12,12,00,AAXX 12124 85586 32660 81504 10092 20085 40187 54/// 8353/ 333 20078 31/// 50130 55065 56069 83633 86362=
85586,2005,08,12,15,00,AAXX 12154 85586 41956 71004 10144 20127 40182 56004 70522 87030 333 56060 87363=
85586,2005,08,12,18,00,AAXX 12184 85586 31956 82904 10168 20129 40161 57020 70522 8803/ 333 56069 88365=
85586,2005,08,12,21,00,AAXX 12214 85586 41956 83004 10146 20124 40164 54002 70522 8803/ 333 56069 88365=
85586,2005,08,13,00,00,AAXX 13004 85586 31306 80000 10120 20113 40166 53005 74642 886// 333 10170 56099 88707=
85586,2005,08,13,12,00,AAXX 13124 85586 11203 80000 10125 20121 40170 57/// 60024 7464/ 886// 333 20112 31/// 55006 50020 56799 70020 88706=
85586,2005,08,13,15,00,AAXX 13154 85586 41240 80000 10128 20124 40193 52022 71042 886// 333 56799 88706=
85586,2005,08,13,18,00,AAXX 13184 85586 31360 72503 10136 20119 40184 58008 70242 87600 333 56700 87709=
85586,2005,08,13,21,00,AAXX 13214 85586 42460 32507 10148 20118 40187 53003 82601 333 56606 82710=
85586,2005,08,14,00,00,AAXX 14004 85586 32960 02303 10104 20100 40206 52017 333 10156=
85586,2005,08,14,12,00,AAXX 14124 85586 32960 40000 10046 20042 40227 52/// 80001 333 20035 31/// 50080 55027 56006 84073=
85586,2005,08,14,15,00,AAXX 14154 85586 42960 52405 10124 20110 40227 54002 80001 333 56006 85073=
85586,2005,08,14,18,00,AAXX 14184 85586 32960 52705 10146 20109 40203 58023 80001 333 56006 85073=
85586,2005,08,14,21,00,AAXX 14214 85586 42960 71806 10129 20094 40195 57009 85031 333 56066 85365=
85586,2005,08,15,00,00,AAXX 15004 85586 32960 60000 10113 20104 40188 57006 84031 333 10148 56066 84365=
85586,2005,08,15,12,00,AAXX 15124 85586 32960 80904 10098 20086 40119 57/// 8803/ 333 20094 31/// 50140 55052 56069 88365=
85586,2005,08,15,15,00,AAXX 15154 85586 42960 80905 10143 20113 40098 57020 8253/ 333 56769 82615 88365=
85586,2005,08,15,18,00,AAXX 15184 85586 32460 83104 10152 20097 40093 56005 8113/ 333 56769 81815 88365=
85586,2005,08,15,21,00,AAXX 15214 85586 42560 53610 10168 20067 40089 50003 70122 81130 333 56760 81820 85365=
85586,2005,08,16,00,00,AAXX 16004 85586 31558 43514 10141 20091 40091 50003 70522 84500 333 10171 56700 84625=
85586,2005,08,16,12,00,AAXX 16124 85586 11556 83609 10136 20122 40138 52/// 60254 7808/ 333 20123 32/// 50150 55008 56899 70254 88825=
85586,2005,08,16,15,00,AAXX 16154 85586 41540 83215 10117 20108 40172 52034 78188 882// 333 56799 88820=
85586,2005,08,16,18,00,AAXX 16184 85586 11420 83211 10128 20114 40193 52020 60061 78088 888// 333 56799 82810 88825=
85586,2005,08,16,21,00,AAXX 16214 85586 41450 73106 10135 20109 40215 52023 70588 888// 333 56799 82810 87825=
85586,2005,08,17,00,00,AAXX 17004 85586 11956 20903 10114 20094 40242 52026 69941 70588 82030 333 10144 56060 82365=
85586,2005,08,17,12,00,AAXX 17124 85586 12560 31410 10086 20078 40229 57/// 60074 81501 333 20078 32/// 50070 55006 56506 70070 81520 83075=
85586,2005,08,17,15,00,AAXX 17154 85586 42960 61506 10130 20108 40224 57013 80001 333 56006 86075=
85586,2005,08,17,18,00,AAXX 17184 85586 32560 41808 10170 20122 40191 57022 81501 333 56406 81620 84075=
85586,2005,08,17,21,00,AAXX 17214 85586 42960 71806 10164 20098 40179 57012 87030 333 56060 87365=
85586,2005,08,18,00,00,AAXX 18004 85586 32960 81906 10128 20094 40179 54001 84032 333 10173 56066 84365 86075=
85586,2005,08,18,12,00,AAXX 18124 85586 32960 62604 10094 20085 40171 57/// 83031 333 20092 31/// 50110 55075 56066 83365 85075=
85586,2005,08,18,15,00,AAXX 18154 85586 42960 70000 10146 20116 40185 53015 81032 333 56066 81365 87075=
85586,2005,08,18,18,00,AAXX 18184 85586 31940 72604 10168 20132 40172 58012 70522 80002 333 56006 87075=
85586,2005,08,18,21,00,AAXX 18214 85586 41956 72704 10156 20110 40167 56005 70522 80002 333 56006 87075=
85586,2005,08,19,00,00,AAXX 19004 85586 31956 70402 10110 20097 40175 54002 70522 80001 333 10172 56006 87075=
85586,2005,08,19,12,00,AAXX 19124 85586 31103 80000 10099 20095 40169 53/// 7444/ 886// 333 20088 31/// 50090 55072 56099 88702=
85586,2005,08,19,15,00,AAXX 19154 85586 41120 80504 10112 20108 40179 52011 71042 886// 333 56099 88703=
85586,2005,08,19,18,00,AAXX 19184 85586 31357 83407 10124 20117 40168 58011 71042 886// 333 56099 88708=
85586,2005,08,19,21,00,AAXX 19214 85586 42460 83405 10120 20108 40167 54001 886// 333 56099 88710=
85586,2005,08,20,00,00,AAXX 20004 85586 32560 83407 10119 20103 40178 53011 885// 333 10125 56799 88625=
85586,2005,08,20,12,00,AAXX 20124 85586 32560 80103 10116 20092 40171 57/// 885// 333 20112 31/// 50070 55000 56799 88627=
85586,2005,08,20,15,00,AAXX 20154 85586 42560 83304 10125 20084 40185 52014 885// 333 56799 88627=
85586,2005,08,20,18,00,AAXX 20184 85586 32560 73306 10142 20096 40176 58011 87500 333 56700 87627=
85586,2005,08,20,21,00,AAXX 20214 85586 42560 83408 10128 20091 40179 53003 885// 333 56799 88627=
85586,2005,08,21,00,00,AAXX 21004 85586 32560 80000 10120 20102 40187 52008 885// 333 10144 56799 88627=
85586,2005,08,21,12,00,AAXX 21124 85586 11558 60903 10113 20096 40196 56/// 60014 7052/ 82530 333 20108 32/// 50140 55009 56760 82620 84365=
85586,2005,08,21,15,00,AAXX 21154 85586 42560 52705 10145 20108 40204 53009 82130 333 56760 82820 83365=
85586,2005,08,21,18,00,AAXX 21184 85586 32560 23205 10161 20110 40199 51005 82100 333 56700 82820=
85586,2005,08,21,21,00,AAXX 21214 85586 42560 73104 10146 20111 40189 57010 81101 333 56706 81820 87075=
85586,2005,08,22,00,00,AAXX 22004 85586 31256 70000 10123 20106 40195 53005 70511 83601 333 10169 56706 83708 84075=
85586,2005,08,22,12,00,AAXX 22124 85586 31958 80000 10096 20087 40173 57/// 7052/ 8803/ 333 20094 31/// 50120 55084 56069 88365=
85586,2005,08,22,15,00,AAXX 22154 85586 41558 62406 10137 20108 40179 52007 70522 82130 333 56760 82820 86365=
85586,2005,08,22,18,00,AAXX 22184 85586 32560 42509 10144 20102 40176 58003 81201 333 56706 81820 83075=
85586,2005,08,22,21,00,AAXX 22214 85586 42560 62507 10134 20091 40192 52015 82130 333 56760 81820 84365=
85586,2005,08,23,00,00,AAXX 23004 85586 31956 50603 10110 20080 40210 52018 70522 85030 333 10154 56060 85362=
85586,2005,08,23,12,00,AAXX 23124 85586 32960 50000 10083 20068 40226 52/// 85030 333 20083 31/// 50120 55040 56060 85363=
85586,2005,08,23,15,00,AAXX 23154 85586 42560 10404 10140 20078 40234 52009 81500 333 56500 81630=
85586,2005,08,23,18,00,AAXX 23184 85586 32560 32410 10146 20086 40248 52014 83500 333 500 83625=
85586,2005,08,23,21,00,AAXX 23214 85586 42960 22406 10144 20093 40248 54000 80001 333 56006 82075=
85586,2005,08,24,00,00,AAXX 24004 85586 32960 60000 10100 20081 40257 52008 80001 333 10151 56006 86075=
85586,2005,08,24,12,00,AAXX 24124 85586 32960 31204 10090 20077 40204 57/// 80001 333 20051 31/// 50130 55091 56006 83075=
85586,2005,08,24,15,00,AAXX 24154 85586 42960 32506 10162 20109 40202 54001 80001 333 56006 83075=
85586,2005,08,24,18,00,AAXX 24184 85586 32960 62510 10156 20104 40186 57016 80002 333 56006 86075=
85586,2005,08,24,21,00,AAXX 24214 85586 42960 72804 10140 20106 40176 57011 80002 333 56006 87073=
85586,2005,08,25,00,00,AAXX 25004 85586 32960 70804 10112 20095 40184 53008 80002 333 10172 56006 87070=
85586,2005,08,25,12,00,AAXX 25124 85586 32560 80000 10106 20095 40212 53/// 885// 333 20100 31/// 50140 55074 56099 88623=
85586,2005,08,25,15,00,AAXX 25154 85586 41458 82907 10122 20106 40229 52016 70522 885// 333 56699 88617=
85586,2005,08,25,18,00,AAXX 25184 85586 31560 83003 10133 20110 40220 52011 885// 333 56699 88622=
85586,2005,08,25,21,00,AAXX 25214 85586 42560 82704 10127 20109 40218 54002 885// 333 56699 88620=
85586,2005,08,26,00,00,AAXX 26004 85586 32460 82103 10115 20100 40223 53005 885// 333 10136 56699 88613=
85586,2005,08,26,12,00,AAXX 26124 85586 31959 70903 10095 20091 40189 54/// 7102/ 85031 333 20091 31/// 50090 55000 56066 85363=
85586,2005,08,26,12,02,AAXX 26124 85586 31959 70903 10095 20091 40189 54/// 7102/ 85031 333 20091 31/// 50090 55000 56066 85363=
85586,2005,08,26,15,00,AAXX 26154 85586 42560 83102 10136 20114 40202 52014 81131 333 56066 81820 86363=
85586,2005,08,26,18,00,AAXX 26184 85586 32960 73303 10146 20124 40187 58015 87070 333 56060 87363=
85586,2005,08,26,21,00,AAXX 26214 85586 41940 83607 10133 20119 40176 57011 70522 8807/ 333 56069 88363=
85586,2005,08,27,00,00,AAXX 27004 85586 11940 80505 10124 20120 40171 57005 60091 76165 8802/ 333 10148 56079 88460=
85586,2005,08,27,12,00,AAXX 27124 85586 11540 83007 10123 20112 40172 52/// 60424 7636/ 882// 333 20121 32/// 50140 55006 56799 70429 88820=
85586,2005,08,27,15,00,AAXX 27154 85586 41520 82903 10129 20120 40185 52013 76366 882// 333 56799 88820=
85586,2005,08,27,18,00,AAXX 27184 85586 11556 83206 10139 20122 40181 58004 60111 70566 882// 333 56799 88820=
85586,2005,08,27,21,00,AAXX 27214 85586 41556 83005 10133 20120 40184 53003 70562 882// 333 56799 88820=
85586,2005,08,28,00,00,AAXX 28004 85586 11540 83103 10131 20113 40197 52012 69941 882// 333 10141 56799 88820=
85586,2005,08,28,12,00,AAXX 28124 85586 11458 80103 10120 20104 40157 57/// 60124 7052/ 8151/ 333 20113 32/// 50090 55000 56769 70122 81612 88459=
85586,2005,08,28,15,00,AAXX 28154 85586 42460 83609 10133 20117 40160 51003 8313/ 333 56769 83815 88362=
85586,2005,08,28,18,00,AAXX 28184 85586 11558 83512 10132 20111 40152 58008 69931 78062 882// 333 56799 88825=
85586,2005,08,28,21,00,AAXX 28214 85586 41556 83405 10109 20089 40153 55005 78086 882// 333 56799 88820=
85586,2005,08,29,00,00,AAXX 29004 85586 11556 73105 10102 20077 40175 52021 60061 78088 87200 333 10141 56700 87825=
85586,2005,08,29,07,30,AAXX 29074 85586 32560 53008 10130 20073 40185 58008 93130 333 56660 83820 83365=
85586,2005,08,29,12,00,AAXX 29124 85586 12560 20000 10060 20046 40188 54/// 60084 81130 333 20058 32/// 50060 56560 70076 81820=
85586,2005,08,29,15,00,AAXX 29154 85586 42560 63402 10122 20058 40194 52007 83230 333 56060 83820 85365=
85586,2005,08,29,21,00,AAXX 29214 85586 42560 33310 10128 20073 40177 57008 83101 333 56606 83820=
85586,2005,08,30,00,00,AAXX 30004 85586 32560 50000 10100 20067 40185 53007 85100 333 10138 56000 85820=
85586,2005,08,30,12,00,AAXX 30124 85586 11558 81208 10054 20047 40185 52/// 60094 7606/ 8353/ 333 20050 32/// 50070 55077 56369 70088 83620 88360=
85586,2005,08,30,15,00,AAXX 30154 85586 41460 70406 10102 20076 40193 52009 70166 81131 333 56366 81815 83360 85075=
85586,2005,08,30,18,00,AAXX 30184 85586 11560 72804 10108 20061 40196 54003 60011 76022 85101 333 56506 85823 83075=
85586,2005,08,30,21,00,AAXX 30214 85586 42560 82604 10114 20055 40200 54004 82132 333 56566 82820 83359 85075=
85586,2005,08,31,00,00,AAXX 31004 85586 12960 60000 10068 20050 40217 52015 69921 80002 333 10122 56006 86075=
85586,2005,08,31,12,00,AAXX 31124 85586 12960 01203 10047 20043 40238 52/// 60014 333 20038 31/// 50060 55030 70012=
85586,2005,08,31,15,00,AAXX 31154 85586 42560 33403 10136 20075 40254 52019 83100 333 56600 83823=
85586,2005,08,31,18,00,AAXX 31184 85586 32560 12906 10139 20087 40252 54002 81100 333 56600 81825=
85586,2005,08,31,21,00,AAXX 31214 85586 42560 22408 10129 20094 40257 52004 82100 333 56600 82825=
85586,2005,09,01,00,00,AAXX 01004 85586 32560 22201 10083 20077 40271 52013 82100 333 10141 56600 82825=
85586,2005,09,01,12,00,AAXX 01124 85586 32560 61702 10052 20048 40266 57/// 86500 333 20024 31/// 50080 55109 56000 86625=
85586,2005,09,01,15,00,AAXX 01154 85586 42560 22708 10124 20098 40265 54001 82500 333 56000 82625=
85586,2005,09,01,18,00,AAXX 01184 85586 32960 22409 10137 20075 40234 57030 80001 333 56006 82075=
85586,2005,09,01,21,00,AAXX 01214 85586 42960 62507 10125 20080 40226 57009 83031 333 56066 83365 83073=
85586,2005,09,02,00,00,AAXX 02004 85586 32960 60903 10098 20092 40219 57007 83031 333 10138 56066 83365 83073=
85586,2005,09,02,12,00,AAXX 02124 85586 31958 70000 10052 20039 40132 57/// 7051/ 333 20032 31/// 50130 55069 56060 87365=
85586,2005,09,02,15,00,AAXX 02154 85586 41458 72905 10121 20097 40138 53008 70521 82130 333 56760 82815 87365=
85586,2005,09,02,18,00,AAXX 02184 85586 31458 82706 10125 20090 40152 52014 70522 888// 333 56799 81815 88620=
85586,2005,09,02,21,00,AAXX 02214 85586 41560 80704 10116 20086 40155 58003 78022 882// 333 56799 88825=
85586,2005,09,03,00,00,AAXX 03004 85586 11556 80903 10111 20083 40159 53004 69931 70582 8123/ 333 10127 56769 81820 88362=
85586,2005,09,03,12,00,AAXX 03124 85586 11540 83106 10101 20086 40184 52/// 60154 7818/ 882// 333 20096 32/// 50110 55004 56799 70154 88825=
85586,2005,09,03,15,00,AAXX 03154 85586 41460 60511 10128 20096 40204 52019 72588 86200 333 56700 81215 86225=
85586,2005,09,03,18,00,AAXX 03184 85586 11460 60903 10121 20103 40214 51010 60061 78088 86800 333 56700 81815 86825=
85586,2005,09,03,21,00,AAXX 03214 85586 41560 63605 10131 20086 40222 52014 78088 86800 333 56700 86825=
85586,2005,09,04,00,00,AAXX 04004 85586 11560 70000 10104 20093 40251 52036 60011 78022 87200 333 10141 56700 87820=
85586,2005,09,04,12,00,AAXX 04124 85586 12960 11506 10056 20047 40252 56/// 60114 80001 333 20050 32/// 50060 55039 56006 70106 81075=
85586,2005,09,04,15,00,AAXX 04154 85586 42960 51506 10118 20074 40246 54004 80002 333 56006 85075=
85586,2005,09,04,18,00,AAXX 04184 85586 32560 62710 10150 20099 40235 57010 82501 333 56606 82625 85075=
85586,2005,09,05,00,00,AAXX 05004 85586 32560 80000 10118 20092 40237 53005 8353/ 333 10160 56669 83620 86363=
85586,2005,09,05,12,00,AAXX 05124 85586 32960 81904 10096 20083 40216 57/// 8803/ 333 20096 31/// 50090 55086 56069 88363=
85586,2005,09,05,15,00,AAXX 05154 85586 42960 81908 10136 20090 40219 51005 8803/ 333 56069 88363=
85586,2005,09,05,18,00,AAXX 05184 85586 32960 72606 10166 20110 40198 57020 87030 333 56060 87363=
85586,2005,09,05,21,00,AAXX 05214 85586 42960 72408 10150 20109 40194 56005 87030 333 56060 87362=
85586,2005,09,06,00,00,AAXX 06004 85586 32960 70000 10126 20103 40206 52011 87030 333 10170 56060 87363=
85586,2005,09,06,12,00,AAXX 06124 85586 32960 51503 10115 20108 40199 57/// 80001 333 20089 31/// 50120 55013 56005 85070=
85586,2005,09,06,15,00,AAXX 06154 85586 42960 41508 10180 20130 40197 54000 80001 333 56005 84073=
85586,2005,09,06,18,00,AAXX 06184 85586 32960 31910 10223 20103 40183 57012 80001 333 56005 83073=
85586,2005,09,06,21,00,AAXX 06214 85586 42960 42410 10188 20114 40163 57022 80001 333 56005 84073=
85586,2005,09,07,00,00,AAXX 07004 85586 32960 42102 10137 20110 40170 53006 80001 333 10224 56005 84073=
85586,2005,09,07,12,00,AAXX 07124 85586 32960 51403 10122 20113 40161 53/// 80001 333 20090 31/// 50180 55087 56005 85073=
85586,2005,09,07,15,00,AAXX 07154 85586 42960 42507 10173 20136 40161 54001 80001 333 56005 84073=
85586,2005,09,07,18,00,AAXX 07184 85586 32960 52512 10180 20148 40140 57021 80001 333 56005 85073=
85586,2005,09,07,21,00,AAXX 07214 85586 42960 52410 10174 20141 40139 54001 80001 333 56005 85073=
85586,2005,09,08,00,00,AAXX 08004 85586 32960 20000 10125 20111 40154 53014 80001 333 10182 56005 82073=
85586,2005,09,08,12,00,AAXX 08124 85586 31203 80706 10097 20088 40185 52/// 7444/ 886// 333 20084 31/// 50180 55103 56099 88706=
85586,2005,09,08,15,00,AAXX 08154 85586 41320 63303 10142 20142 40182 58002 74044 86600 333 56700 86708=
85586,2005,09,08,18,00,AAXX 08184 85586 31958 22609 10167 20113 40169 57012 70244 80001 333 56006 82075=
85586,2005,09,08,21,00,AAXX 08214 85586 41960 72404 10153 20107 40170 55000 70344 80030 333 56060 87365=
85586,2005,09,09,00,00,AAXX 09004 85586 31958 70000 10124 20100 40179 53009 70522 87030 333 10175 56060 87365=
85586,2005,09,09,12,00,AAXX 09124 85586 11960 81003 10098 20088 40181 52/// 69914 7252/ 8806/ 333 20087 31/// 50190 55060 56069 88360=
85586,2005,09,09,15,00,AAXX 09154 85586 41960 82303 10111 20067 40196 52015 70282 8806/ 333 56069 88361=
85586,2005,09,09,18,00,AAXX 09184 85586 31458 62507 10131 20059 40203 51007 70582 81101 333 56706 81815 86075=
85586,2005,09,10,00,00,AAXX 10004 85586 31958 20000 10074 20054 40218 51013 70522 82030 333 10138 56060 82365=
85586,2005,09,10,12,00,AAXX 10124 85586 32960 00000 10026 20016 40257 52/// 333 20000 31/// 50090 55042=
85586,2005,09,10,15,00,AAXX 10154 85586 42560 22606 10100 20037 40270 52015 82500 333 56600 82625=
85586,2005,09,10,18,00,AAXX 10184 85586 32560 22806 10120 20039 40266 54003 82500 333 56600 82625=
85586,2005,09,10,21,00,AAXX 10214 85586 42560 32414 10114 20046 40281 52006 83500 333 56600 83625=
85586,2005,09,11,00,00,AAXX 11004 85586 32960 00000 10084 20060 40298 52015 333 10122=
85586,2005,09,11,12,00,AAXX 11124 85586 32960 01204 10056 20034 40294 57/// 333 20027 31/// 50130 55103=
85586,2005,09,11,15,00,AAXX 11154 85586 42960 01810 10126 20048 40278 57013=
85586,2005,09,11,18,00,AAXX 11184 85586 32960 02416 10140 20064 40251 57026=
85586,2005,09,11,21,00,AAXX 11214 85586 42960 02212 10150 20020 40230 57021=
85586,2005,09,12,00,00,AAXX 12004 85586 32960 01904 10094 20054 40231 54001 333 10156=
85586,2005,09,12,12,00,AAXX 12124 85586 32960 01106 10042 20031 40191 57/// 333 20010 31/// 50140 55109=
85586,2005,09,12,15,00,AAXX 12154 85586 42960 03206 10118 20063 40192 53003=
85586,2005,09,12,21,00,AAXX 12214 85586 42960 02702 10137 20097 40177 57006=
85586,2005,09,13,00,00,AAXX 13004 85586 32960 00000 10078 20057 40175 53003 333 10145=
85586,2005,09,13,12,00,AAXX 13124 85586 32960 01305 10046 20035 40177 52/// 333 20018 31/// 50170 55109=
85586,2005,09,13,15,00,AAXX 13154 85586 42960 03105 10133 20076 40189 52015=
85586,2005,09,13,18,00,AAXX 13184 85586 32960 03213 10137 20076 40186 58003=
85586,2005,09,13,21,00,AAXX 13214 85586 42960 03308 10132 20071 40184 54002=
85586,2005,09,14,00,00,AAXX 14004 85586 32560 33104 10108 20087 40201 52016 83500 333 10142 56700 83620=
85586,2005,09,14,12,00,AAXX 14124 85586 32560 40903 10103 20098 40248 52/// 82530 333 20065 31/// 50120 55106 56760 82620 82365=
85586,2005,09,14,15,00,AAXX 14154 85586 41560 33207 10136 20073 40252 51006 83100 333 56800 83820=
85586,2005,09,14,18,00,AAXX 14184 85586 32560 13310 10155 20078 40239 57013 81100 333 56700 81820=
85586,2005,09,14,21,00,AAXX 14214 85586 42560 12803 10146 20073 40230 56009 81100 333 56700 81820=
85586,2005,09,15,00,00,AAXX 15004 85586 31958 30000 10091 20059 40239 53007 70500 83030 333 10157 56060 83365=
85586,2005,09,15,12,00,AAXX 15124 85586 32960 01303 10067 20055 40242 53/// 333 20031 31/// 50170 55102=
85586,2005,09,15,15,00,AAXX 15154 85586 42960 02603 10143 20091 40236 58003=
85586,2005,09,15,18,00,AAXX 15184 85586 32960 02609 10156 20072 40228 57008=
85586,2005,09,15,21,00,AAXX 15214 85586 42960 02711 10141 20092 40217 57011=
85586,2005,09,16,12,00,AAXX 16124 85586 31958 00000 10052 20044 40211 56/// 7050/ 333 20029 31/// 50160 55107=
85586,2005,09,16,15,00,AAXX 16154 85586 42560 12808 10126 20100 40212 54003 81500 333 56600 81620=
85586,2005,09,16,18,00,AAXX 16184 85586 32560 22806 10146 20103 40205 57006 82500 333 56600 82620=
85586,2005,09,16,21,00,AAXX 16214 85586 42560 72706 10130 20095 40202 56004 87500 333 56600 87620=
85586,2005,09,17,00,00,AAXX 17004 85586 32560 80000 10114 20096 40207 53005 885// 333 10148 56099 88620=
85586,2005,09,17,12,00,AAXX 17124 85586 31209 80000 10096 20088 40197 57/// 7464/ 886// 333 20096 31/// 50130 55089 56099 88706=
85586,2005,09,17,15,00,AAXX 17154 85586 41320 83004 10108 20100 40206 52010 75052 886// 333 56099 88708=
85586,2005,09,17,18,00,AAXX 17184 85586 11430 82704 10116 20107 40199 58007 69901 75052 885// 333 56099 88610=
85586,2005,09,17,21,00,AAXX 17214 85586 41450 82802 10120 20102 40181 57017 70552 885// 333 56099 88613=
85586,2005,09,18,00,00,AAXX 18004 85586 31440 82604 10110 20097 40187 53006 70522 885// 333 10120 56099 88610=
85586,2005,09,18,12,00,AAXX 18124 85586 11430 81905 10108 20102 40174 53/// 69904 7102/ 886// 333 20105 31/// 50060 55000 56599 70000 88712=
85586,2005,09,18,15,00,AAXX 18154 85586 41430 82405 10111 20103 40176 54002 71022 886// 333 56699 88710=
85586,2005,09,18,18,00,AAXX 18184 85586 31456 52506 10131 20108 40159 57017 70522 83601 333 56606 83710=
85586,2005,09,18,21,00,AAXX 18214 85586 41458 82609 10116 20097 40157 54002 70522 886// 333 56699 88710=
85586,2005,09,19,00,00,AAXX 19004 85586 31456 82803 10108 20100 40165 52008 71022 886// 333 10135 56699 88710=
85586,2005,09,19,12,00,AAXX 19124 85586 11330 80502 10102 20098 40170 53/// 69914 7102/ 886// 333 20102 31/// 50070 55013 56799 70001 88707=
85586,2005,09,19,15,00,AAXX 19154 85586 41456 82605 10113 20104 40175 52006 71022 886// 333 56699 88710=
85586,2005,09,19,18,00,AAXX 19184 85586 31457 82407 10113 20100 40173 54002 70522 886// 333 56699 88710=
85586,2005,09,19,21,00,AAXX 19214 85586 42460 82608 10117 20098 40177 52004 886// 333 56699 88712=
85586,2005,09,20,00,00,AAXX 20004 85586 31240 82602 10112 20104 40191 52013 71022 886// 333 10120 56699 88706=
85586,2005,09,20,12,00,AAXX 20124 85586 31220 82503 10115 20102 40206 52/// 7102/ 886// 333 20111 31/// 50130 55000 88704=
85586,2005,09,20,15,00,AAXX 20154 85586 41320 22504 10143 20110 40205 50000 74022 82600 333 56700 82708=
85586,2005,09,20,18,00,AAXX 20184 85586 31220 82707 10126 20110 40194 57012 74042 886// 333 56799 88706=
85586,2005,09,20,21,00,AAXX 20214 85586 41220 82904 10116 20099 40195 57008 71044 886// 333 56799 88706=
85586,2005,09,21,00,00,AAXX 21004 85586 31220 80000 10116 20097 40195 53009 71044 886// 333 10148 56799 88704=
85586,2005,09,21,12,00,AAXX 21124 85586 31206 80703 10083 20072 40186 53/// 7464/ 886// 333 20071 31/// 50120 55028 56799 88704=
85586,2005,09,21,15,00,AAXX 21154 85586 41960 03007 10143 20093 40185 50000 70244=
85586,2005,09,21,18,00,AAXX 21184 85586 31460 12712 10146 20097 40190 53005 70344 81100 333 56700 81815=
85586,2005,09,21,21,00,AAXX 21214 85586 41560 33009 10140 20086 40188 58002 70344 81131 333 56776 81820=
85586,2005,09,22,00,00,AAXX 22004 85586 31958 60000 10102 20081 40193 51003 70500 80001 333 10155 56006 86075=
85586,2005,09,22,12,00,AAXX 22124 85586 32960 60000 10074 20066 40161 57/// 82031 333 20058 31/// 50160 55090 56066 82360 85075=
85586,2005,09,22,15,00,AAXX 22154 85586 42560 72005 10148 20095 40159 54000 81531 333 56666 81630 84363=
85586,2005,09,22,18,00,AAXX 22184 85586 32560 72610 10144 20094 40158 54001 81502 333 56606 81630 87075=
85586,2005,09,22,21,00,AAXX 22214 85586 42560 72610 10140 20090 40149 57009 81501 333 56606 81630 87072=
85586,2005,09,23,00,00,AAXX 23004 85586 32960 72605 10116 20096 40164 52014 82031 333 10158 56066 82363 85072=
85586,2005,09,23,12,00,AAXX 23124 85586 32560 70000 10106 20082 40181 52/// 85530 333 20104 30/// 50130 55069 56060 85630 83363=
85586,2005,09,23,15,00,AAXX 23154 85586 42560 40406 10150 20084 40211 52010 83530 333 56060 83625=
85586,2005,09,23,18,00,AAXX 23184 85586 32560 22808 10162 20094 40210 54001 81501 333 56606 81625=
85586,2005,09,23,21,00,AAXX 23214 85586 42560 32706 10152 20083 40213 54003 81501 333 56606 81625 83075=
85586,2005,09,24,00,00,AAXX 24004 85586 32960 50000 10110 20090 40231 52017 80001 333 10166 56006 85075=
85586,2005,09,24,12,00,AAXX 24124 85586 32960 01303 10087 20079 40245 53/// 333 20050 30/// 50130 55073=
85586,2005,09,24,15,00,AAXX 24154 85586 42960 02607 10167 20102 40242 54000=
85586,2005,09,24,18,00,AAXX 24184 85586 32960 02512 10152 20117 40238 57005=
85586,2005,09,24,21,00,AAXX 24214 85586 42960 02411 10148 20113 40232 57006=
85586,2005,09,25,00,00,AAXX 25004 85586 32960 02203 10118 20103 40249 52016 333 10167=
85586,2005,09,25,12,00,AAXX 25124 85586 31940 01102 10091 20087 40242 53/// 7100/ 333 20044 30/// 50180 55106=
85586,2005,09,25,15,00,AAXX 25154 85586 42960 02808 10140 20114 40240 54000=
85586,2005,09,25,18,00,AAXX 25184 85586 32960 03308 10157 20104 40231 57004=
85586,2005,09,25,21,00,AAXX 25214 85586 42960 02610 10146 20105 40218 57018=
85586,2005,09,26,00,00,AAXX 26004 85586 32960 02903 10111 20096 40218 54001 333 10159=
85586,2005,09,26,12,00,AAXX 26124 85586 31540 80905 10105 20088 40203 53/// 7052/ 885// 333 20086 30/// 50220 55106 56799 88620=
85586,2005,09,26,15,00,AAXX 26154 85586 41556 52606 10139 20097 40196 58006 70522 85500 333 56799 85620=
85586,2005,09,26,18,00,AAXX 26184 85586 31556 62708 10143 20103 40189 57007 70522 86500 333 56700 86620=
85586,2005,09,26,21,00,AAXX 26214 85586 41440 82705 10131 20098 40184 57005 70522 885// 333 56799 88615=
85586,2005,09,27,12,00,AAXX 27124 85586 31556 81303 10115 20086 40209 52/// 7052/ 885// 333 20109 30/// 50240 55053 56799 88620=
85586,2005,09,27,15,00,AAXX 27154 85586 41556 80503 10126 20082 40213 51005 70522 885// 333 56799 88620=
85586,2005,09,27,18,00,AAXX 27184 85586 31558 82706 10136 20090 40207 57006 70522 885// 333 56799 88620=
85586,2005,09,27,21,00,AAXX 27214 85586 41556 82707 10133 20092 40194 57014 70522 885// 333 56799 88620=
85586,2005,09,28,00,00,AAXX 28004 85586 31556 82306 10122 20098 40202 53003 70522 885// 333 10144 56799 88625=
85586,2005,09,28,12,00,AAXX 28124 85586 32960 70000 10068 20058 40204 56/// 82032 333 20056 30/// 50130 55000 56066 82365 87075=
85586,2005,09,28,15,00,AAXX 28154 85586 42560 53608 10144 20078 40217 52016 83502 333 56406 83620 83075=
85586,2005,09,28,18,00,AAXX 28184 85586 32560 63110 10152 20092 40229 52012 82532 333 56466 82620 83365=
85586,2005,09,28,21,00,AAXX 28214 85586 42560 73106 10130 20101 40231 54001 82531 333 56466 82625 85363=
85586,2005,09,29,00,00,AAXX 29004 85586 11460 82404 10120 20104 40240 52009 69901 76022 83231 333 10154 56566 83815 85362=
85586,2005,09,29,12,00,AAXX 29124 85586 12560 20000 10104 20095 40269 52/// 69944 81530 333 20082 31/// 50110 55052 56060 70004 81620=
85586,2005,09,29,15,00,AAXX 29154 85586 42560 52404 10146 20101 40272 51005 85500 333 56500 85620=
85586,2005,09,29,18,00,AAXX 29184 85586 32560 22406 10150 20099 40264 57008 81101 333 56506 81820=
85586,2005,09,29,21,00,AAXX 29214 85586 42560 22612 10146 20088 40252 56012 81101 333 56506 81823=
85586,2005,09,30,00,00,AAXX 30004 85586 32960 10000 10104 20077 40260 53006 80001 333 10158 56006 81075=
85586,2005,09,30,12,00,AAXX 30124 85586 32960 12504 10103 20066 40210 57/// 80001 333 20067 30/// 50230 55105 56006 81075=
85586,2005,09,30,15,00,AAXX 30154 85586 42960 52509 10163 20086 40202 56006 80001 333 56006 85075=
85586,2005,09,30,18,00,AAXX 30184 85586 32960 42516 10152 20086 40180 57022 80001 333 56006 84075=
85586,2005,09,30,21,00,AAXX 30214 85586 42960 52407 10148 20086 40170 57010 85030 333 56060 85365=
85586,2005,10,01,00,00,AAXX 01004 85586 31958 60504 10113 20078 40166 56004 70511 86030 333 10164 56060 86365=
85586,2005,10,01,12,00,AAXX 01124 85586 32460 70704 10099 20093 40145 53/// 84630 333 20070 30/// 50140 55100 56660 84610 83365=
85586,2005,10,01,15,00,AAXX 01154 85586 42460 73309 10126 20105 40148 52004 83530 333 56660 83613 84362=
85586,2005,10,01,18,00,AAXX 01184 85586 32460 73106 10136 20107 40153 52005 84530 333 56660 84615 83363=
85586,2005,10,01,21,00,AAXX 01214 85586 42460 72806 10133 20102 40141 58012 85530 333 56660 85617=
85586,2005,10,02,00,00,AAXX 02004 85586 32560 82803 10118 20109 40140 54001 885// 333 10138 56699 88620=
85586,2005,10,02,12,00,AAXX 02124 85586 31556 80304 10116 20080 40160 52/// 7052/ 885// 333 20106 30/// 50190 55006 56799 88625=
85586,2005,10,02,15,00,AAXX 02154 85586 41558 80204 10131 20077 40182 52022 70522 8352/ 333 56779 83625 88457=
85586,2005,10,02,18,00,AAXX 02184 85586 11558 83612 10137 20103 40184 53002 69911 78022 882// 333 56899 88825=
85586,2005,10,02,21,00,AAXX 02214 85586 41556 73408 10143 20094 40179 56005 70582 87200 333 56700 87825=
85586,2005,10,03,00,00,AAXX 03004 85586 11556 60604 10116 20090 40203 52023 60021 72582 333 10153 56700 86825=
85586,2005,10,03,12,00,AAXX 03124 85586 12560 20903 10124 20083 40184 53/// 60024 82500 333 20097 31/// 50210 55000 56700 70025 82625=
85586,2005,10,03,15,00,AAXX 03154 85586 42560 12809 10172 20099 40179 57004 81200 333 56700 81820=
85586,2005,10,03,18,00,AAXX 03184 85586 32560 13006 10169 20096 40171 57008 81200 333 56700 81820=
85586,2005,10,03,21,00,AAXX 03214 85586 42560 13107 10164 20105 40170 54001 81200 333 56700 81820=
85586,2005,10,04,00,00,AAXX 04004 85586 11556 83611 10141 20107 40175 53004 69941 78100 882// 333 10176 56899 88825=
85586,2005,10,04,12,00,AAXX 04124 85586 12560 40604 10124 20094 40231 52/// 60034 81531 333 20096 31/// 50130 55103 56066 81620 83363=
85586,2005,10,04,15,00,AAXX 04154 85586 42560 12706 10150 20077 40237 51007 81500 333 56600 81620=
85586,2005,10,04,18,00,AAXX 04184 85586 32560 12612 10156 20091 40230 57007 81100 333 56600 81820=
85586,2005,10,04,21,00,AAXX 04214 85586 42560 12610 10148 20097 40218 52012 81100 333 56600 81820=
85586,2005,10,05,00,00,AAXX 05004 85586 32960 02406 10110 20093 40216 54003 333 10162=
85586,2005,10,05,12,00,AAXX 05124 85586 32960 51204 10088 20080 40173 57/// 80001 333 20060 30/// 50180 55117 56006 85075=
85586,2005,10,05,15,00,AAXX 05154 85586 42560 52808 10150 20111 4017653004 80001 333 56006 85075=
85586,2005,10,05,18,00,AAXX 05184 85586 32560 32908 10162 20119 40170 58005 83500 333 56600 83620=
85586,2005,10,05,21,00,AAXX 05214 85586 42960 02510 10152 20110 40165 56006=
85586,2005,10,06,00,00,AAXX 06004 85586 32560 12610 10116 20099 40174 52009 81500 333 10168 56600 81620=
85586,2005,10,06,12,00,AAXX 06124 85586 32560 80000 10116 20099 40192 52/// 885// 333 20113 30/// 50160 55107 56699 88625=
85586,2005,10,06,15,00,AAXX 06154 85586 42560 82803 10139 20105 40202 52011 885// 333 56699 88625=
85586,2005,10,06,18,00,AAXX 06184 85586 32560 72707 10148 20098 40205 52003 87500 333 56600 87625=
85586,2005,10,06,21,00,AAXX 06214 85586 42560 82706 10138 20104 40206 54001 885// 333 56699 88625=
85586,2005,10,07,00,00,AAXX 07004 85586 32560 70000 10123 20105 40218 52011 87500 333 10151 56600 87625=
85586,2005,10,07,12,00,AAXX 07124 85586 32560 71204 10095 20091 40248 52/// 87500 333 20052 30/// 50130 55002 56600 87620=
85586,2005,10,07,15,00,AAXX 07154 85586 42560 33105 10157 20125 40252 52006 83500 333 56600 83620=
85586,2005,10,07,18,00,AAXX 07184 85586 32560 22511 10156 20105 40254 54002 82500 333 56600 82620=
85586,2005,10,07,21,00,AAXX 07214 85586 42960 02512 10154 20120 40256 57008=
85586,2005,10,08,00,00,AAXX 08004 85586 32960 00000 10108 20098 40248 54001 333 10159=
85586,2005,10,08,12,00,AAXX 08124 85586 32960 00000 10131 20104 40206 57/// 333 20054 30/// 50240 55080=
85586,2005,10,08,15,00,AAXX 08154 85586 42960 02507 10176 20106 40199 56005=
85586,2005,10,08,18,00,AAXX 08184 85586 32960 02710 10183 20112 40184 57015=
85586,2005,10,08,21,00,AAXX 08214 85586 42960 03003 10184 20110 40171 57013=
85586,2005,10,09,00,00,AAXX 09004 85586 31958 00103 10133 20102 40176 53004 70500 333 10193=
85586,2005,10,09,12,00,AAXX 09124 85586 11208 80405 10116 20106 40185 52/// 69904 7425/ 886// 333 20071 31/// 50240 55115 56799 88704=
85586,2005,10,09,15,00,AAXX 09154 85586 41212 83209 10130 20113 40196 52010 71054 886// 333 56799 88705=
85586,2005,10,09,18,00,AAXX 09184 85586 11340 83205 10141 20114 40203 51008 69901 70554 886// 333 56799 88707=
85586,2005,10,09,21,00,AAXX 09214 85586 41320 82903 10131 20115 40200 56004 71054 886// 333 56799 88708=
85586,2005,10,10,00,00,AAXX 10004 85586 11440 80000 10128 20106 40203 53003 69901 70554 885// 333 10147 56799 88615=
85586,2005,10,10,12,00,AAXX 10124 85586 11320 80000 10110 20100 40192 54/// 69904 7505/ 886// 333 20108 31/// 50160 55000 56099 70000 88707=
85586,2005,10,10,15,00,AAXX 10154 85586 41420 82508 10126 20115 40200 53008 70552 885// 333 56099 88610=
85586,2005,10,10,18,00,AAXX 10184 85586 11320 82408 10124 20108 40202 54002 69901 70552 886// 333 56599 88708=
85586,2005,10,10,21,00,AAXX 10214 85586 41440 82508 10120 20090 40212 52010 70522 885// 333 56599 88613=
85586,2005,10,11,00,00,AAXX 11004 85586 31450 80000 10110 20086 40214 54002 70522 885// 333 10130 56599 88615=
85586,2005,10,11,12,00,AAXX 11124 85586 12560 70904 10112 20070 40225 52/// 69904 82501 333 20100 30/// 50100 55000 56506 70000 82620 86075=
85586,2005,10,11,15,00,AAXX 11154 85586 42560 32906 10150 20080 40224 54000 81502 333 56606 81626=
85586,2005,10,11,18,00,AAXX 11184 85586 32560 22710 10156 20083 40220 54004 81501 333 56606 81626=
85586,2005,10,11,21,00,AAXX 11214 85586 42960 12708 10154 20084 40214 57006 80001 333 56006 81075=
85586,2005,10,12,00,00,AAXX 12004 85586 32960 20000 10122 20096 40227 52012 80001 333 10164 56006 82075=
85586,2005,10,12,12,00,AAXX 12124 85586 32960 21806 10127 20118 40201 54/// 80001 333 20070 30/// 50190 55107 56006 82075=
85586,2005,10,12,15,00,AAXX 12154 85586 42560 42515 10169 20112 40191 56008 81101 333 56706 81825 84075=
85586,2005,10,12,18,00,AAXX 12184 85586 32560 62515 10169 20121 40186 57005 81101 333 56606 81825 85075=
85586,2005,10,12,21,00,AAXX 12214 85586 42960 52417 10158 20118 40174 57012 80001 333 56006 85075=
85586,2005,10,13,00,00,AAXX 13004 85586 32960 40000 10116 20086 40186 52011 80001 333 10178 56006 84075=
85586,2005,10,13,12,00,AAXX 13124 85586 32960 00000 10098 20087 40189 52/// 333 20033 30/// 50210 55112=
85586,2005,10,13,15,00,AAXX 13154 85586 42960 02704 10141 20099 40187 54001=
85586,2005,10,13,18,00,AAXX 13184 85586 32960 02611 10155 20097 40192 52005=
85586,2005,10,13,21,00,AAXX 13214 85586 42960 02407 10166 20104 40186 58005=
85586,2005,10,14,12,00,AAXX 14124 85586 32960 00000 10104 20069 40170 54/// 333 20031 30/// 50240 55115=
85586,2005,10,14,15,00,AAXX 14154 85586 42960 02712 10156 20063 40170 53002=
85586,2005,10,14,18,00,AAXX 14184 85586 32960 02615 10154 20085 40174 51003=
85586,2005,10,14,21,00,AAXX 14214 85586 42960 12714 10139 20089 40179 53005 81100 333 56700 81820=
85586,2005,10,15,00,00,AAXX 15004 85586 32560 53107 10118 20086 40192 52012 85100 333 10157 56700 85820=
85586,2005,10,15,12,00,AAXX 15124 85586 32560 71403 10116 20067 40511 52/// 87500 333 20102 30/// 50240 55119 56700 87625=
85586,2005,10,15,15,00,AAXX 15154 85586 41558 72604 10146 20069 40222 52011 70522 83530 333 56760 83625 85362=
85586,2005,10,15,18,00,AAXX 15184 85586 32560 72710 10149 20079 40225 51003 81530 333 56760 81625 86362=
85586,2005,10,15,21,00,AAXX 15214 85586 42560 62510 10131 20080 40230 51004 81130 333 56760 81820 86362=
85586,2005,10,16,00,00,AAXX 16004 85586 31258 40000 10109 20081 40248 52018 70522 81630 333 10154 56760 81708 83365=
85586,2005,10,16,12,00,AAXX 16124 85586 32960 00000 10092 20083 40232 56/// 333 20040 30/// 50170 55031=
85586,2005,10,16,15,00,AAXX 16154 85586 42560 22410 10156 20097 40224 57006 82500 333 56500 82625=
85586,2005,10,16,21,00,AAXX 16214 85586 42960 42416 10150 20090 40207 54001 80001 333 56006 84075=
85586,2005,10,17,00,00,AAXX 17004 85586 32960 20000 10108 20086 40215 53007 80001 333 10168 56006 82075=
85586,2005,10,17,12,00,AAXX 17124 85586 32958 70000 10086 20074 40206 53/// 81032 333 20056 30/// 50250 55118 56066 81365 87073=
85586,2005,10,17,15,00,AAXX 17154 85586 41958 72410 10164 20100 40201 54003 80002 333 56006 87073=
85586,2005,10,17,18,00,AAXX 17184 85586 31958 72412 10136 20090 40199 54002 80002 333 56006 87070=
85586,2005,10,17,21,00,AAXX 17214 85586 41958 72504 10160 20107 40196 54003 80002 333 56006 87070=
85586,2005,10,18,00,00,AAXX 18004 85586 32960 33604 10124 20094 40203 52006 80002 333 10169 56006 83070=
85586,2005,10,18,12,00,AAXX 18124 85586 31960 00000 10117 20098 40202 53/// 7024/ 333 20054 30/// 50210 55045=
85586,2005,10,18,15,00,AAXX 18154 85586 42160 12707 10148 20118 40196 58005 81600 333 56600 81702=
85586,2005,10,18,18,00,AAXX 18184 85586 32960 02612 10151 20138 40181 57015=
85586,2005,10,18,21,00,AAXX 18214 85586 42960 00506 10159 20127 40157 57023=
85586,2005,10,19,00,00,AAXX 19004 85586 32960 00000 10110 20091 40157 54002 333 10174=
85586,2005,10,19,12,00,AAXX 19124 85586 32960 00000 10131 20113 40120 57/// 333 20054 30/// 50250 55109=
85586,2005,10,19,15,00,AAXX 19154 85586 42960 02810 10192 20136 40115=
85586,2005,10,19,18,00,AAXX 19184 85586 32960 02706 10185 20121 40105 57010=
85586,2005,10,19,21,00,AAXX 19214 85586 42960 03605 10152 20113 40106 54000=
85586,2005,10,20,00,00,AAXX 20004 85586 32260 13607 10127 20114 40126 52020 81600 333 10196 56800 81703=
85586,2005,10,20,12,00,AAXX 20124 85586 31240 83305 10134 20113 40171 52/// 7052/ 886// 333 20129 30/// 50280 55118 56799 88706=
85586,2005,10,20,15,00,AAXX 20154 85586 41256 82807 10151 20116 40185 52014 70522 886// 333 56799 88708=
85586,2005,10,20,18,00,AAXX 20184 85586 31458 73204 10171 20116 40184 50000 70522 87500 333 56700 87615=
85586,2005,10,20,21,00,AAXX 20214 85586 42560 72906 10153 20121 40177 57008 82130 333 56760 81825 85362=
85586,2005,10,21,00,00,AAXX 21004 85586 31556 82505 10135 20110 40174 56003 70522 885// 333 10176 56799 88625=
85586,2005,10,21,12,00,AAXX 21124 85586 31360 83504 10115 20106 40185 52/// 7102/ 886// 333 20110 30/// 50210 55036 56799 88707=
85586,2005,10,21,15,00,AAXX 21154 85586 42460 82904 10131 20114 40189 52004 886// 333 56799 88710=
85586,2005,10,21,18,00,AAXX 21184 85586 32460 72506 10157 20128 40192 52003 83601 333 56706 83710 84073=
85586,2005,10,21,21,00,AAXX 21214 85586 41359 72505 10133 20113 40195 52002 70522 85601 333 56706 85709=
85586,2005,10,22,00,00,AAXX 22004 85586 31958 70904 10116 20105 40202 51007 71022 80006 333 10162 56006 87270=
85586,2005,10,22,12,00,AAXX 22124 85586 32960 71904 10120 20106 40179 57/// 80002 333 20079 30/// 50160 55036 56006 87075=
85586,2005,10,22,15,00,AAXX 22154 85586 42960 72010 10208 20109 40172 56004 80002 333 56006 87075=
85586,2005,10,22,18,00,AAXX 22184 85586 31958 72414 10148 20082 40169 57006 80002 333 56006 87075=
85586,2005,10,22,21,00,AAXX 22214 85586 41958 72610 10156 20089 40162 57006 70522 80002 333 56006 87075=
85586,2005,10,23,00,00,AAXX 23004 85586 32960 50506 10116 20087 40168 53005 80002 333 10212 56006 85075=
85586,2005,10,23,12,00,AAXX 23124 85586 32360 23304 10100 20089 40157 53/// 81601 333 20036 30/// 50220 55091 56706 81707=
85586,2005,10,23,15,00,AAXX 23154 85586 42460 23110 10140 20098 40168 52012 82500 333 56600 82617=
85586,2005,10,23,18,00,AAXX 23184 85586 32560 53110 10148 20086 40180 52012 85500 333 56600 85620=
85586,2005,10,23,21,00,AAXX 23214 85586 41557 32806 10142 20081 40165 58015 70511 82500 333 56600 82620=
85586,2005,10,24,00,00,AAXX 24004 85586 32560 32404 10106 20083 40174 52009 83500 333 10154 56600 83630=
85586,2005,10,24,12,00,AAXX 24124 85586 31956 81204 10104 20093 40223 52/// 7052/ 8803/ 333 20046 30/// 50280 55117 56069 88360=
85586,2005,10,24,15,00,AAXX 24154 85586 41556 83006 10132 20077 40232 52009 70562 8153/ 333 56669 81625 88360=
85586,2005,10,24,18,00,AAXX 24184 85586 11560 73106 10143 20081 40234 52003 69901 70262 82530 333 56660 82625 85362=
85586,2005,10,24,21,00,AAXX 24214 85586 42560 72504 10142 20102 40220 58014 81531 333 56666 81625 83365=
85586,2005,10,25,00,00,AAXX 25004 85586 32560 70000 10102 20088 40217 57005 81531 333 10152 56666 81625 83365=
85586,2005,10,25,12,00,AAXX 25124 85586 12460 20000 10100 20092 40202 53/// 69904 82600 333 20040 30/// 50190 55030 56600 70000 82710=
85586,2005,10,25,15,00,AAXX 25154 85586 42460 33105 10142 20096 40211 52011 81531 333 56666 81615=
85586,2005,10,25,18,00,AAXX 25184 85586 32460 43008 10152 20113 40216 52005 82500 333 56660 82617=
85586,2005,10,25,21,00,AAXX 25214 85586 42560 52808 10145 20104 40214 58002 85500 333 56600 85622=
85586,2005,10,26,00,00,AAXX 26004 85586 32560 20000 10115 20100 40225 52010 82600 333 10158 56600 82622=
85586,2005,10,26,12,00,AAXX 26124 85586 31556 62304 10112 20078 40222 52/// 7051/ 83530 333 20064 30/// 50270 55099 56760 83620 83362=
85586,2005,10,26,15,00,AAXX 26154 85586 41558 63306 10132 20067 40224 51002 70511 82101 333 56706 82825 84075=
85586,2005,10,26,18,00,AAXX 26184 85586 32960 63109 10153 20082 40217 58006 86030 333 56060 86365=
85586,2005,10,26,21,00,AAXX 26214 85586 42560 62607 10144 20089 40210 57007 81131 333 56766 81825 82365=
85586,2005,10,27,00,00,AAXX 27004 85586 31958 30000 10112 20063 40212 53002 70511 83030 333 10155 56060 83365=
85586,2005,10,27,12,00,AAXX 27124 85586 31958 70000 10101 20084 40218 53/// 7051/ 87030 333 20053 30/// 50240 55091 56060 87365=
85586,2005,10,27,15,00,AAXX 27154 85586 42560 62609 10145 20086 40217 55001 81830 333 56760 81820 85365=
85586,2005,10,27,18,00,AAXX 27184 85586 32960 72609 10151 20079 40218 55001 80001 333 56006 87075=
85586,2005,10,27,21,00,AAXX 27214 85586 42960 82705 10127 20080 40215 56004 8803/ 333 56060 88365=
85586,2005,10,28,00,00,AAXX 28004 85586 32960 82703 10114 20081 40220 53005 8803/ 333 10153 56069 88365=
85586,2005,10,28,12,00,AAXX 28124 85586 32960 51104 10124 20081 40228 52/// 85030 333 20084 30/// 50240 55055 56060 85360=
85586,2005,10,28,15,00,AAXX 28154 85586 42660 82908 10148 20064 40238 52011 8253/ 333 56669 82633 87360=
85586,2005,10,28,18,00,AAXX 28184 85586 32560 72410 10150 20106 40245 51007 8383/ 333 56669 81820 83626 87360=
85586,2005,10,28,21,00,AAXX 28214 85586 42560 22610 10154 20092 40239 57006 82100 333 56600 82820=
85586,2005,10,29,00,00,AAXX 29004 85586 32560 12410 10116 20087 40255 52015 81100 333 10164 56600 81820=
85586,2005,10,29,12,00,AAXX 29124 85586 32960 01906 10112 20087 40228 52/// 333 20030 30/// 50260 55054=
85586,2005,10,29,15,00,AAXX 29154 85586 42960 02608 10160 20093 40220 56007=
85586,2005,10,29,18,00,AAXX 29184 85586 32960 02516 10160 20097 40212 57009=
85586,2005,10,29,21,00,AAXX 29214 85586 42960 12516 10154 20093 40199 57012 80001 333 56006 81075=
85586,2005,10,30,00,00,AAXX 30004 85586 32960 00000 10118 20074 40213 53013 333 10172=
85586,2005,10,30,12,00,AAXX 30124 85586 32960 00000 10132 20097 40226 52/// 333 20034 30/// 50290 55116=
85586,2005,10,30,15,00,AAXX 30154 85586 42960 02413 10165 20103 40209 58016=
85586,2005,10,30,18,00,AAXX 30184 85586 32960 02412 10171 20118 40201 57007=
85586,2005,10,30,21,00,AAXX 30214 85586 42960 02606 10191 20106 40185 57016=
85586,2005,10,31,00,00,AAXX 31004 85586 32960 00000 10124 20085 40191 53004 333 10192=
85586,2005,10,31,12,00,AAXX 31124 85586 32960 02803 10133 20100 40172 56/// 333 20048 30/// 50270 55119=
85586,2005,10,31,15,00,AAXX 31154 85586 42960 02610 10183 20113 40171 54000=
85586,2005,10,31,18,00,AAXX 31184 85586 32960 02518 10174 20104 40159 58012=
85586,2005,10,31,21,00,AAXX 31214 85586 42960 02705 10187 20109 40154 56005=
85586,2005,11,01,00,00,AAXX 01004 85586 32960 00405 10136 20096 40166 52009 333 10188=
85586,2005,11,01,12,00,AAXX 01124 85586 31220 80703 10113 20098 40189 51/// 7102/ 886// 333 20091 30/// 50260 55118 56799 88704=
85586,2005,11,01,15,00,AAXX 01154 85586 41440 73310 10143 20107 40194 51005 70522 87600 333 56700 87710=
85586,2005,11,01,18,00,AAXX 01184 85586 31240 82810 10135 20101 40186 58008 70522 886// 333 56799 88706=
85586,2005,11,01,21,00,AAXX 01214 85586 41256 83007 10133 20103 40184 53002 70522 886// 333 56799 88706=
85586,2005,11,02,12,00,AAXX 02124 85586 31240 80905 10111 20092 40205 51/// 7052/ 886// 333 20101 30/// 55210 55011 56799 88706=
85586,2005,11,02,15,00,AAXX 02154 85586 42460 60105 10151 20098 40202 51003 86600 333 56700 86710=
85586,2005,11,02,18,00,AAXX 02184 85586 31356 42512 10150 20103 40199 55003 70522 84600 333 56700 84708=
85586,2005,11,02,21,00,AAXX 02214 85586 41340 72809 10135 20110 40200 55001 70522 87600 333 56700 87709=
85586,2005,11,03,00,00,AAXX 03004 85586 32960 00000 10124 20094 40213 52013 333 10162=
85586,2005,11,03,12,00,AAXX 03124 85586 31430 51904 10112 20101 40220 53/// 7052/ 85500 333 20073 30/// 50200 55066 56400 85610=
85586,2005,11,03,15,00,AAXX 03154 85586 42560 12710 10167 20123 40215 58003 81500 333 56500 81625=
85586,2005,11,03,18,00,AAXX 03184 85586 32560 62416 10186 20112 40222 56003 81501 333 56506 81630 86075=
85586,2005,11,03,21,00,AAXX 03214 85586 42960 72418 10164 20098 40215 54002 80002 333 56006 87073=
85586,2005,11,04,00,00,AAXX 04004 85586 32960 62205 10130 20061 40229 52014 80001 333 10192 56006 86073=
85586,2005,11,04,12,00,AAXX 04124 85586 32960 31708 10140 20074 40190 57/// 80001 333 20084 30/// 50220 55094 56006 81075=
85586,2005,11,04,15,00,AAXX 04154 85586 42960 11810 10216 20077 40175 57013 80001 333 56006 81075=
85586,2005,11,04,18,00,AAXX 04184 85586 32960 32612 10195 20077 40160 57015 80001 333 56006 83075=
85586,2005,11,04,21,00,AAXX 04214 85586 42960 22410 10190 20094 40141 57021 80002 333 56006 82075=
85586,2005,11,05,00,00,AAXX 05004 85586 32960 32004 10130 20058 40141 55000 80002 333 10246 56006 83075=
85586,2005,11,05,12,00,AAXX 05124 85586 32960 03004 10120 20083 40117 53/// 333 20045 30/// 50260 55122=
85586,2005,11,05,15,00,AAXX 05154 85586 42960 12710 10150 20088 40136 52019 80001 333 56006 81075=
85586,2005,11,05,18,00,AAXX 05184 85586 32960 22910 10150 20095 40156 52020 80001 333 56006 82075=
85586,2005,11,05,21,00,AAXX 05214 85586 42960 03008 10144 20092 40160 52004=
85586,2005,11,06,00,00,AAXX 06004 85586 32960 10000 10107 20089 40158 54002 80001 333 10152 56005 81075=
85586,2005,11,06,12,00,AAXX 06124 85586 31358 80000 10108 20093 40184 52/// 7102/ 886// 333 20062 30/// 50280 55122 56007 88709=
85586,2005,11,06,15,00,AAXX 06154 85586 42460 32608 10139 20095 40183 54001 83600 333 56700 83712=
85586,2005,11,06,18,00,AAXX 06184 85586 32960 32808 10141 20103 40174 57009 80001 333 56006 83073=
85586,2005,11,06,21,00,AAXX 06214 85586 42960 02706 10144 20103 40171 57003=
85586,2005,11,07,00,00,AAXX 07004 85586 32460 80000 10119 20101 40185 52014 886// 333 10150 56799 88710=
85586,2005,11,07,12,00,AAXX 07124 85586 31356 81203 10116 20088 40167 52/// 7052/ 886// 333 20103 30/// 50210 55087 56799 88708=
85586,2005,11,07,15,00,AAXX 07154 85586 41358 62709 10144 20087 40174 52007 70522 86600 333 56700 86709=
85586,2005,11,07,18,00,AAXX 07184 85586 32460 73107 10154 20098 40181 52007 87600 333 56700 87710=
85586,2005,11,07,21,00,AAXX 07214 85586 41356 82903 10131 20081 40171 58010 70522 886// 333 56799 88709=
85586,2005,11,08,12,00,AAXX 08124 85586 31208 80405 10110 20095 40149 53/// 7424/ 886// 333 20101 30/// 50220 55054 56799 88704=
85586,2005,11,08,15,00,AAXX 08154 85586 41356 80203 10131 20100 40154 51005 70544 886// 333 56799 88707=
85586,2005,11,08,18,00,AAXX 08184 85586 31340 83105 10127 20099 40175 52016 70542 886// 333 56799 88707=
85586,2005,11,08,21,00,AAXX 08214 85586 41240 83203 10133 20108 40016 58009 70522 886// 333 56799 88708=
85586,2005,11,09,00,00,AAXX 09004 85586 31340 82704 10126 20100 40171 58005 70522 886// 333 10135 56799 88708=
85586,2005,11,09,12,00,AAXX 09124 85586 31440 82004 10116 20099 40165 54/// 7052/ 885// 333 20110 30/// 50190 55000 56099 88610=
85586,2005,11,09,15,00,AAXX 09154 85586 41440 82410 10144 20120 40166 54001 70522 885// 333 56699 88613=
85586,2005,11,09,18,00,AAXX 09184 85586 31958 62610 10160 20111 40164 54001 70522 80001 333 56006 86075=
85586,2005,11,09,21,00,AAXX 09214 85586 41958 10406 10166 20114 40156 57009 70511 80001 333 56006 81075=
85586,2005,11,10,00,00,AAXX 10004 85586 31958 00406 10124 20081 40163 53006 70500 333 10170=
85586,2005,11,10,12,00,AAXX 10124 85586 31440 40404 10112 20095 40165 57/// 7054/ 84500 333 20054 30/// 50230 55079 56000 84610=
85586,2005,11,10,15,00,AAXX 10154 85586 41958 02606 10156 20108 40159 56005 70541=
85586,2005,11,10,18,00,AAXX 10184 85586 32960 02608 10180 20119 40148 57011=
85586,2005,11,10,21,00,AAXX 10214 85586 42960 02606 10192 20122 40133 57015=
85586,2005,11,11,00,00,AAXX 11004 85586 32960 33604 10146 20086 40142 53008 80001 333 10204 56006 83075=
85586,2005,11,11,12,00,AAXX 11124 85586 31102 80000 10115 20111 40139 53/// 7444/ 886// 333 20072 30/// 50290 55107 56099 88702=
85586,2005,11,11,15,00,AAXX 11154 85586 41350 83106 10141 20123 40148 52009 70542 886// 333 56799 88707=
85586,2005,11,11,18,00,AAXX 11184 85586 31358 83110 10149 20128 40146 54002 70542 886// 333 56799 88709=
85586,2005,11,11,21,00,AAXX 11214 85586 42460 83107 10139 20123 40148 57006 886// 333 56799 88710=
85586,2005,11,12,00,00,AAXX 12004 85586 31357 83307 10126 20108 40156 52016 70522 886// 333 10153 56799 88707=
85586,2005,11,12,12,00,AAXX 12124 85586 31357 83306 10128 20117 40159 52/// 7102/ 886// 333 20124 30/// 50180 55007 56007 88708=
85586,2005,11,12,15,00,AAXX 12154 85586 42460 83407 10134 20112 40176 52017 886// 333 56799 88710=
85586,2005,11,12,18,00,AAXX 12184 85586 32460 83208 10144 20109 40182 52006 885// 333 56799 88617=
85586,2005,11,12,21,00,AAXX 12214 85586 42560 73106 10146 20111 40176 58006 87500 333 56700 87620=
85586,2005,11,13,00,00,AAXX 13004 85586 32560 40000 10128 20113 40174 54002 83501 333 10148 56706 83620=
85586,2005,11,13,12,00,AAXX 13124 85586 32460 82402 10133 20124 40184 52/// 885// 333 20099 30/// 50180 55009 56699 88613=
85586,2005,11,13,15,00,AAXX 13154 85586 42460 82608 10140 20113 40190 52006 885// 333 56699 88617=
85586,2005,11,13,18,00,AAXX 13184 85586 32560 82410 10152 20128 40180 58010 885// 333 56699 88623=
85586,2005,11,13,21,00,AAXX 13214 85586 42560 82410 10145 20121 40179 54001 885// 333 56699 88623=
85586,2005,11,14,00,00,AAXX 14004 85586 32560 82405 10131 20112 40183 52004 885// 333 10156 56699 88623=
85586,2005,11,14,12,00,AAXX 14124 85586 31458 82504 10136 20096 40180 52/// 7052/ 8253/ 333 20111 30/// 50220 55000 56769 82615 87365=
85586,2005,11,14,15,00,AAXX 14154 85586 41558 72709 10171 20112 40189 52009 70522 876// 333 56700 87620=
85586,2005,11,14,21,00,AAXX 14214 85586 42960 02511 10173 20120 40177 58011=
85586,2005,11,15,00,00,AAXX 15004 85586 32960 00000 10144 20104 40177 55001 333 10193=
85586,2005,11,15,12,00,AAXX 15124 85586 32960 00000 10153 20127 40150 56/// 333 20068 30/// 50240 55081=
85586,2005,11,15,15,00,AAXX 15154 85586 42960 02512 10178 20107 40152 58003=
85586,2005,11,15,18,00,AAXX 15184 85586 32960 02410 10182 20124 40163 53011=
85586,2005,11,15,21,00,AAXX 15214 85586 42960 02607 10173 20108 40156 58007=
85586,2005,11,16,12,00,AAXX 16124 85586 32960 52304 10141 20101 40169 52/// 83030 333 20074 30/// 50260 55130 56060 85365=
85586,2005,11,16,15,00,AAXX 16154 85586 42960 63008 10174 20108 40167 50001 86030 333 56060 86365=
85586,2005,11,16,18,00,AAXX 16184 85586 32960 62508 10173 20139 40166 50001 86030 333 56060 86365=
85586,2005,11,16,21,00,AAXX 16214 85586 42560 83007 10151 20124 40160 58007 886// 333 56799 88625=
85586,2005,11,17,12,00,AAXX 17124 85586 32460 73203 10151 20127 40169 52/// 82130 333 20126 30/// 50260 55069 56760 82815 86365=
85586,2005,11,17,15,00,AAXX 17154 85586 42960 32811 10211 40127 51005 83030 333 56060 83065=
85586,2005,11,17,18,00,AAXX 17184 85586 32960 12518 10205 20133 40165 58006 81100 333 56700 81820=
85586,2005,11,17,21,00,AAXX 17214 85586 42960 02514 10193 20131 40164 56003=
85586,2005,11,18,12,00,AAXX 18124 85586 31920 02706 10157 20121 40162 54/// 7400/ 333 20085 30/// 50310 55111=
85586,2005,11,18,15,00,AAXX 18154 85586 41960 02414 10186 20129 40161 55001 70240=
85586,2005,11,18,18,00,AAXX 18184 85586 31960 22512 10198 20124 40158 58002 70240=
85586,2005,11,18,21,00,AAXX 18214 85586 42960 52514 10177 20114 40152 57007=
85586,2005,11,19,12,00,AAXX 19124 85586 32960 10000 10158 20120 40162 57/// 80001 333 20086 30/// 50330 55118 56006 81075=
85586,2005,11,19,15,00,AAXX 19154 85586 42960 02510 10188 20114 40160 54002=
85586,2005,11,19,18,00,AAXX 19184 85586 32960 02710 10180 20120 40152 57008=
85586,2005,11,19,21,00,AAXX 19214 85586 42960 02707 10180 20130 40138 57014=
85586,2005,11,20,12,00,AAXX 20124 85586 31240 22405 10142 20125 40153 53/// 7054/ 82600 333 20119 30/// 50340 55125 56000 82703=
85586,2005,11,20,15,00,AAXX 20154 85586 41204 53008 10157 20142 40164 52012 70542 82601 333 56006 82703 83073=
85586,2005,11,20,18,00,AAXX 20184 85586 31460 73007 10156 20134 40172 52008 70242 87500 333 56600 87617=
85586,2005,11,20,21,00,AAXX 20214 85586 42460 73006 10160 20138 40175 52003 87500 333 56600 87618=
85586,2005,11,21,12,00,AAXX 21124 85586 32560 70000 10146 20120 40186 52/// 87500 333 20136 30/// 50230 55050 56600 87620=
85586,2005,11,21,15,00,AAXX 21154 85586 42560 12710 10164 20141 40194 52008 81500 333 56600 81620=
85586,2005,11,21,18,00,AAXX 21184 85586 32560 12710 10179 20131 40189 58004 81500 333 56600 81620=
85586,2005,11,22,12,00,AAXX 22124 85586 31258 20303 10155 20131 40145 51/// 7054/ 82600 333 20113 30/// 50260 55101 56700 82704=
85586,2005,11,22,15,00,AAXX 22154 85586 41206 82909 10156 20125 40145 50000 74641 886// 333 56799 88704=
85586,2005,11,22,18,00,AAXX 22184 85586 31358 83216 10172 20128 40148 51003 70544 886// 333 56799 88709=
85586,2005,11,22,21,00,AAXX 22214 85586 41458 83307 10168 20139 40150 53002 70542 886// 333 56799 88710=
85586,2005,11,23,12,00,AAXX 23124 85586 11530 72406 10136 20118 40190 52/// 60074 7606/ 83520 333 20134 32/// 50170 55033 56570 70073 83525 87450=
85586,2005,11,23,15,00,AAXX 23154 85586 41560 63110 10160 20133 40221 52031 70166 84230 333 56770 84820 85358=
85586,2005,11,23,18,00,AAXX 23184 85586 12560 73004 10178 20129 40239 52019 69931 82830 333 56760 82820 87360=
85586,2005,11,23,21,00,AAXX 23214 85586 42560 52508 10172 20098 40235 58004 85800 333 56600 81820 85640=
85586,2005,11,24,12,00,AAXX 24124 85586 12960 51804 10134 20093 40215 52/// 69934 80001 333 20074 31/// 50160 55043 56006 70003 85075=
85586,2005,11,24,15,00,AAXX 24154 85586 42960 62612 10186 20092 40208 58005 80001 333 56006 86075=
85586,2005,11,24,18,00,AAXX 24184 85586 32960 22412 10194 20106 40189 57019 80001 333 56006 82075=
85586,2005,11,24,21,00,AAXX 24214 85586 42960 12612 10190 20101 40167 57022 80001 333 56006 81075=
85586,2005,11,25,12,00,AAXX 25124 85586 32960 01611 10184 20110 40179 51/// 333 20083 30/// 50280 55127=
85586,2005,11,25,15,00,AAXX 25154 85586 42960 02410 10216 20121 40169 58008=
85586,2005,11,25,18,00,AAXX 25184 85586 32960 02614 10217 20126 40153 57016=
85586,2005,11,25,21,00,AAXX 25214 85586 42960 02511 10221 20131 40133 57020=
85586,2005,11,26,12,00,AAXX 26124 85586 31920 02906 10162 20130 40155 52/// 7400/ 333 20098 30/// 50320 55132=
85586,2005,11,26,15,00,AAXX 26154 85586 41220 83307 10156 20130 40166 52011 71040 886// 333 56799 88706=
85586,2005,11,26,18,00,AAXX 26184 85586 31356 83306 10176 20134 40166 50000 70542 886// 333 56799 88708=
85586,2005,11,26,21,00,AAXX 26214 85586 41356 82706 10165 20133 40164 70522 886// 333 56799 88709=
85586,2005,11,27,12,00,AAXX 27124 85586 31440 80000 10146 20136 40184 52/// 7052/ 886// 333 20144 30/// 50200 55044 56099 88710=
85586,2005,11,27,15,00,AAXX 27154 85586 41556 72706 10176 20129 40179 58004 70522 87600 333 56600 87620=
85586,2005,11,27,18,00,AAXX 27184 85586 31558 73010 10188 20137 40174 56005 70522 87600 333 56600 87625=
85586,2005,11,27,21,00,AAXX 27214 85586 42660 72508 10186 20133 40164 57010 82502 333 56606 82625 85075=
85586,2005,11,28,12,00,AAXX 28124 85586 31656 70000 10152 20138 40159 52/// 7052/ 83530 333 20122 30/// 50220 55027 56060 83633 86360=
85586,2005,11,28,15,00,AAXX 28154 85586 41556 62608 10188 20137 40156 54002 70522 82502 333 56606 82630 86072=
85586,2005,11,28,18,00,AAXX 28184 85586 42560 22416 10194 20135 40150 56006 81101 333 56606 81820=
85586,2005,11,28,21,00,AAXX 28214 85586 42960 12412 10186 20127 40141 57009 80001 333 56006 81075=
85586,2005,11,29,12,00,AAXX 29124 85586 32960 00000 10154 20108 40183 52/// 333 20088 30/// 50280 55102=
85586,2005,11,29,15,00,AAXX 29154 85586 42960 02706 10184 20105 40177 58005=
85586,2005,11,29,18,00,AAXX 29184 85586 32960 52512 10194 20098 40174 58003 80001 333 56006 85075=
85586,2005,11,29,21,00,AAXX 29214 85586 42960 02712 10183 20116 40164 57010=
85586,2005,11,30,12,00,AAXX 30124 85586 32960 02805 10154 20096 40182 51/// 333 20079 30/// 50290 55124=
85586,2005,11,30,15,00,AAXX 30154 85586 42960 02411 10184 20099 40185 51004=
85586,2005,11,30,18,00,AAXX 30184 85586 32960 02516 10184 20099 40186 50001=
85586,2005,11,30,21,00,AAXX 30214 85586 42960 02516 10189 20090 40160 57026=
85586,2005,12,01,12,00,AAXX 01124 85586 32960 02702 10138 20094 40146 54/// 333 20056 30/// 50320 55127=
85586,2005,12,01,18,00,AAXX 01184 85586 32960 02616 10180 20107 40145 56004=
85586,2005,12,01,21,00,AAXX 01214 85586 42960 02608 10170 20107 40138 57006=
85586,2005,12,02,12,00,AAXX 02124 85586 31558 82604 10118 20097 40157 52/// 7052/ 885// 333 20102 30/// 50280 55130 56099 88626=
85586,2005,12,02,15,00,AAXX 02154 85586 42560 63008 10144 20097 40166 52009 86500 333 56600 86630=
85586,2005,12,02,18,00,AAXX 02184 85586 32960 02906 10166 20094 40161 58004=
85586,2005,12,02,21,00,AAXX 02214 85586 42960 03004 10176 20103 40155 57006=
85586,2005,12,03,12,00,AAXX 03124 85586 32960 01107 10163 20068 40192 51/// 333 20097 30/// 50260 55084=
85586,2005,12,03,15,00,AAXX 03154 85586 42960 02614 10187 20083 40188 58003=
85586,2005,12,03,18,00,AAXX 03184 85586 32960 02317 10194 20091 40179 57009=
85586,2005,12,03,21,00,AAXX 03214 85586 42960 02412 10175 20096 40170 56009=
85586,2005,12,04,12,00,AAXX 04124 85586 32560 11904 10156 20113 40195 52/// 81100 333 20071 30/// 50280 55134 56700 81820=
85586,2005,12,04,15,00,AAXX 04154 85586 42560 53007 10196 20124 40200 51006 81130 333 56760 81820 84365=
85586,2005,12,04,18,00,AAXX 04184 85586 32960 22612 10195 20127 40204 51004 80001 333 56006 82075=
85586,2005,12,04,21,00,AAXX 04214 85586 42960 22714 10193 20108 40199 58005 81031 333 56066 81365 81075=
85586,2005,12,05,12,00,AAXX 05124 85586 32960 30000 10140 20089 40206 52/// 82031 333 20078 30/// 50350 55129 56066 82360=
85586,2005,12,05,15,00,AAXX 05154 85586 42560 22714 10170 20088 40203 54002 82500 333 56600 82630=
85586,2005,12,05,21,00,AAXX 05214 85586 42960 02410 10176 20074 40187 57011=
85586,2005,12,06,12,00,AAXX 06124 85586 32960 71504 10152 20073 40157 57/// 80002 333 20054 30/// 50260 55123 56006 87075=
85586,2005,12,06,15,00,AAXX 06154 85586 42960 62512 10172 20089 40148 57008 80002 333 56006 86072=
85586,2005,12,06,18,00,AAXX 06184 85586 32960 52616 10160 20093 40152 53004 80002 333 56006 85072=
85586,2005,12,06,21,00,AAXX 06214 85586 42960 62510 10156 20094 40145 57006 80002 333 56006 86072=
85586,2005,12,07,12,00,AAXX 07124 85586 32560 33403 10149 20100 40167 51/// 83500 333 20099 30/// 50270 55101 56700 83620=
85586,2005,12,07,15,00,AAXX 07154 85586 42960 62511 10173 20093 40165 50001 82031 333 56066 82365 86075=
85586,2005,12,07,18,00,AAXX 07184 85586 32960 42612 10179 20097 40162 56003 80001 333 56006 84075=
85586,2005,12,07,21,00,AAXX 07214 85586 42960 62609 10172 20113 40161 50001 80001 333 56006 86075=
85586,2005,12,08,12,00,AAXX 08124 85586 32560 61204 10173 20118 40170 52/// 82530 333 20118 30/// 50280 55105 56760 82620 85365=
85586,2005,12,08,15,00,AAXX 08154 85586 42960 62609 10203 20145 40175 51006 86030 333 56060 86362=
85586,2005,12,08,18,00,AAXX 08184 85586 32960 12512 10213 20133 40168 58006 81100 333 56700 81820=
85586,2005,12,08,21,00,AAXX 08214 85586 42960 02516 10205 20113 40149 57019=
85586,2005,12,09,12,00,AAXX 09124 85586 32960 02804 10181 20123 40160 51/// 333 20099 30/// 50310 55111=
85586,2005,12,09,15,00,AAXX 09154 85586 42960 02710 10202 20132 40155 57004=
85586,2005,12,09,18,00,AAXX 09184 85586 32960 02510 10204 20130 40141 57014=
85586,2005,12,09,21,00,AAXX 09214 85586 42960 02608 10194 20104 40131 57011=
85586,2005,12,10,12,00,AAXX 10124 85586 32960 02504 10160 20132 40121 53/// 333 20088 30/// 50270 55123=
85586,2005,12,10,15,00,AAXX 10154 85586 42960 02707 10186 20131 40123 54002=
85586,2005,12,10,18,00,AAXX 10184 85586 32960 03006 10176 20123 40122 54001=
85586,2005,12,10,21,00,AAXX 10214 85586 42960 02808 10176 20124 40119 56003=
85586,2005,12,11,12,00,AAXX 11124 85586 31440 83604 10124 20112 40123 52/// 7052/ 886// 333 20120 30/// 50300 55120 56899 88710=
85586,2005,12,11,15,00,AAXX 11154 85586 42460 83305 10152 20135 40141 52018 885// 333 56699 88613=
85586,2005,12,11,18,00,AAXX 11184 85586 32460 23210 10181 20120 40144 52004 82500 333 56600 82615=
85586,2005,12,11,21,00,AAXX 11214 85586 42460 73006 10163 20125 40145 54001 87500 333 56600 87615=
85586,2005,12,12,12,00,AAXX 12124 85586 32460 83205 10151 20136 40166 52/// 885// 333 20147 30/// 50280 55026 56699 88615=
85586,2005,12,12,15,00,AAXX 12154 85586 42560 82707 10168 20145 40166 54001 885// 333 56699 88620=
85586,2005,12,12,18,00,AAXX 12184 85586 32560 52707 10186 20129 40152 58014 85500 333 56600 85620=
85586,2005,12,12,21,00,AAXX 12214 85586 42960 02410 10188 20139 40142 57010=
85586,2005,12,13,12,00,AAXX 13124 85586 31457 30000 10154 20134 40150 52/// 83500 333 20100 30/// 50240 55056 56000 83610=
85586,2005,12,13,15,00,AAXX 13154 85586 41456 32608 10168 20133 40151 54002 70511 83500 333 56600 83610=
85586,2005,12,13,18,00,AAXX 13184 85586 31456 63010 10176 20109 40154 54003 70522 86500 333 56600 86610=
85586,2005,12,13,21,00,AAXX 13214 85586 41456 83010 10166 20130 40148 57006 70522 885// 333 56699 88615=
85586,2005,12,14,12,00,AAXX 14124 85586 31320 80204 10138 20129 40136 52/// 7102/ 886// 333 20120 30/// 50190 55074 56099 88707=
85586,2005,12,14,15,00,AAXX 14154 85586 41440 83106 10157 20142 40145 52010 70522 885// 333 56699 88613=
85586,2005,12,14,18,00,AAXX 14184 85586 32560 43110 10188 20146 40148 51003 83501 333 56606 83625=
85586,2005,12,14,21,00,AAXX 14214 85586 42560 83008 10164 20135 40146 54002 885// 333 56699 88620=
85586,2005,12,15,12,00,AAXX 15124 85586 32460 82704 10151 20144 40135 53/// 885// 333 20147 30/// 50210 55023 56699 88613=
85586,2005,12,15,15,00,AAXX 15154 85586 42330 82705 10149 20145 40146 52011 75052 886// 333 56699 88707=
85586,2005,12,15,18,00,AAXX 15184 85586 11460 80105 10168 20143 40155 52010 69911 70252 885// 333 56699 88615=
85586,2005,12,15,21,00,AAXX 15214 85586 42460 72608 10180 20148 40149 58006 87500 333 56600 87618=
85586,2005,12,16,12,00,AAXX 16124 85586 12560 80000 10162 20142 40157 52/// 69914 885// 333 20155 30/// 50190 55003 56699 70001 88627=
85586,2005,12,16,15,00,AAXX 16154 85586 42560 83105 10168 20138 40170 52013 885// 333 56699 88627=
85586,2005,12,16,21,00,AAXX 16214 85586 42460 72510 10176 20138 40168 57009 87500 333 56600 87618=
85586,2005,12,17,12,00,AAXX 17124 85586 31340 80000 10146 20134 40156 52/// 7052/ 886// 333 10134 30/// 50160 55011 56099 88708=
85586,2005,12,17,15,00,AAXX 17154 85586 41320 82908 10168 20146 40158 54001 71022 886// 333 56699 88707=
85586,2005,12,17,18,00,AAXX 17184 85586 32560 32606 10184 20154 40166 52008 83500 333 56600 83620=
85586,2005,12,17,21,00,AAXX 17214 85586 42560 12910 10192 20145 40162 56004 81500 333 56600 81620=
85586,2005,12,18,12,00,AAXX 18124 85586 31313 80000 10142 20133 40160 54/// 7102/ 886// 333 20093 30/// 50180 55084 56099 88707=
85586,2005,12,18,15,00,AAXX 18154 85586 42460 33008 10168 20143 40164 53005 83500 333 56600 83610=
85586,2005,12,18,21,00,AAXX 18214 85586 42960 02814 10184 20119 40158 57004=
85586,2005,12,19,18,00,AAXX 19184 85586 32360 12709 10192 20140 40174 58006 81600 333 56600 81708=
85586,2005,12,19,21,00,AAXX 19214 85586 42960 02908 10202 20133 40159 57014=
85586,2005,12,20,12,00,AAXX 20124 85586 32960 10000 10171 20153 40138 53/// 80001 333 20095 30/// 50320 55108 56006 81075=
85586,2005,12,20,15,00,AAXX 20154 85586 41257 83112 10160 20144 40154 52016 70511 886// 333 56799 88706=
85586,2005,12,20,18,00,AAXX 20184 85586 32360 53110 10178 20149 40160 52006 85600 333 56700 85708=
85586,2005,12,20,21,00,AAXX 20214 85586 42360 53105 10167 20121 40155 58005 85600 333 56700 85708=
85586,2005,12,21,12,00,AAXX 21124 85586 31556 80206 10148 20124 40191 52/// 7052/ 885// 333 20144 30/// 50220 55069 56099 88626=
85586,2005,12,21,15,00,AAXX 21154 85586 42560 42912 10174 20130 40202 52012 84500 333 56600 84626=
85586,2005,12,21,18,00,AAXX 21184 85586 32560 73306 10186 20127 40198 56004 81502 333 56606 81626 87070=
85586,2005,12,21,21,00,AAXX 21214 85586 42560 62706 10180 20121 40188 57015 81502 333 56606 81630 86070=
85586,2005,12,22,12,00,AAXX 22124 85586 32560 83604 10152 20126 40194 52/// 885// 333 20102 30/// 50210 55042 56099 88625=
85586,2005,12,22,15,00,AAXX 22154 85586 42560 12910 10178 20120 40195 54002 81500 333 56600 81626=
85586,2005,12,22,18,00,AAXX 22184 85586 32560 12608 10186 20118 40191 56004 81500 333 56600 81630=
85586,2005,12,22,21,00,AAXX 22214 85586 42960 02808 10188 20120 40175 57016=
85586,2005,12,23,12,00,AAXX 23124 85586 32560 80000 10152 20133 40166 52///885// 333 20136 30/// 50240 56099 88626=
85586,2005,12,23,18,00,AAXX 23184 85586 32560 73010 10183 20129 40173 52005 87500 333 56600 87627=
85586,2005,12,23,21,00,AAXX 23214 85586 42560 82907 10173 20147 40168 57005 885// 333 56699 88625=
85586,2005,12,24,12,00,AAXX 24124 85586 31457 72804 10150 20133 40160 53/// 7052/ 87600 333 20138 30/// 50280 55006 56700 87710=
85586,2005,12,24,15,00,AAXX 24154 85586 41457 62705 10174 20148 40164 52005 70522 86600 333 56700 86710=
85586,2005,12,24,18,00,AAXX 24184 85586 31458 13208 10168 20140 40173 52009 70522 886// 333 56799 88710=
85586,2005,12,24,21,00,AAXX 24214 85586 42460 72906 10174 20148 40163 58010 333 56700 87710=
85586,2005,12,25,12,00,AAXX 25124 85586 31358 83304 10150 20133 40170 52/// 7052/ 886// 333 20145 30/// 50250 55024 56799 88708=
85586,2005,12,25,15,00,AAXX 25154 85586 42460 83308 10179 20148 40176 52007 885// 333 56799 88617=
85586,2005,12,25,18,00,AAXX 25184 85586 32560 83108 10190 20146 40180 54004 885// 333 56799 88626=
85586,2005,12,25,21,00,AAXX 25214 85586 42560 42910 10194 20140 40162 57018 83501 333 56706 83630=
85586,2005,12,26,12,00,AAXX 26124 85586 31540 83304 10156 20134 40177 52/// 7052/ 885// 333 20154 30/// 50200 55033 56099 88620=
85586,2005,12,26,15,00,AAXX 26154 85586 41420 83003 10154 20139 40185 52008 75052 886// 333 56799 88710=
85586,2005,12,26,18,00,AAXX 26184 85586 11440 82908 10158 20138 40185 54000 69931 70552 885// 333 56699 88615=
85586,2005,12,26,21,00,AAXX 26214 85586 41558 82604 10174 20128 40174 58011 70522 885// 333 56699 88626=
85586,2005,12,27,12,00,AAXX 27124 85586 32560 81404 10162 20132 40201 52/// 885// 333 20144 30/// 50200 55000 56699 88627=
85586,2005,12,27,15,00,AAXX 27154 85586 42560 72708 10186 20131 40204 52004 87500 333 56600 87627=
85586,2005,12,27,18,00,AAXX 27184 85586 32560 62805 10189 20149 40209 52005 86500 333 56600 86627=
85586,2005,12,27,21,00,AAXX 27214 85586 42560 12708 10198 20138 40194 58015 81500 333 56600 81627=
85586,2005,12,28,12,00,AAXX 28124 85586 32960 00000 10169 20121 40169 53/// 333 20076 30/// 50240 55052=
85586,2005,12,28,15,00,AAXX 28154 85586 42960 02610 10200 20115 40172 52004=
85586,2005,12,28,18,00,AAXX 28184 85586 32960 03010 10202 20139 40183 52011=
85586,2005,12,28,21,00,AAXX 28214 85586 42360 22706 10192 20145 40178 58006 82600 333 56799 82709=
85586,2005,12,29,15,00,AAXX 29154 85586 42560 53106 10177 20132 40164 54002 85500 333 56700 85625=
85586,2005,12,29,18,00,AAXX 29184 85586 32560 72706 10178 20125 40167 53004 87500 333 56600 87630=
85586,2005,12,29,21,00,AAXX 29214 85586 42560 82712 10164 20123 40161 57006=
85586,2005,12,30,12,00,AAXX 30124 85586 32560 70904 10136 20114 40156 52/// 87500 333 20098 30/// 50180 55015 56000 87625=
85586,2005,12,30,15,00,AAXX 30154 85586 42560 22808 10170 20126 40158 54003 82500 333 56600 82625=
85586,2005,12,30,18,00,AAXX 30184 85586 32560 72712 10176 20125 40160 54002 87500 333 56600 87625=
85586,2005,12,30,21,00,AAXX 30214 85586 42560 52608 10172 20124 40153 57007 85500 333 56600 85625=
85586,2005,12,31,12,00,AAXX 31124 85586 32960 00000 10164 20144 40152 52/// 333 20114 30/// 50330 55041=
85586,2005,12,31,15,00,AAXX 31154 85586 42360 13307 10180 20148 40163 52011 81600 333 56600 81708=
85586,2005,12,31,18,00,AAXX 31184 85586 32360 23010 10192 20143 40168 52005 82600 333 56600 82708=
85586,2005,12,31,21,00,AAXX 31214 85586 42960 02507 10190 20141 40162 58006=
