85586,2004,01,01,12,00,AAXX 01124 85586 32460 8000 10130 20123 40170 52/// 885// 333 20128 30/// 50270 50190 56099 88610=
85586,2004,01,01,15,00,AAXX 01154 85586 42460 80000 10148 20126 40175 52005 885// 333 56099 88612=
85586,2004,01,01,18,00,AAXX 01184 85586 32560 62808 10170 20126 40169 58005 86500 333 56600 86620=
85586,2004,01,01,21,00,AAXX 01214 85586 42560 82807 10160 20131 40161 57008 885// 333 56699 88620=
85586,2004,01,02,12,00,AAXX 02124 85586 32250 80000 10135 20109 40130 52/// 7052/ 886// 333 20128 30/// 50230 55020 55020 56099 88705=
85586,2004,01,02,15,00,AAXX 02154 85586 41358 83003 10154 20117 40132 52002 70522 886// 333 56799 88707=
85586,2004,01,02,18,00,AAXX 02184 85586 32360 82712 10166 20127 40130 50001 886// 333 56799 88708=
85586,2004,01,02,21,00,AAXX 02214 85586 41358 82905 10163 20125 40128 58002 70522 886// 333 56799 88708=
85586,2004,01,03,12,00,AAXX 03124 85586 31250 83602 10131 20127 40122 53/// 7102/ 886// 333 20129 30/// 50300 55000 56799 88705=
85586,2004,01,03,15,00,AAXX 03154 85586 41250 83204 10145 20136 40132 52008 71022 886// 333 56799 88706=
85586,2004,01,03,18,00,AAXX 03184 85586 32460 72708 10161 20134 40132 52003 87600 333 56700 87710=
85586,2004,01,03,21,00,AAXX 03214 85586 41250 82703 10150 20140 40136 52003 71022 886// 333 56799 88706=
85586,2004,01,04,12,00,AAXX 04124 85586 31240 80503 10127 20122 40139 53/// 7102/ 886// 333 20124 30/// 50240 55008 56799 88705=
85586,2004,01,04,18,00,AAXX 04184 85586 32460 72707 10156 20134 40148 52006 87600 333 56700 87712=
85586,2004,01,05,12,00,AAXX 05124 85586 31356 71904 10134 20110 40149 52/// 7052/ 87500 333 20084 30/// 50210 55001 56700 87607=
85586,2004,01,05,15,00,AAXX 05154 85586 42960 02712 10171 20106 40144 58004=
85586,2004,01,05,18,00,AAXX 05184 85586 32960 02816 10185 20121 40143 50001=
85586,2004,01,05,21,00,AAXX 05214 85586 42960 02314 10184 20123 40121 57022=
85586,2004,01,06,12,00,AAXX 06124 85586 31204 80703 10134 20125 40141 51/// 7444/ 886// 333 20106 30/// 50250 55117 56099 88704=
85586,2004,01,06,15,00,AAXX 06154 85586 41308 72714 10164 20125 40146 52006 74042 87600 333 56700 87709=
85586,2004,01,06,18,00,AAXX 06184 85586 31460 42921 10183 20120 40156 51010 70144 84500 333 56700 84610=
85586,2004,01,06,21,00,AAXX 06214 85586 42460 82712 10171 20123 40154 56002 885// 333 56799 88612=
85586,2004,01,07,12,00,AAXX 07124 85586 31230 83502 10128 20124 40163 52/// 7102/ 886// 333 20125 30/// 50240 55036 56799 88704=
85586,2004,01,07,15,00,AAXX 07154 85586 42460 82909 10174 20141 40175 52013 885// 333 56799 88614=
85586,2004,01,07,18,00,AAXX 07184 85586 32460 32909 10187 20144 40175 54000 83500 333 56700 83615=
85586,2004,01,07,21,00,AAXX 07214 85586 42460 72708 10174 20141 40165 58010 87500 333 56700 87613=
85586,2004,01,08,12,00,AAXX 08124 85586 31250 83003 10130 20115 40170 53/// 7052/ 886// 333 20130 30/// 50200 55045 56799 88705=
85586,2004,01,08,15,00,AAXX 08154 85586 42460 83305 10153 20131 40184 52014 885// 333 56799 88616=
85586,2004,01,08,18,00,AAXX 08184 85586 32460 72407 10176 20136 40184 54001 87500 333 56700 87618=
85586,2004,01,08,21,00,AAXX 08214 85586 42460 32807 10182 20139 40177 57007 83500 333 56700 83618=
85586,2004,01,09,12,00,AAXX 09124 85586 31256 80905 10142 20110 40179 52/// 7052/ 886// 333 20122 30/// 50240 55021 56799 88606=
85586,2004,01,09,15,00,AAXX 09154 85586 42960 12608 10184 20118 40167 58011 80001 333 56006 81075=
85586,2004,01,09,18,00,AAXX 09184 85586 32960 32718 10186 20120 40164 58003 80001 333 56006 83075=
85586,2004,01,09,21,00,AAXX 09214 85586 42960 22416 10215 20130 40148 57016 80001 333 56006 82075=
85586,2004,01,10,12,00,AAXX 10124 85586 32960 02604 10161 20112 40155 53/// 333 20113 30/// 50380 55110=
85586,2004,01,10,15,00,AAXX 10154 85586 42960 02514 10185 20118 40162 52007=
85586,2004,01,10,18,00,AAXX 10184 85586 32960 02518 10206 20113 40149 58011=
85586,2004,01,10,21,00,AAXX 10214 85586 42960 02718 10196 20102 40139 57011=
85586,2004,01,11,12,00,AAXX 11124 85586 32960 03601 10138 20117 40138 53/// 333 20115 30/// 50410 55127=
85586,2004,01,11,15,00,AAXX 11154 85586 42960 02909 10174 20141 40145 52018=
85586,2004,01,11,18,00,AAXX 11184 85586 32260 13009 10182 20124 40162 52007 81600 333 56700 81706=
85586,2004,01,11,21,00,AAXX 11214 85586 42960 02805 10182 20135 40151 52011=
85586,2004,01,12,12,00,AAXX 12124 85586 31459 83501 10140 20119 40170 53/// 7052/ 886// 333 20136 30/// 50380 55115 56799 88710=
85586,2004,01,12,15,00,AAXX 12154 85586 42460 83108 10152 20132 40182 52012 885// 333 56799 88613=
85586,2004,01,12,18,00,AAXX 12184 85586 32460 72811 10180 20139 40186 52005 87500 333 56700 87615=
85586,2004,01,12,21,00,AAXX 12214 85586 42460 32710 10175 20142 40182 58004 83500 333 56700 83617=
85586,2004,01,13,12,00,AAXX 13124 85586 31240 80000 10143 20117 40155 53/// 7052/ 886// 333 20131 30/// 50310 55030 56799 88706=
85586,2004,01,13,15,00,AAXX 13154 85586 41308 83208 10151 20122 40164 52009 74022 886// 333 56799 56799 88707=
85586,2004,01,13,18,00,AAXX 13184 85586 31356 83218 10173 20129 40160 58003 70522 886// 333 56799 88709=
85586,2004,01,13,21,00,AAXX 13214 85586 41358 83318 10171 20130 40158 58002 70522 886// 333 56799 88709=
85586,2004,01,14,12,00,AAXX 14124 85586 31340 80203 10161 20128 40141 52/// 7052/ 886// 333 20151 30/// 50280 55000 56799 88707=
85586,2004,01,14,15,00,AAXX 14154 85586 41458 83212 10176 20138 40151 52010 70522 885// 333 56799 88612=
85586,2004,01,14,18,00,AAXX 14184 85586 32460 63118 10196 20144 40149 50001 86500 333 56700 86615=
85586,2004,01,14,21,00,AAXX 14214 85586 42460 12916 10197 20142 40138 57011 81500 333 56700 81615=
85586,2004,01,15,15,00,AAXX 15154 85586 42560 83218 10182 20135 40161 52014 885// 333 56799 88622=
85586,2004,01,15,18,00,AAXX 15184 85586 32560 33213 10199 20140 40154 58006 83500 333 56700 83623=
85586,2004,01,16,12,00,AAXX 16124 85586 32960 00802 10180 20144 40187 52/// 333 20104 30/// 50350 55051=
85586,2004,01,16,15,00,AAXX 16154 85586 42560 72607 10191 20137 40207 52020 87500 333 56700 87625=
85586,2004,01,16,21,00,AAXX 16214 85586 42560 32708 10220 20149 40194 57014 82501 333 56706 82625=
85586,2004,01,17,12,00,AAXX 17124 85586 32960 00000 10183 20124 40186 53/// 333 20111 30/// 50340 55077=
85586,2004,01,17,15,00,AAXX 17154 85586 42960 02712 10224 20128 40185 50001=
85586,2004,01,18,12,00,AAXX 18124 85586 32460 40000 10161 20137 40176 53/// 84500 333 20127 30/// 50370 55125 56700 84615=
85586,2004,01,18,18,00,AAXX 18184 85586 32960 02416 10207 20137 40174 58007=
85586,2004,01,19,12,00,AAXX 19124 85586 32260 21002 10159 20137 40153 53/// 82600 333 20100 30/// 50400 55118 56000 82705=
85586,2004,01,19,15,00,AAXX 19154 85586 42260 12906 10185 20135 40158 52005 81600 333 56000 81706=
85586,2004,01,19,18,00,AAXX 19184 85586 32260 22712 10192 20140 40157 54001 81601 333 56605 81706=
85586,2004,01,19,21,00,AAXX 19214 85586 42460 72707 10183 20155 40151 57006 87500 333 56600 87617=
85586,2004,01,20,12,00,AAXX 20124 85586 32460 81502 10149 20144 40158 54/// 885// 333 20142 30/// 50330 55067 56799 88613=
85586,2004,01,20,15,00,AAXX 20154 85586 42460 22707 10181 20147 40157 54000 82500 333 56700 82618=
85586,2004,01,20,18,00,AAXX 20184 85586 32460 22410 10189 20130 40160 52003 82500 333 56700 82618=
85586,2004,01,20,21,00,AAXX 20214 85586 42960 02711 10194 20147 40146 57014=
85586,2004,01,21,12,00,AAXX 21124 85586 31358 73405 10163 20127 40162 51/// 7052/ 87500 333 20144 30/// 50290 55086 56800 87612=
85586,2004,01,21,15,00,AAXX 21154 85586 42560 13010 10194 20135 40183 52021 81100 333 56700 81820=
85586,2004,01,21,18,00,AAXX 21184 85586 32460 63222 10203 20140 40195 52012 86500 333 56700 86615=
85586,2004,01,21,21,00,AAXX 21214 85586 41456 72712 10193 20141 40188 58007 87500 333 56700 87615=
85586,2004,01,22,12,00,AAXX 22124 85586 31456 73604 10154 20104 40199 52/// 7052/ 87500 333 20132 30/// 50340 55102 56700 87615=
85586,2004,01,22,15,00,AAXX 22154 85586 42960 02610 10187 20113 40204 51006=
85586,2004,01,22,18,00,AAXX 22184 85586 32560 12918 10198 20118 40207 58003 81100 333 56800 81820=
85586,2004,01,22,21,00,AAXX 22214 85586 42960 02210 10192 20119 40196 57011=
85586,2004,01,23,12,00,AAXX 23124 85586 32460 82702 10152 20132 40210 52/// 885// 333 20122 30/// 50310 55102 56799 88618=
85586,2004,01,23,15,00,AAXX 23154 85586 42560 82806 10168 20138 40217 52008 885// 333 56799 88620=
85586,2004,01,23,18,00,AAXX 23184 85586 32960 02608 10190 20141 40211 58006=
85586,2004,01,23,21,00,AAXX 23214 85586 42960 02412 10186 20131 40203 57008=
85586,2004,01,24,12,00,AAXX 24124 85586 32360 53601 10136 20129 40199 53/// 85600 333 20092 30/// 50350 55079 56700 85708=
85586,2004,01,24,15,00,AAXX 24154 85586 32960 03306 10183 20140 40198 54000=
85586,2004,01,24,18,00,AAXX 24184 85586 32960 02909 10191 20149 40197 54001=
85586,2004,01,24,21,00,AAXX 24214 85586 42460 22407 10190 20141 40184 57013 82100 333 56600 82815=
85586,2004,01,25,12,00,AAXX 25124 85586 31208 80503 10142 20128 40168 52/// 7424/ 886// 333 20107 30/// 50340 55100 56799 88704=
85586,2004,01,25,15,00,AAXX 25154 85586 41308 62906 10183 20135 40177 52010 74044 86600 333 56700 86707=
85586,2004,01,25,18,00,AAXX 25184 85586 31356 82315 10194 20151 40177 50000 70244 886// 333 56799 88709=
85586,2004,01,25,21,00,AAXX 25214 85586 42960 72618 10193 20153 40157 57020 87500 333 56700 87612=
85586,2004,01,26,12,00,AAXX 26124 85586 31220 83504 10159 20141 40156 52/// 7052/ 886// 333 20149 30/// 50280 55037 56799 88705=
85586,2004,01,26,15,00,AAXX 26154 85586 42360 43110 10196 20149 40159 57004 84500 333 56700 84612=
85586,2004,01,26,18,00,AAXX 26184 85586 31340 72318 10199 20147 40164 52005 70542 87500 333 56700 87612=
85586,2004,01,26,21,00,AAXX 26214 85586 42960 32718 10194 20143 40161 58004 83500 333 56700 83620=
85586,2004,01,27,12,00,AAXX 27124 85586 32960 02606 10174 20113 40168 52/// 333 20101 30/// 50310 55061=
85586,2004,01,27,15,00,AAXX 27154 85586 42960 02516 10213 20127 40171 51005=
85586,2004,01,27,18,00,AAXX 27184 85586 32960 02624 10225 20138 40172 54001=
85586,2004,01,27,21,00,AAXX 27214 85586 42960 02316 10206 20150 40170 58002=
85586,2004,01,28,12,00,AAXX 28124 85586 32960 22404 10168 20147 40178 53/// 80001 333 20105 30/// 50400 55126 56005 82075=
85586,2004,01,28,15,00,AAXX 28154 85586 41920 12509 10194 20144 40183 52005 74040 80001 333 56006 81075=
85586,2004,01,28,18,00,AAXX 28184 85586 32960 32612 10206 20165 40180 54001 80001 333 56005 82075=
85586,2004,01,28,21,00,AAXX 28214 85586 42960 32512 10208 20164 40169 57011 80001 333 56005 83075=
85586,2004,01,29,12,00,AAXX 29124 85586 32960 00000 10174 20149 40156 51/// 333 20122 30/// 50340 55123=
85586,2004,01,29,15,00,AAXX 29154 85586 41960 02609 10204 20158 40153 50002 70240=
85586,2004,01,29,18,00,AAXX 29184 85586 31220 62414 10191 20157 40153 50001 71044 86600 333 56700 86705=
85586,2004,01,29,21,00,AAXX 29214 85586 41356 32618 10194 20151 40155 54002 70544 85500 333 56700 85612=
85586,2004,01,30,12,00,AAXX 30124 85586 32960 03303 10173 20138 40148 52/// 333 20131 30/// 50340 55105=
85586,2004,01,30,15,00,AAXX 30154 85586 42960 02410 10203 20134 40150 53003=
85586,2004,01,30,18,00,AAXX 30184 85586 32960 02216 10194 20136 40156 51005=
85586,2004,01,30,21,00,AAXX 30214 85586 42960 02416 10187 20130 40151 58005=
85586,2004,01,31,12,00,AAXX 31124 85586 32460 20602 10144 20123 40141 52/// 82500 333 20110 30/// 50380 55126 56100 82610=
85586,2004,01,31,15,00,AAXX 31154 85586 442460 12608 10182 20126 40150 52010 81500 333 56600 81610=
85586,2004,01,31,18,00,AAXX 31184 85586 32330 42812 10172 20127 40150 54000 84600 333 56600 84707=
85586,2004,01,31,21,00,AAXX 31214 85586 42460 12710 10184 20132 40143 57007 81500 333 56600 81610=
85586,2004,02,01,12,00,AAXX 01124 85586 31320 82804 10138 20126 40143 52/// 7102/ 886// 333 20130 30/// 50330 55117 56099 88707=
85586,2004,02,01,15,00,AAXX 01154 85586 41456 82608 10160 20114 40153 52011 70522 885// 333 56699 88612=
85586,2004,02,01,18,00,AAXX 01184 85586 32460 82708 10184 20121 40152 54001 885// 333 56699 88615=
85586,2004,02,01,21,00,AAXX 01214 85586 42460 82808 10164 20128 40151 54001 885// 333 56699 88613=
85586,2004,02,02,12,00,AAXX 02124 85586 31440 80203 10144 20102 40158 52/// 7052/ 885// 333 20128 30/// 50280 55004 56799 88612=
85586,2004,02,02,15,00,AAXX 02154 85586 42460 12612 10172 20101 40177 51013 81500 333 56700 81615=
85586,2004,02,02,18,00,AAXX 02184 85586 32960 02309 10193 20108 40174 51004=
85586,2004,02,02,21,00,AAXX 02214 85586 41958 02512 10177 20121 40166 57008 70500=
85586,2004,02,03,12,00,AAXX 03124 85586 31458 42203 10143 20118 40141 51/// 7050/ 84500 333 20077 30/// 50290 55088 56700 84612=
85586,2004,02,03,15,00,AAXX 03154 85586 41456 12812 10181 20122 40156 52016 70510 81500 333 56700 81612=
85586,2004,02,03,18,00,AAXX 03184 85586 32460 12409 10184 20125 40159 51003 81500 333 56700 81612=
85586,2004,02,03,21,00,AAXX 03214 85586 42460 12414 10182 20123 40154 58005 81500 333 56700 81612=
85586,2004,02,04,12,00,AAXX 04124 85586 31356 80404 10114 20103 40157 52/// 7102/ 886// 333 20068 30/// 50300 55119 56099 88708=
85586,2004,02,04,18,00,AAXX 04184 85586 32460 22710 10172 20117 40154 57003 82500 333 600 82610=
85586,2004,02,04,21,00,AAXX 04214 85586 42460 72810 10164 20136 40147 57007 87500 333 56600 87610=
85586,2004,02,05,12,00,AAXX 05124 85586 31330 83004 10130 20119 40137 52/// 7102/ 886// 333 20118 30/// 50270 55066 56099 88707=
85586,2004,02,05,15,00,AAXX 05154 85586 41450 82704 10154 20123 40145 52008 70522 885// 333 56099 88610=
85586,2004,02,05,18,00,AAXX 05184 85586 31450 82807 10186 20133 40153 54001 70522 885// 333 699 88615=
85586,2004,02,05,21,00,AAXX 05214 85586 41450 72706 10184 20136 40140 57013 70522 87500 333 56600 87615=
85586,2004,02,06,12,00,AAXX 06124 85586 31440 83204 10162 20131 40157 52/// 7052/ 885// 333 20149 30/// 50290 55044 56799 88612=
85586,2004,02,06,15,00,AAXX 06154 85586 41456 82908 10183 20135 40167 51010 70522 885// 333 56799 88615=
85586,2004,02,06,18,00,AAXX 06184 85586 31558 62807 10204 20137 40161 58005 70522 86500 333 56700 86620=
85586,2004,02,06,21,00,AAXX 06214 85586 42960 02610 10207 20131 40144 57016=
85586,2004,02,07,12,00,AAXX 07124 85586 31440 82304 10166 20125 40145 52/// 7052/ 885// 333 20157 30/// 50320 55049 56799 88615=
85586,2004,02,07,15,00,AAXX 07154 85586 41456 82807 10182 20127 40157 52012 70522 885// 333 56799 88615=
85586,2004,02,07,18,00,AAXX 07184 85586 32560 12212 10213 20119 40143 58012 81500 333 56700 81625=
85586,2004,02,07,21,00,AAXX 07214 85586 42960 12414 10194 20122 40150 52005 80001 333 56006 81075=
85586,2004,02,08,00,00,AAXX 08004 85586 NIL=
85586,2004,02,08,03,00,AAXX 08034 85586 NIL=
85586,2004,02,08,06,00,AAXX 08064 85586 NIL=
85586,2004,02,08,09,00,AAXX 08094 85586 NIL=
85586,2004,02,08,12,00,AAXX 08124 85586 32960 00000 10149 20112 40178 52/// 333 20076 30/// 50360 55068=
85586,2004,02,08,15,00,AAXX 08154 85586 42960 02515 10203 20100 40186 51010=
85586,2004,02,08,18,00,AAXX 08184 85586 32960 02316 10209 20102 40184 50001=
85586,2004,02,08,21,00,AAXX 08214 85586 42960 02416 10206 20119 40174 57010=
85586,2004,02,09,00,00,AAXX 09004 85586 NIL=
85586,2004,02,09,03,00,AAXX 09034 85586 NIL=
85586,2004,02,09,06,00,AAXX 09064 85586 NIL=
85586,2004,02,09,09,00,AAXX 09094 85586 NIL=
85586,2004,02,09,12,00,AAXX 09124 85586 32960 00000 10140 20113 40166 52/// 333 20088 30/// 50370 55121=
85586,2004,02,09,15,00,AAXX 09154 85586 42960 02408 10208 20134 40166 54000=
85586,2004,02,09,18,00,AAXX 09184 85586 32960 02414 10204 20143 40156 57010=
85586,2004,02,09,21,00,AAXX 09214 85586 42960 12514 10204 20136 40131 57023 80001 333 56006 81075=
85586,2004,02,10,00,00,AAXX 10004 85586 NIL=
85586,2004,02,10,03,00,AAXX 10034 85586 NIL=
85586,2004,02,10,06,00,AAXX 10064 85586 NIL=
85586,2004,02,10,09,00,AAXX 10094 85586 NIL=
85586,2004,02,10,12,00,AAXX 10124 85586 31220 83604 10154 20133 40117 52/// 7052/ 886// 333 20092 30/// 50370 55117 56799 88706=
85586,2004,02,10,15,00,AAXX 10154 85586 41458 43112 10198 20137 40132 52017 70522 84500 333 56700 84615=
85586,2004,02,10,18,00,AAXX 10184 85586 31456 63012 10213 20146 40133 51002 70522 84501 333 56706 84615 82075=
85586,2004,02,10,21,00,AAXX 10214 85586 41458 62912 10207 20137 40123 56010 70522 84510 333 56760 84620 82360=
85586,2004,02,11,00,00,AAXX 11004 85586 NIL=
85586,2004,02,11,03,00,AAXX 11034 85586 NIL=
85586,2004,02,11,06,00,AAXX 11064 85586 NIL=
85586,2004,02,11,09,00,AAXX 11094 85586 NIL=
85586,2004,02,11,12,00,AAXX 11124 85586 31340 82703 10156 20123 40149 52/// 7052/ 885// 333 20147 30/// 50310 55055 56799 88609=
85586,2004,02,11,15,00,AAXX 11154 85586 41456 83106 10169 20121 40154 52005 70522 885// 333 56799 88610=
85586,2004,02,11,18,00,AAXX 11184 85586 31456 73008 10193 20123 40151 58003 70522 87500 333 56700 87615=
85586,2004,02,11,21,00,AAXX 11214 85586 41458 73007 10189 20127 40154 53003 70522 87800 333 56700 81815 86620=
85586,2004,02,12,00,00,AAXX 12004 85586 NIL=
85586,2004,02,12,03,00,AAXX 12034 85586 NIL=
85586,2004,02,12,06,00,AAXX 12064 85586 NIL=
85586,2004,02,12,09,00,AAXX 12094 85586 NIL=
85586,2004,02,12,12,00,AAXX 12124 85586 32960 00000 10140 20115 40156 52/// 333 20102 30/// 50310 55007=
85586,2004,02,12,15,00,AAXX 12154 85586 42560 12510 10180 20131 40165 52010 81500 333 56500 81620=
85586,2004,02,12,18,00,AAXX 12184 85586 32460 42614 10186 20133 40171 52006 84515 333 56600 84615=
85586,2004,02,12,21,00,AAXX 12214 85586 42460 82806 10162 20137 40174 51003 885// 333 56699 88613=
85586,2004,02,13,00,00,AAXX 13004 85586 NIL=
85586,2004,02,13,03,00,AAXX 13034 85586 NIL=
85586,2004,02,13,06,00,AAXX 13064 85586 NIL=
85586,2004,02,13,09,00,AAXX 13094 85586 NIL=
85586,2004,02,13,12,00,AAXX 13124 85586 31330 80000 10140 20128 40168 52/// 7102/ 886// 333 20128 30/// 50370 55089 56099 88707=
85586,2004,02,13,15,00,AAXX 13154 85586 42460 62810 10174 20128 40175 52008 83501 333 56606 83615 84075=
85586,2004,02,13,18,00,AAXX 13184 85586 32460 72710 10180 20130 40176 54001 87500 333 56600 87615=
85586,2004,02,13,21,00,AAXX 13214 85586 42460 72410 10176 20129 40168 57008 87500 333 56600 87613=
85586,2004,02,14,00,00,AAXX 14004 85586 NIL=
85586,2004,02,14,03,00,AAXX 14034 85586 NIL=
85586,2004,02,14,06,00,AAXX 14064 85586 NIL=
85586,2004,02,14,09,00,AAXX 14094 85586 NIL=
85586,2004,02,14,12,00,AAXX 14124 85586 31456 83304 10146 20119 40154 51/// 7052/ 885// 333 20131 30/// 50280 55068 56799 88615=
85586,2004,02,14,15,00,AAXX 14154 85586 42460 42912 10173 20118 40162 52009 84500 333 56700 84615=
85586,2004,02,14,18,00,AAXX 14184 85586 32960 02712 10197 20125 40153 58008=
85586,2004,02,14,21,00,AAXX 14214 85586 42460 62809 10186 20127 40146 56008 86500 333 56700 86615=
85586,2004,02,15,00,00,AAXX 15004 85586 NIL=
85586,2004,02,15,03,00,AAXX 15034 85586 NIL=
85586,2004,02,15,06,00,AAXX 15064 85586 NIL=
85586,2004,02,15,09,00,AAXX 15094 85586 NIL=
85586,2004,02,15,12,00,AAXX 15124 85586 31456 83604 10152 20115 40149 52/// 7052/ 885// 333 20141 30/// 50270 55091 56799 88612=
85586,2004,02,15,15,00,AAXX 15154 85586 41458 63014 10183 20116 40161 51013 70522 86500 333 56700 86615=
85586,2004,02,15,18,00,AAXX 15184 85586 32460 12920 10206 20119 40162 51003 81500 333 56700 81615=
85586,2004,02,15,21,00,AAXX 15214 85586 41558 12912 10199 20127 40167 51004 70400 81100 333 56700 81820=
85586,2004,02,16,00,00,AAXX 16004 85586 NIL=
85586,2004,02,16,03,00,AAXX 16034 85586 NIL=
85586,2004,02,16,06,00,AAXX 16064 85586 NIL=
85586,2004,02,16,09,00,AAXX 16094 85586 NIL=
85586,2004,02,16,12,00,AAXX 16124 85586 32960 10000 10162 20123 40195 52/// 81030 333 20128 30/// 50330 55080 56060 81362=
85586,2004,02,16,15,00,AAXX 16154 85586 42560 12410 10200 20136 40193 54000 81500 333 56500 81530=
85586,2004,02,16,18,00,AAXX 16184 85586 32560 12418 10206 20143 40186 57006 81500 333 56500 81625=
85586,2004,02,16,21,00,AAXX 16214 85586 42560 12418 10204 20118 40174 57013 81500 333 56500 81625=
85586,2004,02,17,00,00,AAXX 17004 85586 NIL=
85586,2004,02,17,03,00,AAXX 17034 85586 NIL=
85586,2004,02,17,06,00,AAXX 17064 85586 NIL=
85586,2004,02,17,09,00,AAXX 17094 85586 NIL=
85586,2004,02,17,12,00,AAXX 17124 85586 32960 00000 10154 20085 40170 52/// 333 20082 30/// 50360 55121=
85586,2004,02,17,15,00,AAXX 17154 85586 42960 02608 10194 20118 40173 51004=
85586,2004,02,17,18,00,AAXX 17184 85586 32960 02414 10194 20120 40171 54002=
85586,2004,02,17,21,00,AAXX 17214 85586 42960 32414 10180 20099 40176 53005 80001 333 56006 83075=
85586,2004,02,18,00,00,AAXX 18004 85586 NIL=
85586,2004,02,18,03,00,AAXX 18034 85586 NIL=
85586,2004,02,18,06,00,AAXX 18064 85586 NIL=
85586,2004,02,18,09,00,AAXX 18094 85586 NIL=
85586,2004,02,18,12,00,AAXX 18124 85586 32960 02605 10159 20084 40181 55/// 333 20081 30/// 50340 55124=
85586,2004,02,18,15,00,AAXX 18154 85586 42960 02512 10231 20101 40171 58008=
85586,2004,02,18,18,00,AAXX 18184 85586 NIL=
85586,2004,02,18,21,00,AAXX 18214 85586 42960 02514 10238 20118 40130 57022=
85586,2004,02,19,00,00,AAXX 19004 85586 NIL=
85586,2004,02,19,03,00,AAXX 19034 85586 NIL=
85586,2004,02,19,06,00,AAXX 19064 85586 NIL=
85586,2004,02,19,09,00,AAXX 19094 85586 NIL=
85586,2004,02,19,12,00,AAXX 19124 85586 31960 00000 10145 20111 40127 54/// 7024/ 333 20081 30/// 50370 55124=
85586,2004,02,19,15,00,AAXX 19154 85586 42960 02908 10184 20128 40136 53010=
85586,2004,02,19,18,00,AAXX 19184 85586 32960 02616 10201 20138 40143 52008=
85586,2004,02,19,21,00,AAXX 19214 85586 42440 82910 10183 20138 40141 58003 70520 885// 333 56799 88612=
85586,2004,02,20,00,00,AAXX 20004 85586 NIL=
85586,2004,02,20,03,00,AAXX 20034 85586 NIL=
85586,2004,02,20,06,00,AAXX 20064 85586 NIL=
85586,2004,02,20,09,00,AAXX 20094 85586 NIL=
85586,2004,02,20,12,00,AAXX 20124 85586 31456 80000 10159 20141 40146 52/// 7052/ 885// 333 20138 30/// 50290 55079 56099 88510=
85586,2004,02,20,15,00,AAXX 20154 85586 42460 83007 10173 20149 40157 52011 885// 333 56099 88615=
85586,2004,02,20,18,00,AAXX 20184 85586 32460 83108 10188 20140 40157 54000 885// 333 56799 88617=
85586,2004,02,20,21,00,AAXX 20214 85586 42560 23112 10190 20143 40152 57006 82500 333 56700 82625=
85586,2004,02,21,00,00,AAXX 21004 85586 NIL=
85586,2004,02,21,03,00,AAXX 21034 85586 NIL=
85586,2004,02,21,06,00,AAXX 21064 85586 NIL=
85586,2004,02,21,09,00,AAXX 21094 85586 NIL=
85586,2004,02,21,12,00,AAXX 21124 85586 31956 00000 10132 20098 40170 52/// 7100/ 333 20102 30/// 50260 55032=
85586,2004,02,21,15,00,AAXX 21154 85586 42560 43010 10196 20126 40180 52013 84500 333 56600 84620=
85586,2004,02,21,18,00,AAXX 21184 85586 32560 13112 10206 20131 40184 51004 81500 333 56600 81620=
85586,2004,02,21,21,00,AAXX 21214 85586 42560 12808 10204 20124 40180 57005 81500 333 56600 81520=
85586,2004,02,22,00,00,AAXX 22004 85586 NIL=
85586,2004,02,22,03,00,AAXX 22034 85586 NIL=
85586,2004,02,22,06,00,AAXX 22064 85586 NIL=
85586,2004,02,22,09,00,AAXX 22094 85586 NIL=
85586,2004,02,22,12,00,AAXX 22124 85586 32960 00803 10153 20121 40187 51/// 333 20089 30/// 50340 55113=
85586,2004,02,22,15,00,AAXX 22154 85586 42960 02412 10201 20128 40191 51005=
85586,2004,02,22,18,00,AAXX 22184 85586 32960 02314 10206 20136 40184 58005=
85586,2004,02,22,21,00,AAXX 22214 85586 42960 02609 10200 20136 40177 56003=
85586,2004,02,23,00,00,AAXX 23004 85586 NIL=
85586,2004,02,23,03,00,AAXX 23034 85586 NIL=
85586,2004,02,23,06,00,AAXX 23064 85586 NIL=
85586,2004,02,23,09,00,AAXX 23094 85586 NIL=
85586,2004,02,23,12,00,AAXX 23124 85586 31456 70000 10141 20123 40181 51/// 7052/ 87500 333 20118 30/// 50310 55114 56700 87612=
85586,2004,02,23,15,00,AAXX 23154 85586 41440 72607 10181 20134 40181 54001 70520 87500 333 56700 87612=
85586,2004,02,23,18,00,AAXX 23184 85586 31440 82710 10179 20137 40176 58005 70522 885// 333 56700 88612=
85586,2004,02,23,21,00,AAXX 23214 85586 41440 82510 10165 20133 40169 57008 70522 885// 333 56799 88612=
85586,2004,02,24,00,00,AAXX 24004 85586 NIL=
85586,2004,02,24,03,00,AAXX 24034 85586 NIL=
85586,2004,02,24,06,00,AAXX 24064 85586 NIL=
85586,2004,02,24,09,00,AAXX 24094 85586 NIL=
85586,2004,02,24,12,00,AAXX 24124 85586 31340 80000 10144 20130 40154 56/// 7102/ 886// 333 20140 30/// 50250 55015 56099 88708=
85586,2004,02,24,15,00,AAXX 24154 85586 41456 80000 10152 20135 40160 52006 71022 886// 333 56099 88710=
85586,2004,02,24,18,00,AAXX 24184 85586 31456 82408 10174 20130 40145 57014 70522 885// 333 56699 88612=
85586,2004,02,24,21,00,AAXX 24214 85586 42460 52806 10174 20128 40138 57007 85500 333 56600 85615=
85586,2004,02,25,00,00,AAXX 25004 85586 NIL=
85586,2004,02,25,03,00,AAXX 25034 85586 NIL=
85586,2004,02,25,06,00,AAXX 25064 85586 NIL=
85586,2004,02,25,09,00,AAXX 25094 85586 NIL=
85586,2004,02,25,12,00,AAXX 25124 85586 31546 70000 10130 20121 40139 52/// 7102/ 87500 333 20100 30/// 50240 55018 56000 87615=
85586,2004,02,25,15,00,AAXX 25154 85586 42560 72906 10158 20106 40151 52013 87500 333 56000 81820 86627=
85586,2004,02,25,18,00,AAXX 25184 85586 32560 82804 10184 20104 40152 54001 885// 333 56699 88627=
85586,2004,02,25,21,00,AAXX 25214 85586 42560 82508 10176 20112 40148 57004 885// 333 56699 88627=
85586,2004,02,26,00,00,AAXX 26004 85586 NIL=
85586,2004,02,26,03,00,AAXX 26034 85586 NIL=
85586,2004,02,26,06,00,AAXX 26064 85586 NIL=
85586,2004,02,26,09,00,AAXX 26094 85586 NIL=
85586,2004,02,26,12,00,AAXX 26124 85586 32960 10000 10146 20120 40174 52/// 80001 333 20089 30/// 50290 55005 56006 81075=
85586,2004,02,26,15,00,AAXX 26154 85586 42960 03007 10197 20132 40194 52021=
85586,2004,02,26,18,00,AAXX 26184 85586 32960 12705 10211 20132 40196 58003 80001 333 56006 81075=
85586,2004,02,26,21,00,AAXX 26214 85586 42960 22410 10213 20129 40189 56007 80001 333 56006 82075=
85586,2004,02,27,00,00,AAXX 27004 85586 NIL=
85586,2004,02,27,03,00,AAXX 27034 85586 NIL=
85586,2004,02,27,06,00,AAXX 27064 85586 NIL=
85586,2004,02,27,09,00,AAXX 27094 85586 NIL=
85586,2004,02,27,12,00,AAXX 27124 85586 32960 21003 10149 20123 40203 53/// 80001 333 20101 30/// 50340 55118 56006 82075=
85586,2004,02,27,15,00,AAXX 27154 85586 42960 03012 10219 20119 40201 50000=
85586,2004,02,27,18,00,AAXX 27184 85586 32960 02510 10216 20117 40195 57006=
85586,2004,02,27,21,00,AAXX 27214 85586 42460 32312 10206 20156 40182 57012 83500 333 56700 83615=
85586,2004,02,28,00,00,AAXX 28004 85586 NIL=
85586,2004,02,28,03,00,AAXX 28034 85586 NIL=
85586,2004,02,28,06,00,AAXX 28064 85586 NIL=
85586,2004,02,28,09,00,AAXX 28094 85586 NIL=
85586,2004,02,28,12,00,AAXX 28124 85586 32960 01202 10140 20117 40167 56/// 333 20104 30/// 50330 55106=
85586,2004,02,28,15,00,AAXX 28154 85586 42960 02406 10202 20122 40166 54001=
85586,2004,02,28,18,00,AAXX 28184 85586 32960 02412 10212 20143 40159 57006=
85586,2004,02,28,21,00,AAXX 28214 85586 42960 02512 10206 20148 40145 57014=
85586,2004,02,29,00,00,AAXX 29004 85586 NIL=
85586,2004,02,29,03,00,AAXX 29034 85586 NIL=
85586,2004,02,29,06,00,AAXX 29064 85586 NIL=
85586,2004,02,29,09,00,AAXX 29094 85586 NIL=
85586,2004,02,29,12,00,AAXX 29124 85586 32960 00000 10138 20115 40130 52/// 333 20094 30/// 50390 55117=
85586,2004,02,29,15,00,AAXX 29154 85586 42960 02909 10197 20147 40130 54002=
85586,2004,02,29,18,00,AAXX 29184 85586 32960 02712 10200 20136 40126 57004=
85586,2004,02,29,21,00,AAXX 29214 85586 NIL=
85586,2004,03,01,00,00,AAXX 01004 85586 NIL=
85586,2004,03,01,03,00,AAXX 01034 85586 NIL=
85586,2004,03,01,06,00,AAXX 01064 85586 NIL=
85586,2004,03,01,09,00,AAXX 01094 85586 NIL=
85586,2004,03,01,12,00,AAXX 01124 85586 32960 40000 10155 20129 40131 53/// 81031 333 20132 30/// 50360 55100 56066 81366 83073=
85586,2004,03,01,15,00,AAXX 01154 85586 42660 53009 10199 20170 40156 52014 81131 333 56066 81835=
85586,2004,03,01,18,00,AAXX 01184 85586 32560 73211 10200 20169 40171 52015 83131 333 56066 83830 83365=
85586,2004,03,01,21,00,AAXX 01214 85586 NIL=
85586,2004,03,02,00,00,AAXX 02004 85586 NIL=
85586,2004,03,02,03,00,AAXX 02034 85586 NIL=
85586,2004,03,02,06,00,AAXX 02064 85586 NIL=
85586,2004,03,02,09,00,AAXX 02094 85586 NIL=
85586,2004,03,02,12,00,AAXX 02124 85586 12960 01408 10160 20144 40209 53/// 60084 333 20122 31/// 50260 55040 70075=
85586,2004,03,02,15,00,AAXX 02154 85586 42960 01907 10215 20143 40203 58004=
85586,2004,03,02,18,00,AAXX 02184 85586 32960 02409 10236 20171 40178 57023=
85586,2004,03,02,21,00,AAXX 02214 85586 42960 02313 10229 20148 40153 57026=
85586,2004,03,03,00,00,AAXX 03004 85586 NIL=
85586,2004,03,03,03,00,AAXX 03034 85586 NIL=
85586,2004,03,03,06,00,AAXX 03064 85586 NIL=
85586,2004,03,03,09,00,AAXX 03094 85586 NIL=
85586,2004,03,03,12,00,AAXX 03124 85586 32960 01608 10176 20106 40093 57/// 333 20132 30/// 50390 55117=
85586,2004,03,03,15,00,AAXX 03154 85586 42960 02410 10204 20124 40188 56004=
85586,2004,03,03,18,00,AAXX 03184 85586 32960 02418 10200 20147 40081 57007=
85586,2004,03,03,21,00,AAXX 03214 85586 42960 02514 10200 20134 40076 56005=
85586,2004,03,04,00,00,AAXX 04004 85586 NIL=
85586,2004,03,04,03,00,AAXX 04034 85586 NIL=
85586,2004,03,04,06,00,AAXX 04064 85586 NIL=
85586,2004,03,04,09,00,AAXX 04094 85586 NIL=
85586,2004,03,04,12,00,AAXX 04124 85586 31430 83604 10154 20140 40147 52/// 7102/ 885// 333 20138 30/// 50340 55113 56099 88610=
85586,2004,03,04,15,00,AAXX 04154 85586 42460 83108 10184 20136 40157 52011 885// 333 56799 88615=
85586,2004,03,04,18,00,AAXX 04184 85586 32560 42912 10204 20149 40162 51006 82502 333 56706 82620 83075=
85586,2004,03,04,21,00,AAXX 04214 85586 42460 82708 10184 20157 40155 57008 885// 333 56699 88617=
85586,2004,03,05,00,00,AAXX 05004 85586 NIL=
85586,2004,03,05,03,00,AAXX 05034 85586 NIL=
85586,2004,03,05,06,00,AAXX 05064 85586 NIL=
85586,2004,03,05,09,00,AAXX 05094 85586 NIL=
85586,2004,03,05,12,00,AAXX 05124 85586 32460 82506 10167 20152 40188 52/// 885// 333 20165 30/// 50310 55029 56699 88617=
85586,2004,03,05,15,00,AAXX 05154 85586 42560 41305 10197 20137 40196 52008 84500 333 56600 84620=
85586,2004,03,05,18,00,AAXX 05184 85586 32960 02410 10213 20144 40188 58007=
85586,2004,03,05,21,00,AAXX 05214 85586 42960 02311 10200 20152 40190 54001=
85586,2004,03,06,00,00,AAXX 06004 85586 NIL=
85586,2004,03,06,03,00,AAXX 06034 85586 NIL=
85586,2004,03,06,06,00,AAXX 06064 85586 NIL=
85586,2004,03,06,09,00,AAXX 06094 85586 NIL=
85586,2004,03,06,12,00,AAXX 06124 85586 32960 02305 10146 20132 40199 53/// 333 20110 30/// 50340 55078=
85586,2004,03,06,15,00,AAXX 06154 85586 42960 01812 10220 20143 40194 58003=
85586,2004,03,06,18,00,AAXX 06184 85586 32960 02313 10206 20142 40185 57008=
85586,2004,03,06,21,00,AAXX 06214 85586 42960 02222 10210 20148 40177 57008=
85586,2004,03,07,00,00,AAXX 07004 85586 NIL=
85586,2004,03,07,03,00,AAXX 07034 85586 NIL=
85586,2004,03,07,06,00,AAXX 07064 85586 NIL=
85586,2004,03,07,09,00,AAXX 07094 85586 NIL=
85586,2004,03,07,12,00,AAXX 07124 85586 32960 01808 10164 20102 40165 52/// 333 20096 30/// 50310 55112=
85586,2004,03,07,15,00,AAXX 07154 85586 42960 02412 10208 20121 40155 57008=
85586,2004,03,07,18,00,AAXX 07184 85586 32960 22420 10190 20127 40146 57011 80002 333 56006 82075=
85586,2004,03,07,21,00,AAXX 07214 85586 42960 22416 10196 20124 40133 57012 80001 333 56006 82075=
85586,2004,03,08,00,00,AAXX 08004 85586 NIL=
85586,2004,03,08,03,00,AAXX 08034 85586 NIL=
85586,2004,03,08,06,00,AAXX 08064 85586 NIL=
85586,2004,03,08,09,00,AAXX 08094 85586 NIL=
85586,2004,03,08,12,00,AAXX 08124 85586 NIL=
85586,2004,03,08,15,00,AAXX 08154 85586 41440 42908 10158 20129 40153 52011 70511 84500 333 56600 84610=
85586,2004,03,08,18,00,AAXX 08184 85586 NIL=
85586,2004,03,08,21,00,AAXX 08214 85586 42460 83108 10178 20137 40149 57008 885// 333 56699 88613=
85586,2004,03,09,00,00,AAXX 09004 85586 NIL=
85586,2004,03,09,03,00,AAXX 09034 85586 NIL=
85586,2004,03,09,06,00,AAXX 09064 85586 NIL=
85586,2004,03,09,09,00,AAXX 09094 85586 NIL=
85586,2004,03,09,12,00,AAXX 09124 85586 32460 80701 10159 20137 40156 53/// 885// 333 20157 30/// 50290 55086 56799 88617=
85586,2004,03,09,15,00,AAXX 09154 85586 42560 42409 10181 20136 40156 54000 84500 333 56700 84622=
85586,2004,03,09,18,00,AAXX 09184 85586 32960 02510 10190 20141 40152 57004=
85586,2004,03,09,21,00,AAXX 09214 85586 42960 02507 10176 20143 40140 57012=
85586,2004,03,10,00,00,AAXX 10004 85586 NIL=
85586,2004,03,10,03,00,AAXX 10034 85586 NIL=
85586,2004,03,10,06,00,AAXX 10064 85586 NIL=
85586,2004,03,10,09,00,AAXX 10094 85586 NIL=
85586,2004,03,10,12,00,AAXX 10124 85586 31220 80000 10137 20133 40141 53/// 7102/ 886// 333 20136 30/// 50250 55077 56799 88704=
85586,2004,03,10,15,00,AAXX 10154 85586 41357 83304 10153 20138 40153 52012 70522 886// 333 56799 88708=
85586,2004,03,10,18,00,AAXX 10184 85586 32460 82907 10178 20145 40151 54001 885// 333 56799 88617=
85586,2004,03,10,21,00,AAXX 10214 85586 NIL=
85586,2004,03,11,00,00,AAXX 11004 85586 NIL=
85586,2004,03,11,03,00,AAXX 11034 85586 NIL=
85586,2004,03,11,06,00,AAXX 11064 85586 NIL=
85586,2004,03,11,09,00,AAXX 11094 85586 NIL=
85586,2004,03,11,12,00,AAXX 11124 85586 11430 80000 10156 20148 40165 52/// 69974 7505/ 886// 333 20154 31/// 50220 55000 56099 70007 88710=
85586,2004,03,11,15,00,AAXX 11154 85586 41450 82404 10174 20148 40173 52008 70522 888// 333 56599 83810 88617=
85586,2004,03,11,18,00,AAXX 11184 85586 32460 82808 10198 20136 40166 58006 888// 333 56699 82815 88627=
85586,2004,03,11,21,00,AAXX 11214 85586 42560 12808 10194 20134 40154 57013 81500 333 56600 81625=
85586,2004,03,12,00,00,AAXX 12004 85586 NIL=
85586,2004,03,12,03,00,AAXX 12034 85586 NIL=
85586,2004,03,12,06,00,AAXX 12064 85586 NIL=
85586,2004,03,12,09,00,AAXX 12094 85586 NIL=
85586,2004,03,12,12,00,AAXX 12124 85586 32460 80000 10146 20129 40137 52/// 885// 333 20104 30/// 50280 55050 56099 886170=
85586,2004,03,12,15,00,AAXX 12154 85586 42460 80404 10168 20132 40139 54003 885// 333 56099 88617=
85586,2004,03,12,18,00,AAXX 12184 85586 32560 82710 10182 20141 40134 57005 885// 333 56699 88620=
85586,2004,03,12,21,00,AAXX 12214 85586 42460 82706 10174 20146 40123 57011 888// 333 56699 82815 88620=
85586,2004,03,13,00,00,AAXX 13004 85586 NIL=
85586,2004,03,13,03,00,AAXX 13034 85586 NIL=
85586,2004,03,13,06,00,AAXX 13064 85586 NIL=
85586,2004,03,13,09,00,AAXX 13094 85586 NIL=
85586,2004,03,13,12,00,AAXX 13124 85586 31459 80000 10163 20150 40121 53/// 7052/ 885// 333 20162 30/// 50220 55000 56799 88615=
85586,2004,03,13,15,00,AAXX 13154 85586 42460 83007 10175 20151 40137 52016 885// 333 56799 88616=
85586,2004,03,13,18,00,AAXX 13184 85586 32460 82911 10173 20152 40150 52013 885// 333 56799 88617=
85586,2004,03,13,21,00,AAXX 13214 85586 42560 82805 10179 20155 40150 54000 885// 333 56799 88620=
85586,2004,03,14,00,00,AAXX 14004 85586 NIL=
85586,2004,03,14,03,00,AAXX 14034 85586 NIL=
85586,2004,03,14,06,00,AAXX 14064 85586 NIL=
85586,2004,03,14,09,00,AAXX 14094 85586 NIL=
85586,2004,03,14,12,00,AAXX 14124 85586 32560 70000 10140 20123 40154 53/// 87500 333 20129 30/// 50240 55000 56700 87630=
85586,2004,03,14,15,00,AAXX 14154 85586 42560 12413 10200 20125 40159 52007 81500 333 56700 81630=
85586,2004,03,14,18,00,AAXX 14184 85586 32960 02312 10207 20149 40156 54002=
85586,2004,03,14,21,00,AAXX 14214 85586 42960 02412 10196 20151 40159 57008=
85586,2004,03,15,00,00,AAXX 15004 85586 NIL=
85586,2004,03,15,03,00,AAXX 15034 85586 NIL=
85586,2004,03,15,06,00,AAXX 15064 85586 NIL=
85586,2004,03,15,09,00,AAXX 15094 85586 NIL=
85586,2004,03,15,12,00,AAXX 15124 85586 32960 00000 10136 20120 40144 52/// 333 20096 30/// 50320 55086=
85586,2004,03,15,15,00,AAXX 15154 85586 42960 02609 10204 20137 40144 51002=
85586,2004,03,15,18,00,AAXX 15184 85586 31220 22609 10199 20149 40135 58009 74000 82600 333 56600 82704=
85586,2004,03,15,21,00,AAXX 15214 85586 41458 22707 10196 20151 40117 57018 70541 82500 333 56700 82615=
85586,2004,03,16,00,00,AAXX 16004 85586 31440 20000 10163 20143 40111 57007 70511 82600 333 10206 56700 82615=
85586,2004,03,16,03,00,AAXX 16034 85586 NIL=
85586,2004,03,16,06,00,AAXX 16064 85586 NIL=
85586,2004,03,16,09,00,AAXX 16094 85586 NIL=
85586,2004,03,16,12,00,AAXX 16124 85586 32960 00000 10146 20127 40132 52/// 333 20105 30/// 50290 55111=
85586,2004,03,16,15,00,AAXX 16154 85586 42960 02306 10208 20130 40138 52009=
85586,2004,03,16,18,00,AAXX 16184 85586 32960 02508 10219 20134 40138 50000=
85586,2004,03,16,21,00,AAXX 16214 85586 42960 02512 10216 20123 40127 57011=
85586,2004,03,17,00,00,AAXX 17004 85586 32960 02203 10182 20121 40142 53013 333 10218=
85586,2004,03,17,03,00,AAXX 17034 85586 NIL=
85586,2004,03,17,06,00,AAXX 17064 85586 NIL=
85586,2004,03,17,09,00,AAXX 17094 85586 NIL=
85586,2004,03,17,12,00,AAXX 17124 85586 32960 00000 10148 20138 40148 54/// 333 20118 30/// 50340 55114=
85586,2004,03,17,15,00,AAXX 17154 85586 42960 02612 10206 20114 40142 54003=
85586,2004,03,17,18,00,AAXX 17184 85586 32960 02515 10197 20115 40127 57016=
85586,2004,03,17,21,00,AAXX 17214 85586 42960 02314 10197 20101 40118 57009=
85586,2004,03,18,00,00,AAXX 18004 85586 32960 00000 10156 20104 40129 53010 333 10242=
85586,2004,03,18,03,00,AAXX 18034 85586 NIL=
85586,2004,03,18,06,00,AAXX 18064 85586 NIL=
85586,2004,03,18,09,00,AAXX 18094 85586 NIL=
85586,2004,03,18,12,00,AAXX 18124 85586 32960 00000 10100 20092 40124 54/// 333 20078 30/// 50300 55111=
85586,2004,03,18,15,00,AAXX 18154 85586 42960 02706 10180 20085 40129 51007=
85586,2004,03,18,18,00,AAXX 18184 85586 32960 02412 10188 20114 40122 57008=
85586,2004,03,18,21,00,AAXX 18214 85586 42960 02407 10192 20105 40111 57011=
85586,2004,03,19,00,00,AAXX 19004 85586 32960 00506 10142 20119 40116 53004 333 10198=
85586,2004,03,19,03,00,AAXX 19034 85586 NIL=
85586,2004,03,19,06,00,AAXX 19064 85586 NIL=
85586,2004,03,19,09,00,AAXX 19094 85586 NIL=
85586,2004,03,19,12,00,AAXX 19124 85586 32960 00000 10097 20084 40121 53/// 333 20065 30/// 50230 55107=
85586,2004,03,19,15,00,AAXX 19154 85586 42960 02605 10169 20138 40128 52009=
85586,2004,03,19,18,00,AAXX 19184 85586 32960 02807 10176 20137 40123 57005=
85586,2004,03,19,21,00,AAXX 19214 85586 42960 03005 10168 20138 40118 57005=
85586,2004,03,20,00,00,AAXX 20004 85586 32960 00507 10138 20124 40123 52004 333 10180=
85586,2004,03,20,03,00,AAXX 20034 85586 NIL=
85586,2004,03,20,06,00,AAXX 20064 85586 NIL=
85586,2004,03,20,09,00,AAXX 20094 85586 NIL=
85586,2004,03,20,12,00,AAXX 20124 85586 31930 00000 10099 20095 40129 53/// 7100/ 333 20068 30/// 50210 55103=
85586,2004,03,20,15,00,AAXX 20154 85586 41240 42809 10165 20154 40141 52014 71011 333 56700 84705=
85586,2004,03,20,18,00,AAXX 20184 85586 32960 02911 10181 20143 40128 58013=
85586,2004,03,20,21,00,AAXX 20214 85586 42960 02706 10177 20150 40116 57012=
85586,2004,03,21,00,00,AAXX 21004 85586 32960 00000 10140 20123 40111 57006 333 10188=
85586,2004,03,21,03,00,AAXX 21034 85586 NIL=
85586,2004,03,21,06,00,AAXX 21064 85586 NIL=
85586,2004,03,21,09,00,AAXX 21094 85586 NIL=
85586,2004,03,21,12,00,AAXX 21124 85586 31440 80703 10143 20122 40132 52/// 7052/ 333 20084 30/// 50270 55095 56799 88615=
85586,2004,03,21,15,00,AAXX 21154 85586 41456 83206 10172 20124 40143 52012 70522 333 56799 88615=
85586,2004,03,21,18,00,AAXX 21184 85586 31558 32806 10193 20132 40144 50001 70522 83500 333 56700 83620=
85586,2004,03,21,21,00,AAXX 21214 85586 41456 82907 10173 20120 40139 57005 70522 885// 333 56799 88615=
85586,2004,03,22,00,00,AAXX 22004 85586 31440 82905 10154 20122 40139 50001 70522 885// 333 10197 56799 88615=
85586,2004,03,22,03,00,AAXX 22034 85586 NIL=
85586,2004,03,22,06,00,AAXX 22064 85586 NIL=
85586,2004,03,22,09,00,AAXX 22094 85586 NIL=
85586,2004,03,22,12,00,AAXX 22124 85586 31240 80000 10143 20124 40141 54/// 7052/ 886// 333 20139 30/// 50230 55021 56099 88704=
85586,2004,03,22,15,00,AAXX 22154 85586 41240 82804 10155 20133 40153 53013 70522 886// 333 56799 88706=
85586,2004,03,22,18,00,AAXX 22184 85586 11458 82907 10162 20128 40147 56006 69901 70552 885// 333 56799 88610=
85586,2004,03,22,21,00,AAXX 22214 85586 41240 82806 10154 20128 40147 54001 70522 886// 333 56799 88704=
85586,2004,03,23,00,00,AAXX 23004 85586 11208 82506 10139 20127 40153 52006 69901 886// 333 10166 56699 88704=
85586,2004,03,23,03,00,AAXX 23034 85586 NIL=
85586,2004,03,23,06,00,AAXX 23064 85586 NIL=
85586,2004,03,23,09,00,AAXX 23094 85586 NIL=
85586,2004,03,23,12,00,AAXX 23124 85586 31330 80000 10128 20121 40154 53/// 7102/ 886// 333 20118 30/// 50250 55021 56099 88707=
85586,2004,03,23,15,00,AAXX 23154 85586 41460 12708 10166 20136 40155 54002 70142 81500 333 56600 81615=
85586,2004,03,23,18,00,AAXX 23184 85586 31308 82406 10148 20127 40155 54001 74644 886// 333 56699 88707=
85586,2004,03,23,21,00,AAXX 23214 85586 41960 03305 10172 20128 40145 57009 70142=
85586,2004,03,24,00,00,AAXX 24004 85586 32960 00904 10150 20123 40139 57007 333 10178=
85586,2004,03,24,03,00,AAXX 24034 85586 NIL=
85586,2004,03,24,06,00,AAXX 24064 85586 NIL=
85586,2004,03,24,09,00,AAXX 24094 85586 NIL=
85586,2004,03,24,12,00,AAXX 24124 85586 31908 00000 10096 20091 40123 56/// 7434/ 333 20084 30/// 50240 55057=
85586,2004,03,24,15,00,AAXX 24154 85586 42960 02708 10194 20127 40121 54000=
85586,2004,03,24,18,00,AAXX 24184 85586 32960 02416 10200 20109 40116 55004=
85586,2004,03,24,21,00,AAXX 24214 85586 42960 12806 10188 20107 40110 57008 80001 333 56006 81075=
85586,2004,03,25,00,00,AAXX 25004 85586 32960 20410 10144 20104 40114 53004 80001 333 10210 56006 82075=
85586,2004,03,25,03,00,AAXX 25034 85586 NIL=
85586,2004,03,25,06,00,AAXX 25064 85586 NIL=
85586,2004,03,25,09,00,AAXX 25094 85586 NIL=
85586,2004,03,25,12,00,AAXX 25124 85586 32960 00000 10119 20103 40123 53/// 333 20070 30/// 50210 55104=
85586,2004,03,25,15,00,AAXX 25154 85586 42960 02805 10187 20127 40128 52006=
85586,2004,03,25,18,00,AAXX 25184 85586 32960 02909 10183 20129 40143 52015=
85586,2004,03,25,21,00,AAXX 25214 85586 42960 03206 10182 20132 40130 58013=
85586,2004,03,26,00,00,AAXX 26004 85586 32960 10000 10147 20132 40129 54001 80001 333 10201 56006 81075=
85586,2004,03,26,03,00,AAXX 26034 85586 NIL=
85586,2004,03,26,06,00,AAXX 26064 85586 NIL=
85586,2004,03,26,09,00,AAXX 26094 85586 NIL=
85586,2004,03,26,12,00,AAXX 26124 85586 32960 20000 10089 20081 40147 53/// 80001 333 20079 30/// 50200 55107 56005 82075=
85586,2004,03,26,15,00,AAXX 26154 85586 42960 12405 10176 20138 40141 58004 80001 333 56005 81075=
85586,2004,03,26,18,00,AAXX 26184 85586 32960 12407 10220 20130 40126 57013 80001 333 56005 81075=
85586,2004,03,26,21,00,AAXX 26214 85586 42960 03107 10180 20130 40119 57009=
85586,2004,03,27,00,00,AAXX 27004 85586 32960 00000 10150 20133 40119 54001 333 10220=
85586,2004,03,27,03,00,AAXX 27034 85586 NIL=
85586,2004,03,27,06,00,AAXX 27064 85586 NIL=
85586,2004,03,27,09,00,AAXX 27094 85586 NIL=
85586,2004,03,27,12,00,AAXX 27124 85586 32960 00000 10118 20078 40011 53/// 333 20074 30/// 50310 55105=
85586,2004,03,27,15,00,AAXX 27154 85586 NIL=
85586,2004,03,27,18,00,AAXX 27184 85586 NIL=
85586,2004,03,27,21,00,AAXX 27214 85586 NIL=
85586,2004,03,28,00,00,AAXX 28004 85586 31940 02704 10154 20124 40116 56002 70500 333 10192=
85586,2004,03,28,03,00,AAXX 28034 85586 NIL=
85586,2004,03,28,06,00,AAXX 28064 85586 NIL=
85586,2004,03,28,09,00,AAXX 28094 85586 NIL=
85586,2004,03,28,12,00,AAXX 28124 85586 31558 83210 10173 20138 40123 53/// 7052/ 8252/ 333 20152 30/// 50210 55101 56889 82620 86440=
85586,2004,03,28,15,00,AAXX 28154 85586 41556 83316 10193 20124 40131 52008 70562 8213/ 333 56889 82820 86356=
85586,2004,03,28,18,00,AAXX 28184 85586 11558 83616 10193 20132 40133 51002 70586 8321/ 333 56889 83820 85456=
85586,2004,03,28,21,00,AAXX 28214 85586 41558 73406 10205 20127 40131 54000 70582 84230 333 56880 84820 83358=
85586,2004,03,29,00,00,AAXX 29004 85586 31840 70405 10194 20131 40138 53005 70522 87030 333 10208 56070 87357=
85586,2004,03,29,03,00,AAXX 29034 85586 NIL=
85586,2004,03,29,06,00,AAXX 29064 85586 NIL=
85586,2004,03,29,09,00,AAXX 29094 85586 NIL=
85586,2004,03,29,12,00,AAXX 29124 85586 12560 50000 10124 20117 40143 54/// 69944 81531 333 20120 31/// 50220 55000 56066 70004 81630 83365=
85586,2004,03,29,15,00,AAXX 29154 85586 42560 72808 10206 20136 40147 53007 82530 333 56660 82630 87363=
85586,2004,03,29,18,00,AAXX 29184 85586 32560 73106 10208 20144 40144 58003 81531 333 56666 81630 83363 85075=
85586,2004,03,29,21,00,AAXX 29214 85586 42960 32306 10206 20149 40146 54002 81501 333 56606 81630 83075=
85586,2004,03,30,00,00,AAXX 30004 85586 32960 40000 10176 20151 40150 54002 82031 333 10214 56066 82363 83075=
85586,2004,03,30,03,00,AAXX 30034 85586 NIL=
85586,2004,03,30,06,00,AAXX 30064 85586 NIL=
85586,2004,03,30,09,00,AAXX 30094 85586 NIL=
85586,2004,03,30,12,00,AAXX 30124 85586 32960 50804 10148 20127 40141 54/// 85032 333 20110 30/// 50260 55073 56066 85363=
85586,2004,03,30,15,00,AAXX 30154 85586 42560 53110 10230 20108 40144 52006 81531 333 56777 81630 84363=
85586,2004,03,30,18,00,AAXX 30184 85586 32560 83110 10214 20124 40147 51003 8523/ 333 56779 85820 88362=
85586,2004,03,30,21,00,AAXX 30214 85586 42560 82706 10188 20157 40152 54003 8353/ 333 56779 83620 88360=
85586,2004,03,31,00,00,AAXX 31004 85586 32560 80906 10180 20146 40128 57024 8253/ 333 10240 56779 82620 88360=
85586,2004,03,31,03,00,AAXX 31034 85586 NIL=
85586,2004,03,31,06,00,AAXX 31064 85586 NIL=
85586,2004,03,31,09,00,AAXX 31094 85586 NIL=
85586,2004,03,31,12,00,AAXX 31124 85586 12560 50000 10168 20150 40180 52/// 69904 82230 333 20164 30/// 50180 55033 56660 70000 82825 83365=
85586,2004,03,31,15,00,AAXX 31154 85586 42560 53111 10201 20152 40187 52008 83231 333 56666 83825=
85586,2004,03,31,18,00,AAXX 31184 85586 32560 43215 10202 20151 40176 58011 82201 333 56606 82827=
85586,2004,03,31,21,00,AAXX 31214 85586 42560 53111 10188 20138 40175 54002 81231 333 56666 81827 83365=
85586,2004,04,01,00,00,AAXX 01004 85586 32960 60000 10171 20132 40183 53008 84031 333 10219 56066 84363=
85586,2004,04,01,03,00,AAXX 01034 85586 NIL=
85586,2004,04,01,06,00,AAXX 01064 85586 NIL=
85586,2004,04,01,09,00,AAXX 01094 85586 NIL=
85586,2004,04,01,12,00,AAXX 01124 85586 32960 70000 10128 20103 40185 53/// 86031 333 20124 30/// 50190 55074 56066 86365=
85586,2004,04,01,15,00,AAXX 01154 85586 42960 70000 10186 20145 40193 52009 86031 333 56066 86365=
85586,2004,04,01,18,00,AAXX 01184 85586 32960 82603 10190 20141 40177 58016 8807/ 333 56069 88365=
85586,2004,04,01,21,00,AAXX 01214 85586 42960 02305 10180 20158 40170 57007 87070 333 56060 87365=
85586,2004,04,02,00,00,AAXX 02004 85586 32960 70000 10160 20147 40170 54000 87070 333 10194 56060 87365=
85586,2004,04,02,03,00,AAXX 02034 85586 NIL=
85586,2004,04,02,06,00,AAXX 02064 85586 NIL=
85586,2004,04,02,09,00,AAXX 02094 85586 NIL=
85586,2004,04,02,12,00,AAXX 02124 85586 31456 40000 10122 20102 40165 51/// 7051/ 84500 333 20108 30/// 50240 55000 56700 84615=
85586,2004,04,02,15,00,AAXX 02154 85586 41958 22808 10213 20142 40165 53003 70510 80001 333 56006 82075=
85586,2004,04,02,18,00,AAXX 02184 85586 32960 32512 10206 20132 40162 58003 80001 333 56006 83075=
85586,2004,04,02,21,00,AAXX 02214 85586 42960 32511 10193 20130 40155 57009 80001 333 56006 83075=
85586,2004,04,03,00,00,AAXX 03004 85586 31956 40000 10154 20122 40165 53009 70511 80001 333 10215 56006 84075=
85586,2004,04,03,03,00,AAXX 03034 85586 NIL=
85586,2004,04,03,06,00,AAXX 03064 85586 NIL=
85586,2004,04,03,12,00,AAXX 03124 85586 32960 00903 10108 20087 40172 51/// 333 20067 30/// 50270 55098=
85586,2004,04,03,18,00,AAXX 03184 85586 32960 02514 10213 20133 40163 58008=
85586,2004,04,04,00,00,AAXX 04004 85586 31956 20000 10163 20131 40160 53008 70500 82030 333 10216 56060 82359=
85586,2004,04,04,06,00,AAXX 04064 85586 NIL=
85586,2004,04,04,12,00,AAXX 04124 85586 32460 30000 10108 20100 40141 56/// 83600 333 20089 31/// 50290 55109 56000 83710=
85586,2004,04,04,18,00,AAXX 04184 85586 32460 53110 10190 20141 40150 58009 83501 333 56706 83617 85075=
85586,2004,04,05,00,00,AAXX 05004 85586 32460 82402 10160 20145 40138 56003 885// 333 10192 56599 88610=
85586,2004,04,05,03,00,AAXX 05034 85586 NIL=
85586,2004,04,05,06,00,AAXX 05064 85586 NIL=
85586,2004,04,05,09,00,AAXX 05094 85586 NIL=
85586,2004,04,05,12,00,AAXX 05124 85586 32560 81202 10154 20132 40163 53/// 885// 333 20138 30/// 50210 50024 56099 88620=
85586,2004,04,05,15,00,AAXX 05154 85586 42560 83005 10186 20122 52014 885// 333 56699 88623=
85586,2004,04,05,18,00,AAXX 05184 85586 32560 72708 10196 20133 40177 54002 87500 333 56600 87623=
85586,2004,04,05,21,00,AAXX 05214 85586 42560 32804 10200 20119 40166 57011 83500 333 56600 83630=
85586,2004,04,06,00,00,AAXX 06004 85586 32560 70000 10170 20154 40178 52011 85539 333 10208 56069 85620 83363=
85586,2004,04,06,03,00,AAXX 06034 85586 NIL=
85586,2004,04,06,06,00,AAXX 06064 85586 NIL=
85586,2004,04,06,09,00,AAXX 06094 85586 NIL=
85586,2004,04,06,12,00,AAXX 06124 85586 32960 00905 10131 20119 40180 54/// 333 20104 30/// 50200 55032=
85586,2004,04,06,15,00,AAXX 06154 85586 42960 02808 10196 20137 40186 52008=
85586,2004,04,06,18,00,AAXX 06184 85586 32960 02414 10200 20149 40187 54001=
85586,2004,04,06,21,00,AAXX 06214 85586 42960 02513 10193 20165 40173 57015=
85586,2004,04,07,00,00,AAXX 07004 85586 32960 00000 10163 20138 40177 52004 333 10212=
85586,2004,04,07,03,00,AAXX 07034 85586 NIL=
85586,2004,04,07,06,00,AAXX 07064 85586 NIL=
85586,2004,04,07,09,00,AAXX 07094 85586 NIL=
85586,2004,04,07,12,00,AAXX 07124 85586 32960 01204 10143 20118 40149 57/// 333 20105 30/// 50230 55103=
85586,2004,04,07,15,00,AAXX 07154 85586 42960 01408 10224 20144 40152 53006=
85586,2004,04,07,18,00,AAXX 07184 85586 32960 02409 10218 20147 40146 58006=
85586,2004,04,07,21,00,AAXX 07214 85586 42960 02410 10219 20146 40133 57013=
85586,2004,04,08,00,00,AAXX 08004 85586 32960 00000 10171 20123 40150 52015 333 10256=
85586,2004,04,08,03,00,AAXX 08034 85586 NIL=
85586,2004,04,08,06,00,AAXX 08064 85586 NIL=
85586,2004,04,08,09,00,AAXX 08094 85586 NIL=
85586,2004,04,08,12,00,AAXX 08124 85586 32960 01707 10163 20093 40148 54/// 333 20128 30/// 50340 55108=
85586,2004,04,08,15,00,AAXX 08154 85586 42960 41812 10256 20116 40136 58009 80001 333 56006 84075=
85586,2004,04,08,18,00,AAXX 08184 85586 32960 62412 10231 20140 40123 57014 80001 333 56006 86075=
85586,2004,04,08,21,00,AAXX 08214 85586 42960 32308 10241 20141 40110 57013 80001 333 56006 83075=
85586,2004,04,09,00,00,AAXX 09004 85586 32960 00000 10176 20127 40125 53012 80001 333 10279 56006 82075=
85586,2004,04,09,03,00,AAXX 09034 85586 NIL=
85586,2004,04,09,06,00,AAXX 09064 85586 NIL=
85586,2004,04,09,09,00,AAXX 09094 85586 NIL=
85586,2004,04,09,12,00,AAXX 09124 85586 32960 60000 10127 20112 40149 52/// 81031 333 20099 30/// 50350 55105 56066 81362 85075=
85586,2004,04,09,15,00,AAXX 09154 85586 41958 62709 10172 20133 40158 51010 70511 82031 333 56066 82362 84075=
85586,2004,04,09,18,00,AAXX 09184 85586 31958 73105 10187 20141 40161 53003 70522 87030 333 56060 87359=
85586,2004,04,09,21,00,AAXX 09214 85586 41858 73007 10168 20143 40167 53006 70522 87030 333 56060 87358=
85586,2004,04,10,00,00,AAXX 10004 85586 31956 40706 10161 20132 40175 52011 70522 84030 333 10197 56060 84360=
85586,2004,04,10,03,00,AAXX 10034 85586 NIL=
85586,2004,04,10,06,00,AAXX 10064 85586 NIL=
85586,2004,04,10,09,00,AAXX 10094 85586 NIL=
85586,2004,04,10,12,00,AAXX 10124 85586 31920 30000 10096 20088 40167 57/// 7101/ 80001 333 20086 31/// 50250 55041 56006 83075=
85586,2004,04,10,15,00,AAXX 10154 85586 42960 02410 10184 20127 40162 56003=
85586,2004,04,10,18,00,AAXX 10184 85586 32960 02406 10206 20119 40139 57021=
85586,2004,04,10,21,00,AAXX 10214 85586 42960 43106 10180 20124 40129 57007 80001 333 56006 84075=
85586,2004,04,11,00,00,AAXX 11004 85586 32960 40000 10150 20126 40144 53014 80001 333 10208 56006 84075=
85586,2004,04,11,03,00,AAXX 11034 85586 NIL=
85586,2004,04,11,06,00,AAXX 11064 85586 NIL=
85586,2004,04,11,09,00,AAXX 11094 85586 NIL=
85586,2004,04,11,12,00,AAXX 11124 85586 32960 20000 10100 20092 40147 54/// 80001 333 20090 31/// 50270 55091 56006 82075=
85586,2004,04,11,15,00,AAXX 11154 85586 42960 32610 10202 20122 40138 57006 80001 333 56006 83075=
85586,2004,04,11,18,00,AAXX 11184 85586 31240 42410 10184 20145 40132 57007 70511 82601 333 56506 82705 84075=
85586,2004,04,11,21,00,AAXX 11214 85586 41104 83006 10164 20156 40139 53007 74642 886// 333 56699 88702=
85586,2004,04,12,00,00,AAXX 12004 85586 31102 80000 10158 20150 40142 54003 74644 886// 333 10200 56799 88703=
85586,2004,04,12,03,00,AAXX 12034 85586 NIL=
85586,2004,04,12,06,00,AAXX 12064 85586 NIL=
85586,2004,04,12,09,00,AAXX 12094 85586 NIL=
85586,2004,04,12,12,00,AAXX 12124 85586 31204 80000 10158 20148 40146 56/// 74644 886// 333 20154 31/// 50220 55060 56099 88702=
85586,2004,04,12,15,00,AAXX 12154 85586 41958 70000 10170 20154 40152 52007 70542 85031 333 56055 85363=
85586,2004,04,12,18,00,AAXX 12184 85586 31960 72305 10209 20149 40139 58011 85031 333 56055 85363=
85586,2004,04,12,21,00,AAXX 12214 85586 42960 80000 10186 20154 40138 57003 86031 333 56055 86363=
85586,2004,04,13,00,00,AAXX 13004 85586 32960 80000 10174 20166 40144 52016 8807/ 333 10224 56059 88363=
85586,2004,04,13,03,00,AAXX 13034 85586 NIL=
85586,2004,04,13,06,00,AAXX 13064 85586 NIL=
85586,2004,04,13,09,00,AAXX 13094 85586 NIL=
85586,2004,04,13,12,00,AAXX 13124 85586 32460 70000 10167 20157 40159 53/// 81171 333 20158 30/// 50150 55024 56055 81810 85363=
85586,2004,04,13,15,00,AAXX 13154 85586 41209 80000 10169 20165 40175 52016 74254 886// 333 56699 88706=
85586,2004,04,13,18,00,AAXX 13184 85586 11450 82406 10164 20154 40172 58003 60021 76054 8357/ 333 56669 83615 86363=
85586,2004,04,13,21,00,AAXX 13214 85586 41450 81605 10164 20157 40178 52006 78082 8417/ 333 56669 84815 85363=
85586,2004,04,14,00,00,AAXX 14004 85586 11540 80703 10151 20129 40181 52002 60041 76188 882// 333 10173 56799 88820=
85586,2004,04,14,03,00,AAXX 14034 85586 NIL=
85586,2004,04,14,06,00,AAXX 14064 85586 NIL=
85586,2004,04,14,09,00,AAXX 14094 85586 NIL=
85586,2004,04,14,12,00,AAXX 14124 85586 11956 52304 10141 20116 40178 53/// 60074 7052/ 85030 333 20136 31/// 50240 55000 56060 70072 85360=
85586,2004,04,14,15,00,AAXX 14154 85586 42960 22109 10183 20110 40178 50001 82030 333 56060 82360=
85586,2004,04,14,18,00,AAXX 14184 85586 32460 12514 10184 20117 40168 57010 81100 333 56700 81815=
85586,2004,04,14,21,00,AAXX 14214 85586 42960 02410 10183 20112 40161 56007=
85586,2004,04,15,00,00,AAXX 15004 85586 31956 21803 10135 20097 40173 53011 70500 80001 333 10205 56006 82075=
85586,2004,04,15,03,00,AAXX 15034 85586 NIL=
85586,2004,04,15,06,00,AAXX 15064 85586 NIL=
85586,2004,04,15,09,00,AAXX 15094 85586 NIL=
85586,2004,04,15,12,00,AAXX 15124 85586 31958 70000 10109 20085 40166 53/// 7052/ 87030 333 20089 31/// 50220 55093 56060 87360=
85586,2004,04,15,15,00,AAXX 15154 85586 41956 72305 10161 20078 40172 51007 70522 87030 333 56060 87360=
85586,2004,04,15,18,00,AAXX 15184 85586 31956 62410 10166 20093 40167 58005 70522 86030 333 56060 86360=
85586,2004,04,15,21,00,AAXX 15214 85586 41458 62209 10158 20081 40167 54000 70522 82530 333 56760 82615 84359=
85586,2004,04,16,00,00,AAXX 16004 85586 31940 20000 10134 20079 40186 52018 70511 82030 333 10175 56060 82360=
85586,2004,04,16,03,00,AAXX 16034 85586 NIL=
85586,2004,04,16,06,00,AAXX 16064 85586 NIL=
85586,2004,04,16,09,00,AAXX 16094 85586 NIL=
85586,2004,04,16,12,00,AAXX 16124 85586 32960 11904 10076 20070 40222 52/// 80001 333 20058 31/// 50240 55053 56006 81075=
85586,2004,04,16,15,00,AAXX 16154 85586 42960 11814 10184 20072 40220 54001 80001 333 56006 81075=
85586,2004,04,16,18,00,AAXX 16184 85586 32960 02414 10184 20104 40212 57008=
85586,2004,04,16,21,00,AAXX 16214 85586 42960 02408 10180 20107 40202 57010=
85586,2004,04,17,00,00,AAXX 17004 85586 32960 00000 10140 20110 40207 53004 333 10202=
85586,2004,04,17,03,00,AAXX 17034 85586 NIL=
85586,2004,04,17,06,00,AAXX 17064 85586 NIL=
85586,2004,04,17,09,00,AAXX 17094 85586 NIL=
85586,2004,04,17,12,00,AAXX 17124 85586 32960 00906 10116 20107 40200 54/// 333 20096 31/// 50290 55104=
85586,2004,04,17,15,00,AAXX 17154 85586 42960 02412 10178 20112 40205 52007=
85586,2004,04,17,18,00,AAXX 17184 85586 32960 02412 10170 20097 40193 57012=
85586,2004,04,17,21,00,AAXX 17214 85586 42960 12410 10168 20113 40192 54001 80001 333 56006 81075=
85586,2004,04,18,00,00,AAXX 18004 85586 32960 10804 10130 20103 40205 52011 80001 333 10182 56006 81075=
85586,2004,04,18,03,00,AAXX 18034 85586 NIL=
85586,2004,04,18,06,00,AAXX 18064 85586 NIL=
85586,2004,04,18,09,00,AAXX 18094 85586 NIL=
85586,2004,04,18,12,00,AAXX 18124 85586 32960 00000 10121 20101 40215 53/// 333 20076 30/// 50210 55102=
85586,2004,04,18,15,00,AAXX 18154 85586 42960 01409 10206 20130 40213 54001=
85586,2004,04,18,18,00,AAXX 18184 85586 32960 02312 10232 20106 40193 57020=
85586,2004,04,18,21,00,AAXX 18214 85586 42960 02409 10195 20119 40187 57006=
85586,2004,04,19,00,00,AAXX 19004 85586 32960 00000 10158 20089 40202 53013 333 10244=
85586,2004,04,19,03,00,AAXX 19034 85586 NIL=
85586,2004,04,19,06,00,AAXX 19064 85586 NIL=
85586,2004,04,19,09,00,AAXX 19094 85586 NIL=
85586,2004,04,19,12,00,AAXX 19124 85586 32960 10000 10061 20049 40185 54/// 80001 333 20048 30/// 50260 55105 56005 81073=
85586,2004,04,19,15,00,AAXX 19154 85586 42960 12407 10181 20123 40181 54001 80001 333 56005 81075=
85586,2004,04,19,18,00,AAXX 19184 85586 32960 22410 10167 20095 40166 57015 80001 333 56005 82073=
85586,2004,04,19,21,00,AAXX 19214 85586 42960 32409 10163 20105 40156 57010 80001 333 56005 83073=
85586,2004,04,20,00,00,AAXX 20004 85586 32960 30902 10120 20102 40162 53005 80001 333 10186 56005 83073=
85586,2004,04,20,03,00,AAXX 20034 85586 NIL=
85586,2004,04,20,06,00,AAXX 20064 85586 NIL=
85586,2004,04,20,09,00,AAXX 20094 85586 NIL=
85586,2004,04,20,12,00,AAXX 20124 85586 31958 62203 10068 20052 40147 57/// 7051/ 82031 333 20038 30/// 50210 55090 56066 82360 84075=
85586,2004,04,20,15,00,AAXX 20154 85586 41956 73203 10133 20078 40140 58005 70522 87030 333 56060 87359=
85586,2004,04,20,18,00,AAXX 20184 85586 31850 70204 10151 20068 40139 50001 70522 87030 333 56070 87358=
85586,2004,04,20,21,00,AAXX 20214 85586 41840 82803 10126 20085 40137 57002 70522 8807/ 333 56079 82357 86458=
85586,2004,04,21,00,00,AAXX 21004 85586 11740 80606 10114 20099 40139 53002 60021 76122 8802/ 333 10153 56079 88456=
85586,2004,04,21,03,00,AAXX 21034 85586 NIL=
85586,2004,04,21,06,00,AAXX 21064 85586 NIL=
85586,2004,04,21,09,00,AAXX 21094 85586 NIL=
85586,2004,04,21,12,00,AAXX 21124 85586 11620 80703 10126 20112 40146 51/// 60124 7616/ 8112/ 333 20109 32/// 50180 55015 56779 70124 81815 87440=
85586,2004,04,21,15,00,AAXX 21154 85586 41640 83004 10137 20123 40149 51003 76166=
85586,2004,04,21,18,00,AAXX 21184 85586 11556 73206 10142 20116 40136 57013 60031 70586 87200 333 56700 87825=
85586,2004,04,21,21,00,AAXX 21214 85586 41560 83307 10154 20102 40131 57005 70282 8212/ 333 56779 82820 86456=
85586,2004,04,22,00,00,AAXX 22004 85586 11540 83012 10124 20111 40139 52008 60091 78162 882// 333 10156 56899 88820=
85586,2004,04,22,03,00,AAXX 22034 85586 NIL=
85586,2004,04,22,06,00,AAXX 22064 85586 NIL=
85586,2004,04,22,09,00,AAXX 22094 85586 NIL=
85586,2004,04,22,12,00,AAXX 22124 85586 12460 61003 10090 20081 40177 52/// 60294 82231 333 20090 32/// 50150 55004 56066 70291 82815 83359 85075=
85586,2004,04,22,15,00,AAXX 22154 85586 42560 30000 10156 20083 40186 52011 81201 333 56006 81820 83075=
85586,2004,04,22,18,00,AAXX 22184 85586 32560 23110 10160 20091 40175 58011 81201 333 56706 81825=
85586,2004,04,22,21,00,AAXX 22214 85586 42560 22404 10160 20085 40176 54001 81201 333 56606 81825=
85586,2004,04,23,00,00,AAXX 23004 85586 32560 11204 10106 20092 40184 52007 81200 333 10162 56600 81820=
85586,2004,04,23,03,00,AAXX 23034 85586 NIL=
85586,2004,04,23,06,00,AAXX 23064 85586 NIL=
85586,2004,04,23,09,00,AAXX 23094 85586 NIL=
85586,2004,04,23,12,00,AAXX 23124 85586 32960 10904 10094 20078 40185 54/// 80001 333 20085 32/// 50210 55089 56006 81075=
85586,2004,04,23,15,00,AAXX 23154 85586 42960 12804 10174 20089 40190 52007 80001 333 56006 81075=
85586,2004,04,23,18,00,AAXX 23184 85586 32560 22808 10172 20085 40187 54002 81501 333 56606 81620=
85586,2004,04,23,21,00,AAXX 23214 85586 42960 42808 10170 20063 40194 52006 82032 333 56066 82365 83075=
85586,2004,04,24,00,00,AAXX 24004 85586 32960 50000 10128 20099 40204 52011 85030 333 10182 56060 85365=
85586,2004,04,24,09,00,AAXX 24094 85586 NIL=
85586,2004,04,24,12,00,AAXX 24124 85586 32960 60000 10101 20086 40216 53/// 82031 333 20096 31/// 50130 55103 56066 82362 84070=
85586,2004,04,24,15,00,AAXX 24154 85586 42960 50000 10181 20083 40222 52009 81031 333 56066 81363 84073=
85586,2004,04,24,18,00,AAXX 24184 85586 32560 42710 10185 20130 40222 54000 82101 333 56005 82827=
85586,2004,04,24,21,00,AAXX 24214 85586 42560 62705 10176 20132 40220 54002 82131 333 56055 82827=
85586,2004,04,25,00,00,AAXX 25004 85586 32960 30000 10115 20106 40222 54000 80001 333 10200 56005 83073=
85586,2004,04,25,03,00,AAXX 25034 85586 NIL=
85586,2004,04,25,06,00,AAXX 25064 85586 NIL=
85586,2004,04,25,09,00,AAXX 25094 85586 NIL=
85586,2004,04,25,12,00,AAXX 25124 85586 31560 60000 10108 20104 40199 57/// 7172/ 84931 333 20078 31/// 50150 55079 56666 82825 82930=
85586,2004,04,25,15,00,AAXX 25154 85586 41560 62305 10125 20121 40205 52006 72582 85201 333 56606 85825=
85586,2004,04,25,18,00,AAXX 25184 85586 11560 53105 10148 20117 40205 54001 69901 70282 85200 333 56600 85827=
85586,2004,04,25,21,00,AAXX 25214 85586 42560 32706 10155 20130 40200 57005 83200 333 56600 83827=
85586,2004,04,26,00,00,AAXX 26004 85586 32560 20000 10110 20096 40204 53003 82200 333 10166 56600 82827=
85586,2004,04,26,03,00,AAXX 26034 85586 NIL=
85586,2004,04,26,06,00,AAXX 26064 85586 NIL=
85586,2004,04,26,09,00,AAXX 26094 85586 NIL=
85586,2004,04,26,12,00,AAXX 26124 85586 11956 01204 10088 20078 40185 54/// 69904 7110/ 333 20064 31/// 50230 55047 70000=
85586,2004,04,26,15,00,AAXX 26154 85586 41960 02709 10161 20113 40176 58007 70240=
85586,2004,04,26,18,00,AAXX 26184 85586 32960 02314 10172 20113 40155 57021=
85586,2004,04,26,21,00,AAXX 26214 85586 42960 02806 10156 20120 40152 58003=
85586,2004,04,27,00,00,AAXX 27004 85586 31240 43107 10134 20110 40160 53007 70500 84600 333 10176 56700 84706=
85586,2004,04,27,03,00,AAXX 27034 85586 NIL=
85586,2004,04,27,06,00,AAXX 27064 85586 NIL=
85586,2004,04,27,09,00,AAXX 27094 85586 NIL=
85586,2004,04,27,12,00,AAXX 27124 85586 31540 80000 10134 20107 40178 53/// 7052/ 885// 333 20127 31/// 50180 55101 56799 88620=
85586,2004,04,27,15,00,AAXX 27154 85586 41556 83003 10149 20108 40182 51004 70522 885// 333 56799 88620=
85586,2004,04,27,18,00,AAXX 27184 85586 31456 72706 10167 20113 40171 58010 70522 87800 333 56700 81815 86625=
85586,2004,04,27,21,00,AAXX 27214 85586 41458 22306 10161 20098 40170 55001 70521 81830 333 56760 81815 81350=
85586,2004,04,28,00,00,AAXX 28004 85586 31656 50000 10137 20108 40181 53010 70521 85500 333 10179 56700 85625=
85586,2004,04,28,03,00,AAXX 28034 85586 NIL=
85586,2004,04,28,06,00,AAXX 28064 85586 NIL=
85586,2004,04,28,09,00,AAXX 28094 85586 NIL=
85586,2004,04,28,12,00,AAXX 28124 85586 31920 51204 10090 20082 40199 52/// 7102/ 84031 333 20082 31/// 50200 55032 56066 84362=
85586,2004,04,28,15,00,AAXX 28154 85586 42556 60603 10154 20091 40209 52011 70522 86500 333 56600 86630=
85586,2004,04,28,18,00,AAXX 28184 85586 31558 12410 10162 20088 40196 57012 70511 81500 333 56500 81630=
85586,2004,04,28,21,00,AAXX 28214 85586 41956 02804 10150 20121 40204 53012 70500=
85586,2004,04,29,00,00,AAXX 29004 85586 31915 00000 10106 20098 40227 52022 71000 333 10172=
85586,2004,04,29,03,00,AAXX 29034 85586 NIL=
85586,2004,04,29,06,00,AAXX 29064 85586 NIL=
85586,2004,04,29,09,00,AAXX 29094 85586 NIL=
85586,2004,04,29,12,00,AAXX 29124 85586 31558 71004 10111 20094 40259 52/// 7052/ 87500 333 20078 31/// 50110 55059 56600 87627=
85586,2004,04,29,15,00,AAXX 29154 85586 42960 01407 10171 20136 40260 52003=
85586,2004,04,29,18,00,AAXX 29184 85586 32960 01608 10199 20118 40243 58017=
85586,2004,04,29,21,00,AAXX 29214 85586 42960 02212 10170 20118 40226 57017=
85586,2004,04,30,00,00,AAXX 30004 85586 32960 00000 10120 20102 40235 52007 333 10210=
85586,2004,04,30,03,00,AAXX 30034 85586 NIL=
85586,2004,04,30,06,00,AAXX 30064 85586 NIL=
85586,2004,04,30,09,00,AAXX 30094 85586 NIL=
85586,2004,04,30,12,00,AAXX 30124 85586 32960 21805 10082 20074 40200 57/// 80001 333 20068 31/// 50140 55093 56005 82073=
85586,2004,04,30,15,00,AAXX 30154 85586 42960 02308 10166 20106 40192 57005=
85586,2004,04,30,18,00,AAXX 30184 85586 32960 32306 10153 20103 40172 57021 80001 333 56005 83073=
85586,2004,04,30,21,00,AAXX 30214 85586 42960 42407 10144 20100 40164 57008 80001 333 56005 84073=
85586,2004,05,01,00,00,AAXX 01004 85586 32960 10000 10093 20087 40169 53004 80001 333 10163 56005 81073=
85586,2004,05,01,03,00,AAXX 01034 85586 NIL=
85586,2004,05,01,06,00,AAXX 01064 85586 NIL=
85586,2004,05,01,09,00,AAXX 01094 85586 NIL=
85586,2004,05,01,12,00,AAXX 01124 85586 31956 21002 10043 20039 40148 57/// 7100/ 80001 333 20036 31/// 50150 55075 56005 82073=
85586,2004,05,01,15,00,AAXX 01154 85586 42960 01603 10153 20113 40147 54002=
85586,2004,05,01,18,00,AAXX 01184 85586 32960 02409 10150 20076 40138 57009=
85586,2004,05,01,21,00,AAXX 01214 85586 42960 02311 10161 20108 40130 57007=
85586,2004,05,02,00,00,AAXX 02004 85586 32960 00000 10111 20097 40151 52020 333 10169=
85586,2004,05,02,03,00,AAXX 02034 85586 NIL=
85586,2004,05,02,06,00,AAXX 02064 85586 NIL=
85586,2004,05,02,09,00,AAXX 02094 85586 NIL=
85586,2004,05,02,12,00,AAXX 02124 85586 31456 80000 10128 20108 40167 52/// 7052/ 885// 333 20071 31/// 50210 55098 56799 88612=
85586,2004,05,02,15,00,AAXX 02154 85586 41356 82604 10152 20126 40175 51008 70522 885// 333 56799 88607=
85586,2004,05,02,18,00,AAXX 02184 85586 32460 12507 10173 20118 40168 58006 81500 333 56700 81615=
85586,2004,05,03,00,00,AAXX 03004 85586 31956 00000 10102 20081 40179 52010 70500 333 10175=
85586,2004,05,03,03,00,AAXX 03034 85586 NIL=
85586,2004,05,03,06,00,AAXX 03064 85586 NIL=
85586,2004,05,03,09,00,AAXX 03094 85586 NIL=
85586,2004,05,03,12,00,AAXX 03124 85586 31956 00000 10054 20043 40183 52/// 7110/ 333 20046 31/// 50210 55047=
85586,2004,05,03,15,00,AAXX 03154 85586 41956 02306 10153 20107 40187 52006 70500=
85586,2004,05,03,18,00,AAXX 03184 85586 32960 42506 10166 20100 40180 58006 80001 333 56006 84075=
85586,2004,05,03,21,00,AAXX 03214 85586 42960 20000 10174 20086 40174 56006 80001 333 56006 82075=
85586,2004,05,04,00,00,AAXX 04004 85586 31958 30302 10091 20063 40172 57004 70511 80001 333 10176 56006 83075=
85586,2004,05,04,03,00,AAXX 04034 85586 NIL=
85586,2004,05,04,06,00,AAXX 04064 85586 NIL=
85586,2004,05,04,09,00,AAXX 04094 85586 NIL=
85586,2004,05,04,12,00,AAXX 04124 85586 32960 01204 10074 20064 40158 56/// 333 20066 31/// 50260 55099=
85586,2004,05,04,15,00,AAXX 04154 85586 42960 02404 10160 20093 40162 52007=
85586,2004,05,04,18,00,AAXX 04184 85586 31957 02804 10180 20099 40157 58005 70500=
85586,2004,05,04,21,00,AAXX 04214 85586 41956 00000 10154 20092 40161 54003 70500=
85586,2004,05,05,00,00,AAXX 05004 85586 31930 00000 10090 20078 40174 52012 71000 333 10182=
85586,2004,05,05,03,00,AAXX 05034 85586 NIL=
85586,2004,05,05,06,00,AAXX 05064 85586 NIL=
85586,2004,05,05,09,00,AAXX 05094 85586 NIL=
85586,2004,05,05,12,00,AAXX 05124 85586 31004 31205 10060 20051 40175 53/// 7460/ 886// 333 20038 31/// 50230 55091 56099 88701=
85586,2004,05,05,15,00,AAXX 05154 85586 41108 80000 10096 20088 40193 52018 74644 886// 333 56099 88703=
85586,2004,05,05,18,00,AAXX 05184 85586 31440 63110 10140 20098 40183 58008 70542 86500 333 56700 86610=
85586,2004,05,05,21,00,AAXX 05214 85586 41440 83106 10128 20103 40180 56003 70522 885// 333 56799 88612=
85586,2004,05,06,00,00,AAXX 06004 85586 31456 82404 10120 20100 40186 52006 70522 885// 333 10140 56099 88612=
85586,2004,05,06,03,00,AAXX 06034 85586 NIL=
85586,2004,05,06,06,00,AAXX 06064 85586 NIL=
85586,2004,05,06,09,00,AAXX 06094 85586 NIL=
85586,2004,05,06,12,00,AAXX 06124 85586 31120 80000 10103 20099 40180 53/// 7102/ 886// 333 20102 31/// 50180 55014 56799 88703=
85586,2004,05,06,15,00,AAXX 06154 85586 41130 80000 10106 20102 40196 52008 71022 886// 333 56799 88703=
85586,2004,05,06,18,00,AAXX 06184 85586 31230 82405 10114 20107 40197 54001 71022 886// 333 56799 88704=
85586,2004,05,06,21,00,AAXX 06214 85586 41230 82503 10108 20098 40197 54000 71022 886// 333 56799 88704=
85586,2004,05,07,00,00,AAXX 07004 85586 31130 80000 10106 20102 40203 52006 71022 886// 333 10114 56799 88703=
85586,2004,05,07,03,00,AAXX 07034 85586 NIL=
85586,2004,05,07,06,00,AAXX 07064 85586 NIL=
85586,2004,05,07,09,00,AAXX 07094 85586 NIL=
85586,2004,05,07,12,00,AAXX 07124 85586 31130 80000 10096 20092 40180 54/// 7102/ 886// 333 20095 31/// 50110 55000 56799 88703=
85586,2004,05,07,15,00,AAXX 07154 85586 41230 10905 10141 20116 40169 57010 70511 81600 333 56000 81705=
85586,2004,05,07,18,00,AAXX 07184 85586 31940 02309 10140 20104 40142 57027 70500=
85586,2004,05,07,21,00,AAXX 07214 85586 31950 02509 10137 20116 40137 57005 70500=
85586,2004,05,08,00,00,AAXX 08004 85586 31103 80000 10104 20100 40146 53008 74442 886// 333 10164 56799 88702=
85586,2004,05,08,03,00,AAXX 08034 85586 NIL=
85586,2004,05,08,06,00,AAXX 08064 85586 NIL=
85586,2004,05,08,09,00,AAXX 08094 85586 NIL=
85586,2004,05,08,12,00,AAXX 08124 85586 11106 80000 10109 20098 40162 52/// 69924 7424/ 886// 333 20093 31/// 50130 55069 56099 70002 88703=
85586,2004,05,08,15,00,AAXX 08154 85586 41204 83003 10114 20101 40162 50000 74644 886// 333 56799 88704=
85586,2004,05,08,18,00,AAXX 08184 85586 31220 83104 10118 20093 40158 58004 71044 886// 333 56799 88706=
85586,2004,05,08,21,00,AAXX 08214 85586 41330 83006 10122 20102 40166 53008 70544 886// 333 56799 88707=
85586,2004,05,09,00,00,AAXX 09004 85586 31440 83205 10123 20094 40170 51004 70522 885// 333 10124 56799 88612=
85586,2004,05,09,03,00,AAXX 09034 85586 NIL=
85586,2004,05,09,06,00,AAXX 09061 85586 31440 83205 10123 20094 40170 51004 70522 885// 333 10124 56799 88612=
85586,2004,05,09,09,00,AAXX 09094 85586 NIL=
85586,2004,05,09,12,00,AAXX 09124 85586 31440 80000 10114 20091 40185 52/// 7052/ 885// 333 20111 30/// 50170 55000 56799 88615=
85586,2004,05,09,15,00,AAXX 09154 85586 41456 80806 10132 20090 40191 51005 70522 885// 333 56799 88615=
85586,2004,05,09,18,00,AAXX 09184 85586 31458 83002 10151 20089 40183 58007 70522 888// 333 56799 81815 87620=
85586,2004,05,09,21,00,AAXX 09214 85586 41556 72705 10138 20096 40183 55000 70522 875// 333 56700 87620=
85586,2004,05,10,00,00,AAXX 10004 85586 31440 40000 10103 20080 40183 50001 70522 82530 333 10153 56760 82615=
85586,2004,05,10,03,00,AAXX 10034 85586 NIL=
85586,2004,05,10,06,00,AAXX 10064 85586 NIL=
85586,2004,05,10,09,00,AAXX 10094 85586 NIL=
85586,2004,05,10,12,00,AAXX 10124 85586 31540 80000 10110 20080 40176 56/// 7052/ 885// 333 20100 31/// 50200 55000 56099 88620=
85586,2004,05,10,15,00,AAXX 10154 85586 41540 81504 10130 20075 40170 53004 70522 885// 333 56099 88620=
85586,2004,05,10,18,00,AAXX 10184 85586 31556 82408 10140 20083 40160 57010 70522 885// 333 56099 88628=
85586,2004,05,10,21,00,AAXX 10214 85586 41956 72406 10132 20089 40154 56006 70522 80002 333 56006 87075=
85586,2004,05,11,00,00,AAXX 11004 85586 31930 50000 10086 20073 40164 52009 71022 80002 333 10144 56006 85075=
85586,2004,05,11,03,00,AAXX 11034 85586 NIL=
85586,2004,05,11,06,00,AAXX 11064 85586 NIL=
85586,2004,05,11,09,00,AAXX 11094 85586 NIL=
85586,2004,05,11,12,00,AAXX 11124 85586 31530 80000 10096 20088 40190 52/// 7102/ 885// 333 20040 31/// 50180 55017 56099 88620=
85586,2004,05,11,15,00,AAXX 11154 85586 41530 80000 10108 20095 40199 52010 71022 885// 333 56099 88623=
85586,2004,05,11,18,00,AAXX 11184 85586 31558 82510 10126 20092 40193 58006 70522 885// 333 56599 88627=
85586,2004,05,11,21,00,AAXX 11214 85586 41557 82504 10128 20073 40196 54003 70522 885// 333 56599 88627=
85586,2004,05,12,00,00,AAXX 12004 85586 31556 81806 10110 20076 40211 52014 70522 885// 333 10138 56099 88627=
85586,2004,05,12,03,00,AAXX 12034 85586 NIL=
85586,2004,05,12,06,00,AAXX 12064 85586 NIL=
85586,2004,05,12,09,00,AAXX 12094 85586 NIL=
85586,2004,05,12,12,00,AAXX 12124 85586 31957 00905 10038 20035 40222 53/// 7100/ 333 20021 34/// 50140 55000=
85586,2004,05,12,15,00,AAXX 12154 85586 41958 02708 10135 20089 40215 58003 70500=
85586,2004,05,12,18,00,AAXX 12184 85586 32960 02411 10140 20104 40192 57013=
85586,2004,05,12,21,00,AAXX 12214 85586 42960 02306 10129 20100 40183 57009=
85586,2004,05,13,00,00,AAXX 13004 85586 32960 00000 10072 20060 40200 53014 333 10152=
85586,2004,05,13,03,00,AAXX 13034 85586 NIL=
85586,2004,05,13,06,00,AAXX 13064 85586 NIL=
85586,2004,05,13,09,00,AAXX 13094 85586 NIL=
85586,2004,05,13,12,00,AAXX 13124 85586 31950 01102 10046 20042 40175 54/// 7100/ 333 20032 30/// 50150 55083=
85586,2004,05,13,15,00,AAXX 13154 85586 41957 01005 10139 20105 40167 57005 70500=
85586,2004,05,13,18,00,AAXX 13184 85586 31959 02411 10143 20108 40154 57014 70500=
85586,2004,05,13,21,00,AAXX 13214 85586 42960 02604 10145 20105 40145 57009=
85586,2004,05,14,00,00,AAXX 14004 85586 32960 00000 10069 20059 40148 54001 333 10176=
85586,2004,05,14,03,00,AAXX 14034 85586 NIL=
85586,2004,05,14,06,00,AAXX 14064 85586 NIL=
85586,2004,05,14,09,00,AAXX 14094 85586 NIL=
85586,2004,05,14,12,00,AAXX 14124 85586 32960 01204 10071 20035 40115 56/// 333 20049 30/// 50210 55087=
85586,2004,05,14,15,00,AAXX 14154 85586 41940 00000 10159 20076 40127 52014 70500=
85586,2004,05,14,18,00,AAXX 14184 85586 31940 02512 10167 20083 40109 58017 70522=
85586,2004,05,14,21,00,AAXX 14214 85586 41958 33003 10153 20103 40124 52014 70500 80001 333 56006 83075=
85586,2004,05,15,00,00,AAXX 15004 85586 31940 40000 10083 20059 40133 51008 70511 333 10225 56006 84075=
85586,2004,05,15,03,00,AAXX 15034 85586 NIL=
85586,2004,05,15,06,00,AAXX 15064 85586 NIL=
85586,2004,05,15,09,00,AAXX 15094 85586 NIL=
85586,2004,05,15,12,00,AAXX 15124 85586 31420 80000 10093 20075 40154 52/// 7052/ 885// 333 20053 30/// 50230 55096 56099 88612=
85586,2004,05,15,15,00,AAXX 15154 85586 41440 80000 10121 20081 40160 51007 70522 885// 333 56799 88612=
85586,2004,05,15,18,00,AAXX 15184 85586 31456 82505 10131 20080 40149 58011 70522 885// 333 56799 88612=
85586,2004,05,15,21,00,AAXX 15214 85586 41456 62604 10126 20083 40149 55000 70522 885// 333 56799 88615=
85586,2004,05,16,00,00,AAXX 16004 85586 31456 80000 10121 20082 40158 52009 70522 885// 333 10135 56799 88615=
85586,2004,05,16,03,00,AAXX 16034 85586 NIL=
85586,2004,05,16,06,00,AAXX 16064 85586 NIL=
85586,2004,05,16,09,00,AAXX 16094 85586 NIL=
85586,2004,05,16,12,00,AAXX 16124 85586 31430 80506 10106 20087 40180 52/// 7052/ 885// 333 20088 31/// 50180 55000 56099 88615=
85586,2004,05,16,15,00,AAXX 16154 85586 41430 80504 10120 20080 40200 52019 70522 885// 333 56099 88213=
85586,2004,05,16,18,00,AAXX 16184 85586 31440 83106 10132 20073 40195 58005 70522 885// 333 56099 88615=
85586,2004,05,16,21,00,AAXX 16214 85586 41550 82306 10128 20072 40193 56002 70522 885// 333 56099 88620=
85586,2004,05,17,00,00,AAXX 17004 85586 31550 40000 10088 20068 40199 54002 70522 84500 333 10132 56000 84623=
85586,2004,05,17,03,00,AAXX 17034 85586 NIL=
85586,2004,05,17,06,00,AAXX 17064 85586 NIL=
85586,2004,05,17,09,00,AAXX 17094 85586 NIL=
85586,2004,05,17,12,00,AAXX 17124 85586 31905 61004 10046 20040 40184 56/// 7464/ 80001 333 20028 31/// 50170 55000 56006 86075=
85586,2004,05,17,15,00,AAXX 17154 85586 41312 81204 10092 20077 40189 52006 71042 886// 333 56099 88707=
85586,2004,05,17,18,00,AAXX 17184 85586 31320 81204 10120 20083 40169 57019 70522 886// 333 56099 88709=
85586,2004,05,17,21,00,AAXX 17214 85586 41420 80000 10112 20083 40161 56008 70522 82602 333 56006 82713 86075=
85586,2004,05,18,00,00,AAXX 18004 85586 31920 80000 10092 20080 40161 54001 71022 80002 333 10124 56006 88072=
85586,2004,05,18,03,00,AAXX 18034 85586 NIL=
85586,2004,05,18,06,00,AAXX 18064 85586 NIL=
85586,2004,05,18,09,00,AAXX 18094 85586 NIL=
85586,2004,05,18,12,00,AAXX 18124 85586 31220 80000 10082 20074 40165 53/// 7102/ 85601 333 20073 30/// 50110 55000 56706 85706 84070=
85586,2004,05,18,15,00,AAXX 18154 85586 41220 70000 10125 20107 40171 52007 84630 333 56706 84706 83363=
85586,2004,05,18,18,00,AAXX 18184 85586 31940 72805 10138 20115 40158 58013 70522 85031 333 56066 85363=
85586,2004,05,18,21,00,AAXX 18214 85586 41950 53007 10136 20107 40163 53005 70522 85031 333 56066 85363=
85586,2004,05,19,00,00,AAXX 19004 85586 31950 83202 10125 20112 40177 52014 70522 8807/ 333 10150 56069 88363=
85586,2004,05,19,03,00,AAXX 19034 85586 NIL=
85586,2004,05,19,06,00,AAXX 19064 85586 NIL=
85586,2004,05,19,09,00,AAXX 19094 85586 NIL=
85586,2004,05,19,12,00,AAXX 19124 85586 31550 80602 10119 20103 40184 54/// 7052/ 885// 333 20112 30/// 50080 55009 56799 88625=
85586,2004,05,19,15,00,AAXX 19154 85586 42560 83307 10137 20091 40192 52008 885// 333 56799 88625=
85586,2004,05,19,18,00,AAXX 19184 85586 32560 63009 10169 20102 40190 54001 81501 333 56706 81627 85073=
85586,2004,05,19,21,00,AAXX 19214 85586 42560 73005 10138 20102 40174 57017 81501 333 56606 81827 86073=
85586,2004,05,20,00,00,AAXX 20004 85586 32960 80000 10113 20094 40180 52006 8802/ 333 10170 56069 88465=
85586,2004,05,20,03,00,AAXX 20034 85586 NIL=
85586,2004,05,20,06,00,AAXX 20064 85586 NIL=
85586,2004,05,20,09,00,AAXX 20094 85586 NIL=
85586,2004,05,20,12,00,AAXX 20124 85586 31458 83604 10141 20075 40205 52/// 7052/ 8252/ 333 20102 30/// 50190 55030 56769 82615 86440=
85586,2004,05,20,15,00,AAXX 20154 85586 41558 83107 10146 20093 40227 52022 78022 8322/ 333 56769 83820 85440=
85586,2004,05,20,18,00,AAXX 20184 85586 11540 83309 10129 20109 40229 50001 60071 76282 882// 333 56799 88820=
85586,2004,05,20,21,00,AAXX 20214 85586 41556 83307 10137 20113 40226 56002 70586 882// 333 56799 88820=
85586,2004,05,21,00,00,AAXX 21004 85586 11656 80607 10136 20105 40229 51003 60021 70562 8802/ 333 10153 56069 88440=
85586,2004,05,21,03,00,AAXX 21034 85586 NIL=
85586,2004,05,21,06,00,AAXX 21064 85586 NIL=
85586,2004,05,21,09,00,AAXX 21094 85586 NIL=
85586,2004,05,21,12,00,AAXX 21124 85586 11860 80406 10138 20094 40190 57/// 60104 7602/ 8802/ 333 20121 32/// 50180 55000 56069 70102 88458=
85586,2004,05,21,15,00,AAXX 21154 85586 41456 83506 10130 20109 40200 53009 76362 8282/ 333 56769 82815 86440=
85586,2004,05,21,18,00,AAXX 21184 85586 11660 70504 10136 20102 40187 58012 60101 78086 87800 333 56700 87825=
85586,2004,05,21,21,00,AAXX 21214 85586 41660 70709 10131 20090 40178 56009 78086 87800 333 56700 87825=
85586,2004,05,22,00,00,AAXX 22004 85586 11556 20909 10114 20074 40183 53005 69921 70581 82800 333 10142 56800 82825=
85586,2004,05,22,03,00,AAXX 22034 85586 NIL=
85586,2004,05,22,06,00,AAXX 22064 85586 NIL=
85586,2004,05,22,09,00,AAXX 22094 85586 NIL=
85586,2004,05,22,12,00,AAXX 22124 85586 12960 41208 10068 20058 40194 52/// 60114 80001 333 20068 32/// 50120 55006 56006 70107 84075=
85586,2004,05,22,15,00,AAXX 22154 85586 42960 21006 10146 20075 40194 54003 80001 333 56006 82075=
85586,2004,05,22,18,00,AAXX 22184 85586 NIL=
85586,2004,05,22,21,00,AAXX 22214 85586 42960 42406 10146 20102 40184 53004 80001 333 56006 84075=
85586,2004,05,23,00,00,AAXX 23004 85586 32960 40504 10096 20085 40199 52013 80001 333 10178 56006 84075=
85586,2004,05,23,03,00,AAXX 23034 85586 NIL=
85586,2004,05,23,06,00,AAXX 23064 85586 NIL=
85586,2004,05,23,09,00,AAXX 23094 85586 NIL=
85586,2004,05,23,12,00,AAXX 23124 85586 32960 21206 10060 20052 40216 52/// 80001 333 20060 32/// 50170 55088 56006 82075=
85586,2004,05,23,15,00,AAXX 23154 85586 42960 30902 10144 20094 40218 52005 80001 333 56006 83075=
85586,2004,05,23,18,00,AAXX 23184 85586 32960 32406 10150 20099 40210 57008 80001 333 56006 83075=
85586,2004,05,23,21,00,AAXX 23214 85586 42960 20000 10150 20093 40211 54001 80001 333 56006 82075=
85586,2004,05,24,00,00,AAXX 24004 85586 31908 10000 10084 20074 40224 52011 74611 80001 333 10164 56006 81075=
85586,2004,05,24,03,00,AAXX 24034 85586 NIL=
85586,2004,05,24,06,00,AAXX 24064 85586 NIL=
85586,2004,05,24,09,00,AAXX 24094 85586 NIL=
85586,2004,05,24,12,00,AAXX 24124 85586 31101 80000 10049 20045 40217 53/// 7444/ 886// 333 20032 31/// 50090 55092 56099 88702=
85586,2004,05,24,15,00,AAXX 24154 85586 41960 02303 10126 20111 40221 52006 70240=
85586,2004,05,24,18,00,AAXX 24184 85586 31960 02407 10133 20111 40215 58006 70240=
85586,2004,05,24,21,00,AAXX 24214 85586 42360 62803 10120 20109 40216 54001 86600 333 56700 86709=
85586,2004,05,25,00,00,AAXX 25004 85586 31140 80000 10104 20093 40219 54002 71022 886// 333 10156 56799 88703=
85586,2004,05,25,03,00,AAXX 25034 85586 NIL=
85586,2004,05,25,06,00,AAXX 25064 85586 NIL=
85586,2004,05,25,09,00,AAXX 25094 85586 NIL=
85586,2004,05,25,12,00,AAXX 25124 85586 31002 80000 10068 20064 40247 54/// 7444/ 886// 333 20068 31/// 50090 55071 56099 88701=
85586,2004,05,25,15,00,AAXX 25154 85586 41120 80905 10086 20082 40249 52003 71042 886// 333 56099 88703=
85586,2004,05,25,18,00,AAXX 25184 85586 31256 22805 10118 20090 40231 58017 70541 82600 333 56000 82704=
85586,2004,05,25,21,00,AAXX 25214 85586 41258 22305 10129 20106 40226 57005 70500 82600 333 56600 82705=
85586,2004,05,26,00,00,AAXX 26004 85586 31902 00704 10091 20089 40230 53003 74440 333 10138=
85586,2004,05,26,03,00,AAXX 26034 85586 NIL=
85586,2004,05,26,06,00,AAXX 26064 85586 NIL=
85586,2004,05,26,09,00,AAXX 26094 85586 NIL=
85586,2004,05,26,12,00,AAXX 26124 85586 31958 51205 10065 20042 40177 57/// 7050/ 80001 333 20029 31/// 50170 55060 56006 85075=
85586,2004,05,26,15,00,AAXX 26154 85586 41940 40000 10141 20096 40182 53007 70510 80001 333 56006 84075=
85586,2004,05,26,18,00,AAXX 26184 85586 32960 42505 10166 20100 40159 58022 80001 333 56006 84075=
85586,2004,05,26,21,00,AAXX 26214 85586 42960 60000 10153 20102 40154 56006 80001 333 56006 86075=
85586,2004,05,27,00,00,AAXX 27004 85586 31956 40000 10085 20064 40160 53005 70511 80001 333 10182 56006 84015=
85586,2004,05,27,03,00,AAXX 27034 85586 NIL=
85586,2004,05,27,06,00,AAXX 27064 85586 NIL=
85586,2004,05,27,09,00,AAXX 27094 85586 NIL=
85586,2004,05,27,12,00,AAXX 27124 85586 31420 80000 10096 20083 40200 52/// 7102/ 885// 333 20042 31/// 50170 55087 56099 88610=
85586,2004,05,27,15,00,AAXX 27154 85586 41430 80504 10112 20087 40222 52017 885// 333 56099 88613=
85586,2004,05,27,18,00,AAXX 27184 85586 31425 83106 10130 20083 40213 57008 888// 333 56799 82815 88625=
85586,2004,05,27,21,00,AAXX 27214 85586 41540 82804 10126 20103 40204 57014 70522 885// 333 56799 88623=
85586,2004,05,28,00,00,AAXX 28004 85586 31540 80000 10116 20085 40195 57009 70522 885// 333 10133 56799 88625=
85586,2004,05,28,03,00,AAXX 28034 85586 NIL=
85586,2004,05,28,06,00,AAXX 28064 85586 NIL=
85586,2004,05,28,09,00,AAXX 28094 85586 NIL=
85586,2004,05,28,12,00,AAXX 28124 85586 32560 80000 10111 20090 40199 54/// 885// 333 20108 31/// 50130 55002 56699 88623=
85586,2004,05,28,15,00,AAXX 28154 85586 42560 83605 10134 20081 40205 52006 82531 333 56666 82628 83365=
85586,2004,05,28,18,00,AAXX 28184 85586 32560 72808 10152 20056 40202 54002 81531 333 56666 81630 85365=
85586,2004,05,28,21,00,AAXX 28214 85586 42560 83106 10134 20090 40211 52008=
85586,2004,05,29,00,00,AAXX 29004 85586 NIL=
85586,2004,05,29,03,00,AAXX 29034 85586 NIL=
85586,2004,05,29,06,00,AAXX 29064 85586 NIL=
85586,2004,05,29,09,00,AAXX 29094 85586 NIL=
85586,2004,05,29,12,00,AAXX 29124 85586 31956 01204 10066 20048 40228 56/// 7050/ 333 20064 31/// 50210 55003=
85586,2004,05,29,15,00,AAXX 29154 85586 41956 11309 10144 20074 40228 50000 70500 80001 333 56006 81075=
85586,2004,05,29,18,00,AAXX 29184 85586 32960 51610 10186 20072 40201 57026 80001 333 56006 85075=
85586,2004,05,29,21,00,AAXX 29214 85586 41958 72406 10154 20090 40194 56008 70511 80001 333 56006 87075=
85586,2004,05,30,00,00,AAXX 30004 85586 NIL=
85586,2004,05,30,03,00,AAXX 30034 85586 NIL=
85586,2004,05,30,06,00,AAXX 30064 85586 NIL=
85586,2004,05,30,09,00,AAXX 30094 85586 NIL=
85586,2004,05,30,12,00,AAXX 30124 85586 31557 71203 10077 20071 40198 53/// 7102/ 81531 333 20068 31/// 50110 55081 56666 81625 84365=
85586,2004,05,30,15,00,AAXX 30154 85586 42660 70000 10130 20103 40204 52007 81531 333 56666 81640 85365=
85586,2004,05,30,18,00,AAXX 30184 85586 32960 62505 10150 20123 40192 57011 84031 333 56066 84365=
85586,2004,05,30,21,00,AAXX 30214 85586 42960 32402 10137 20110 40200 53008 83031 333 56066 83365=
85586,2004,05,31,00,00,AAXX 31004 85586 32960 30000 10074 20066 40214 52011 81031 333 10151 56066 81365=
85586,2004,05,31,03,00,AAXX 31034 85586 NIL=
85586,2004,05,31,06,00,AAXX 31064 85586 NIL=
85586,2004,05,31,12,00,AAXX 31124 85586 31958 70000 10084 20080 40218 53/// 7102/ 83031 333 20060 31/// 50110 55034 56066 83365 84073=
85586,2004,05,31,15,00,AAXX 31154 85586 41940 71203 10121 20092 40220 51003 70522 85031 333 56076 85365 82073=
85586,2004,05,31,18,00,AAXX 31184 85586 31957 72403 10157 20105 40200 57019 70522 83031 333 56066 83365 84073=
85586,2004,05,31,21,00,AAXX 31214 85586 41959 42409 10141 20122 40195 57005 70511 81031 333 56066 81365 83073=
85586,2004,06,01,00,00,AAXX 01004 85586 32960 11206 10091 20086 40204 53007 80001 333 10160 56006 81073=
85586,2004,06,01,03,00,AAXX 01034 85586 NIL=
85586,2004,06,01,06,00,AAXX 01064 85586 NIL=
85586,2004,06,01,09,00,AAXX 01094 85586 NIL=
85586,2004,06,01,12,00,AAXX 01124 85586 31908 21206 10051 20041 40191 53/// 7424/ 80001 333 20041 31/// 50150 55017 56006 82075=
85586,2004,06,01,15,00,AAXX 01154 85586 41920 02704 10123 20088 40193 51003 70544=
85586,2004,06,01,18,00,AAXX 01184 85586 31956 62505 10156 20108 40180 58011 70541 82031 333 56066 82365 84075=
85586,2004,06,01,21,00,AAXX 01214 85586 42960 32703 10153 20110 40170 57009 80001 333 56006 83075=
85586,2004,06,02,00,00,AAXX 02004 85586 31956 20000 10085 20067 40189 53009 70511 80001 333 10167 56006 82075=
85586,2004,06,02,03,00,AAXX 02034 85586 NIL=
85586,2004,06,02,06,00,AAXX 02064 85586 NIL=
85586,2004,06,02,09,00,AAXX 02094 85586 NIL=
85586,2004,06,02,12,00,AAXX 02124 85586 32960 70000 10081 20058 40184 50/// 7021/ 80001 333 20046 30/// 50160 55085 56006 87075=
85586,2004,06,02,15,00,AAXX 02154 85586 41940 40904 10152 20095 40184 54001 70511 80001 333 56006 84075=
85586,2004,06,02,18,00,AAXX 02184 85586 32960 52312 10174 20106 40160 57023 80001 333 56006 85075=
85586,2004,06,02,21,00,AAXX 02214 85586 42960 60000 10171 20113 40151 56009 80001 333 56006 86075=
85586,2004,06,03,00,00,AAXX 03004 85586 31956 70000 10108 20087 40169 53017 70522 80001 333 10213 56006 87075=
85586,2004,06,03,03,00,AAXX 03034 85586 NIL=
85586,2004,06,03,06,00,AAXX 03064 85586 NIL=
85586,2004,06,03,09,00,AAXX 03094 85586 NIL=
85586,2004,06,03,12,00,AAXX 03124 85586 31908 60000 10046 20040 40179 53/// 7462/ 80001 333 20040 31/// 50160 55089 56006 86075=
85586,2004,06,03,15,00,AAXX 03154 85586 41920 70000 10116 20087 40186 52009 70522 80001 333 56006 87075=
85586,2004,06,03,18,00,AAXX 03184 85586 31230 72706 10140 20112 40176 58010 70522 83601 333 56606 83706 87075=
85586,2004,06,03,21,00,AAXX 03214 85586 41930 73103 10138 20109 40168 57008 70542 80001 333 56006 87075=
85586,2004,06,04,00,00,AAXX 04004 85586 31102 80000 10102 20097 40176 53007 74642 886// 333 10144 56099 88703=
85586,2004,06,04,03,00,AAXX 04034 85586 NIL=
85586,2004,06,04,06,00,AAXX 04064 85586 NIL=
85586,2004,06,04,12,00,AAXX 04124 85586 31912 60000 10050 20044 40186 53/// 7102/ 80001 333 20046 31/// 50130 55060 56006 86075=
85586,2004,06,04,15,00,AAXX 04154 85586 41420 71604 10112 20092 40187 54003 70522 81501 333 56706 81610 87075=
85586,2004,06,04,18,00,AAXX 04184 85586 31456 72408 10144 20102 40184 54003 70522 83501 333 56506 83613 87075=
85586,2004,06,04,21,00,AAXX 04214 85586 41440 71710 10144 20098 40193 53009 70522 82501 333 56406 82618 87075=
85586,2004,06,05,00,00,AAXX 05004 85586 31920 71204 10076 20068 40219 52024 71022 80001 333 10158 56006 87075=
85586,2004,06,05,03,00,AAXX 05034 85586 NIL=
85586,2004,06,05,06,00,AAXX 05064 85586 NIL=
85586,2004,06,05,09,00,AAXX 05094 85586 NIL=
85586,2004,06,05,12,00,AAXX 05124 85586 31958 01305 10070 20064 40242 52/// 7100/ 333 20040 31/// 50130 55054=
85586,2004,06,05,15,00,AAXX 05154 85586 42960 01407 10127 20096 40246 52006=
85586,2004,06,05,18,00,AAXX 05184 85586 32960 01616 10167 20095 40218 57026=
85586,2004,06,05,21,00,AAXX 05214 85586 42960 01607 10161 20088 40217 54002=
85586,2004,06,06,00,00,AAXX 06004 85586 32960 11503 10114 20050 40233 52015 80001 333 10170 56005 81073=
85586,2004,06,06,03,00,AAXX 06034 85586 NIL=
85586,2004,06,06,06,00,AAXX 06064 85586 NIL=
85586,2004,06,06,09,00,AAXX 06094 85586 NIL=
85586,2004,06,06,12,00,AAXX 06124 85586 32960 01503 10055 20033 40232 54/// 333 20031 31/// 50150 55082=
85586,2004,06,06,15,00,AAXX 06154 85586 42960 01910 10105 20055 40229 54002=
85586,2004,06,06,18,00,AAXX 06184 85586 32960 01812 10142 20062 40208 57019=
85586,2004,06,06,21,00,AAXX 06214 85586 42960 01608 10135 20069 40204 57004=
85586,2004,06,07,00,00,AAXX 07004 85586 32960 01705 10076 20034 40210 53004 333 10148=
85586,2004,06,07,03,00,AAXX 07034 85586 NIL=
85586,2004,06,07,06,00,AAXX 07064 85586 NIL=
85586,2004,06,07,09,00,AAXX 07094 85586 NIL=
85586,2004,06,07,12,00,AAXX 07124 85586 32960 10804 10009 21008 40201 52/// 333 20001 34/// 50210 55094=
85586,2004,06,07,15,00,AAXX 07154 85586 42960 02303 10101 20042 40209 51011=
85586,2004,06,07,18,00,AAXX 07184 85586 32960 12606 10130 20062 40201 58007 80001 333 56006 81075=
85586,2004,06,07,21,00,AAXX 07214 85586 42960 40000 10142 20071 40204 53004 84030 333 56060 84365=
85586,2004,06,08,00,00,AAXX 08004 85586 31956 70000 10091 20057 40222 52016 70511 84031 333 10154 56066 84365 83075=
85586,2004,06,08,03,00,AAXX 08034 85586 NIL=
85586,2004,06,08,06,00,AAXX 08064 85586 NIL=
85586,2004,06,08,12,00,AAXX 08124 85586 31858 81104 10084 20050 40223 53/// 7052/ 8803/ 333 20068 30/// 50220 55093 56069 88358=
85586,2004,06,08,15,00,AAXX 08154 85586 41958 71903 10133 20066 40226 53004 70522 87030 333 56060 87362=
85586,2004,06,08,18,00,AAXX 08184 85586 32960 81603 10152 20081 40217 58008 8803/ 333 56069 88362=
85586,2004,06,08,21,00,AAXX 08214 85586 41958 82003 10142 20074 40214 53003 70522 8803/ 333 56069 88360=
85586,2004,06,09,00,00,AAXX 09004 85586 11940 60000 10113 20081 40207 56008 69901 70562 86030 333 10153 56060 86362=
85586,2004,06,09,03,00,AAXX 09034 85586 NIL=
85586,2004,06,09,06,00,AAXX 09064 85586 NIL=
85586,2004,06,09,09,00,AAXX 09094 85586 NIL=
85586,2004,06,09,12,00,AAXX 09124 85586 12560 80000 10127 20106 40166 57/// 69944 8453/ 333 20090 31/// 50120 55002 56079 70004 84620 88361=
85586,2004,06,09,15,00,AAXX 09154 85586 41420 82410 10114 20105 40177 53012 76262 8253/ 333 56579 82610 88359=
85586,2004,06,09,18,00,AAXX 09184 85586 11460 80810 10098 20088 40187 52008 60421 76066 8283/ 333 56379 82810 88359=
85586,2004,06,09,21,00,AAXX 09214 85586 41460 60610 10106 20064 40199 52012 70162 83830 333 56370 83815 84360=
85586,2004,06,10,00,00,AAXX 10004 85586 32460 61206 10084 20058 40228 52028 83230 333 10132 56360 83815 85360=
85586,2004,06,10,03,00,AAXX 10034 85586 NIL=
85586,2004,06,10,06,00,AAXX 10064 85586 NIL=
85586,2004,06,10,09,00,AAXX 10094 85586 NIL=
85586,2004,06,10,12,00,AAXX 10124 85586 12960 11208 10032 20023 40257 52/// 60424 80001 333 20032 32/// 50060 55004 56006 70417 81075=
85586,2004,06,10,15,00,AAXX 10154 85586 42960 20000 10092 20054 40266 52011 82030 333 56050 82363=
85586,2004,06,10,18,00,AAXX 10184 85586 32560 32206 10128 20073 40247 58018 83500 333 56500 83620=
85586,2004,06,10,21,00,AAXX 10214 85586 42560 21708 10126 20049 40251 54004 82500 333 56500 82620=
85586,2004,06,11,00,00,AAXX 11004 85586 32960 00000 10052 20039 40263 52010 333 10134=
85586,2004,06,11,03,00,AAXX 11034 85586 NIL=
85586,2004,06,11,06,00,AAXX 11064 85586 NIL=
85586,2004,06,11,09,00,AAXX 11094 85586 NIL=
85586,2004,06,11,12,00,AAXX 11124 85586 32960 01002 10032 20028 40261 54/// 333 20027 34/// 50090 55082=
85586,2004,06,11,15,00,AAXX 11154 85586 42960 01305 10095 20055 40260 52004=
85586,2004,06,11,18,00,AAXX 11184 85586 32960 02405 10154 20057 40247 57014=
85586,2004,06,11,21,00,AAXX 11214 85586 42960 02109 10121 20066 40230 57008=
85586,2004,06,12,00,00,AAXX 12004 85586 32960 00000 10068 20039 40244 54002 333 10160=
85586,2004,06,12,03,00,AAXX 12034 85586 NIL=
85586,2004,06,12,06,00,AAXX 12064 85586 NIL=
85586,2004,06,12,09,00,AAXX 12094 85586 NIL=
85586,2004,06,12,12,00,AAXX 12124 85586 32960 31203 10048 20025 40203 57/// 80001 333 20022 31/// 50080 55093 56005 83073=
85586,2004,06,12,15,00,AAXX 12154 85586 42960 41204 10083 20016 40198 57004 80001 333 56005 84073=
85586,2004,06,12,18,00,AAXX 12184 85586 32960 22703 10170 20070 40178 57017 80001 333 56005 82073=
85586,2004,06,12,21,00,AAXX 12214 85586 42960 12803 10156 20102 40165 57013 80001 333 56005 81073=
85586,2004,06,13,00,00,AAXX 13004 85586 32960 10000 10060 20050 40187 53009 80001 333 10186 56005 81073=
85586,2004,06,13,03,00,AAXX 13034 85586 NIL=
85586,2004,06,13,06,00,AAXX 13064 85586 NIL=
85586,2004,06,13,09,00,AAXX 13094 85586 NIL=
85586,2004,06,13,12,00,AAXX 13124 85586 31958 70000 10058 20040 40210 52/// 7051/ 87030 333 20034 31/// 50170 55064 56060 87362=
85586,2004,06,13,15,00,AAXX 13154 85586 41958 72907 10104 20069 40211 50002 70522 87030 333 56060 87362=
85586,2004,06,13,18,00,AAXX 13184 85586 31956 80204 10114 20080 40212 50002 70522 8803/ 333 56069 88362=
85586,2004,06,13,21,00,AAXX 13214 85586 41956 80503 10116 20085 40212 54000 70522 8803/ 333 56069 88362=
85586,2004,06,14,00,00,AAXX 14004 85586 31940 81003 10105 20084 40206 53004 70522 8803/ 333 10124 56079 88359=
85586,2004,06,14,03,00,AAXX 14034 85586 NIL=
85586,2004,06,14,06,00,AAXX 14064 85586 NIL=
85586,2004,06,14,09,00,AAXX 14094 85586 NIL=
85586,2004,06,14,12,00,AAXX 14124 85586 32960 80906 10102 20057 40208 57/// 8803/ 333 20081 31/// 50170 55001 56079 88357=
85586,2004,06,14,15,00,AAXX 14154 85586 42960 22305 10162 20066 40207 55001 81031 333 56077 81362=
85586,2004,06,14,18,00,AAXX 14184 85586 32960 71703 10201 20085 40175 57030 80001 333 56006 87075=
85586,2004,06,14,21,00,AAXX 14214 85586 42960 71805 10187 20076 40159 57017 80001 333 56006 87075=
85586,2004,06,15,00,00,AAXX 15004 85586 31940 22205 10121 20059 40163 53003 70511 80001 333 10204 56006 82075=
85586,2004,06,15,03,00,AAXX 15034 85586 NIL=
85586,2004,06,15,06,00,AAXX 15064 85586 NIL=
85586,2004,06,15,09,00,AAXX 15094 85586 NIL=
85586,2004,06,15,12,00,AAXX 15124 85586 32560 60000 10094 20066 40148 57/// 81532 333 20082 31/// 50160 55058 56066 81520 83363 85075=
85586,2004,06,15,15,00,AAXX 15154 85586 41958 80808 10128 20088 40151 53004 70522 85032 333 56066 85363 83075=
85586,2004,06,15,18,00,AAXX 15184 85586 31940 82402 10146 20105 40138 57013 70522 8803/ 333 56069 88363=
85586,2004,06,15,21,00,AAXX 15214 85586 41940 80000 10150 20119 40138 54000 70522 8803/ 333 56069 88362=
85586,2004,06,16,00,00,AAXX 16004 85586 31940 80504 10126 20115 40146 52008 70522 8803/ 333 10158 56069 88359=
85586,2004,06,16,03,00,AAXX 16034 85586 NIL=
85586,2004,06,16,06,00,AAXX 16064 85586 NIL=
85586,2004,06,16,09,00,AAXX 16094 85586 NIL=
85586,2004,06,16,12,00,AAXX 16124 85586 11530 80000 10114 20105 40176 52/// 69934 7052/ 8253/ 333 20114 31/// 50120 55000 56069 70003 82620 88360=
85586,2004,06,16,15,00,AAXX 16154 85586 41556 71506 10146 20117 40186 52010 70522 81532 333 56566 81630 83360 85075=
85586,2004,06,16,18,00,AAXX 16184 85586 31556 82406 10148 20113 40179 58007 70522 82532 333 56566 82630 84360 85075=
85586,2004,06,16,21,00,AAXX 16214 85586 42560 22406 10152 20113 40193 53014 81530 333 56560 81630=
85586,2004,06,17,00,00,AAXX 17004 85586 32960 01004 10096 20085 40195 54000 333 10174=
85586,2004,06,17,03,00,AAXX 17034 85586 NIL=
85586,2004,06,17,06,00,AAXX 17064 85586 NIL=
85586,2004,06,17,09,00,AAXX 17094 85586 NIL=
85586,2004,06,17,12,00,AAXX 17124 85586 32960 80806 10114 20101 40162 57/// 8803/ 333 20088 31/// 50140 55033 56069 88360=
85586,2004,06,17,15,00,AAXX 17154 85586 41940 82704 10134 20118 40171 52009 70522 8803/ 333 56069 88359=
85586,2004,06,17,18,00,AAXX 17184 85586 31940 73305 10164 20115 40163 58007 70522 83031 333 56066 83360 85075=
85586,2004,06,17,21,00,AAXX 17214 85586 41940 73104 10136 20116 40165 54001 81031 333 56066 81360 87075=
85586,2004,06,18,00,00,AAXX 18004 85586 NIL=
85586,2004,06,18,03,00,AAXX 18034 85586 NIL=
85586,2004,06,18,09,00,AAXX 18094 85586 NIL=
85586,2004,06,18,12,00,AAXX 18124 85586 NIL=
85586,2004,06,18,15,00,AAXX 18154 85586 41920 52605 10131 20124 40160 52008 71042 80001 333 56006 85073=
85586,2004,06,18,18,00,AAXX 18184 85586 31920 52406 10136 20114 40150 58010 70542 80001 333 56006 85075=
85586,2004,06,18,21,00,AAXX 18214 85586 41920 70000 10114 20108 40145 57005 71042 82021 333 56066 82463 85070=
85586,2004,06,19,00,00,AAXX 19004 85586 31/01 90000 10095 20091 40140 57006 74542 333 10162 89/01=
85586,2004,06,19,03,00,AAXX 19034 85586 NIL=
85586,2004,06,19,06,00,AAXX 19064 85586 NIL=
85586,2004,06,19,12,00,AAXX 19124 85586 31456 80403 10103 20086 40159 52/// 7052/ 8363/ 333 20083 31/// 50130 55032 56779 83615 85362=
85586,2004,06,19,15,00,AAXX 19154 85586 41456 80514 10142 20097 40177 51019 70522 8363/ 333 56879 83615 85362=
85586,2004,06,19,18,00,AAXX 19184 85586 32460 83410 10154 20102 40167 58010 8363/ 333 56879 83615 85359=
85586,2004,06,19,21,00,AAXX 19214 85586 41456 83414 10137 20113 40172 53005 76122 8322/ 333 56879 83815 85458=
85586,2004,06,20,00,00,AAXX 20004 85586 11540 83012 10132 20117 40188 51016 60091 76662 882// 333 10157 56899 88820=
85586,2004,06,20,06,00,AAXX 20064 85586 NIL=
85586,2004,06,20,09,00,AAXX 20094 85586 NIL=
85586,2004,06,20,12,00,AAXX 20124 85586 11540 80304 10122 20106 40237 52/// 60384 7608/ 882// 333 20117 32/// 50140 55000 56899 70380 88820=
85586,2004,06,20,15,00,AAXX 20154 85586 41540 70103 10130 20113 40252 52015 70588 87200 333 56700 87820=
85586,2004,06,20,18,00,AAXX 20184 85586 11560 32705 10156 20124 40247 58004 60021 70182 83100 333 56700 83820=
85586,2004,06,20,21,00,AAXX 20214 85586 42960 02406 10146 20109 40237 56010=
85586,2004,06,21,00,00,AAXX 21004 85586 31940 00000 10088 20074 40239 54000 70510 333 10165=
85586,2004,06,21,03,00,AAXX 21034 85586 NIL=
85586,2004,06,21,06,00,AAXX 21064 85586 NIL=
85586,2004,06,21,12,00,AAXX 21124 85586 11956 81206 10078 20068 40166 57/// 60024 7052/ 84032 333 20058 32/// 50120 55050 56066 70017 84360 86075=
85586,2004,06,21,15,00,AAXX 21154 85586 41958 80000 10100 20085 40172 53006 70522 85032 333 56066 85361 83075=
85586,2004,06,21,18,00,AAXX 21184 85586 31956 80000 10138 20090 40157 58014 70522 84032 333 56066 84362 85075=
85586,2004,06,21,21,00,AAXX 21214 85586 41940 80804 10122 20098 40148 57009 70522 83032 333 56066 83362 86075=
85586,2004,06,22,00,00,AAXX 22004 85586 31940 80000 10096 20084 40155 53006 70522 84032 333 10140 56066 84363 86075=
85586,2004,06,22,03,00,AAXX 22034 85586 NIL=
85586,2004,06,22,06,00,AAXX 22064 85586 NIL=
85586,2004,06,22,09,00,AAXX 22094 85586 NIL=
85586,2004,06,22,12,00,AAXX 22124 85586 11830 80000 10104 20093 40199 52/// 60014 7606/ 8802/ 333 20080 32/// 50100 55005 56079 70013 88458=
85586,2004,06,22,15,00,AAXX 22154 85586 41430 40707 10108 20104 40222 52004 76062 8452/ 333 56779 84615 88458=
85586,2004,06,22,18,00,AAXX 22184 85586 11460 80505 10136 20080 40216 58005 60031 70362 885// 333 56899 88617=
85586,2004,06,22,21,00,AAXX 22214 85586 42960 41704 10150 20099 40220 53004 81031 333 56066 81360 83075=
85586,2004,06,23,00,00,AAXX 23004 85586 32960 31804 10098 20087 40223 54001 80001 333 10152 56006 83075=
85586,2004,06,23,03,00,AAXX 23034 85586 NIL=
85586,2004,06,23,06,00,AAXX 23064 85586 NIL=
85586,2004,06,23,09,00,AAXX 23094 85586 NIL=
85586,2004,06,23,12,00,AAXX 23124 85586 12960 61204 10065 20059 40206 54/// 60034 81031 333 20060 31/// 50100 55018 56055 70027 81365 85073=
85586,2004,06,23,15,00,AAXX 23154 85586 42960 50000 10111 20098 40210 52006 80001 333 56005 85073=
85586,2004,06,23,18,00,AAXX 23184 85586 32960 42306 10151 20105 40190 57019 80001 333 56005 84073=
85586,2004,06,23,21,00,AAXX 23214 85586 42960 52504 10135 20108 40191 54001 80001 333 56005 85073=
85586,2004,06,24,00,00,AAXX 24004 85586 31950 60803 10093 20089 40198 52005 71022 82031 333 10155 56055 82365 84070=
85586,2004,06,24,03,00,AAXX 24034 85586 NIL=
85586,2004,06,24,06,00,AAXX 24064 85586 NIL=
85586,2004,06,24,09,00,AAXX 24094 85586 NIL=
85586,2004,06,24,12,00,AAXX 24124 85586 32960 70000 10063 20059 40192 53/// 83031 333 20061 31/// 50080 55060 56055 83465 84070=
85586,2004,06,24,15,00,AAXX 24154 85586 42960 70000 10100 20090 40189 54002 85031 333 56055 85365=
85586,2004,06,24,18,00,AAXX 24184 85586 32960 72407 10134 20109 40173 57015 85031 333 56055 85365=
85586,2004,06,24,21,00,AAXX 24214 85586 42960 72302 10123 20105 40173 54000 85031 333 56055 85365=
85586,2004,06,25,00,00,AAXX 25004 85586 32960 72203 10111 20099 40181 52008 85031 333 10136 56055 85365=
85586,2004,06,25,03,00,AAXX 25034 85586 NIL=
85586,2004,06,25,06,00,AAXX 25064 85586 NIL=
85586,2004,06,25,09,00,AAXX 25094 85586 NIL=
85586,2004,06,25,12,00,AAXX 25124 85586 11940 52303 10103 20086 40173 53/// 69914 7052/ 83031 333 20102 31/// 50140 55003 56066 70001 83362=
85586,2004,06,25,15,00,AAXX 25154 85586 41940 43004 10132 20099 40182 52010 70521 84030 333 56060 84362=
85586,2004,06,25,18,00,AAXX 25184 85586 31958 12412 10146 20102 40172 58010 70511 81030 333 56060 81362=
85586,2004,06,25,21,00,AAXX 25214 85586 41958 02706 10141 20109 40174 53002 70510=
85586,2004,06,26,00,00,AAXX 26004 85586 31240 80205 10123 20107 40191 52016 70521 886// 333 10166 56899 88704=
85586,2004,06,26,03,00,AAXX 26034 85586 NIL=
85586,2004,06,26,06,00,AAXX 26064 85586 NIL=
85586,2004,06,26,09,00,AAXX 26094 85586 NIL=
85586,2004,06,26,12,00,AAXX 26124 85586 11240 80905 10109 20095 40222 52/// 69914 7055/ 886// 333 20102 31/// 50130 55073 56799 70001 88706=
85586,2004,06,26,15,00,AAXX 26154 85586 41456 81006 10123 20097 40236 51014 70552 885// 333 56599 88610=
85586,2004,06,26,18,00,AAXX 26184 85586 31456 82303 10133 20099 40225 56011 70522 885// 333 56699 88612=
85586,2004,06,26,21,00,AAXX 26214 85586 41456 82503 10133 20103 40220 56005 70522 885// 333 56699 88615=
85586,2004,06,27,00,00,AAXX 27004 85586 31440 81205 10125 20092 40224 53004 70522 885// 333 10144 56799 88615=
85586,2004,06,27,03,00,AAXX 27034 85586 NIL=
85586,2004,06,27,06,00,AAXX 27064 85586 NIL=
85586,2004,06,27,09,00,AAXX 27094 85586 NIL=
85586,2004,06,27,12,00,AAXX 27124 85586 31330 81204 10100 20089 40224 54/// 7052/ 886// 333 20100 31/// 50090 55000 56099 88707=
85586,2004,06,27,15,00,AAXX 27154 85586 41440 71206 10106 20086 40231 52008 70522 85501 333 56306 85613 83075=
85586,2004,06,27,18,00,AAXX 27184 85586 31940 62410 10146 20098 40213 58017 70522 80001 333 56006 86075=
85586,2004,06,27,21,00,AAXX 27214 85586 42960 02106 10134 20109 40200 57014=
85586,2004,06,28,00,00,AAXX 28004 85586 32960 00000 10082 20072 40207 52011 333 10150=
85586,2004,06,28,03,00,AAXX 28034 85586 NIL=
85586,2004,06,28,06,00,AAXX 28064 85586 NIL=
85586,2004,06,28,09,00,AAXX 28094 85586 NIL=
85586,2004,06,28,12,00,AAXX 28124 85586 31002 80000 10080 20073 40175 56/// 7464/ 886// 333 20062 31/// 50130 55064 56099 88701=
85586,2004,06,28,15,00,AAXX 28154 85586 41208 80902 10100 20093 40179 54004 74644 886// 333 56099 88705=
85586,2004,06,28,18,00,AAXX 28184 85586 31456 80000 10112 20093 40165 57013 70522 885// 333 56099 88613=
85586,2004,06,28,21,00,AAXX 28214 85586 41440 80000 10116 20096 40166 54001 70522 885// 333 56099 88615=
85586,2004,06,29,00,00,AAXX 29004 85586 31556 60806 10110 20097 40171 53005 70522 86500 333 56200 86520=
85586,2004,06,29,03,00,AAXX 29034 85586 NIL=
85586,2004,06,29,06,00,AAXX 29064 85586 NIL=
85586,2004,06,29,09,00,AAXX 29094 85586 NIL=
85586,2004,06,29,12,00,AAXX 29124 85586 32560 31405 10081 20077 40199 52/// 83500 333 20080 31/// 50070 55000 56600 83625=
85586,2004,06,29,15,00,AAXX 29154 85586 42560 31308 10136 20092 40203 51006 83500 333 56600 83625=
85586,2004,06,29,18,00,AAXX 29184 85586 32560 31607 10161 20100 40183 58019 83500 333 56606 83625=
85586,2004,06,29,21,00,AAXX 29214 85586 42560 21807 10164 20100 40173 57010 81501 333 56606 81625=
85586,2004,06,30,00,00,AAXX 30004 85586 32960 01703 10103 20092 40182 53007 333 10166=
85586,2004,06,30,03,00,AAXX 30034 85586 NIL=
85586,2004,06,30,06,00,AAXX 30064 85586 NIL=
85586,2004,06,30,09,00,AAXX 30094 85586 NIL=
85586,2004,06,30,12,00,AAXX 30124 85586 32360 41702 10032 20027 40198 53/// 84600 333 20032 31/// 50120 55064 56700 84709=
85586,2004,06,30,15,00,AAXX 30154 85586 41956 00000 10118 20078 40200 51005 70511=
85586,2004,06,30,18,00,AAXX 30184 85586 32960 42510 10126 20064 40196 58004 82031 333 56066 82365=
85586,2004,06,30,21,00,AAXX 30214 85586 NIL=
85586,2004,07,01,00,00,AAXX 01004 85586 32960 32103 10071 20051 40215 52003 82031 333 10128 56066 82365=
85586,2004,07,01,03,00,AAXX 01034 85586 NIL=
85586,2004,07,01,06,00,AAXX 01064 85586 NIL=
85586,2004,07,01,09,00,AAXX 01094 85586 NIL=
85586,2004,07,01,12,00,AAXX 01124 85586 31956 01104 10037 20031 40204 55/// 7110/ 333 20031 31/// 50120 55080=
85586,2004,07,01,15,00,AAXX 01154 85586 41940 20903 10115 20079 40201 54000 70540 80001 333 56006 82075=
85586,2004,07,01,18,00,AAXX 01184 85586 32960 62305 10149 20056 40190 58010 80001 333 56006 86075=
85586,2004,07,01,21,00,AAXX 01214 85586 42960 62307 10152 20099 40172 57018 80001 333 56006 86075=
85586,2004,07,02,00,00,AAXX 02004 85586 31956 30000 10084 20067 40180 53007 70511 80001 333 10164 56006 83075=
85586,2004,07,02,03,00,AAXX 02034 85586 NIL=
85586,2004,07,02,06,00,AAXX 02064 85586 NIL=
85586,2004,07,02,09,00,AAXX 02094 85586 NIL=
85586,2004,07,02,12,00,AAXX 02124 85586 32960 31104 10056 20042 40228 52/// 80001 333 20039 31/// 50130 55092 56006 83075=
85586,2004,07,02,15,00,AAXX 02154 85586 42960 32412 10128 20083 40243 52017 80001 333 56006 83075=
85586,2004,07,02,18,00,AAXX 02184 85586 32960 42314 10148 20111 40230 58008 80001 333 56006 84075=
85586,2004,07,02,21,00,AAXX 02214 85586 42960 72309 10131 20109 40228 53003 80001 333 56006 87075=
85586,2004,07,03,00,00,AAXX 03004 85586 31220 82603 10116 20108 40241 52013 71021 886// 333 10164 56799 88706=
85586,2004,07,03,03,00,AAXX 03034 85586 NIL=
85586,2004,07,03,06,00,AAXX 03064 85586 NIL=
85586,2004,07,03,09,00,AAXX 03094 85586 NIL=
85586,2004,07,03,12,00,AAXX 03124 85586 31002 81006 10086 20081 40249 53/// 7464/ 886// 333 20066 31/// 50120 55081 56099 88701=
85586,2004,07,03,15,00,AAXX 03154 85586 41930 81304 10126 20103 40244 57004 70544 80001 333 56006 86075=
85586,2004,07,03,18,00,AAXX 03184 85586 32960 62406 10166 20117 40219 57023 80001 333 56006 86075=
85586,2004,07,03,21,00,AAXX 03214 85586 42960 72204 10160 20113 40216 56004 80001 333 56006 87075=
85586,2004,07,04,00,00,AAXX 04004 85586 32960 70000 10118 20107 40215 54002 80001 333 10178 56006 87075=
85586,2004,07,04,03,00,AAXX 04034 85586 NIL=
85586,2004,07,04,06,00,AAXX 04064 85586 NIL=
85586,2004,07,04,09,00,AAXX 04094 85586 NIL=
85586,2004,07,04,12,00,AAXX 04124 85586 32960 61204 10086 20078 40204 57/// 80001 333 20070 31/// 50130 55081 56006 86075=
85586,2004,07,04,15,00,AAXX 04154 85586 42960 01206 10154 20108 40214 52012=
85586,2004,07,04,18,00,AAXX 04184 85586 32960 01210 10200 20105 40184 58028=
85586,2004,07,04,21,00,AAXX 04214 85586 42960 01807 10190 20111 40186 54001=
85586,2004,07,05,00,00,AAXX 05004 85586 32960 02204 10142 20093 40190 54003 333 10204=
85586,2004,07,05,03,00,AAXX 05034 85586 NIL=
85586,2004,07,05,06,00,AAXX 05064 85586 NIL=
85586,2004,07,05,09,00,AAXX 05094 85586 NIL=
85586,2004,07,05,12,00,AAXX 05124 85586 32960 11004 10101 20086 40171 57/// 80001 333 20090 31/// 50130 55093 56006 81075=
85586,2004,07,05,15,00,AAXX 05154 85586 42960 11004 10168 20101 40176 52007 80001 333 56006 81075=
85586,2004,07,05,18,00,AAXX 05184 85586 32960 01208 10196 20094 40164 58011=
85586,2004,07,05,21,00,AAXX 05214 85586 NIL=
85586,2004,07,06,00,00,AAXX 06004 85586 32960 00000 10128 20093 40166 53003 333 10204=
85586,2004,07,06,03,00,AAXX 06034 85586 NIL=
85586,2004,07,06,06,00,AAXX 06064 85586 NIL=
85586,2004,07,06,09,00,AAXX 06094 85586 NIL=
85586,2004,07,06,12,00,AAXX 06124 85586 32960 51704 10070 20062 40187 52/// 80001 333 20058 31/// 50160 55093 56006 85075=
85586,2004,07,06,15,00,AAXX 06154 85586 42960 42410 10122 20087 40204 52018 80001 333 56006 84075=
85586,2004,07,06,18,00,AAXX 06184 85586 32960 62604 10160 20101 40193 58009 80001 333 56006 86075=
85586,2004,07,06,21,00,AAXX 06214 85586 NIL=
85586,2004,07,07,00,00,AAXX 07004 85586 32960 40000 10104 20097 40206 52010 80001 333 10168 56006 84075=
85586,2004,07,07,03,00,AAXX 07034 85586 NIL=
85586,2004,07,07,06,00,AAXX 07064 85586 NIL=
85586,2004,07,07,09,00,AAXX 07094 85586 NIL=
85586,2004,07,07,12,00,AAXX 07124 85586 32960 51604 10084 20029 40221 53/// 83031 333 20078 31/// 50140 55075 56066 83365=
85586,2004,07,07,15,00,AAXX 07154 85586 42960 21010 10139 20038 40221 50002 80001 333 56006 82075=
85586,2004,07,07,18,00,AAXX 07184 85586 32960 41410 10172 20020 40210 51010 80001 333 56006 84075=
85586,2004,07,07,21,00,AAXX 07214 85586 NIL=
85586,2004,07,08,00,00,AAXX 08004 85586 NIL=
85586,2004,07,08,03,00,AAXX 08034 85586 NIL=
85586,2004,07,08,06,00,AAXX 08064 85586 NIL=
85586,2004,07,08,09,00,AAXX 08094 85586 NIL=
85586,2004,07,08,12,00,AAXX 08124 85586 32960 61506 10063 20022 40213 57/// 80001 333 20048 31/// 50150 55082 56006 86075=
85586,2004,07,08,15,00,AAXX 08154 85586 42960 41409 10124 20042 40211 55000 80001 333 56006 84075=
85586,2004,07,08,18,00,AAXX 08184 85586 32960 71606 10169 20036 40185 57024 80001 333 56006 87075=
85586,2004,07,08,21,00,AAXX 08214 85586 42960 52204 10131 20073 40184 56002 80001 333 56006 85075=
85586,2004,07,09,00,00,AAXX 09004 85586 31956 61807 10088 20025 40188 51003 70511 80001 333 10171 56006 86075=
85586,2004,07,09,03,00,AAXX 09034 85586 NIL=
85586,2004,07,09,06,00,AAXX 09064 85586 NIL=
85586,2004,07,09,09,00,AAXX 09094 85586 NIL=
85586,2004,07,09,12,00,AAXX 09124 85586 32960 60000 10040 20028 40204 52/// 82031 333 20040 31/// 50130 55079 56066 82361 85075=
85586,2004,07,09,15,00,AAXX 09154 85586 42960 50000 10108 20052 40214 52013 82031 333 56066 82363 83075=
85586,2004,07,09,18,00,AAXX 09184 85586 32960 51505 10150 20095 40201 58012 82031 333 56066 82362 83075=
85586,2004,07,09,21,00,AAXX 09214 85586 42960 22107 10146 20095 40197 57004 81031 333 56066 81363=
85586,2004,07,10,00,00,AAXX 10004 85586 32960 11504 10076 20063 40211 52012 80001 333 10154 56006 81075=
85586,2004,07,10,03,00,AAXX 10034 85586 NIL=
85586,2004,07,10,06,00,AAXX 10064 85586 NIL=
85586,2004,07,10,09,00,AAXX 10094 85586 NIL=
85586,2004,07,10,12,00,AAXX 10124 85586 32960 61207 10046 20034 40181 56/// 80001 333 20040 31/// 50100 55052 56006 86075=
85586,2004,07,10,15,00,AAXX 10154 85586 42960 70000 10114 20047 40172 56007 80002 333 56006 87075=
85586,2004,07,10,18,00,AAXX 10184 85586 31956 72806 10154 20048 40155 57017 70522 80002 333 56006 87075=
85586,2004,07,10,21,00,AAXX 10214 85586 42960 70000 10130 20075 40151 56004 80001 333 56006 87075=
85586,2004,07,11,00,00,AAXX 11004 85586 32960 60000 10058 20048 40153 54000 80001 333 10156 56006 86075=
85586,2004,07,11,03,00,AAXX 11034 85586 NIL=
85586,2004,07,11,06,00,AAXX 11064 85586 NIL=
85586,2004,07,11,09,00,AAXX 11094 85586 NIL=
85586,2004,07,11,12,00,AAXX 11124 85586 31956 40905 10049 20045 40160 53/// 7100/ 83031 333 20026 31/// 50120 55073 56066 83364=
85586,2004,07,11,15,00,AAXX 11154 85586 42560 80000 10095 20085 40177 52014 885// 333 56699 88623=
85586,2004,07,11,18,00,AAXX 11184 85586 32560 80307 10121 20081 40160 58016 885// 333 56699 88623=
85586,2004,07,11,21,00,AAXX 11214 85586 42560 83303 10118 20090 40158 54002=
85586,2004,07,12,00,00,AAXX 12004 85586 32560 80505 10107 20089 40161 52003 8453/ 333 10122 56669 84625 85365=
85586,2004,07,12,03,00,AAXX 12034 85586 NIL=
85586,2004,07,12,06,00,AAXX 12064 85586 NIL=
85586,2004,07,12,09,00,AAXX 12094 85586 NIL=
85586,2004,07,12,12,00,AAXX 12124 85586 32560 80204 10114 20090 40146 54/// 8552/ 333 20097 31/// 50100 55001 56669 85625 83462=
85586,2004,07,12,15,00,AAXX 12154 85586 42560 80216 10133 20096 40148 54002 8353/ 333 56669 83625 86363=
85586,2004,07,12,18,00,AAXX 12184 85586 32560 83608 10146 20091 40127 57021 8353/ 333 56669 83625 86363=
85586,2004,07,12,21,00,AAXX 12214 85586 42560 83510 10124 20106 40125 54002 8352/ 333 56779 83623 86462=
85586,2004,07,13,00,00,AAXX 13004 85586 32560 83417 10120 20102 40118 53003 8252/ 333 10146 56779 82625 88462=
85586,2004,07,13,03,00,AAXX 13034 85586 NIL=
85586,2004,07,13,06,00,AAXX 13064 85586 NIL=
85586,2004,07,13,09,00,AAXX 13094 85586 NIL=
85586,2004,07,13,12,00,AAXX 13124 85586 11540 83610 10113 20104 40155 52/// 60294 7628/ 882// 333 20109 32/// 50120 55000 56799 70292 88820=
85586,2004,07,13,15,00,AAXX 13154 85586 41556 73603 10114 20101 40175 52020 78086 87200 333 56700 87820=
85586,2004,07,13,18,00,AAXX 13184 85586 11556 83603 10129 20102 40177 58002 60061 70586 882// 333 56799 88820=
85586,2004,07,13,21,00,AAXX 13214 85586 41556 63407 10117 20095 40183 53006 70588 86200 333 56700 86825=
85586,2004,07,14,00,00,AAXX 14004 85586 11940 70000 10101 20076 40203 51018 69921 82031 333 10131 56066 82362 85075=
85586,2004,07,14,03,00,AAXX 14034 85586 NIL=
85586,2004,07,14,06,00,AAXX 14064 85586 NIL=
85586,2004,07,14,09,00,AAXX 14094 85586 NIL=
85586,2004,07,14,12,00,AAXX 14124 85586 12960 11105 10070 20060 40222 52/// 60144 80001 333 20068 32/// 50110 55001 56006 70140 81075=
85586,2004,07,14,15,00,AAXX 14154 85586 42460 10903 10112 20088 40233 52011 81100 333 56700 81815=
85586,2004,07,14,18,00,AAXX 14184 85586 32560 22004 10136 20072 40219 58013 82100 333 56600 82820=
85586,2004,07,14,21,00,AAXX 14214 85586 42960 12410 10118 20067 40221 55001 81030 333 56070 81362=
85586,2004,07,15,00,00,AAXX 15004 85586 31956 00000 10054 20037 40235 52012 70500 333 10137=
85586,2004,07,15,03,00,AAXX 15034 85586 NIL=
85586,2004,07,15,06,00,AAXX 15064 85586 NIL=
85586,2004,07,15,09,00,AAXX 15094 85586 NIL=
85586,2004,07,15,12,00,AAXX 15124 85586 32960 00906 10026 20018 40231 56/// 333 20012 31/// 50120 55094=
85586,2004,07,15,15,00,AAXX 15154 85586 42960 01204 10104 20056 40238 52010=
85586,2004,07,15,18,00,AAXX 15184 85586 32560 12710 10128 20073 40222 57016 81500 333 56600 81620=
85586,2004,07,15,21,00,AAXX 15214 85586 42960 11804 10136 20014 40218 56003 80001 333 56006 81075=
85586,2004,07,16,00,00,AAXX 16004 85586 32960 40000 10050 20035 40233 52012 80001 333 10148 56006 84075=
85586,2004,07,16,03,00,AAXX 16034 85586 NIL=
85586,2004,07,16,06,00,AAXX 16064 85586 NIL=
85586,2004,07,16,09,00,AAXX 16094 85586 NIL=
85586,2004,07,16,12,00,AAXX 16124 85586 32960 61204 10036 20024 40220 56/// 80001 333 20030 31/// 50130 55093 56006 86075=
85586,2004,07,16,15,00,AAXX 16154 85586 42956 60904 10080 20051 40215 56003 80001 333 56006 86075=
85586,2004,07,16,18,00,AAXX 16184 85586 31958 61006 10128 20053 40194 57020 70522 83032 333 56066 83365 85075=
85586,2004,07,16,21,00,AAXX 16214 85586 41958 71804 10138 20052 40179 57014 70522 85032 333 56066 85365=
85586,2004,07,17,00,00,AAXX 17004 85586 31958 81704 10082 20070 40183 53003 70522 8803/ 333 10146 56069 88365=
85586,2004,07,17,03,00,AAXX 17034 85586 NIL=
85586,2004,07,17,06,00,AAXX 17064 85586 NIL=
85586,2004,07,17,09,00,AAXX 17094 85586 NIL=
85586,2004,07,17,12,00,AAXX 17124 85586 31957 71003 10036 20029 40184 53/// 7101/ 80001 333 20034 31/// 50100 55033 56006 84073=
85586,2004,07,17,15,00,AAXX 17154 85586 41958 52403 10110 20084 40191 52009 70522 80001 333 56006 85073=
85586,2004,07,17,18,00,AAXX 17184 85586 31958 62805 10117 20085 40192 54001 70522 80001 333 56006 86073=
85586,2004,07,17,21,00,AAXX 17214 85586 42960 62405 10121 20075 40185 57006 80001 333 56006 86073=
85586,2004,07,18,00,00,AAXX 18004 85586 32960 40000 10073 20067 40188 54001 80001 333 10130 56006 84073=
85586,2004,07,18,06,00,AAXX 18064 85586 NIL=
85586,2004,07,18,12,00,AAXX 18124 85586 31956 51205 10051 20047 40180 53/// 7102/ 80001 333 20036 31/// 50090 55055 56006 85073=
85586,2004,07,18,15,00,AAXX 18154 85586 41958 30000 10116 20097 40183 52005 70511 80001 333 56006 83073=
85586,2004,07,18,18,00,AAXX 18184 85586 31959 32704 10143 20099 40177 58006 70500 80001 333 56006 83073=
85586,2004,07,18,21,00,AAXX 18214 85586 42960 63106 10126 20108 40194 52016 80001 333 56006 83073=
85586,2004,07,19,00,00,AAXX 19004 85586 32960 60000 10101 20095 40203 52008 80001 333 10151 56006 86073=
85586,2004,07,19,03,00,AAXX 19034 85586 NIL=
85586,2004,07,19,06,00,AAXX 19064 85586 NIL=
85586,2004,07,19,09,00,AAXX 19094 85586 NIL=
85586,2004,07,19,12,00,AAXX 19124 85586 11760 80907 10106 20098 40198 52/// 69984 7622/ 8802/ 333 20087 32/// 51010 55050 56079 70008 88456=
85586,2004,07,19,15,00,AAXX 19154 85586 41960 21305 10134 20107 40196 50002 70162 82030 333 56070 82358=
85586,2004,07,19,18,00,AAXX 19184 85586 11560 62606 10164 20113 40165 57029 69951 70361 333 56607 81820 85075=
85586,2004,07,19,21,00,AAXX 19214 85586 42860 22312 10132 20107 40152 56014 82030 333 56070 82358=
85586,2004,07,20,00,00,AAXX 20004 85586 31203 80000 10109 20101 40151 50001 74711 886// 333 10169 56899 88704=
85586,2004,07,20,03,00,AAXX 20034 85586 NIL=
85586,2004,07,20,06,00,AAXX 20064 85586 NIL=
85586,2004,07,20,09,00,AAXX 20094 85586 NIL=
85586,2004,07,20,12,00,AAXX 20124 85586 11958 81106 10112 20066 40085 57/// 69954 7052/ 83031 333 20091 32/// 50120 55075 56076 70005 83365 85075=
85586,2004,07,20,15,00,AAXX 20154 85586 41958 83604 10140 20066 40106 52021 70522 82031 333 56076 82365 86075=
85586,2004,07,20,18,00,AAXX 20184 85586 31558 33618 10161 20084 40128 51023 70522 83200 333 56800 83820=
85586,2004,07,20,21,00,AAXX 20214 85586 41558 83310 10141 20107 40131 55002 78022 882// 333 56899 88820=
85586,2004,07,21,00,00,AAXX 21004 85586 11440 83615 10118 20107 40151 52020 60161 76382 882// 333 10162 56899 88815=
85586,2004,07,21,03,00,AAXX 21034 85586 NIL=
85586,2004,07,21,06,00,AAXX 21064 85586 NIL=
85586,2004,07,21,09,00,AAXX 21094 85586 NIL=
85586,2004,07,21,12,00,AAXX 21124 85586 11458 80412 10102 20083 40167 52/// 60404 7606/ 8323/ 333 20102 33/// 50040 55025 56179 70404 83815 88360=
85586,2004,07,21,15,00,AAXX 21154 85586 NIL=
85586,2004,07,21,18,00,AAXX 21184 85586 12560 43606 10156 20063 40190 51007 69921 83502 333 56806 83625=
85586,2004,07,21,21,00,AAXX 21214 85586 42560 83612 10136 20057 40200 52010 8453/ 333 56879 84625 88362=
85586,2004,07,22,00,00,AAXX 22004 85586 32560 80204 10124 20070 40217 51006 8253/ 333 10156 56179 82625 88360=
85586,2004,07,22,03,00,AAXX 22034 85586 NIL=
85586,2004,07,22,06,00,AAXX 22064 85586 NIL=
85586,2004,07,22,09,00,AAXX 22094 85586 NIL=
85586,2004,07,22,12,00,AAXX 22124 85586 12560 80904 10100 20067 40171 57/// 69924 8653/ 333 10100 32/// 50060 55023 56779 70002 86625 85360=
85586,2004,07,22,15,00,AAXX 22154 85586 42560 80604 10112 20070 40165 57005 838// 333 56799 83823 86625=
85586,2004,07,22,18,00,AAXX 22184 85586 32560 80406 10130 20069 40147 57020 8653/ 333 56779 86625 83360=
85586,2004,07,22,21,00,AAXX 22214 85586 42560 83606 10136 20032 40147 54000 8253/ 333 56779 82625 88360=
85586,2004,07,23,00,00,AAXX 23004 85586 11560 83602 10110 20080 40157 53010 69981 76022 93239 333 10142 56779 83820 88358=
85586,2004,07,23,03,00,AAXX 23034 85586 NIL=
85586,2004,07,23,06,00,AAXX 23064 85586 NIL=
85586,2004,07,23,09,00,AAXX 23094 85586 NIL=
85586,2004,07,23,12,00,AAXX 23124 85586 11560 60204 10106 20095 40215 52/// 60104 7016/ 82530 333 20100 32/// 50080 55000 56860 70100 82620 85360=
85586,2004,07,23,15,00,AAXX 23154 85586 42560 63506 10136 20094 40227 52013 83230 333 56870 83820 86360=
85586,2004,07,23,18,00,AAXX 23184 85586 NIL=
85586,2004,07,23,21,00,AAXX 23214 85586 42560 22606 10134 20111 40207 54002 82200 333 56700 82820=
85586,2004,07,24,00,00,AAXX 24004 85586 32960 60000 10088 20078 40203 57006 80001 333 10154 56006 86075=
85586,2004,07,24,03,00,AAXX 24034 85586 NIL=
85586,2004,07,24,06,00,AAXX 24064 85586 NIL=
85586,2004,07,24,09,00,AAXX 24094 85586 NIL=
85586,2004,07,24,12,00,AAXX 24124 85586 32960 71003 10072 20068 40147 53/// 8803/ 333 20064 31/// 50070 55064 56069 88363=
85586,2004,07,24,15,00,AAXX 24154 85586 42960 63104 10129 20116 40153 52008 84031 333 56066 84365=
85586,2004,07,24,18,00,AAXX 24184 85586 32460 73108 10126 20102 40143 57010 85530 333 56760 85615=
85586,2004,07,24,21,00,AAXX 24214 85586 42460 73005 10123 20105 40138 57005 81531 333 56766 81615 85365=
85586,2004,07,25,00,00,AAXX 25004 85586 32960 70403 10106 20095 40137 54001 87030 333 10132 56060 87365=
85586,2004,07,25,03,00,AAXX 25034 85586 NIL=
85586,2004,07,25,06,00,AAXX 25064 85586 NIL=
85586,2004,07,25,09,00,AAXX 25094 85586 NIL=
85586,2004,07,25,12,00,AAXX 25124 85586 32460 80207 10127 20077 40142 52/// 8113/ 333 20103 31/// 50110 55013 56879 81815 87362=
85586,2004,07,25,15,00,AAXX 25154 85586 41458 83507 10138 20072 40155 52013 70522 8213/ 333 56879 82815 86362=
85586,2004,07,25,18,00,AAXX 25184 85586 11840 83603 10114 20103 40160 51005 60081 76162 8802/ 333 56079 88457=
85586,2004,07,25,21,00,AAXX 25214 85586 41540 83603 10114 20101 40170 52010 76166 8222/ 333 56879 82820 86457=
85586,2004,07,26,00,00,AAXX 26004 85586 11740 80000 10104 20093 40185 52014 60251 76566 8802/ 333 10141 56079 88556=
85586,2004,07,26,03,00,AAXX 26034 85586 NIL=
85586,2004,07,26,06,00,AAXX 26064 85586 NIL=
85586,2004,07,26,09,00,AAXX 26094 85586 NIL=
85586,2004,07,26,12,00,AAXX 26124 85586 12560 80903 10107 20082 40181 53/// 60424 8113/ 333 20098 32/// 50120 55000 56879 70425 81820 87362=
85586,2004,07,26,15,00,AAXX 26154 85586 41958 81303 10118 20092 40192 52010 70522 8803/ 333 56079 88362=
85586,2004,07,26,18,00,AAXX 26184 85586 31958 80303 10152 20087 40179 57012 70522 8803/ 333 56079 88362=
85586,2004,07,26,21,00,AAXX 26214 85586 41956 82203 10140 20100 40169 57010 70522 8803/ 333 56079 88362=
85586,2004,07,27,00,00,AAXX 27004 85586 11540 82406 10120 20103 40185 53016 69931 78022 882// 333 10155 56799 88820=
85586,2004,07,27,03,00,AAXX 27034 85586 NIL=
85586,2004,07,27,06,00,AAXX 27064 85586 NIL=
85586,2004,07,27,09,00,AAXX 27094 85586 NIL=
85586,2004,07,27,12,00,AAXX 27124 85586 11560 73602 10105 20101 40190 53/// 60094 82570 333 20102 32/// 50040 55013 56770 70086 85820=
85586,2004,07,27,15,00,AAXX 27154 85586 41460 70705 10108 20100 40204 52014 82800 333 56700 82818 85622=
85586,2004,07,27,18,00,AAXX 27184 85586 11560 83302 10119 20092 40204 54000 69981 70262 885// 333 56799 88625=
85586,2004,07,27,21,00,AAXX 27214 85586 42560 83206 10116 20086 40231 52027 885// 333 56799 88623=
85586,2004,07,28,00,00,AAXX 28004 85586 32560 83303 10116 20097 40257 52026 885// 333 10125 56799 88623=
85586,2004,07,28,03,00,AAXX 28034 85586 NIL=
85586,2004,07,28,06,00,AAXX 28064 85586 NIL=
85586,2004,07,28,09,00,AAXX 28094 85586 NIL=
85586,2004,07,28,12,00,AAXX 28124 85586 12960 11207 10072 20068 40287 52/// 60054 80001 333 20069 31/// 50090 55000 56005 70051 81073=
85586,2004,07,28,15,00,AAXX 28154 85586 42960 11509 10125 20103 40288 52003 80001 333 56005 81073=
85586,2004,07,28,18,00,AAXX 28184 85586 32565 21509 10156 20074 40270 58017 81130 333 56050 81825=
85586,2004,07,28,21,00,AAXX 28214 85586 42965 01610 10148 20097 40264 57006=
85586,2004,07,29,00,00,AAXX 29004 85586 32960 00000 10080 20060 40268 54002 333 10160=
85586,2004,07,29,03,00,AAXX 29034 85586 NIL=
85586,2004,07,29,06,00,AAXX 29064 85586 NIL=
85586,2004,07,29,09,00,AAXX 29094 85586 NIL=
85586,2004,07,29,12,00,AAXX 29124 85586 32960 01206 10047 20043 40247 54/// 333 20045 31/// 50070 55090=
85586,2004,07,29,15,00,AAXX 29154 85586 42960 01308 10118 20074 40242 57003=
85586,2004,07,29,18,00,AAXX 29184 85586 32960 02705 10148 20094 40220 57021=
85586,2004,07,29,21,00,AAXX 29214 85586 42960 01307 10162 20075 40203 57017=
85586,2004,07,30,00,00,AAXX 30004 85586 32960 00000 10080 20060 40194 57011 333 10168=
85586,2004,07,30,03,00,AAXX 30034 85586 NIL=
85586,2004,07,30,06,00,AAXX 30064 85586 NIL=
85586,2004,07,30,09,00,AAXX 30094 85586 NIL=
85586,2004,07,30,12,00,AAXX 30124 85586 32960 01104 10020 20015 40171 57/// 333 20020 31/// 50090 55098=
85586,2004,07,30,15,00,AAXX 30154 85586 42960 01702 10133 20069 40178 52010=
85586,2004,07,30,18,00,AAXX 30184 85586 32960 02306 10135 20091 40170 57008=
85586,2004,07,30,21,00,AAXX 30214 85586 42960 12305 10130 20093 40166 57004 80001 333 56005 81075=
85586,2004,07,31,00,00,AAXX 31004 85586 32960 30000 10076 20064 40170 53003 80001 333 10148 56005 83075=
85586,2004,07,31,03,00,AAXX 31034 85586 NIL=
85586,2004,07,31,06,00,AAXX 31064 85586 NIL=
85586,2004,07,31,09,00,AAXX 31094 85586 NIL=
85586,2004,07,31,12,00,AAXX 31124 85586 31206 81004 10061 20055 40159 53/// 7444/ 886// 333 20054 31/// 50120 55091 56099 88704=
85586,2004,07,31,15,00,AAXX 31154 85586 41208 80903 10087 20080 40160 51002 74444 886// 333 56799 88705=
85586,2004,07,31,18,00,AAXX 31184 85586 31340 82705 10104 20087 40150 57010 70544 886// 333 56799 88708=
85586,2004,07,31,21,00,AAXX 31214 85586 41330 83209 10105 20082 40147 56002 70542 886// 333 56799 88707=
85586,2004,08,01,00,00,AAXX 01004 85586 31456 83304 10109 20081 40158 51011 70522 885// 333 10110 56799 88615=
85586,2004,08,01,03,00,AAXX 01034 85586 NIL=
85586,2004,08,01,06,00,AAXX 01064 85586 NIL=
85586,2004,08,01,09,00,AAXX 01094 85586 NIL=
85586,2004,08,01,12,00,AAXX 01124 85586 31556 80404 10109 20076 40154 50/// 7052/ 885// 333 20101 31/// 50090 55000 56799 88620=
85586,2004,08,01,15,00,AAXX 01154 85586 41556 83303 10116 20084 40147 57007 70522 885// 333 56799 88625=
85586,2004,08,01,18,00,AAXX 01184 85586 31458 83207 10128 20087 40124 57023 70522 888// 333 56799 81815 87625=
85586,2004,08,01,21,00,AAXX 01214 85586 41458 82904 10124 20080 40121 56003 70522 888// 333 56799 83815 85625=
85586,2004,08,02,00,00,AAXX 02004 85586 31540 83510 10121 20086 40129 51008 70522 885// 333 10131 56799 88625=
85586,2004,08,02,03,00,AAXX 02034 85586 NIL=
85586,2004,08,02,06,00,AAXX 02064 85586 NIL=
85586,2004,08,02,09,00,AAXX 02094 85586 NIL=
85586,2004,08,02,12,00,AAXX 02124 85586 11556 80604 10098 20091 40117 57/// 60074 7616/ 8253/ 333 20098 32/// 50060 55002 56179 70074 82530 88358=
85586,2004,08,02,15,00,AAXX 02154 85586 41540 80906 10098 20091 40122 53007 76166 8473/ 333 56179 84720 88358=
85586,2004,08,02,18,00,AAXX 02184 85586 11530 83620 10114 20101 40117 58006 60281 76166 8523/ 333 56879 85820 88358=
85586,2004,08,02,21,00,AAXX 02214 85586 41558 80108 10108 20092 40125 52011 76066 8273/ 333 56179 82720 88359=
85586,2004,08,03,00,00,AAXX 03004 85586 11858 80206 10098 20083 40152 52026 60341 76066 8802/ 333 10116 56079 88457=
85586,2004,08,03,03,00,AAXX 03034 85586 NIL=
85586,2004,08,03,06,00,AAXX 03064 85586 NIL=
85586,2004,08,03,09,00,AAXX 03094 85586 NIL=
85586,2004,08,03,12,00,AAXX 03124 85586 12560 70610 10086 20054 40165 53/// 60644 7016/ 85530 333 20086 32/// 50030 55000 56770 70638 85630=
85586,2004,08,03,15,00,AAXX 03154 85586 42560 70415 10126 20056 40166 54002 83231 333 56776 83825 85360=
85586,2004,08,03,18,00,AAXX 03184 85586 32560 83606 10134 20059 40149 57017 8323/ 333 56779 83820 88360=
85586,2004,08,03,21,00,AAXX 03214 85586 41540 83518 10106 20089 40163 53014 76062=
85586,2004,08,04,00,00,AAXX 04004 85586 11540 83106 10087 20072 40194 52029 60101 76166 8523/ 333 10137 56779 85820 88357=
85586,2004,08,04,03,00,AAXX 04034 85586 NIL=
85586,2004,08,04,06,00,AAXX 04064 85586 NIL=
85586,2004,08,04,09,00,AAXX 04094 85586 NIL=
85586,2004,08,04,12,00,AAXX 04124 85586 11559 70608 10078 20074 40231 52/// 60234 7606/ 85420 333 20078 32/// 50030 55008 56770 70233 85620=
85586,2004,08,04,15,00,AAXX 04154 85586 42560 40307 10113 20089 40240 52010 84200 333 56000 84820=
85586,2004,08,04,18,00,AAXX 04184 85586 32560 43107 10140 20094 40239 54000 84200 333 56000 84822=
85586,2004,08,04,21,00,AAXX 04214 85586 42560 50207 10135 20096 40244 52005 83201 333 56006 83823=
85586,2004,08,05,00,00,AAXX 05004 85586 32560 50805 10104 20084 40262 52016 85200 333 10148 56000 85823=
85586,2004,08,05,06,00,AAXX 05064 85586 NIL=
85586,2004,08,05,09,00,AAXX 05094 85586 NIL=
85586,2004,08,05,12,00,AAXX 05124 85586 12960 11107 10062 20058 40286 54/// 60054 80001 333 20060 31/// 50070 55067 56005 70049 81075=
85586,2004,08,05,15,00,AAXX 05154 85586 42970 01405 10127 20057 40281 56003=
85586,2004,08,05,18,00,AAXX 05184 85586 NIL=
85586,2004,08,05,21,00,AAXX 05214 85586 NIL=
85586,2004,08,06,00,00,AAXX 06004 85586 32960 01703 10094 20086 40273 52009 333 10148=
85586,2004,08,06,03,00,AAXX 06034 85586 NIL=
85586,2004,08,06,06,00,AAXX 06064 85586 NIL=
85586,2004,08,06,09,00,AAXX 06094 85586 NIL=
85586,2004,08,06,12,00,AAXX 06124 85586 32970 01704 10051 20031 40245 56/// 333 20048 31/// 50120 55089=
85586,2004,08,06,15,00,AAXX 06154 85586 42970 01210 10132 20050 40245 51002=
85586,2004,08,06,18,00,AAXX 06184 85586 32980 01710 10175 20055 40217 57026=
85586,2004,08,06,21,00,AAXX 06214 85586 42980 01707 10183 20059 40199 57018=
85586,2004,08,07,00,00,AAXX 07004 85586 31956 43103 10114 20094 40132 53003 70511 80001 333 10227 56007 84075=
85586,2004,08,07,03,00,AAXX 07034 85586 NIL=
85586,2004,08,07,06,00,AAXX 07064 85586 NIL=
85586,2004,08,07,09,00,AAXX 07094 85586 NIL=
85586,2004,08,07,12,00,AAXX 07124 85586 32980 00915 10089 20005 40121 57/// 333 20036 31/// 50160 55103=
85586,2004,08,07,15,00,AAXX 07154 85586 42980 00812 10204 20025 40111 56007=
85586,2004,08,07,18,00,AAXX 07184 85586 32970 12714 10163 20099 40126 52014 80001 333 56007 81075=
85586,2004,08,07,21,00,AAXX 07214 85586 42960 63014 10137 20103 40129 53002 80001 333 56007 86075=
85586,2004,08,08,00,00,AAXX 08004 85586 NIL=
85586,2004,08,08,03,00,AAXX 08034 85586 NIL=
85586,2004,08,08,06,00,AAXX 08064 85586 NIL=
85586,2004,08,08,09,00,AAXX 08094 85586 NIL=
85586,2004,08,08,12,00,AAXX 08124 85586 32560 80604 10108 20095 40144 53/// 885// 333 20088 31/// 50120 55102 56099 88625=
85586,2004,08,08,15,00,AAXX 08154 85586 41556 80000 10120 20096 40163 52019 70522 885// 333 56099 88620=
85586,2004,08,08,18,00,AAXX 08184 85586 31556 83604 10130 20096 40156 58007 70522 885// 333 56099 88625=
85586,2004,08,08,21,00,AAXX 08214 85586 41556 80000 10132 20098 40155 54001 70522 885// 333 56099 88625=
85586,2004,08,09,00,00,AAXX 09004 85586 32560 81004 10120 20098 40154 54001 885// 333 10140 56099 88620=
85586,2004,08,09,03,00,AAXX 09034 85586 NIL=
85586,2004,08,09,06,00,AAXX 09064 85586 NIL=
85586,2004,08,09,09,00,AAXX 09094 85586 NIL=
85586,2004,08,09,12,00,AAXX 09124 85586 31540 80906 10108 20083 40185 52/// 7052/ 885// 333 20108 31/// 50007 55000 56099 88625=
85586,2004,08,09,15,00,AAXX 09154 85586 41540 80904 10122 20093 40201 52016 70522 885// 333 56099 88625=
85586,2004,08,09,18,00,AAXX 09184 85586 31556 81004 10136 20086 40195 58006 70522 885// 333 56099 88630=
85586,2004,08,09,21,00,AAXX 09214 85586 41556 81006 10130 20087 40191 56004 70522 885// 333 56099 88627=
85586,2004,08,10,00,00,AAXX 10004 85586 31556 50908 10118 20082 40193 54002 70522 85500 333 10140 56200 85627=
85586,2004,08,10,03,00,AAXX 10034 85586 NIL=
85586,2004,08,10,06,00,AAXX 10064 85586 NIL=
85586,2004,08,10,09,00,AAXX 10094 85586 NIL=
85586,2004,08,10,12,00,AAXX 10124 85586 32960 60905 10082 20078 40193 53/// 86070 333 20065 31/// 50090 55000 56060 86363=
85586,2004,08,10,15,00,AAXX 10154 85586 42960 53203 10113 20089 40186 58005 85030 333 56060 85363=
85586,2004,08,10,18,00,AAXX 10184 85586 32560 82805 10144 20102 40179 57007 81100 333 56000 81830=
85586,2004,08,10,21,00,AAXX 10214 85586 42560 13603 10147 20104 40181 54002 81500 333 56000 81630=
85586,2004,08,11,00,00,AAXX 11004 85586 32960 10000 10088 20078 40185 53003 81030 333 10150 56060 81363=
85586,2004,08,11,03,00,AAXX 11034 85586 NIL=
85586,2004,08,11,06,00,AAXX 11064 85586 NIL=
85586,2004,08,11,09,00,AAXX 11094 85586 NIL=
85586,2004,08,11,12,00,AAXX 11124 85586 32560 30903 10066 20062 40206 52/// 81531 333 20057 31/// 50110 55068 56666 81630=
85586,2004,08,11,15,00,AAXX 11154 85586 42660 33605 10154 20074 40211 52008 82101 333 56006 82835=
85586,2004,08,11,18,00,AAXX 11184 85586 32660 33011 10170 20114 40211 54001 83100 333 56000 83835=
85586,2004,08,11,21,00,AAXX 11214 85586 42560 43009 10141 20113 40219 52007 84100 333 56000 84833=
85586,2004,08,12,00,00,AAXX 12004 85586 32960 00000 10108 20098 40221 54001 333 10173=
85586,2004,08,12,03,00,AAXX 12034 85586 NIL=
85586,2004,08,12,06,00,AAXX 12064 85586 NIL=
85586,2004,08,12,09,00,AAXX 12094 85586 NIL=
85586,2004,08,12,12,00,AAXX 12124 85586 31940 41303 10039 20028 40184 53/// 7051/ 80001 333 20034 31/// 50140 55078 56006 84075=
85586,2004,08,12,15,00,AAXX 12154 85586 41956 22805 10122 20088 40187 51006 70510 80001 333 56007 82075=
85586,2004,08,12,18,00,AAXX 12184 85586 31956 32604 10153 20085 40170 57017 70500 80001 333 56007 83075=
85586,2004,08,12,21,00,AAXX 12214 85586 41458 42510 10132 20103 40162 56008 70511 84500 333 56700 84615=
85586,2004,08,13,00,00,AAXX 13004 85586 31440 82603 10116 20094 40165 53003 70522 885// 333 10154 56799 88615=
85586,2004,08,13,03,00,AAXX 13034 85586 NIL=
85586,2004,08,13,06,00,AAXX 13064 85586 NIL=
85586,2004,08,13,09,00,AAXX 13094 85586 NIL=
85586,2004,08,13,12,00,AAXX 13124 85586 31456 20000 10061 20042 40177 52/// 7051/ 81501 333 20058 31/// 50120 55086 56807 81615=
85586,2004,08,13,15,00,AAXX 13154 85586 41458 83304 10128 20079 40196 52020 70521 8113/ 333 56879 81815 87362=
85586,2004,08,13,18,00,AAXX 13184 85586 31558 63012 10144 20085 40185 58010 70522 83130 333 56870 83820 83362=
85586,2004,08,13,21,00,AAXX 13214 85586 42560 73209 10133 20082 40182 53003 81130 333 56870 81820 87359=
85586,2004,08,14,00,00,AAXX 14004 85586 31658 83603 10126 20085 40189 53007 70522 885// 333 10153 56899 88625=
85586,2004,08,14,03,00,AAXX 14034 85586 NIL=
85586,2004,08,14,06,00,AAXX 14064 85586 NIL=
85586,2004,08,14,09,00,AAXX 14094 85586 NIL=
85586,2004,08,14,12,00,AAXX 14124 85586 32560 80000 10096 20083 40186 53/// 8223/ 333 20094 31/// 50100 55023 56069 82820 88360=
85586,2004,08,14,15,00,AAXX 14154 85586 41558 80000 10104 20095 40201 52016 75022=
85586,2004,08,14,18,00,AAXX 14184 85586 11456 82804 10118 20096 40195 58007 60021 75052 888// 333 56799 83815 88630=
85586,2004,08,14,21,00,AAXX 14214 85586 NIL=
85586,2004,08,15,00,00,AAXX 15004 85586 12460 50000 10100 20092 40206 69921 85800 333 10118 56000 84815=
85586,2004,08,15,03,00,AAXX 15034 85586 NIL=
85586,2004,08,15,06,00,AAXX 15064 85586 NIL=
85586,2004,08,15,09,00,AAXX 15094 85586 NIL=
85586,2004,08,15,12,00,AAXX 15124 85586 32960 61303 10072 20068 40200 53/// 84031 333 20072 31/// 50030 55002 56066 84363=
85586,2004,08,15,15,00,AAXX 15154 85586 42960 71502 10102 20066 40202 52003 83031 333 56066 83365 84072=
85586,2004,08,15,18,00,AAXX 15184 85586 32960 71806 10116 20065 40191 58010 85031 333 56066 85365=
85586,2004,08,15,21,00,AAXX 15214 85586 42960 71603 10105 20076 40187 57004 85031 333 56066 85365=
85586,2004,08,16,00,00,AAXX 16004 85586 32960 70000 10083 20071 40188 54001 85031 333 56066 85365=
85586,2004,08,16,03,00,AAXX 16034 85586 NIL=
85586,2004,08,16,06,00,AAXX 16064 85586 NIL=
85586,2004,08,16,09,00,AAXX 16094 85586 NIL=
85586,2004,08,16,12,00,AAXX 16124 85586 32960 60000 10054 20050 40194 52/// 84031 333 20054 31/// 50050 55000 56066 84363=
85586,2004,08,16,15,00,AAXX 16154 85586 42960 12804 10131 20060 40205 51011 81030 333 56060 81365=
85586,2004,08,16,18,00,AAXX 16184 85586 32560 12807 10186 20066 40200 57004 81100 333 56000 81825=
85586,2004,08,16,21,00,AAXX 16214 85586 42560 22407 10134 20090 40211 58010 82100 333 56000 82827=
85586,2004,08,17,00,00,AAXX 17004 85586 32960 00000 10058 20054 40223 52010 333 10140=
85586,2004,08,17,03,00,AAXX 17034 85586 NIL=
85586,2004,08,17,06,00,AAXX 17064 85586 NIL=
85586,2004,08,17,09,00,AAXX 17094 85586 NIL=
85586,2004,08,17,12,00,AAXX 17124 85586 32960 01103 10040 20033 40237 52/// 333 20029 31/// 50130 55095=
85586,2004,08,17,15,00,AAXX 17154 85586 42960 01103 10119 20084 40239 52005=
85586,2004,08,17,18,00,AAXX 17184 85586 32960 02407 10146 20071 40224 58014=
85586,2004,08,17,21,00,AAXX 17214 85586 NIL=
85586,2004,08,18,21,00,AAXX 18214 85586 41458 22309 10133 20092 40204 56006 70500 82200 333 56700 82815=
85586,2004,08,19,00,00,AAXX 19004 85586 31456 60804 10104 20079 40199 56006 70521 86500 333 10147 56600 86615=
85586,2004,08,19,03,00,AAXX 19034 85586 NIL=
85586,2004,08,19,06,00,AAXX 19064 85586 NIL=
85586,2004,08,19,09,00,AAXX 19094 85586 NIL=
85586,2004,08,19,12,00,AAXX 19124 85586 31558 31205 10064 20054 40214 52/// 7051/ 83200 333 20034 31/// 50120 55102 56600 83820=
85586,2004,08,19,15,00,AAXX 19154 85586 41558 42704 10127 20094 40221 51007 70511 84200 333 56700 84820=
85586,2004,08,19,18,00,AAXX 19184 85586 32560 32809 10144 20078 40220 50000 82201 333 56706 82820=
85586,2004,08,19,21,00,AAXX 19214 85586 42960 12808 10136 20075 40226 53006 81100 333 56600 81820=
85586,2004,08,20,00,00,AAXX 20004 85586 31456 11303 10072 40243 52014 70500 81500 333 10146 56600 81600=
85586,2004,08,20,03,00,AAXX 20034 85586 NIL=
85586,2004,08,20,06,00,AAXX 20064 85586 NIL=
85586,2004,08,20,09,00,AAXX 20094 85586 NIL=
85586,2004,08,20,12,00,AAXX 20124 85586 31008 21204 10034 20027 40254 52/// 7464/ 82600 333 20020 31/// 50130 55092 56300 82701=
85586,2004,08,20,15,00,AAXX 20154 85586 42960 00000 10118 20087 40256 51005=
85586,2004,08,20,18,00,AAXX 20184 85586 32660 12416 10136 20073 40250 57005 81500 333 56500 81633=
85586,2004,08,20,21,00,AAXX 20214 85586 42960 02408 10140 20090 40244 57006=
85586,2004,08,21,00,00,AAXX 21004 85586 32960 01202 10096 20064 40251 53005 333 10152=
85586,2004,08,21,03,00,AAXX 21034 85586 NIL=
85586,2004,08,21,06,00,AAXX 21064 85586 NIL=
85586,2004,08,21,09,00,AAXX 21094 85586 NIL=
85586,2004,08,21,12,00,AAXX 21124 85586 32960 01204 10026 20018 40199 57/// 333 20010 31/// 50110 55099=
85586,2004,08,21,15,00,AAXX 21154 85586 42960 02708 10134 20059 40201 53005=
85586,2004,08,21,18,00,AAXX 21184 85586 32960 02514 10140 20066 40193 57007=
85586,2004,08,21,21,00,AAXX 21214 85586 42960 02310 10135 20089 40187 57006=
85586,2004,08,22,00,00,AAXX 22004 85586 32960 00000 10070 20056 40200 52010 333 10146=
85586,2004,08,22,03,00,AAXX 22034 85586 NIL=
85586,2004,08,22,06,00,AAXX 22064 85586 NIL=
85586,2004,08,22,09,00,AAXX 22094 85586 NIL=
85586,2004,08,22,12,00,AAXX 22124 85586 32960 01206 10042 20035 40231 52/// 333 20008 31/// 50130 55101=
85586,2004,08,22,15,00,AAXX 22154 85586 42960 01508 10130 20073 40237 52009=
85586,2004,08,22,18,00,AAXX 22184 85586 32960 02209 10162 20073 40229 57007=
85586,2004,08,22,21,00,AAXX 22214 85586 42960 02210 10142 20087 40227 54002=
85586,2004,08,23,00,00,AAXX 23004 85586 32960 01303 10083 20075 40233 52004 333 10167=
85586,2004,08,23,03,00,AAXX 23034 85586 NIL=
85586,2004,08,23,06,00,AAXX 23064 85586 NIL=
85586,2004,08,23,09,00,AAXX 23094 85586 NIL=
85586,2004,08,23,12,00,AAXX 23124 85586 32960 01504 10062 20056 40204 57/// 333 20048 31/// 50160 55105=
85586,2004,08,23,15,00,AAXX 23154 85586 42960 01609 10152 20094 40197 57004=
85586,2004,08,23,18,00,AAXX 23184 85586 32960 01908 10210 20129 40165 57031=
85586,2004,08,23,21,00,AAXX 23214 85586 42960 02403 10185 20127 40150 57015=
85586,2004,08,24,00,00,AAXX 24004 85586 32960 01603 10154 20054 40148 54003 333 10214=
85586,2004,08,24,03,00,AAXX 24034 85586 NIL=
85586,2004,08,24,06,00,AAXX 24064 85586 NIL=
85586,2004,08,24,09,00,AAXX 24094 85586 NIL=
85586,2004,08,24,12,00,AAXX 24124 85586 32970 01305 10122 20064 40150 52/// 333 20101 31/// 50180 55105=
85586,2004,08,24,15,00,AAXX 24154 85586 42960 01508 10197 20089 40170 52022=
85586,2004,08,24,18,00,AAXX 24184 85586 32960 23006 10175 20116 40162 58009 80001 333 56006 82075=
85586,2004,08,24,21,00,AAXX 24214 85586 42960 13007 10159 20115 40162 50000 80001 333 56006 81075=
85586,2004,08,25,00,00,AAXX 25004 85586 31956 00504 10117 20097 40181 52018 70500 333 10215=
85586,2004,08,25,03,00,AAXX 25034 85586 NIL=
85586,2004,08,25,06,00,AAXX 25064 85586 NIL=
85586,2004,08,25,09,00,AAXX 25094 85586 NIL=
85586,2004,08,25,12,00,AAXX 25124 85586 31208 40000 10099 20090 40196 52/// 7424/ 84600 333 20054 31/// 50170 55106 56600 84704=
85586,2004,08,25,15,00,AAXX 25154 85586 41440 22606 10144 20106 40208 51014 70544 82500 333 56700 82615=
85586,2004,08,25,18,00,AAXX 25184 85586 31340 83112 10152 20115 40197 58011 70542 886// 333 56799 88709=
85586,2004,08,25,21,00,AAXX 25214 85586 41356 73204 10142 20108 40192 56005 70522 87600 333 56700 87710=
85586,2004,08,26,00,00,AAXX 26004 85586 31940 00000 10098 20071 40207 53013 70511 333 10153=
85586,2004,08,26,03,00,AAXX 26034 85586 NIL=
85586,2004,08,26,06,00,AAXX 26064 85586 NIL=
85586,2004,08,26,09,00,AAXX 26094 85586 NIL=
85586,2004,08,26,12,00,AAXX 26124 85586 31556 80000 10086 20081 40210 53/// 7052/ 885// 333 20066 31/// 50100 55032 56099 88625=
85586,2004,08,26,15,00,AAXX 26154 85586 41556 80000 10146 20107 40227 52019 70522 885// 333 56099 88630=
85586,2004,08,26,18,00,AAXX 26184 85586 31556 82706 10152 20106 40208 58019 70522 82531 333 56666 82630 85363=
85586,2004,08,26,21,00,AAXX 26214 85586 41956 82806 10150 20099 40197 57011 70522 83031 333 56066 83363 85075=
85586,2004,08,27,00,00,AAXX 27004 85586 31958 82304 10116 20105 40207 53009 70522 8803/ 333 10160 56069 88363=
85586,2004,08,27,03,00,AAXX 27034 85586 NIL=
85586,2004,08,27,06,00,AAXX 27064 85586 NIL=
85586,2004,08,27,09,00,AAXX 27094 85586 NIL=
85586,2004,08,27,12,00,AAXX 27124 85586 31002 80000 10092 20087 40244 52/// 7464/ 887// 333 20064 31/// 50110 55024 56099 88701=
85586,2004,08,27,15,00,AAXX 27154 85586 41430 82406 10130 20110 40251 51008 70544 885// 333 56599 88610=
85586,2004,08,27,18,00,AAXX 27184 85586 31958 82408 10150 20111 40231 58019 70522 8803/ 333 56069 88363=
85586,2004,08,27,21,00,AAXX 27214 85586 41958 82406 10138 20108 40228 56003 70522 85031 333 56066 85363 83075=
85586,2004,08,28,00,00,AAXX 28004 85586 32960 80000 10116 20105 40239 52010 87031 333 10158 56066 87363=
85586,2004,08,28,03,00,AAXX 28034 85586 NIL=
85586,2004,08,28,06,00,AAXX 28064 85586 NIL=
85586,2004,08,28,09,00,AAXX 28094 85586 NIL=
85586,2004,08,28,12,00,AAXX 28124 85586 31956 71504 10122 20113 40224 56/// 7052/ 87030 333 10108 50090 55022 56060 87363=
85586,2004,08,28,15,00,AAXX 28154 85586 41956 12206 10204 20130 40227 53005 70511 81030 333 56060 81363=
85586,2004,08,28,18,00,AAXX 28184 85586 32960 02407 10206 20130 40202 57024=
85586,2004,08,28,21,00,AAXX 28214 85586 42960 00000 10200 20136 40194 57009=
85586,2004,08,29,00,00,AAXX 29004 85586 32960 20000 10136 20118 40200 53005 80001 333 10234 56006 82075=
85586,2004,08,29,03,00,AAXX 29034 85586 NIL=
85586,2004,08,29,06,00,AAXX 29064 85586 NIL=
85586,2004,08,29,09,00,AAXX 29094 85586 NIL=
85586,2004,08,29,12,00,AAXX 29124 85586 32960 40000 10082 20071 40169 57/// 80001 333 20074 30/// 50190 55088 56005 84075=
85586,2004,08,29,15,00,AAXX 29154 85586 42960 21305 10218 20159 40159 57006 80001 333 56005 82075=
85586,2004,08,29,18,00,AAXX 29184 85586 32960 20000 10200 20152 40147 57013 80001 333 56005 82075=
85586,2004,08,29,21,00,AAXX 29214 85586 42960 30000 10175 20129 40138 57010 80001 333 56005 83075=
85586,2004,08,30,00,00,AAXX 30004 85586 32960 30000 10125 20115 40142 53003 80001 333 10222 56005 83075=
85586,2004,08,30,03,00,AAXX 30034 85586 NIL=
85586,2004,08,30,06,00,AAXX 30064 85586 NIL=
85586,2004,08,30,09,00,AAXX 30094 85586 NIL=
85586,2004,08,30,12,00,AAXX 30124 85586 31206 80705 10094 20088 40160 52/// 7444/ 886// 333 20058 31/// 50180 55097 56099 88704=
85586,2004,08,30,15,00,AAXX 30154 85586 41208 80205 10122 20111 40177 52018 74244 886// 333 56799 88704=
85586,2004,08,30,18,00,AAXX 30184 85586 31220 83109 10132 20108 40183 51006 70544 886// 333 56799 88706=
85586,2004,08,30,21,00,AAXX 30214 85586 41340 82503 10132 20107 40182 54001 70542 886// 333 56799 88708=
85586,2004,08,31,00,00,AAXX 31004 85586 31340 82103 10121 20097 40186 53004 70522 886// 333 10142 56599 88709=
85586,2004,08,31,03,00,AAXX 31034 85586 NIL=
85586,2004,08,31,06,00,AAXX 31064 85586 NIL=
85586,2004,08,31,09,00,AAXX 31094 85586 NIL=
85586,2004,08,31,12,00,AAXX 31124 85586 11208 80000 10108 20097 40187 52/// 69924 7515/ 886// 333 20099 31/// 50110 55000 56099 88704=
85586,2004,08,31,15,00,AAXX 31154 85586 41340 83303 10121 20097 40211 52023 70555 886// 333 56799 88707=
85586,2004,08,31,18,00,AAXX 31184 85586 11456 73104 10144 20102 40213 51003 69911 70552 87600 333 56700 87710=
85586,2004,08,31,21,00,AAXX 31214 85586 41456 22605 10143 20103 40206 58007 70521 82500 333 56700 82615=
85586,2004,09,01,00,00,AAXX 01004 85586 31340 82405 10122 20104 40209 58002 70522 886// 333 10162 56799 88704=
85586,2004,09,01,03,00,AAXX 01034 85586 NIL=
85586,2004,09,01,06,00,AAXX 01064 85586 NIL=
85586,2004,09,01,09,00,AAXX 01094 85586 NIL=
85586,2004,09,01,12,00,AAXX 01124 85586 12960 20000 10112 20104 40196 57/// 69914 80001 333 20108 31/// 50100 55034 56006 70001 82075=
85586,2004,09,01,15,00,AAXX 01154 85586 41958 61204 10176 20120 40187 57007 80001 333 56006 86075=
85586,2004,09,01,18,00,AAXX 01184 85586 32960 32414 10164 20108 40173 57014 80001 333 56006 83075=
85586,2004,09,01,21,00,AAXX 01214 85586 42960 32606 10164 20108 40161 57012 80001 333 56006 83075=
85586,2004,09,02,00,00,AAXX 02004 85586 32960 30000 10116 20099 40159 56003 80001 333 10200 56006 83075=
85586,2004,09,02,03,00,AAXX 02034 85586 NIL=
85586,2004,09,02,06,00,AAXX 02064 85586 NIL=
85586,2004,09,02,09,00,AAXX 02094 85586 NIL=
85586,2004,09,02,12,00,AAXX 02124 85586 32960 81206 10120 20108 40115 57/// 8803/ 333 20102 31/// 50120 55088 56069 88363=
85586,2004,09,02,15,00,AAXX 02154 85586 41958 82607 10190 2012640109 56005 84032 333 56066 84363 85075=
85586,2004,09,02,18,00,AAXX 02184 85586 31958 83103 10204 20130 40101 57007 82032 333 56066 82363 87075=
85586,2004,09,02,21,00,AAXX 02214 85586 41958 63604 10180 20111 40106 53004 70522 80002 333 56006 86075=
85586,2004,09,03,00,00,AAXX 03004 85586 32960 30000 10138 20121 40116 52009 80001 333 10208 56006 83075=
85586,2004,09,03,03,00,AAXX 03034 85586 NIL=
85586,2004,09,03,06,00,AAXX 03064 85586 NIL=
85586,2004,09,03,09,00,AAXX 03094 85586 NIL=
85586,2004,09,03,12,00,AAXX 03124 85586 32560 83304 10132 20122 40136 52/// 885// 333 20124 30/// 55010 56699 88620=
85586,2004,09,03,15,00,AAXX 03154 85586 41458 83209 10122 20114 40154 52016 71052 885// 333 56799 88613=
85586,2004,09,03,18,00,AAXX 03184 85586 11458 83314 10144 20112 40152 58002 69901 70552 885// 333 56799 88615=
85586,2004,09,03,21,00,AAXX 03214 85586 41459 83505 10135 20117 40153 54001 76022 885// 333 56799 88615=
85586,2004,09,04,00,00,AAXX 04004 85586 11460 80405 10127 20123 40155 54002 69911 70262 885// 333 10147 56799 88618=
85586,2004,09,04,03,00,AAXX 04034 85586 NIL=
85586,2004,09,04,06,00,AAXX 04064 85586 NIL=
85586,2004,09,04,09,00,AAXX 04094 85586 NIL=
85586,2004,09,04,12,00,AAXX 04124 85586 11460 83612 10131 20120 40193 52/// 60064 7026/ 885// 333 20129 32/// 50000 56899 70061 88615=
85586,2004,09,04,15,00,AAXX 04154 85586 42460 83111 10141 20130 40205 52012 885// 333 56799 88617=
85586,2004,09,04,18,00,AAXX 04184 85586 32460 63214 10163 20141 40202 54002 86200 333 56700 82818=
85586,2004,09,04,21,00,AAXX 04214 85586 NIL=
85586,2004,09,05,00,00,AAXX 05004 85586 32460 73202 10137 20125 40201 53008 87500 333 10167 56700 87615=
85586,2004,09,05,03,00,AAXX 05034 85586 NIL=
85586,2004,09,05,06,00,AAXX 05064 85586 NIL=
85586,2004,09,05,09,00,AAXX 05094 85586 NIL=
85586,2004,09,05,12,00,AAXX 05124 85586 31958 81203 10084 20068 40162 54/// 7052/ 8803/ 333 20063 31/// 50130 55037 56079 88362=
85586,2004,09,05,15,00,AAXX 05154 85586 41958 73005 10155 20114 40170 51010 70522 85031 333 56076 85362=
85586,2004,09,05,18,00,AAXX 05184 85586 32960 73116 10161 20098 40155 57015 87030 333 56070 87364=
85586,2004,09,05,21,00,AAXX 05214 85586 41958 72907 10144 20093 40150 56006 70522 87030 333 56070 87362=
85586,2004,09,06,00,00,AAXX 06004 85586 31540 83406 10143 20086 40154 51004 70522 885// 333 10178 56799 88630=
85586,2004,09,06,03,00,AAXX 06034 85586 NIL=
85586,2004,09,06,06,00,AAXX 06064 85586 NIL=
85586,2004,09,06,09,00,AAXX 06094 85586 NIL=
85586,2004,09,06,12,00,AAXX 06124 85586 NIL=
85586,2004,09,06,15,00,AAXX 06154 85586 41540 81403 10121 20099 40179 51010 76166 8422/ 333 56779 84820 84456=
85586,2004,09,06,18,00,AAXX 06184 85586 11556 82504 10130 20104 40177 50002 60031 70566 882// 333 56799 88825=
85586,2004,09,06,21,00,AAXX 06214 85586 41556 72805 10126 20089 40179 55000 70562 81230 333 56770 81820 86358=
85586,2004,09,07,00,00,AAXX 07004 85586 31840 30000 10108 20090 40198 52020 70521 83030 333 10132 56070 83358=
85586,2004,09,07,03,00,AAXX 07034 85586 NIL=
85586,2004,09,07,06,00,AAXX 07064 85586 NIL=
85586,2004,09,07,09,00,AAXX 07094 85586 NIL=
85586,2004,09,07,12,00,AAXX 07124 85586 11656 30000 10046 20042 40230 52/// 60024 7101/ 81532 333 20040 32/// 50080 55000 56066 81640=
85586,2004,09,07,15,00,AAXX 07154 85586 NIL=
85586,2004,09,07,18,00,AAXX 07184 85586 32560 32414 10134 20096 40224 57011 83100 333 56500 83820=
85586,2004,09,07,21,00,AAXX 07214 85586 42560 22414 10128 20066 40221 56003 82100 333 56500 82820=
85586,2004,09,08,00,00,AAXX 08004 85586 32560 21204 10086 20058 40239 52017 82500 333 10148 56400 82625=
85586,2004,09,08,03,00,AAXX 08034 85586 NIL=
85586,2004,09,08,06,00,AAXX 08064 85586 NIL=
85586,2004,09,08,09,00,AAXX 08094 85586 NIL=
85586,2004,09,08,12,00,AAXX 08124 85586 32960 00000 10036 20030 40254 53/// 333 20010 32/// 50120 55096=
85586,2004,09,08,15,00,AAXX 08154 85586 42960 01712 10136 20073 40249 54001=
85586,2004,09,08,18,00,AAXX 08184 85586 32560 11706 10164 20046 40239 57010 81500 333 56400 81625=
85586,2004,09,08,21,00,AAXX 08214 85586 42960 02414 10140 20094 40229 57010=
85586,2004,09,09,00,00,AAXX 09004 85586 32960 00000 10092 20080 40237 52006 333 10161=
85586,2004,09,09,03,00,AAXX 09034 85586 NIL=
85586,2004,09,09,06,00,AAXX 09064 85586 NIL=
85586,2004,09,09,09,00,AAXX 09094 85586 NIL=
85586,2004,09,09,12,00,AAXX 09124 85586 32960 00000 10040 20031 40225 53/// 333 20012 31/// 50170 55096=
85586,2004,09,09,15,00,AAXX 09154 85586 NIL=
85586,2004,09,09,18,00,AAXX 09184 85586 32960 02410 10134 20098 40223 58011=
85586,2004,09,09,21,00,AAXX 09214 85586 42960 02412 10128 20085 40219 57004=
85586,2004,09,10,00,00,AAXX 10004 85586 32960 00000 10066 20060 40234 57013 333 10138=
85586,2004,09,10,03,00,AAXX 10034 85586 NIL=
85586,2004,09,10,06,00,AAXX 10064 85586 NIL=
85586,2004,09,10,09,00,AAXX 10094 85586 NIL=
85586,2004,09,10,12,00,AAXX 10124 85586 32960 01204 10034 20030 40248 53/// 333 20012 31/// 50190 55108=
85586,2004,09,10,15,00,AAXX 10154 85586 42960 01407 10136 20068 40256 52008=
85586,2004,09,10,18,00,AAXX 10184 85586 32960 02420 10146 20091 40240 58016=
85586,2004,09,10,21,00,AAXX 10214 85586 42960 02216 10137 20101 40238 54002=
85586,2004,09,11,00,00,AAXX 11004 85586 NIL=
85586,2004,09,11,03,00,AAXX 11034 85586 NIL=
85586,2004,09,11,06,00,AAXX 11064 85586 NIL=
85586,2004,09,11,09,00,AAXX 11094 85586 NIL=
85586,2004,09,11,12,00,AAXX 11124 85586 32960 00000 10055 20043 40244 52/// 333 20022 34/// 50120 55110=
85586,2004,09,11,15,00,AAXX 11154 85586 42960 00903 10172 20099 40226 58014=
85586,2004,09,11,18,00,AAXX 11184 85586 32970 02419 10183 20101 40201 57025=
85586,2004,09,11,21,00,AAXX 11214 85586 42970 02210 10186 20114 40188 57013=
85586,2004,09,12,00,00,AAXX 12004 85586 31956 21206 10121 20090 40188 55001 70500 80001 333 10197 56006 82075=
85586,2004,09,12,03,00,AAXX 12034 85586 NIL=
85586,2004,09,12,06,00,AAXX 12064 85586 NIL=
85586,2004,09,12,09,00,AAXX 12094 85586 NIL=
85586,2004,09,12,12,00,AAXX 12124 85586 32960 50804 10102 20071 40139 57/// 80001 333 20054 31/// 50160 55107 56006 85075=
85586,2004,09,12,15,00,AAXX 12154 85586 41956 02405 10167 20103 40140 53003 70500=
85586,2004,09,12,18,00,AAXX 12184 85586 32960 12907 10181 20104 40129 58011 80001 333 56006 81075=
85586,2004,09,12,21,00,AAXX 12214 85586 42960 12603 10177 20095 40117 57012 80001 333 56006 81075=
85586,2004,09,13,00,00,AAXX 13004 85586 31940 00000 10104 20087 40144 52025 70500 333 10196=
85586,2004,09,13,03,00,AAXX 13034 85586 NIL=
85586,2004,09,13,06,00,AAXX 13064 85586 NIL=
85586,2004,09,13,09,00,AAXX 13094 85586 NIL=
85586,2004,09,13,12,00,AAXX 13124 85586 32560 80000 10094 20085 40192 52/// 885// 333 20068 31/// 50130 55109 56099 88620=
85586,2004,09,13,15,00,AAXX 13154 85586 41557 80000 10144 20111 40211 52021 70522 885// 333 56099 88623=
85586,2004,09,13,18,00,AAXX 13184 85586 31557 22908 10160 20103 40199 57012 70522 82500 333 56700 82626=
85586,2004,09,13,21,00,AAXX 13214 85586 41556 22705 10144 20102 40196 56003 70511 82500 333 56600 82626=
85586,2004,09,14,00,00,AAXX 14004 85586 31556 22204 10114 20105 40199 54002 70511 81501 333 10162 56606 81626=
85586,2004,09,14,03,00,AAXX 14034 85586 NIL=
85586,2004,09,14,06,00,AAXX 14064 85586 NIL=
85586,2004,09,14,09,00,AAXX 14094 85586 NIL=
85586,2004,09,14,12,00,AAXX 14124 85586 31956 01902 10094 20087 40200 53/// 7050/ 333 20054 31/// 50130 55043=
85586,2004,09,14,15,00,AAXX 14154 85586 42556 21508 10158 20120 40203 51005 705// 82500 333 56400 82626=
85586,2004,09,14,18,00,AAXX 14184 85586 32960 32410 10184 20118 40188 57014 80001 333 56006 83075=
85586,2004,09,14,21,00,AAXX 14214 85586 42960 22408 10164 20115 40175 57014 80001 333 56006 82075=
85586,2004,09,15,00,00,AAXX 15004 85586 32960 22406 10122 20102 40178 53012 80001 333 10204 56006 82075=
85586,2004,09,15,03,00,AAXX 15034 85586 NIL=
85586,2004,09,15,06,00,AAXX 15064 85586 NIL=
85586,2004,09,15,09,00,AAXX 15094 85586 NIL=
85586,2004,09,15,12,00,AAXX 15124 85586 32960 11201 10082 20076 40170 57/// 80001 333 20046 31/// 50170 55101 56005 81073=
85586,2004,09,15,15,00,AAXX 15154 85586 42960 02706 10156 20118 40168 54000=
85586,2004,09,15,18,00,AAXX 15184 85586 32960 02407 10171 20136 40161 57007=
85586,2004,09,15,21,00,AAXX 15214 85586 42960 20303 10172 20132 40150 57011 80001 333 56005 82073=
85586,2004,09,16,00,00,AAXX 16004 85586 NIL=
85586,2004,09,16,03,00,AAXX 16034 85586 NIL=
85586,2004,09,16,06,00,AAXX 16064 85586 NIL=
85586,2004,09,16,09,00,AAXX 16094 85586 NIL=
85586,2004,09,16,12,00,AAXX 16124 85586 NIL=
85586,2004,09,16,15,00,AAXX 16154 85586 41350 83202 10134 20108 40160 54002 70522 886// 333 56699 88707=
85586,2004,09,16,18,00,AAXX 16184 85586 31356 83207 10138 20121 40161 54001 70522 886// 333 56699 88708=
85586,2004,09,16,21,00,AAXX 16214 85586 41457 83008 10141 20125 40154 57007 70522 85601 333 56606 85710 83070=
85586,2004,09,17,00,00,AAXX 17004 85586 31456 83405 10130 20121 40158 52004 71022 886// 333 10150 56699 88710=
85586,2004,09,17,03,00,AAXX 17034 85586 NIL=
85586,2004,09,17,06,00,AAXX 17064 85586 NIL=
85586,2004,09,17,09,00,AAXX 17094 85586 NIL=
85586,2004,09,17,12,00,AAXX 17124 85586 31556 60210 10132 20094 40164 52/// 7052/ 885// 333 20122 31/// 50120 55002 567// 88625=
85586,2004,09,17,15,00,AAXX 17154 85586 41558 83409 10145 20099 40187 52023 70522 885// 333 567// 88625=
85586,2004,09,17,18,00,AAXX 17184 85586 31556 83307 10138 20109 40186 50001 70522 885// 333 567// 88620=
85586,2004,09,17,21,00,AAXX 17214 85586 41556 83504 10135 20103 40178 57008 70522 87800 333 56700 81815 87625=
85586,2004,09,18,00,00,AAXX 18004 85586 31540 83104 10133 20104 40181 53003 70522 885// 333 10146 56799 88625=
85586,2004,09,18,03,00,AAXX 18034 85586 NIL=
85586,2004,09,18,06,00,AAXX 18064 85586 NIL=
85586,2004,09,18,09,00,AAXX 18094 85586 NIL=
85586,2004,09,18,12,00,AAXX 18124 85586 32560 80403 10130 20095 40212 52/// 885// 333 20101 30/// 50120 55000 56799 88630=
85586,2004,09,18,15,00,AAXX 18154 85586 41558 63210 10156 20096 40222 52011 70522 888// 333 56799 81820 88625=
85586,2004,09,18,18,00,AAXX 18184 85586 31456 82504 10154 20106 40222 50000 70522 888// 333 56799 81515 88625=
85586,2004,09,19,00,00,AAXX 19004 85586 31540 82305 10124 20096 40247 52020 70522 885// 333 10159 56799 88625=
85586,2004,09,19,06,00,AAXX 19064 85586 NIL=
85586,2004,09,19,12,00,AAXX 19124 85586 32560 61904 10090 20060 40250 53/// 81502 333 20070 31/// 50120 55008 56406 81630 86075=
85586,2004,09,19,18,00,AAXX 19184 85586 32960 12208 10186 20083 40205 57025 80001 333 56006 81075=
85586,2004,09,20,00,00,AAXX 20004 85586 32960 52406 10110 20092 40195 53003 80001 333 10190 56006 85075=
85586,2004,09,20,06,00,AAXX 20064 85586 NIL=
85586,2004,09,20,09,00,AAXX 20094 85586 NIL=
85586,2004,09,20,12,00,AAXX 20124 85586 32960 40000 10064 20056 40148 57/// 80001 333 20024 31/// 50170 55093 56006 84075=
85586,2004,09,20,15,00,AAXX 20154 85586 42960 42806 10134 20086 40150 53004 80001 333 56006 84075=
85586,2004,09,20,18,00,AAXX 20184 85586 32960 22710 10130 20075 40154 54004 80001 333 56006 82075=
85586,2004,09,20,21,00,AAXX 20214 85586 42960 22808 10134 20072 40178 52023 80001 333 56006 82075=
85586,2004,09,21,00,00,AAXX 21004 85586 32960 23104 10090 20063 40200 52021 80001 333 10140 56006 82075=
85586,2004,09,21,03,00,AAXX 21034 85586 NIL=
85586,2004,09,21,06,00,AAXX 21064 85586 NIL=
85586,2004,09,21,09,00,AAXX 21094 85586 NIL=
85586,2004,09,21,12,00,AAXX 21124 85586 32360 11403 10088 20071 40244 52/// 81600 333 20040 30/// 50220 55104 56700 81709=
85586,2004,09,21,15,00,AAXX 21154 85586 42560 22405 10135 20069 40256 52014 82100 333 56600 82825=
85586,2004,09,21,18,00,AAXX 21184 85586 32560 22510 10143 20080 40254 54002 82100 333 56600 82825=
85586,2004,09,21,21,00,AAXX 21214 85586 42960 02311 10145 20078 40244 57010=
85586,2004,09,22,00,00,AAXX 22004 85586 32960 00000 10100 20081 40259 52013 333 10148=
85586,2004,09,22,03,00,AAXX 22034 85586 NIL=
85586,2004,09,22,06,00,AAXX 22064 85586 NIL=
85586,2004,09,22,09,00,AAXX 22094 85586 NIL=
85586,2004,09,22,12,00,AAXX 22124 85586 32960 01608 10090 20070 40255 54/// 333 20038 30/// 50210 55108=
85586,2004,09,22,15,00,AAXX 22154 85586 42960 01609 10138 20068 40252 54001=
85586,2004,09,22,18,00,AAXX 22184 85586 32960 02510 10163 20108 40233 57019=
85586,2004,09,22,21,00,AAXX 22214 85586 42960 02410 10155 20121 40220 57013=
85586,2004,09,23,00,00,AAXX 23004 85586 32960 02203 10108 20096 40226 53005 333 10188=
85586,2004,09,23,03,00,AAXX 23034 85586 NIL=
85586,2004,09,23,06,00,AAXX 23064 85586 NIL=
85586,2004,09,23,09,00,AAXX 23094 85586 NIL=
85586,2004,09,23,12,00,AAXX 23124 85586 32960 02106 10106 20058 40205 52/// 333 20055 30/// 50150 55111=
85586,2004,09,23,15,00,AAXX 23154 85586 42960 11506 10179 20062 40199 58004 80001 333 56006 81075=
85586,2004,09,23,18,00,AAXX 23184 85586 32980 02415 10169 20090 40184 57010=
85586,2004,09,23,21,00,AAXX 23214 85586 42960 02512 10162 20093 40176 56008=
85586,2004,09,24,00,00,AAXX 24004 85586 31956 02305 10127 20084 40192 53014 70500 333 10199=
85586,2004,09,24,03,00,AAXX 24034 85586 NIL=
85586,2004,09,24,06,00,AAXX 24064 85586 NIL=
85586,2004,09,24,09,00,AAXX 24094 85586 NIL=
85586,2004,09,24,12,00,AAXX 24124 85586 32960 01608 10126 20064 40167 57/// 333 20063 30/// 50170 55115=
85586,2004,09,24,15,00,AAXX 24154 85586 42960 03204 10188 20096 40161 57005=
85586,2004,09,24,18,00,AAXX 24184 85586 32970 02515 10172 20106 40147 57014=
85586,2004,09,24,21,00,AAXX 24214 85586 42970 02705 10175 20113 40139 56008=
85586,2004,09,25,00,00,AAXX 25004 85586 31956 00000 10128 20099 40148 53008 70500 333 10201=
85586,2004,09,25,03,00,AAXX 25034 85586 NIL=
85586,2004,09,25,06,00,AAXX 25064 85586 NIL=
85586,2004,09,25,09,00,AAXX 25094 85586 NIL=
85586,2004,09,25,12,00,AAXX 25124 85586 11240 83203 10114 20106 40186 52/// 69904 7515/ 886// 333 20101 31/// 50170 55116 56799 70000 88706=
85586,2004,09,25,15,00,AAXX 25154 85586 41340 83305 10129 20106 40196 51009 70552 886// 333 56799 88708=
85586,2004,09,25,18,00,AAXX 25184 85586 31456 82506 10141 20107 40193 50002 70522 885// 333 56799 88615=
85586,2004,09,25,21,00,AAXX 25214 85586 41458 72607 10131 20104 40189 57004 70522 87800 333 56700 81815 86625=
85586,2004,09,26,00,00,AAXX 26004 85586 31456 80000 10122 20093 40184 57015 70522 885// 333 10151 56799 88615=
85586,2004,09,26,03,00,AAXX 26034 85586 NIL=
85586,2004,09,26,06,00,AAXX 26064 85586 NIL=
85586,2004,09,26,09,00,AAXX 26094 85586 NIL=
85586,2004,09,26,12,00,AAXX 26124 85586 31108 80000 10104 20100 40188 56/// 7462/ 886// 333 20100 31/// 50120 55002 56099 88702=
85586,2004,09,26,15,00,AAXX 26154 85586 41208 82706 10124 20117 40177 56010 74644 886// 333 56699 88706=
85586,2004,09,26,18,00,AAXX 26184 85586 31312 80604 10116 20109 40167 57010 71044 886// 333 56799 88707=
85586,2004,09,26,21,00,AAXX 26214 85586 41312 83604 10114 20110 40182 53015 75044 886// 333 56899 88707=
85586,2004,09,27,00,00,AAXX 27004 85586 11220 80000 10116 20114 40202 51019 69941 71052 886// 333 10134 56099 88707=
85586,2004,09,27,03,00,AAXX 27034 85586 NIL=
85586,2004,09,27,06,00,AAXX 27064 85586 NIL=
85586,2004,09,27,09,00,AAXX 27094 85586 NIL=
85586,2004,09,27,12,00,AAXX 27124 85586 11558 11506 10124 20108 40212 52/// 69944 7052/ 81500 333 20110 31/// 50100 55000 56000 70004 81620=
85586,2004,09,27,15,00,AAXX 27154 85586 42560 62408 10184 20123 40204 58006 83502 333 56506 83630 85075=
85586,2004,09,27,18,00,AAXX 27184 85586 NIL=
85586,2004,09,27,21,00,AAXX 27214 85586 42960 72608 10154 20127 40197 54003 80002 333 56006 87075=
85586,2004,09,28,00,00,AAXX 28004 85586 32960 10000 10126 20110 40204 53006 80002 333 10184 56006 81075=
85586,2004,09,28,03,00,AAXX 28034 85586 NIL=
85586,2004,09,28,06,00,AAXX 28064 85586 NIL=
85586,2004,09,28,09,00,AAXX 28094 85586 NIL=
85586,2004,09,28,12,00,AAXX 28124 85586 32960 01607 10123 20103 40200 53/// 333 20060 30/// 50230 55084=
85586,2004,09,28,15,00,AAXX 28154 85586 42960 01806 10196 20118 40186 58011=
85586,2004,09,28,18,00,AAXX 28184 85586 32960 32414 10168 20122 40168 57020 333 56006 83075=
85586,2004,09,28,21,00,AAXX 28214 85586 42960 72508 10167 20123 40158 57009 80001 333 56006 87075=
85586,2004,09,29,00,00,AAXX 29004 85586 32960 60000 10121 20112 40163 52004 80001 333 10199 56005 86075=
85586,2004,09,29,03,00,AAXX 29034 85586 NIL=
85586,2004,09,29,06,00,AAXX 29064 85586 NIL=
85586,2004,09,29,09,00,AAXX 29094 85586 NIL=
85586,2004,09,29,12,00,AAXX 29124 85586 31220 80103 10111 20097 40168 52/// 7052/ 886// 333 20078 30/// 50160 55087 56799 88706=
85586,2004,09,29,15,00,AAXX 29154 85586 41356 83205 10139 20101 40177 51009 70522 886// 333 56799 88708=
85586,2004,09,29,18,00,AAXX 29184 85586 31456 83104 10144 20094 40183 51006 70522 886// 333 56799 88710=
85586,2004,09,29,21,00,AAXX 29214 85586 41458 52906 10143 20096 40185 55002 70521 85500 333 56700 85615=
85586,2004,09,30,00,00,AAXX 30004 85586 31456 83204 10124 20087 40202 52016 70521 885// 333 10154 56799 88615=
85586,2004,09,30,03,00,AAXX 30034 85586 NIL=
85586,2004,09,30,06,00,AAXX 30064 85586 NIL=
85586,2004,09,30,09,00,AAXX 30094 85586 NIL=
85586,2004,09,30,12,00,AAXX 30124 85586 31220 41405 10084 20077 40194 57/// 7102/ 84600 333 20044 30/// 50120 55029 56400 84704=
85586,2004,09,30,15,00,AAXX 30154 85586 42960 02207 10191 20110 40176 57013=
85586,2004,09,30,18,00,AAXX 30184 85586 32960 22610 10186 20116 40160 57018 80001 333 56006 82075=
85586,2004,09,30,21,00,AAXX 30214 85586 42960 62408 10163 20108 40146 57014 80001 333 56006 86075=
85586,2004,10,01,00,00,AAXX 01004 85586 31956 00000 10128 20089 40156 55001 70511 333 10197=
85586,2004,10,01,03,00,AAXX 01034 85586 NIL=
85586,2004,10,01,06,00,AAXX 01064 85586 NIL=
85586,2004,10,01,09,00,AAXX 01094 85586 NIL=
85586,2004,10,01,12,00,AAXX 01124 85586 32960 00000 10086 20078 40163 53/// 333 20042 31/// 50150 55104=
85586,2004,10,01,15,00,AAXX 01154 85586 42260 32706 10144 20118 40169 52007 81601 333 56606 81704 83075=
85586,2004,10,01,18,00,AAXX 01184 85586 32960 52608 10152 20122 40165 54004 80001 333 56006 85075=
85586,2004,10,01,21,00,AAXX 01214 85586 41458 73304 10142 20110 40162 54003 70522 84501 333 56706 84610 85075=
85586,2004,10,02,00,00,AAXX 02004 85586 31320 80607 10112 20107 40174 52012 71022 886// 333 10154 56899 88707=
85586,2004,10,02,03,00,AAXX 02034 85586 NIL=
85586,2004,10,02,06,00,AAXX 02064 85586 NIL=
85586,2004,10,02,09,00,AAXX 02094 85586 NIL=
85586,2004,10,02,12,00,AAXX 02124 85586 31003 80000 10081 20070 40160 56/// 7464/ 886// 333 20070 31/// 50130 55090 56099 88701=
85586,2004,10,02,15,00,AAXX 02154 85586 41940 62506 10140 20113 40156 54003 70542 80002 333 56006 86075=
85586,2004,10,02,18,00,AAXX 02184 85586 31540 82508 10146 20122 40158 54002 70522 82602 333 56506 82710 86075=
85586,2004,10,02,21,00,AAXX 02214 85586 41315 83004 10116 20111 40170 52012 71022 886// 333 56599 88707=
85586,2004,10,03,00,00,AAXX 03004 85586 31102 83604 10106 20102 40183 52013 74622 886// 333 10156 56899 88704=
85586,2004,10,03,03,00,AAXX 03034 85586 NIL=
85586,2004,10,03,06,00,AAXX 03064 85586 NIL=
85586,2004,10,03,09,00,AAXX 03094 85586 NIL=
85586,2004,10,03,12,00,AAXX 03124 85586 31140 82702 10099 20095 40178 54/// 7102/ 886// 333 20095 30/// 50080 55050 56799 88703=
85586,2004,10,03,15,00,AAXX 03154 85586 41256 82507 10122 20111 40164 57013 70522 886// 333 56799 88705=
85586,2004,10,03,18,00,AAXX 03184 85586 31357 82204 10123 20114 40160 57004 70522 886// 333 56799 88707=
85586,2004,10,03,21,00,AAXX 03214 85586 41250 82406 10120 20111 40153 57007 70522 886// 333 56799 88706=
85586,2004,10,04,00,00,AAXX 04004 85586 31120 83203 10111 20107 40154 54001 71022 886// 333 10130 56799 88703=
85586,2004,10,04,03,00,AAXX 04034 85586 NIL=
85586,2004,10,04,06,00,AAXX 04064 85586 NIL=
85586,2004,10,04,09,00,AAXX 04094 85586 NIL=
85586,2004,10,04,12,00,AAXX 04124 85586 31110 80000 10108 20104 40145 53/// 7102/ 886// 333 20106 30/// 50090 55000 56799 88702=
85586,2004,10,04,15,00,AAXX 04154 85586 41120 80000 10116 20112 40148 52003 71022 886// 333 56799 88703=
85586,2004,10,04,18,00,AAXX 04184 85586 31240 82706 10136 20111 40147 54001 70522 886// 333 56799 88706=
85586,2004,10,04,21,00,AAXX 04214 85586 41120 82905 10126 20115 40146 54001 70522 886// 333 56799 88703=
85586,2004,10,05,00,00,AAXX 05004 85586 NIL=
85586,2004,10,05,03,00,AAXX 05034 85586 NIL=
85586,2004,10,05,06,00,AAXX 05064 85586 NIL=
85586,2004,10,05,09,00,AAXX 05094 85586 NIL=
85586,2004,10,05,12,00,AAXX 05124 85586 11220 83205 10114 20105 40180 52/// 60014 7535/ 886// 333 20107 31/// 50120 55000 56799 70011 88706=
85586,2004,10,05,15,00,AAXX 05154 85586 41340 82904 10123 20108 40183 53003 72055 886// 333 56799 88707=
85586,2004,10,05,18,00,AAXX 05184 85586 11356 82906 10128 20108 40188 53005 69971 70552 886// 333 56799 88708=
85586,2004,10,05,21,00,AAXX 05214 85586 41340 82603 10124 20104 40175 57013 70522 886// 333 56799 88708=
85586,2004,10,06,00,00,AAXX 06004 85586 31240 80000 10121 20099 40172 56003 70522 886// 333 10137 56799 88625=
85586,2004,10,06,03,00,AAXX 06034 85586 NIL=
85586,2004,10,06,06,00,AAXX 06064 85586 NIL=
85586,2004,10,06,09,00,AAXX 06094 85586 NIL=
85586,2004,10,06,12,00,AAXX 06124 85586 11540 80000 10121 20093 40197 52/// 69974 7052/ 886// 333 20114 30/// 50110 55000 56799 70007 88620=
85586,2004,10,06,15,00,AAXX 06154 85586 41558 82603 10134 20087 40204 51007 70522 886// 333 56799 88620=
85586,2004,10,06,18,00,AAXX 06184 85586 31458 70000 10146 20088 40208 51005 70522 87800 333 56700 81815 86625=
85586,2004,10,06,21,00,AAXX 06214 85586 42560 32907 10163 20079 40196 58012 83600 333 56800 83620=
85586,2004,10,07,00,00,AAXX 07004 85586 31556 62305 10124 20085 40206 53009 70511 86600 333 10167 56800 86630=
85586,2004,10,07,03,00,AAXX 07034 85586 NIL=
85586,2004,10,07,06,00,AAXX 07064 85586 NIL=
85586,2004,10,07,09,00,AAXX 07094 85586 NIL=
85586,2004,10,07,12,00,AAXX 07124 85586 32560 80000 10108 20100 40229 52/// 8383/ 333 20078 31/// 50130 55023 56069 81820 83630 87363=
85586,2004,10,07,15,00,AAXX 07154 85586 42560 82804 10134 20109 40247 52018 8383/ 333 56769 82820 83633 87363=
85586,2004,10,07,18,00,AAXX 07184 85586 32560 82406 10146 20089 40244 54002 8213/ 333 56569 82820 88363=
85586,2004,10,07,21,00,AAXX 07214 85586 42560 72604 10146 20098 40240 56004 83530 333 56560 83630 87362=
85586,2004,10,08,00,00,AAXX 08004 85586 32560 83004 10124 20116 40259 52018 8423/ 333 10160 56769 84820 87360=
85586,2004,10,08,03,00,AAXX 08034 85586 NIL=
85586,2004,10,08,06,00,AAXX 08064 85586 NIL=
85586,2004,10,08,09,00,AAXX 08094 85586 NIL=
85586,2004,10,08,12,00,AAXX 08124 85586 32460 40000 10116 20107 40260 56/// 82530 333 20088 31/// 50140 55010 56060 82615 84362=
85586,2004,10,08,15,00,AAXX 08154 85586 42560 32706 10152 20113 40248 57011 83100 333 56600 83820=
85586,2004,10,08,18,00,AAXX 08184 85586 32560 22512 10154 20113 40236 57012 82100 333 56600 82820=
85586,2004,10,08,21,00,AAXX 08214 85586 42960 02414 10150 20101 40210 57026=
85586,2004,10,09,00,00,AAXX 09004 85586 32960 30000 10116 20096 40212 54001 80001 333 10164 56006 83075=
85586,2004,10,09,03,00,AAXX 09034 85586 NIL=
85586,2004,10,09,06,00,AAXX 09064 85586 NIL=
85586,2004,10,09,09,00,AAXX 09094 85586 NIL=
85586,2004,10,09,12,00,AAXX 09124 85586 32960 60000 10106 20098 40191 53/// 86030 333 20089 30/// 50130 55106 56060 86363=
85586,2004,10,09,15,00,AAXX 09154 85586 42560 62907 10154 20112 40199 52009 83130 333 56660 83823=
85586,2004,10,09,18,00,AAXX 09184 85586 32560 22512 10156 20112 40195 58004 82100 333 56000 82825=
85586,2004,10,09,21,00,AAXX 09214 85586 42960 02712 10146 20099 40192 57003=
85586,2004,10,10,00,00,AAXX 10004 85586 32960 02507 10110 20088 40209 52016 333 10164=
85586,2004,10,10,03,00,AAXX 10034 85586 NIL=
85586,2004,10,10,06,00,AAXX 10064 85586 NIL=
85586,2004,10,10,09,00,AAXX 10094 85586 NIL=
85586,2004,10,10,12,00,AAXX 10124 85586 32960 70000 10081 20072 40199 53/// 87030 333 20038 30/// 50140 55089 56060 87365=
85586,2004,10,10,15,00,AAXX 10154 85586 42960 72905 10125 20088 40199 54001 87030 333 56060 87365=
85586,2004,10,10,18,00,AAXX 10184 85586 32960 62407 10150 20099 40192 57006 83031 333 56066 83365 83073=
85586,2004,10,10,21,00,AAXX 10214 85586 42960 32407 10134 20097 40183 57009 80001 333 56006 83073=
85586,2004,10,11,00,00,AAXX 11004 85586 32560 50000 10119 20103 40195 52011 84101 333 10153 56606 84823=
85586,2004,10,11,03,00,AAXX 11034 85586 NIL=
85586,2004,10,11,06,00,AAXX 11064 85586 NIL=
85586,2004,10,11,09,00,AAXX 11094 85586 NIL=
85586,2004,10,11,12,00,AAXX 11124 85586 11760 80804 10116 20094 40185 53/// 60014 7606/ 333 20094 31/// 50130 55060 56079 70017 88456=
85586,2004,10,11,15,00,AAXX 11154 85586 41556 71005 10131 20100 40191 51005 78066 87200 333 56700 87825=
85586,2004,10,11,18,00,AAXX 11184 85586 11560 13212 10159 20110 40194 60041 70186 81100 333 56700 81820=
85586,2004,10,11,21,00,AAXX 11214 85586 41560 13107 10156 20096 40201 52007 70281 81100 333 56700 81820=
85586,2004,10,12,00,00,AAXX 12004 85586 32960 03203 10121 20083 40214 52013 333 10163=
85586,2004,10,12,03,00,AAXX 12034 85586 NIL=
85586,2004,10,12,06,00,AAXX 12064 85586 NIL=
85586,2004,10,12,09,00,AAXX 12094 85586 NIL=
85586,2004,10,12,12,00,AAXX 12124 85586 12560 41205 10112 20072 40211 50/// 60044 84500 333 20059 31/// 50140 55075 56700 70047 84625=
85586,2004,10,12,15,00,AAXX 12154 85586 42470 12707 10166 20069 40203 57006 81100 333 56700 81815=
85586,2004,10,12,18,00,AAXX 12184 85586 32460 12707 10161 20098 40199 56005 81100 333 56700 81815=
85586,2004,10,12,21,00,AAXX 12214 85586 42970 02610 10154 20104 40199 50000=
85586,2004,10,13,00,00,AAXX 13004 85586 31958 02603 10117 20092 40197 57003 70500 333 10171=
85586,2004,10,13,03,00,AAXX 13034 85586 NIL=
85586,2004,10,13,06,00,AAXX 13064 85586 NIL=
85586,2004,10,13,09,00,AAXX 13094 85586 NIL=
85586,2004,10,13,12,00,AAXX 13124 85586 32960 80000 10096 20088 40164 56/// 82032 333 20048 31/// 50200 55120 56066 82365 86075=
85586,2004,10,13,15,00,AAXX 13154 85586 42960 83104 10150 20115 40168 53005 81032 333 56066 81365 87075=
85586,2004,10,13,18,00,AAXX 13184 85586 32560 82804 10156 20109 40156 57011 82502 333 56606 82623 87075=
85586,2004,10,13,21,00,AAXX 13214 85586 42960 82804 10156 20122 40145 57011 80002 333 56006 88075=
85586,2004,10,14,00,00,AAXX 14004 85586 32560 80000 10124 20114 40147 54001 84502 333 10164 56006 84620 88075=
85586,2004,10,14,03,00,AAXX 14034 85586 NIL=
85586,2004,10,14,06,00,AAXX 14064 85586 NIL=
85586,2004,10,14,09,00,AAXX 14094 85586 NIL=
85586,2004,10,14,12,00,AAXX 14124 85586 32560 70604 10126 20094 40141 54/// 87500 333 20074 30/// 50190 55080 56000 87630=
85586,2004,10,14,15,00,AAXX 14154 85586 42560 83506 10146 20079 40197 53006 8483/ 333 56669 82820 83630 86365=
85586,2004,10,14,18,00,AAXX 14184 85586 32560 73112 10160 20092 40143 54003 82501 333 56606 82623 87075=
85586,2004,10,14,21,00,AAXX 14214 85586 42960 73110 10140 20100 40144 54000 83032 333 56066 83365 86075=
85586,2004,10,15,00,00,AAXX 15004 85586 32960 33104 10124 20096 40149 53006 80002 333 10166 56006 83075=
85586,2004,10,15,03,00,AAXX 15034 85586 NIL=
85586,2004,10,15,06,00,AAXX 15064 85586 NIL=
85586,2004,10,15,09,00,AAXX 15094 85586 NIL=
85586,2004,10,15,12,00,AAXX 15124 85586 32960 21205 10117 20089 40160 53/// 81031 333 20068 30/// 50210 55069 81365=
85586,2004,10,15,15,00,AAXX 15154 85586 42560 73306 10174 20100 40173 52014 83532 333 56766 83623 85363=
85586,2004,10,15,18,00,AAXX 15184 85586 32560 73208 10164 20113 40179 52006 84531 333 56666 84625=
85586,2004,10,15,21,00,AAXX 15214 85586 42560 53211 10148 20111 40184 52004 83531 333 56666 83625=
85586,2004,10,16,00,00,AAXX 16004 85586 32560 23603 10136 20120 40198 52013 82100 333 10176 56600 82825=
85586,2004,10,16,03,00,AAXX 16034 85586 NIL=
85586,2004,10,16,06,00,AAXX 16064 85586 NIL=
85586,2004,10,16,09,00,AAXX 16094 85586 NIL=
85586,2004,10,16,12,00,AAXX 16124 85586 32560 31005 10136 20111 40219 52/// 81501 333 20072 30/// 50220 55068 56606 81623=
85586,2004,10,16,15,00,AAXX 16154 85586 42560 43007 10171 20122 40220 52002 83501 333 56606 83625=
85586,2004,10,16,18,00,AAXX 16184 85586 32560 22712 10172 20132 40209 58011 82100 333 56600 82825=
85586,2004,10,16,21,00,AAXX 16214 85586 42560 12510 10162 20121 40200 57010 81100 333 56600 81825=
85586,2004,10,17,00,00,AAXX 17004 85586 32960 00000 10128 20108 40199 54002 333 10178=
85586,2004,10,17,03,00,AAXX 17034 85586 NIL=
85586,2004,10,17,06,00,AAXX 17064 85586 NIL=
85586,2004,10,17,09,00,AAXX 17094 85586 NIL=
85586,2004,10,17,12,00,AAXX 17124 85586 32960 71303 10102 20087 40205 52/// 80001 333 20041 30/// 50150 55105 56006 87075=
85586,2004,10,17,15,00,AAXX 17154 85586 42460 73007 10163 20096 40212 52009 81101 333 56706 81815 86075=
85586,2004,10,17,18,00,AAXX 17184 85586 32960 12516 10165 20091 40220 52008 81100 333 56700 81815=
85586,2004,10,17,21,00,AAXX 17214 85586 42960 02612 10161 20100 40222 50002=
85586,2004,10,18,00,00,AAXX 18004 85586 32960 00000 10121 20086 40232 52009 333 10177=
85586,2004,10,18,03,00,AAXX 18034 85586 NIL=
85586,2004,10,18,06,00,AAXX 18064 85586 NIL=
85586,2004,10,18,09,00,AAXX 18094 85586 NIL=
85586,2004,10,18,12,00,AAXX 18124 85586 32960 01406 10133 20085 40217 52/// 333 20042 30/// 50170 55115=
85586,2004,10,18,15,00,AAXX 18154 85586 42960 32612 10175 20098 40211 56004 80001 333 56006 83075=
85586,2004,10,18,18,00,AAXX 18184 85586 32960 32616 10184 20104 40199 57008 80001 333 56006 83075=
85586,2004,10,18,21,00,AAXX 18214 85586 42960 02516 10184 20111 40186 57013=
85586,2004,10,19,00,00,AAXX 19004 85586 31958 00000 10128 20089 40198 53010 70500 333 10194=
85586,2004,10,19,03,00,AAXX 19034 85586 NIL=
85586,2004,10,19,06,00,AAXX 19064 85586 NIL=
85586,2004,10,19,09,00,AAXX 19094 85586 NIL=
85586,2004,10,19,12,00,AAXX 19124 85586 32360 50000 10112 20095 40179 57/// 81631 333 20068 30/// 50220 55123 56066 81707 84362=
85586,2004,10,19,15,00,AAXX 19154 85586 42960 12610 10166 20110 40171 56007 80001 333 56006 81075=
85586,2004,10,19,18,00,AAXX 19184 85586 32960 02510 10166 20120 40161 57010=
85586,2004,10,19,21,00,AAXX 19214 85586 42960 02512 10160 20114 40167 53005=
85586,2004,10,20,00,00,AAXX 20004 85586 32960 12402 10126 20115 40179 52012 80001 333 10194 56006 81075=
85586,2004,10,20,03,00,AAXX 20034 85586 NIL=
85586,2004,10,20,06,00,AAXX 20064 85586 NIL=
85586,2004,10,20,09,00,AAXX 20094 85586 NIL=
85586,2004,10,20,12,00,AAXX 20124 85586 31556 80000 10118 20107 40207 52/// 7052/ 885// 333 20104 30/// 50230 55111 56099 88623=
85586,2004,10,20,15,00,AAXX 20154 85586 42558 80000 10134 20112 40207 54000 70522 885// 333 56099 88623=
85586,2004,10,20,18,00,AAXX 20184 85586 32560 83008 10144 20118 40207 54001 885// 333 56799 88623=
85586,2004,10,20,21,00,AAXX 20214 85586 42560 83106 10130 20119 40207 54001 885// 333 56799 88623=
85586,2004,10,21,00,00,AAXX 21004 85586 32560 82406 10116 20105 40207 54000 885// 333 10148 56799 88620=
85586,2004,10,21,03,00,AAXX 21034 85586 NIL=
85586,2004,10,21,06,00,AAXX 21064 85586 NIL=
85586,2004,10,21,09,00,AAXX 21094 85586 NIL=
85586,2004,10,21,12,00,AAXX 21124 85586 31458 81802 10120 20109 40207 53/// 7052/ 885// 333 20112 30/// 50140 55000 56699 88615=
85586,2004,10,21,15,00,AAXX 21154 85586 NIL=
85586,2004,10,21,18,00,AAXX 21184 85586 32560 82508 10161 20122 40207 58007 885// 333 56699 88625=
85586,2004,10,21,21,00,AAXX 21214 85586 42560 62412 10155 20129 40199 57008 81501 333 56606 81625 85075=
85586,2004,10,22,00,00,AAXX 22004 85586 32560 60000 10125 20114 40206 52006 81501 333 10170 56606 81625 85073=
85586,2004,10,22,03,00,AAXX 22034 85586 NIL=
85586,2004,10,22,06,00,AAXX 22064 85586 NIL=
85586,2004,10,22,09,00,AAXX 22094 85586 NIL=
85586,2004,10,22,12,00,AAXX 22124 85586 32960 31605 10130 20115 40193 53/// 80001 333 20072 30/// 50190 55032 56005 83075=
85586,2004,10,22,15,00,AAXX 22154 85586 NIL=
85586,2004,10,22,18,00,AAXX 22184 85586 32560 12420 10157 20124 40201 58009 81100 333 56600 81827=
85586,2004,10,22,21,00,AAXX 22214 85586 42960 22320 10149 20114 40205 53004 80001 333 56005 82075=
85586,2004,10,23,00,00,AAXX 23004 85586 32960 32405 10116 20090 40227 52021 80001 333 10166 56005 83075=
85586,2004,10,23,03,00,AAXX 23034 85586 NIL=
85586,2004,10,23,06,00,AAXX 23064 85586 NIL=
85586,2004,10,23,09,00,AAXX 23094 85586 NIL=
85586,2004,10,23,12,00,AAXX 23124 85586 32960 02506 10116 20069 40216 57/// 333 20036 30/// 50180 55112=
85586,2004,10,23,15,00,AAXX 23154 85586 42960 22710 10166 20086 40221 53007 80001 333 56006 82075=
85586,2004,10,23,18,00,AAXX 23184 85586 32960 02518 10166 20078 40217 58005=
85586,2004,10,23,21,00,AAXX 23214 85586 42960 72418 10154 20081 40209 57008 80001 333 56006 87075=
85586,2004,10,24,00,00,AAXX 24004 85586 NIL=
85586,2004,10,24,03,00,AAXX 24034 85586 NIL=
85586,2004,10,24,06,00,AAXX 24064 85586 NIL=
85586,2004,10,24,09,00,AAXX 24094 85586 NIL=
85586,2004,10,24,12,00,AAXX 24124 85586 32960 03003 10123 20076 40233 52/// 333 20056 30/// 50240 55111=
85586,2004,10,24,15,00,AAXX 24154 85586 42960 02516 10166 20079 40244 52015=
85586,2004,10,24,18,00,AAXX 24184 85586 32960 52514 10174 20087 40228 58016 80001 333 56005 85075=
85586,2004,10,24,21,00,AAXX 24214 85586 42960 32516 10166 20090 40255 56007 80001 333 56005 83075=
85586,2004,10,25,00,00,AAXX 25004 85586 32960 50000 10123 20081 40240 52017 80001 333 10175 56005 85075=
85586,2004,10,25,03,00,AAXX 25034 85586 NIL=
85586,2004,10,25,06,00,AAXX 25064 85586 NIL=
85586,2004,10,25,09,00,AAXX 25094 85586 NIL=
85586,2004,10,25,12,00,AAXX 25124 85586 32960 71904 10096 20085 40211 52/// 87030 333 20058 30/// 50240 55120 56060 87363=
85586,2004,10,25,15,00,AAXX 25154 85586 42960 82408 10156 20098 40202 58007 8803/ 333 56069 88363=
85586,2004,10,25,18,00,AAXX 25184 85586 32960 82612 10150 20111 40192 56010 8803/ 333 56069 88362=
85586,2004,10,25,21,00,AAXX 25214 85586 42960 72510 10144 20112 40187 56005 87030 333 56060 87362=
85586,2004,10,26,00,00,AAXX 26004 85586 32960 72706 10124 20113 40203 52015 87030 333 10174 56060 87363=
85586,2004,10,26,03,00,AAXX 26034 85586 NIL=
85586,2004,10,26,06,00,AAXX 26064 85586 NIL=
85586,2004,10,26,09,00,AAXX 26094 85586 NIL=
85586,2004,10,26,12,00,AAXX 26124 85586 32560 62406 10132 20120 40222 52/// 81502 333 20076 30/// 50160 55013 56506 81625 86075=
85586,2004,10,26,15,00,AAXX 26154 85586 42560 72608 10170 20142 40223 54003 81502 333 56506 81625 87075=
85586,2004,10,26,18,00,AAXX 26184 85586 32560 72410 10178 20142 40219 56004 81502 333 56506 81620 87075=
85586,2004,10,26,21,00,AAXX 26214 85586 42960 62608 10156 20130 40118 57012 83032 333 56066 83365 85075=
85586,2004,10,27,00,00,AAXX 27004 85586 NIL=
85586,2004,10,27,03,00,AAXX 27034 85586 NIL=
85586,2004,10,27,06,00,AAXX 27064 85586 NIL=
85586,2004,10,27,09,00,AAXX 27094 85586 NIL=
85586,2004,10,27,12,00,AAXX 27124 85586 31260 10000 10126 20111 40211 52/// 7024/ 81600 333 20083 30/// 50230 55072 56000 81704=
85586,2004,10,27,15,00,AAXX 27154 85586 42560 12510 10152 20121 40209 54001 81100 333 56000 81825=
85586,2004,10,27,18,00,AAXX 27184 85586 32960 02411 10188 20130 40188 57020=
85586,2004,10,27,21,00,AAXX 27214 85586 42960 12310 10190 20141 40166 57022 80001 333 56005 81075=
85586,2004,10,28,00,00,AAXX 28004 85586 32960 32201 10143 20121 40164 57003 80001 333 10194 56005 83075=
85586,2004,10,28,03,00,AAXX 28034 85586 NIL=
85586,2004,10,28,06,00,AAXX 28064 85586 NIL=
85586,2004,10,28,09,00,AAXX 28094 85586 NIL=
85586,2004,10,28,12,00,AAXX 28124 85586 32960 60000 10126 20115 40131 57/// 80001 333 20090 30/// 50210 55119 56005 86075=
85586,2004,10,28,15,00,AAXX 28154 85586 42960 62807 10180 20139 40140 53010 80001 333 56005 86073=
85586,2004,10,28,18,00,AAXX 28184 85586 32960 62709 10164 20129 40144 52004 80001 333 56005 86073=
85586,2004,10,28,21,00,AAXX 28214 85586 42960 52709 10162 20107 40147 53003 80001 333 56005 85075=
85586,2004,10,29,00,00,AAXX 29004 85586 32960 60606 10126 20114 40159 52011 80001 333 10178 56005 86075=
85586,2004,10,29,03,00,AAXX 29034 85586 NIL=
85586,2004,10,29,06,00,AAXX 29064 85586 NIL=
85586,2004,10,29,09,00,AAXX 29094 85586 NIL=
85586,2004,10,29,12,00,AAXX 29124 85586 31958 50903 10115 20092 40197 52/// 7050/ 80001 333 20071 30/// 50180 55097 56006 85075=
85586,2004,10,29,15,00,AAXX 29154 85586 41958 52806 10169 20096 40199 51004 70511 85030 333 56060 85365=
85586,2004,10,29,18,00,AAXX 29184 85586 32960 32409 10169 20108 40196 58003 82031 333 56066 82365=
85586,2004,10,29,21,00,AAXX 29214 85586 42960 52704 10169 20106 40189 57007 85030 333 56060 85365=
85586,2004,10,30,00,00,AAXX 30004 85586 31956 20706 10126 20091 40201 53010 70511 82030 333 10177 56060 82365=
85586,2004,10,30,03,00,AAXX 30034 85586 NIL=
85586,2004,10,30,06,00,AAXX 30064 85586 NIL=
85586,2004,10,30,09,00,AAXX 30094 85586 NIL=
85586,2004,10,30,12,00,AAXX 30124 85586 32260 20803 10129 20106 40216 52/// 82600 333 20056 30/// 50190 55116 56700 82706=
85586,2004,10,30,15,00,AAXX 30154 85586 42960 02706 10162 20098 40220 52005=
85586,2004,10,30,18,00,AAXX 30184 85586 32960 02512 10169 20108 40215 58004=
85586,2004,10,30,21,00,AAXX 30214 85586 42960 02415 10166 20090 40206 57009=
85586,2004,10,31,00,00,AAXX 31004 85586 32960 00804 10126 20081 40213 53005 333 10182=
85586,2004,10,31,03,00,AAXX 31034 85586 NIL=
85586,2004,10,31,06,00,AAXX 31064 85586 NIL=
85586,2004,10,31,09,00,AAXX 31094 85586 NIL=
85586,2004,10,31,12,00,AAXX 31124 85586 32960 00503 10135 20112 40195 53/// 333 20050 30/// 50250 55121=
85586,2004,10,31,15,00,AAXX 31154 85586 42560 02610 10186 20118 40182 57012=
85586,2004,10,31,18,00,AAXX 31184 85586 32960 32610 10194 20118 40165 57017 80001 333 56006 83075=
85586,2004,10,31,21,00,AAXX 31214 85586 42960 32615 10185 20112 40152 57013 80001 333 56006 83075=
85586,2004,11,01,00,00,AAXX 01004 85586 32960 10000 10146 20114 40164 53011 80001 333 10197 56006 81075=
85586,2004,11,01,03,00,AAXX 01034 85586 NIL=
85586,2004,11,01,06,00,AAXX 01064 85586 NIL=
85586,2004,11,01,09,00,AAXX 01094 85586 NIL=
85586,2004,11,01,12,00,AAXX 01124 85586 32960 41810 10156 20125 40146 56/// 80001 333 20088 30/// 50210 55124 56006 84075=
85586,2004,11,01,15,00,AAXX 01154 85586 42960 62608 10174 20128 40147 54001 80002 333 56006 86075=
85586,2004,11,01,18,00,AAXX 01184 85586 32960 72712 10168 20129 40144 54004 80002 333 56006 87075=
85586,2004,11,01,21,00,AAXX 01214 85586 42960 62610 10170 20122 40136 57008 80002 333 56006 86075=
85586,2004,11,02,00,00,AAXX 02004 85586 32960 73104 10142 20120 40142 53007 80002 333 10200 56006 87075=
85586,2004,11,02,03,00,AAXX 02034 85586 NIL=
85586,2004,11,02,06,00,AAXX 02064 85586 NIL=
85586,2004,11,02,09,00,AAXX 02094 85586 NIL=
85586,2004,11,02,12,00,AAXX 02124 85586 32960 70803 10128 20113 40159 52/// 87030 333 20105 30/// 50260 55080 56060 87365=
85586,2004,11,02,15,00,AAXX 02154 85586 42960 70000 10158 20127 40165 52007 84031 333 56066 84365 83075=
85586,2004,11,02,18,00,AAXX 02184 85586 32960 72707 10170 20128 40167 54002 85031 333 56066 85365=
85586,2004,11,02,21,00,AAXX 02214 85586 42960 72606 10145 20124 40157 57011 84031 333 56066 84365 83075=
85586,2004,11,03,00,00,AAXX 03004 85586 NIL=
85586,2004,11,03,03,00,AAXX 03034 85586 NIL=
85586,2004,11,03,06,00,AAXX 03064 85586 NIL=
85586,2004,11,03,09,00,AAXX 03094 85586 NIL=
85586,2004,11,03,12,00,AAXX 03124 85586 31156 63002 10124 20118 40162 52/// 7102/ 85601 333 20094 30/// 50280 55013 56605 85703=
85586,2004,11,03,15,00,AAXX 03154 85586 42460 52607 10170 20127 40162 54001 82501 333 56605 82615 83075=
85586,2004,11,03,18,00,AAXX 03184 85586 32560 32514 10173 20097 40166 52004 81101 333 56605 81825=
85586,2004,11,03,21,00,AAXX 03214 85586 42960 32613 10160 20107 40169 52003 80001 333 56005 83075=
85586,2004,11,04,00,00,AAXX 04004 85586 NIL=
85586,2004,11,04,03,00,AAXX 04034 85586 NIL=
85586,2004,11,04,06,00,AAXX 04064 85586 NIL=
85586,2004,11,04,09,00,AAXX 04094 85586 NIL=
85586,2004,11,04,12,00,AAXX 04124 85586 32960 11908 10130 20064 40229 52/// 80001 333 20040 30/// 50220 55105 56006 81075=
85586,2004,11,04,15,00,AAXX 04154 85586 42560 32714 10160 20086 40228 54000 83500 333 56500 83623=
85586,2004,11,04,18,00,AAXX 04184 85586 NIL=
85586,2004,11,04,21,00,AAXX 04214 85586 42960 02414 10154 20093 40223 57013=
85586,2004,11,05,00,00,AAXX 05004 85586 NIL=
85586,2004,11,05,03,00,AAXX 05034 85586 NIL=
85586,2004,11,05,06,00,AAXX 05064 85586 NIL=
85586,2004,11,05,09,00,AAXX 05094 85586 NIL=
85586,2004,11,05,12,00,AAXX 05124 85586 32960 01806 10144 20056 40203 56/// 333 20056 30/// 50240 55118=
85586,2004,11,05,15,00,AAXX 05154 85586 42960 01608 10204 20073 40190 57012=
85586,2004,11,05,18,00,AAXX 05184 85586 42960 02516 10172 20109 40169 57021=
85586,2004,11,05,21,00,AAXX 05214 85586 42960 22514 10182 20108 40148 57021 80001 333 56006 82075=
85586,2004,11,06,00,00,AAXX 06004 85586 NIL=
85586,2004,11,06,03,00,AAXX 06034 85586 NIL=
85586,2004,11,06,06,00,AAXX 06064 85586 NIL=
85586,2004,11,06,09,00,AAXX 06094 85586 NIL=
85586,2004,11,06,12,00,AAXX 06124 85586 32960 11605 10159 20069 40114 57/// 80001 333 20046 30/// 50290 55118 56005 81075=
85586,2004,11,06,15,00,AAXX 06154 85586 NIL=
85586,2004,11,06,18,00,AAXX 06184 85586 32960 42511 10172 20124 40109 57002 80001 333 56005 84075=
85586,2004,11,06,21,00,AAXX 06214 85586 42960 63106 10163 20129 40104 57005 82031 333 56055 82365 84075=
85586,2004,11,07,00,00,AAXX 07004 85586 NIL=
85586,2004,11,07,03,00,AAXX 07034 85586 NIL=
85586,2004,11,07,06,00,AAXX 07064 85586 NIL=
85586,2004,11,07,09,00,AAXX 07094 85586 NIL=
85586,2004,11,07,12,00,AAXX 07124 85586 31358 83105 10117 20105 40148 53/// 7052/ 886// 333 20095 30/// 50270 55102 56799 88707=
85586,2004,11,07,15,00,AAXX 07154 85586 42460 82905 10131 20107 40159 52011 885// 333 56799 88615=
85586,2004,11,07,18,00,AAXX 07184 85586 32460 82907 10143 20109 40162 52003 885// 333 56799 88618=
85586,2004,11,07,21,00,AAXX 07214 85586 42560 83005 10131 20111 40163 54001 885// 333 56799 88623=
85586,2004,11,08,00,00,AAXX 08004 85586 NIL=
85586,2004,11,08,03,00,AAXX 08034 85586 NIL=
85586,2004,11,08,06,00,AAXX 08064 85586 NIL=
85586,2004,11,08,09,00,AAXX 08094 85586 NIL=
85586,2004,11,08,12,00,AAXX 08124 85586 NIL=
85586,2004,11,08,15,00,AAXX 08154 85586 42560 80504 10140 20115 40212 52020 8453/ 333 5616/ 81620 84630 86363=
85586,2004,11,08,18,00,AAXX 08184 85586 11560 73104 10170 20126 40205 58006 69901 72022 84830 333 56160 84820 86363=
85586,2004,11,08,21,00,AAXX 08214 85586 42560 72806 10172 20142 40201 56005 84130 333 56760 84825 86363=
85586,2004,11,09,00,00,AAXX 09004 85586 NIL=
85586,2004,11,09,03,00,AAXX 09034 85586 NIL=
85586,2004,11,09,06,00,AAXX 09064 85586 NIL=
85586,2004,11,09,09,00,AAXX 09094 85586 NIL=
85586,2004,11,09,12,00,AAXX 09124 85586 11320 72504 10124 20117 40196 52/// 69904 7102/ 81630 333 20092 30/// 50190 50120 56160 70000 81707 87360=
85586,2004,11,09,15,00,AAXX 09154 85586 41558 72706 10172 20117 40190 56004 70522 82531 333 56666 82620 83360 85075=
85586,2004,11,09,18,00,AAXX 09184 85586 32960 42410 10176 20129 40186 56004 80002 333 56006 84075=
85586,2004,11,09,21,00,AAXX 09214 85586 42960 22510 10160 20114 40180 57006 80001 333 56006 82075=
85586,2004,11,10,00,00,AAXX 10004 85586 NIL=
85586,2004,11,10,03,00,AAXX 10034 85586 NIL=
85586,2004,11,10,06,00,AAXX 10064 85586 NIL=
85586,2004,11,10,09,00,AAXX 10094 85586 NIL=
85586,2004,11,10,12,00,AAXX 10124 85586 32960 03005 10131 20111 40186 52/// 333 20055 30/// 50300 55104=
85586,2004,11,10,15,00,AAXX 10154 85586 42960 02807 10167 20133 40176 58009=
85586,2004,11,10,18,00,AAXX 10184 85586 32960 12410 10168 20138 40171 57005 80001 333 56005 81075=
85586,2004,11,10,21,00,AAXX 10214 85586 42960 32507 10172 20139 40159 57012 80001 333 56005 83075=
85586,2004,11,11,00,00,AAXX 11004 85586 NIL=
85586,2004,11,11,03,00,AAXX 11034 85586 NIL=
85586,2004,11,11,06,00,AAXX 11064 85586 NIL=
85586,2004,11,11,09,00,AAXX 11094 85586 NIL=
85586,2004,11,11,12,00,AAXX 11124 85586 32460 80000 10127 20114 40166 53/// 885// 333 20110 30/// 50280 55116 56799 88615=
85586,2004,11,11,15,00,AAXX 11154 85586 42460 80000 10152 20135 40164 54002 8252/ 333 56779 82617 88464=
85586,2004,11,11,18,00,AAXX 11184 85586 32460 82406 10148 20127 40166 54002 8152/ 333 56779 81617 88464=
85586,2004,11,11,21,00,AAXX 11214 85586 41460 83006 10142 20135 40149 57017 76022 8152/ 333 56779 81617 88363=
85586,2004,11,12,00,00,AAXX 12004 85586 NIL=
85586,2004,11,12,03,00,AAXX 12034 85586 NIL=
85586,2004,11,12,06,00,AAXX 12064 85586 NIL=
85586,2004,11,12,09,00,AAXX 12094 85586 NIL=
85586,2004,11,12,12,00,AAXX 12124 85586 11515 80000 10124 20118 40158 52/// 69994 7605/ 888// 333 20124 31/// 50150 55001 56099 70009 84820 88625=
85586,2004,11,12,15,00,AAXX 12154 85586 41420 83304 10137 20132 40158 54000 76066 888// 333 56799 85815 88620=
85586,2004,11,12,18,00,AAXX 12184 85586 11456 80302 10134 20128 40158 54000 60061 76066 888// 333 56799 82815 88620=
85586,2004,11,12,21,00,AAXX 12214 85586 41415 82906 10128 20123 40154 56004 76266 888// 333 56799 85815 88620=
85586,2004,11,13,00,00,AAXX 13004 85586 NIL=
85586,2004,11,13,03,00,AAXX 13034 85586 NIL=
85586,2004,11,13,06,00,AAXX 13064 85586 NIL=
85586,2004,11,13,09,00,AAXX 13094 85586 NIL=
85586,2004,11,13,12,00,AAXX 13124 85586 11356 52506 10146 20134 40179 52/// 60334 7016/ 83201 333 20126 32/// 50120 55000 56606 70332 83810 84075=
85586,2004,11,13,15,00,AAXX 13154 85586 42460 32510 10158 20129 40186 52008 83100 333 56600 83815=
85586,2004,11,13,18,00,AAXX 13184 85586 32460 22616 10162 20115 40191 51004 82100 333 56600 82817=
85586,2004,11,13,21,00,AAXX 13214 85586 42460 12416 10162 20114 40180 57010 81100 333 56600 81617=
85586,2004,11,14,00,00,AAXX 14004 85586 NIL=
85586,2004,11,14,03,00,AAXX 14034 85586 NIL=
85586,2004,11,14,06,00,AAXX 14064 85586 NIL=
85586,2004,11,14,09,00,AAXX 14094 85586 NIL=
85586,2004,11,14,12,00,AAXX 14124 85586 32960 00000 10133 20115 40172 53/// 333 20060 31/// 50028 55122=
85586,2004,11,14,15,00,AAXX 14154 85586 42960 02311 10160 20107 40176 52005=
85586,2004,11,14,18,00,AAXX 14184 85586 32960 02418 10173 20103 40173 58003=
85586,2004,11,14,21,00,AAXX 14214 85586 42960 02412 10162 20105 40172 54001=
85586,2004,11,15,00,00,AAXX 15004 85586 NIL=
85586,2004,11,15,03,00,AAXX 15034 85586 NIL=
85586,2004,11,15,06,00,AAXX 15064 85586 NIL=
85586,2004,11,15,09,00,AAXX 15094 85586 NIL=
85586,2004,11,15,12,00,AAXX 15124 85586 32960 00000 10137 20095 40207 52/// 333 20055 31/// 50330 55128=
85586,2004,11,15,15,00,AAXX 15154 85586 42960 02708 10157 20099 40203 58004=
85586,2004,11,15,18,00,AAXX 15184 85586 32960 02512 10160 20107 40197 57006=
85586,2004,11,15,21,00,AAXX 15214 85586 42960 02412 10165 20122 40191 57006=
85586,2004,11,16,00,00,AAXX 16004 85586 NIL=
85586,2004,11,16,03,00,AAXX 16034 85586 NIL=
85586,2004,11,16,06,00,AAXX 16064 85586 NIL=
85586,2004,11,16,09,00,AAXX 16094 85586 NIL=
85586,2004,11,16,12,00,AAXX 16124 85586 32960 01503 10168 20100 40190 52/// 333 20068 30/// 50240 55128=
85586,2004,11,16,15,00,AAXX 16154 85586 42960 02512 10168 20106 40186 56003=
85586,2004,11,16,18,00,AAXX 16184 85586 32960 02610 10168 20114 40183 54003=
85586,2004,11,16,21,00,AAXX 16214 85586 42960 02608 10176 20116 40169 57014=
85586,2004,11,17,00,00,AAXX 17004 85586 NIL=
85586,2004,11,17,03,00,AAXX 17034 85586 NIL=
85586,2004,11,17,06,00,AAXX 17064 85586 NIL=
85586,2004,11,17,09,00,AAXX 17094 85586 NIL=
85586,2004,11,17,12,00,AAXX 17124 85586 32960 02904 10140 20119 40150 52/// 333 20070 30/// 50250 55129=
85586,2004,11,17,15,00,AAXX 17154 85586 42960 03108 10170 20122 40157 52012=
85586,2004,11,17,18,00,AAXX 17184 85586 32560 32608 10164 20136 40159 54003 83500 333 56600 83620=
85586,2004,11,17,21,00,AAXX 17214 85586 42560 22606 10160 20129 40156 54003 82500 333 56600 82620=
85586,2004,11,18,00,00,AAXX 18004 85586 NIL=
85586,2004,11,18,03,00,AAXX 18034 85586 NIL=
85586,2004,11,18,06,00,AAXX 18064 85586 NIL=
85586,2004,11,18,09,00,AAXX 18094 85586 NIL=
85586,2004,11,18,12,00,AAXX 18124 85586 31357 83004 10126 20119 40195 52/// 7102/ 886// 333 20122 30/// 50310 55126 56799 88708=
85586,2004,11,18,15,00,AAXX 18154 85586 42460 82907 10141 20125 40205 52011 885// 333 56799 88615=
85586,2004,11,18,18,00,AAXX 18184 85586 32560 72805 10167 20130 40203 54001 87500 333 56700 87620=
85586,2004,11,18,21,00,AAXX 18214 85586 42460 83006 10148 20127 40198 57006 885// 333 56799 88618=
85586,2004,11,19,00,00,AAXX 19004 85586 NIL=
85586,2004,11,19,03,00,AAXX 19034 85586 NIL=
85586,2004,11,19,06,00,AAXX 19064 85586 NIL=
85586,2004,11,19,09,00,AAXX 19094 85586 NIL=
85586,2004,11,19,12,00,AAXX 19124 85586 31230 80000 10116 20112 40178 53/// 7102/ 886// 333 20111 30/// 50190 55011 56799 88706=
85586,2004,11,19,15,00,AAXX 19154 85586 41357 62707 10144 20120 40188 52010 70522 86600 333 56700 86708=
85586,2004,11,19,18,00,AAXX 19184 85586 31358 33007 10155 20128 40180 57007 70522 83600 333 56700 83708=
85586,2004,11,20,00,00,AAXX 20004 85586 NIL=
85586,2004,11,20,06,00,AAXX 20064 85586 NIL=
85586,2004,11,20,12,00,AAXX 20124 85586 31208 83102 10110 20106 40156 52/// 7464/ 886// 333 20104 30/// 50150 56065 56099 88705=
85586,2004,11,20,15,00,AAXX 20154 85586 41430 83106 10146 20120 40160 51004 70544 885// 333 56099 88610=
85586,2004,11,20,18,00,AAXX 20184 85586 31450 83210 10150 20124 40165 51005 70522 885// 333 56799 88615=
85586,2004,11,20,21,00,AAXX 20214 85586 41458 63108 10150 20126 40168 54003 70522 86500 333 56700 86615=
85586,2004,11,21,00,00,AAXX 21004 85586 NIL=
85586,2004,11,21,03,00,AAXX 21034 85586 NIL=
85586,2004,11,21,06,00,AAXX 21064 85586 NIL=
85586,2004,11,21,09,00,AAXX 21094 85586 NIL=
85586,2004,11,21,12,00,AAXX 21124 85586 31450 80000 10142 20124 40180 52/// 7052/ 885// 333 20138 30/// 50140 55009 56099 88613=
85586,2004,11,21,15,00,AAXX 21154 85586 42560 83106 10164 20139 40179 54001 888// 333 56699 83820 88625=
85586,2004,11,21,18,00,AAXX 21184 85586 32560 22810 10180 20140 40179 54001 82500 333 56600 82626=
85586,2004,11,21,21,00,AAXX 21214 85586 42560 12912 10170 20139 40169 57010 81500 333 56600 81626=
85586,2004,11,22,00,00,AAXX 22004 85586 NIL=
85586,2004,11,22,03,00,AAXX 22034 85586 NIL=
85586,2004,11,22,06,00,AAXX 22064 85586 NIL=
85586,2004,11,22,09,00,AAXX 22094 85586 NIL=
85586,2004,11,22,12,00,AAXX 22124 85586 31220 83303 10127 20123 40139 57/// 7102/ 886// 333 20125 30/// 50190 55063 56799 88704=
85586,2004,11,22,15,00,AAXX 22154 85586 41357 83208 10146 20129 40148 53009 70522 886// 333 56799 88707=
85586,2004,11,22,18,00,AAXX 22184 85586 31357 83008 10152 20132 40149 54001 70522 886// 333 56799 88708=
85586,2004,11,22,21,00,AAXX 22214 85586 41358 83007 10151 20134 40147 54002 70522 886// 333 56799 88708=
85586,2004,11,23,00,00,AAXX 23004 85586 NIL=
85586,2004,11,23,03,00,AAXX 23034 85586 NIL=
85586,2004,11,23,06,00,AAXX 23064 85586 NIL=
85586,2004,11,23,09,00,AAXX 23094 85586 NIL=
85586,2004,11,23,12,00,AAXX 23124 85586 32560 71803 10145 20100 40174 52/// 87500 333 20132 30/// 50210 55000 56600 87625=
85586,2004,11,23,15,00,AAXX 23154 85586 42560 62707 10175 20112 40176 52003 81501 333 56606 84627=
85586,2004,11,23,18,00,AAXX 23184 85586 32560 42407 10178 20124 40177 54001 81501 333 56606 81627 83073=
85586,2004,11,23,21,00,AAXX 23214 85586 42560 42411 10170 20128 40174 57003 82501 333 56606 82627=
85586,2004,11,24,00,00,AAXX 24004 85586 NIL=
85586,2004,11,24,03,00,AAXX 24034 85586 NIL=
85586,2004,11,24,06,00,AAXX 24064 85586 NIL=
85586,2004,11,24,09,00,AAXX 24094 85586 NIL=
85586,2004,11,24,12,00,AAXX 24124 85586 31556 82806 10138 20119 40182 52/// 7052/ 8553/ 333 20100 30/// 50200 55092 56669 85620 87360=
85586,2004,11,24,15,00,AAXX 24154 85586 42560 73106 10160 20113 40192 52010 85530 333 56760 85626 87360=
85586,2004,11,24,18,00,AAXX 24184 85586 32560 73006 10176 20120 40197 51006 83531 333 56766 83630 83360 85075=
85586,2004,11,24,21,00,AAXX 24214 85586 42560 12806 10172 20121 40190 57007 81500 333 56600 81630=
85586,2004,11,25,00,00,AAXX 25004 85586 NIL=
85586,2004,11,25,03,00,AAXX 25034 85586 NIL=
85586,2004,11,25,06,00,AAXX 25064 85586 NIL=
85586,2004,11,25,09,00,AAXX 25094 85586 NIL=
85586,2004,11,25,12,00,AAXX 25124 85586 32560 82504 10136 20109 40207 52/// 885// 333 20096 30/// 50150 55052 56099 82625 88633=
85586,2004,11,25,15,00,AAXX 25154 85586 42560 72808 10168 20128 40209 51003 87500 333 56600 87630=
85586,2004,11,25,18,00,AAXX 25184 85586 32960 52812 10176 20112 40210 54001 83031 333 56066 83362 84075=
85586,2004,11,25,21,00,AAXX 25214 85586 42960 52806 10168 20128 40206 54005 83031 333 56066 83362 83075=
85586,2004,11,26,00,00,AAXX 26004 85586 NIL=
85586,2004,11,26,03,00,AAXX 26034 85586 NIL=
85586,2004,11,26,06,00,AAXX 26064 85586 NIL=
85586,2004,11,26,09,00,AAXX 26094 85586 NIL=
85586,2004,11,26,12,00,AAXX 26124 85586 32560 73004 10133 20119 40211 53/// 87500 333 20078 30/// 50024 55067 56799 87620=
85586,2004,11,26,15,00,AAXX 26154 85586 42560 72905 10165 20100 40211 54001 87500 333 56700 87620=
85586,2004,11,26,18,00,AAXX 26184 85586 32560 12411 10176 20128 40200 57010 81100 333 56700 81823=
85586,2004,11,26,21,00,AAXX 26214 85586 42960 02415 10168 20129 40196 57004=
85586,2004,11,27,00,00,AAXX 27004 85586 NIL=
85586,2004,11,27,03,00,AAXX 27034 85586 NIL=
85586,2004,11,27,06,00,AAXX 27064 85586 NIL=
85586,2004,11,27,09,00,AAXX 27094 85586 NIL=
85586,2004,11,27,12,00,AAXX 27124 85586 32960 02805 10156 20130 40161 57/// 333 20080 30/// 50260 55080=
85586,2004,11,27,15,00,AAXX 27154 85586 42960 02409 10182 20124 40151 57010=
85586,2004,11,27,18,00,AAXX 27184 85586 32960 02409 10170 20110 40142 57009=
85586,2004,11,27,21,00,AAXX 27214 85586 42960 02811 10170 20110 40140 57002=
85586,2004,11,28,00,00,AAXX 28004 85586 NIL=
85586,2004,11,28,03,00,AAXX 28034 85586 NIL=
85586,2004,11,28,06,00,AAXX 28064 85586 NIL=
85586,2004,11,28,09,00,AAXX 28094 85586 NIL=
85586,2004,11,28,12,00,AAXX 28124 85586 32560 83104 10134 20124 40162 52/// 885// 333 20110 30/// 50220 55122 56099 88626=
85586,2004,11,28,15,00,AAXX 28154 85586 41958 43104 10184 20138 40162 54001 70511 83031 333 56066 83362=
85586,2004,11,28,18,00,AAXX 28184 85586 32360 32710 10178 20138 40158 56004 81601 333 56706 81707 83075=
85586,2004,11,28,21,00,AAXX 28214 85586 42960 02906 10174 20139 40150 57008=
85586,2004,11,29,00,00,AAXX 29004 85586 NIL=
85586,2004,11,29,03,00,AAXX 29034 85586 NIL=
85586,2004,11,29,06,00,AAXX 29064 85586 NIL=
85586,2004,11,29,12,00,AAXX 29124 85586 31456 71004 10130 20119 40154 52/// 87500 333 20114 30/// 50290 55098 56000 87615=
85586,2004,11,29,15,00,AAXX 29154 85586 42360 32706 10160 20136 40146 57007 83600 333 56600 83707=
85586,2004,11,29,18,00,AAXX 29184 85586 32360 33104 10160 20134 40143 56003 83601 333 56606 83707=
85586,2004,11,29,21,00,AAXX 29214 85586 42460 52704 10168 20143 40140 56003 85500 333 56600 85613=
85586,2004,11,30,00,00,AAXX 30004 85586 NIL=
85586,2004,11,30,03,00,AAXX 30034 85586 NIL=
85586,2004,11,30,06,00,AAXX 30064 85586 NIL=
85586,2004,11,30,12,00,AAXX 30124 85586 31458 82102 10135 20126 40160 53/// 7102/ 886// 333 20130 30/// 50280 55085 56699 88710=
85586,2004,11,30,18,00,AAXX 30184 85586 31359 52706 10164 20132 40156 57/// 70522 85600 333 56600 85708=
85586,2004,11,30,21,00,AAXX 30214 85586 NIL=
85586,2004,12,01,00,00,AAXX 01004 85586 NIL=
85586,2004,12,01,03,00,AAXX 01034 85586 NIL=
85586,2004,12,01,06,00,AAXX 01064 85586 NIL=
85586,2004,12,01,09,00,AAXX 01094 85586 NIL=
85586,2004,12,01,12,00,AAXX 01124 85586 32460 50000 10149 20134 40151 53/// 85600 333 20130 30/// 50190 55036 56600 85717=
85586,2004,12,01,15,00,AAXX 01154 85586 42460 42908 10179 20129 40156 52006 81501 333 56605 81618 83073=
85586,2004,12,01,18,00,AAXX 01184 85586 31240 72811 10167 20150 40158 54002 70522 87600 333 56600 87705=
85586,2004,12,01,21,00,AAXX 01214 85586 41256 72908 10164 20146 40155 57003 70522 87600 333 56600 87705=
85586,2004,12,02,00,00,AAXX 02004 85586 NIL=
85586,2004,12,02,03,00,AAXX 02034 85586 NIL=
85586,2004,12,02,06,00,AAXX 02064 85586 NIL=
85586,2004,12,02,09,00,AAXX 02094 85586 NIL=
85586,2004,12,02,12,00,AAXX 02124 85586 32960 80000 10144 20136 40146 56/// 8803/ 333 20136 30/// 50240 55059 56069 88362=
85586,2004,12,02,15,00,AAXX 02154 85586 42960 72906 10184 20147 40146 54001 87030 333 56060 87362=
85586,2004,12,02,18,00,AAXX 02184 85586 32560 72410 10186 20146 40152 52006 81530 333 56660 81630 87362=
85586,2004,12,02,21,00,AAXX 02214 85586 42960 72410 10186 20134 40171 52018 87030 333 56060 87362=
85586,2004,12,03,00,00,AAXX 03004 85586 NIL=
85586,2004,12,03,03,00,AAXX 03034 85586 NIL=
85586,2004,12,03,06,00,AAXX 03064 85586 NIL=
85586,2004,12,03,09,00,AAXX 03094 85586 NIL=
85586,2004,12,03,12,00,AAXX 03124 85586 32960 13604 10168 20142 40178 52/// 81030 333 20115 30/// 50230 56060 81365=
85586,2004,12,03,15,00,AAXX 03154 85586 42560 12512 10186 20142 40175 54003 81500 333 56600 81630=
85586,2004,12,03,18,00,AAXX 03184 85586 42560 12710 10192 20145 40177 54002 81500 333 56000 81820=
85586,2004,12,03,21,00,AAXX 03214 85586 42560 12406 10176 20134 40169 57008 81100 333 56000 81820=
85586,2004,12,04,00,00,AAXX 04004 85586 NIL=
85586,2004,12,04,03,00,AAXX 04034 85586 NIL=
85586,2004,12,04,06,00,AAXX 04064 85586 NIL=
85586,2004,12,04,09,00,AAXX 04094 85586 NIL=
85586,2004,12,04,12,00,AAXX 04124 85586 32960 11804 10174 20108 40164 56/// 80001 333 20070 30/// 50230 55131 56006 81075=
85586,2004,12,04,15,00,AAXX 04154 85586 42970 12608 10193 20110 40156 58008 80001 333 56006 81075=
85586,2004,12,04,18,00,AAXX 04184 85586 32965 62518 10191 20106 40146 57010 84031 333 56076 84365=
85586,2004,12,04,21,00,AAXX 04214 85586 42960 72412 10182 20105 40138 57008 83031 333 56076 83365=
85586,2004,12,05,00,00,AAXX 05004 85586 NIL=
85586,2004,12,05,03,00,AAXX 05034 85586 NIL=
85586,2004,12,05,06,00,AAXX 05064 85586 NIL=
85586,2004,12,05,09,00,AAXX 05094 85586 NIL=
85586,2004,12,05,12,00,AAXX 05124 85586 32960 62703 10151 20108 40160 51/// 84031 333 20072 30/// 50250 55108 56076 84365=
85586,2004,12,05,15,00,AAXX 05154 85586 42965 42412 10186 20113 40148 56011 82031 333 56076 82365=
85586,2004,12,05,18,00,AAXX 05184 85586 32965 52612 10206 20110 40138 57008 82031 333 56076 82365=
85586,2004,12,05,21,00,AAXX 05214 85586 42960 52412 10189 20112 40137 57003 85001 333 56006 85075=
85586,2004,12,06,00,00,AAXX 06004 85586 NIL=
85586,2004,12,06,03,00,AAXX 06034 85586 NIL=
85586,2004,12,06,06,00,AAXX 06064 85586 NIL=
85586,2004,12,06,09,00,AAXX 06094 85586 NIL=
85586,2004,12,06,12,00,AAXX 06124 85586 32360 70000 10136 20126 40150 52/// 81631 333 20103 30/// 50280 55099 56666 81707 83365 85075=
85586,2004,12,06,15,00,AAXX 06154 85586 42960 62907 10179 20134 40166 52017 84031 333 56066 84365=
85586,2004,12,06,18,00,AAXX 06184 85586 32960 52710 10180 20137 40155 57011 83031 333 56066 82365 85075=
85586,2004,12,06,21,00,AAXX 06214 85586 42960 32812 10168 20128 40150 56005 80001 333 56006 83075=
85586,2004,12,07,00,00,AAXX 07004 85586 NIL=
85586,2004,12,07,03,00,AAXX 07034 85586 NIL=
85586,2004,12,07,06,00,AAXX 07064 85586 NIL=
85586,2004,12,07,09,00,AAXX 07094 85586 NIL=
85586,2004,12,07,12,00,AAXX 07124 85586 32960 22804 10152 20126 40163 53/// 80001 333 20083 30/// 50310 55103 56006 82075=
85586,2004,12,07,15,00,AAXX 07154 85586 42960 12408 10174 20123 40161 54001 80001 333 56006 81075=
85586,2004,12,07,18,00,AAXX 07184 85586 32960 12612 10192 20125 40151 57010 80001 333 56006 81075=
85586,2004,12,07,21,00,AAXX 07214 85586 42960 02712 10191 20117 40143 57008=
85586,2004,12,08,00,00,AAXX 08004 85586 NIL=
85586,2004,12,08,03,00,AAXX 08034 85586 NIL=
85586,2004,12,08,06,00,AAXX 08064 85586 NIL=
85586,2004,12,08,09,00,AAXX 08094 85586 NIL=
85586,2004,12,08,12,00,AAXX 08124 85586 31258 30105 10154 20122 40153 52/// 7050/ 82601 333 20114 30/// 50260 55131 56706 82704=
85586,2004,12,08,15,00,AAXX 08154 85586 42960 02914 10186 20127 40152 51002=
85586,2004,12,08,18,00,AAXX 08184 85586 32260 32812 10184 20125 40150 58004 83600 333 56700 83706=
85586,2004,12,08,21,00,AAXX 08214 85586 41340 83010 10164 20126 40144 57006 70510 886// 333 56799 88707=
85586,2004,12,09,00,00,AAXX 09004 85586 NIL=
85586,2004,12,09,03,00,AAXX 09034 85586 NIL=
85586,2004,12,09,06,00,AAXX 09064 85586 NIL=
85586,2004,12,09,09,00,AAXX 09094 85586 NIL=
85586,2004,12,09,12,00,AAXX 09124 85586 31240 80406 10136 20118 40146 52/// 7052/ 886// 333 20129 30/// 50230 55076 56799 88704=
85586,2004,12,09,15,00,AAXX 09154 85586 41256 82909 10157 20125 40154 52009 70522 886// 333 56799 88706=
85586,2004,12,09,18,00,AAXX 09184 85586 31358 82707 10165 20126 40164 52010 70522 886// 333 56799 88707=
85586,2004,12,09,21,00,AAXX 09214 85586 41356 82809 10156 20118 40169 51005 70522 886// 333 56799 88708=
85586,2004,12,10,00,00,AAXX 10004 85586 NIL=
85586,2004,12,10,03,00,AAXX 10034 85586 NIL=
85586,2004,12,10,06,00,AAXX 10064 85586 NIL=
85586,2004,12,10,09,00,AAXX 10094 85586 NIL=
85586,2004,12,10,12,00,AAXX 10124 85586 32960 01904 10158 20132 40174 56/// 333 20078 30/// 50220 55000=
85586,2004,12,10,15,00,AAXX 10154 85586 42960 02710 10190 20132 40174 54000=
85586,2004,12,10,18,00,AAXX 10184 85586 32960 12706 10194 20147 40160 57014 80001 333 56006 81075=
85586,2004,12,10,21,00,AAXX 10214 85586 42960 12510 10210 20144 40140 57018 80001 333 56006 81075=
85586,2004,12,11,00,00,AAXX 11004 85586 NIL=
85586,2004,12,11,03,00,AAXX 11034 85586 NIL=
85586,2004,12,11,06,00,AAXX 11064 85586 NIL=
85586,2004,12,11,09,00,AAXX 11094 85586 NIL=
85586,2004,12,11,12,00,AAXX 11124 85586 32960 72804 10154 20123 40160 52/// 80002 333 20096 30/// 50300 55129 56006 87075=
85586,2004,12,11,15,00,AAXX 11154 85586 41958 72906 10174 20136 40170 52011 70522 80002 333 56006 87075=
85586,2004,12,11,18,00,AAXX 11184 85586 31958 72414 10192 20125 40172 54002 70522 80002 333 56006 87075=
85586,2004,12,11,21,00,AAXX 11214 85586 42960 42514 10196 20108 40150 58022 80001 333 56006 84075=
85586,2004,12,12,00,00,AAXX 12004 85586 NIL=
85586,2004,12,12,03,00,AAXX 12034 85586 NIL=
85586,2004,12,12,06,00,AAXX 12064 85586 NIL=
85586,2004,12,12,09,00,AAXX 12094 85586 NIL=
85586,2004,12,12,12,00,AAXX 12124 85586 32958 03003 10166 20110 40154 51/// 7050/ 333 20066 30/// 50270 55116=
85586,2004,12,12,15,00,AAXX 12154 85586 42960 02405 10211 20107 40145 58007=
85586,2004,12,12,18,00,AAXX 12184 85586 32960 02520 10196 20106 40141 57005=
85586,2004,12,12,21,00,AAXX 12214 85586 42960 02614 10186 20110 40138 56004=
85586,2004,12,13,00,00,AAXX 13004 85586 NIL=
85586,2004,12,13,03,00,AAXX 13034 85586 NIL=
85586,2004,12,13,06,00,AAXX 13064 85586 NIL=
85586,2004,12,13,09,00,AAXX 13094 85586 NIL=
85586,2004,12,13,12,00,AAXX 13124 85586 31958 61204 10140 20113 40155 52/// 7052/ 80001 333 20100 30/// 50310 55129 56006 86075=
85586,2004,12,13,15,00,AAXX 13154 85586 41958 53110 10180 20128 40168 52014 70522 80002 333 56006 85075=
85586,2004,12,13,18,00,AAXX 13184 85586 32960 02910 10174 20132 40179 54001=
85586,2004,12,13,21,00,AAXX 13214 85586 42460 12608 10170 20138 40164 57005 81500 333 56600 81615=
85586,2004,12,14,00,00,AAXX 14004 85586 NIL=
85586,2004,12,14,03,00,AAXX 14034 85586 NIL=
85586,2004,12,14,06,00,AAXX 14064 85586 NIL=
85586,2004,12,14,09,00,AAXX 14094 85586 NIL=
85586,2004,12,14,12,00,AAXX 14124 85586 31330 83604 10122 20117 40160 53/// 7102/ 886// 333 20086 30/// 50330 55123 56099 88708=
85586,2004,12,14,18,00,AAXX 14184 85586 32560 42912 10179 20141 40177 52010 84500 333 56600 84620=
85586,2004,12,14,21,00,AAXX 14214 85586 NIL=
85586,2004,12,15,00,00,AAXX 15004 85586 NIL=
85586,2004,12,15,03,00,AAXX 15034 85586 NIL=
85586,2004,12,15,06,00,AAXX 15064 85586 NIL=
85586,2004,12,15,09,00,AAXX 15094 85586 NIL=
85586,2004,12,15,12,00,AAXX 15124 85586 32960 03005 10142 20123 40180 53/// 333 20076 30/// 50330 55078=
85586,2004,12,15,15,00,AAXX 15154 85586 41240 32807 10172 20149 40191 52012 70500 83600 333 56700 83704=
85586,2004,12,15,18,00,AAXX 15184 85586 32960 02410 10185 20144 40204 52013=
85586,2004,12,15,21,00,AAXX 15214 85586 42960 02710 10184 20132 40208 52004=
85586,2004,12,16,00,00,AAXX 16004 85586 NIL=
85586,2004,12,16,03,00,AAXX 16034 85586 NIL=
85586,2004,12,16,06,00,AAXX 16064 85586 NIL=
85586,2004,12,16,09,00,AAXX 16094 85586 NIL=
85586,2004,12,16,12,00,AAXX 16124 85586 32965 03105 10165 20086 40169 50/// 333 20066 30/// 50370 55129=
85586,2004,12,16,15,00,AAXX 16154 85586 42960 02709 10188 20102 40167 57002=
85586,2004,12,16,18,00,AAXX 16184 85586 32960 02312 10187 20097 40165 58002=
85586,2004,12,16,21,00,AAXX 16214 85586 42965 02616 10181 20088 40162 57003=
85586,2004,12,17,00,00,AAXX 17004 85586 NIL=
85586,2004,12,17,03,00,AAXX 17034 85586 NIL=
85586,2004,12,17,06,00,AAXX 17064 85586 NIL=
85586,2004,12,17,09,00,AAXX 17094 85586 NIL=
85586,2004,12,17,12,00,AAXX 17124 85586 32960 01404 10161 20094 40190 51/// 333 20076 30/// 50360 55128=
85586,2004,12,17,15,00,AAXX 17154 85586 42960 22607 10181 20098 40186 58003 80001 333 56006 82075=
85586,2004,12,17,18,00,AAXX 17184 85586 32960 12415 10192 20103 40185 50001 80001 333 56006 81075=
85586,2004,12,17,21,00,AAXX 17214 85586 42960 12614 10181 20114 40180 57005 80001 333 56006 81075=
85586,2004,12,18,00,00,AAXX 18004 85586 NIL=
85586,2004,12,18,03,00,AAXX 18034 85586 NIL=
85586,2004,12,18,06,00,AAXX 18064 85586 NIL=
85586,2004,12,18,09,00,AAXX 18094 85586 NIL=
85586,2004,12,18,12,00,AAXX 18124 85586 32960 03005 10156 20129 40164 53/// 333 20074 30/// 50340 55130=
85586,2004,12,18,18,00,AAXX 18184 85586 32960 02312 10190 20134 40167 54001=
85586,2004,12,18,21,00,AAXX 18214 85586 42960 22410 10195 20141 40154 57012 80001 333 56006 82075=
85586,2004,12,19,00,00,AAXX 19004 85586 NIL=
85586,2004,12,19,03,00,AAXX 19034 85586 NIL=
85586,2004,12,19,06,00,AAXX 19064 85586 NIL=
85586,2004,12,19,09,00,AAXX 19094 85586 NIL=
85586,2004,12,19,12,00,AAXX 19124 85586 32960 20903 10155 20111 40151 53/// 80001 333 20076 30/// 50300 55126 56005 82075=
85586,2004,12,19,15,00,AAXX 19154 85586 42960 02806 10180 20130 40156 52005=
85586,2004,12,19,18,00,AAXX 19184 85586 32960 02709 10182 20130 40165 52009=
85586,2004,12,19,21,00,AAXX 19214 85586 42960 02806 10170 20128 40163 54002=
85586,2004,12,20,00,00,AAXX 20004 85586 NIL=
85586,2004,12,20,03,00,AAXX 20034 85586 NIL=
85586,2004,12,20,06,00,AAXX 20064 85586 NIL=
85586,2004,12,20,09,00,AAXX 20094 85586 NIL=
85586,2004,12,20,12,00,AAXX 20124 85586 31958 00000 10162 20118 40155 52/// 7052/ 333 20084 30/// 50360 55124=
85586,2004,12,20,15,00,AAXX 20154 85586 41958 02709 10176 20115 40162 52007 70500=
85586,2004,12,20,18,00,AAXX 20184 85586 32960 02714 10185 20114 40172 52010=
85586,2004,12,20,21,00,AAXX 20214 85586 42960 02616 10194 20110 40154 58021=
85586,2004,12,21,00,00,AAXX 21004 85586 NIL=
85586,2004,12,21,03,00,AAXX 21034 85586 NIL=
85586,2004,12,21,06,00,AAXX 21064 85586 NIL=
85586,2004,12,21,09,00,AAXX 21094 85586 NIL=
85586,2004,12,21,12,00,AAXX 21124 85586 32260 20503 10156 20113 40167 51/// 82600 333 20099 30/// 50370 55130 56700 82706=
85586,2004,12,21,18,00,AAXX 21184 85586 32260 12706 10162 20113 40171 53003 81600 333 56700 81706=
85586,2004,12,21,21,00,AAXX 21214 85586 NIL=
85586,2004,12,22,00,00,AAXX 22004 85586 NIL=
85586,2004,12,22,03,00,AAXX 22034 85586 NIL=
85586,2004,12,22,06,00,AAXX 22064 85586 NIL=
85586,2004,12,22,09,00,AAXX 22094 85586 NIL=
85586,2004,12,22,12,00,AAXX 22124 85586 32960 00000 10148 20131 40155 53/// 333 20091 30/// 50300 55130=
85586,2004,12,22,15,00,AAXX 22154 85586 41257 32705 10162 20146 40131 57013 70500 83600 333 56600 83704=
85586,2004,12,22,18,00,AAXX 22184 85586 32960 02407 10186 20154 40137 57006=
85586,2004,12,22,21,00,AAXX 22214 85586 42960 02911 10190 20150 40122 57015=
85586,2004,12,23,00,00,AAXX 23004 85586 NIL=
85586,2004,12,23,03,00,AAXX 23034 85586 NIL=
85586,2004,12,23,06,00,AAXX 23064 85586 NIL=
85586,2004,12,23,09,00,AAXX 23094 85586 NIL=
85586,2004,12,23,12,00,AAXX 23124 85586 32460 72502 10148 20131 40154 52/// 87500 333 20120 30/// 50310 55129 56600 87615=
85586,2004,12,23,15,00,AAXX 23154 85586 42560 32607 10192 20154 40162 52009 83500 333 56600 83620=
85586,2004,12,23,18,00,AAXX 23184 85586 32560 12806 10204 20146 40168 52007 81500 333 56600 81620=
85586,2004,12,23,21,00,AAXX 23214 85586 42560 13206 10200 20152 40170 54002 81500 333 56600 81620=
85586,2004,12,24,00,00,AAXX 24004 85586 NIL=
85586,2004,12,24,03,00,AAXX 24034 85586 NIL=
85586,2004,12,24,06,00,AAXX 24064 85586 NIL=
85586,2004,12,24,09,00,AAXX 24094 85586 NIL=
85586,2004,12,24,12,00,AAXX 24124 85586 32960 01206 10193 20133 40167 51/// 333 20113 30/// 50370 55111=
85586,2004,12,24,15,00,AAXX 24154 85586 42965 02614 10231 20130 40148 57017=
85586,2004,12,24,18,00,AAXX 24184 85586 32965 02521 10204 20118 40136 57013=
85586,2004,12,24,21,00,AAXX 24214 85586 42960 02421 10214 20108 40118 57017=
85586,2004,12,25,00,00,AAXX 25004 85586 NIL=
85586,2004,12,25,03,00,AAXX 25034 85586 NIL=
85586,2004,12,25,06,00,AAXX 25064 85586 NIL=
85586,2004,12,25,09,00,AAXX 25094 85586 NIL=
85586,2004,12,25,12,00,AAXX 25124 85586 32960 02903 10168 20125 40118 51/// 333 20078 30/// 50390 55133=
85586,2004,12,25,15,00,AAXX 25154 85586 41960 03211 10191 20124 40128 52010 70500=
85586,2004,12,25,18,00,AAXX 25184 85586 32960 02709 10196 20120 40133 52006=
85586,2004,12,25,21,00,AAXX 25214 85586 42960 02709 10200 20128 40136 51003=
85586,2004,12,26,00,00,AAXX 26004 85586 NIL=
85586,2004,12,26,03,00,AAXX 26034 85586 NIL=
85586,2004,12,26,06,00,AAXX 26064 85586 NIL=
85586,2004,12,26,09,00,AAXX 26094 85586 NIL=
85586,2004,12,26,12,00,AAXX 26124 85586 32460 82804 10139 20122 40170 52/// 886// 333 20103 30/// 50350 55127 56699 88710=
85586,2004,12,26,15,00,AAXX 26154 85586 42460 82902 10162 20124 40178 51009 885// 333 56699 88618=
85586,2004,12,26,18,00,AAXX 26184 85586 32460 43010 10192 20140 40186 52008 84500 333 56600 84618=
85586,2004,12,26,21,00,AAXX 26214 85586 42460 23305 10184 20134 40180 58006 82500 333 56600 82618=
85586,2004,12,27,00,00,AAXX 27004 85586 NIL=
85586,2004,12,27,03,00,AAXX 27034 85586 NIL=
85586,2004,12,27,06,00,AAXX 27064 85586 NIL=
85586,2004,12,27,09,00,AAXX 27094 85586 NIL=
85586,2004,12,27,12,00,AAXX 27124 85586 31250 82504 10145 20140 40180 53/// 7102/ 886// 333 20145 30/// 50260 55061 56699 88706=
85586,2004,12,27,15,00,AAXX 27154 85586 41357 82504 10155 20147 40184 52005 71022 886// 333 56699 88707=
85586,2004,12,27,18,00,AAXX 27184 85586 32560 83005 10167 20146 40185 54001 885// 333 56699 88618=
85586,2004,12,27,21,00,AAXX 27214 85586 42560 62806 10177 20150 40171 58014 86500 333 56600 86618=
85586,2004,12,28,00,00,AAXX 28004 85586 NIL=
85586,2004,12,28,03,00,AAXX 28034 85586 NIL=
85586,2004,12,28,06,00,AAXX 28064 85586 NIL=
85586,2004,12,28,09,00,AAXX 28094 85586 NIL=
85586,2004,12,28,12,00,AAXX 28124 85586 31356 80505 10155 20124 40157 52/// 7052/ 886// 333 20143 30/// 50390 55008 56799 88708=
85586,2004,12,28,15,00,AAXX 28154 85586 41440 83108 10166 20123 40167 52010 70522 886// 333 56799 88710=
85586,2004,12,28,18,00,AAXX 28184 85586 NIL=
85586,2004,12,28,21,00,AAXX 28214 85586 42560 23306 10185 20117 40172 58004 82500 333 56700 82620=
85586,2004,12,29,00,00,AAXX 29004 85586 NIL=
85586,2004,12,29,03,00,AAXX 29034 85586 NIL=
85586,2004,12,29,06,00,AAXX 29064 85586 NIL=
85586,2004,12,29,09,00,AAXX 29094 85586 NIL=
85586,2004,12,29,12,00,AAXX 29124 85586 31956 02703 10163 20120 40164 53/// 7050/ 333 20112 30/// 50430 55064=
85586,2004,12,29,15,00,AAXX 29154 85586 41958 22712 10198 20128 40161 50002 70500 80001 333 56006 82075=
85586,2004,12,29,18,00,AAXX 29184 85586 32960 12415 10207 20137 40154 57006 80001 333 56006 81075=
85586,2004,12,29,21,00,AAXX 29214 85586 42960 02518 10203 20134 40155 55000=
85586,2004,12,30,00,00,AAXX 30004 85586 NIL=
85586,2004,12,30,03,00,AAXX 30034 85586 NIL=
85586,2004,12,30,06,00,AAXX 30064 85586 NIL=
85586,2004,12,30,09,00,AAXX 30094 85586 NIL=
85586,2004,12,30,12,00,AAXX 30124 85586 32960 02805 10155 20133 40164 53/// 333 20097 30/// 50340 55128=
85586,2004,12,30,15,00,AAXX 30154 85586 41256 13008 10162 20169 52008 70500 81600 333 56700 81703=
85586,2004,12,30,18,00,AAXX 30184 85586 31256 32710 10183 20151 40175 52006 70500 83600 333 56700 83704=
85586,2004,12,30,21,00,AAXX 30214 85586 42960 02709 10188 20157 40166 58009=
85586,2004,12,31,00,00,AAXX 31004 85586 NIL=
85586,2004,12,31,03,00,AAXX 31034 85586 NIL=
85586,2004,12,31,06,00,AAXX 31064 85586 NIL=
85586,2004,12,31,12,00,AAXX 31124 85586 32960 03103 10165 20145 40160 53/// 333 20102 30/// 50400 55112=
85586,2004,12,31,15,00,AAXX 31154 85586 42960 02808 10197 20137 40166 52007=
85586,2004,12,31,18,00,AAXX 31184 85586 31230 32609 10184 20160 40165 54002 70500 83600 333 56600 83703=
85586,2004,12,31,21,00,AAXX 31214 85586 42260 23009 10188 20148 40154 57011 82600 333 56600 82704=
