85586,2019,01,01,00,00,AAXX 01004 85586 14960 0//// 10163 20109 30022 40112 53001 60001 70000 80000 333 10190=
85586,2019,01,01,12,00,AAXX 01124 85586 14960 00000 10163 20100 30042 40132 51010 60001 70000 80000 333 20085 30/// 55125 70000=
85586,2019,01,01,15,00,AAXX 01154 85586 44960 03005 10199 20118 30039 40128 58003 70000 80000=
85586,2019,01,01,18,00,AAXX 01184 85586 14960 02509 10186 20124 30036 40125 58003 60001 70000 80000=
85586,2019,01,01,21,00,AAXX 01214 85586 44960 02415 10200 20113 30015 40104 56021 70000 80000=
85586,2019,01,02,00,00,AAXX 02004 85586 14960 12406 10164 20105 30027 40117 53010 60001 70100 80001 333 10208 56//6 81074=
85586,2019,01,02,12,00,AAXX 02124 85586 14960 22903 10152 20112 30054 40145 51018 60001 70100 80001 333 20086 30/// 55132 56//6 70000 82074=
85586,2019,01,02,15,00,AAXX 02154 85586 44958 22409 10199 20112 30050 40139 58005 70500 80001 333 56//6 82074=
85586,2019,01,02,18,00,AAXX 02184 85586 14960 22419 10195 20103 30040 40125 57013 60001 70200 80001 333 56//6 82075=
85586,2019,01,02,21,00,AAXX 02214 85586 44960 32413 10216 20096 30020 40104 58020 70200 80001 333 56//6 83075=
85586,2019,01,03,00,00,AAXX 03004 85586 14960 50000 10178 20098 30019 40104 54000 60001 70311 80002 333 10224 56//6 85075=
85586,2019,01,03,12,00,AAXX 03124 85586 14360 12704 10158 20084 30024 40110 51015 60001 70200 81600 333 20077 30/// 55130 566// 70000 81706=
85586,2019,01,03,15,00,AAXX 03154 85586 44360 12415 10176 20098 30024 40109 54000 70200 81600 333 566// 81706=
85586,2019,01,03,18,00,AAXX 03184 85586 14960 02415 10178 20100 30014 40103 58005 60001 70000 80000=
85586,2019,01,03,21,00,AAXX 03214 85586 44958 00210 10184 20106 30000 40089 58013 70500 80000=
85586,2019,01,04,00,00,AAXX 04004 85586 14957 00407 10149 20102 30005 40095 53003 60001 70500 80000 333 10228=
85586,2019,01,04,12,00,AAXX 04124 85586 14240 53205 10132 20109 30022 40113 53019 60001 70500 85500 333 20076 30/// 55137 565// 70000 85605=
85586,2019,01,04,15,00,AAXX 04154 85586 44250 83209 10149 20123 30041 40131 53020 70522 885// 333 566// 88606=
85586,2019,01,04,18,00,AAXX 04184 85586 14350 83109 10164 20128 30045 40135 50004 60001 70522 885// 333 566// 88609=
85586,2019,01,04,21,00,AAXX 04214 85586 44457 82807 10162 20128 30033 40123 58011 70522 885// 333 566// 88612=
85586,2019,01,05,00,00,AAXX 05004 85586 14458 82805 10148 20125 30029 40119 56005 60001 70522 885// 333 10174 566// 88612=
85586,2019,01,05,12,00,AAXX 05124 85586 14240 83107 10136 20128 30059 40150 51031 60001 71022 885// 333 20132 30/// 55029 566// 70000 88606=
85586,2019,01,05,15,00,AAXX 05154 85586 44460 73009 10168 20126 30074 40164 51015 70122 87500 333 567// 82812 86620=
85586,2019,01,05,18,00,AAXX 05184 85586 14960 02810 10189 20134 30060 40149 58014 60001 70000 80000=
85586,2019,01,05,21,00,AAXX 05214 85586 44960 12508 10187 20134 30048 40137 58015 70100 80001 333 56//6 81074=
85586,2019,01,06,00,00,AAXX 06004 85586 14960 32305 10155 20128 30040 40130 56008 60001 70100 80001 333 10199 56//6 83074=
85586,2019,01,06,12,00,AAXX 06124 85586 14958 4//// 10168 20116 30069 40159 51020 60001 70500 80001 333 20100 30/// 55095 56//6 70000 84074=
85586,2019,01,06,15,00,AAXX 06154 85586 44658 62608 10168 20122 30073 40163 53004 70522 86500 333 566// 86643=
85586,2019,01,06,18,00,AAXX 06184 85586 14960 42508 10210 20125 30065 40154 58007 60001 70100 80004 333 56//6 84074=
85586,2019,01,06,21,00,AAXX 06214 85586 44960 52508 10199 20123 30053 40142 57011 70100 80004 333 56//6 85074=
85586,2019,01,07,00,00,AAXX 07004 85586 14960 62310 10163 20123 30059 40149 53004 60001 70200 80004 333 10211 56//6 86074=
85586,2019,01,07,12,00,AAXX 07124 85586 14460 80000 10152 20125 30058 40149 52007 60001 70222 888// 333 20101 30/// 55101 566// 70000 84810 88612=
85586,2019,01,07,15,00,AAXX 07154 85586 44960 62609 10166 20120 30057 40147 55001 70211 80004 333 56//6 86074=
85586,2019,01,07,18,00,AAXX 07184 85586 14560 52412 10186 20133 30069 40155 53008 60001 70211 81501 333 566/6 81625 85070=
85586,2019,01,07,21,00,AAXX 07214 85586 44560 32607 10188 20135 30074 40160 51005 70211 81501 333 566/6 81625 83070=
85586,2019,01,08,00,00,AAXX 08004 85586 14560 52804 10165 20129 30089 40175 53015 60001 70311 85500 333 10197 566// 85625=
85586,2019,01,08,12,00,AAXX 08124 85586 14460 10303 10172 20130 30107 40193 51011 60001 70200 81500 333 20113 30/// 55089 566// 70000 81615=
85586,2019,01,08,15,00,AAXX 08154 85586 44560 22708 10204 20120 30107 40192 54000 70200 82500 333 566// 82620=
85586,2019,01,08,18,00,AAXX 08184 85586 14560 32412 10197 20133 30106 40191 54000 60001 70200 81501 333 566/6 81630 83075=
85586,2019,01,08,21,00,AAXX 08214 85586 44960 32510 10197 20118 30103 40188 58004 70200 80002 333 56//6 83073=
85586,2019,01,09,00,00,AAXX 09004 85586 14960 52605 10161 20141 30104 40191 53001 60001 70222 80002 333 10209 56//6 85075=
85586,2019,01,09,12,00,AAXX 09124 85586 14960 70000 10150 20132 30106 40197 51014 60001 70222 87031 333 20111 30/// 55104 56/55 70000 86367 81074=
85586,2019,01,09,15,00,AAXX 09154 85586 44960 72607 10176 20128 30104 40194 55002 70222 87051 333 56/66 83365 86368 81073=
85586,2019,01,09,18,00,AAXX 09184 85586 14960 62416 10188 20126 30097 40187 56007 60001 70122 85051 333 56/55 82364 85367 81072=
85586,2019,01,09,21,00,AAXX 09214 85586 44960 62414 10187 20123 30093 40183 57004 70222 81034 333 56/55 81365 85073 81174=
85586,2019,01,10,00,00,AAXX 10004 85586 14760 42310 10160 20124 30095 40186 53002 60001 70111 81134 333 10204 56555 81850 82367 82070=
85586,2019,01,10,12,00,AAXX 10124 85586 14960 3//// 10159 20107 30073 40163 50000 60001 70200 80001 333 20088 30/// 55056 56//5 70000 83075=
85586,2019,01,10,15,00,AAXX 10154 85586 44960 12510 10176 20110 30065 40155 56008 70100 80001 333 56//6 81075=
85586,2019,01,10,18,00,AAXX 10184 85586 14960 02415 10192 20118 30063 40153 57003 60001 70000 80000=
85586,2019,01,10,21,00,AAXX 10214 85586 44960 02710 10175 20112 30057 40147 57006 70000 80000=
85586,2019,01,11,00,00,AAXX 11004 85586 14960 02806 10147 20115 30067 40158 53009 60001 70000 80000 333 10195=
85586,2019,01,11,12,00,AAXX 11124 85586 14960 00603 10154 20106 30089 40180 51018 60001 70000 80000 333 20071 30/// 55130 70000=
85586,2019,01,11,15,00,AAXX 11154 85586 44960 02908 10180 20116 30101 40191 51012 70000 80000=
85586,2019,01,11,18,00,AAXX 11184 85586 14460 12809 10184 20125 30114 40200 50012 60001 70200 81500 333 566// 81614=
85586,2019,01,11,21,00,AAXX 11214 85586 44560 22808 10182 20125 30101 40187 57014 70200 81501 333 566/6 81620 81075=
85586,2019,01,12,00,00,AAXX 12004 85586 14960 30000 10157 20123 30096 40183 55005 60001 70300 80002 333 10194 56//6 83075=
85586,2019,01,12,12,00,AAXX 12124 85586 14360 70000 10141 20123 30110 40197 53017 60001 70222 87500 333 20087 30/// 55124 566// 70000 82608 85613 87616=
85586,2019,01,12,15,00,AAXX 12154 85586 44960 42609 10182 20123 30108 40194 58002 70211 80002 333 56//6 84073=
85586,2019,01,12,18,00,AAXX 12184 85586 14560 42509 10185 20119 30109 40195 50001 60001 70211 81502 333 566/6 81620 83073=
85586,2019,01,12,21,00,AAXX 12214 85586 44960 52310 10173 20118 30097 40183 58013 70211 80002 333 56//6 85070=
85586,2019,01,13,00,00,AAXX 13004 85586 14960 72705 10151 20126 30089 40176 55007 60001 70222 80002 333 10193 56//6 87073=
85586,2019,01,13,12,00,AAXX 13124 85586 14458 73404 10157 20132 30088 40179 51015 60001 70522 85539 333 20133 30/// 55098 56555 70000 85615 81368 81172=
85586,2019,01,13,15,00,AAXX 13154 85586 44560 42707 10191 20127 30093 40183 50005 70122 84131 333 56555 81823 84365 81073=
85586,2019,01,13,18,00,AAXX 13184 85586 14960 32809 10190 20133 30087 40177 57006 60001 70200 82031 333 56/55 82367 81074=
85586,2019,01,13,21,00,AAXX 13214 85586 44460 62609 10193 20142 30078 40168 58009 70300 85104 333 565/5 85814 84074=
85586,2019,01,14,00,00,AAXX 14004 85586 14460 62605 10165 20138 30078 40168 55002 60001 70100 81131 333 10206 56555 81818 83366 82073=
85586,2019,01,14,12,00,AAXX 14124 85586 14460 8//// 10151 20121 30086 40177 51017 60001 70222 885// 333 20141 30/// 55089 565// 70000 88616=
85586,2019,01,14,15,00,AAXX 14154 85586 44560 62508 10168 20122 30090 40180 53003 70111 82131 333 56555 82820 84362 81073=
85586,2019,01,14,18,00,AAXX 14184 85586 14960 32613 10186 20122 30083 40173 58006 60001 70100 80004 333 56//6 83073=
85586,2019,01,14,21,00,AAXX 14214 85586 44960 42413 10178 20121 30070 40160 58012 70100 81034 333 56/66 81365 84074=
85586,2019,01,15,00,00,AAXX 15004 85586 14960 32607 10156 20127 30078 40169 53007 60001 70100 80004 333 10197 56//6 83074=
85586,2019,01,15,12,00,AAXX 15124 85586 14960 02106 10156 20124 30083 40174 53013 60001 70000 80000 333 20094 30/// 55084 70000=
85586,2019,01,15,15,00,AAXX 15154 85586 44960 02411 10188 20128 30085 40175 53002 70000 80000=
85586,2019,01,15,18,00,AAXX 15184 85586 14360 12513 10191 20140 30082 40167 58006 60001 70200 81600 333 566// 81708=
85586,2019,01,15,21,00,AAXX 15214 85586 44360 72711 10174 20143 30073 40159 58009 70222 87600 333 566// 87707=
85586,2019,01,16,00,00,AAXX 16004 85586 14960 00208 10159 20127 30068 40154 55005 60001 70200 80000 333 10196=
85586,2019,01,16,12,00,AAXX 16124 85586 14960 40000 10142 20117 30090 40177 51021 60001 70211 80002 333 20109 30/// 55107 56//6 70000 84075=
85586,2019,01,16,15,00,AAXX 16154 85586 44960 12608 10187 20118 30096 40182 51004 70200 80001 333 56//6 81075=
85586,2019,01,16,18,00,AAXX 16184 85586 14960 12415 10199 20127 30092 40177 58002 60001 70200 80001 333 81073=
85586,2019,01,16,21,00,AAXX 16214 85586 44960 12417 10181 20120 30082 40168 56011 70200 80001 333 81071=
85586,2019,01,17,00,00,AAXX 17004 85586 14360 22412 10150 20122 30084 40171 53002 60001 70300 81630 333 10207 565// 81708 81360=
85586,2019,01,17,12,00,AAXX 17124 85586 14457 42902 10154 20122 30103 40190 51025 60001 70500 84600 333 20106 30/// 55119 567// 70000 84710=
85586,2019,01,17,15,00,AAXX 17154 85586 44460 12608 10178 20127 30100 40186 58003 70100 81100 333 81813=
85586,2019,01,17,18,00,AAXX 17184 85586 14960 02513 10183 20128 30095 40181 58006 60001 70000 80000=
85586,2019,01,17,21,00,AAXX 17214 85586 44960 02514 10174 20128 30079 40169 58012 70200 80000=
85586,2019,01,18,00,00,AAXX 18004 85586 14960 03006 10149 20123 30073 40164 55005 60001 70000 80000 333 10195=
85586,2019,01,18,12,00,AAXX 18124 85586 14960 00503 10166 20101 30027 40117 53009 60001 70000 80000 333 20088 30/// 55125 70000=
85586,2019,01,18,15,00,AAXX 18154 85586 44958 03408 10189 20136 30044 40133 51017 70500 80000=
85586,2019,01,18,18,00,AAXX 18184 85586 14458 12809 10190 20143 30049 40138 51005 60001 70500 81100 333 566// 81811=
85586,2019,01,18,21,00,AAXX 18214 85586 44457 42808 10190 20142 30041 40130 58007 70500 84100 333 566// 84812=
85586,2019,01,19,00,00,AAXX 19004 85586 14458 52806 10165 20144 30052 40142 53008 60001 70500 85500 333 10198 566// 85610=
85586,2019,01,19,12,00,AAXX 19124 85586 14440 80105 10160 20133 30071 40161 52022 60001 70522 885// 333 20153 30/// 55106 566// 70000 88612=
85586,2019,01,19,15,00,AAXX 19154 85586 44357 82807 10175 20148 30081 40171 51010 70522 888// 333 566// 83808 88617=
85586,2019,01,19,18,00,AAXX 19184 85586 14560 72710 10198 20145 30083 40168 58001 60001 70222 87500 333 566// 87621=
85586,2019,01,19,21,00,AAXX 19214 85586 44460 22608 10191 20134 30069 40154 58013 70211 82500 333 566// 82616=
85586,2019,01,20,00,00,AAXX 20004 85586 14460 82407 10165 20131 30060 40146 56009 60001 70222 885// 333 10204 88614=
85586,2019,01,20,12,00,AAXX 20124 85586 14460 83404 10151 20124 30064 40151 52021 60001 70222 885// 333 20144 30/// 55044 70000 88611=
85586,2019,01,20,15,00,AAXX 20154 85586 44460 83304 10163 20129 30080 40166 51015 70222 885// 333 88612=
85586,2019,01,20,18,00,AAXX 20184 85586 14459 72709 10189 20133 30077 40163 58003 60001 70522 87800 333 566// 82810 86619=
85586,2019,01,20,21,00,AAXX 20214 85586 44460 72410 10172 20134 30066 40152 57011 70322 86501 333 566// 86612 84075=
85586,2019,01,21,00,00,AAXX 21004 85586 14357 82707 10149 20133 30063 40150 55002 60001 70522 886// 333 10196 566// 88707=
85586,2019,01,21,12,00,AAXX 21124 85586 14108 80302 10127 20124 30050 40137 53012 60001 74442 886// 333 20094 30/// 55026 561// 70000 88702=
85586,2019,01,21,15,00,AAXX 21154 85586 44335 42806 10172 20138 30060 40146 51010 70542 84600 333 566// 84707=
85586,2019,01,21,18,00,AAXX 21184 85586 14360 42609 10185 20144 30056 40141 58003 60001 70142 84600 333 566// 84708=
85586,2019,01,21,21,00,AAXX 21214 85586 44960 03009 10190 20139 30038 40123 58018 70000 80000=
85586,2019,01,22,00,00,AAXX 22004 85586 14960 00407 10170 20134 30042 40128 53002 60001 70000 80000 333 10198=
85586,2019,01,22,12,00,AAXX 22124 85586 14460 73606 10151 20121 30056 40142 52008 60001 70122 87601 333 20138 30/// 55101 560// 70000 87711 81075=
85586,2019,01,22,15,00,AAXX 22154 85586 44460 43107 10181 20126 30060 40146 53003 70122 81101 333 567// 81813 83075=
85586,2019,01,22,18,00,AAXX 22184 85586 14360 72808 10167 20121 30061 40147 50001 60001 70222 81101 333 81809 87075=
85586,2019,01,22,21,00,AAXX 22214 85586 44960 52808 10179 20113 30051 40141 57006 70222 80004 333 56//6 85074=
85586,2019,01,23,00,00,AAXX 23004 85586 14960 53606 10155 20117 30044 40134 56006 60001 70222 80004 333 10189 56//6 85075=
85586,2019,01,23,12,00,AAXX 23124 85586 14260 73605 10141 20118 30047 40138 53024 60001 70222 87600 333 20074 30/// 55090 566// 70000 87704=
85586,2019,01,23,15,00,AAXX 23154 85586 44958 13013 10183 20139 30066 40156 51019 70522 80001 333 56//6 81074=
85586,2019,01,23,18,00,AAXX 23184 85586 14460 22811 10191 20140 30063 40152 58002 60001 70100 82100 333 566// 82810=
85586,2019,01,23,21,00,AAXX 23214 85586 42460 12606 10190 20141 30041 40130 56023 81100 333 566// 81813==
85586,2019,01,24,00,00,AAXX 24004 85586 14360 42704 10155 20134 30031 40121 56011 60001 70100 84500 333 10203 566// 84609=
85586,2019,01,24,12,00,AAXX 24124 85586 14357 83206 10148 20125 30054 40145 53035 60001 70522 886// 333 20138 30/// 55080 566// 70000 88709=
85586,2019,01,24,15,00,AAXX 24154 85586 44458 43006 10184 20129 30054 40144 50001 70522 84500 333 566// 84616=
85586,2019,01,24,18,00,AAXX 24184 85586 14460 22710 10183 20130 30058 40144 55001 60001 70200 82500 333 566// 82614=
85586,2019,01,24,21,00,AAXX 24214 85586 44460 52609 10181 20139 30054 40140 57003 70311 85500 333 566// 85612=
85586,2019,01,25,00,00,AAXX 25004 85586 14460 72605 10158 20131 30051 40137 55000 60001 70222 87500 333 10196 566// 87611=
85586,2019,01,25,12,00,AAXX 25124 85586 14360 82806 10143 20122 30053 40140 52017 60001 70222 886// 333 20129 30/// 55075 70000 88707=
85586,2019,01,25,15,00,AAXX 25154 85586 44960 52906 10176 20132 30061 40147 53007 70222 80002 333 56//6 85071=
85586,2019,01,25,18,00,AAXX 25184 85586 14360 52708 10177 20135 30069 40155 50008 60001 70222 84601 333 566/6 84709 84070=
85586,2019,01,25,21,00,AAXX 25214 85586 44960 02807 10185 20138 30057 40142 58012 70111 80000=
85586,2019,01,26,00,00,AAXX 26004 85586 14960 00307 10170 20130 30045 40131 56012 60001 70200 80000 333 10189=
85586,2019,01,26,12,00,AAXX 26124 85586 14950 02407 10167 20140 30026 40112 53012 60001 70500 80000 333 20097 30/// 55077 70000=
85586,2019,01,26,15,00,AAXX 26154 85586 44960 02705 10206 20141 30036 40121 53010 70200 80000=
85586,2019,01,26,18,00,AAXX 26184 85586 14960 02809 10207 20135 30038 40123 52002 60001 70000 80000=
85586,2019,01,26,21,00,AAXX 26214 85586 44960 02909 10186 20131 30031 40116 58001 70000 80000=
85586,2019,01,27,00,00,AAXX 27004 85586 14960 03507 10161 20129 30031 40117 55003 60001 70000 80000 333 10211=
85586,2019,01,27,12,00,AAXX 27124 85586 14258 20204 10156 20129 30038 40124 52015 60001 70510 81601 333 20105 30/// 55126 70000 81705 81075=
85586,2019,01,27,15,00,AAXX 27154 85586 44958 03310 10179 20139 30048 40134 51009 70510 80000=
85586,2019,01,27,18,00,AAXX 27184 85586 14260 22710 10172 20130 30050 40136 51002 60001 70010 82600 333 566// 82706=
85586,2019,01,27,21,00,AAXX 27214 85586 44460 12812 10172 20120 30038 40124 58012 70200 81100 333 566// 81812=
85586,2019,01,28,00,00,AAXX 28004 85586 14960 00208 10156 20122 30030 40116 55009 60001 70000 80000 333 10190=
85586,2019,01,28,12,00,AAXX 28124 85586 14960 00000 10152 20118 30022 40108 51010 60001 70000 80000 333 20076 30/// 55125 70000=
85586,2019,01,28,15,00,AAXX 28154 85586 44358 22908 10175 20137 30035 40121 51013 70500 82600 333 567// 82708=
85586,2019,01,28,18,00,AAXX 28184 85586 14358 12810 10187 20128 30044 40129 50009 60001 70500 81600 333 81708=
85586,2019,01,28,21,00,AAXX 28214 85586 44960 02809 10180 20121 30038 40127 55002 70000 80000=
85586,2019,01,29,00,00,AAXX 29004 85586 14460 22805 10154 20126 30040 40130 53003 60001 70300 82500 333 10191 565// 82612=
85586,2019,01,29,12,00,AAXX 29124 85586 14457 83507 10156 20124 30076 40167 51033 60001 70522 885// 333 20117 30/// 55123 565// 70000 88613=
85586,2019,01,29,15,00,AAXX 29154 85586 44458 43110 10179 20137 30088 40178 51012 70511 84500 333 565// 82612 84615=
85586,2019,01,29,18,00,AAXX 29184 85586 14458 32710 10191 20140 30085 40175 58004 60001 70500 83500 333 566// 83610=
85586,2019,01,29,21,00,AAXX 29214 85586 44460 32810 10181 20130 30073 40163 58011 70200 83500 333 566// 83615=
85586,2019,01,30,00,00,AAXX 30004 85586 14460 22505 10160 20131 30069 40159 55004 60001 70100 82500 333 10198 566// 82613=
85586,2019,01,30,12,00,AAXX 30124 85586 14240 80000 10147 20141 30075 40166 52015 60001 71022 886// 333 20117 30/// 55082 566// 70000 88704=
85586,2019,01,30,15,00,AAXX 30154 85586 44256 82604 10170 20143 30079 40169 50002 70522 886// 333 566// 88706=
85586,2019,01,30,18,00,AAXX 30184 85586 14260 72508 10174 20141 30075 40161 58009 60001 70222 87600 333 566// 87704=
85586,2019,01,30,21,00,AAXX 30214 85586 44260 82704 10156 20135 30061 40147 57015 70222 886// 333 88705=
85586,2019,01,31,00,00,AAXX 31004 85586 14360 43604 10147 20129 30051 40138 55011 60001 70111 84600 333 10186 566// 84707=
85586,2019,01,31,12,00,AAXX 31124 85586 14960 00000 10161 20127 30042 40128 53013 60001 70200 80000 333 20091 30/// 55013 70000=
85586,2019,01,31,15,00,AAXX 31154 85586 44360 13006 10187 20140 30051 40136 50008 70200 81600 333 566// 81709=
85586,2019,01,31,18,00,AAXX 31184 85586 14360 52908 10191 20148 30052 40137 50001 60001 70321 85700 333 85707=
85586,2019,01,31,21,00,AAXX 31214 85586 44960 03111 10184 20129 30043 40128 56009 70000 80000=
85586,2019,02,01,00,00,AAXX 01004 85586 14960 03205 10158 20126 30042 40128 55001 60001 70000 80000 333 10199=
85586,2019,02,01,12,00,AAXX 01124 85586 14958 00903 10157 20128 30051 40141 52013 60001 70500 80000 333 20090 30/// 55123 70000=
85586,2019,02,01,15,00,AAXX 01154 85586 44357 53108 10191 20144 30067 40156 52016 70500 85600 333 566// 85708=
85586,2019,02,01,18,00,AAXX 01184 85586 14460 32911 10191 20146 30076 40165 53010 60001 70100 83500 333 566// 83610=
85586,2019,02,01,21,00,AAXX 01214 85586 44458 53007 10187 20146 30068 40158 58007 70522 85500 333 565// 85610=
85586,2019,02,02,00,00,AAXX 02004 85586 14358 43203 10166 20145 30065 40155 55003 60001 70511 84500 333 10203 565// 84609=
85586,2019,02,02,12,00,AAXX 02124 85586 14230 83303 10155 20144 30059 40149 53009 60001 71022 886// 333 20150 30/// 55110 565// 70000 88705=
85586,2019,02,02,15,00,AAXX 02154 85586 44230 82705 10160 20147 30067 40153 52004 71022 886// 333 567// 88704=
85586,2019,02,02,18,00,AAXX 02184 85586 14150 82707 10172 20149 30057 40143 58010 60001 70542 886// 333 566// 88703=
85586,2019,02,02,21,00,AAXX 02214 85586 44357 82708 10168 20143 30046 40132 56013 70522 886// 333 567// 88708=
85586,2019,02,03,00,00,AAXX 03004 85586 14457 82904 10158 20135 30047 40133 53002 60001 70522 886// 333 10181 566// 88710=
85586,2019,02,03,12,00,AAXX 03124 85586 14230 83303 10153 20139 30043 40129 53013 60001 71022 886// 333 20148 31/// 55000 567// 70000 88706=
85586,2019,02,03,15,00,AAXX 03154 85586 44356 83006 10168 20147 30058 40144 53016 70522 886// 333 88707=
85586,2019,02,03,18,00,AAXX 03184 85586 14456 82807 10181 20139 30053 40139 57005 60001 70522 886// 333 566// 88710=
85586,2019,02,03,21,00,AAXX 03214 85586 44460 52708 10186 20143 30035 40120 57017 70222 85500 333 566// 85612=
85586,2019,02,04,00,00,AAXX 04004 85586 14360 82405 10160 20139 30035 40121 55003 60001 70222 886// 333 10193 88709=
85586,2019,02,04,12,00,AAXX 04124 85586 14230 83003 10150 20142 30048 40134 53024 60001 71022 886// 333 20145 30/// 55019 70000 88704=
85586,2019,02,04,15,00,AAXX 04154 85586 44360 83006 10166 20143 30061 40147 51013 70222 886// 333 88708=
85586,2019,02,04,18,00,AAXX 04184 85586 14460 72708 10185 20146 30053 40142 56005 60001 70222 87500 333 566// 87612=
85586,2019,02,04,21,00,AAXX 04214 85586 44460 82607 10176 20143 30040 40130 58009 70222 885// 333 566// 88612=
85586,2019,02,05,00,00,AAXX 05004 85586 14460 62505 10166 20137 30041 40131 55002 60001 70222 86500 333 10200 566// 86613=
85586,2019,02,05,12,00,AAXX 05124 85586 14230 83505 10154 20145 30044 40134 52012 60001 71022 886// 333 20148 30/// 55003 566// 70000 88705=
85586,2019,02,05,15,00,AAXX 05154 85586 44240 82806 10165 20147 30058 40148 53013 71022 886// 333 566// 88706=
85586,2019,02,05,18,00,AAXX 05184 85586 14460 82308 10189 20146 30047 40136 58010 60001 70222 885// 333 565// 85610 88614=
85586,2019,02,05,21,00,AAXX 05214 85586 44457 82408 10164 20143 30027 40117 56020 70522 885// 333 565// 88610=
85586,2019,02,06,00,00,AAXX 06004 85586 14330 82903 10151 20142 30022 40108 56011 60001 71022 886// 333 10194 567// 88708=
85586,2019,02,06,12,00,AAXX 06124 85586 14220 83505 10153 20145 30028 40118 51022 60001 71022 886// 333 20135 30/// 55000 567// 70000 88706=
85586,2019,02,06,15,00,AAXX 06154 85586 44350 82909 10180 20155 30048 40134 51017 70522 886// 333 567// 86707 87712=
85586,2019,02,06,18,00,AAXX 06184 85586 14356 72811 10198 20151 30054 40139 51006 60001 70522 87500 333 566// 85609 85613=
85586,2019,02,06,21,00,AAXX 06214 85586 44457 72506 10183 20146 30035 40120 57018 70522 87500 333 566// 87610=
85586,2019,02,07,00,00,AAXX 07004 85586 14330 82406 10154 20141 30026 40112 56010 60001 70422 886// 333 10201 566// 88708=
85586,2019,02,07,12,00,AAXX 07124 85586 14240 83407 10153 20137 30035 40121 52028 60001 71022 886// 333 20144 30/// 55024 560// 70000 88706=
85586,2019,02,07,15,00,AAXX 07154 85586 44257 83107 10174 20145 30055 40141 52020 70522 886// 333 567// 88706=
85586,2019,02,07,18,00,AAXX 07184 85586 14357 72710 10189 20140 30051 40136 55005 60001 70522 87601 333 566// 82709 87612 82075=
85586,2019,02,07,21,00,AAXX 07214 85586 44460 32808 10189 20144 30034 40119 57016 70211 83500 333 566// 83613=
85586,2019,02,08,00,00,AAXX 08004 85586 14460 43005 10163 20142 30034 40120 54000 60001 70211 81500 333 10201 566// 84610=
85586,2019,02,08,12,00,AAXX 08124 85586 14357 80706 10154 20137 30042 40132 60001 71022 886// 333 20134 30/// 55048 70000 88708=
85586,2019,02,08,15,00,AAXX 08154 85586 44460 20206 10188 20130 30048 40138 52010 70122 82101 333 561// 82810 81075=
85586,2019,02,08,18,00,AAXX 08184 85586 14960 12608 10190 20137 30045 40130 57004 60001 70000 80001 333 81075=
85586,2019,02,08,21,00,AAXX 08214 85586 44460 32707 10187 20144 30033 40118 56012 70100 82101 333 566// 82810 81075=
85586,2019,02,09,00,00,AAXX 09004 85586 14360 23005 10160 20139 30031 40117 55002 60001 70200 82601 333 10198 567// 82707 81075=
85586,2019,02,09,12,00,AAXX 09124 85586 14230 60903 10143 20135 30044 40135 53017 60001 71022 86600 333 20116 30/// 55091 566// 70000 86705=
85586,2019,02,09,15,00,AAXX 09154 85586 44458 52909 10186 20141 30059 40148 52016 70522 85500 333 566// 85612=
85586,2019,02,09,18,00,AAXX 09184 85586 14460 22810 10198 20145 30056 40145 57003 60001 70200 82100 333 566// 82814=
85586,2019,02,09,21,00,AAXX 09214 85586 44460 42706 10188 20146 30045 40134 58011 70111 84500 333 566// 84612=
85586,2019,02,10,00,00,AAXX 10004 85586 14956 02603 10167 20147 30039 40129 55007 60001 70500 80000 333 10208=
85586,2019,02,10,12,00,AAXX 10124 85586 14450 8//// 10149 20136 30046 40137 53009 60001 71022 885// 333 20134 30/// 55094 567// 70000 88610=
85586,2019,02,10,15,00,AAXX 10154 85586 44458 73107 10180 20129 30057 40147 52011 70522 87500 333 567// 87615=
85586,2019,02,10,18,00,AAXX 10184 85586 14460 32811 10192 20137 30052 40141 55005 60001 70311 81109 333 565/5 81810 82170=
85586,2019,02,10,21,00,AAXX 10214 85586 44460 32708 10186 20141 30041 40130 57011 70300 82109 333 565/5 82813 81170=
85586,2019,02,11,00,00,AAXX 11004 85586 14460 62605 10166 20143 30040 40130 55003 60001 70311 86500 333 10205 565// 86610=
85586,2019,02,11,12,00,AAXX 11124 85586 14250 60904 10147 20139 30043 40130 53013 60001 70522 82530 333 20108 30/// 55079 562// 70000 82705 85365=
85586,2019,02,11,15,00,AAXX 11154 85586 44457 62608 10186 20145 30054 40139 53010 70522 84630 333 566// 84610 83363=
85586,2019,02,11,18,00,AAXX 11184 85586 14960 52514 10195 20135 30055 40140 52001 60001 70222 85030 333 56/6/ 85362=
85586,2019,02,11,21,00,AAXX 11214 85586 44960 22512 10185 20128 30042 40127 58012 70200 82030 333 56/6/ 82363=
85586,2019,02,12,00,00,AAXX 12004 85586 14960 22706 10151 20121 30040 40126 57002 60001 70200 82030 333 10204 56/6/ 82363=
85586,2019,02,12,12,00,AAXX 12124 85586 14960 20604 10152 20124 30034 40120 53021 60001 70000 82030 333 20098 30/// 55109 56/2/ 70000 82365=
85586,2019,02,12,15,00,AAXX 12154 85586 44460 12809 10185 20139 30039 40128 51010 70100 81100 333 566// 81810=
85586,2019,02,12,18,00,AAXX 12184 85586 14460 52811 10191 20138 30045 40134 52006 60001 70222 85500 333 566// 85614=
85586,2019,02,12,21,00,AAXX 12214 85586 44460 33012 10194 20136 30052 40137 53003 70210 81131 333 567// 81815 81363 81075=
85586,2019,02,13,00,00,AAXX 13004 85586 14960 23208 10168 20130 30066 40156 53018 60001 70100 82030 333 10206 56/6/ 82365=
85586,2019,02,13,12,00,AAXX 13124 85586 14960 00903 10154 20114 30098 40189 53014 60001 70000 80000 333 20094 30/// 55122 70000=
85586,2019,02,13,15,00,AAXX 13154 85586 44960 02609 10201 20112 30106 40195 50010 70000 80000=
85586,2019,02,13,18,00,AAXX 13184 85586 14960 02515 10205 20126 30100 40189 55006 60001 70000 80000=
85586,2019,02,13,21,00,AAXX 13214 85586 44960 02410 10199 20139 30082 40171 56018 70000 80000=
85586,2019,02,14,00,00,AAXX 14004 85586 14460 12407 10170 20143 30079 40169 55003 60001 70300 81100 333 10214 565// 81812=
85586,2019,02,14,12,00,AAXX 14124 85586 14960 01103 10187 20123 30027 40116 56008 60001 70000 80000 333 20096 30/// 55124 70000=
85586,2019,02,14,15,00,AAXX 14154 85586 44960 22412 10210 20143 30026 40110 58003 70000 80001 333 82075=
85586,2019,02,14,18,00,AAXX 14184 85586 14950 32413 10216 20153 30009 40097 56014 60001 70510 80001 333 56//5 83073=
85586,2019,02,14,21,00,AAXX 14214 85586 44958 02810 10204 20150 30006 40090 56006 70500 80000=
85586,2019,02,15,00,00,AAXX 15004 85586 14458 33106 10167 20144 30017 40103 53010 60001 70500 83500 333 10235 567// 83611=
85586,2019,02,15,12,00,AAXX 15124 85586 14450 83406 10172 20145 30033 40119 52023 60001 70522 886// 333 20161 30/// 55119 560// 70000 88710=
85586,2019,02,15,15,00,AAXX 15154 85586 44460 83111 10186 20157 30050 40135 51017 70222 885// 333 566// 82710 88616=
85586,2019,02,15,18,00,AAXX 15184 85586 14560 13015 10202 20157 30054 40139 50004 60001 70121 81100 333 567// 81825=
85586,2019,02,15,21,00,AAXX 15214 85586 44460 12911 10201 20158 30048 40133 57006 70200 81500 333 566// 81615=
85586,2019,02,16,00,00,AAXX 16004 85586 14960 23006 10175 20157 30049 40135 53001 60001 70200 80001 333 10211 56//6 82075=
85586,2019,02,16,12,00,AAXX 16124 85586 14460 83304 10169 20159 30089 40175 53022 60001 70222 885// 333 20167 30/// 55056 566// 70000 85617 88626=
85586,2019,02,16,15,00,AAXX 16154 85586 44460 83310 10186 20153 30102 40188 51013 70222 885// 333 566// 82612 83620 88625=
85586,2019,02,16,18,00,AAXX 16184 85586 14560 83310 10197 20145 30094 40179 58006 60001 70222 885// 333 566// 83620 85624 88632=
85586,2019,02,16,21,00,AAXX 16214 85586 44660 52808 10202 20140 30074 40163 56016 70100 85500 333 566// 85634=
85586,2019,02,17,00,00,AAXX 17004 85586 14960 02204 10173 20141 30063 40153 56011 60001 70000 80000 333 10214=
85586,2019,02,17,12,00,AAXX 17124 85586 14356 5//// 10157 20139 30056 40146 53016 60001 71000 85600 333 20106 30/// 55021 566// 70000 85707=
85586,2019,02,17,15,00,AAXX 17154 85586 44460 13307 10199 20146 30063 40152 51008 70100 81100 333 566// 81814=
85586,2019,02,17,18,00,AAXX 17184 85586 14460 42807 10203 20152 30060 40149 58003 60001 70100 84500 333 566// 84611=
85586,2019,02,17,21,00,AAXX 17214 85586 44360 72607 10188 20159 30051 40140 57008 70222 87500 333 565// 87609=
85586,2019,02,18,00,00,AAXX 18004 85586 14257 53204 10176 20163 30046 40136 55006 60001 70500 85500 333 10207 565// 85606=
85586,2019,02,18,12,00,AAXX 18124 85586 14330 82703 10162 20149 30060 40150 53013 60001 71022 886// 333 20125 30/// 55063 566// 70000 88707=
85586,2019,02,18,15,00,AAXX 18154 85586 44230 82504 10169 20153 30077 40167 52014 71022 885// 333 565// 88606=
85586,2019,02,18,18,00,AAXX 18184 85586 14230 82807 10172 20157 30085 40171 51005 60001 71022 886// 333 567// 88705=
85586,2019,02,18,21,00,AAXX 18214 85586 44240 82508 10169 20154 30075 40161 56010 71022 886// 333 566// 85705 88710=
85586,2019,02,19,00,00,AAXX 19004 85586 14257 82506 10158 20148 30074 40160 55002 60001 70522 886// 333 10205 567// 88705=
85586,2019,02,19,12,00,AAXX 19124 85586 14225 80603 10152 20146 30063 40150 53006 60001 72052 886// 333 20149 31/// 55000 561// 79999 88704=
85586,2019,02,19,15,00,AAXX 19154 85586 44340 82904 10171 20149 30076 40162 51011 70522 886// 333 567// 88707=
85586,2019,02,19,18,00,AAXX 19184 85586 14340 82809 10178 20146 30074 40160 56001 60001 70522 887// 333 567// 88707=
85586,2019,02,19,21,00,AAXX 19214 85586 44360 82807 10172 20147 30073 40159 50001 70222 886// 333 88708=
85586,2019,02,20,00,00,AAXX 20004 85586 14230 83303 10162 20151 30066 40152 55007 60001 71022 886// 333 10190 88706=
85586,2019,02,20,12,00,AAXX 20124 85586 14256 83605 10165 20160 30061 40147 53018 69901 75052 886// 333 20154 31/// 55002 70002 88706=
85586,2019,02,20,15,00,AAXX 20154 85586 44457 82807 10191 20166 30067 40152 50005 70522 885// 333 566// 83610 88617=
85586,2019,02,20,18,00,AAXX 20184 85586 14360 82910 10202 20167 30067 40152 54000 69901 70222 885// 333 566// 84707 85621 85625=
85586,2019,02,20,21,00,AAXX 20214 85586 44360 52707 10195 20164 30044 40133 58019 70122 85800 333 566// 84808 85622=
85586,2019,02,21,00,00,AAXX 21004 85586 14960 02703 10174 20154 30040 40130 55005 60001 70000 80000 333 10208=
85586,2019,02,21,12,00,AAXX 21124 85586 14460 83404 10180 20151 30069 40159 52012 60001 70222 885// 333 20153 30/// 55043 566// 79999 88614=
85586,2019,02,21,15,00,AAXX 21154 85586 44560 83406 10212 20142 30083 40172 51013 70222 885// 333 566// 88628=
85586,2019,02,21,18,00,AAXX 21184 85586 14660 73109 10215 20154 30084 40173 50001 60001 70222 87500 333 566// 87637=
85586,2019,02,21,21,00,AAXX 21214 85586 44660 42810 10207 20168 30078 40167 56006 70111 84500 333 566// 84647=
85586,2019,02,22,00,00,AAXX 22004 85586 14360 5//// 10180 20165 30077 40167 50001 60001 70100 85600 333 10223 566// 85708=
85586,2019,02,22,12,00,AAXX 22124 85586 14457 7//// 10175 20150 30090 40180 53009 60001 70522 87500 333 20157 30/// 55038 565// 70000 84610 87637=
85586,2019,02,22,15,00,AAXX 22154 85586 44460 22610 10202 20163 30089 40178 50000 70111 81101 333 566/6 81810 81075=
85586,2019,02,22,18,00,AAXX 22184 85586 14360 12414 10211 20168 30082 40167 58011 60001 70121 81600 333 565// 81708=
85586,2019,02,22,21,00,AAXX 22214 85586 44960 02415 10217 20159 30063 40148 58020 70000 80000=
85586,2019,02,23,00,00,AAXX 23004 85586 14960 0//// 10190 20145 30058 40143 55005 60001 70000 80000 333 10227=
85586,2019,02,23,12,00,AAXX 23124 85586 14960 02503 10168 20152 30039 40125 51014 60001 70000 80000 333 20110 30/// 55101 70000=
85586,2019,02,23,15,00,AAXX 23154 85586 44260 22310 10193 20154 30042 40127 50003 70300 82600 333 566// 82705=
85586,2019,02,23,18,00,AAXX 23184 85586 14960 02418 10197 20150 30032 40117 56010 60001 70200 80000=
85586,2019,02,23,21,00,AAXX 23214 85586 44960 02416 10204 20148 30021 40106 58011 70200 80000=
85586,2019,02,24,00,00,AAXX 24004 85586 14960 02404 10173 20131 30026 40112 53005 60001 70200 80000 333 10214=
85586,2019,02,24,12,00,AAXX 24124 85586 14960 00000 10135 20121 30047 40134 51017 60001 70200 80000 333 20081 30/// 55116 70000=
85586,2019,02,24,15,00,AAXX 24154 85586 44960 02907 10184 20122 30052 40137 52005 70000 80000=
85586,2019,02,24,18,00,AAXX 24184 85586 14960 02512 10199 20118 30050 40135 57002 60001 70200 80000=
85586,2019,02,24,21,00,AAXX 24214 85586 44560 12416 10187 20116 30042 40127 57009 70300 81500 333 566// 81620=
85586,2019,02,25,00,00,AAXX 25004 85586 14960 0//// 10147 20109 30049 40136 52007 60001 70000 80000 333 10207=
85586,2019,02,25,12,00,AAXX 25124 85586 14960 00000 10136 20095 30050 40141 51016 60001 70000 80000 333 20067 30/// 55117 70000=
85586,2019,02,25,15,00,AAXX 25154 85586 44960 02907 10172 20124 30062 40152 53013 70000 80000=
85586,2019,02,25,18,00,AAXX 25184 85586 14960 02511 10185 20104 30070 40160 52008 60001 70200 80000=
85586,2019,02,25,21,00,AAXX 25214 85586 44960 02711 10168 20111 30068 40158 58002 70000 80000=
85586,2019,02,26,00,00,AAXX 26004 85586 14960 02803 10140 20108 30072 40163 53004 60001 70000 80000 333 10192=
85586,2019,02,26,12,00,AAXX 26124 85586 14960 0//// 10133 20096 30055 40146 53005 60001 70000 80000 333 20076 30/// 55116 70000=
85586,2019,02,26,15,00,AAXX 26154 85586 44960 02806 10174 20112 30063 40153 52008 70000 80000=
85586,2019,02,26,18,00,AAXX 26184 85586 14960 02606 10190 20114 30056 40145 58006 60001 70000 80000=
85586,2019,02,26,21,00,AAXX 26214 85586 44960 02608 10184 20118 30052 40141 56005 70000 80000=
85586,2019,02,27,00,00,AAXX 27004 85586 14960 02803 10147 20121 30055 40146 52003 60001 70000 80000 333 10194=
85586,2019,02,27,12,00,AAXX 27124 85586 14112 80702 10117 20111 30055 40143 53008 60001 74122 886// 333 20077 30/// 55115 561// 70000 88702=
85586,2019,02,27,15,00,AAXX 27154 85586 44356 22906 10170 20128 30069 40155 53012 70542 82600 333 566// 82707=
85586,2019,02,27,18,00,AAXX 27184 85586 14360 32608 10172 20130 30068 40154 50001 60001 70300 83600 333 566// 83709=
85586,2019,02,27,21,00,AAXX 27214 85586 44260 82707 10157 20132 30065 40151 55003 70222 886// 333 88705=
85586,2019,02,28,00,00,AAXX 28004 85586 14360 72903 10146 20127 30067 40154 52002 60001 70222 87600 333 10185 566// 87709=
85586,2019,02,28,12,00,AAXX 28124 85586 14250 82605 10120 20106 30068 40156 53012 60001 71022 886// 333 20115 30/// 55059 70000 88706=
85586,2019,02,28,15,00,AAXX 28154 85586 44460 82606 10139 20110 30082 40169 52014 70222 886// 333 88710=
85586,2019,02,28,18,00,AAXX 28184 85586 14460 52610 10167 20113 30085 40171 53002 60001 70120 85500 333 566// 85616=
85586,2019,02,28,21,00,AAXX 28214 85586 44460 22908 10169 20117 30071 40161 55009 70100 82100 333 566// 82817=
85586,2019,03,01,00,00,AAXX 01004 85586 14460 52505 10145 20109 30073 40164 53002 60001 70100 85500 333 10180 566// 85616=
85586,2019,03,01,12,00,AAXX 01124 85586 14960 11202 10134 20104 30074 40161 52016 60001 70100 80001 333 20092 30/// 55054 79999 81075=
85586,2019,03,01,15,00,AAXX 01154 85586 44960 32706 10173 20121 30080 40166 52007 70200 80001 333 83075=
85586,2019,03,01,18,00,AAXX 01184 85586 14360 42511 10171 20127 30073 40159 56007 60001 70310 82601 333 82708 82075=
85586,2019,03,01,21,00,AAXX 01214 85586 44360 43008 10170 20136 30066 40156 57003 70300 82101 333 565/6 82808 82075=
85586,2019,03,02,00,00,AAXX 02004 85586 14360 73606 10157 20136 30066 40156 53001 60001 70300 87500 333 10186 567// 87609=
85586,2019,03,02,12,00,AAXX 02124 85586 14230 8//// 10127 20119 30067 40158 53014 60001 71022 886// 333 20089 30/// 55117 565// 70000 88704=
85586,2019,03,02,15,00,AAXX 02154 85586 44457 23108 10180 20136 30079 40169 53012 70522 82100 333 565// 82810=
85586,2019,03,02,18,00,AAXX 02184 85586 14460 42811 10187 20144 30078 40168 50000 60001 70122 84100 333 566// 84810=
85586,2019,03,02,21,00,AAXX 02214 85586 44260 62608 10162 20132 30072 40162 55007 70311 86500 333 565// 86605=
85586,2019,03,03,00,00,AAXX 03004 85586 14360 3//// 10146 20128 30073 40164 53002 60001 70100 81101 333 10201 566/5 81808 82075=
85586,2019,03,03,12,00,AAXX 03124 85586 14350 72603 10132 20113 30071 40162 53017 60001 70522 87500 333 20127 30/// 55079 566// 70000 87608=
85586,2019,03,03,15,00,AAXX 03154 85586 44460 72606 10155 20109 30079 40170 51008 70122 85531 333 56655 85614 81360 81075=
85586,2019,03,03,18,00,AAXX 03184 85586 14460 42608 10169 20115 30076 40162 58007 60001 70121 81130 333 566// 81814 83358=
85586,2019,03,03,21,00,AAXX 03214 85586 44460 52608 10172 20124 30064 40150 56012 70210 82130 333 82813 83365=
85586,2019,03,04,00,00,AAXX 04004 85586 14360 72604 10142 20123 30062 40149 57002 60001 70321 85631 333 10188 566// 85709 81367 82075=
85586,2019,03,04,12,00,AAXX 04124 85586 14358 50903 10116 20107 30083 40171 53018 60001 70521 85600 333 20089 30/// 55063 562// 70000 85709=
85586,2019,03,04,15,00,AAXX 04154 85586 44960 12607 10169 20125 30091 40177 53009 70100 80002 333 81075=
85586,2019,03,04,18,00,AAXX 04184 85586 14960 42515 10195 20116 30084 40169 57008 60001 70200 80001 333 84075=
85586,2019,03,04,21,00,AAXX 04214 85586 44960 22412 10195 20124 30069 40157 56011 70111 80001 333 56//6 82074=
85586,2019,03,05,00,00,AAXX 05004 85586 14960 0//// 10160 20114 30071 40161 53002 60001 70000 80000 333 10203=
85586,2019,03,05,12,00,AAXX 05124 85586 14960 0//// 10138 20095 30062 40153 52006 60001 70000 80000 333 20071 30/// 55055 70000=
85586,2019,03,05,15,00,AAXX 05154 85586 44960 02307 10237 20106 30062 40150 54001 70000 80000=
85586,2019,03,05,18,00,AAXX 05184 85586 14960 02416 10197 20105 30060 40149 58002 60001 70000 80000=
85586,2019,03,05,21,00,AAXX 05214 85586 44960 02509 10199 20104 30052 40141 56008 70000 80000=
85586,2019,03,06,00,00,AAXX 06004 85586 14960 00505 10148 20101 30061 40148 53005 60001 70200 80000 333 10249=
85586,2019,03,06,12,00,AAXX 06124 85586 14960 0//// 10130 20077 30066 40157 53015 60001 70000 80000 333 20067 30/// 55109 70000=
85586,2019,03,06,15,00,AAXX 06154 85586 44960 02806 10180 20112 30073 40159 52003 70200 80000=
85586,2019,03,06,18,00,AAXX 06184 85586 14960 02513 10202 20110 30062 40151 57007 60001 70000 80000=
85586,2019,03,06,21,00,AAXX 06214 85586 44960 02414 10183 20117 30055 40144 56008 70000 80000=
85586,2019,03,07,00,00,AAXX 07004 85586 14960 00000 10147 20115 30070 40157 53012 60001 70200 80000 333 10202=
85586,2019,03,07,12,00,AAXX 07124 85586 14960 1//// 10123 20109 30083 40175 52011 60001 70200 80001 333 20066 30/// 55110 70000 81075=
85586,2019,03,07,15,00,AAXX 07154 85586 44960 22706 10191 20117 30084 40174 50002 70200 81031 333 56/77 81367 81075=
85586,2019,03,07,18,00,AAXX 07184 85586 14256 42413 10194 20155 30078 40163 56010 60001 70510 84630 333 565// 84705 81365=
85586,2019,03,07,21,00,AAXX 07214 85586 44105 82609 10156 20148 30065 40151 57011 74742 886// 333 566// 88701=
85586,2019,03,08,00,00,AAXX 08004 85586 14960 00405 10152 20125 30059 40145 55006 60001 70042 80000 333 10204=
85586,2019,03,08,12,00,AAXX 08124 85586 14458 80205 10145 20119 30036 40123 53011 60001 70522 887// 333 20112 30/// 55056 561// 70000 88710=
85586,2019,03,08,15,00,AAXX 08154 85586 44460 73211 10172 20126 30038 40124 50004 70222 87800 333 567// 83813 85645=
85586,2019,03,08,18,00,AAXX 08184 85586 14460 43013 10172 20130 30037 40123 55001 60001 70121 84100 333 567// 84810=
85586,2019,03,08,21,00,AAXX 08214 85586 44460 23010 10176 20130 30033 40123 55001 70100 82100 333 566// 82818=
85586,2019,03,09,00,00,AAXX 09004 85586 14460 4//// 10150 20132 30038 40128 50005 60001 70100 84500 333 10190 566// 84614=
85586,2019,03,09,12,00,AAXX 09124 85586 14457 73303 10152 20114 30029 40119 53006 60001 70511 87500 333 20131 30/// 55078 566// 70000 87619=
85586,2019,03,09,15,00,AAXX 09154 85586 44960 02707 10187 20114 30025 40114 58004 70000 80000=
85586,2019,03,09,18,00,AAXX 09184 85586 14960 02809 10187 20106 30020 40105 56009 60001 70200 80000=
85586,2019,03,09,21,00,AAXX 09214 85586 44960 62808 10182 20123 30018 40103 57002 70311 80002 333 56//6 86070=
85586,2019,03,10,00,00,AAXX 10004 85586 14960 63004 10164 20135 30028 40114 53008 60001 70222 86030 333 10198 56/6/ 86366=
85586,2019,03,10,12,00,AAXX 10124 85586 14960 10903 10154 20120 30056 40146 53019 60001 70300 81030 333 20119 30/// 55077 56/5/ 70000 81367=
85586,2019,03,10,15,00,AAXX 10154 85586 44960 02708 10202 20113 30064 40153 53008 70000 80000=
85586,2019,03,10,18,00,AAXX 10184 85586 14960 02707 10210 20109 30060 40149 55005 60001 70000 80000=
85586,2019,03,10,21,00,AAXX 10214 85586 44960 02707 10196 20117 30050 40139 56008 70000 80000=
85586,2019,03,11,00,00,AAXX 11004 85586 14960 0//// 10160 20139 30047 40137 55004 60001 70000 80000 333 10215=
85586,2019,03,11,12,00,AAXX 11124 85586 14356 20904 10147 20128 30064 40151 51013 60001 70522 82600 333 20120 30/// 55081 562// 70000 82708=
85586,2019,03,11,15,00,AAXX 11154 85586 44960 02507 10195 20144 30063 40152 50003 70000 80000=
85586,2019,03,11,18,00,AAXX 11184 85586 14360 22516 10183 20139 30068 40154 53002 60001 70300 82600 333 567// 82708=
85586,2019,03,11,21,00,AAXX 11214 85586 44360 12709 10177 20141 30070 40156 50002 70200 81100 333 567// 81807=
85586,2019,03,12,00,00,AAXX 12004 85586 14360 23104 10153 20140 30072 40159 52002 60001 70200 82500 333 10198 567// 82608=
85586,2019,03,12,12,00,AAXX 12124 85586 14120 42602 10130 20125 30048 40135 55004 60001 71022 84600 333 20091 30/// 55107 566// 70000 84702=
85586,2019,03,12,15,00,AAXX 12154 85586 44956 02706 10184 20137 30042 40131 56002 70500 80000=
85586,2019,03,12,18,00,AAXX 12184 85586 14220 52511 10162 20137 30048 40134 52002 60001 70542 85600 333 565// 85704=
85586,2019,03,12,21,00,AAXX 12214 85586 44240 82707 10154 20134 30040 40130 55003 70522 886// 333 566// 88704=
85586,2019,03,13,00,00,AAXX 13004 85586 14230 82706 10144 20133 30047 40138 53006 60001 71022 886// 333 10188 566// 88705=
85586,2019,03,13,12,00,AAXX 13124 85586 14220 80605 10127 20121 30034 40125 52010 60001 71022 886// 333 20126 30/// 55051 566// 70000 88704=
85586,2019,03,13,15,00,AAXX 13154 85586 44358 52607 10158 20128 30044 40134 52009 70522 85502 333 566/6 85609 85073=
85586,2019,03,13,18,00,AAXX 13184 85586 14260 72707 10160 20130 30050 40136 54000 60001 70222 86602 333 566/6 86706 83070=
85586,2019,03,13,21,00,AAXX 13214 85586 44260 82906 10153 20133 30045 40131 56004 70222 886// 333 88705=
85586,2019,03,14,00,00,AAXX 14004 85586 14360 82904 10152 20134 30048 40134 53002 60001 70222 886// 333 10183 88708=
85586,2019,03,14,12,00,AAXX 14124 85586 14335 83203 10138 20122 30054 40141 53015 60001 71022 886// 333 20136 30/// 55028 70000 88707=
85586,2019,03,14,15,00,AAXX 14154 85586 44457 32807 10164 20126 30066 40152 51011 70542 83600 333 566// 83710=
85586,2019,03,14,18,00,AAXX 14184 85586 14358 53008 10160 20124 30070 40156 52005 60001 70622 85600 333 566// 85707=
85586,2019,03,14,21,00,AAXX 14214 85586 44460 32907 10173 20133 30063 40149 56007 70111 83100 333 567// 83810=
85586,2019,03,15,00,00,AAXX 15004 85586 14960 02903 10144 20131 30067 40154 53003 60001 70000 80000 333 10179=
85586,2019,03,15,12,00,AAXX 15124 85586 14225 80902 10127 20116 30069 40156 52018 60001 71022 886// 333 20108 30/// 561// 70000 88706=
85586,2019,03,15,15,00,AAXX 15154 85586 44358 22606 10162 20116 30075 40161 50006 70521 82600 333 566// 82708=
85586,2019,03,15,18,00,AAXX 15184 85586 14360 12608 10169 20121 30069 40155 57006 60001 70121 81600 333 81708=
85586,2019,03,15,21,00,AAXX 15214 85586 44460 12609 10171 20125 30066 40152 57004 70300 81600 333 566// 81710=
85586,2019,03,16,00,00,AAXX 16004 85586 14460 52804 10150 20127 30079 40166 52014 60001 70311 85500 333 10180 565// 85610=
85586,2019,03,16,12,00,AAXX 16124 85586 14458 7//// 10130 20104 30068 40159 51004 60001 70511 87500 333 20128 30/// 55090 566// 70000 87613=
85586,2019,03,16,15,00,AAXX 16154 85586 44958 32607 10156 20108 30063 40153 57006 70522 80002 333 56//6 83074=
85586,2019,03,16,18,00,AAXX 16184 85586 14460 12609 10172 20126 30057 40147 58004 60001 70100 81100 333 566// 81812=
85586,2019,03,16,21,00,AAXX 16214 85586 44360 82410 10150 20125 30068 40159 53008 70200 886// 333 566// 88707=
85586,2019,03,17,00,00,AAXX 17004 85586 14360 82404 10146 20125 30082 40173 53016 60001 70222 886// 333 10180 566// 88709=
85586,2019,03,17,12,00,AAXX 17124 85586 14356 8//// 10126 20109 30081 40173 53008 60001 71022 886// 333 20124 30/// 55069 566// 70000 88708=
85586,2019,03,17,15,00,AAXX 17154 85586 44957 02607 10164 20118 30076 40166 58003 70522 80000=
85586,2019,03,17,18,00,AAXX 17184 85586 14960 02414 10170 20126 30074 40160 57007 60001 70200 80000=
85586,2019,03,17,21,00,AAXX 17214 85586 44260 52609 10155 20128 30065 40152 56010 70311 85600 333 566// 85706=
85586,2019,03,18,00,00,AAXX 18004 85586 14360 20707 10136 20118 30069 40156 53005 60001 70111 82600 333 10175 566// 82707=
85586,2019,03,18,12,00,AAXX 18124 85586 14960 0//// 10102 20097 30067 40154 52011 60001 70000 80000 333 20071 30/// 55066 70000=
85586,2019,03,18,15,00,AAXX 18154 85586 44960 42710 10168 20122 30069 40155 51004 70211 80001 333 56//6 84075=
85586,2019,03,18,18,00,AAXX 18184 85586 14960 62417 10187 20116 30064 40149 57006 60001 70221 80001 333 86075=
85586,2019,03,18,21,00,AAXX 18214 85586 44960 42319 10190 20099 30063 40148 55001 70222 80001 333 84072=
85586,2019,03,19,00,00,AAXX 19004 85586 14960 12405 10145 20083 30086 40173 53023 60001 70110 80001 333 10206 81075=
85586,2019,03,19,12,00,AAXX 19124 85586 14960 01705 10129 20041 30109 40197 51006 60001 70000 80000 333 20074 30/// 55103 70000=
85586,2019,03,19,15,00,AAXX 19154 85586 44960 01609 10204 20029 30106 40191 58003 70000 80000=
85586,2019,03,19,18,00,AAXX 19184 85586 14960 12412 10209 20080 30086 40171 56020 60001 70000 80001 333 81075=
85586,2019,03,19,21,00,AAXX 19214 85586 44960 52413 10193 20081 30065 40150 56022 70310 80001 333 85075=
85586,2019,03,20,00,00,AAXX 20004 85586 14956 42603 10134 20077 30070 40157 53004 60001 70521 80002 333 10264 84070=
85586,2019,03,20,12,00,AAXX 20124 85586 14958 21702 10079 20065 30067 40155 53009 60001 70600 80004 333 20033 30/// 55109 56//7 70000 82073=
85586,2019,03,20,15,00,AAXX 20154 85586 44958 22508 10153 20069 30070 40156 52007 70500 80004 333 82073=
85586,2019,03,20,18,00,AAXX 20184 85586 14957 52512 10160 20086 30072 40158 50001 60001 70511 80004 333 85073=
85586,2019,03,20,21,00,AAXX 20214 85586 44958 72412 10148 20096 30066 40157 55002 70522 80002 333 56//6 87073=
85586,2019,03,21,00,00,AAXX 21004 85586 14957 50508 10121 20100 30072 40164 53006 60001 70522 80001 333 10173 56//6 85073=
85586,2019,03,21,12,00,AAXX 21124 85586 14957 10000 10084 20080 30078 40166 52007 60001 7050/ 80004 333 20048 30/// 55091 70000 81073=
85586,2019,03,21,15,00,AAXX 21154 85586 44958 12605 10155 20097 30085 40172 53008 70500 80001 333 56//5 81075=
85586,2019,03,21,18,00,AAXX 21184 85586 14958 12706 10172 20111 30076 40162 58009 60001 70500 80001 333 56//5 81076=
85586,2019,03,21,21,00,AAXX 21214 85586 44958 12407 10187 20088 30056 40145 56015 70500 80001 333 81074=
85586,2019,03,22,00,00,AAXX 22004 85586 14958 30405 10136 20093 30062 40153 52004 60001 70500 80001 333 10192 56//6 83073=
85586,2019,03,22,12,00,AAXX 22124 85586 14957 00000 10090 20081 30062 40150 53007 60001 70500 80000 333 20057 30/// 55101 70000=
85586,2019,03,22,15,00,AAXX 22154 85586 44960 02508 10171 20105 30062 40148 50000 70000 80000=
85586,2019,03,22,18,00,AAXX 22184 85586 14960 02414 10183 20121 30052 40137 58011 60001 70000 80000=
85586,2019,03,22,21,00,AAXX 22214 85586 44960 02607 10167 20117 30048 40134 55004 70000 80000=
85586,2019,03,23,00,00,AAXX 23004 85586 14960 00310 10137 20116 30060 40147 53012 60001 70000 80000 333 10203=
85586,2019,03,23,12,00,AAXX 23124 85586 14103 80703 10098 20097 30084 40171 52014 60001 75042 886// 333 20093 31/// 55099 562// 70000 88702=
85586,2019,03,23,15,00,AAXX 23154 85586 44112 62705 10127 20124 30084 40171 50002 74154 86600 333 566// 86702=
85586,2019,03,23,18,00,AAXX 23184 85586 14257 12607 10154 20118 30080 40167 56003 69901 70554 81600 333 566// 81705=
85586,2019,03,23,21,00,AAXX 23214 85586 44960 03606 10179 20124 30070 40156 56012 70000 80000=
85586,2019,03,24,00,00,AAXX 24004 85586 14960 00502 10145 20117 30071 40162 53005 60001 70000 80000 333 10186=
85586,2019,03,24,12,00,AAXX 24124 85586 14902 30000 10096 20095 30069 40161 53008 60001 72822 80001 333 20066 30/// 55069 56//6 70002 83074=
85586,2019,03,24,15,00,AAXX 24154 85586 44156 32806 10146 20112 30068 40159 58001 70511 82601 333 566/6 82702 82073=
85586,2019,03,24,18,00,AAXX 24184 85586 14958 42907 10163 20115 30066 40156 57002 60001 70500 80004 333 56//6 84074=
85586,2019,03,24,21,00,AAXX 24214 85586 44458 42908 10151 20119 30066 40157 53001 70500 83501 333 566/6 83610 84074=
85586,2019,03,25,00,00,AAXX 25004 85586 14958 33304 10126 20113 30073 40164 53007 60001 70500 80001 333 10174 56//6 83074=
85586,2019,03,25,12,00,AAXX 25124 85586 14220 8//// 10105 20099 30077 40164 53016 60001 74942 886// 333 20104 55074 70000 88704=
85586,2019,03,25,15,00,AAXX 25154 85586 44235 83305 10125 20102 30083 40175 51011 70522 886// 333 566// 88706=
85586,2019,03,25,18,00,AAXX 25184 85586 14230 82908 10131 20110 30087 40174 55000 60001 71022 886// 333 562// 88704=
85586,2019,03,25,21,00,AAXX 25214 85586 44240 8//// 10122 20106 30074 40166 57009 71022 886// 333 566// 88705=
85586,2019,03,26,00,00,AAXX 26004 85586 14220 82903 10117 20106 30069 40161 56005 60001 71022 886// 333 10143 566// 88705=
85586,2019,03,26,12,00,AAXX 26124 85586 14212 8//// 10109 20101 30053 40141 52009 60001 71022 885// 333 20107 30/// 55000 561// 70000 88704=
85586,2019,03,26,15,00,AAXX 26154 85586 44240 8//// 10120 20103 30049 40140 52002 71022 886// 333 566// 88706=
85586,2019,03,26,18,00,AAXX 26184 85586 14358 82906 10131 20103 30044 40135 58006 60001 70522 886// 333 560// 88707=
85586,2019,03,26,21,00,AAXX 26214 85586 44358 82905 10134 20110 30036 40127 55007 70522 885// 333 566// 88609=
85586,2019,03,27,00,00,AAXX 27004 85586 14357 83203 10126 20112 30039 40130 51002 60001 71022 886// 333 10141 566// 88707=
85586,2019,03,27,12,00,AAXX 27121 85586 14208 8//// 10113 20110 30052 40140 53017 69901 72822 886// 333 20112 31/// 55000 79999 88704=
85586,2019,03,27,15,00,AAXX 27154 85586 44230 83305 10119 20113 30073 40161 51023 74322 886// 333 565// 88704=
85586,2019,03,27,18,00,AAXX 27184 85586 14457 83305 10149 20113 30074 40161 52002 60001 70522 886// 333 565// 88610=
85586,2019,03,27,21,00,AAXX 27214 85586 44460 82703 10144 20116 30071 40162 50001 70222 885// 333 565// 88614=
85586,2019,03,28,00,00,AAXX 28004 85586 14460 8//// 10136 20115 30076 40163 55001 60001 70222 885// 333 10149 565// 88614=
85586,2019,03,28,12,00,AAXX 28124 85586 14440 8//// 10127 20119 30102 40190 53013 60001 71022 886// 333 20124 30/// 55000 565// 70000 88612=
85586,2019,03,28,15,00,AAXX 28154 85586 44456 82204 10142 20114 30105 40196 50007 70522 885// 333 566// 88614=
85586,2019,03,28,18,00,AAXX 28184 85586 14958 02511 10164 20116 30096 40186 58009 60001 70500 80000=
85586,2019,03,28,21,00,AAXX 28214 85586 44460 32512 10149 20115 30091 40182 55005 70100 83500 333 566// 83612=
85586,2019,03,29,00,00,AAXX 29004 85586 14460 42604 10137 20123 30097 40188 51006 60001 70100 84500 333 10173 566// 84614=
85586,2019,03,29,12,00,AAXX 29124 85586 14220 82603 10128 20117 30091 40079 53014 60001 71022 886// 333 20127 30/// 55038 565// 70000 88606=
85586,2019,03,29,15,00,AAXX 29154 85586 44330 82903 10143 20122 30097 40184 50006 70522 886// 333 566// 88709=
85586,2019,03,29,18,00,AAXX 29184 85586 14340 72609 10148 20120 30083 40170 58014 60001 70522 87600 333 565// 87707=
85586,2019,03,29,21,00,AAXX 29214 85586 44250 72509 10141 20120 30070 40161 56010 70511 87500 333 565// 87606=
85586,2019,03,30,00,00,AAXX 30004 85586 14350 30105 10132 20118 30068 40155 58005 60001 71022 83500 333 10169 565// 83607=
85586,2019,03,30,12,00,AAXX 30124 85586 14001 80803 10086 20085 30033 40120 58001 60001 74742 886// 333 20060 30/// 55037 562// 70000 88701=
85586,2019,03,30,15,00,AAXX 30154 85586 44109 83408 10116 20116 30059 40147 53027 74342 886// 333 567// 88701=
85586,2019,03,30,18,00,AAXX 30184 85586 14312 82306 10135 20124 30054 40141 50002 60001 71042 887// 333 566// 88708=
85586,2019,03,30,21,00,AAXX 30214 85586 44325 83604 10142 20126 30057 40144 58004 76042 8583/ 333 561// 85807 82815 85360=
85586,2019,03,31,00,00,AAXX 31004 85586 14230 82903 10136 20128 30066 40153 52008 60001 71064 886// 333 10143 566// 84705 88708=
85586,2019,03,31,12,00,AAXX 31124 85586 14110 72502 10139 20137 30107 40194 52010 69961 74198 85831 333 20132 32/// 55000 564// 70008 82702 83625 83365 85075=
85586,2019,03,31,15,00,AAXX 31154 85586 44560 53006 10192 20143 30107 40193 50000 70042 84101 333 567// 84830 82075=
85586,2019,03,31,18,00,AAXX 31184 85586 14360 62610 10179 20131 30105 40191 50001 60001 70242 86800 333 566// 81808 85635=
85586,2019,03,31,21,00,AAXX 31214 85586 44660 72404 10166 20132 30100 40186 58005 70200 87500 333 565// 87640=
85586,2019,04,01,00,00,AAXX 01004 85586 14560 10000 10137 20127 30090 40177 56012 60001 70122 81100 333 10193 81830=
85586,2019,04,01,12,00,AAXX 01124 85586 14108 82407 10119 20119 30066 40154 55003 60001 74100 885// 333 20090 30/// 55055 565// 70000 88602=
85586,2019,04,01,15,00,AAXX 01154 85586 44950 0//// 10181 20130 30065 40150 50002 70511 80000=
85586,2019,04,01,18,00,AAXX 01184 85586 14107 62414 10157 20132 30059 40149 58003 60001 72844 86600 333 566// 86702=
85586,2019,04,01,21,00,AAXX 01214 85586 44950 02508 10174 20130 30057 40147 57002 70500 80000=
85586,2019,04,02,00,00,AAXX 02004 85586 14950 00406 10139 20118 30063 40154 53006 60001 70500 80000 333 10208=
85586,2019,04,02,12,00,AAXX 02124 85586 14950 00000 10088 20087 30064 40152 51011 60001 71000 80000 333 20069 30/// 55079 70000=
85586,2019,04,02,15,00,AAXX 02154 85586 44112 82808 10143 20124 30070 40161 51011 71011 886// 333 566// 88702=
85586,2019,04,02,18,00,AAXX 02184 85586 14220 73109 10162 20135 30066 40156 58002 60001 70522 87600 333 566// 87706=
85586,2019,04,02,21,00,AAXX 02214 85586 44458 32809 10159 20129 30060 40146 55010 70521 83500 333 566// 83610=
85586,2019,04,03,00,00,AAXX 03004 85586 14257 83304 10147 20136 30067 40154 53004 60001 71011 886// 333 10176 567// 88705=
85586,2019,04,03,12,00,AAXX 03124 85586 14109 80403 10132 20129 30102 40198 51026 69901 74454 886// 333 20132 31/// 55060 567// 79999 88702=
85586,2019,04,03,15,00,AAXX 03154 85586 44225 83106 10151 20138 30105 40192 50006 71022 886// 333 567// 85706 88710=
85586,2019,04,03,18,00,AAXX 03184 85586 14350 83208 10158 20133 30105 40192 50000 60001 70542 886// 333 567// 83708 88716=
85586,2019,04,03,21,00,AAXX 03214 85586 44357 82907 10155 20135 30094 40181 55011 70522 886// 333 567// 82708 84617 88625=
85586,2019,04,04,00,00,AAXX 04004 85586 14550 8//// 10151 20133 30107 40194 51015 69901 70522 886// 333 10173 567// 88722=
85586,2019,04,04,12,00,AAXX 04124 85586 14640 4//// 10118 20115 30107 40195 51004 60001 70511 84500 333 20109 30/// 55000 562// 79999 84640=
85586,2019,04,04,15,00,AAXX 04154 85586 44558 52606 10173 20133 30114 40199 50007 70521 85800 333 566// 81820 85628=
85586,2019,04,04,18,00,AAXX 04184 85586 14560 22415 10191 20136 30097 40183 57016 60001 70111 82100 333 565// 82833=
85586,2019,04,04,21,00,AAXX 04214 85586 44960 02415 10172 20126 30083 40169 57016 70000 80000=
85586,2019,04,05,00,00,AAXX 05004 85586 14960 01003 10135 20107 30096 40183 53012 60001 70000 80000 333 10199=
85586,2019,04,05,12,00,AAXX 05124 85586 14960 01502 10097 20093 30084 40171 53008 60001 700// 80000 333 20076 30/// 55096 70000=
85586,2019,04,05,15,00,AAXX 05154 85586 44959 02605 10198 20129 30088 40173 51007 70500 80000=
85586,2019,04,05,18,00,AAXX 05184 85586 14960 12508 10187 20111 30082 40168 58007 60001 70000 80001 333 81075=
85586,2019,04,05,21,00,AAXX 05214 85586 44960 02905 10173 20121 30077 40167 55002 70000 80000=
85586,2019,04,06,00,00,AAXX 06004 85586 14960 00000 10129 20111 30086 40177 51010 60001 70000 80000 333 10203=
85586,2019,04,06,12,00,AAXX 06124 85586 14958 0//// 10096 20095 30084 40177 55001 60001 70500 80000 333 20073 30/// 55097 70002=
85586,2019,04,06,15,00,AAXX 06154 85586 44957 02604 10178 20119 30086 40176 50003 70500 80000=
85586,2019,04,06,18,00,AAXX 06184 85586 14960 02408 10199 20118 30074 40163 58013 60001 70000 80000=
85586,2019,04,06,21,00,AAXX 06214 85586 44960 02906 10187 20125 30065 40154 57009 70000 80000=
85586,2019,04,07,00,00,AAXX 07004 85586 14960 03604 10143 20122 30066 40157 51001 60001 70000 80000 333 10204=
85586,2019,04,07,12,00,AAXX 07124 85586 14104 80000 10081 20080 30072 40160 53009 60001 74542 886// 333 20069 31/// 55099 70000 88703=
85586,2019,04,07,15,00,AAXX 07154 85586 44958 02706 10164 20114 30079 40165 52009 70541 80000=
85586,2019,04,07,18,00,AAXX 07184 85586 14212 53005 10152 20124 30078 40165 50000 60001 74142 85600 333 566// 85705=
85586,2019,04,07,21,00,AAXX 07214 85586 44108 83105 10141 20133 30080 40167 53001 74542 886// 333 567// 88702=
85586,2019,04,08,00,00,AAXX 08004 85586 14330 83405 10139 20125 30087 40174 53007 69901 71054 886// 333 10175 560// 88708=
85586,2019,04,08,12,00,AAXX 08124 85586 14340 83201 10133 20107 30087 40174 52010 60001 70522 885// 333 20131 30/// 55068 560// 79999 82708 88612=
85586,2019,04,08,15,00,AAXX 08154 85586 44350 82507 10136 20104 30095 40182 52008 70522 886// 333 561// 83708 88613=
85586,2019,04,08,18,00,AAXX 08184 85586 14458 62607 10145 20104 30095 40182 50001 60001 70522 86500 333 566// 86616=
85586,2019,04,08,21,00,AAXX 08214 85586 44458 82506 10139 20104 30098 40185 53002 70522 885// 333 562// 88615=
85586,2019,04,09,00,00,AAXX 09004 85586 14460 82404 10133 20105 30095 40182 57003 60001 70222 885// 333 10161 565// 88613=
85586,2019,04,09,12,00,AAXX 09124 85586 14456 82403 10123 20118 30104 40192 51009 60001 70522 886// 333 20122 30/// 55010 561// 70002 88615=
85586,2019,04,09,15,00,AAXX 09154 85586 44350 7//// 10131 20118 30108 40196 50006 72055 87600 333 565// 85607 86614=
85586,2019,04,09,18,00,AAXX 09184 85586 14358 72405 10146 20112 30115 40202 53006 60001 70511 87500 333 565// 83608 87616=
85586,2019,04,09,21,00,AAXX 09214 85586 44459 73004 10143 20115 30117 40204 52002 70522 87500 333 566// 84618 87622=
85586,2019,04,10,00,00,AAXX 10004 85586 14657 4//// 10141 20118 30120 40207 52003 60001 70522 84500 333 10156 565// 84634=
85586,2019,04,10,12,00,AAXX 10124 85586 14950 11704 10116 20105 30101 40193 50001 60001 70500 80001 333 20084 30/// 55000 56//6 79999 81074=
85586,2019,04,10,15,00,AAXX 10154 85586 44957 01407 10192 20108 30087 40177 58014 70500 80000=
85586,2019,04,10,18,00,AAXX 10184 85586 14958 02413 10180 20129 30066 40152 58024 60001 70500 80000=
85586,2019,04,10,21,00,AAXX 10214 85586 44957 02510 10175 20133 30054 40144 55009 70500 80000=
85586,2019,04,11,00,00,AAXX 11001 85586 14940 0//// 10132 20121 30069 40151 51011 60001 71000 80000 333 10223=
85586,2019,04,11,18,00,AAXX 11184 85586 14440 82707 10143 20115 30079 40166 58005 60001 70542 886// 333 566// 88711=
85586,2019,04,11,21,00,AAXX 11214 85586 44340 83004 10133 20119 30073 40160 58007 71022 886// 333 567// 88707=
85586,2019,04,12,00,00,AAXX 12004 85586 14430 83004 10129 20110 30080 40167 53006 60001 70522 886// 333 10147 567// 88710=
85586,2019,04,12,12,00,AAXX 12124 85586 14340 82502 10119 20111 30077 40165 53015 60001 71052 886// 333 20116 30/// 55000 566// 70000 83707 88710=
85586,2019,04,12,15,00,AAXX 12154 85586 44350 83103 10131 20114 30094 40181 51017 75022 886// 333 567// 85708 88713=
85586,2019,04,12,18,00,AAXX 12184 85586 14340 83005 10138 20115 30092 40179 58003 60001 70522 886// 333 566// 84708 88712=
85586,2019,04,12,21,00,AAXX 12214 85586 44450 8//// 10140 20114 30089 40176 58003 70522 885// 333 566// 84612 88615=
85586,2019,04,13,00,00,AAXX 13004 85586 14450 80000 10136 20115 30085 40172 56003 60001 70522 885// 333 10142 565// 88618=
85586,2019,04,13,12,00,AAXX 13124 85586 14450 82406 10129 20111 30084 40171 52011 60001 70522 885// 333 20126 30/// 55000 565// 70000 88618=
85586,2019,04,13,15,00,AAXX 13154 85586 44550 82406 10144 20108 30093 40180 51011 70522 885// 333 565// 88620=
85586,2019,04,13,18,00,AAXX 13184 85586 14557 72506 10152 20104 30094 40181 58003 60001 70522 85530 333 5666/ 85630 87363=
85586,2019,04,13,21,00,AAXX 13214 85586 44960 62507 10146 20118 30089 40176 57002 70122 85031 333 56/65 85363 82074=
85586,2019,04,14,00,00,AAXX 14004 85586 14660 60000 10120 20111 30101 40189 53013 60001 70311 84530 333 10163 5655/ 84635 82362=
85586,2019,04,14,12,00,AAXX 14124 85586 14115 3//// 10101 20100 30100 40193 50002 60001 71000 83601 333 20065 31/// 55000 566/6 70000 83701 81074=
85586,2019,04,14,15,00,AAXX 14154 85586 44940 3//// 10185 20114 30094 40184 58004 70500 80001 333 56//6 83073=
85586,2019,04,14,18,00,AAXX 14184 85586 14956 62411 10176 20110 30077 40167 58018 60001 70500 80004 333 56//6 86074=
85586,2019,04,14,21,00,AAXX 14214 85586 44958 7//// 10183 20105 30074 40164 55003 70511 80009 333 56//6 82173 86074=
85586,2019,04,15,00,00,AAXX 15004 85586 14958 52103 10147 20093 30084 40175 51009 60001 70511 80009 333 10203 56//6 85173=
85586,2019,04,15,12,00,AAXX 15124 85586 14958 00902 10069 20059 30080 40173 53003 60001 70522 80000 333 20057 30/// 55047 70000=
85586,2019,04,15,15,00,AAXX 15154 85586 44958 01605 10214 20088 30076 40165 58005 70500 80000=
85586,2019,04,15,18,00,AAXX 15184 85586 14960 22414 10182 20099 30067 40153 58013 60001 70300 80001 333 82075=
85586,2019,04,15,21,00,AAXX 15214 85586 44960 22409 10156 20110 30061 40147 55006 70100 80001 333 82075=
85586,2019,04,16,00,00,AAXX 16004 85586 14960 10403 10121 20098 30066 40154 53004 60001 70200 80001 333 10217 81075=
85586,2019,04,16,12,00,AAXX 16124 85586 14960 00000 10055 20052 30069 40158 53005 60001 70000 80000 333 20036 30/// 55090 70000=
85586,2019,04,16,15,00,AAXX 16154 85586 44957 02605 10167 20108 30073 40159 50005 70500 80000=
85586,2019,04,16,18,00,AAXX 16184 85586 14960 32410 10162 20114 30064 40150 58008 60001 70310 80001 333 83075=
85586,2019,04,16,21,00,AAXX 16214 85586 44960 12906 10154 20114 30064 40150 55002 70100 80001 333 56//5 81075=
85586,2019,04,17,00,00,AAXX 17004 85586 14958 10507 10122 20108 30060 40147 55003 60001 70500 80001 333 10185 56//5 81075=
85586,2019,04,17,12,00,AAXX 17121 85586 14960 2//// 10058 20055 30051 40140 52009 60001 70100 80001 333 20036 30/// 55082 56//5 70000 82076=
85586,2019,04,17,15,00,AAXX 17154 85586 44958 12806 10155 20105 30054 40140 50005 70500 80001 333 56//5 81075=
85586,2019,04,17,18,00,AAXX 17184 85586 14960 22907 10171 20096 30036 40126 58014 60001 70200 80001 333 56//6 82075=
85586,2019,04,17,21,00,AAXX 17214 85586 44960 73305 10162 20122 30044 40130 53004 70222 80004 333 56//6 87075=
85586,2019,04,18,00,00,AAXX 18004 85586 14260 60103 10134 20128 30056 40143 53011 60001 70100 86504 333 10176 565/5 86605 81075=
85586,2019,04,18,12,00,AAXX 18124 85586 14330 83303 10134 20118 30052 40143 53012 60001 71022 886// 333 20132 30/// 55085 566// 70000 88709=
85586,2019,04,18,15,00,AAXX 18154 85586 44350 83605 10149 20115 30074 40161 51018 70522 886// 333 560// 84709 88711=
85586,2019,04,18,18,00,AAXX 18184 85586 14457 82710 10152 20115 30058 40149 56009 60001 70522 885// 333 566// 88618=
85586,2019,04,18,21,00,AAXX 18214 85586 44225 82805 10139 20126 30063 40154 52004 71022 886// 333 566// 88705=
85586,2019,04,19,00,00,AAXX 19004 85586 14212 80000 10132 20129 30067 40158 52005 60001 71022 886// 333 10171 566// 88704=
85586,2019,04,19,12,00,AAXX 19124 85586 14325 80000 10130 20127 30072 40163 53009 60001 71022 888// 333 20128 31/// 55000 566// 70002 84809 88614=
85586,2019,04,19,15,00,AAXX 19154 85586 44458 8//// 10150 20125 30084 40175 51012 70522 888// 333 566// 84810 88617=
85586,2019,04,19,18,00,AAXX 19184 85586 14360 73006 10170 20111 30086 40172 58002 60001 70122 87500 333 567// 83809 87628=
85586,2019,04,19,21,00,AAXX 19214 85586 44356 82605 10143 20127 30089 40176 53003 70522 888// 333 560// 85808 88626=
85586,2019,04,20,00,00,AAXX 20004 85586 14556 82403 10139 20128 30094 40181 52004 60001 70522 885// 333 10172 565// 88627=
85586,2019,04,20,12,00,AAXX 20124 85586 14560 80000 10136 20120 30102 40189 53009 60001 70222 885// 333 20135 30/// 55004 566// 70000 88630=
85586,2019,04,20,15,00,AAXX 20154 85586 44458 82704 10156 20124 30112 40199 51011 70522 87800 333 566// 81810 87633=
85586,2019,04,20,18,00,AAXX 20184 85586 14360 62409 10164 20128 30107 40193 58005 60001 70122 86800 333 566// 82808 85633=
85586,2019,04,20,21,00,AAXX 20214 85586 44960 02410 10156 20116 30105 40192 55002 70011 80000=
85586,2019,04,21,00,00,AAXX 21004 85586 14960 00000 10119 20082 30103 40191 58002 60001 70000 80000 333 10177=
85586,2019,04,21,12,00,AAXX 21124 85586 14960 01202 10065 20062 30100 40189 51010 60001 70000 80000 333 20041 30/// 55045 70000=
85586,2019,04,21,15,00,AAXX 21154 85586 44960 02806 10143 20096 30105 40192 50007 70000 80000=
85586,2019,04,21,18,00,AAXX 21184 85586 14960 02509 10160 20099 30096 40183 58009 60001 70000 80000=
85586,2019,04,21,21,00,AAXX 21214 85586 44360 32509 10146 20120 30093 40180 55003 70300 83400 333 565// 83607=
85586,2019,04,22,00,00,AAXX 22004 85586 14360 62606 10129 20115 30098 40186 53006 60001 70311 86500 333 10169 565// 86609=
85586,2019,04,22,12,00,AAXX 22124 85586 14440 80000 10106 20101 30090 40182 53008 60001 71022 885// 333 20069 30/// 55079 566// 70000 88610=
85586,2019,04,22,15,00,AAXX 22154 85586 44950 0//// 10158 20097 30084 40175 58005 70522 80000=
85586,2019,04,22,18,00,AAXX 22184 85586 14957 02413 10158 20106 30070 40160 57015 60001 70500 80000=
85586,2019,04,22,21,00,AAXX 22214 85586 44958 02411 10148 20114 30067 40158 56003 70500 80000=
85586,2019,04,23,00,00,AAXX 23004 85586 14956 02604 10121 20109 30073 40165 53006 60001 71000 80000 333 10175=
85586,2019,04,23,12,00,AAXX 23124 85586 14320 8//// 10118 20104 30070 40162 52003 60001 71022 886// 333 20084 30/// 55075 566// 70000 88708=
85586,2019,04,23,15,00,AAXX 23154 85586 44340 83404 10133 20103 30078 40169 51007 70522 888// 333 566// 85809 88610=
85586,2019,04,23,18,00,AAXX 23184 85586 14350 82904 10133 20103 30075 40166 50001 60001 70522 888// 333 566// 85809 88612=
85586,2019,04,23,21,00,AAXX 23214 85586 44450 82406 10132 20108 30075 40166 54001 70522 888// 333 566// 82810 88617=
85586,2019,04,24,00,00,AAXX 24004 85586 14550 70000 10118 20106 30076 40168 54002 60001 71022 87500 333 10151 566// 87625=
85586,2019,04,24,12,00,AAXX 24124 85586 14435 60000 10087 20084 30092 40180 52014 60001 71000 84511 333 20073 30/// 55000 5656/ 70000 84610 86361 81073=
85586,2019,04,24,15,00,AAXX 24154 85586 44525 70603 10121 20118 30115 40203 51024 71066 87530 333 5677/ 82628 87358=
85586,2019,04,24,18,00,AAXX 24184 85586 14457 7//// 10162 20099 30112 40199 55003 60021 70522 87500 333 566// 82815 87650=
85586,2019,04,24,21,00,AAXX 24214 85586 44657 73304 10149 20113 30118 40205 51007 70522 84530 333 5666/ 84637 87357=
85586,2019,04,25,00,00,AAXX 25004 85586 14860 6//// 10137 20118 30113 40200 57005 60001 70222 86030 333 10166 56/5/ 86357=
85586,2019,04,25,12,00,AAXX 25124 85586 14105 7//// 10088 20087 30099 40187 53004 60001 74400 87600 333 20077 31/// 55007 565// 70020 87701=
85586,2019,04,25,15,00,AAXX 25154 85586 44240 12904 10167 20121 30105 40191 51007 70544 81500 333 566// 81605=
85586,2019,04,25,18,00,AAXX 25184 85586 14457 22411 10168 20107 30104 40190 50000 60001 70500 81101 333 567/6 81815 81073=
85586,2019,04,25,21,00,AAXX 25214 85586 44960 22410 10158 20112 30107 40194 53003 70200 80001 333 56//6 82074=
85586,2019,04,26,00,00,AAXX 26004 85586 14960 00000 10106 20092 30117 40204 53010 60001 70000 80000 333 10180=
85586,2019,04,26,12,00,AAXX 26124 85586 14960 10000 10062 20056 30111 40205 50005 60001 70100 80001 333 20049 31/// 55078 56//6 70002 81074=
85586,2019,04,26,15,00,AAXX 26154 85586 44958 0//// 10166 20091 30113 40204 50003 70500 80000=
85586,2019,04,26,18,00,AAXX 26184 85586 14958 02411 10164 20103 30104 40195 58008 60001 70500 80000=
85586,2019,04,26,21,00,AAXX 26214 85586 44958 12509 10151 20121 30093 40184 56011 70500 80001 333 56//6 81074=
85586,2019,04,27,00,00,AAXX 27004 85586 14960 00504 10114 20105 30099 40191 51006 60001 70000 80000 333 10178=
85586,2019,04,27,12,00,AAXX 27124 85586 14956 51103 10080 20079 30092 40185 52001 60001 71000 80004 333 20060 31/// 55076 56//6 70000 85074=
85586,2019,04,27,15,00,AAXX 27154 85586 44957 2//// 10159 20109 30093 40184 50002 70500 80001 333 56//6 82074=
85586,2019,04,27,18,00,AAXX 27184 85586 14957 22508 10170 20113 30083 40173 58010 60001 70500 80001 333 56//6 82074=
85586,2019,04,27,21,00,AAXX 27214 85586 44958 22408 10157 20117 30073 40164 56010 70500 80001 333 56//6 82074=
85586,2019,04,28,00,00,AAXX 28004 85586 14958 10705 10121 20110 30074 40166 50001 60001 71000 80001 333 10175 56//6 81074=
85586,2019,04,28,12,00,AAXX 28124 85586 14957 0//// 10066 20065 30071 40159 52010 60001 70500 80000 333 20040 30/// 55077 70000=
85586,2019,04,28,15,00,AAXX 28154 85586 44957 32705 10168 20111 30071 40157 58001 70500 80001 333 56//5 83074=
85586,2019,04,28,18,00,AAXX 28184 85586 14960 42509 10166 20120 30058 40144 58012 60001 70300 80004 333 56//5 84075=
85586,2019,04,28,21,00,AAXX 28214 85586 44960 62505 10171 20137 30047 40133 56011 70322 80009 333 56//5 86175=
85586,2019,04,29,00,00,AAXX 29004 85586 14960 20403 10134 20123 30058 40145 53011 60001 70100 80001 333 10186 56//5 82075=
85586,2019,04,29,12,00,AAXX 29124 85586 14960 71706 10140 20105 30060 40147 53004 60001 70222 80004 333 20096 30/// 55071 56//5 70000 87073=
85586,2019,04,29,15,00,AAXX 29154 85586 44960 41608 10198 20101 30062 40147 50004 70122 80001 333 56//5 84075=
85586,2019,04,29,18,00,AAXX 29184 85586 14960 42416 10182 20106 30045 40130 56017 60001 70111 80001 333 84075=
85586,2019,04,29,21,00,AAXX 29214 85586 44960 62408 10172 20099 30046 40132 55001 70321 80002 333 86072=
85586,2019,04,30,00,00,AAXX 30004 85586 14958 60000 10139 20084 30059 40146 51014 60001 70522 80002 333 10235 86075=
85586,2019,04,30,12,00,AAXX 30124 85586 14960 00902 10067 20037 30089 40178 51021 60001 70000 80000 333 20036 30/// 55056 70000=
85586,2019,04,30,15,00,AAXX 30154 85586 44960 02407 10142 20056 30098 40185 51011 70000 80000=
85586,2019,04,30,18,00,AAXX 30184 85586 14960 12706 10172 20068 30087 40173 58010 60001 70300 80001 333 81075=
85586,2019,04,30,21,00,AAXX 30214 85586 44960 02507 10153 20089 30082 40173 57003 70000 80000=
85586,2019,05,01,00,00,AAXX 01004 85586 14950 10000 10089 20069 30096 40189 53014 60001 70500 80004 333 10174 56//6 81074=
85586,2019,05,01,12,00,AAXX 01124 85586 14958 31405 10114 20032 30088 40180 55011 60001 70500 80004 333 20056 30/// 55084 56//6 70000 83074=
85586,2019,05,01,15,00,AAXX 01154 85586 44957 41608 10193 20040 30079 40168 58005 70500 80004 333 56//6 84075=
85586,2019,05,01,18,00,AAXX 01184 85586 14958 32309 10207 20075 30063 40152 58018 60001 70500 80004 333 56//6 83074=
85586,2019,05,01,21,00,AAXX 01214 85586 44960 32705 10195 20092 30050 40139 56015 70100 80004 333 56//6 83075=
85586,2019,05,02,00,00,AAXX 02004 85586 14960 2//// 10117 20093 30062 40154 53013 60001 70100 80004 333 10255 56//6 82074=
85586,2019,05,02,12,00,AAXX 02124 85586 14960 8//// 10119 20080 30061 40149 50003 60001 70222 86031 333 20087 30/// 55077 56/55 70000 86367 82075=
85586,2019,05,02,15,00,AAXX 02154 85586 44958 82504 10174 20090 30062 40148 50003 70522 86031 333 56/5/ 86368 82073=
85586,2019,05,02,18,00,AAXX 02184 85586 14960 82407 10178 20114 30041 40127 58021 60001 70222 82037 333 56/5/ 82368 88272=
85586,2019,05,02,21,00,AAXX 02214 85586 44960 82508 10152 20127 30039 40125 55002 70222 86034 333 56/5/ 86368 82073=
85586,2019,05,03,00,00,AAXX 03004 85586 14157 6//// 10137 20134 30054 40141 52016 60001 70522 85530 333 10204 5655/ 85602 81364=
85586,2019,05,03,12,00,AAXX 03124 85586 14106 80503 10133 20131 30046 40134 53000 60001 74721 886// 333 20122 30/// 55030 561// 70000 88701=
85586,2019,05,03,15,00,AAXX 03154 85586 44235 70202 10149 20135 30058 40145 50010 71022 87600 333 560// 87705=
85586,2019,05,03,18,00,AAXX 03184 85586 14360 73007 10173 20139 30047 40133 58010 60001 70142 85531 333 565// 84708 82620 83362 84075=
85586,2019,05,03,21,00,AAXX 03214 85586 44360 72705 10150 20134 30036 40122 56012 70222 81636 333 81708 83363 85075=
85586,2019,05,04,00,00,AAXX 04004 85586 14108 82704 10131 20131 30049 40136 53012 69901 75154 886// 333 10181 567// 88702=
85586,2019,05,04,12,00,AAXX 04124 85586 14560 70000 10131 20128 30072 40163 53015 60001 70222 87500 333 20109 31/// 55005 566// 79999 87626=
85586,2019,05,04,15,00,AAXX 04154 85586 44560 8//// 10163 20119 30080 40170 51007 70222 885// 333 566// 88623=
85586,2019,05,04,18,00,AAXX 04184 85586 14560 82905 10173 20129 30075 40165 58004 60001 70222 888// 333 566// 84820 88630=
85586,2019,05,04,21,00,AAXX 04214 85586 44560 72405 10153 20128 30078 40169 52003 70222 87800 333 566// 83830 87637=
85586,2019,05,05,00,00,AAXX 05004 85586 14960 52402 10138 20127 30089 40181 53011 60001 70100 85030 333 10177 56/6/ 85363=
85586,2019,05,05,12,00,AAXX 05124 85586 14103 8//// 10119 20119 30098 40186 52001 60001 74422 886// 333 20118 31/// 55000 565// 70000 88602=
85586,2019,05,05,15,00,AAXX 05154 85586 44340 71606 10169 20137 30096 40182 58002 70544 87500 333 565// 87609=
85586,2019,05,05,18,00,AAXX 05184 85586 14560 72409 10168 20134 30077 40163 58018 60001 70222 82631 333 5666/ 82625 84368 82075=
85586,2019,05,05,21,00,AAXX 05214 85586 44157 72604 10144 20126 30073 40160 56007 70522 83538 333 5666/ 83602 82368 86273=
85586,2019,05,06,00,00,AAXX 06004 85586 14957 20000 10112 20110 30082 40170 53009 60001 70511 80001 333 10202 56//5 82071=
85586,2019,05,06,12,00,AAXX 06124 85586 14156 80000 10098 20097 30059 40146 52002 69921 70522 8165/ 333 20088 31/// 55027 560// 70002 81702 84357 88469=
85586,2019,05,06,15,00,AAXX 06154 85586 44935 70203 10144 20116 30069 40156 51016 70522 85032 333 85363 87070=
85586,2019,05,06,18,00,AAXX 06184 85586 14456 72409 10148 20118 30074 40161 53005 60001 70522 81132 333 566// 81812 83365 85070=
85586,2019,05,06,21,00,AAXX 06214 85586 44256 72609 10126 20110 30078 40165 53007 70522 87601 333 566// 87706 82075=
85586,2019,05,07,00,00,AAXX 07004 85586 14340 82803 10120 20106 30078 40166 50002 60001 71022 887// 333 10170 567// 88707=
85586,2019,05,07,12,00,AAXX 07124 85586 14460 80000 10120 20096 30089 40182 53005 60001 70222 885// 333 20114 30/// 55016 566// 70000 88612=
85586,2019,05,07,15,00,AAXX 07154 85586 44360 8//// 10129 20099 30093 40185 51004 70222 888// 333 566// 83809 88613=
85586,2019,05,07,18,00,AAXX 07184 85586 14460 82406 10136 20104 30079 40170 58014 60001 70222 885// 333 566// 88616=
85586,2019,05,07,21,00,AAXX 07214 85586 44460 82408 10127 20114 30072 40163 55007 70222 885// 333 566// 88618=
85586,2019,05,08,00,00,AAXX 08004 85586 14957 0//// 10093 20090 30070 40162 55002 60001 71011 80000 333 10141=
85586,2019,05,08,12,00,AAXX 08124 85586 14215 80000 10105 20100 30064 40152 53004 60001 71022 886// 333 20074 30/// 55000 70000 88705=
85586,2019,05,08,15,00,AAXX 08154 85586 44105 82506 10105 20104 30075 40163 53012 72842 886// 333 565// 88702=
85586,2019,05,08,18,00,AAXX 08184 85586 14230 82606 10109 20093 30068 40156 56008 69901 71022 886// 333 565// 88706=
85586,2019,05,08,21,00,AAXX 08214 85586 44440 82705 10113 20089 30069 40157 53001 70522 886// 333 566// 84710 88716=
85586,2019,05,09,00,00,AAXX 09004 85586 14557 80000 10110 20086 30080 40168 53012 60001 70522 886// 333 10116 566// 88720=
85586,2019,05,09,12,00,AAXX 09124 85586 14440 41202 10067 20064 30012 40201 52013 60001 71021 84601 333 20060 31/// 55000 562// 79999 81610 83630 81075=
85586,2019,05,09,15,00,AAXX 09154 85586 44458 23205 10144 20073 30119 40206 50006 70510 82100 333 567// 82810=
85586,2019,05,09,18,00,AAXX 09184 85586 14460 42907 10149 20080 30120 40207 50000 60001 70210 83801 333 566// 81815 82650 82075=
85586,2019,05,09,21,00,AAXX 09214 85586 44660 22406 10141 20092 30117 40204 58003 70100 82500 333 566// 82648=
85586,2019,05,10,00,00,AAXX 10004 85586 14658 11301 10087 20073 30122 40210 52004 60001 70500 81500 333 10154 81645=
85586,2019,05,10,12,00,AAXX 10124 85586 14958 1//// 10054 20053 30100 40194 51007 60001 71000 80001 333 20029 31/// 55067 56//6 70000 81074=
85586,2019,05,10,15,00,AAXX 10154 85586 44956 0//// 10139 20081 30101 40192 50001 70500 80000=
85586,2019,05,10,18,00,AAXX 10184 85586 14958 02414 10151 20094 30092 40183 58009 60001 70500 80000=
85586,2019,05,10,21,00,AAXX 10214 85586 44958 02412 10142 20097 30089 40180 55003 70500 80000=
85586,2019,05,11,00,00,AAXX 11004 85586 14956 00000 10081 20072 30097 40190 53007 60001 71000 80000 333 10191=
85586,2019,05,11,12,00,AAXX 11124 85586 14958 20903 10021 20017 30126 40216 53013 60001 70500 80001 333 20018 30/// 55075 56//5 70000 82075=
85586,2019,05,11,15,00,AAXX 11154 85586 44958 12604 10144 20058 30132 40219 53007 70500 80001 333 81075=
85586,2019,05,11,18,00,AAXX 11184 85586 14958 12607 10147 20071 30117 40204 58015 60001 70500 80001 333 56//5 81075=
85586,2019,05,11,21,00,AAXX 11214 85586 44960 12604 10139 20111 30112 40199 56006 70200 80001 333 56//6 81075=
85586,2019,05,12,00,00,AAXX 12004 85586 14958 00804 10104 20101 30120 40208 53004 60001 70500 80000 333 10159=
85586,2019,05,12,12,00,AAXX 12124 85586 14960 01303 10055 20054 30105 40194 53003 60001 70000 80000 333 20037 31/// 55073 70002=
85586,2019,05,12,15,00,AAXX 12154 85586 44958 01804 10177 20081 30112 40198 50010 70500 80000=
85586,2019,05,12,18,00,AAXX 12184 85586 14960 02412 10165 20121 30096 40182 58017 60001 70000 80000=
85586,2019,05,12,21,00,AAXX 12214 85586 44260 12305 10146 20120 30096 40183 54000 70300 81600 333 565// 81705=
85586,2019,05,13,00,00,AAXX 13004 85586 14960 01201 10100 20094 30104 40192 53007 60001 70500 80000 333 10200=
85586,2019,05,13,12,00,AAXX 13124 85586 14957 01102 10069 20068 30089 40182 52004 60001 71000 80000 333 20060 31/// 55068 70002=
85586,2019,05,13,15,00,AAXX 13154 85586 44957 02504 10173 20114 30089 40179 50001 70500 80000=
85586,2019,05,13,18,00,AAXX 13184 85586 14958 02607 10177 20113 30079 40169 56010 60001 70500 80000=
85586,2019,05,13,21,00,AAXX 13214 85586 44958 03005 10151 20109 30089 40180 53010 70500 80000=
85586,2019,05,14,00,00,AAXX 14004 85586 14956 0//// 10098 20090 30095 40188 51006 60001 71000 80000 333 10191=
85586,2019,05,14,12,00,AAXX 14124 85586 14108 80803 10102 20102 30090 40177 53010 60001 72822 886// 333 20068 30/// 55075 565// 70000 88702=
85586,2019,05,14,15,00,AAXX 14154 85586 44212 8//// 10114 20108 30092 40180 50003 71042 886// 333 565// 88704=
85586,2019,05,14,18,00,AAXX 14184 85586 14108 82606 10128 20115 30077 40164 56014 60001 72810 886// 333 565// 88703=
85586,2019,05,14,21,00,AAXX 14214 85586 44106 82504 10111 20106 30070 40158 55007 72844 886// 333 565// 88702=
85586,2019,05,15,00,00,AAXX 15004 85586 14103 80000 10104 20104 30071 40159 50001 60001 72844 886// 333 10152 565// 88702=
85586,2019,05,15,12,00,AAXX 15124 85586 14108 80903 10094 20094 30068 40155 53003 69921 74552 886// 333 20094 31/// 55016 562// 70004 88702=
85586,2019,05,15,15,00,AAXX 15154 85586 44110 83004 10106 20106 30083 40170 53010 71022 886// 333 567// 88703=
85586,2019,05,15,18,00,AAXX 15184 85586 14325 83404 10125 20109 30073 40160 58010 69901 72054 886// 333 567// 88708=
85586,2019,05,15,21,00,AAXX 15214 85586 44440 83603 10127 20106 30064 40151 57009 70522 886// 333 560// 88710=
85586,2019,05,16,00,00,AAXX 16004 85586 14440 83603 10125 20108 30075 40162 51012 60001 70522 886// 333 10129 560// 88710=
85586,2019,05,16,12,00,AAXX 16124 85586 14550 80606 10122 20092 30079 40171 52009 60001 70522 885// 333 20116 30/// 55000 566// 79999 88622=
85586,2019,05,16,15,00,AAXX 16154 85586 44557 80706 10143 20087 30085 40176 50007 70522 885// 333 566// 88627=
85586,2019,05,16,18,00,AAXX 16184 85586 14957 73206 10160 20088 30070 40160 51015 60001 70522 87030 333 56/6/ 87362=
85586,2019,05,16,21,00,AAXX 16214 85586 44958 73504 10141 20100 30072 40163 52002 70522 87030 333 56/6/ 87363=
85586,2019,05,17,00,00,AAXX 17004 85586 14957 6//// 10108 20096 30076 40168 52004 60001 71022 86030 333 10172 56/6/ 86363=
85586,2019,05,17,12,00,AAXX 17124 85586 14660 71103 10109 20087 30099 40186 53008 60001 70222 85530 333 20082 30/// 55011 5655/ 70000 83637 85645 82357=
85586,2019,05,17,15,00,AAXX 17154 85586 44660 8//// 10162 20097 30103 40190 50005 70222 885// 333 566// 85642 88650=
85586,2019,05,17,18,00,AAXX 17184 85586 14860 72905 10161 20100 30097 40184 56009 60001 70222 87050 333 56/6/ 84356 87357=
85586,2019,05,17,21,00,AAXX 17214 85586 44660 72603 10148 20107 30098 40185 53001 70222 87500 333 566// 87638=
85586,2019,05,18,00,00,AAXX 18004 85586 14250 81703 10128 20126 30113 40201 52013 60041 76155 885// 333 10179 565// 85604 88633=
85586,2019,05,18,12,00,AAXX 18124 85586 14012 21402 10064 20064 30128 40217 53009 60001 74122 82600 333 20060 30/// 55000 562// 70054 82701=
85586,2019,05,18,15,00,AAXX 18154 85586 44360 11005 10146 20112 30129 40216 50001 70200 81600 333 562// 81708=
85586,2019,05,18,18,00,AAXX 18184 85586 14560 11708 10188 20102 30105 40191 58023 60001 70200 81100 333 564// 81820=
85586,2019,05,18,21,00,AAXX 18214 85586 44960 01709 10182 20077 30097 40183 55008 70000 80000=
85586,2019,05,19,00,00,AAXX 19004 85586 14960 01806 10121 20084 30101 40189 53004 60001 70000 80000 333 10195=
85586,2019,05,19,12,00,AAXX 19124 85586 14960 6//// 10061 20058 30080 40174 53006 60001 70222 80004 333 20049 31/// 55071 56//6 70000 86073=
85586,2019,05,19,15,00,AAXX 19154 85586 44960 71706 10114 20070 30090 40182 50009 70222 80004 333 56//6 87074=
85586,2019,05,19,18,00,AAXX 19184 85586 14960 72606 10130 20062 30080 40171 58010 60001 70222 80004 333 56//6 87072=
85586,2019,05,19,21,00,AAXX 19214 85586 44960 72406 10133 20084 30079 40170 55001 70222 80004 333 56//6 87073=
85586,2019,05,20,00,00,AAXX 20004 85586 14958 40000 10090 20066 30096 40189 53016 60001 70511 80004 333 10149 56//6 84074=
85586,2019,05,20,12,00,AAXX 20124 85586 14960 20000 10025 20024 30125 40215 53014 60001 70200 80001 333 20021 30/// 55002 70000 82075=
85586,2019,05,20,15,00,AAXX 20154 85586 44660 41805 10136 20067 30137 40225 51014 70300 84500 333 565// 84642=
85586,2019,05,20,18,00,AAXX 20184 85586 14660 52511 10140 20082 30131 40219 58006 60001 70311 82130 333 5655/ 82840 84358=
85586,2019,05,20,21,00,AAXX 20214 85586 44760 32510 10122 20063 30145 40232 53012 70122 81131 333 5655/ 81856 82362 81073=
85586,2019,05,21,00,00,AAXX 21004 85586 14960 00000 10064 20055 30164 40253 51020 60001 70000 80000 333 10141=
85586,2019,05,21,12,00,AAXX 21124 85586 14960 31102 10036 20033 30153 40243 56007 60001 70000 81031 333 20017 31/// 55065 70000 81367 82075=
85586,2019,05,21,15,00,AAXX 21154 85586 44960 31304 10120 20059 30146 40233 57006 70200 81031 333 81365 83075=
85586,2019,05,21,18,00,AAXX 21184 85586 14960 52509 10122 20075 30130 40218 56016 60001 70310 83031 333 83365 84075=
85586,2019,05,21,21,00,AAXX 21214 85586 44960 42605 10123 20074 30129 40217 53001 70110 80001 333 84073=
85586,2019,05,22,00,00,AAXX 22004 85586 14440 60802 10069 20063 30138 40227 52007 60001 71021 85531 333 10133 562// 85613 81365 82075=
85586,2019,05,22,12,00,AAXX 22124 85586 14957 01204 10029 20026 30125 40220 53007 60001 71000 80000 333 20023 31/// 55054 70000=
85586,2019,05,22,15,00,AAXX 22154 85586 44957 0//// 10129 20070 30130 40222 50005 70500 80000=
85586,2019,05,22,18,00,AAXX 22184 85586 14958 02507 10143 20079 30110 40201 58019 60001 70500 80000=
85586,2019,05,22,21,00,AAXX 22214 85586 44960 02407 10136 20091 30109 40200 55002 70000 80000=
85586,2019,05,23,00,00,AAXX 23004 85586 14957 00903 10068 20064 30119 40213 52009 60001 71000 80000 333 10151=
85586,2019,05,23,12,00,AAXX 23124 85586 14960 0//// 10033 20018 30118 40208 51003 60001 70000 80000 333 20015 30/// 55070 70000=
85586,2019,05,23,15,00,AAXX 23154 85586 44958 02306 10124 20039 30123 40211 53006 70500 80000=
85586,2019,05,23,18,00,AAXX 23184 85586 14960 12704 10154 20087 30101 40188 58022 60001 70200 80001 333 56//6 81075=
85586,2019,05,23,21,00,AAXX 23214 85586 44960 12604 10135 20103 30096 40183 56005 70200 80001 333 56//6 81075=
85586,2019,05,24,00,00,AAXX 24004 85586 14958 00903 10081 20078 30100 40188 50003 60001 70500 80000 333 10160=
85586,2019,05,24,12,00,AAXX 24124 85586 14960 52002 10046 20026 30058 40147 55009 60001 70000 81031 333 20033 31/// 55071 70000 81367 84075=
85586,2019,05,24,15,00,AAXX 24154 85586 44958 8//// 10116 20034 30052 40140 50000 70522 86031 333 56/5/ 86368 82073=
85586,2019,05,24,18,00,AAXX 24184 85586 14957 62407 10150 20078 30032 40118 58022 60001 70522 80006 333 86072=
85586,2019,05,24,21,00,AAXX 24214 85586 44956 80406 10128 20102 30040 40127 53006 70522 8802/ 333 88468=
85586,2019,05,25,00,00,AAXX 25004 85586 14940 70803 10101 20089 30038 40126 55004 60001 70522 80002 333 10191 87270=
85586,2019,05,25,12,00,AAXX 25124 85586 14211 70403 10094 20093 30036 40128 53003 60001 71011 87630 333 20089 31/// 55015 5666/ 70000 83703 87362=
85586,2019,05,25,15,00,AAXX 25154 85586 44525 70304 10134 20104 30056 40147 51021 70511 87530 333 5666/ 83624 87362=
85586,2019,05,25,18,00,AAXX 25184 85586 14540 63306 10152 20114 30054 40144 56001 60001 70511 86800 333 566// 82825 85641=
85586,2019,05,25,21,00,AAXX 25214 85586 44756 63311 10147 20102 30058 40149 53002 70522 82130 333 5666/ 82850 86362=
85586,2019,05,26,00,00,AAXX 26004 85586 14958 20306 10140 20093 30065 40156 50007 60001 70522 80004 333 10166 56//6 82074=
85586,2019,05,26,12,00,AAXX 26124 85586 14860 71003 10119 20084 30089 40177 53006 60001 70222 85031 333 20115 30/// 55015 56/5/ 70000 85357 82072=
85586,2019,05,26,15,00,AAXX 26154 85586 44660 53608 10178 20085 30091 40177 50001 70122 81531 333 5666/ 81635 83358 82073=
85586,2019,05,26,18,00,AAXX 26184 85586 14860 73310 10161 20089 30090 40176 58003 60001 70322 85031 333 56/6/ 83358 86362 81073=
85586,2019,05,26,21,00,AAXX 26214 85586 44660 73306 10135 20105 30089 40176 55001 75352 82551 333 5666/ 82648 86357 81073=
85586,2019,05,27,00,00,AAXX 27004 85586 14960 52004 10123 20092 30089 40177 55002 69901 70122 85030 333 10182 56/6/ 85362=
85586,2019,05,27,12,00,AAXX 27124 85586 14960 11002 10058 20057 30091 40180 52012 60001 70000 81030 333 20050 30/// 55016 79999 81365=
85586,2019,05,27,15,00,AAXX 27154 85586 44958 50803 10154 20082 30100 40187 52011 70521 85031 333 85361 81075=
85586,2019,05,27,18,00,AAXX 27184 85586 14260 63007 10141 20107 30103 40190 50002 60001 70322 81631 333 567// 81706 83360 82070=
85586,2019,05,27,21,00,AAXX 27214 85586 44960 72803 10138 20110 30107 40194 53005 70222 85031 333 85359 85075=
85586,2019,05,28,00,00,AAXX 28004 85586 14340 80603 10126 20117 30119 40207 52013 60001 70522 886// 333 10163 562// 88707=
85586,2019,05,28,12,00,AAXX 28124 85586 14960 01103 10070 20069 30101 40195 53001 60001 70000 80000 333 20063 31/// 55043 70000=
85586,2019,05,28,15,00,AAXX 28154 85586 44957 0//// 10159 20083 30093 40184 58007 70500 80000=
85586,2019,05,28,18,00,AAXX 28184 85586 14957 22509 10167 20097 30066 40156 58027 60001 70500 80004 333 56//6 82073=
85586,2019,05,28,21,00,AAXX 28214 85586 44957 62905 10135 20107 30056 40147 58009 70511 80004 333 56//6 86074=
85586,2019,05,29,00,00,AAXX 29004 85586 14956 81303 10115 20104 30048 40140 58007 60001 71011 8803/ 333 10191 56/6/ 88364=
85586,2019,05,29,12,00,AAXX 29124 85586 14760 8//// 10109 20097 30051 40139 53011 60001 70222 8253/ 333 20109 30/// 55044 5666/ 70000 82656 88361=
85586,2019,05,29,15,00,AAXX 29154 85586 44760 81106 10126 20100 30057 40144 53002 72422 8113/ 333 5655/ 81850 85358 88362=
85586,2019,05,29,18,00,AAXX 29184 85586 14757 80607 10138 20104 30032 40119 57028 60021 72155 8452/ 333 56/6/ 84650 88457=
85586,2019,05,29,21,00,AAXX 29214 85586 44760 81303 10131 20126 30044 40131 51011 75066 885// 333 566// 82850 88656=
85586,2019,05,30,00,00,AAXX 30004 85586 14760 60612 10151 20070 30047 40133 50003 60041 70155 85530 333 10153 566// 85650 82365=
85586,2019,05,30,12,00,AAXX 30124 85586 14560 70410 10139 20102 30075 40162 55000 69941 70282 81131 333 20121 32/// 55000 561// 70074 81830 86359 81075=
85586,2019,05,30,15,00,AAXX 30154 85586 44556 83310 10145 20122 30102 40189 52027 78082 888// 333 567// 83820 86630 88650=
85586,2019,05,30,18,00,AAXX 30184 85586 14560 73208 10163 20127 30094 40180 58007 60031 72186 87800 333 567// 82820 85630 83645=
85586,2019,05,30,21,00,AAXX 30214 85586 44560 73308 10159 20127 30089 40176 55008 70122 86831 333 567// 82828 84640 83360 84075=
85586,2019,05,31,00,00,AAXX 31004 85586 14460 73404 10143 20129 30105 40192 52016 60001 70322 87530 333 10182 567// 85617 86640 81360=
85586,2019,05,31,12,00,AAXX 31124 85586 14560 60303 10110 20109 30083 40175 53010 60001 70222 86530 333 20095 32/// 55024 5666/ 70032 84624 83362=
85586,2019,05,31,15,00,AAXX 31154 85586 44560 50108 10163 20115 30094 40184 52012 70222 85130 333 5666/ 81824 85362=
85586,2019,05,31,18,00,AAXX 31184 85586 14460 63210 10168 20111 30096 40186 53002 60001 70222 86800 333 566// 83813 86643=
85586,2019,05,31,21,00,AAXX 31214 85586 44660 63410 10159 20111 30103 40194 50007 70222 86800 333 566// 83836 86645=
85586,2019,06,01,00,00,AAXX 01004 85586 14560 53606 10150 20107 30117 40209 53015 60001 70222 85500 333 10185 566// 85624=
85586,2019,06,01,12,00,AAXX 01124 85586 14960 3//// 10076 20072 30142 40231 53009 60001 70111 80001 333 20067 30/// 55026 56//6 70000 83075=
85586,2019,06,01,15,00,AAXX 01154 85586 44460 6//// 10134 20102 30156 40244 53014 70222 81504 333 565/6 81613 86071=
85586,2019,06,01,18,00,AAXX 01184 85586 14960 72305 10148 20116 30140 40227 58014 60001 70222 86051 333 56/6/ 84365 86368 81072=
85586,2019,06,01,21,00,AAXX 01214 85586 44960 52505 10157 20109 30130 40217 56011 70122 82031 333 56/5/ 82368 83173=
85586,2019,06,02,00,00,AAXX 02004 85586 14958 30000 10095 20092 30143 40231 52012 60001 70522 82031 333 10170 56/6/ 82368 81072=
85586,2019,06,02,12,00,AAXX 02124 85586 14960 71003 10078 20071 30149 40238 55001 60001 70322 80006 333 20067 31/// 55030 56//1 70002 87072=
85586,2019,06,02,15,00,AAXX 02154 85586 44956 70803 10149 20097 30152 40239 53004 70522 84036 333 84368 85073=
85586,2019,06,02,18,00,AAXX 02184 85586 14960 21709 10206 20056 30124 40209 58028 60001 70121 80001 333 82075=
85586,2019,06,02,21,00,AAXX 02214 85586 44960 22505 10174 20111 30113 40199 56010 70200 80001 333 82075=
85586,2019,06,03,00,00,AAXX 03004 85586 14950 00000 10100 20086 30119 40207 53004 60001 70500 80000 333 10224=
85586,2019,06,03,12,00,AAXX 03124 85586 14960 31104 10061 20036 30096 40190 53001 60001 70100 80004 333 20044 31/// 55062 56//6 70000 83073=
85586,2019,06,03,15,00,AAXX 03154 85586 44958 50703 10140 20071 30093 40184 56004 70511 80004 333 56//6 85073=
85586,2019,06,03,18,00,AAXX 03184 85586 14957 72604 10172 20109 30073 40162 58020 60001 70522 80008 333 56//6 87274=
85586,2019,06,03,21,00,AAXX 03214 85586 44115 82904 10124 20122 30077 40169 53003 71022 886// 333 566// 88701=
85586,2019,06,04,00,00,AAXX 04004 85586 14105 80507 10114 20114 30082 40174 50005 60001 74122 886// 333 10182 566// 88702=
85586,2019,06,04,12,00,AAXX 04124 85586 14102 8//// 10087 20087 30093 40181 53019 60001 72822 886// 333 20070 31/// 55043 70002 88701=
85586,2019,06,04,15,00,AAXX 04154 85586 44108 62503 10112 20112 30092 40180 52005 74144 82604 333 565/6 82702 85070=
85586,2019,06,04,18,00,AAXX 04184 85586 14105 82605 10111 20111 30083 40171 56001 60001 72844 886// 333 565// 88702=
85586,2019,06,04,21,00,AAXX 04214 85586 44108 82803 10109 20109 30087 40175 51004 72844 886// 333 565// 88702=
85586,2019,06,05,00,00,AAXX 05004 85586 14108 80403 10108 20108 30097 40184 53007 60001 72844 886// 333 10135 565// 88702=
85586,2019,06,05,12,00,AAXX 05124 85586 14456 81102 10102 20096 30092 40179 53001 60001 70522 888// 333 20082 31/// 55016 562// 70000 84615 88635=
85586,2019,06,05,15,00,AAXX 05154 85586 44658 70904 10145 20104 30089 40176 58001 70522 82531 333 562// 82635 85367 85075=
85586,2019,06,05,18,00,AAXX 05184 85586 14556 72607 10152 20102 30084 40171 57004 60001 70522 85431 333 566// 85629 85365 81075=
85586,2019,06,05,21,00,AAXX 05214 85586 44220 8//// 10148 20130 30095 40182 53010 70522 886// 333 567// 84706 88613=
85586,2019,06,06,00,00,AAXX 06004 85586 14112 83603 10137 20137 30108 40195 51014 69901 75022 886// 333 10176 560// 88702=
85586,2019,06,06,12,00,AAXX 06124 85586 14415 70502 10126 20126 30119 40211 53013 60001 71022 87500 333 20125 31/// 55005 566// 79999 87610=
85586,2019,06,06,15,00,AAXX 06154 85586 44212 80104 10138 20138 30137 40229 52018 71022 886// 333 566// 88706=
85586,2019,06,06,18,00,AAXX 06184 85586 14456 32905 10155 20123 30140 40231 50003 60001 70522 83102 333 566/6 83810 81073=
85586,2019,06,06,21,00,AAXX 06214 85586 44360 23004 10149 20121 30152 40243 52013 70111 82100 333 566// 82809=
85586,2019,06,07,00,00,AAXX 07004 85586 14957 00000 10108 20105 30171 40263 51019 60001 71022 80000 333 10160=
85586,2019,06,07,12,00,AAXX 07124 85586 14960 0//// 10058 20058 30150 40239 58004 60001 70000 80000 333 20040 31/// 55043 70000=
85586,2019,06,07,15,00,AAXX 07154 85586 44960 01505 10137 20086 30140 40228 56009 70000 80000=
85586,2019,06,07,18,00,AAXX 07184 85586 14960 02104 10167 20092 30112 40198 56028 60001 70000 80000=
85586,2019,06,07,21,00,AAXX 07214 85586 44960 01707 10173 20057 30107 40193 55005 70000 80000=
85586,2019,06,08,00,00,AAXX 08004 85586 14960 0//// 10115 20054 30112 40199 51004 60001 70000 80000 333 10190=
85586,2019,06,08,12,00,AAXX 08124 85586 14960 01104 10070 20047 30106 40195 51007 60001 70000 80000 333 20059 30/// 55067 70000=
85586,2019,06,08,15,00,AAXX 08154 85586 44960 01907 10126 20062 30122 40210 52017 70000 80000=
85586,2019,06,08,18,00,AAXX 08184 85586 14960 02410 10147 20077 30105 40192 58017 60001 70000 80000=
85586,2019,06,08,21,00,AAXX 08214 85586 44960 00000 10168 20096 30089 40175 56015 70000 80000=
85586,2019,06,09,00,00,AAXX 09004 85586 14960 02202 10077 20071 30082 40170 56009 60001 70000 80000 333 10181=
85586,2019,06,09,12,00,AAXX 09124 85586 14960 0//// 10029 20025 30081 40176 52003 60001 70000 80000 333 20016 31/// 55062 70000=
85586,2019,06,09,15,00,AAXX 09154 85586 44957 0//// 10125 20059 30089 40181 51009 70500 80000=
85586,2019,06,09,18,00,AAXX 09184 85586 14958 02608 10136 20089 30072 40163 56016 60001 70500 80000=
85586,2019,06,09,21,00,AAXX 09214 85586 44960 22409 10127 20103 30078 40169 53004 70100 80002 333 56//6 82074=
85586,2019,06,10,00,00,AAXX 10004 85586 14958 40804 10094 20093 30094 40187 51016 60001 71022 80002 333 10149 56//6 84074=
85586,2019,06,10,12,00,AAXX 10124 85586 14960 70604 10058 20057 30092 40181 53011 60001 70222 85031 333 20055 30/// 55063 56/5/ 70000 85368 82073=
85586,2019,06,10,15,00,AAXX 10154 85586 44957 6//// 10112 20083 30097 40185 53005 70522 83031 333 56/6/ 83368 83073=
85586,2019,06,10,18,00,AAXX 10184 85586 14958 43004 10142 20082 30083 40170 58011 60001 70522 80004 333 56//6 84075=
85586,2019,06,10,21,00,AAXX 10214 85586 44960 42703 10122 20083 30068 40155 56015 70222 81031 333 56/55 81368 83073=
85586,2019,06,11,00,00,AAXX 11004 85586 14958 40000 10062 20059 30076 40165 53006 60001 70522 80008 333 10147 84275=
85586,2019,06,11,12,00,AAXX 11124 85586 14340 81103 10082 20081 30047 40135 53010 60001 71022 886// 333 20050 30/// 55055 563// 70000 86708 88611=
85586,2019,06,11,15,00,AAXX 11154 85586 44440 80304 10118 20097 30061 40149 53015 70522 886// 333 560// 84710 88620=
85586,2019,06,11,18,00,AAXX 11184 85586 14258 73307 10119 20116 30068 40156 52008 69941 72162 87500 333 567// 85705 86615 84640=
85586,2019,06,11,21,00,AAXX 11214 85586 44560 70211 10136 20095 30068 40155 55000 70022 87800 333 561// 83820 86629=
85586,2019,06,12,00,00,AAXX 12004 85586 14560 70106 10130 20093 30074 40161 51008 60001 70122 87500 333 10151 560// 84625 87640=
85586,2019,06,12,12,00,AAXX 12124 85586 14560 70311 10132 20077 30064 40151 53005 60001 70222 85831 333 20115 31/// 55010 561// 70004 82825 84650 85358 82075=
85586,2019,06,12,15,00,AAXX 12154 85586 44560 70112 10158 20079 30069 40155 50006 70222 86839 333 561// 82825 85645 83367 83175=
85586,2019,06,12,18,00,AAXX 12184 85586 14560 73614 10156 20091 30061 40147 58009 60001 70292 87831 333 561// 83825 87640 83367 81075=
85586,2019,06,12,21,00,AAXX 12214 85586 44225 83411 10124 20124 30074 40162 53014 76386 8672/ 333 560// 83804 86810 88515=
85586,2019,06,13,00,00,AAXX 13004 85586 14340 83606 10126 20121 30084 40172 52010 60171 75186 8482/ 333 10167 560// 82608 84620 88530=
85586,2019,06,13,12,00,AAXX 13124 85586 14660 4//// 10082 20081 30108 40201 53009 60001 70200 84800 333 20078 32/// 55005 566// 70204 83846 81656=
85586,2019,06,13,15,00,AAXX 13154 85586 44960 50605 10138 20091 30126 40218 53019 70211 85034 333 56/66 85363 81073=
85586,2019,06,13,18,00,AAXX 13184 85586 14560 73107 10137 20112 30125 40217 58002 60001 70222 85850 333 5666/ 83823 85630 84362=
85586,2019,06,13,21,00,AAXX 13214 85586 44560 63207 10127 20104 30128 40220 53002 70222 86800 333 566// 84830 86640=
85586,2019,06,14,00,00,AAXX 14004 85586 14960 20704 10109 20096 30133 40226 51006 60001 70111 82030 333 10153 56/6/ 82363=
85586,2019,06,14,12,00,AAXX 14124 85586 14560 70208 10109 20090 30101 40193 55001 60001 70222 87800 333 20059 32/// 55008 566// 70026 85828 87635=
85586,2019,06,14,15,00,AAXX 14154 85586 44430 8//// 10100 20081 30119 40212 53018 76322 888// 333 566// 85818 88629=
85586,2019,06,14,18,00,AAXX 14184 85586 14460 63505 10122 20096 30109 40201 57010 60061 70222 86800 333 566// 83818 86630=
85586,2019,06,14,21,00,AAXX 14214 85586 44560 6//// 10130 20080 30107 40199 55002 70222 86800 333 566// 83826 86650=
85586,2019,06,15,00,00,AAXX 15004 85586 14660 5//// 10093 20084 30113 40206 51006 60001 70111 85800 333 10137 566// 82843 85649=
85586,2019,06,15,12,00,AAXX 15124 85586 14058 31103 10038 20038 30136 40226 53016 60001 70500 83601 333 20028 32/// 55014 562// 70062 81701 82615 81075=
85586,2019,06,15,15,00,AAXX 15154 85586 44960 21103 10117 20078 30143 40230 51009 70100 81031 333 81363 81075=
85586,2019,06,15,18,00,AAXX 15184 85586 14560 42408 10138 20058 30121 40208 58020 60001 70310 84101 333 566// 84825 81075=
85586,2019,06,15,21,00,AAXX 15214 85586 44560 62804 10133 20055 30118 40206 55004 70121 81105 333 566// 81825 85075=
85586,2019,06,16,00,00,AAXX 16004 85586 14860 41602 10066 20056 30129 40218 53009 60001 70121 81031 333 10148 81358 83072=
85586,2019,06,16,12,00,AAXX 16124 85586 14560 21103 10048 20041 30115 40204 53001 60001 70010 81201 333 20045 31/// 55061 562// 70000 81820 81075=
85586,2019,06,16,15,00,AAXX 16154 85586 44560 11003 10126 20063 30118 40206 50004 70300 81200 333 562// 81825=
85586,2019,06,16,18,00,AAXX 16184 85586 14560 22808 10143 20074 30098 40185 57020 60001 70200 81201 333 567// 81830 81075=
85586,2019,06,16,21,00,AAXX 16214 85586 44560 12905 10135 20082 30097 40184 55001 70100 81100 333 566// 81830=
85586,2019,06,17,00,00,AAXX 17004 85586 14960 01202 10066 20063 30096 40185 58003 60001 70000 80000 333 10155=
85586,2019,06,17,12,00,AAXX 17124 85586 14960 31003 10051 20047 30103 40197 53011 60001 70111 80002 333 20032 32/// 55058 56//6 70000 83073=
85586,2019,06,17,15,00,AAXX 17154 85586 44660 70904 10101 20079 30117 40210 51014 70222 86802 333 566/6 83840 86650 81073=
85586,2019,06,17,18,00,AAXX 17184 85586 14660 83306 10112 20077 30114 40206 55003 69921 78022 888// 333 566// 83846 88650=
85586,2019,06,17,21,00,AAXX 17214 85586 44760 7//// 10106 20071 30127 40220 53011 70122 87800 333 566// 84850 87656=
85586,2019,06,18,00,00,AAXX 18004 85586 14760 30904 10086 20061 30150 40243 53025 69981 70111 83500 333 10127 566// 83656=
85586,2019,06,18,12,00,AAXX 18124 85586 14960 01405 10058 20045 30163 40258 55004 60001 70000 80000 333 20055 32/// 55000 70010=
85586,2019,06,18,15,00,AAXX 18154 85586 44960 0//// 10129 20061 30168 40260 53005 70000 80000=
85586,2019,06,18,18,00,AAXX 18184 85586 14960 0//// 10164 20069 30141 40232 58026 60001 70000 80000=
85586,2019,06,18,21,00,AAXX 18214 85586 44960 01906 10167 20063 30127 40218 56014 70000 80000=
85586,2019,06,19,00,00,AAXX 19004 85586 14960 0//// 10100 20052 30121 40214 57007 60001 70000 80000 333 10179=
85586,2019,06,19,12,00,AAXX 19124 85586 14960 71606 10083 20028 30070 40158 57008 60001 70222 80002 333 20067 30/// 55066 70000 87075=
85586,2019,06,19,15,00,AAXX 19154 85586 44960 71405 10141 20033 30067 40154 58002 70222 80006 333 87075=
85586,2019,06,19,18,00,AAXX 19184 85586 14960 61204 10193 20048 30042 40127 58025 60001 70222 80006 333 86075=
85586,2019,06,19,21,00,AAXX 19214 85586 44960 71503 10186 20045 30025 40110 58019 70222 80006 333 87272=
85586,2019,06,20,00,00,AAXX 20004 85586 14950 40000 10101 20063 30022 40110 57002 60001 70421 80001 333 10205 84075=
85586,2019,06,20,12,00,AAXX 20124 85586 14960 70903 10033 20030 30038 40127 53028 60001 70222 80006 333 20026 31/// 55040 70000 87275=
85586,2019,06,20,15,00,AAXX 20154 85586 44457 73303 10131 20101 30077 40164 53038 70522 85602 333 561// 85710 86073=
85586,2019,06,20,18,00,AAXX 20184 85586 14457 73108 10146 20116 30085 40172 50008 60001 70522 82506 333 82712 87273=
85586,2019,06,20,21,00,AAXX 20214 85586 44960 73007 10135 20114 30086 40173 52001 70222 83031 333 83368 86075=
85586,2019,06,21,00,00,AAXX 21004 85586 14540 60000 10098 20097 30101 40189 52014 60031 71022 83506 333 10148 563// 83625 86073=
85586,2019,06,21,12,00,AAXX 21124 85586 14940 71202 10086 20075 30127 40220 53015 60001 71022 80004 333 20084 31/// 55000 56//6 70026 87073=
85586,2019,06,21,15,00,AAXX 21154 85586 44940 51005 10141 20088 30141 40233 53015 70511 80006 333 56//6 85072=
85586,2019,06,21,18,00,AAXX 21184 85586 14956 51706 10171 20086 30117 40207 58023 60001 70500 80002 333 56//6 85074=
85586,2019,06,22,15,00,AAXX 22154 85586 44960 80204 10127 20063 30094 40187 50003 70022 80001 333 56//1 86070=
85586,2019,06,22,18,00,AAXX 22184 85586 149// 42409 10149 20095 30080 40171 55080 60001 70211 80001 333 56//5 84070=
85586,2019,06,22,21,00,AAXX 22214 85586 469// 32505 10148 20110 30078 40169 56050 80001 333 56//6 83070=
85586,2019,06,23,15,00,AAXX 23154 85586 445// 60903 10085 20085 30110 40202 57050 70211 86430 333 83623 85361=
85586,2019,06,23,18,00,AAXX 23184 85586 169// 42403 10143 20098 30100 40191 56080 60001 84030 333 56/5/ 84360=
85586,2019,06,23,21,00,AAXX 23214 85586 469// 60000 10129 20106 30087 40179 56060 86030 333 86361=
85586,2019,06,24,15,00,AAXX 24154 85586 467// 70803 10109 20093 30091 40183 50000 87430 333 5622/ 86656 85365=
85586,2019,06,24,18,00,AAXX 24184 85586 16625 81908 10091 20087 30109 40202 53030 69901 88200 333 564// 86640 88843=
85586,2019,06,24,21,00,AAXX 24214 85586 467// 61302 10085 20073 30130 40223 53030 86230 333 5622/ 83850 85656 83360=
85586,2019,06,25,12,00,AAXX 25124 85586 14960 01103 10016 20010 30176 40272 50004 60001 70000 80000 333 20015 32/// 55000 70056=
85586,2019,06,25,18,00,AAXX 25184 85586 14960 31606 10112 20038 30150 40243 58023 60001 70100 80004 333 56//6 83072=
85586,2019,06,25,21,00,AAXX 25214 85586 44960 11707 10126 21024 30130 40222 56020 70100 80001 333 56//6 81073=
85586,2019,06,26,12,00,AAXX 26124 85586 14960 5//// 10034 20021 30117 40212 56005 60001 70111 80009 333 20005 32/// 55056 56//6 70000 85173=
85586,2019,06,26,15,00,AAXX 26154 85586 44960 51003 10086 20033 30117 40210 50001 70211 80006 333 56//6 85073=
85586,2019,06,26,18,00,AAXX 26184 85586 14960 72704 10123 20062 30090 40182 58028 60001 70222 80006 333 56//6 87073=
85586,2019,06,26,21,00,AAXX 26214 85586 44960 72504 10110 20077 30077 40169 56012 70222 83036 333 56/66 83362 87073=
85586,2019,06,27,12,00,AAXX 27124 85586 14660 81102 10073 20055 30051 40139 53005 60001 70222 84530 333 20068 30/// 55008 5655/ 70000 84642 88368=
85586,2019,06,27,15,00,AAXX 27154 85586 44960 80000 10113 20067 30055 40143 53004 70222 85051 333 56/5/ 85363 87368 81072=
85586,2019,06,27,18,00,AAXX 27184 85586 14960 83304 10133 20084 30036 40123 58018 60001 70222 86032 333 56/6/ 86364 82072=
85586,2019,06,27,21,00,AAXX 27214 85586 44960 8//// 10120 20099 30033 40120 55003 70222 86031 333 56/6/ 86364 82072=
85586,2019,06,28,12,00,AAXX 28124 85586 14960 80903 10092 20075 30039 40126 52011 60001 70222 86031 333 20085 30/// 55000 56/6/ 70000 86365 82073=
85586,2019,06,28,15,00,AAXX 28154 85586 44960 73604 10126 20079 30044 40131 53008 70222 86031 333 56/6/ 86365 81073=
85586,2019,06,28,18,00,AAXX 28184 85586 14560 73309 10132 20091 30036 40123 56008 60001 70222 85530 333 5677/ 85630 82364=
85586,2019,06,28,21,00,AAXX 28214 85586 44560 63506 10140 20074 30034 40121 55003 70222 84500 333 567// 84632 86643=
85586,2019,06,29,12,00,AAXX 29124 85586 14460 80207 10111 20108 30083 40175 51023 60151 7//66 888// 333 20095 32/// 55000 566// 70276 82810 88615=
85586,2019,06,29,15,00,AAXX 29154 85586 44456 63409 10125 20111 30111 40203 53029 71066 86800 333 566// 83818 86637=
85586,2019,06,29,18,00,AAXX 29184 85586 14460 83210 10127 20111 30124 40216 51014 60041 70222 888// 333 566// 84811 88624=
85586,2019,06,29,21,00,AAXX 2921/ 85586 41420 7//// 10114 20109 30141 40233 53016 78022 87800 333 566// 84812 87625==
85586,2019,06,30,12,00,AAXX 30124 85586 14450 32203 10035 20035 30123 40218 53005 60001 71000 83100 333 20035 32/// 55000 566// 70036 83815=
85586,2019,06,30,15,00,AAXX 30154 85586 41357 21505 10101 20082 30133 40226 51012 71011 82500 333 566// 82609==
85586,2019,06,30,21,00,AAXX 30214 85586 42960 01708 10135 20067 30130 40222 50003==
85586,2019,07,01,12,00,AAXX 01124 85586 149// 01204 10031 20027 30130 48/// 60001 700// 80000 333 20031 30/// 70000=
85586,2019,07,01,15,00,AAXX 01154 85586 449// 01204 10094 20046 30141 48/// 700// 80000=
85586,2019,07,01,18,00,AAXX 01184 85586 149// 00903 10147 20063 30121 48/// 60001 700// 80000=
85586,2019,07,01,21,00,AAXX 01214 85586 449// 02608 10122 20083 30114 48/// 700// 80000=
85586,2019,07,02,12,00,AAXX 02124 85586 46/// ///// 48/// 333 70000=
85586,2019,07,02,15,00,AAXX 02154 85586 449// 00902 10088 20046 30131 48/// 700// 80000=
85586,2019,07,02,18,00,AAXX 02184 85586 149// 01806 10148 20018 30113 48/// 60001 700// 80000=
85586,2019,07,02,21,00,AAXX 02214 85586 449// 01803 10124 20037 30107 48/// 700// 80000=
85586,2019,07,03,12,00,AAXX 03124 85586 46/// ///// 48/// 333 70000=
85586,2019,07,03,15,00,AAXX 03154 85586 449// 01203 10117 20065 30123 48/// 700// 80000=
85586,2019,07,03,18,00,AAXX 03184 85586 149// 01706 10163 20057 30099 48/// 60001 700// 80000=
85586,2019,07,03,21,00,AAXX 03214 85586 449// 01706 10163 20056 30093 48/// 700// 80000=
85586,2019,07,04,12,00,AAXX 04124 85586 14960 1//// 10052 20049 30110 40199 53008 60001 70200 80001 333 20051 30/// 55064 70000 81075=
85586,2019,07,04,15,00,AAXX 04154 85586 44958 01906 10119 20082 30118 40206 52009 70500 80000=
85586,2019,07,04,18,00,AAXX 04184 85586 14960 11809 10157 20078 30101 40188 57017 60001 70300 80001 333 56//5 81075=
85586,2019,07,04,21,00,AAXX 04214 85586 44960 01708 10157 20057 30100 40187 55002 70000 80000=
85586,2019,07,05,00,00,AAXX 05004 85586 14960 01603 10096 20048 30106 40194 53005 60001 70000 80000 333 10167=
85586,2019,07,05,12,00,AAXX 05124 85586 14960 2//// 10049 20039 30078 40167 56010 60001 70200 80001 333 20019 30/// 55061 70000 82075=
85586,2019,07,05,15,00,AAXX 05154 85586 44958 11403 10131 20054 30075 40162 57002 70500 80001 333 56//5 81075=
85586,2019,07,05,18,00,AAXX 05184 85586 14960 02409 10134 20085 30050 40137 56023 60001 70000 80000=
85586,2019,07,05,21,00,AAXX 05214 85586 44960 02703 10134 20085 30033 40120 56019 70000 80000=
85586,2019,07,06,00,00,AAXX 06004 85586 14960 00902 10070 20063 30034 40122 55001 60001 70000 80000 333 10163=
85586,2019,07,06,12,00,AAXX 06124 85586 14457 30903 10050 20050 30067 40156 53018 60001 70500 81531 333 20030 30/// 55068 5655/ 70000 81616 82368 81075=
85586,2019,07,06,15,00,AAXX 06154 85586 44457 80106 10119 20102 30086 40174 51020 70522 885// 333 565// 86616 88620=
85586,2019,07,06,18,00,AAXX 06184 85586 14460 83504 10132 20102 30080 40167 56006 60001 70222 885// 333 566// 88618=
85586,2019,07,06,21,00,AAXX 06214 85586 44560 73606 10135 20098 30079 40166 55000 70222 87530 333 566// 87622 81365=
85586,2019,07,07,00,00,AAXX 07004 85586 14560 63608 10135 20102 30091 40178 51012 60001 70222 86500 333 10136 566// 86622=
85586,2019,07,07,12,00,AAXX 07124 85586 14460 8//// 10124 20100 30100 40192 51006 60001 70222 888// 333 20114 31/// 55000 566// 70000 85819 88625=
85586,2019,07,07,15,00,AAXX 07154 85586 44560 71003 10136 20102 30103 40194 50004 70222 87800 333 566// 84827 87635=
85586,2019,07,07,18,00,AAXX 07184 85586 14958 82705 10150 20105 30083 40174 57020 60001 70522 8803/ 333 56/6/ 88363=
85586,2019,07,07,21,00,AAXX 07214 85586 44958 72705 10136 20102 30080 40171 53001 70522 87030 333 56/6/ 87363=
85586,2019,07,08,00,00,AAXX 08004 85586 14960 30000 10094 20091 30078 40171 56006 60001 70100 80001 333 10157 56//6 83074=
85586,2019,07,08,12,00,AAXX 08124 85586 14560 6//// 10100 20095 30102 40195 50011 60001 70222 86500 333 20068 31/// 55000 566// 70000 86628=
85586,2019,07,08,15,00,AAXX 08154 85586 44558 7//// 10119 20103 30118 40210 51016 71022 86501 333 566/6 86629 82072=
85586,2019,07,08,18,00,AAXX 08184 85586 14560 83505 10149 20091 30115 40206 58003 60001 70222 885// 333 566// 88631=
85586,2019,07,08,21,00,AAXX 08214 85586 44560 83004 10136 20101 30117 40209 53001 70222 885// 333 566// 88633=
85586,2019,07,09,00,00,AAXX 09004 85586 14560 51302 10105 20096 30125 40218 51008 60001 70222 85500 333 10151 566// 85631=
85586,2019,07,09,12,00,AAXX 09124 85586 14558 8//// 10069 20069 30112 40201 53002 60001 70522 885// 333 20040 30/// 55000 565// 70000 88622=
85586,2019,07,09,15,00,AAXX 09154 85586 44540 5//// 10130 20097 30112 40200 50001 70522 84501 333 565// 84620 81075=
85586,2019,07,09,18,00,AAXX 09184 85586 14940 12509 10135 20102 30103 40190 55009 60001 70500 80001 333 81075=
85586,2019,07,09,21,00,AAXX 09214 85586 41456 32406 10125 20108 30119 40207 53016 70544 82501 333 565// 82610 81075==
85586,2019,07,10,00,00,AAXX 10004 85586 14458 11502 10075 20074 30130 40219 53010 60001 70500 81500 333 10151 566// 81610=
85586,2019,07,10,12,00,AAXX 10124 85586 14105 8//// 10071 20071 30124 40213 56004 60001 74444 886// 333 20049 31/// 55057 565// 70000 88602=
85586,2019,07,10,15,00,AAXX 10154 85586 41108 81904 10077 20077 30136 40225 51013 72844 886// 333 565// 88702==
85586,2019,07,10,18,00,AAXX 10184 85586 14215 80903 10097 20097 30113 40201 58022 60001 71044 886// 333 565// 88705=
85586,2019,07,10,21,00,AAXX 10214 85586 41430 72503 10109 20098 30104 40191 56008 71022 85531 333 5655/ 85610 86358 81072==
85586,2019,07,11,00,00,AAXX 11004 85586 14320 60000 10074 20074 30106 40194 53003 60001 71044 84501 333 10120 565// 84607 82275=
85586,2019,07,11,12,00,AAXX 11124 85586 14103 8//// 10063 20063 30096 40190 53016 60001 72822 886// 333 20057 31/// 55000 566// 70002 88701=
85586,2019,07,11,15,00,AAXX 11154 85586 44120 7//// 10090 20090 30109 40202 53012 71022 87600 333 566// 87703=
85586,2019,07,11,18,00,AAXX 11184 85586 14635 62406 10125 20097 30110 40202 52002 60001 70522 86500 333 566// 86642=
85586,2019,07,11,21,00,AAXX 11214 85586 44356 62606 10121 20104 30112 40204 53001 71000 86530 333 566// 83607 86361=
85586,2019,07,12,00,00,AAXX 12004 85586 14250 50000 10104 20101 30123 40216 51011 60001 71022 85800 333 10152 566// 83806 85617=
85586,2019,07,12,12,00,AAXX 12124 85586 14404 20000 10059 20059 30116 40210 55003 60001 72800 82500 333 20059 31/// 55041 566// 70000 82611=
85586,2019,07,12,15,00,AAXX 12154 85586 44330 32405 10104 20096 30114 40207 58002 71011 83500 333 566// 83607=
85586,2019,07,12,18,00,AAXX 12184 85586 14540 22707 10140 20101 30094 40185 58019 60001 70500 82100 333 566// 82823=
85586,2019,07,12,21,00,AAXX 12214 85586 44458 12310 10119 20100 30096 40188 53001 70500 81100 333 566// 81810=
85586,2019,07,13,00,00,AAXX 13004 85586 14309 4//// 10063 20063 30108 40202 53013 60001 72800 84600 333 10142 566// 84709=
85586,2019,07,13,12,00,AAXX 13124 85586 14105 81203 10052 20052 30125 40214 53011 60001 72844 886// 333 20044 31/// 55061 565// 70000 88701=
85586,2019,07,13,15,00,AAXX 13154 85586 44040 2//// 10100 20100 30135 40223 51010 71044 81601 333 567// 81701 81075=
85586,2019,07,13,18,00,AAXX 13184 85586 14960 01907 10165 20064 30114 40201 58019 60001 70000 80000=
85586,2019,07,13,21,00,AAXX 13214 85586 44260 12308 10132 20111 30114 40202 53001 70100 81500 333 566// 81605=
85586,2019,07,14,00,00,AAXX 14004 85586 14960 00802 10078 20077 30130 40219 53015 60001 70000 80000 333 10168=
85586,2019,07,14,12,00,AAXX 14124 85586 14958 1//// 10037 20037 30150 40210 52007 60001 70500 80001 333 20030 30/// 55061 79999 81075=
85586,2019,07,14,15,00,AAXX 14154 85586 44957 4//// 10120 20092 30160 40247 53011 70500 80004 333 56//5 84075=
85586,2019,07,14,18,00,AAXX 14184 85586 14960 41508 10163 20086 30140 40227 58018 60001 70200 80004 333 84075=
85586,2019,07,14,21,00,AAXX 14214 85586 44960 21708 10168 20055 30131 40218 55010 70100 80001 333 56//6 82075=
85586,2019,07,15,00,00,AAXX 15004 85586 14960 01704 10095 20053 30135 40223 53003 60001 70000 80000 333 10176=
85586,2019,07,15,12,00,AAXX 15124 85586 14960 21203 10051 20041 30102 40196 56004 60001 70100 80001 333 20043 31/// 55067 56//6 70000 82073=
85586,2019,07,15,15,00,AAXX 15154 85586 44958 01503 10146 20062 30100 40191 57003 70500 80000=
85586,2019,07,15,18,00,AAXX 15184 85586 14960 0//// 10186 20066 30076 40166 58023 60001 70000 80000=
85586,2019,07,15,21,00,AAXX 15214 85586 44960 02408 10156 20098 30061 40151 56015 70000 80000=
85586,2019,07,16,12,00,AAXX 16124 85586 14956 0//// 10021 20020 30099 40194 53020 60001 71000 80000 333 20015 31/// 55057 70000=
85586,2019,07,16,15,00,AAXX 16154 85586 44958 6//// 10116 20070 30114 40206 50016 70500 80006 333 56//6 86073=
85586,2019,07,16,18,00,AAXX 16184 85586 14957 52507 10132 20081 30102 40194 58011 60001 70511 80008 333 56//6 85274=
85586,2019,07,16,21,00,AAXX 16214 85586 44960 32409 10124 20108 30106 40198 53003 70100 80004 333 56//6 83074=
85586,2019,07,17,12,00,AAXX 17124 85586 14107 8//// 10076 20076 30125 40219 50009 60001 72822 886// 333 20027 31/// 55055 566// 70002 88701=
85586,2019,07,17,15,00,AAXX 17154 85586 44235 8//// 10110 20110 30138 40231 51014 71022 888// 333 566// 84806 88610=
85586,2019,07,17,18,00,AAXX 17184 85586 14958 62605 10133 20101 30125 40217 57013 60001 70522 80008 333 56//6 86074=
85586,2019,07,17,21,00,AAXX 17214 85586 44960 42409 10123 20104 30127 40219 53001 70211 80004 333 56//6 84074=
85586,2019,07,18,12,00,AAXX 18124 85586 14320 82105 10103 20103 30142 40235 51013 60001 71022 886// 333 20068 31/// 55018 566// 70000 88708=
85586,2019,07,18,15,00,AAXX 18154 85586 44450 21505 10136 20101 30150 40242 50012 70522 82500 333 566// 82611=
85586,2019,07,18,18,00,AAXX 18184 85586 14958 11806 10173 20098 30129 40219 56022 60001 70500 80001 333 56//6 81073=
85586,2019,07,18,21,00,AAXX 18214 85586 44960 01105 10150 20100 30121 40212 50000 70222 80000=
85586,2019,07,19,12,00,AAXX 19124 85586 14960 01203 10039 20039 30124 40219 53004 60001 70222 80000 333 20020 31/// 55062 70000=
85586,2019,07,19,15,00,AAXX 19154 85586 44960 6//// 10102 20074 30123 40216 50000 70222 80006 333 56//1 86170=
85586,2019,07,19,18,00,AAXX 19184 85586 14960 42006 10155 20066 30097 40188 58025 60001 70222 80009 333 56//1 84170=
85586,2019,07,19,21,00,AAXX 19214 85586 44960 22309 10130 20077 30092 40184 55006 70222 80008 333 56//5 82270=
85586,2019,07,20,12,00,AAXX 20124 85586 14960 70904 10042 20041 30052 40146 53006 60001 70222 80008 333 20034 31/// 55036 56//2 70000 87275=
85586,2019,07,20,15,00,AAXX 20154 85586 44960 8//// 10097 20059 30058 40150 53006 70222 80007 333 56//1 88275=
85586,2019,07,20,18,00,AAXX 20184 85586 14960 82705 10114 20066 30043 40135 56014 69901 70222 80007 333 56//2 88270=
85586,2019,07,20,21,00,AAXX 20214 85586 44960 83303 10112 20083 30049 40141 53004 70222 80007 333 56//1 88271=
85586,2019,07,21,12,00,AAXX 21124 85586 14620 80602 10090 20090 30085 40178 53019 69941 72522 885// 333 20090 32/// 55008 566// 70052 88648=
85586,2019,07,21,15,00,AAXX 21154 85586 44656 70904 10112 20090 30103 40195 52019 70522 87800 333 566// 83845 87650=
85586,2019,07,21,18,00,AAXX 21184 85586 14557 62905 10119 20088 30106 40198 50005 69981 70522 85800 333 566// 83823 85650=
85586,2019,07,21,21,00,AAXX 21214 85586 44660 12906 10121 20082 30124 40216 53017 70100 81100 333 566// 81837=
85586,2019,07,22,12,00,AAXX 22124 85586 14958 01403 10021 20020 30133 40229 55002 60001 71000 80000 333 20020 32/// 55032 70008=
85586,2019,07,22,15,00,AAXX 22154 85586 44960 0//// 10086 20041 30140 40233 53007 70000 80000=
85586,2019,07,22,18,00,AAXX 22184 85586 14460 11909 10134 20024 30124 40216 58016 60001 70100 81100 333 566// 81810=
85586,2019,07,23,12,00,AAXX 23124 85586 14960 01103 10016 20016 30136 40232 52012 60001 70000 80000 333 21002 31/// 55062 70000=
85586,2019,07,23,15,00,AAXX 23154 85586 44958 0//// 10094 20048 30146 40239 51010 70500 80000=
85586,2019,07,23,18,00,AAXX 23184 85586 469// 0//// 48/// 80000=
85586,2019,07,23,21,00,AAXX 23214 85586 44960 02506 10093 20047 30147 40240 55002 70000 80000=
85586,2019,07,24,12,00,AAXX 24124 85586 169// 02203 10025 20022 30102 40197 60001 80000 333 20020 31/// 70000=
85586,2019,07,24,15,00,AAXX 24154 85586 469// 00304 10084 20044 30115 40208 80000=
85586,2019,07,24,18,00,AAXX 24184 85586 164// 62911 10116 20086 30109 40201 60001 86600 333 565// 86712=
85586,2019,07,24,21,00,AAXX 24214 85586 464// 23109 10112 20077 30124 40216 82500 333 565// 82615=
85586,2019,07,25,12,00,AAXX 25124 85586 169// 0//// 10056 20052 30180 40275 60001 80000 333 20035 31/// 70000=
85586,2019,07,25,15,00,AAXX 25154 85586 465// 20104 10130 20079 30191 40283 82400 333 565// 82620=
85586,2019,07,25,18,00,AAXX 25184 85586 165// 23004 10136 20067 30177 40269 60001 82400 333 565// 82625=
85586,2019,07,25,21,00,AAXX 25214 85586 469// 02605 10123 20076 30175 40268 80000=
85586,2019,07,26,12,00,AAXX 26124 85586 169// 5//// 10057 20050 30166 40261 60001 83031 333 20026 31/// 56/55 70000 83367 83070=
85586,2019,07,26,15,00,AAXX 26154 85586 469// 21104 10125 20068 30162 40253 82030 333 56/5/ 82365=
85586,2019,07,26,18,00,AAXX 26184 85586 169// 02410 10138 20087 30135 40227 60001 80000=
85586,2019,07,26,21,00,AAXX 26214 85586 469// 02307 10142 20095 30120 40211 80000=
85586,2019,07,27,12,00,AAXX 27124 85586 14930 51401 10045 20042 30097 40191 53008 60001 71022 80004 333 20041 31/// 55073 56//6 70000 85072=
85586,2019,07,27,15,00,AAXX 27154 85586 44937 70000 10123 20078 30103 40195 50004 70522 80008 333 56//6 87273=
85586,2019,07,27,18,00,AAXX 27184 85586 14958 62506 10133 20100 30094 40181 58011 60001 70522 80009 333 56//6 86173=
85586,2019,07,27,21,00,AAXX 27214 85586 44957 72507 10119 20107 30090 40182 55002 71022 85036 333 56/66 85364 87073=
85586,2019,07,28,12,00,AAXX 28124 85586 14320 80803 10096 20087 30129 40217 53007 60001 71022 886// 333 20090 31/// 55026 566// 70000 88708=
85586,2019,07,28,15,00,AAXX 28154 85586 44256 70605 10102 20088 30139 40227 50007 71022 87500 333 566// 87606=
85586,2019,07,28,18,00,AAXX 28184 85586 14358 6//// 10121 20093 30126 40214 58008 60001 70522 86800 333 566// 81809 86620=
85586,2019,07,28,21,00,AAXX 28214 85586 44240 83006 10106 20095 30141 40229 53013 71022 886// 333 560// 88706=
85586,2019,07,29,12,00,AAXX 29124 85586 14460 51201 10113 20113 30153 40246 51006 60001 70222 85500 333 20103 32/// 55009 566// 70026 85619=
85586,2019,07,29,15,00,AAXX 29154 85586 44957 42505 10148 20122 30161 40248 53004 70522 80009 333 56//6 84171=
85586,2019,07,29,18,00,AAXX 29184 85586 14107 82410 10126 20126 30142 40234 58015 60001 72800 886// 333 566// 88702=
85586,2019,07,29,21,00,AAXX 29214 85586 44105 82405 10116 20116 30133 40225 55009 72822 886// 333 567// 88702=
85586,2019,07,30,12,00,AAXX 30124 85586 14960 21303 10104 20104 30124 40212 55003 60001 70122 80001 333 20073 31/// 55029 56//1 70000 82271=
85586,2019,07,30,15,00,AAXX 30154 85586 449// 21202 10170 20140 30110 40196 58008 70211 80001 333 56//7 82071=
85586,2019,07,30,18,00,AAXX 30184 85586 14960 32411 10172 20128 30094 40180 56021 60001 70111 80001 333 56//5 83071=
85586,2019,07,30,21,00,AAXX 30214 85586 44960 53003 10173 20125 30087 40173 55007 70211 80004 333 56//7 85270=
85586,2019,07,31,12,00,AAXX 31124 85586 14001 80503 10083 20083 30108 40196 53014 60001 72844 886// 333 20067 31/// 55065 70000 88701=
85586,2019,07,31,15,00,AAXX 31154 85586 44257 72603 10116 20116 30124 40211 51016 70544 87671 333 56666 83703 87356 87270=
85586,2019,07,31,18,00,AAXX 31184 85586 14560 72311 10140 20095 30120 40207 57003 60001 70311 87400 333 565// 87626=
85586,2019,07,31,21,00,AAXX 31214 85586 44660 42312 10126 20087 30132 40228 53012 70111 82470 333 5655/ 82633 84456=
85586,2019,08,01,12,00,AAXX 01124 85586 14960 01503 10048 20031 30201 40291 53015 60001 70000 80000 333 20025 31/// 55023 70000=
85586,2019,08,01,15,00,AAXX 01154 85586 44960 01607 10127 20052 30209 40297 51008 70000 80000=
85586,2019,08,01,18,00,AAXX 01184 85586 14960 01711 10149 20044 30188 40276 57020 60001 70011 80000=
85586,2019,08,01,21,00,AAXX 01214 85586 44960 01713 10159 20024 30175 40262 55014 70000 80000=
85586,2019,08,02,12,00,AAXX 02124 85586 14960 01704 10045 20025 30176 40271 52003 60001 70000 80000 333 20030 30/// 55082 70000=
85586,2019,08,02,15,00,AAXX 02154 85586 44960 01408 10110 20031 30170 40262 58006 70000 80000=
85586,2019,08,02,18,00,AAXX 02184 85586 14960 0//// 10166 20046 30145 40236 58025 60001 70000 80000=
85586,2019,08,02,21,00,AAXX 02214 85586 44960 0//// 10167 20013 30137 40224 55013 70022 80000=
85586,2019,08,03,12,00,AAXX 03124 85586 14960 5//// 10055 20020 30110 40204 55004 60001 70100 80004 333 20032 31/// 55071 56//6 70000 85074=
85586,2019,08,03,15,00,AAXX 03154 85586 44960 2//// 10149 20041 30114 40205 50005 70100 80004 333 56//6 82074=
85586,2019,08,03,18,00,AAXX 03184 85586 14960 22507 10157 20090 30101 40188 57016 60001 70222 80004 333 56//6 82073=
85586,2019,08,03,21,00,AAXX 03214 85586 44960 6//// 10182 20096 30078 40168 56019 70222 80008 333 56//6 86073=
85586,2019,08,04,12,00,AAXX 04124 85586 14958 01203 10066 20048 30066 40159 53010 60001 70500 80000 333 20038 31/// 55085 70000=
85586,2019,08,04,15,00,AAXX 04154 85586 44960 0//// 10174 20070 30076 40162 50008 70000 80000=
85586,2019,08,04,18,00,AAXX 04184 85586 14960 02410 10157 20099 30059 40149 58013 60001 70000 80000=
85586,2019,08,04,21,00,AAXX 04214 85586 44960 02905 10137 20109 30068 40155 53004 70000 80000=
85586,2019,08,05,12,00,AAXX 05124 85586 14310 8//// 10096 20087 30108 40196 53018 60001 71044 886// 333 20062 31/// 55064 560// 70000 88707=
85586,2019,08,05,15,00,AAXX 05154 85586 44430 80304 10106 20085 30108 40195 55000 71040 886// 333 560// 88710=
85586,2019,08,05,18,00,AAXX 05184 85586 14435 73208 10131 20082 30098 40186 58009 60001 70500 87500 333 560// 87615=
85586,2019,08,05,21,00,AAXX 05214 85586 44450 82605 10107 20086 30107 40194 52007 70511 885// 333 560// 88615=
85586,2019,08,06,12,00,AAXX 06124 85586 14550 70000 10086 20072 30143 40231 52015 60001 70511 87400 333 20052 30/// 55008 70000 87620=
85586,2019,08,06,15,00,AAXX 06154 85586 44450 8//// 10117 20084 30157 40244 51014 70522 884// 333 560// 86615 88640=
85586,2019,08,06,18,00,AAXX 06184 85586 14560 62309 10122 20092 30149 40236 58008 69901 70222 86200 333 82820 86840=
85586,2019,08,06,21,00,AAXX 06214 85586 44660 52311 10140 20082 30146 40234 58004 70222 85100 333 85840=
85586,2019,08,07,12,00,AAXX 07124 85586 14960 0//// 10052 20022 30159 40249 51008 60001 70000 80000 333 20044 31/// 55024 79999=
85586,2019,08,07,15,00,AAXX 07154 85586 44960 01706 10116 20034 30161 40249 50002 70000 80000=
85586,2019,08,07,18,00,AAXX 07184 85586 14960 11710 10152 20005 30143 40230 58017 60001 70100 80001 333 56//0 81070=
85586,2019,08,07,21,00,AAXX 07214 85586 44960 02312 10119 20056 30139 40226 55005 70000 80000=
85586,2019,08,08,12,00,AAXX 08124 85586 14960 01102 11004 21004 30150 40247 53008 60001 70000 80000 333 21010 31/// 55078 70000=
85586,2019,08,08,15,00,AAXX 08154 85586 44760 13005 10094 20038 30157 40250 51009 70100 81100 333 566// 81850=
85586,2019,08,08,18,00,AAXX 08184 85586 14960 02907 10104 20039 30152 40245 57005 60001 70000 80000=
85586,2019,08,08,21,00,AAXX 08214 85586 44960 02707 10107 20051 30151 40244 55001 70000 80000=
85586,2019,08,09,12,00,AAXX 09124 85586 14960 01003 10013 20013 30189 40280 53019 60001 70000 80000 333 20006 31/// 55072 70002=
85586,2019,08,09,15,00,AAXX 09154 85586 44958 02406 10098 20054 30193 40287 53009 70500 80000=
85586,2019,08,09,18,00,AAXX 09184 85586 14957 42511 10121 20074 30179 40272 58014 60001 70500 80004 333 56//6 84073=
85586,2019,08,09,21,00,AAXX 09214 85586 44958 32408 10122 20079 30169 40261 57010 70500 80006 333 56//6 83074=
85586,2019,08,10,00,00,AAXX 10004 85586 14960 00000 10065 20058 30163 40257 55006 60001 70000 80000 333 10127=
85586,2019,08,10,12,00,AAXX 10124 85586 14957 3//// 10027 20027 30134 40224 69901 70500 80001 333 20013 30/// 55072 56//5 79999 83072=
85586,2019,08,10,15,00,AAXX 10154 85586 44957 20103 10128 20067 30122 40210 56010 70500 80001 333 56//7 82072=
85586,2019,08,10,18,00,AAXX 10184 85586 14960 22416 10125 20066 30101 40189 57022 60001 70200 80001 333 82073=
85586,2019,08,10,21,00,AAXX 10214 85586 44960 72408 10111 20071 30106 40193 53004 70311 86031 333 56/55 86368 81073=
85586,2019,08,11,00,00,AAXX 11004 85586 14960 70000 10095 20055 30126 40214 51019 60001 70222 87030 333 10161 56/5/ 87366=
85586,2019,08,11,12,00,AAXX 11124 85586 14960 21003 10035 20032 30150 40240 53010 60001 70200 80001 333 20017 30/// 55054 70000 82073=
85586,2019,08,11,15,00,AAXX 11154 85586 44660 32604 10125 20072 30161 40248 51011 70200 82501 333 565// 82640 81073=
85586,2019,08,11,18,00,AAXX 11184 85586 14560 22512 10129 20090 30156 40244 58004 60001 70100 82100 333 565// 82830=
85586,2019,08,11,21,00,AAXX 11214 85586 44460 12506 10125 20099 30162 40249 52005 70100 81100 333 566// 81810=
85586,2019,08,12,00,00,AAXX 12004 85586 14960 00000 10072 20066 30175 40264 53013 60001 70000 80000 333 10146=
85586,2019,08,12,12,00,AAXX 12124 85586 14960 01304 10049 20044 30187 40282 53005 60001 70000 80000 333 20013 31/// 55082 70000=
85586,2019,08,12,15,00,AAXX 12154 85586 44958 2//// 10131 20065 30181 40273 58004 70500 80002 333 56//6 82073=
85586,2019,08,12,18,00,AAXX 12184 85586 14960 01707 10180 20050 30150 40240 58031 60001 70000 80000=
85586,2019,08,12,21,00,AAXX 12214 85586 44960 01608 10187 21010 30132 40222 56019 70000 80000=
85586,2019,08,13,00,00,AAXX 13004 85586 14960 01805 10111 20034 30127 40219 56005 60001 70000 80000 333 10196=
85586,2019,08,13,12,00,AAXX 13124 85586 14960 41305 10085 20014 30061 40154 56009 60001 70000 80006 333 20065 31/// 55084 56//6 70000 84073=
85586,2019,08,13,15,00,AAXX 13154 85586 44958 7//// 10162 20023 30053 40143 58008 70500 80008 333 56//6 87273=
85586,2019,08,13,18,00,AAXX 13184 85586 14958 8//// 10236 20037 30026 40114 57027 60001 70500 80007 333 56//6 88274=
85586,2019,08,13,21,00,AAXX 13214 85586 44958 73203 10188 20099 30012 40101 56014 70500 80008 333 56//6 87274=
85586,2019,08,14,00,00,AAXX 14004 85586 14960 30000 10118 20077 30006 40097 55007 60001 70100 80004 333 10236 56//6 83074=
85586,2019,08,14,12,00,AAXX 14124 85586 14960 61502 10050 20045 30037 40126 53014 60001 70222 80001 333 20046 30/// 55067 70000 86075=
85586,2019,08,14,15,00,AAXX 14154 85586 44356 73212 10127 20108 30069 40156 53034 70522 83504 333 566/6 83607 86075=
85586,2019,08,14,18,00,AAXX 14184 85586 14550 73213 10141 20109 30073 40160 52007 60001 70522 81504 333 566/6 81620 87273=
85586,2019,08,14,21,00,AAXX 14214 85586 44458 73010 10126 20109 30080 40168 53004 70522 83504 333 566/7 81610 83624 86273=
85586,2019,08,15,00,00,AAXX 15004 85586 14558 71402 10096 20092 30086 40173 50006 60001 70522 81504 333 10144 565// 81622 86273=
85586,2019,08,15,12,00,AAXX 15124 85586 14430 80704 10101 20100 30111 40199 53020 60001 71022 885// 333 20050 30/// 55056 566// 70000 88610=
85586,2019,08,15,15,00,AAXX 15154 85586 44320 8//// 10111 20108 30119 40206 50001 71052 885// 333 565// 88608=
85586,2019,08,15,18,00,AAXX 15184 85586 14456 83303 10132 20095 30100 40187 58017 69901 70522 885// 333 566// 82610 88618=
85586,2019,08,15,21,00,AAXX 15214 85586 44250 72905 10122 20111 30097 40185 55005 71022 87500 333 565// 87606=
85586,2019,08,16,00,00,AAXX 16004 85586 14460 82903 10116 20100 30108 40196 51012 60001 70222 885// 333 10134 565// 88618=
85586,2019,08,16,12,00,AAXX 16124 85586 14540 83104 10105 20079 30096 40183 53004 60001 70522 885// 333 20102 30/// 55000 565// 79999 88620=
85586,2019,08,16,15,00,AAXX 16154 85586 44450 83105 10110 20093 30107 40194 53011 70522 885// 333 567// 88616=
85586,2019,08,16,18,00,AAXX 16184 85586 14560 83307 10119 20084 30109 40197 50003 60001 70222 885// 333 565// 88620=
85586,2019,08,16,21,00,AAXX 16214 85586 44560 73108 10117 20086 30108 40196 55002 70122 87500 333 567// 87632=
85586,2019,08,17,00,00,AAXX 17004 85586 14660 70406 10110 20077 30125 40212 52016 60001 70300 87500 333 10127 567// 87634=
85586,2019,08,17,12,00,AAXX 17124 85586 14560 60704 10110 20073 30132 40219 51008 60001 70222 85531 333 20094 30/// 55005 562// 70000 85630 83357 81075=
85586,2019,08,17,15,00,AAXX 17154 85586 44560 73006 10143 20074 30139 40227 51009 70222 85531 333 567// 85632 83358 82075=
85586,2019,08,17,18,00,AAXX 17184 85586 14660 72607 10145 20091 30118 40205 57021 60001 70322 82109 333 567// 82840 86173=
85586,2019,08,17,21,00,AAXX 17214 85586 44358 72406 10127 20115 30125 40213 53004 70522 84131 333 565// 84707 82368 85070=
85586,2019,08,18,00,00,AAXX 18004 85586 14940 51802 10102 20101 30133 40221 53009 60001 70422 85031 333 10155 85368 82070=
85586,2019,08,18,12,00,AAXX 18124 85586 14956 70000 10068 20068 30113 40202 55002 60001 70522 87032 333 20050 30/// 55045 70000 87367 82070=
85586,2019,08,18,15,00,AAXX 18154 85586 44340 82703 10116 20105 30124 40211 53012 70522 82132 333 565// 82708 86367 83070=
85586,2019,08,18,18,00,AAXX 18184 85586 14456 82307 10127 20108 30112 40200 56011 60001 70522 83621 333 565// 83615 86466 83070=
85586,2019,08,18,21,00,AAXX 18214 85586 44556 82609 10117 20106 30108 40196 55003 70522 83532 333 565// 83625 86365 83070=
85586,2019,08,19,00,00,AAXX 19004 85586 14540 61601 10105 20100 30118 40205 53007 60001 71022 82531 333 10143 563// 82625 84365 83075=
85586,2019,08,19,12,00,AAXX 19124 85586 14957 82201 10084 20084 30120 40208 55000 60001 70522 85031 333 20054 30/// 55000 70000 85363 85070=
85586,2019,08,19,15,00,AAXX 19154 85586 44956 82102 10117 20103 30124 40211 53003 70522 87032 333 87362 82070=
85586,2019,08,19,18,00,AAXX 19184 85586 14956 81303 10144 20103 30103 40190 58020 60001 70522 87032 333 87362 83070=
85586,2019,08,19,21,00,AAXX 19214 85586 44950 72503 10136 20112 30097 40184 58008 70522 87030 333 85362 85367=
85586,2019,08,20,00,00,AAXX 20004 85586 14940 82304 10121 20107 30101 40189 53004 60001 70422 8803/ 333 10157 86362 84365=
85586,2019,08,20,12,00,AAXX 20124 85586 14956 6//// 10067 20067 30086 40174 55000 60001 70500 80004 333 20040 30/// 55000 56//5 70000 86075=
85586,2019,08,20,15,00,AAXX 20154 85586 44950 32604 10135 20105 30090 40177 53004 70511 80001 333 56//5 83075=
85586,2019,08,20,18,00,AAXX 20184 85586 14958 62507 10152 20106 30070 40157 58019 60001 70500 80004 333 56//6 86075=
85586,2019,08,20,21,00,AAXX 20214 85586 44960 32807 10138 20112 30071 40158 57002 70111 80001 333 56//6 83073=
85586,2019,08,21,00,00,AAXX 21004 85586 14257 43503 10112 20109 30094 40182 51024 60001 70500 84500 333 10171 565// 84605=
85586,2019,08,21,12,00,AAXX 21124 85586 14958 70903 10060 20060 30111 40208 51018 60001 70522 86051 333 20051 30/// 55077 56/5/ 70000 86368 81070=
85586,2019,08,21,15,00,AAXX 21154 85586 44960 7//// 10114 20083 30128 40215 51017 70222 86051 333 56/6/ 86368 81073=
85586,2019,08,21,18,00,AAXX 21184 85586 14960 72203 10139 20088 30127 40215 58001 60001 70222 86051 333 56/6/ 84363 86368 81072=
85586,2019,08,21,21,00,AAXX 21214 85586 44960 61807 10160 20083 30126 40213 50000 70222 85051 333 56/5/ 83364 85367 81073=
85586,2019,08,22,00,00,AAXX 22004 85586 14960 31703 10126 20071 30134 40222 53008 60001 70122 83030 333 10167 56/5/ 83366=
85586,2019,08,22,12,00,AAXX 22124 85586 14958 11504 10092 20073 30103 40196 58003 60001 70500 80001 333 20059 31/// 55004 56//6 70000 81073=
85586,2019,08,22,15,00,AAXX 22154 85586 44958 1//// 10189 20095 30088 40178 58012 70500 80001 333 56//6 81073=
85586,2019,08,22,18,00,AAXX 22184 85586 14960 12509 10199 20112 30067 40156 58020 60001 70100 80001 333 56//6 81074=
85586,2019,08,22,21,00,AAXX 22214 85586 44960 62806 10160 20108 30062 40152 55005 70222 80008 333 56//6 86273=
85586,2019,08,23,00,00,AAXX 23004 85586 14960 40404 10116 20092 30075 40167 53015 69901 70100 80008 333 10266 56//6 84274=
85586,2019,08,23,12,00,AAXX 23124 85586 14957 61002 10049 20049 30083 40177 52004 69901 71000 80008 333 20048 31/// 55085 56//6 79999 86273=
85586,2019,08,23,15,00,AAXX 23154 85586 44958 72408 10122 20100 30090 40182 53007 70511 80008 333 56//6 87274=
85586,2019,08,23,18,00,AAXX 23184 85586 14958 53505 10162 20110 30084 40174 58007 60001 70522 80008 333 56//6 85273=
85586,2019,08,23,21,00,AAXX 23214 85586 44958 63403 10148 20107 30084 40175 53001 70522 80008 333 56//6 86273=
85586,2019,08,24,00,00,AAXX 24004 85586 14960 30903 10107 20091 30095 40187 52011 60001 70100 80004 333 10170 56//6 83073=
85586,2019,08,24,12,00,AAXX 24124 85586 14960 32203 10071 20071 30098 40185 53005 60001 70200 82029 333 20067 30/// 55075 56/6/ 70000 82468 81175=
85586,2019,08,24,15,00,AAXX 24154 85586 44958 5//// 10152 20083 30109 40196 50013 70522 84031 333 56/6/ 84366 81073=
85586,2019,08,24,18,00,AAXX 24184 85586 14960 32608 10142 20112 30100 40187 57009 60001 70110 83030 333 56/6/ 83366=
85586,2019,08,24,21,00,AAXX 24214 85586 44960 53205 10141 20109 30091 40177 56011 70300 85030 333 56/6/ 85366=
85586,2019,08,25,00,00,AAXX 25004 85586 14960 10705 10112 20101 30093 40181 50002 60001 70100 80001 333 10173 81075=
85586,2019,08,25,12,00,AAXX 25124 85586 14960 71902 10075 20075 30095 40183 53014 60001 70222 87030 333 20054 30/// 55083 56/5/ 70000 87367=
85586,2019,08,25,15,00,AAXX 25154 85586 44960 53303 10133 20105 30111 40199 51017 70222 84031 333 56/6/ 84366 81073=
85586,2019,08,25,18,00,AAXX 25184 85586 14360 32707 10147 20113 30114 40201 50003 60001 70211 81531 333 56555 81608 81366 83071=
85586,2019,08,25,21,00,AAXX 25214 85586 44960 62805 10152 20106 30112 40199 58002 70322 80004 333 56//5 86073=
85586,2019,08,26,00,00,AAXX 26004 85586 14108 82803 10109 20109 30141 40229 51028 60001 72844 886// 333 10172 565// 88701=
85586,2019,08,26,12,00,AAXX 26124 85586 14960 71102 10090 20075 30127 40215 58000 60001 70222 86031 333 20068 30/// 55064 70002 86367 83072=
85586,2019,08,26,15,00,AAXX 26154 85586 44960 71604 10172 20090 30139 40226 50012 70222 86031 333 86367 83071=
85586,2019,08,26,18,00,AAXX 26184 85586 14960 62409 10186 20095 30123 40209 58016 60001 70122 83031 333 83367 83072=
85586,2019,08,26,21,00,AAXX 26214 85586 44960 42406 10197 20118 30104 40189 57017 70121 82031 333 82368 83075=
85586,2019,08,27,00,00,AAXX 27004 85586 14956 30702 10128 20110 30111 40199 52005 60001 70522 80001 333 10216 83075=
85586,2019,08,27,12,00,AAXX 27124 85586 14960 61104 10112 20086 30085 40177 55002 60001 70222 80008 333 20070 30/// 55059 56//6 70000 86273=
85586,2019,08,27,15,00,AAXX 27154 85586 44958 61504 10208 20098 30078 40167 58008 70522 80008 333 56//6 86273=
85586,2019,08,27,18,00,AAXX 27184 85586 14960 52509 10226 20121 30061 40149 58017 60001 70222 80006 333 56//6 83073 85274=
85586,2019,08,27,21,00,AAXX 27214 85586 44960 72605 10177 20122 30058 40148 56003 70222 80006 333 56//6 82073 87274=
85586,2019,08,28,00,00,AAXX 28004 85586 14960 6//// 10138 20113 30060 40151 53002 60001 70222 80008 333 10270 56//6 86274=
85586,2019,08,28,12,00,AAXX 28124 85586 14960 7//// 10096 20096 30075 40162 53015 60001 70222 80004 333 20086 30/// 55056 56//6 70000 87075=
85586,2019,08,28,15,00,AAXX 28154 85586 44957 73004 10151 20117 30089 40176 52017 70522 80004 333 56//6 87075=
85586,2019,08,28,18,00,AAXX 28184 85586 14105 82509 10128 20122 30094 40182 53005 60001 72842 885// 333 565// 88602=
85586,2019,08,28,21,00,AAXX 28214 85586 44103 82504 10113 20113 30092 40180 55002 74444 886// 333 565// 88702=
85586,2019,08,29,00,00,AAXX 29004 85586 14105 82903 10113 20113 30113 40200 52019 60001 74444 886// 333 10184 566// 88702=
85586,2019,08,29,12,00,AAXX 29124 85586 14105 80502 10109 20109 30113 40200 53004 69901 75054 886// 333 20107 31/// 55044 562// 70002 88702=
85586,2019,08,29,15,00,AAXX 29154 85586 44112 82604 10118 20118 30119 40207 52007 71052 886// 333 562// 88703=
85586,2019,08,29,18,00,AAXX 29184 85586 14456 72309 10137 20117 30111 40198 58007 60001 70522 87800 333 566// 84711 87620=
85586,2019,08,29,21,00,AAXX 29214 85586 44560 32409 10142 20103 30102 40190 56010 70121 81101 333 566// 81825 83075=
85586,2019,08,30,00,00,AAXX 30004 85586 14957 30000 10098 20084 30113 40202 53010 60001 70510 80001 333 10151 83075=
85586,2019,08,30,12,00,AAXX 30124 85586 14960 01705 10073 20048 30126 40215 52009 60001 70000 80000 333 20040 31/// 55036 70000=
85586,2019,08,30,15,00,AAXX 30154 85586 44960 01906 10154 20067 30130 40217 50005 70000 80000=
85586,2019,08,30,18,00,AAXX 30184 85586 14960 02415 10151 20081 30121 40208 58008 60001 70000 80000=
85586,2019,08,30,21,00,AAXX 30214 85586 44960 02311 10156 20089 30112 40199 56010 70000 80000=
85586,2019,08,31,00,00,AAXX 31004 85586 14960 02305 10100 20073 30118 40205 51005 60001 70000 80000 333 10170=
85586,2019,08,31,12,00,AAXX 31124 85586 14960 31504 10078 20051 30113 40206 53007 60001 70100 80004 333 20053 30/// 55094 56//6 70000 83073=
85586,2019,08,31,15,00,AAXX 31154 85586 44960 01906 10158 20061 30119 40210 50006 70000 80000=
85586,2019,08,31,18,00,AAXX 31184 85586 14960 02414 10149 20075 30105 40196 58012 60001 70000 80000=
85586,2019,08,31,21,00,AAXX 31214 85586 44960 02309 10154 20077 30095 40186 56010 70000 80000=
85586,2019,09,01,00,00,AAXX 01004 85586 14960 2//// 10089 20066 30104 40197 52008 60001 70100 80001 333 10172 56//6 82073=
85586,2019,09,01,12,00,AAXX 01124 85586 14960 0//// 10039 20036 30094 40189 52001 60001 70000 80000 333 20018 31/// 55102 70000=
85586,2019,09,01,15,00,AAXX 01154 85586 44958 02605 10130 20064 30094 40186 50001 70500 80000=
85586,2019,09,01,18,00,AAXX 01184 85586 14960 02413 10143 20085 30080 40171 58014 60001 70000 80000=
85586,2019,09,01,21,00,AAXX 01214 85586 44960 02206 10147 20087 30070 40161 56010 70000 80000=
85586,2019,09,02,00,00,AAXX 02004 85586 14960 0//// 10083 20071 30074 40167 50004 69901 70000 80000 333 10150=
85586,2019,09,02,12,00,AAXX 02124 85586 14960 01906 10060 20026 30085 40174 53016 60001 70000 80000 333 20041 30/// 55097 79999=
85586,2019,09,02,15,00,AAXX 02154 85586 44960 01907 10138 20039 30087 40174 51007 70000 80000=
85586,2019,09,02,18,00,AAXX 02184 85586 14960 02513 10130 20064 30080 40167 58008 60001 70000 80000=
85586,2019,09,02,21,00,AAXX 02214 85586 44960 02408 10128 20071 30077 40164 57003 70000 80000=
85586,2019,09,03,00,00,AAXX 03004 85586 14960 00706 10085 20068 30087 40175 51009 60001 70000 80000 333 10163=
85586,2019,09,03,12,00,AAXX 03124 85586 14960 3//// 10069 20039 30069 40157 55001 60001 70200 80001 333 20005 30/// 55105 70000 83075=
85586,2019,09,03,15,00,AAXX 03154 85586 44960 32904 10155 20066 30062 40148 58005 70200 80001 333 56//5 83075=
85586,2019,09,03,18,00,AAXX 03184 85586 14960 62412 10139 20058 30056 40143 58006 60001 70311 80004 333 56//6 86075=
85586,2019,09,03,21,00,AAXX 03214 85586 44960 72507 10128 20081 30049 40136 55007 70222 80004 333 56//6 87075=
85586,2019,09,04,00,00,AAXX 04004 85586 14960 60403 10096 20076 30057 40144 53007 60001 70222 80004 333 10162 56//6 86075=
85586,2019,09,04,12,00,AAXX 04124 85586 14256 70000 10075 20071 30055 40143 53022 60001 70522 87603 333 20048 30/// 55102 560// 70000 87706 82075=
85586,2019,09,04,15,00,AAXX 04154 85586 44356 72807 10130 20095 30050 40137 58003 70522 81101 333 81809 87073=
85586,2019,09,04,18,00,AAXX 04184 85586 14458 73012 10128 20096 30053 40140 51003 60001 70522 83502 333 567// 83610 87073=
85586,2019,09,04,21,00,AAXX 04214 85586 44356 83209 10119 20098 30051 40138 58003 70522 886// 333 567// 85709 88617=
85586,2019,09,05,00,00,AAXX 05004 85586 14458 83409 10119 20095 30061 40149 53010 60001 70522 885// 333 10140 560// 84615 88624=
85586,2019,09,05,12,00,AAXX 05124 85586 14560 80104 10122 20073 30104 40192 52018 60001 70222 885// 333 20119 30/// 55016 561// 70000 82630 88656=
85586,2019,09,05,15,00,AAXX 05154 85586 44660 83308 10150 20076 30112 40199 51008 70222 82131 333 567// 82840 84357 86073=
85586,2019,09,05,18,00,AAXX 05184 85586 14760 63109 10163 20072 30099 40185 58013 60001 70222 83501 333 567// 83656 85075=
85586,2019,09,05,21,00,AAXX 05214 85586 44760 72405 10130 20087 30092 40179 55006 70222 82531 333 565// 82656 84467 87075=
85586,2019,09,06,00,00,AAXX 06004 85586 14757 70802 10118 20092 30093 40181 53001 60001 70522 82432 333 10169 565// 82656 85361 83075=
85586,2019,09,06,12,00,AAXX 06124 85586 14460 60804 10105 20099 30074 40166 51005 69901 70222 86800 333 20092 31/// 55024 566// 79999 83816 86618=
85586,2019,09,06,15,00,AAXX 06154 85586 44558 62907 10136 20091 30084 40175 53010 70522 86130 333 5666/ 82829 86357=
85586,2019,09,06,18,00,AAXX 06184 85586 14760 72807 10146 20095 30081 40172 58002 60001 70222 86130 333 5666/ 82850 86359=
85586,2019,09,06,21,00,AAXX 06214 85586 44960 72804 10136 20101 30083 40174 55001 70222 87030 333 56/6/ 87360=
85586,2019,09,07,00,00,AAXX 07004 85586 14960 5//// 10120 20109 30093 40185 50008 60001 70111 85030 333 10171 56/6/ 85363=
85586,2019,09,07,12,00,AAXX 07124 85586 14133 82405 10107 20107 30116 40208 52017 60001 71022 886// 333 20101 31/// 55022 566// 70000 88702=
85586,2019,09,07,15,00,AAXX 07154 85586 44356 81805 10126 20102 30126 40218 51010 70522 885// 333 566// 88609=
85586,2019,09,07,18,00,AAXX 07184 85586 14458 81605 10127 20097 30123 40215 58002 60011 70522 885// 333 566// 88619=
85586,2019,09,07,21,00,AAXX 07214 85586 44560 52207 10147 20085 30114 40205 55010 70222 85500 333 566// 85631=
85586,2019,09,08,00,00,AAXX 08004 85586 14660 51903 10107 20074 30123 40216 52009 60001 70222 85500 333 10156 566// 85637=
85586,2019,09,08,12,00,AAXX 08124 85586 14560 60000 10062 20061 30124 40212 52007 60001 70211 86500 333 20049 30/// 55013 565// 70010 83624 84627=
85586,2019,09,08,15,00,AAXX 08154 85586 44660 62609 10119 20049 30115 40203 58009 70322 86500 333 565// 86643=
85586,2019,09,08,18,00,AAXX 08184 85586 14660 42609 10126 20060 30102 40190 58011 60001 70122 83531 333 5666/ 83640 82358 81075=
85586,2019,09,08,21,00,AAXX 08214 85586 44960 12607 10131 20063 30099 40187 55005 70111 80001 333 56//6 81075=
85586,2019,09,09,00,00,AAXX 09004 85586 14660 63105 10109 20061 30127 40214 51028 60001 70311 86530 333 10140 566// 82635 85656 81368=
85586,2019,09,09,12,00,AAXX 09124 85586 14760 80204 10115 20043 30131 40218 53002 60001 70222 885// 333 20100 30/// 55062 566// 70000 88650=
85586,2019,09,09,15,00,AAXX 09154 85586 44660 83310 10132 20073 30131 40219 50001 70222 8253/ 333 5677/ 82635 88357=
85586,2019,09,09,18,00,AAXX 09184 85586 14560 83409 10128 20085 30119 40207 58011 69901 70222 8553/ 333 5677/ 82625 85656 88360=
85586,2019,09,09,21,00,AAXX 09214 85586 44660 83309 10133 20082 30108 40196 55012 70222 885// 333 567// 82636 88656=
85586,2019,09,10,00,00,AAXX 10004 85586 14760 60105 10127 20076 30116 40204 53008 60001 70122 86500 333 10136 567// 86656=
85586,2019,09,10,12,00,AAXX 10124 85586 14960 31003 10071 20065 30102 40197 52004 60001 70111 82031 333 20060 31/// 55000 56/66 79999 82361 81072=
85586,2019,09,10,15,00,AAXX 10154 85586 44560 52707 10137 20079 30102 40193 54001 70222 82106 333 566/6 82825 84073=
85586,2019,09,10,18,00,AAXX 10184 85586 14460 62410 10128 20095 30100 40192 57002 60001 70222 82108 333 566/6 82813 86073=
85586,2019,09,10,21,00,AAXX 10214 85586 44460 42607 10126 20102 30103 40195 53003 70222 82108 333 566/6 82810 84073=
85586,2019,09,11,00,00,AAXX 11004 85586 14560 12603 10087 20084 30122 40215 52019 60001 70100 81500 333 10154 566// 81633=
85586,2019,09,11,12,00,AAXX 11124 85586 14958 1//// 10085 20085 30162 40256 52020 60001 71000 80001 333 20053 31/// 55065 56//6 70002 81071=
85586,2019,09,11,15,00,AAXX 11154 85586 44560 12607 10137 20096 30167 40259 51007 70100 81100 333 566// 81825=
85586,2019,09,11,18,00,AAXX 11184 85586 14560 12415 10141 20096 30158 40250 58008 60001 70100 81100 333 566// 81826=
85586,2019,09,11,21,00,AAXX 11214 85586 44960 02311 10149 20093 30148 40239 56010 70000 80000=
85586,2019,09,12,00,00,AAXX 12004 85586 14960 0//// 10097 20082 30155 40248 52006 60001 70000 80000 333 10154=
85586,2019,09,12,12,00,AAXX 12124 85586 14960 0//// 10104 20066 30105 40192 58014 60001 70000 80000 333 20031 30/// 55105 70000=
85586,2019,09,12,15,00,AAXX 12154 85586 44960 01708 10190 20059 30087 40173 58016 70000 80000=
85586,2019,09,12,18,00,AAXX 12184 85586 14960 02510 10191 20102 30060 40145 57027 60001 70000 80000=
85586,2019,09,12,21,00,AAXX 12214 85586 44960 22411 10174 20106 30042 40128 56018 70300 80001 333 56//5 82075=
85586,2019,09,13,00,00,AAXX 13004 85586 14960 10304 10113 20099 30048 40136 53006 60001 70100 80001 333 10233 56//7 81075=
85586,2019,09,13,12,00,AAXX 13124 85586 14105 81003 10068 20068 30073 40161 53019 60001 72800 886// 333 20023 30/// 55116 565// 70000 88703=
85586,2019,09,13,15,00,AAXX 13154 85586 44450 73307 10131 20099 30081 40168 51010 70522 87500 333 566// 87612=
85586,2019,09,13,18,00,AAXX 13184 85586 14458 32911 10144 20108 30070 40157 58010 60001 70511 83500 333 566// 83610=
85586,2019,09,13,21,00,AAXX 13214 85586 44460 63008 10125 20095 30062 40149 57009 70311 86500 333 566// 86613=
85586,2019,09,14,00,00,AAXX 14004 85586 14458 83106 10116 20092 30073 40161 53011 60001 70522 885// 333 10149 566// 88613=
85586,2019,09,14,12,00,AAXX 14124 85586 14440 80104 10115 20084 30095 40183 53022 69901 70522 885// 333 20111 31/// 55053 560// 79999 82613 88621=
85586,2019,09,14,15,00,AAXX 14154 85586 44560 83006 10130 20081 30098 40186 50003 70222 885// 333 567// 88625=
85586,2019,09,14,18,00,AAXX 14184 85586 14560 62810 10149 20091 30094 40181 58003 60001 70122 84530 333 566// 84632 83367=
85586,2019,09,14,21,00,AAXX 14214 85586 44560 42607 10137 20073 30090 40177 55005 70110 82130 333 566// 82830 82367=
85586,2019,09,15,00,00,AAXX 15004 85586 14560 50000 10104 20090 30099 40186 51008 60001 70211 81131 333 10154 563// 81820 83366 82075=
85586,2019,09,15,12,00,AAXX 15124 85586 14560 7//// 10100 20099 30112 40205 53018 60001 70222 87800 333 20083 31/// 55052 566// 70000 82826 87642=
85586,2019,09,15,15,00,AAXX 15154 85586 44458 52806 10134 20095 30129 40221 51017 70511 85800 333 566// 83813 84642=
85586,2019,09,15,18,00,AAXX 15184 85586 14460 22510 10154 20084 30132 40223 51004 60001 70100 82100 333 566// 82815=
85586,2019,09,15,21,00,AAXX 15214 85586 44460 22312 10138 20093 30133 40225 52001 70111 82100 333 566// 82811=
85586,2019,09,16,00,00,AAXX 16004 85586 14960 21303 10099 20075 30154 40247 52021 60001 70100 80001 333 10157 56//6 82073=
85586,2019,09,16,12,00,AAXX 16124 85586 14960 01704 10075 20036 30133 40227 53001 60001 70000 80000 333 20034 31/// 55083 70000=
85586,2019,09,16,15,00,AAXX 16154 85586 44960 02006 10144 20045 30124 40215 58009 70000 80000=
85586,2019,09,16,18,00,AAXX 16184 85586 14960 02416 10139 20073 30102 40192 57022 60001 70000 80000=
85586,2019,09,16,21,00,AAXX 16214 85586 44960 02415 10135 20078 30080 40171 56022 70000 80000=
85586,2019,09,17,00,00,AAXX 17004 85586 14960 00904 10099 20079 30079 40171 53001 60001 70000 80000 333 10148=
85586,2019,09,17,12,00,AAXX 17124 85586 14560 40605 10107 20072 30111 40198 51016 60001 70122 84500 333 20056 30/// 55101 567// 70000 84625=
85586,2019,09,17,15,00,AAXX 17154 85586 44560 43011 10141 20079 30118 40205 52008 70222 84500 333 567// 84630=
85586,2019,09,17,18,00,AAXX 17184 85586 14660 12912 10147 20087 30118 40205 54000 60001 70100 81100 333 567// 81835=
85586,2019,09,17,21,00,AAXX 17214 85586 44960 03007 10136 20076 30116 40204 58002 70000 80000=
85586,2019,09,18,00,00,AAXX 18004 85586 14960 02302 10098 20089 30130 40218 53013 60001 70000 80000 333 10156=
85586,2019,09,18,12,00,AAXX 18124 85586 14105 8//// 10076 20076 30101 40189 58014 60001 72811 886// 333 20051 30/// 55099 565// 70000 88702=
85586,2019,09,18,15,00,AAXX 18154 85586 44357 22610 10128 20102 30091 40179 56009 70511 82500 333 565// 82608=
85586,2019,09,18,18,00,AAXX 18184 85586 14460 12515 10145 20100 30078 40165 57013 60001 70200 81600 333 565// 81710=
85586,2019,09,18,21,00,AAXX 18214 85586 44960 02412 10145 20100 30061 40148 56017 70000 80000=
85586,2019,09,19,00,00,AAXX 19004 85586 14960 0//// 10105 20079 30062 40150 53001 60001 70000 80000 333 10150=
85586,2019,09,19,12,00,AAXX 19124 85586 14960 51804 10088 20057 30111 40199 53015 60001 70121 80001 333 20033 30/// 55086 70000 85075=
85586,2019,09,19,15,00,AAXX 19154 85586 44760 61405 10151 20040 30120 40207 50010 70221 81501 333 81656 86073=
85586,2019,09,19,18,00,AAXX 19184 85586 14760 62414 10136 20056 30126 40214 53005 60001 70222 81531 333 565// 81656 85368 83075=
85586,2019,09,19,21,00,AAXX 19214 85586 44560 42411 10139 20070 30127 40214 53003 70110 81201 333 565// 81820 83075=
85586,2019,09,20,00,00,AAXX 20004 85586 14960 02302 10081 20057 30144 40233 53015 60001 70010 80000 333 10160=
85586,2019,09,20,12,00,AAXX 20124 85586 149// 01804 10081 20022 30150 40244 53006 60001 70000 80000 333 20030 31/// 55092 70000=
85586,2019,09,20,15,00,AAXX 20154 85586 44960 02007 10153 20022 30149 40240 58001 70000 80000=
85586,2019,09,20,18,00,AAXX 20184 85586 14960 02416 10153 20072 30133 40224 58015 60001 70000 80000=
85586,2019,09,20,21,00,AAXX 20214 85586 44960 02415 10154 20080 30119 40210 56015 70000 80000=
85586,2019,09,21,00,00,AAXX 21004 85586 14956 12303 10097 20070 30130 40223 53012 60001 70500 80001 333 10193 56//6 81073=
85586,2019,09,21,12,00,AAXX 21124 85586 14960 01506 10108 20022 30111 40198 51006 60001 70000 80000 333 20054 30/// 55109 70000=
85586,2019,09,21,15,00,AAXX 21154 85586 44960 01709 10186 20017 30099 40185 58009 70000 80000=
85586,2019,09,21,18,00,AAXX 21184 85586 14960 02416 10172 20079 30076 40162 56024 60001 70000 80000=
85586,2019,09,21,21,00,AAXX 21214 85586 44960 02409 10159 20096 30071 40157 55005 70000 80000=
85586,2019,09,22,00,00,AAXX 22004 85586 14960 00404 10106 20085 30081 40168 51010 60001 70000 80000 333 10232=
85586,2019,09,22,12,00,AAXX 22124 85586 14213 81502 10099 20099 30097 40185 53009 60001 71042 886// 333 20045 30/// 55110 70000 85704 85707=
85586,2019,09,22,15,00,AAXX 22154 85586 44340 62807 10129 20096 30102 40190 50007 70522 86800 333 566// 83708 83813=
85586,2019,09,22,18,00,AAXX 22184 85586 14357 73010 10135 20102 30105 40192 52002 60001 70522 87600 333 567// 87709=
85586,2019,09,22,21,00,AAXX 22214 85586 44460 73208 10129 20096 30099 40187 57007 70222 87500 333 567// 87612=
85586,2019,09,23,00,00,AAXX 23004 85586 14460 83104 10119 20097 30106 40194 53008 60001 70322 886// 333 10147 567// 88710=
85586,2019,09,23,12,00,AAXX 23124 85586 14460 70903 10114 20081 30124 40211 52013 60001 70222 87530 333 20106 30/// 55049 560// 70000 87618 82358=
85586,2019,09,23,15,00,AAXX 23154 85586 44560 82607 10129 20084 30134 40222 51012 70222 885// 333 566// 88620=
85586,2019,09,23,18,00,AAXX 23184 85586 14960 02610 10140 20078 30121 40208 58013 60001 70110 80000=
85586,2019,09,23,21,00,AAXX 23214 85586 44560 12610 10127 20090 30108 40196 56012 70200 81100 333 566// 81820=
85586,2019,09,24,00,00,AAXX 24004 85586 14358 82604 10107 20091 30113 40200 53003 60001 70521 886// 333 10152 566// 88709=
85586,2019,09,24,12,00,AAXX 24124 85586 14212 80904 10088 20085 30100 40188 52011 69901 71022 886// 333 20086 31/// 55068 561// 79999 88704=
85586,2019,09,24,15,00,AAXX 24154 85586 44340 83303 10118 20094 30103 40191 51005 70522 886// 333 567// 88709=
85586,2019,09,24,18,00,AAXX 24184 85586 14350 82708 10129 20101 30094 40182 57010 60001 70552 886// 333 567// 88708=
85586,2019,09,24,21,00,AAXX 24214 85586 44340 82705 10118 20099 30091 40179 55002 70522 886// 333 566// 88708=
85586,2019,09,25,12,00,AAXX 25124 85586 14120 80703 10091 20091 30079 40172 50006 60001 71022 886// 333 20088 31/// 55000 566// 70000 88702=
85586,2019,09,25,15,00,AAXX 25154 85586 44108 82506 10100 20094 30093 40186 53014 72822 886// 333 566// 88703=
85586,2019,09,25,18,00,AAXX 25184 85586 14109 82805 10111 20105 30086 40178 56007 60001 72822 886// 333 566// 88702=
85586,2019,09,25,21,00,AAXX 25214 85586 44225 82906 10114 20106 30084 40176 55004 71022 886// 333 566// 88706=
85586,2019,09,26,12,00,AAXX 26124 85586 14330 81802 10109 20101 30082 40174 51012 60001 71022 886// 333 20106 31/// 55000 566// 70000 88708=
85586,2019,09,26,15,00,AAXX 26154 85586 44450 8//// 10124 20100 30069 40161 58012 70522 885// 333 566// 88610=
85586,2019,09,26,18,00,AAXX 26184 85586 14450 82807 10122 20101 30070 40162 52001 60001 70522 885// 333 566// 88610=
85586,2019,09,26,21,00,AAXX 26214 85586 44250 82506 10117 20106 30059 40151 55011 71022 886// 333 566// 88706=
85586,2019,09,27,12,00,AAXX 27124 85586 14550 80204 10119 20098 30112 40205 51028 60001 70522 888// 333 20107 31/// 55000 566// 70004 84820 88632=
85586,2019,09,27,15,00,AAXX 27154 85586 44660 73407 10152 20092 30126 40217 51014 70222 87800 333 566// 82834 87642=
85586,2019,09,27,18,00,AAXX 27184 85586 14960 23210 10163 20091 30111 40202 56015 60001 70000 80001 333 56//6 82070=
85586,2019,09,27,21,00,AAXX 27214 85586 44960 02609 10150 20083 30110 40201 55001 70000 80000=
85586,2019,09,28,12,00,AAXX 28124 85586 14960 01202 10087 20083 30102 40190 52002 60001 70000 80000 333 20029 30/// 55000 70000=
85586,2019,09,28,15,00,AAXX 28154 85586 44960 02607 10159 20101 30097 40184 58004 70000 80000=
85586,2019,09,28,18,00,AAXX 28184 85586 14960 02516 10151 20109 30091 40178 57006 60001 70000 80000=
85586,2019,09,28,21,00,AAXX 28214 85586 44460 12514 10142 20110 30081 40168 56010 70300 81500 333 566// 81610=
85586,2019,09,29,12,00,AAXX 29124 85586 14235 80304 10105 20102 30080 40167 53011 69901 71052 886// 333 20093 31/// 55106 561// 79999 88705=
85586,2019,09,29,15,00,AAXX 29154 85586 44215 83206 10114 20106 30100 40188 52021 75022 886// 333 567// 88704=
85586,2019,09,29,18,00,AAXX 29184 85586 14250 83108 10123 20112 30104 40192 51004 60001 75052 886// 333 567// 85705 85710=
85586,2019,09,29,21,00,AAXX 29214 85586 44256 82707 10123 20110 30105 40193 53001 75022 886// 333 566// 85705 88615=
85586,2019,09,30,12,00,AAXX 30124 85586 14560 80603 10107 20096 30088 40180 53014 60001 70222 885// 333 20085 31/// 55000 566// 70000 88624=
85586,2019,09,30,15,00,AAXX 30154 85586 44460 83107 10142 20097 30102 40193 53014 70222 888// 333 566// 84817 88620=
85586,2019,09,30,18,00,AAXX 30184 85586 14460 8//// 10124 20107 30111 40203 50010 69941 70222 888// 333 566// 85810 88624=
85586,2019,09,30,21,00,AAXX 30214 85586 44860 52510 10138 20080 30106 40197 55006 70122 85030 333 56/6/ 85357=
85586,2019,10,01,12,00,AAXX 01124 85586 14960 3//// 10086 20048 30116 40209 52017 60001 70100 80004 333 20017 31/// 55028 56//6 70004 83071=
85586,2019,10,01,15,00,AAXX 01154 85586 44460 33006 10137 20051 30126 40218 51010 70111 83100 333 566// 83816=
85586,2019,10,01,18,00,AAXX 01184 85586 14460 22911 10144 20073 30123 40214 57003 60001 70100 82100 333 566// 82819=
85586,2019,10,01,21,00,AAXX 01214 85586 44560 22710 10123 20055 30120 40212 55003 70111 82100 333 566// 82829=
85586,2019,10,02,12,00,AAXX 02124 85586 14960 01103 10079 20047 30141 40230 52006 60001 70000 80000 333 20013 30/// 55100 70000=
85586,2019,10,02,15,00,AAXX 02154 85586 44560 22511 10136 20060 30134 40222 57006 70100 82100 333 82820=
85586,2019,10,02,18,00,AAXX 02184 85586 14560 22416 10141 20055 30126 40213 58008 60001 70200 82100 333 82825=
85586,2019,10,02,21,00,AAXX 02214 85586 44560 12416 10133 20062 30115 40203 57012 70200 81100 333 565// 81825=
85586,2019,10,03,12,00,AAXX 03124 85586 14560 11103 10081 20049 30153 40242 51027 60001 70200 81200 333 20013 30/// 55117 562// 70000 81820=
85586,2019,10,03,15,00,AAXX 03154 85586 44560 32608 10134 20072 30167 40255 51016 70300 83100 333 566// 83825=
85586,2019,10,03,18,00,AAXX 03184 85586 14560 32416 10143 20076 30168 40256 55000 60001 70200 83100 333 566// 83830=
85586,2019,10,03,21,00,AAXX 03214 85586 44560 12315 10134 20063 30162 40250 55006 70200 81100 333 565// 81830=
85586,2019,10,04,12,00,AAXX 04124 85586 14960 0//// 10083 20058 30165 40259 53015 60001 70000 80000 333 20011 30/// 55108 70000=
85586,2019,10,04,15,00,AAXX 04154 85586 44960 02513 10140 20067 30165 40257 50001 70000 80000=
85586,2019,10,04,18,00,AAXX 04184 85586 14960 02417 10158 20081 30150 40241 58014 60001 70000 80000=
85586,2019,10,04,21,00,AAXX 04214 85586 44960 02317 10148 20083 30137 40228 56015 70000 80000=
85586,2019,10,05,12,00,AAXX 05124 85586 14960 0//// 10085 20047 30146 40239 53011 60001 70000 80000 333 20011 30/// 55107 70000=
85586,2019,10,05,15,00,AAXX 05154 85586 42/60 12608 10138 20050 30153 40245 51007 333 56//6 81073==
85586,2019,10,05,18,00,AAXX 05184 85586 14960 32415 10151 20079 30146 40238 58007 60001 70100 80001 333 56//6 83074=
85586,2019,10,05,21,00,AAXX 05214 85586 42/60 32412 10149 20080 30147 40238 53002 333 56//6 83074==
85586,2019,10,06,12,00,AAXX 06124 85586 46/// ///// 48/// 333 70000=
85586,2019,10,06,15,00,AAXX 06154 85586 42/60 72412 10168 20073 30146 40233 58001 333 87075==
85586,2019,10,06,18,00,AAXX 06184 85586 14960 62416 10168 20098 30127 40214 57019 60001 70222 80001 333 86075=
85586,2019,10,06,21,00,AAXX 06214 85586 42/60 72412 10171 20098 30117 40203 56010 333 87075==
85586,2019,10,07,12,00,AAXX 07124 85586 14/60 52404 10107 20106 30126 40214 55003 60001 70222 80001 333 20046 30/// 55105 70000=
85586,2019,10,07,15,00,AAXX 07154 85586 44960 52509 10170 20116 30119 40206 57006 70210 80001 333 85075=
85586,2019,10,07,18,00,AAXX 07184 85586 14960 42315 10195 20121 30100 40186 58018 60001 70210 80001 333 84075=
85586,2019,10,07,21,00,AAXX 07214 85586 44960 62415 10166 20112 30088 40174 56013 70221 80001 333 86075=
85586,2019,10,08,12,00,AAXX 08124 85586 14960 31306 10179 20074 30080 40170 58001 60001 70000 80001 333 20082 30/// 55076 56//6 70000 83074=
85586,2019,10,08,15,00,AAXX 08154 85586 44960 41507 10261 20074 30073 40160 58007 70100 80001 333 56//6 84074=
85586,2019,10,08,18,00,AAXX 08184 85586 14960 22413 10228 20083 30051 40139 58022 60001 70100 80001 333 56//6 82073=
85586,2019,10,08,21,00,AAXX 08214 85586 44960 53304 10210 20094 30038 40127 56012 70100 80004 333 56//6 85074=
85586,2019,10,09,12,00,AAXX 09124 85586 14960 6//// 10170 20074 30048 40138 50004 60001 70222 80008 333 20103 30/// 55106 56//6 70000 86273=
85586,2019,10,09,15,00,AAXX 09154 85586 44960 63104 10210 20100 30047 40136 58001 70222 80009 333 56//6 86174=
85586,2019,10,09,18,00,AAXX 09184 85586 14960 72707 10197 20085 30037 40126 57009 60001 70222 80008 333 56//6 87274=
85586,2019,10,09,21,00,AAXX 09214 85586 44960 70207 10176 20080 30023 40112 57014 70222 80008 333 56//6 87274=
85586,2019,10,10,12,00,AAXX 10124 85586 14960 70000 10122 20094 30025 40112 52013 60001 70222 80001 333 20072 30/// 55068 70000 87070=
85586,2019,10,10,15,00,AAXX 10154 85586 44960 72706 10186 20098 30032 40117 53006 70322 80002 333 87273=
85586,2019,10,10,18,00,AAXX 10184 85586 14260 52810 10160 20130 30035 40121 53004 60001 70222 82102 333 82806 85070=
85586,2019,10,10,21,00,AAXX 10214 85586 44960 82806 10153 20123 30039 40125 53003 70222 80007 333 88272=
85586,2019,10,11,12,00,AAXX 11124 85586 14220 80602 10117 20114 30044 40131 53009 60001 71022 886// 333 20114 30/// 55030 70000 88704=
85586,2019,10,11,15,00,AAXX 11154 85586 44240 82806 10135 20119 30060 40147 53017 70522 886// 333 566// 88706=
85586,2019,10,11,18,00,AAXX 11184 85586 14356 83109 10129 20106 30065 40152 52004 60001 70522 886// 333 567// 88707=
85586,2019,10,11,21,00,AAXX 11214 85586 44357 82908 10126 20109 30064 40151 55001 70522 886// 333 567// 88708=
85586,2019,10,12,12,00,AAXX 12124 85586 14350 82004 10123 20109 30069 40157 53019 60001 71022 885// 333 20112 30/// 55000 565// 70000 88609=
85586,2019,10,12,15,00,AAXX 12154 85586 44457 8//// 10149 20113 30074 40161 53006 70522 8455/ 333 5666/ 84618 86365 82368=
85586,2019,10,12,18,00,AAXX 12184 85586 14560 72409 10157 20119 30073 40159 57008 60001 70222 81551 333 5666/ 81620 86364 81073=
85586,2019,10,12,21,00,AAXX 12214 85586 44960 82804 10148 20120 30060 40147 56007 70222 87054 333 56/66 87365 81073=
85586,2019,10,13,12,00,AAXX 13124 85586 14960 7//// 10147 20122 30031 40117 53008 69901 70222 85054 333 20108 30/// 55001 56/6/ 79999 85368 82073=
85586,2019,10,13,15,00,AAXX 13154 85586 44960 62707 10183 20110 30033 40117 53004 70222 83034 333 56/6/ 83368 83073=
85586,2019,10,13,18,00,AAXX 13184 85586 14960 72807 10159 20113 30035 40121 52001 60001 70222 85054 333 56/66 85368 82073=
85586,2019,10,13,21,00,AAXX 13214 85586 44960 73107 10139 20107 30034 40121 53002 70222 86054 333 56/5/ 86368 81073=
85586,2019,10,14,12,00,AAXX 14124 85586 14560 60307 10153 20097 30073 40164 51025 60001 70222 86800 333 20099 30/// 55030 566// 70000 82830 86640=
85586,2019,10,14,15,00,AAXX 14154 85586 44660 73207 10161 20107 30083 40173 51014 70222 87500 333 566// 87647=
85586,2019,10,14,18,00,AAXX 14184 85586 14658 70210 10147 20121 30089 40180 53005 69941 70522 87800 333 566// 82836 87646=
85586,2019,10,14,21,00,AAXX 14214 85586 44760 50213 10182 20080 30085 40175 56007 70222 85500 333 566// 85650=
85586,2019,10,15,12,00,AAXX 15124 85586 14460 32803 10139 20107 30107 40198 53006 60001 70111 83500 333 20097 31/// 55004 566// 70004 83610=
85586,2019,10,15,15,00,AAXX 15154 85586 44958 12408 10160 20102 30104 40195 58002 70500 80001 333 56//6 81073=
85586,2019,10,15,18,00,AAXX 15184 85586 14960 02412 10168 20073 30094 40184 58011 60001 70000 80000=
85586,2019,10,15,21,00,AAXX 15214 85586 44960 12413 10152 20092 30089 40180 57005 70100 80001 333 56//6 81074=
