85586,2013,01,01,00,00,AAXX 01004 85586 12560 41903 10158 20117 40158 57009 60001 84500 333 10196 56500 84617=
85586,2013,01,01,03,00,AAXX 01034 85586 NIL=
85586,2013,01,01,06,00,AAXX 01064 85586 NIL=
85586,2013,01,01,09,00,AAXX 01094 85586 NIL=
85586,2013,01,01,12,00,AAXX 01124 85586 12960 00000 10120 20102 40128 53006 60004 333 20094 30/// 50310 55096=
85586,2013,01,01,15,00,AAXX 01154 85586 42260 33010 10174 20139 40138 52011 83600 333 56700 83705=
85586,2013,01,01,18,00,AAXX 01184 85586 11458 53111 10186 20132 40146 52008 60001 70511 85600 333 56600 85710=
85586,2013,01,01,21,00,AAXX 01214 85586 42560 73008 10182 20139 40141 57005 87500 333 56600 87620=
85586,2013,01,02,00,00,AAXX 02004 85586 12560 43005 10160 20139 40134 57007 60001 84500 333 10192 56600 84623=
85586,2013,01,02,03,00,AAXX 02034 85586 NIL=
85586,2013,01,02,06,00,AAXX 02064 85586 NIL=
85586,2013,01,02,09,00,AAXX 02094 85586 NIL=
85586,2013,01,02,12,00,AAXX 02124 85586 12560 82704 10150 20114 40138 52008 60004 855// 333 20134 30/// 50260 55090 56099 88630=
85586,2013,01,02,15,00,AAXX 02154 85586 42560 72807 10166 20121 40147 52009 87500 333 56600 87630=
85586,2013,01,02,18,00,AAXX 02184 85586 12560 52807 10184 20106 40151 52003 60001 85500 333 56600 85630=
85586,2013,01,02,21,00,AAXX 02214 85586 42560 42807 10180 20105 40143 58004 84500 333 56600 84630=
85586,2013,01,03,00,00,AAXX 03004 85586 12960 02903 10152 20107 40142 56001 60001 333 10188=
85586,2013,01,03,03,00,AAXX 03034 85586 NIL=
85586,2013,01,03,06,00,AAXX 03064 85586 NIL=
85586,2013,01,03,09,00,AAXX 03094 85586 NIL=
85586,2013,01,03,12,00,AAXX 03124 85586 12460 80303 10153 20118 40167 52015 60004 885// 333 20146 30/// 50290 55053 56799 70000 88615=
85586,2013,01,03,15,00,AAXX 03154 85586 41458 83004 10164 20112 40177 52011 70522 885// 333 56799 88617=
85586,2013,01,03,18,00,AAXX 03184 85586 11455 83007 10174 20133 40179 54002 60001 70522 885// 333 56799 88615=
85586,2013,01,03,21,00,AAXX 03214 85586 41450 82505 10160 20125 40169 57011 70522 885// 333 56599 88617=
85586,2013,01,04,00,00,AAXX 04004 85586 11558 72803 10154 20126 40169 54001 60001 70522 87500 333 10176 56500 87620=
85586,2013,01,04,03,00,AAXX 04034 85586 NIL=
85586,2013,01,04,06,00,AAXX 04064 85586 NIL=
85586,2013,01,04,09,00,AAXX 04094 85586 NIL=
85586,2013,01,04,12,00,AAXX 04124 85586 12560 80000 10151 20128 40179 52012 60004 885// 333 20106 30/// 50310 55000 56799 70000 88625=
85586,2013,01,04,15,00,AAXX 04154 85586 42560 72707 10174 20118 40180 54002 87500 333 56600 87630=
85586,2013,01,04,18,00,AAXX 04184 85586 12560 52307 10202 20121 40173 57007 60001 85501 333 56404 82630 83073=
85586,2013,01,04,21,00,AAXX 04214 85586 42860 52408 10184 20122 40164 57009 85031 333 56055 83358 83070=
85586,2013,01,05,00,00,AAXX 05004 85586 12960 51903 10154 20114 40161 56003 60001 85030 333 10206 56040 85358=
85586,2013,01,05,03,00,AAXX 05034 85586 NIL=
85586,2013,01,05,06,00,AAXX 05064 85586 NIL=
85586,2013,01,05,09,00,AAXX 05094 85586 NIL=
85586,2013,01,05,12,00,AAXX 05124 85586 12960 60000 10144 20109 40172 53019 60004 86030 333 20102 30/// 50330 55054 56060 70000 86363=
85586,2013,01,05,15,00,AAXX 05154 85586 42960 02707 10189 20119 40163 58008=
85586,2013,01,05,18,00,AAXX 05184 85586 12960 02310 10196 20138 40163 54000 60001=
85586,2013,01,05,21,00,AAXX 05214 85586 41440 72408 10176 20138 40153 57010 70522 87600 333 56700 87710=
85586,2013,01,06,00,00,AAXX 06004 85586 11440 82705 10150 20133 40153 55001 60001 70522 886// 333 10202 56699 88710=
85586,2013,01,06,03,00,AAXX 06034 85586 NIL=
85586,2013,01,06,06,00,AAXX 06064 85586 NIL=
85586,2013,01,06,09,00,AAXX 06094 85586 NIL=
85586,2013,01,06,12,00,AAXX 06124 85586 11440 80902 10144 20127 40143 52003 60004 705// 885// 333 20134 30/// 50270 55093 56099 88612=
85586,2013,01,06,15,00,AAXX 06154 85586 41450 82806 10164 20135 40145 52002 70522 886// 333 56099 88710=
85586,2013,01,06,18,00,AAXX 06184 85586 11456 62708 10176 20124 40146 54001 60001 70522 86500 333 56600 83613 84617=
85586,2013,01,06,21,00,AAXX 06214 85586 42460 12411 10180 20124 40134 58012 81600 333 56600 81710=
85586,2013,01,07,00,00,AAXX 07004 85586 12460 12405 10160 20118 40143 53009 60001 81600 333 10186 56600 81710=
85586,2013,01,07,03,00,AAXX 07034 85586 NIL=
85586,2013,01,07,06,00,AAXX 07064 85586 NIL=
85586,2013,01,07,09,00,AAXX 07094 85586 NIL=
85586,2013,01,07,12,00,AAXX 07124 85586 12960 02402 10150 20133 40140 53004 60004 333 20090 30/// 50240 55079=
85586,2013,01,07,15,00,AAXX 07154 85586 42960 02408 10192 20131 40140 54001=
85586,2013,01,07,18,00,AAXX 07184 85586 11215 62012 10184 20146 40141 54002 60001 71022 86600 333 56500 86706=
85586,2013,01,07,21,00,AAXX 07214 85586 42960 02213 10196 20124 40135 57007=
85586,2013,01,08,00,00,AAXX 08004 85586 12960 01804 10162 20113 40143 52007 60001 333 10204=
85586,2013,01,08,03,00,AAXX 08034 85586 NIL=
85586,2013,01,08,06,00,AAXX 08064 85586 NIL=
85586,2013,01,08,09,00,AAXX 08094 85586 NIL=
85586,2013,01,08,12,00,AAXX 08124 85586 12960 00000 10150 20106 40143 56003 60004 333 20088 30/// 50270 55111=
85586,2013,01,08,15,00,AAXX 08154 85586 42960 02706 10184 20113 40141 54002=
85586,2013,01,08,18,00,AAXX 08184 85586 12960 02410 10226 20117 40133 57007 60001=
85586,2013,01,08,21,00,AAXX 08214 85586 42960 02015 10192 20121 40118 57015=
85586,2013,01,09,00,00,AAXX 09004 85586 12960 00405 10158 20117 40118 54000 60001=
85586,2013,01,09,03,00,AAXX 09034 85586 NIL=
85586,2013,01,09,06,00,AAXX 09064 85586 NIL=
85586,2013,01,09,09,00,AAXX 09094 85586 NIL=
85586,2013,01,09,12,00,AAXX 09124 85586 12960 03203 10150 20114 40124 52017 60004 333 20088 30/// 50330 55124 70000=
85586,2013,01,09,15,00,AAXX 09154 85586 42960 03008 10202 20148 40123 54001=
85586,2013,01,09,18,00,AAXX 09184 85586 NIL=
85586,2013,01,09,21,00,AAXX 09214 85586 42960 02707 10202 20152 40100 57020=
85586,2013,01,10,00,00,AAXX 10004 85586 12960 02403 10172 20137 40090 57009 60001 333 10220=
85586,2013,01,10,03,00,AAXX 10034 85586 NIL=
85586,2013,01,10,06,00,AAXX 10064 85586 NIL=
85586,2013,01,10,09,00,AAXX 10094 85586 NIL=
85586,2013,01,10,12,00,AAXX 10124 85586 11230 82805 10162 20145 40112 52024 60004 71022 886// 333 20148 30/// 55036 56799 70000 88706=
85586,2013,01,10,15,00,AAXX 10154 85586 41550 73212 10184 20135 40128 52016 70522 87530 333 56770 85620=
85586,2013,01,10,18,00,AAXX 10184 85586 12560 62712 10200 20152 40136 52008 60001 86501 333 56606 82630 84073=
85586,2013,01,10,21,00,AAXX 10214 85586 42960 42312 10192 20141 40135 54003 80001 333 56007 84073=
85586,2013,01,11,00,00,AAXX 11004 85586 11458 62305 10166 20141 40130 57005 60001 70522 86500 333 10206 56500 86612=
85586,2013,01,11,03,00,AAXX 11034 85586 NIL=
85586,2013,01,11,06,00,AAXX 11064 85586 NIL=
85586,2013,01,11,09,00,AAXX 11094 85586 NIL=
85586,2013,01,11,12,00,AAXX 11124 85586 11330 80000 10160 20153 40135 53006 60004 71022 886// 333 20150 30/// 50290 55077 56699 70000 88707=
85586,2013,01,11,15,00,AAXX 11154 85586 41450 82506 10172 20146 40135 54000 70522 885// 333 56599 88612=
85586,2013,01,11,18,00,AAXX 11184 85586 11560 82406 10180 20153 40118 57014 60001 885// 333 56599 88620=
85586,2013,01,11,21,00,AAXX 11214 85586 42560 62308 10176 20128 40099 57020 86500 333 56500 86620=
85586,2013,01,12,00,00,AAXX 12004 85586 11458 82504 10162 20142 40098 56003 60001 70522 885// 333 10185 56599 88612=
85586,2013,01,12,03,00,AAXX 12034 85586 NIL=
85586,2013,01,12,06,00,AAXX 12064 85586 NIL=
85586,2013,01,12,09,00,AAXX 12094 85586 NIL=
85586,2013,01,12,12,00,AAXX 12124 85586 11315 83306 10148 20139 40108 52014 60004 7104/ 886// 333 20136 30/// 50160 55021 56099 88706=
85586,2013,01,12,15,00,AAXX 12154 85586 41450 83107 10166 20150 40113 52005 70522 885// 333 56699 84610 88613=
85586,2013,01,12,18,00,AAXX 12184 85586 11556 73111 10174 20148 40119 52006 60001 70522 87500 333 56600 82610 87615=
85586,2013,01,12,21,00,AAXX 12214 85586 41450 82805 10172 20149 40119 56001 70522 886// 333 56099 88710=
85586,2013,01,13,00,00,AAXX 13004 85586 11450 82804 10158 20141 40120 54001 60001 70522 885// 333 10186 56699 83612 88616=
85586,2013,01,13,03,00,AAXX 13034 85586 NIL=
85586,2013,01,13,06,00,AAXX 13064 85586 NIL=
85586,2013,01,13,09,00,AAXX 13094 85586 NIL=
85586,2013,01,13,12,00,AAXX 13124 85586 11312 83004 10144 20135 40151 52016 60014 7505/ 886// 333 20140 31/// 50130 55000 56099 70008 88707=
85586,2013,01,13,15,00,AAXX 13154 85586 41430 83003 10154 20142 40162 52011 71052 886// 333 56099 88710=
85586,2013,01,13,18,00,AAXX 13184 85586 11557 72406 10188 20137 40159 58003 69901 70522 87500 333 56600 87620=
85586,2013,01,13,21,00,AAXX 13214 85586 42560 12405 10198 20126 40151 57008 81500 333 56600 81623=
85586,2013,01,14,00,00,AAXX 14004 85586 12960 02402 10170 20118 40153 53002 60001 333 10202=
85586,2013,01,14,03,00,AAXX 14034 85586 NIL=
85586,2013,01,14,06,00,AAXX 14064 85586 NIL=
85586,2013,01,14,09,00,AAXX 14094 85586 NIL=
85586,2013,01,14,12,00,AAXX 14124 85586 11456 80000 10156 20132 40161 52013 69904 7052/ 885// 333 20114 30/// 50180 55056 56099 70000 81613 88620=
85586,2013,01,14,15,00,AAXX 14154 85586 41458 83505 10174 20130 40166 52006 70522 885// 333 56699 82617 88620=
85586,2013,01,14,18,00,AAXX 14184 85586 11558 82305 10184 20131 40169 51003 60001 70522 885// 333 56499 88625=
85586,2013,01,14,21,00,AAXX 14214 85586 42960 31806 10184 20122 40140 57028 83030 333 56040 83365=
85586,2013,01,15,00,00,AAXX 15004 85586 12960 32303 10166 20127 40128 57012 60001 80001 333 10192 56004 83073=
85586,2013,01,15,03,00,AAXX 15034 85586 NIL=
85586,2013,01,15,06,00,AAXX 15064 85586 NIL=
85586,2013,01,15,09,00,AAXX 15094 85586 NIL=
85586,2013,01,15,12,00,AAXX 15124 85586 NIL=
85586,2013,01,15,15,00,AAXX 15154 85586 41458 62706 10171 20128 40154 52012 70522 86500 333 56600 86617=
85586,2013,01,15,18,00,AAXX 15184 85586 12560 53207 10204 20123 40156 54002 60001 85500 333 56700 85625=
85586,2013,01,15,21,00,AAXX 15214 85586 42560 42006 10198 20120 40147 57009 84500 333 56500 84630=
85586,2013,01,16,00,00,AAXX 16004 85586 12960 01903 10172 20141 40135 57011 60001 333 10207=
85586,2013,01,16,03,00,AAXX 16034 85586 NIL=
85586,2013,01,16,06,00,AAXX 16064 85586 NIL=
85586,2013,01,16,09,00,AAXX 16094 85586 NIL=
85586,2013,01,16,12,00,AAXX 16124 85586 11230 83403 10156 20148 40140 52016 60004 71022 886// 333 20140 30/// 50330 55084 56799 70000 88706=
85586,2013,01,16,15,00,AAXX 16154 85586 41458 83207 10164 20144 40149 52008 70522 886// 333 56799 88610=
85586,2013,01,16,18,00,AAXX 16184 85586 12460 82507 10172 20144 40157 52008 60001 885// 333 56599 88612=
85586,2013,01,16,21,00,AAXX 16214 85586 41457 82705 10168 20145 40143 57013 70522 885// 333 56699 88610=
85586,2013,01,17,00,00,AAXX 17004 85586 11450 81903 10156 20138 40138 56005 60001 70522 885// 333 10174 56599 88607=
85586,2013,01,17,03,00,AAXX 17034 85586 NIL=
85586,2013,01,17,06,00,AAXX 17064 85586 NIL=
85586,2013,01,17,09,00,AAXX 17094 85586 NIL=
85586,2013,01,17,12,00,AAXX 17124 85586 11230 83104 10149 20144 40148 52025 60004 71022 886// 333 20147 30/// 50250 55000 56799 70000 88704=
85586,2013,01,17,15,00,AAXX 17154 85586 41220 83007 10161 20148 40174 52027 75052 886// 333 56799 88704=
85586,2013,01,17,18,00,AAXX 17184 85586 11460 82807 10186 20154 40174 54000 69921 70252 885// 333 56799 88615=
85586,2013,01,17,21,00,AAXX 17214 85586 42460 72604 10192 20160 40161 57013 87500 333 56700 87618=
85586,2013,01,18,00,00,AAXX 18004 85586 12460 52403 10165 20147 40161 54000 60001 85600 333 10202 56700 85710=
85586,2013,01,18,03,00,AAXX 18034 85586 NIL=
85586,2013,01,18,06,00,AAXX 18064 85586 NIL=
85586,2013,01,18,09,00,AAXX 18094 85586 NIL=
85586,2013,01,18,12,00,AAXX 18124 85586 11215 82003 10146 20137 40177 52012 69964 7505/ 886// 333 20144 31/// 50110 55009 56099 70006 88706=
85586,2013,01,18,15,00,AAXX 18154 85586 41440 82604 10160 20148 40179 52002 71052 885// 333 56699 83610 88613=
85586,2013,01,18,18,00,AAXX 18184 85586 11456 72605 10182 20143 40170 58010 69901 70522 87500 333 56600 83613 87617=
85586,2013,01,18,21,00,AAXX 18214 85586 41557 72406 10184 20126 40152 57018 70522 87500 333 56600 87620=
85586,2013,01,19,00,00,AAXX 19004 85586 11557 72803 10160 20120 40147 56004 60001 70522 87500 333 10200 56600 87620=
85586,2013,01,19,03,00,AAXX 19034 85586 NIL=
85586,2013,01,19,06,00,AAXX 19064 85586 NIL=
85586,2013,01,19,09,00,AAXX 19094 85586 NIL=
85586,2013,01,19,12,00,AAXX 19124 85586 11430 83103 10150 20133 40162 52014 69904 7102/ 886// 333 20146 30/// 50120 55019 56099 70000 88710=
85586,2013,01,19,15,00,AAXX 19154 85586 41440 83105 10170 20140 40165 52003 70522 886// 333 56699 85707 88710=
85586,2013,01,19,18,00,AAXX 19184 85586 11450 82805 10180 20140 40162 56003 69901 70522 885// 333 56699 84615 88620=
85586,2013,01,19,21,00,AAXX 19214 85586 NIL=
85586,2013,01,20,00,00,AAXX 20004 85586 11557 72303 10164 20132 40134 57006 60004 70522 87500 333 10198 56600 87623=
85586,2013,01,20,03,00,AAXX 20034 85586 NIL=
85586,2013,01,20,06,00,AAXX 20064 85586 NIL=
85586,2013,01,20,09,00,AAXX 20094 85586 NIL=
85586,2013,01,20,12,00,AAXX 20124 85586 11430 80203 10156 20139 40139 52007 69904 7102/ 886// 333 20142 30/// 50100 55002 56600 70000 88710=
85586,2013,01,20,15,00,AAXX 20154 85586 41450 83005 10180 20144 40143 52004 70522 885// 333 56699 83613 88617=
85586,2013,01,20,18,00,AAXX 20184 85586 11457 72504 10192 20145 40139 58004 60001 70522 87500 333 56600 82617 87626=
85586,2013,01,20,21,00,AAXX 20214 85586 41457 62407 10196 20139 40129 57010 70522 86500 333 56600 83610 85620=
85586,2013,01,21,00,00,AAXX 21004 85586 11456 82604 10170 20136 40140 53011 60001 70522 885// 333 10210 56099 88613=
85586,2013,01,21,03,00,AAXX 21034 85586 NIL=
85586,2013,01,21,06,00,AAXX 21064 85586 NIL=
85586,2013,01,21,09,00,AAXX 21094 85586 NIL=
85586,2013,01,21,12,00,AAXX 21124 85586 11456 80000 10162 20150 40142 53008 60004 71022 886// 333 20160 30/// 50240 55015 56099 70000 88710=
85586,2013,01,21,15,00,AAXX 21154 85586 42460 82405 10178 20141 40144 51004 885// 333 56599 88613=
85586,2013,01,21,18,00,AAXX 21184 85586 12460 82007 10184 20140 40150 52005 60001 885// 333 56599 88615=
85586,2013,01,21,21,00,AAXX 21214 85586 42460 82404 10182 20144 40152 54002 885// 333 56599 88617=
85586,2013,01,22,00,00,AAXX 22004 85586 12558 61903 10164 20152 40145 56007 60001 86500 333 10186 56400 86617=
85586,2013,01,22,03,00,AAXX 22034 85586 NIL=
85586,2013,01,22,06,00,AAXX 22064 85586 NIL=
85586,2013,01,22,09,00,AAXX 22094 85586 NIL=
85586,2013,01,22,12,00,AAXX 22124 85586 11330 80000 10164 20152 40152 53014 60004 7102/ 886// 333 20146 30/// 50270 55000 56799 88709=
85586,2013,01,22,15,00,AAXX 22154 85586 41450 83305 10182 20153 40164 52023 70522 885// 333 56799 88612=
85586,2013,01,22,18,00,AAXX 22184 85586 11457 83006 10182 20151 40175 52011 60001 885// 333 56799 88610=
85586,2013,01,22,21,00,AAXX 22214 85586 41108 82305 10170 20157 40169 57008 74622 886// 333 56599 88703=
85586,2013,01,23,00,00,AAXX 23004 85586 12205 81803 10160 20148 40169 54000 60001 74622 886// 333 10184 56499 88705=
85586,2013,01,23,03,00,AAXX 23034 85586 NIL=
85586,2013,01,23,06,00,AAXX 23064 85586 NIL=
85586,2013,01,23,09,00,AAXX 23094 85586 NIL=
85586,2013,01,23,12,00,AAXX 23124 85586 11206 82404 10163 20153 40156 53012 69904 75044 886// 333 20149 31/// 50280 55000 56799 88704=
85586,2013,01,23,15,00,AAXX 23154 85586 41320 83205 10177 20156 40159 51003 71055 886// 333 56799 88707=
85586,2013,01,23,18,00,AAXX 23184 85586 11457 82806 10186 20156 40165 52005 69911 70552 886// 333 56799 88710=
85586,2013,01,23,21,00,AAXX 23214 85586 41360 82707 10196 20158 40159 58009 885// 333 56799 82707 88615=
85586,2013,01,24,03,00,AAXX 24034 85586 NIL=
85586,2013,01,24,06,00,AAXX 24064 85586 NIL=
85586,2013,01,24,09,00,AAXX 24094 85586 NIL=
85586,2013,01,24,12,00,AAXX 24124 85586 11420 80000 10166 20155 40172 52009 69974 7505/ 886// 333 20160 31/// 50080 55000 56099 70007 88710=
85586,2013,01,24,15,00,AAXX 24154 85586 41430 83006 10180 20162 40184 52012 71022 885// 333 56799 88612=
85586,2013,01,24,18,00,AAXX 24184 85586 11456 83505 10192 20164 40187 51003 60001 70522 885// 333 56799 88612=
85586,2013,01,24,21,00,AAXX 24214 85586 42460 82207 10194 20154 40179 57008 885// 333 56599 88617=
85586,2013,01,25,00,00,AAXX 25004 85586 11558 81803 10174 20149 40177 54002 60001 70522 885// 333 10196 56499 88625=
85586,2013,01,25,03,00,AAXX 25034 85586 NIL=
85586,2013,01,25,06,00,AAXX 25064 85586 NIL=
85586,2013,01,25,09,00,AAXX 25094 85586 NIL=
85586,2013,01,25,12,00,AAXX 25124 85586 11440 82503 10176 20155 40167 56003 60004 7052/ 886// 333 20170 30/// 50100 55000 56099 88713=
85586,2013,01,25,15,00,AAXX 25154 85586 41450 82506 10184 20158 40177 52011 70522 885// 333 56599 88610=
85586,2013,01,25,18,00,AAXX 25184 85586 11558 72710 10200 20161 40175 54002 60001 70522 87500 333 56600 87620=
85586,2013,01,25,21,00,AAXX 25214 85586 42560 82008 10182 20158 40169 57007 885// 333 56599 88620=
85586,2013,01,26,00,00,AAXX 26004 85586 11457 82303 10172 20151 40160 56004 60001 70522 885// 333 10204 56599 88613=
85586,2013,01,26,03,00,AAXX 26034 85586 NIL=
85586,2013,01,26,06,00,AAXX 26064 85586 NIL=
85586,2013,01,26,09,00,AAXX 26094 85586 NIL=
85586,2013,01,26,12,00,AAXX 26124 85586 11440 83204 10162 20140 40163 52009 60004 7052/ 885// 333 20156 30/// 50110 55007 56699 85712 88617=
85586,2013,01,26,15,00,AAXX 26154 85586 41450 72604 10180 20133 40170 52007 70522 87500 333 56600 83615 87620=
85586,2013,01,26,18,00,AAXX 26184 85586 11457 62406 10196 20129 40165 58005 60001 70522 86500 333 56600 86617=
85586,2013,01,26,21,00,AAXX 26214 85586 41560 12605 10196 20129 40153 57012 81500 333 56600 81623=
85586,2013,01,27,00,00,AAXX 27004 85586 12460 62504 10164 20128 40147 57005 60001 86500 333 10202 56600 86617=
85586,2013,01,27,03,00,AAXX 27034 85586 NIL=
85586,2013,01,27,06,00,AAXX 27064 85586 NIL=
85586,2013,01,27,09,00,AAXX 27094 85586 NIL=
85586,2013,01,27,12,00,AAXX 27124 85586 11340 82704 10166 20126 40159 53008 60004 7052/ 885// 333 20154 30/// 50260 55026 57699 88612=
85586,2013,01,27,15,00,AAXX 27154 85586 41456 83009 10184 20128 40183 52025 70522 885// 333 56799 88612=
85586,2013,01,27,18,00,AAXX 27184 85586 11560 72809 10196 20206 40122 54001 60001 87500 333 56700 87620=
85586,2013,01,27,21,00,AAXX 27214 85586 41960 22509 10202 20123 40171 58012 80001 333 56006 82075=
85586,2013,01,28,00,00,AAXX 28004 85586 12960 52406 10172 20123 40171 54001 60001 85030 333 10214 56060 85365=
85586,2013,01,28,03,00,AAXX 28034 85586 NIL=
85586,2013,01,28,06,00,AAXX 28064 85586 NIL=
85586,2013,01,28,09,00,AAXX 28094 85586 NIL=
85586,2013,01,28,12,00,AAXX 28124 85586 11458 80000 10171 20127 40202 52024 60004 7052/ 885// 333 20114 30/// 50280 55058 56799 82615 88625=
85586,2013,01,28,15,00,AAXX 28154 85586 41458 82305 10191 20138 40208 51006 70522 885// 333 56799 82615 88620=
85586,2013,01,28,18,00,AAXX 28184 85586 12560 42510 10202 20130 40213 51004 60001 84500 333 56500 84625=
85586,2013,01,28,21,00,AAXX 28214 85586 42960 02010 10206 20117 40202 57011=
85586,2013,01,29,00,00,AAXX 29004 85586 12960 02308 10176 20134 40200 55000 60001 333 10213=
85586,2013,01,29,03,00,AAXX 29034 85586 NIL=
85586,2013,01,29,06,00,AAXX 29064 85586 NIL=
85586,2013,01,29,09,00,AAXX 29094 85586 NIL=
85586,2013,01,29,12,00,AAXX 29124 85586 11960 00000 10162 20111 40165 56012 60004 333 20084 30/// 50310 55078=
85586,2013,01,29,15,00,AAXX 29154 85586 42960 02408 10202 20120 40165 54000=
85586,2013,01,29,18,00,AAXX 29184 85586 12960 01904 10218 20121 40161 56004 60001=
85586,2013,01,29,21,00,AAXX 29214 85586 42960 02008 10202 20141 40159 54002=
85586,2013,01,30,00,00,AAXX 30004 85586 11558 62003 10172 20145 40155 56004 60001 70520 86500 333 10222 56500 86620=
85586,2013,01,30,03,00,AAXX 30034 85586 NIL=
85586,2013,01,30,06,00,AAXX 30064 85586 NIL=
85586,2013,01,30,09,00,AAXX 30094 85586 NIL=
85586,2013,01,30,12,00,AAXX 30124 85586 11440 80000 10154 20140 40138 52006 60004 7052/ 886// 333 20150 30/// 55260 55109 56099 88712=
85586,2013,01,30,15,00,AAXX 30154 85586 41456 82804 10174 20130 40143 52005 70522 885// 333 56699 82615 88620=
85586,2013,01,30,18,00,AAXX 30184 85586 12558 52808 10204 20123 40143 54000 60001 70522 83502 333 56606 83623 83075=
85586,2013,01,30,21,00,AAXX 30214 85586 42560 72605 10192 20124 40131 57012 87500 333 56600 87626=
85586,2013,01,31,00,00,AAXX 31004 85586 12660 72403 10176 20123 40127 56004 60001 87500 333 10211 56600 87633=
85586,2013,01,31,03,00,AAXX 31034 85586 NIL=
85586,2013,01,31,06,00,AAXX 31064 85586 NIL=
85586,2013,01,31,09,00,AAXX 31094 85586 NIL=
85586,2013,01,31,12,00,AAXX 31124 85586 11450 83302 10164 20139 40127 52009 60004 70528 885// 333 20160 30/// 50180 55032 56099 88615=
85586,2013,01,31,15,00,AAXX 31154 85586 41458 82705 10182 20145 40140 52014 70522 885// 333 56699 88617=
85586,2013,01,31,18,00,AAXX 31184 85586 12560 82508 10194 20150 40139 54001 60001 885// 333 56599 88620=
85586,2013,01,31,21,00,AAXX 31214 85586 42560 82806 10196 20143 40129 57010 885// 333 56699 88620=
85586,2013,02,01,00,00,AAXX 01004 85586 11557 81903 10172 20143 40124 57005 60001 70522 885// 333 10196 56499 88615=
85586,2013,02,01,03,00,AAXX 01034 85586 NIL=
85586,2013,02,01,09,00,AAXX 01094 85586 NIL=
85586,2013,02,01,12,00,AAXX 01124 85586 11440 82302 10170 20147 40161 52017 60004 7052/ 886// 333 20162 30/// 50120 55000 56099 88712=
85586,2013,02,01,15,00,AAXX 01154 85586 41450 82806 10180 20143 40176 52016 70522 885// 333 56699 88617=
85586,2013,02,01,18,00,AAXX 01184 85586 11360 22412 10213 20163 40169 54001 60001 82600 333 56700 82604=
85586,2013,02,01,21,00,AAXX 01214 85586 42660 71907 10202 20140 40184 57007 87500 333 56400 87630=
85586,2013,02,02,00,00,AAXX 02004 85586 12960 02203 10174 20135 40179 56005 60001 333 10202=
85586,2013,02,02,03,00,AAXX 02034 85586 NIL=
85586,2013,02,02,06,00,AAXX 02064 85586 NIL=
85586,2013,02,02,09,00,AAXX 02094 85586 NIL=
85586,2013,02,02,12,00,AAXX 02124 85586 11960 00000 10168 20143 40165 52024 60004 333 20104 30/// 50260 55022=
85586,2013,02,02,15,00,AAXX 02154 85586 41960 02707 10222 20151 40160 51006=
85586,2013,02,02,18,00,AAXX 02184 85586 11360 22412 10213 20163 40169 54001 60001 82600 333 56700 82604=
85586,2013,02,02,21,00,AAXX 02214 85586 42260 12512 10209 20157 40154 58012 81600 333 56700 81704=
85586,2013,02,03,00,00,AAXX 03004 85586 12960 00306 10174 20151 40151 56005 60001 333 10224=
85586,2013,02,03,03,00,AAXX 03034 85586 NIL=
85586,2013,02,03,06,00,AAXX 03064 85586 NIL=
85586,2013,02,03,09,00,AAXX 03094 85586 NIL=
85586,2013,02,03,12,00,AAXX 03124 85586 11960 00000 10174 20143 40127 56006 60004 333 20119 30/// 50310 55126=
85586,2013,02,03,15,00,AAXX 03154 85586 41940 02807 10197 20143 40127 55001 74000=
85586,2013,02,03,18,00,AAXX 03184 85586 11260 23010 10221 20160 40131 53005 60001 82600 333 56700 82604=
85586,2013,02,03,21,00,AAXX 03214 85586 42360 12708 10223 20164 40124 58007 81600 333 56700 81707=
85586,2013,02,04,00,00,AAXX 04004 85586 12260 23005 10188 20158 40123 58003 60001 82600 333 10228 56700 82704=
85586,2013,02,04,03,00,AAXX 04034 85586 NIL=
85586,2013,02,04,06,00,AAXX 04064 85586 NIL=
85586,2013,02,04,09,00,AAXX 04094 85586 NIL=
85586,2013,02,04,12,00,AAXX 04124 85586 11458 80000 10173 20138 40119 57021 60004 7052/ 885// 333 20149 30/// 50320 55119 56799 88612=
85586,2013,02,04,15,00,AAXX 04154 85586 42560 73510 10184 20184 40131 52013 87500 333 56700 87615=
85586,2013,02,04,18,00,AAXX 04184 85586 12560 33010 10220 20122 40129 56003 60001 83500 333 56700 83625=
85586,2013,02,05,00,00,AAXX 05004 85586 12560 32003 10180 20134 40103 57010 60001 83500 333 10224 56400 83625=
85586,2013,02,05,03,00,AAXX 05034 85586 NIL=
85586,2013,02,05,06,00,AAXX 05064 85586 NIL=
85586,2013,02,05,09,00,AAXX 05094 85586 NIL=
85586,2013,02,05,12,00,AAXX 05124 85586 11430 83405 10168 20145 40123 52016 60004 7052/ 886// 333 20160 30/// 50240 55079 56099 88712=
85586,2013,02,05,15,00,AAXX 05154 85586 41456 83408 10192 20166 40137 52014 70522 885// 333 56099 88617=
85586,2013,02,05,18,00,AAXX 05184 85586 11457 83008 10194 20157 40145 52008 60001 70522 885// 333 56699 81613 88623=
85586,2013,02,05,21,00,AAXX 05214 85586 42960 02606 10214 20145 40127 58018=
85586,2013,02,06,00,00,AAXX 06004 85586 12560 32603 10180 20148 40134 53007 60001 83500 333 10219 56600 83623=
85586,2013,02,06,03,00,AAXX 06034 85586 NIL=
85586,2013,02,06,06,00,AAXX 06064 85586 NIL=
85586,2013,02,06,09,00,AAXX 06094 85586 NIL=
85586,2013,02,06,12,00,AAXX 06124 85586 11450 80203 10178 20156 40160 52012 60004 7052/ 885// 333 20166 30/// 50190 55040 56099 88618=
85586,2013,02,06,15,00,AAXX 06154 85586 42560 22707 10224 20157 40171 52012 82500 333 56600 82625=
85586,2013,02,06,18,00,AAXX 06184 85586 12960 02308 10232 20144 40171 54000 60001=
85586,2013,02,06,21,00,AAXX 06214 85586 42960 02404 10216 20143 40144 57027=
85586,2013,02,07,00,00,AAXX 07004 85586 12960 32803 10190 20141 40139 57005 60001 80001 333 10230 56006 83073=
85586,2013,02,07,03,00,AAXX 07034 85586 NIL=
85586,2013,02,07,06,00,AAXX 07064 85586 NIL=
85586,2013,02,07,09,00,AAXX 07094 85586 NIL=
85586,2013,02,07,12,00,AAXX 07124 85586 11430 82802 10182 20166 40147 52011 60004 7052/ 885// 333 20150 30/// 50240 55090 56699 84610 88613=
85586,2013,02,07,15,00,AAXX 07154 85586 42860 32408 10202 20145 40144 56003 83030 333 56050 83358=
85586,2013,02,07,18,00,AAXX 07184 85586 12960 32508 10242 20158 40137 57007 60001 80001 333 56006 83073=
85586,2013,02,07,21,00,AAXX 07214 85586 42960 42408 10218 20160 40120 57016 80001 333 56005 84070=
85586,2013,02,08,00,00,AAXX 08004 85586 12960 02404 10188 20158 40118 54002 60001 333 10246=
85586,2013,02,08,03,00,AAXX 08034 85586 NIL=
85586,2013,02,08,06,00,AAXX 08064 85586 NIL=
85586,2013,02,08,09,00,AAXX 08094 85586 NIL=
85586,2013,02,08,12,00,AAXX 08124 85586 11960 00000 10187 20150 40119 52022 60004 333 20143 30/// 50310 55090=
85586,2013,02,08,15,00,AAXX 08154 85586 42960 02708 10224 20142 40136 52017=
85586,2013,02,08,18,00,AAXX 08184 85586 12560 42707 10234 20134 40139 51004 60001 84500 333 56600 84630=
85586,2013,02,08,21,00,AAXX 08214 85586 42960 02005 10220 20128 40123 57017=
85586,2013,02,09,00,00,AAXX 09004 85586 12960 22404 10214 20162 40120 55001 60001 82030 333 10242 56060 82365=
85586,2013,02,09,03,00,AAXX 09034 85586 NIL=
85586,2013,02,09,06,00,AAXX 09064 85586 NIL=
85586,2013,02,09,09,00,AAXX 09094 85586 NIL=
85586,2013,02,09,12,00,AAXX 09124 85586 11560 80804 10203 20163 40141 52019 60004 885// 333 20153 30/// 50340 55120 56799 88625=
85586,2013,02,09,15,00,AAXX 09154 85586 42460 83408 10243 20164 40156 52015 885// 333 56799 82615 88625=
85586,2013,02,09,18,00,AAXX 09184 85586 12460 53014 10243 20154 40160 51004 60001 85500 333 56700 81615 85625=
85586,2013,02,09,21,00,AAXX 09214 85586 42560 72808 10218 20176 40156 58005 87500 333 56700 8625=
85586,2013,02,10,00,00,AAXX 10004 85586 12560 52805 10209 20177 40159 53003 60001 85500 333 10265 56700 85620=
85586,2013,02,10,03,00,AAXX 10034 85586 NIL=
85586,2013,02,10,06,00,AAXX 10064 85586 NIL=
85586,2013,02,10,09,00,AAXX 10094 85586 NIL=
85586,2013,02,10,12,00,AAXX 10124 85586 11460 70000 10194 20174 40168 56010 60004 81501 333 20161 30/// 50360 55054 56706 81615 87075=
85586,2013,02,10,15,00,AAXX 10154 85586 42460 62707 10221 20170 40176 53010 81530 333 56760 81615 86362=
85586,2013,02,10,18,00,AAXX 10184 85586 12960 32409 10237 20164 40184 51008 60001 83030 333 56060 83362=
85586,2013,02,10,21,00,AAXX 10214 85586 42960 02408 10237 20164 40180 58003=
85586,2013,02,11,00,00,AAXX 11004 85586 12960 02405 10201 20168 40186 53006 60001 333 10239=
85586,2013,02,11,03,00,AAXX 11034 85586 NIL=
85586,2013,02,11,06,00,AAXX 11064 85586 NIL=
85586,2013,02,11,09,00,AAXX 11094 85586 NIL=
85586,2013,02,11,12,00,AAXX 11124 85586 11960 20000 10168 20156 40156 52012 60004 7024/ 80002 333 20134 30/// 50290 55103 56006 82075=
85586,2013,02,11,15,00,AAXX 11154 85586 42960 02405 10202 20144 40156 54000=
85586,2013,02,11,18,00,AAXX 11184 85586 12960 02414 10230 20148 40154 54002 60001=
85586,2013,02,11,21,00,AAXX 11214 85586 42960 52408 10212 20170 40157 54001 85030 333 56050 85065=
85586,2013,02,12,00,00,AAXX 12004 85586 12960 62604 10190 20163 40154 56002 60001 86030 333 10231 56060 86363=
85586,2013,02,12,03,00,AAXX 12034 85586 NIL=
85586,2013,02,12,06,00,AAXX 12064 85586 NIL=
85586,2013,02,12,09,00,AAXX 12094 85586 NIL=
85586,2013,02,12,12,00,AAXX 12124 85586 12960 00000 10164 20148 40153 52010 60004 333 20116 30/// 50240 55091=
85586,2013,02,12,15,00,AAXX 12154 85586 42960 02708 10222 20138 40159 52007=
85586,2013,02,12,18,00,AAXX 12184 85586 12960 02411 10232 20134 40154 57005 60001=
85586,2013,02,12,21,00,AAXX 12214 85586 42960 01810 10214 20152 40147 57007=
85586,2013,02,13,00,00,AAXX 13004 85586 12960 01903 10184 20157 40145 54002 60001 333 10234=
85586,2013,02,13,03,00,AAXX 13034 85586 NIL=
85586,2013,02,13,06,00,AAXX 13064 85586 NIL=
85586,2013,02,13,09,00,AAXX 13094 85586 NIL=
85586,2013,02,13,12,00,AAXX 13124 85586 12960 00502 10150 20124 40157 52009 60004 333 20100 30/// 50320 55118=
85586,2013,02,13,15,00,AAXX 13154 85586 42960 22607 10200 20118 40160 52003 80001 333 56006 82075=
85586,2013,02,13,18,00,AAXX 13184 85586 NIL=
85586,2013,02,13,21,00,AAXX 13214 85586 NIL=
85586,2013,02,14,00,00,AAXX 14004 85586 12960 42406 10180 20110 40144 53003 60004 83032 333 10230 56066 83365=
85586,2013,02,14,03,00,AAXX 14034 85586 NIL=
85586,2013,02,14,06,00,AAXX 14064 85586 NIL=
85586,2013,02,14,09,00,AAXX 14094 85586 NIL=
85586,2013,02,14,12,00,AAXX 14124 85586 12960 00000 10154 20119 40152 53007 60004 333 20103 30/// 50330 55118 70000=
85586,2013,02,14,15,00,AAXX 14154 85586 42960 02506 10252 20148 40150 54001=
85586,2013,02,14,18,00,AAXX 14184 85586 12960 01911 10224 20136 40142 57008 60001=
85586,2013,02,14,21,00,AAXX 14214 85586 42960 02312 10212 20141 40134 57008=
85586,2013,02,15,00,00,AAXX 15004 85586 12960 01804 10186 20157 40134 54000 60001 333 10256=
85586,2013,02,15,03,00,AAXX 15034 85586 NIL=
85586,2013,02,15,06,00,AAXX 15064 85586 NIL=
85586,2013,02,15,09,00,AAXX 15094 85586 NIL=
85586,2013,02,15,12,00,AAXX 15124 85586 11903 00803 10145 20139 40140 53007 60004 74240 333 20102 30/// 50330 55118 70000=
85586,2013,02,15,15,00,AAXX 15154 85586 42360 22406 10200 20150 40146 52007 82600 333 56500 82708=
85586,2013,02,15,18,00,AAXX 15184 85586 12460 32710 10230 20135 40144 54002 60001 83500 333 56600 83610=
85586,2013,02,15,21,00,AAXX 15214 85586 42560 42806 10214 20137 40141 54002 84500 333 56600 84617=
85586,2013,02,16,00,00,AAXX 16004 85586 12560 21904 10182 20156 40137 56005 60001 82500 333 10236 56500 82625=
85586,2013,02,16,03,00,AAXX 16034 85586 NIL=
85586,2013,02,16,06,00,AAXX 16064 85586 NIL=
85586,2013,02,16,09,00,AAXX 16094 85586 NIL=
85586,2013,02,16,12,00,AAXX 16124 85586 12560 70000 10177 20140 40137 53008 60004 87500 333 20150 30/// 50300 55106 56600 70000 87620=
85586,2013,02,16,15,00,AAXX 16154 85586 42560 12807 10214 20132 40144 52009 81500 333 56600 81622=
85586,2013,02,16,18,00,AAXX 16184 85586 12560 32908 10240 20145 40148 52005 60001 83500 333 56600 83622=
85586,2013,02,16,21,00,AAXX 16214 85586 42560 72906 10217 20170 40152 52003 87500 333 56600 87623=
85586,2013,02,17,00,00,AAXX 17004 85586 12460 72303 10177 20149 40152 58002 60001 87500 333 10246 56600 87615=
85586,2013,02,17,03,00,AAXX 17034 85586 NIL=
85586,2013,02,17,06,00,AAXX 17064 85586 NIL=
85586,2013,02,17,09,00,AAXX 17094 85586 NIL=
85586,2013,02,17,12,00,AAXX 17124 85586 NIL=
85586,2013,02,17,15,00,AAXX 17154 85586 42960 52408 10188 20108 40169 52007 84031 333 56066 84362=
85586,2013,02,17,18,00,AAXX 17184 85586 12960 42412 10200 20093 40163 58006 60001 80001 333 56006 84075=
85586,2013,02,17,21,00,AAXX 17214 85586 42960 32413 10200 20093 40153 57010 80001 333 56006 83075=
85586,2013,02,18,00,00,AAXX 18004 85586 12960 42305 10170 20077 40146 55006 60001 80002 333 10210 56006 84075=
85586,2013,02,18,03,00,AAXX 18034 85586 NIL=
85586,2013,02,18,06,00,AAXX 18064 85586 NIL=
85586,2013,02,18,09,00,AAXX 18094 85586 NIL=
85586,2013,02,18,12,00,AAXX 18124 85586 12960 40000 10086 20072 40159 52011 60004 84030 333 20072 30/// 50290 55105 56060 84362=
85586,2013,02,18,15,00,AAXX 18154 85586 42960 42907 10170 20062 40167 52008 80002 333 56006 84075=
85586,2013,02,18,18,00,AAXX 18184 85586 12960 02308 10202 20102 40169 54002 60001=
85586,2013,02,18,21,00,AAXX 18214 85586 42960 02508 10162 20078 40169 54000=
85586,2013,02,19,00,00,AAXX 19004 85586 12960 02504 10152 20112 40166 54003 60001 333 10206=
85586,2013,02,19,03,00,AAXX 19034 85586 NIL=
85586,2013,02,19,06,00,AAXX 19064 85586 NIL=
85586,2013,02,19,09,00,AAXX 19094 85586 NIL=
85586,2013,02,19,12,00,AAXX 19124 85586 12460 71203 10100 20092 40162 52008 60004 87500 333 20064 30/// 50270 55105 56600 87613=
85586,2013,02,19,15,00,AAXX 19154 85586 42960 02806 10174 20118 40167 52006=
85586,2013,02,19,18,00,AAXX 19184 85586 12960 02408 10190 20095 40161 56006 60001=
85586,2013,02,19,21,00,AAXX 19214 85586 42960 01815 10176 20118 40154 57007=
85586,2013,02,20,00,00,AAXX 20004 85586 NIL=
85586,2013,02,20,03,00,AAXX 20034 85586 NIL=
85586,2013,02,20,06,00,AAXX 20064 85586 NIL=
85586,2013,02,20,09,00,AAXX 20094 85586 NIL=
85586,2013,02,20,12,00,AAXX 20124 85586 11240 50000 10115 20097 40169 52009 60004 70522 85600 333 20068 30/// 50280 55109 56000 70000 85708=
85586,2013,02,20,15,00,AAXX 20154 85586 42960 02605 10162 20124 40170 51003=
85586,2013,02,20,18,00,AAXX 20184 85586 12960 02810 10175 20120 40164 58006 60001=
85586,2013,02,20,21,00,AAXX 20214 85586 42960 02807 10168 20125 40142 57022=
85586,2013,02,21,00,00,AAXX 21004 85586 12260 20000 10140 20117 40141 57002 60001 82600 333 10184 56600 82705=
85586,2013,02,21,03,00,AAXX 21034 85586 NIL=
85586,2013,02,21,06,00,AAXX 21064 85586 NIL=
85586,2013,02,21,09,00,AAXX 21094 85586 NIL=
85586,2013,02,21,12,00,AAXX 21124 85586 11901 00000 10099 20093 40115 53002 60004 74444 333 20068 30/// 50280 55101 70000=
85586,2013,02,21,15,00,AAXX 21154 85586 41160 12605 10165 20131 40118 52003 70240 81600 333 56600 81703=
85586,2013,02,21,18,00,AAXX 21184 85586 11960 02608 10184 20127 40112 58004 60001 70240=
85586,2013,02,21,21,00,AAXX 21214 85586 42960 02607 10177 20132 40106 57006=
85586,2013,02,22,00,00,AAXX 22004 85586 12960 00000 10150 20124 40111 53004 60001 333 10180=
85586,2013,02,22,03,00,AAXX 22034 85586 NIL=
85586,2013,02,22,06,00,AAXX 22064 85586 NIL=
85586,2013,02,22,09,00,AAXX 22094 85586 NIL=
85586,2013,02,22,12,00,AAXX 22124 85586 11940 30000 10113 20094 40115 52020 60004 74440 80001 333 20083 30/// 50240 55107 56005 70000 83073=
85586,2013,02,22,15,00,AAXX 22154 85586 41960 62904 10174 20148 40144 52030 70242 80001 333 56005 86073=
85586,2013,02,22,18,00,AAXX 22184 85586 NIL=
85586,2013,02,22,21,00,AAXX 22214 85586 42460 62906 10174 20148 40155 53002 86500 333 56600 86615=
85586,2013,02,23,00,00,AAXX 23004 85586 12460 63003 10151 20125 40151 57004 60001 81601 333 10196 56606 81515 85073=
85586,2013,02,23,03,00,AAXX 23034 85586 NIL=
85586,2013,02,23,06,00,AAXX 23064 85586 NIL=
85586,2013,02,23,09,00,AAXX 23094 85586 NIL=
85586,2013,02,23,12,00,AAXX 23124 85586 11208 80903 10116 20107 40177 52013 60004 7462/ 886// 333 20096 30/// 50230 55061 56099 88706=
85586,2013,02,23,15,00,AAXX 23154 85586 41456 32705 10166 20123 40178 54001 70542 82602 333 56606 82710=
85586,2013,02,23,18,00,AAXX 23184 85586 11460 32608 10170 20127 40172 57006 60001 70222 83600 333 56600 83710=
85586,2013,02,23,21,00,AAXX 23214 85586 42960 02410 10208 20095 40152 57020=
85586,2013,02,24,00,00,AAXX 24004 85586 12960 02408 10174 20073 40157 53005 60001 333 10214=
85586,2013,02,24,03,00,AAXX 24034 85586 NIL=
85586,2013,02,24,06,00,AAXX 24064 85586 NIL=
85586,2013,02,24,09,00,AAXX 24094 85586 NIL=
85586,2013,02,24,12,00,AAXX 24124 85586 12960 01603 10156 20109 40155 52007 60004 333 20082 30/// 50250 55090=
85586,2013,02,24,15,00,AAXX 24154 85586 42960 02407 10202 20101 40147 58007=
85586,2013,02,24,18,00,AAXX 24184 85586 12960 02413 10200 20110 40130 57017 60001=
85586,2013,02,24,21,00,AAXX 24214 85586 42960 02408 10222 20105 40110 57020=
85586,2013,02,25,00,00,AAXX 25004 85586 12960 03603 10174 20099 40110 54000 60001 333 10218=
85586,2013,02,25,03,00,AAXX 25034 85586 NIL=
85586,2013,02,25,06,00,AAXX 25064 85586 NIL=
85586,2013,02,25,09,00,AAXX 25094 85586 NIL=
85586,2013,02,25,12,00,AAXX 25124 85586 12960 00902 10126 20110 40104 52006 60004 333 20080 30/// 50280 55103=
85586,2013,02,25,15,00,AAXX 25154 85586 42960 02707 10184 20103 40110 52006=
85586,2013,02,25,18,00,AAXX 25184 85586 NIL=
85586,2013,02,25,21,00,AAXX 25214 85586 42960 03007 10170 20118 40103 57004=
85586,2013,02,26,00,00,AAXX 26004 85586 12960 03303 10144 20120 40102 57001 60001 333 10208=
85586,2013,02,26,03,00,AAXX 26034 85586 NIL=
85586,2013,02,26,06,00,AAXX 26064 85586 NIL=
85586,2013,02,26,09,00,AAXX 26094 85586 NIL=
85586,2013,02,26,12,00,AAXX 26124 85586 12320 83307 10138 20122 40130 52025 60004 7102/ 886// 333 20123 30/// 50290 55116 56799 88706=
85586,2013,02,26,15,00,AAXX 26154 85586 41458 83010 10162 20126 40156 52025 70522 885// 333 56799 88610=
85586,2013,02,26,18,00,AAXX 26184 85586 11560 43010 10186 20131 40153 54002 60001 84500 333 56700 88720=
85586,2013,02,26,21,00,AAXX 26214 85586 41560 62506 10172 20122 40145 57008 86500 333 56600 86725=
85586,2013,02,27,00,00,AAXX 27004 85586 12456 82504 10161 20139 40102 54001 60001 71022 885// 333 10190 56799 88620=
85586,2013,02,27,03,00,AAXX 27034 85586 NIL=
85586,2013,02,27,06,00,AAXX 27064 85586 NIL=
85586,2013,02,27,09,00,AAXX 27094 85586 NIL=
85586,2013,02,27,12,00,AAXX 27124 85586 11103 82304 10126 20116 40153 52020 69914 7504/ 886// 333 20121 31/// 50230 55035 56799 70001 88703=
85586,2013,02,27,15,00,AAXX 27154 85586 41320 83007 10132 20117 40168 52015 71054 886// 333 56799 88707=
85586,2013,02,27,18,00,AAXX 27184 85586 11456 82808 10173 20115 40167 50000 69911 885// 333 56799 88612=
85586,2013,02,27,21,00,AAXX 27214 85586 41460 42608 10166 20123 40157 58010 84500 333 56700 84615=
85586,2013,02,28,00,00,AAXX 28004 85586 12460 32804 10134 20110 40143 56009 60001 83500 333 10181 56700 83615=
85586,2013,02,28,03,00,AAXX 28034 85586 NIL=
85586,2013,02,28,06,00,AAXX 28064 85586 NIL=
85586,2013,02,28,09,00,AAXX 28094 85586 NIL=
85586,2013,02,28,12,00,AAXX 28124 85586 11101 80604 10111 20102 40132 53011 69914 7464/ 886// 333 20096 30/// 50240 55011 56799 70001 88703=
85586,2013,02,28,15,00,AAXX 28154 85586 41353 33506 10154 20112 40138 52007 71020 83500 333 56700 83608=
85586,2013,02,28,18,00,AAXX 28184 85586 12460 22308 10174 20125 40147 52008 60001 82500 333 56500 82615=
85586,2013,02,28,21,00,AAXX 28214 85586 42960 03008 10164 20128 40137 57008=
85586,2013,03,01,00,00,AAXX 01004 85586 12960 00000 10141 20098 40135 56002 60001 333 10177=
85586,2013,03,01,03,00,AAXX 01034 85586 NIL=
85586,2013,03,01,06,00,AAXX 01064 85586 NIL=
85586,2013,03,01,09,00,AAXX 01094 85586 NIL=
85586,2013,03,01,12,00,AAXX 01124 85586 12960 01202 10102 20091 40157 52011 60004 333 20046 30/// 50210 55079=
85586,2013,03,01,15,00,AAXX 01154 85586 42960 02006 10170 20090 40166 52010=
85586,2013,03,01,18,00,AAXX 01184 85586 12960 02515 10184 20100 40175 52009 60001=
85586,2013,03,01,21,00,AAXX 01214 85586 42960 01908 10182 20116 40164 57011=
85586,2013,03,02,00,00,AAXX 02004 85586 12960 01503 10150 20093 40161 58004 60001 333 10194=
85586,2013,03,02,03,00,AAXX 02034 85586 NIL=
85586,2013,03,02,06,00,AAXX 02064 85586 NIL=
85586,2013,03,02,09,00,AAXX 02094 85586 NIL=
85586,2013,03,02,12,00,AAXX 02124 85586 12960 01205 10150 20079 40136 52010 60004 333 20070 30/// 50300 55112=
85586,2013,03,02,15,00,AAXX 02154 85586 42960 02408 10180 20072 40137 54001=
85586,2013,03,02,18,00,AAXX 02184 85586 12960 02309 10190 20102 40131 57006 60001=
85586,2013,03,02,21,00,AAXX 02214 85586 42960 02609 10174 20119 40130 54001=
85586,2013,03,03,00,00,AAXX 03004 85586 12960 03304 10136 20114 40134 52004 60001 333 10215=
85586,2013,03,03,03,00,AAXX 03034 85586 NIL=
85586,2013,03,03,06,00,AAXX 03064 85586 NIL=
85586,2013,03,03,09,00,AAXX 03094 85586 NIL=
85586,2013,03,03,12,00,AAXX 03124 85586 11457 80602 10140 20119 40166 52012 60004 70522 885// 333 20128 30/// 50320 55113 56099 88617=
85586,2013,03,03,15,00,AAXX 03154 85586 42460 12806 10176 20117 40174 52008 81600 333 56600 81710=
85586,2013,03,03,18,00,AAXX 03184 85586 12560 32506 10184 20127 40169 57005 60001 83500 333 56600 83620=
85586,2013,03,03,21,00,AAXX 03214 85586 41457 82705 10166 20130 40159 57010 70522 885// 333 56099 88616=
85586,2013,03,04,00,00,AAXX 04004 85586 11440 82303 10130 20121 40164 53005 60001 71022 886// 333 10188 56099 88710=
85586,2013,03,04,03,00,AAXX 04034 85586 NIL=
85586,2013,03,04,06,00,AAXX 04064 85586 NIL=
85586,2013,03,04,09,00,AAXX 04094 85586 NIL=
85586,2013,03,04,12,00,AAXX 04124 85586 11208 80000 10122 20109 40172 53016 69914 7424/ 886// 333 20119 30/// 50280 55048 56799 88704=
85586,2013,03,04,15,00,AAXX 04154 85586 NIL=
85586,2013,03,04,18,00,AAXX 04184 85586 11458 42607 10168 20122 40167 57010 60001 70520 84500 333 56600 84617=
85586,2013,03,04,21,00,AAXX 04214 85586 41456 82707 10138 20112 40158 57007 70522 885// 333 56599 88610=
85586,2013,03,05,00,00,AAXX 05004 85586 11206 83406 10131 20116 40152 56006 60001 74622 886// 333 10171 56799 88704=
85586,2013,03,05,03,00,AAXX 05034 85586 NIL=
85586,2013,03,05,06,00,AAXX 05064 85586 NIL=
85586,2013,03,05,09,00,AAXX 05094 85586 NIL=
85586,2013,03,05,12,00,AAXX 05124 85586 11206 83306 10122 20111 40159 52021 69904 7422/ 886// 333 20118 30/// 50190 55009 56799 88704=
85586,2013,03,05,15,00,AAXX 05154 85586 41315 83003 10134 20118 40169 52010 71052 886// 333 56699 88707=
85586,2013,03,05,18,00,AAXX 05184 85586 11458 83008 10152 20115 40178 52009 69911 70522 885// 333 56699 88612=
85586,2013,03,05,21,00,AAXX 05214 85586 42560 32909 10169 20121 40181 51004 83100 333 56700 83820=
85586,2013,03,06,00,00,AAXX 06004 85586 11960 02405 10144 20103 40187 53005 60001 333 10171=
85586,2013,03,06,03,00,AAXX 06034 85586 NIL=
85586,2013,03,06,06,00,AAXX 06064 85586 NIL=
85586,2013,03,06,09,00,AAXX 06094 85586 NIL=
85586,2013,03,06,12,00,AAXX 06124 85586 11960 01104 10108 20095 40185 53002 60004 333 20057 30/// 50180 55041=
85586,2013,03,06,15,00,AAXX 06154 85586 42960 02411 10192 20107 40180 58004=
85586,2013,03,06,18,00,AAXX 06184 85586 12960 02316 10204 20117 40163 57015 60001=
85586,2013,03,06,21,00,AAXX 06214 85586 42960 02317 10193 20082 40147 57017=
85586,2013,03,07,00,00,AAXX 07004 85586 12960 00000 10145 20075 40155 53006 60001 333 10213=
85586,2013,03,07,03,00,AAXX 07034 85586 NIL=
85586,2013,03,07,06,00,AAXX 07064 85586 NIL=
85586,2013,03,07,09,00,AAXX 07094 85586 NIL=
85586,2013,03,07,12,00,AAXX 07124 85586 12960 70000 10090 20074 40151 52011 60004 80002 333 20068 30/// 50310 55114 56006 87073=
85586,2013,03,07,15,00,AAXX 07154 85586 42960 62603 10172 20082 40164 52012 80001 333 56006 86073=
85586,2013,03,07,18,00,AAXX 07184 85586 12960 62410 10182 20068 40164 54001 60001 80001 333 56005 86070=
85586,2013,03,07,21,00,AAXX 07214 85586 42960 62305 10164 20082 40154 57010 80001 333 56005 86070=
85586,2013,03,08,00,00,AAXX 08004 85586 NIL=
85586,2013,03,08,03,00,AAXX 08034 85586 NIL=
85586,2013,03,08,06,00,AAXX 08064 85586 NIL=
85586,2013,03,08,09,00,AAXX 08094 85586 NIL=
85586,2013,03,08,12,00,AAXX 08124 85586 12560 70000 10106 20081 40165 52009 60004 81532 333 20092 30/// 50210 55060 56666 81630 83362 85075=
85586,2013,03,08,15,00,AAXX 08154 85586 42960 63504 10192 20122 40169 54001 86031 333 56077 84360 85070=
85586,2013,03,08,18,00,AAXX 08184 85586 12960 42406 10204 20091 40165 54001 60001 80001 333 56005 84070=
85586,2013,03,08,21,00,AAXX 08214 85586 42960 32606 10198 20083 40154 57012 80001 333 56006 83070=
85586,2013,03,09,00,00,AAXX 09004 85586 12960 53004 10158 20090 40149 54003 60001 80001 333 10210 56007 85070=
85586,2013,03,09,03,00,AAXX 09034 85586 NIL=
85586,2013,03,09,06,00,AAXX 09064 85586 NIL=
85586,2013,03,09,09,00,AAXX 09094 85586 NIL=
85586,2013,03,09,12,00,AAXX 09124 85586 12960 00000 10090 20081 40167 52014 60004 333 20050 30/// 50260 55080=
85586,2013,03,09,15,00,AAXX 09154 85586 42960 02805 10180 20103 40174 52007=
85586,2013,03,09,18,00,AAXX 09184 85586 12960 02311 10194 20113 40165 58009 60001=
85586,2013,03,09,21,00,AAXX 09214 85586 42960 02309 10190 20118 40153 57012=
85586,2013,03,10,00,00,AAXX 10004 85586 NIL=
85586,2013,03,10,03,00,AAXX 10034 85586 NIL=
85586,2013,03,10,06,00,AAXX 10064 85586 NIL=
85586,2013,03,10,09,00,AAXX 10094 85586 NIL=
85586,2013,03,10,12,00,AAXX 10124 85586 12960 00000 10135 20119 40132 53008 60004 333 20076 30/// 50270 55110=
85586,2013,03,10,15,00,AAXX 10154 85586 42960 02410 10194 20125 40131 54000=
85586,2013,03,10,18,00,AAXX 10184 85586 12960 02314 10184 20129 40131 54000 60001=
85586,2013,03,10,21,00,AAXX 10214 85586 42960 02509 10181 20113 40124 5808=
85586,2013,03,11,00,00,AAXX 11004 85586 12958 03204 10136 20097 40130 53006 60001 333 10201=
85586,2013,03,11,03,00,AAXX 11034 85586 NIL=
85586,2013,03,11,06,00,AAXX 11064 85586 NIL=
85586,2013,03,11,09,00,AAXX 11094 85586 NIL=
85586,2013,03,11,12,00,AAXX 11124 85586 12308 80904 10136 20122 40133 53008 69914 75055 886// 333 20111 31/// 50280 55110 56788 70001 88707=
85586,2013,03,11,15,00,AAXX 11154 85586 41450 83203 10152 20128 40138 52006 70522 885// 333 56799 88612=
85586,2013,03,11,21,00,AAXX 11214 85586 42460 82605 10152 20124 40142 52005 885// 333 56699 88615=
85586,2013,03,12,00,00,AAXX 12004 85586 12458 83404 10146 20123 40150 53007 60001 70522 885// 333 10175 56799 88612=
85586,2013,03,12,03,00,AAXX 12034 85586 NIL=
85586,2013,03,12,06,00,AAXX 12064 85586 NIL=
85586,2013,03,12,09,00,AAXX 12094 85586 NIL=
85586,2013,03,12,12,00,AAXX 12124 85586 12340 81504 10136 20116 40156 53008 69904 7052/ 886// 333 20133 30/// 50210 55032 56799 70000 88707=
85586,2013,03,12,15,00,AAXX 12154 85586 41458 22806 10162 20124 40162 52006 70522 82600 333 56600 82710=
85586,2013,03,12,18,00,AAXX 12184 85586 NIL=
85586,2013,03,12,21,00,AAXX 12214 85586 42960 02808 10162 20111 40147 57012=
85586,2013,03,13,00,00,AAXX 13004 85586 12960 02906 10137 20095 40157 53009 60001 333 10183=
85586,2013,03,13,03,00,AAXX 13034 85586 NIL=
85586,2013,03,13,06,00,AAXX 13064 85586 NIL=
85586,2013,03,13,09,00,AAXX 13094 85586 NIL=
85586,2013,03,13,12,00,AAXX 13124 85586 12456 70904 10120 20102 40176 52012 60004 70522 87600 333 20096 30/// 50200 55092 56700 70000 87610=
85586,2013,03,13,15,00,AAXX 13154 85586 42960 02706 10170 20118 40163 58013=
85586,2013,03,13,18,00,AAXX 13184 85586 12960 02311 10173 20117 40162 57001 60001=
85586,2013,03,13,21,00,AAXX 13214 85586 42960 02409 10170 20118 40150 57011=
85586,2013,03,14,00,00,AAXX 14004 85586 12960 10000 10132 20095 40155 53004 60001 80001 333 10186 56006 81075=
85586,2013,03,14,03,00,AAXX 14034 85586 NIL=
85586,2013,03,14,06,00,AAXX 14064 85586 NIL=
85586,2013,03,14,09,00,AAXX 14094 85586 NIL=
85586,2013,03,14,12,00,AAXX 14124 85586 NIL=
85586,2013,03,14,15,00,AAXX 14154 85586 42960 02705 10158 20086 40164 54002=
85586,2013,03,14,18,00,AAXX 14184 85586 12960 02208 10174 20118 40164 54001 60001=
85586,2013,03,14,21,00,AAXX 14214 85586 42960 02606 10172 20122 40158 57007=
85586,2013,03,15,00,00,AAXX 15004 85586 12960 03004 10141 20104 40154 56003 333 10180=
85586,2013,03,15,03,00,AAXX 15034 85586 NIL=
85586,2013,03,15,06,00,AAXX 15064 85586 NIL=
85586,2013,03,15,09,00,AAXX 15094 85586 NIL=
85586,2013,03,15,12,00,AAXX 15124 85586 12960 00000 10096 20071 40132 57003 60004 333 20049 30/// 50200 55104 70000=
85586,2013,03,15,15,00,AAXX 15154 85586 42960 02306 10210 20091 40123 57006=
85586,2013,03,15,18,00,AAXX 15184 85586 12960 02808 10210 20076 40126 54002 60001=
85586,2013,03,15,21,00,AAXX 15214 85586 42960 02806 10188 20093 40124 54001=
85586,2013,03,16,00,00,AAXX 16004 85586 12960 02806 10162 20114 40125 54001 60001 333 10218=
85586,2013,03,16,03,00,AAXX 16034 85586 NIL=
85586,2013,03,16,06,00,AAXX 16064 85586 NIL=
85586,2013,03,16,09,00,AAXX 16094 85586 NIL=
85586,2013,03,16,12,00,AAXX 16124 85586 12356 80000 10121 20108 40142 53016 60004 7052/ 886// 333 20077 30/// 50210 55107 56799 88707=
85586,2013,03,16,15,00,AAXX 16154 85586 42458 72909 10179 20118 40156 52012 70522 82501 333 56706 82615 87075=
85586,2013,03,16,18,00,AAXX 16184 85586 12260 52911 10192 20122 40165 53008 60001 82601 333 56706 82704 84075=
85586,2013,03,16,21,00,AAXX 16214 85586 42458 82908 10172 20129 40166 53002 70522 885// 333 56799 86015=
85586,2013,03,17,00,00,AAXX 17004 85586 12458 83204 10158 20117 40179 52013 60001 70522 885// 333 10194 56799 88615=
85586,2013,03,17,03,00,AAXX 17034 85586 NIL=
85586,2013,03,17,06,00,AAXX 17064 85586 NIL=
85586,2013,03,17,09,00,AAXX 17094 85586 NIL=
85586,2013,03,17,12,00,AAXX 17124 85586 12320 60000 10123 20110 40182 58014 60004 7104/ 886// 333 20081 30/// 50220 55053 56799 86707=
85586,2013,03,17,15,00,AAXX 17154 85586 42956 02507 10175 20116 40177 58005 70522=
85586,2013,03,17,18,00,AAXX 17184 85586 12960 02412 10183 20130 40167 58010 60001=
85586,2013,03,17,21,00,AAXX 17214 85586 42960 02511 10177 20120 40159 57007=
85586,2013,03,18,00,00,AAXX 18004 85586 12958 03306 10144 20118 40159 54001 60001 70500 333 10189=
85586,2013,03,18,03,00,AAXX 18034 85586 NIL=
85586,2013,03,18,06,00,AAXX 18064 85586 NIL=
85586,2013,03,18,09,00,AAXX 18094 85586 NIL=
85586,2013,03,18,12,00,AAXX 18124 85586 12340 80000 10134 20107 40163 51016 60004 7052/ 886// 333 20111 30/// 50240 55084 56799 86709=
85586,2013,03,18,15,00,AAXX 18154 85586 41458 52707 10162 20095 40173 52011 70522 83501 333 56606 83615 84070=
85586,2013,03,18,18,00,AAXX 18184 85586 11958 52706 10180 20100 40172 54002 60001 70522 83031 333 56066 83360 85070=
85586,2013,03,18,21,00,AAXX 18214 85586 41458 62905 10162 20113 40175 54002 70522 86800 333 56600 83813 86620=
85586,2013,03,19,00,00,AAXX 19004 85586 12340 82704 10154 20117 40178 53003 60001 70522 886// 333 10182 56799 88707=
85586,2013,03,19,03,00,AAXX 19034 85586 NIL=
85586,2013,03,19,06,00,AAXX 19064 85586 NIL=
85586,2013,03,19,09,00,AAXX 19094 85586 NIL=
85586,2013,03,19,12,00,AAXX 19124 85586 11440 80000 10130 20095 40171 52009 60004 7052/ 885// 333 20128 30/// 50210 55057 56099 88613=
85586,2013,03,19,15,00,AAXX 19154 85586 41457 82704 10152 20102 40173 52003 70522 885// 333 56699 88617=
85586,2013,03,19,18,00,AAXX 19184 85586 12960 02408 10180 20080 40168 56004 60001=
85586,2013,03,19,21,00,AAXX 19214 85586 42560 22508 10170 20089 40168 56004 82100 333 56600 82820=
85586,2013,03,20,00,00,AAXX 20004 85586 12460 82403 10142 20102 40180 52012 60001 885// 333 10182 56099 88617=
85586,2013,03,20,03,00,AAXX 20034 85586 NIL=
85586,2013,03,20,06,00,AAXX 20064 85586 NIL=
85586,2013,03,20,09,00,AAXX 20094 85586 NIL=
85586,2013,03,20,12,00,AAXX 20124 85586 11558 81802 10138 20096 40172 52008 60004 7052/ 885// 333 20130 30/// 50230 55045 56099 88620=
85586,2013,03,20,15,00,AAXX 20154 85586 42960 62605 10162 20109 40179 52007 80002 333 56006 86075=
85586,2013,03,20,18,00,AAXX 20184 85586 12960 52408 10180 20104 40175 58004 60001 80002 333 56006 85075=
85586,2013,03,20,21,00,AAXX 20214 85586 42960 12507 10176 20119 40170 57005 80002 333 56006 81075=
85586,2013,03,21,00,00,AAXX 21004 85586 12560 33102 10140 20119 40173 53003 60001 83500 333 10192 56600 83620=
85586,2013,03,21,03,00,AAXX 21034 85586 NIL=
85586,2013,03,21,06,00,AAXX 21064 85586 NIL=
85586,2013,03,21,09,00,AAXX 21094 85586 NIL=
85586,2013,03,21,12,00,AAXX 21124 85586 NIL=
85586,2013,03,21,15,00,AAXX 21154 85586 42960 02705 10194 20122 40164 56004=
85586,2013,03,21,18,00,AAXX 21184 85586 12960 02310 10200 20117 40153 57009 60001=
85586,2013,03,21,21,00,AAXX 21214 85586 42960 02210 10180 20104 40140 57012=
85586,2013,03,22,00,00,AAXX 22004 85586 12960 01003 10144 20084 40144 51003 60001 333 10204=
85586,2013,03,22,03,00,AAXX 22034 85586 NIL=
85586,2013,03,22,06,00,AAXX 22064 85586 NIL=
85586,2013,03,22,09,00,AAXX 22094 85586 NIL=
85586,2013,03,22,12,00,AAXX 22124 85586 11958 80000 10098 20089 40167 51010 60004 7050/ 333 20067 30/// 50180 55102=
85586,2013,03,22,15,00,AAXX 22154 85586 42960 12805 10176 20110 40173 52007 80001 333 56000 81070=
85586,2013,03,22,18,00,AAXX 22184 85586 12960 12606 10182 20078 40172 54001 60001 80001 333 56000 81070=
85586,2013,03,22,21,00,AAXX 22214 85586 42960 12406 10180 20108 40171 54001 80001 333 56000 81070=
85586,2013,03,23,00,00,AAXX 23004 85586 12958 00000 10142 20104 40180 53009 60001 70500 333 10188=
85586,2013,03,23,03,00,AAXX 23034 85586 NIL=
85586,2013,03,23,06,00,AAXX 23064 85586 NIL=
85586,2013,03,23,09,00,AAXX 23094 85586 NIL=
85586,2013,03,23,12,00,AAXX 23124 85586 12360 80000 10101 20082 40183 53014 60004 886// 333 20074 30/// 50190 55103 56799 70000 88708=
85586,2013,03,23,15,00,AAXX 23154 85586 41358 52709 10171 20121 40185 51003 70500 81601 333 56706 81708 84075=
85586,2013,03,23,18,00,AAXX 23184 85586 11358 62807 10183 20123 40182 58003 60001 70511 81601 333 56706 81709 86075=
85586,2013,03,23,21,00,AAXX 23214 85586 42460 73005 10171 20124 40172 57010 82501 333 56706 82615 87075=
85586,2013,03,24,00,00,AAXX 24004 85586 11358 43304 10151 20122 40170 56003 60001 70511 84600 333 10185 56700 84707=
85586,2013,03,24,03,00,AAXX 24034 85586 NIL=
85586,2013,03,24,06,00,AAXX 24064 85586 NIL=
85586,2013,03,24,09,00,AAXX 24094 85586 NIL=
85586,2013,03,24,12,00,AAXX 24124 85586 11206 80000 10111 20098 40166 53004 60004 74644 886// 333 20098 30/// 50180 55059 56799 70000 88704=
85586,2013,03,24,15,00,AAXX 24154 85586 41208 62608 10152 20115 40169 51003 74644 82606 333 56706 82704 86075=
85586,2013,03,24,18,00,AAXX 24184 85586 12960 42410 10196 20120 40159 57009 60001 80001 333 56006 84075=
85586,2013,03,24,21,00,AAXX 24214 85586 42960 02312 10201 20125 40143 57013=
85586,2013,03,25,00,00,AAXX 25004 85586 11958 30000 10163 20127 40159 53013 60001 70500 80001 333 10208 56006 83075=
85586,2013,03,25,03,00,AAXX 25034 85586 NIL=
85586,2013,03,25,06,00,AAXX 25064 85586 NIL=
85586,2013,03,25,09,00,AAXX 25094 85586 NIL=
85586,2013,03,25,12,00,AAXX 25124 85586 12960 00000 10100 20085 40157 52007 60004 333 20074 30/// 50260 55087 70000=
85586,2013,03,25,15,00,AAXX 25154 85586 42960 02304 10210 20137 40153 56003=
85586,2013,03,25,18,00,AAXX 25184 85586 12960 02409 10200 20108 40147 57008 60001=
85586,2013,03,25,21,00,AAXX 25214 85586 42960 09902 10206 20105 40125 57022=
85586,2013,03,26,00,00,AAXX 26004 85586 12960 03004 10162 20097 40131 52007 60001 333 10214=
85586,2013,03,26,03,00,AAXX 26034 85586 NIL=
85586,2013,03,26,06,00,AAXX 26064 85586 NIL=
85586,2013,03,26,09,00,AAXX 26094 85586 NIL=
85586,2013,03,26,12,00,AAXX 26124 85586 12960 00000 10096 20081 40131 52009 60004 333 20066 30/// 50280 55099 70000=
85586,2013,03,26,15,00,AAXX 26154 85586 42960 02804 10182 20096 40142 52011=
85586,2013,03,26,18,00,AAXX 26184 85586 12960 02406 10192 20090 40142 54002 60001=
85586,2013,03,26,21,00,AAXX 26214 85586 42960 02707 10190 20095 40135 57007=
85586,2013,03,27,00,00,AAXX 27004 85586 12960 03203 10154 20119 40141 52006 60001 333 10204=
85586,2013,03,27,03,00,AAXX 27034 85586 NIL=
85586,2013,03,27,06,00,AAXX 27064 85586 NIL=
85586,2013,03,27,09,00,AAXX 27094 85586 NIL=
85586,2013,03,27,12,00,AAXX 27124 85586 11312 80000 10130 20119 40158 52007 60004 7104/ 886// 333 20066 30/// 50280 55101 56099 70000 88707=
85586,2013,03,27,15,00,AAXX 27154 85586 41430 82805 10146 20124 40165 52008 71022 885// 333 56699 88610=
85586,2013,03,27,18,00,AAXX 27184 85586 11457 42306 10164 20120 40155 54002 60001 70520 84500 333 56500 84617=
85586,2013,03,27,21,00,AAXX 27214 85586 41558 83505 10154 20114 40148 57007 70522 885// 333 56799 88620=
85586,2013,03,28,00,00,AAXX 28004 85586 11450 83303 10144 20122 40146 56002 60001 70522 885// 333 10170 56099 88612=
85586,2013,03,28,03,00,AAXX 28034 85586 NIL=
85586,2013,03,28,06,00,AAXX 28064 85586 NIL=
85586,2013,03,28,09,00,AAXX 28094 85586 NIL=
85586,2013,03,28,12,00,AAXX 28124 85586 11208 80604 10134 20123 40166 53009 69904 75044 886// 333 20129 31/// 50180 55012 56799 70000 88704=
85586,2013,03,28,15,00,AAXX 28154 85586 41330 89902 10148 20123 40171 51005 71042 886// 333 56099 88708=
85586,2013,03,28,18,00,AAXX 28184 85586 11435 82905 10164 20124 40171 54000 60001 71022 885// 333 56799 88610=
85586,2013,03,28,21,00,AAXX 28214 85586 41450 83005 10164 20130 40167 57003 70522 885// 333 56799 88615=
85586,2013,03,29,00,00,AAXX 29004 85586 NIL=
85586,2013,03,29,03,00,AAXX 29034 85586 NIL=
85586,2013,03,29,06,00,AAXX 29064 85586 NIL=
85586,2013,03,29,09,00,AAXX 29094 85586 NIL=
85586,2013,03,29,12,00,AAXX 29124 85586 11330 81705 10154 20117 40166 53006 69904 70522 886// 333 20151 30/// 50160 55001 56799 70000 88709=
85586,2013,03,29,15,00,AAXX 29154 85586 41440 81804 10177 20114 40173 51007 70522 885// 333 56799 88612=
85586,2013,03,29,18,00,AAXX 29184 85586 11958 52511 10181 20120 40170 58002 60001 70511 80001 333 56006 85075=
85586,2013,03,29,21,00,AAXX 29214 85586 41456 72309 10162 20130 40170 50000 70511 87500 333 56700 87615=
85586,2013,03,30,00,00,AAXX 30004 85586 11220 82804 10143 20121 40175 53004 60001 71022 886// 333 10187 56799 88704=
85586,2013,03,30,03,00,AAXX 30034 85586 NIL=
85586,2013,03,30,06,00,AAXX 30064 85586 NIL=
85586,2013,03,30,09,00,AAXX 30094 85586 NIL=
85586,2013,03,30,12,00,AAXX 30124 85586 11208 80000 10134 20120 40172 53013 69913 75055 886// 333 20132 31/// 50160 55046 56799 70001 88704=
85586,2013,03,30,15,00,AAXX 30154 85586 41340 80000 10151 20125 40174 51002 70544 886// 333 56799 88708=
85586,2013,03,30,18,00,AAXX 30184 85586 11256 82408 10156 20127 40164 57009 69901 70522 885// 333 56799 82704 88612=
85586,2013,03,30,21,00,AAXX 30214 85586 41220 80000 10144 20125 40161 56004 71022 886// 333 56799 88704=
85586,2013,03,31,00,00,AAXX 31004 85586 11103 80000 10141 20135 40156 56005 60001 74622 886// 333 10169 56799 88703=
85586,2013,03,31,03,00,AAXX 31034 85586 NIL=
85586,2013,03,31,06,00,AAXX 31064 85586 NIL=
85586,2013,03,31,09,00,AAXX 31094 85586 NIL=
85586,2013,03,31,12,00,AAXX 31124 85586 11215 80000 10130 20121 40160 52012 69914 7504/ 886// 333 20128 31/// 50130 55000 56099 70001 88704=
85586,2013,03,31,15,00,AAXX 31154 85586 41320 83102 10138 20128 40169 52009 71052 886// 333 56099 88707=
85586,2013,03,31,18,00,AAXX 31184 85586 11450 83204 10154 20119 40168 54001 60001 70522 885// 333 56699 83613 88620=
85586,2013,03,31,21,00,AAXX 31214 85586 41456 83005 10148 20116 40180 52012 70522 885// 333 56699 83613 88620=
85586,2013,04,01,00,00,AAXX 01004 85586 11457 72902 10128 20108 40187 52007 60001 70522 84530 333 10161 56660 84617 85363=
85586,2013,04,01,03,00,AAXX 01034 85586 NIL=
85586,2013,04,01,06,00,AAXX 01064 85586 NIL=
85586,2013,04,01,09,00,AAXX 01094 85586 NIL=
85586,2013,04,01,12,00,AAXX 01124 85586 11558 80000 10128 20111 40164 52006 60004 7052/ 8353/ 333 20120 30/// 50150 55000 56669 70000 83626 87363=
85586,2013,04,01,15,00,AAXX 01154 85586 42560 79902 10172 20092 40167 54001 82550 333 56000 82630 87362=
85586,2013,04,01,18,00,AAXX 01184 85586 12560 32608 10180 20113 40172 51005 60001 83530 333 56600 83627=
85586,2013,04,01,21,00,AAXX 01214 85586 42560 42407 10168 20106 40184 52012 84500 333 56500 84627=
85586,2013,04,02,00,00,AAXX 02004 85586 12960 00000 10126 20112 40199 52015 60001 333 10188=
85586,2013,04,02,03,00,AAXX 02034 85586 NIL=
85586,2013,04,02,06,00,AAXX 02064 85586 NIL=
85586,2013,04,02,09,00,AAXX 02094 85586 NIL=
85586,2013,04,02,12,00,AAXX 02124 85586 12960 10902 10090 20080 40191 52010 60004 70200 81030 333 20076 30/// 50170 55038 56060 70000 81365=
85586,2013,04,02,15,00,AAXX 02154 85586 42960 02706 10172 20111 40196 56004=
85586,2013,04,02,18,00,AAXX 02184 85586 11258 32412 10164 20121 40179 57017 60001 70511 83700 333 56600 83706=
85586,2013,04,02,21,00,AAXX 02214 85586 42360 22309 10154 20126 40173 56006 82600 333 56600 82708=
85586,2013,04,03,00,00,AAXX 03004 85586 12960 00606 10130 20125 40174 52001 60001 333 10176=
85586,2013,04,03,03,00,AAXX 03034 85586 NIL=
85586,2013,04,03,06,00,AAXX 03064 85586 NIL=
85586,2013,04,03,09,00,AAXX 03094 85586 NIL=
85586,2013,04,03,12,00,AAXX 03124 85586 11220 80000 10120 20109 40153 53009 60004 71022 886// 333 20118 30/// 50210 55098 56099 70000 88705=
85586,2013,04,03,15,00,AAXX 03154 85586 41340 83104 10133 20121 40159 52006 71022 886// 333 56099 56099 88707=
85586,2013,04,03,18,00,AAXX 03184 85586 11230 82906 10139 20122 40153 58006 60001 70522 886// 333 56099 88705=
85586,2013,04,03,21,00,AAXX 03214 85586 41350 83103 10144 20127 40143 57010 70522 886// 333 56099 88707=
85586,2013,04,04,00,00,AAXX 04004 85586 11330 80000 10140 20129 40155 53012 60001 71022 886// 333 10146 56099 88707=
85586,2013,04,04,03,00,AAXX 04034 85586 NIL=
85586,2013,04,04,06,00,AAXX 04064 85586 NIL=
85586,2013,04,04,09,00,AAXX 04094 85586 NIL=
85586,2013,04,04,12,00,AAXX 04124 85586 11550 80403 10147 20117 40182 52010 60004 70522 885// 333 20144 50180 55000 56699 70000 88620=
85586,2013,04,04,15,00,AAXX 04154 85586 41557 83505 10162 20101 40192 52011 70522 885// 333 56899 88625=
85586,2013,04,04,18,00,AAXX 04184 85586 12560 72905 10182 20096 40191 50001 60001 87500 333 56700 87625=
85586,2013,04,04,21,00,AAXX 04214 85586 42960 02706 10182 20096 40182 57011=
85586,2013,04,05,00,00,AAXX 05004 85586 11956 00000 10136 20108 40190 53004 60001 70500 333 10194=
85586,2013,04,05,03,00,AAXX 05034 85586 NIL=
85586,2013,04,05,06,00,AAXX 05064 85586 NIL=
85586,2013,04,05,09,00,AAXX 05094 85586 NIL=
85586,2013,04,05,12,00,AAXX 05124 85586 11956 40000 10086 20073 40183 53011 60004 70500 84030 333 20054 30/// 50150 55033 56060 70000 84365=
85586,2013,04,05,15,00,AAXX 05154 85586 41958 42606 10162 20105 40195 52013 70511 80009 333 56006 84173=
85586,2013,04,05,18,00,AAXX 05184 85586 12960 52606 10162 20118 40191 56004 60001 85030 333 56060 85365=
85586,2013,04,05,21,00,AAXX 05214 85586 42560 72307 10148 20123 40189 56003 83530 333 56550 83625 87362=
85586,2013,04,06,00,00,AAXX 06004 85586 11956 00204 10138 20111 40199 53010 60001 70511 333 10180=
85586,2013,04,06,03,00,AAXX 06034 85586 NIL=
85586,2013,04,06,06,00,AAXX 06064 85586 NIL=
85586,2013,04,06,09,00,AAXX 06094 85586 NIL=
85586,2013,04,06,12,00,AAXX 06124 85586 12960 01404 10094 20083 40199 53007 60004 333 20064 30/// 50140 55043 70000=
85586,2013,04,06,15,00,AAXX 06154 85586 42960 01612 10203 20134 40194 58005=
85586,2013,04,06,18,00,AAXX 06184 85586 12960 02315 10184 20109 40179 57015 60001=
85586,2013,04,06,21,00,AAXX 06214 85586 42960 02315 10171 20109 40168 57011=
85586,2013,04,07,00,00,AAXX 07004 85586 11956 00000 10129 20090 40177 53008 60001 70500 333 10205=
85586,2013,04,07,03,00,AAXX 07034 85586 NIL=
85586,2013,04,07,06,00,AAXX 07064 85586 NIL=
85586,2013,04,07,09,00,AAXX 07094 85586 NIL=
85586,2013,04,07,12,00,AAXX 07124 85586 12960 21202 10086 20076 40177 52006 60004 80001 333 20042 30/// 50260 55101 56006 70000 82075=
85586,2013,04,07,15,00,AAXX 07154 85586 42960 02406 10170 20075 40180 52003=
85586,2013,04,07,18,00,AAXX 07184 85586 12960 02309 10176 20078 40163 58017 60001=
85586,2013,04,07,21,00,AAXX 07214 85586 42960 02404 10174 20084 40150 57013=
85586,2013,04,08,00,00,AAXX 08004 85586 12960 00000 10116 20076 40153 53003 60001 333 10190=
85586,2013,04,08,03,00,AAXX 08034 85586 NIL=
85586,2013,04,08,06,00,AAXX 08064 85586 NIL=
85586,2013,04,08,09,00,AAXX 08094 85586 NIL=
85586,2013,04,08,12,00,AAXX 08124 85586 12960 11204 10066 20056 40134 52005 60004 80001 333 20046 30/// 50240 55098 56006 70000 81075=
85586,2013,04,08,15,00,AAXX 08154 85586 42960 22805 10186 20064 40140 52006 80001 333 56000 82075=
85586,2013,04,08,18,00,AAXX 08184 85586 12960 32805 10170 20096 40147 52007 60001 80001 333 56006 83075=
85586,2013,04,08,21,00,AAXX 08214 85586 42960 32906 10162 20093 40145 54002 80001 333 56006 83073=
85586,2013,04,09,00,00,AAXX 09004 85586 12460 40000 10116 20099 40152 52006 60001 82501 333 10183 56606 82613 83075=
85586,2013,04,09,03,00,AAXX 09034 85586 NIL=
85586,2013,04,09,06,00,AAXX 09064 85586 NIL=
85586,2013,04,09,09,00,AAXX 09094 85586 NIL=
85586,2013,04,09,12,00,AAXX 09124 85586 11435 80000 10124 20109 40167 52009 60004 70522 8453/ 333 20064 30/// 50230 55096 56669 70000 82613 83620 87362=
85586,2013,04,09,15,00,AAXX 09154 85586 41558 72904 10152 20111 40171 51003 70522 84530 333 56700 84625 87360=
85586,2013,04,09,18,00,AAXX 09184 85586 12560 83204 10158 20119 40171 54000 60001 888// 333 56799 83825 88650=
85586,2013,04,09,21,00,AAXX 09214 85586 42560 72904 10152 20121 40172 54001 82530 333 56770 82630 87362=
85586,2013,04,10,00,00,AAXX 10004 85586 12460 80000 10144 20129 40186 52014 60001 885// 333 10166 56699 88617=
85586,2013,04,10,03,00,AAXX 10034 85586 NIL=
85586,2013,04,10,06,00,AAXX 10064 85586 NIL=
85586,2013,04,10,09,00,AAXX 10094 85586 NIL=
85586,2013,04,10,12,00,AAXX 10124 85586 12560 80000 10124 20104 40168 53008 60004 885// 333 20103 30/// 50160 55000 56699 70000 88620=
85586,2013,04,10,15,00,AAXX 10154 85586 42960 00403 10172 20120 40170 52002=
85586,2013,04,10,18,00,AAXX 10184 85586 12960 02508 10172 20120 40175 52005 60001=
85586,2013,04,10,21,00,AAXX 10214 85586 42460 22406 10162 20124 40173 58005 82500 333 56600 82615=
85586,2013,04,11,00,00,AAXX 11004 85586 12460 60000 10138 20109 40172 52002 60001 86500 333 10183 56600 86615=
85586,2013,04,11,03,00,AAXX 11034 85586 NIL=
85586,2013,04,11,06,00,AAXX 11064 85586 NIL=
85586,2013,04,11,09,00,AAXX 11094 85586 NIL=
85586,2013,04,11,12,00,AAXX 11124 85586 12460 60000 10096 20085 40186 53013 60004 81501 333 20093 30/// 50170 55074 56606 70000 81618 85073=
85586,2013,04,11,15,00,AAXX 11154 85586 42560 52606 10150 20112 40192 51003 85500 333 56600 85625=
85586,2013,04,11,18,00,AAXX 11184 85586 12560 32410 10168 20118 40183 57009 60001 83100 333 56500 83830=
85586,2013,04,11,21,00,AAXX 11214 85586 42960 02308 10162 20096 40179 56004=
85586,2013,04,12,00,00,AAXX 12004 85586 11956 00000 10109 20076 40196 53018 60001 70500 333 10172=
85586,2013,04,12,03,00,AAXX 12034 85586 NIL=
85586,2013,04,12,06,00,AAXX 12064 85586 NIL=
85586,2013,04,12,09,00,AAXX 12094 85586 NIL=
85586,2013,04,12,12,00,AAXX 12124 85586 12960 01206 10098 20064 40194 58002 60003 333 20056 30/// 50170 55082 70000=
85586,2013,04,12,15,00,AAXX 12154 85586 42960 02606 10186 20059 40195 54001=
85586,2013,04,12,18,00,AAXX 12184 85586 12960 02310 10156 20060 40184 57011 60001=
85586,2013,04,12,21,00,AAXX 12214 85586 42960 12308 10152 20072 40174 57010 80001 333 56006 81073=
85586,2013,04,13,00,00,AAXX 13004 85586 11956 60604 10109 20059 40188 53013 60001 70500 80001 333 10188 56006 86075=
85586,2013,04,13,03,00,AAXX 13034 85586 NIL=
85586,2013,04,13,06,00,AAXX 13064 85586 NIL=
85586,2013,04,13,09,00,AAXX 13094 85586 NIL=
85586,2013,04,13,12,00,AAXX 13124 85586 12960 01204 10081 20051 40176 56003 60004 333 20034 30/// 50210 55102 70000=
85586,2013,04,13,15,00,AAXX 13154 85586 41958 52409 10164 20062 40174 54001 70500 80001 333 56006 85075=
85586,2013,04,13,18,00,AAXX 13184 85586 12960 72409 10178 20075 40159 58015 60001 80001 333 56006 87075=
85586,2013,04,13,21,00,AAXX 13214 85586 42960 73404 10171 20082 40145 56013 80001 333 56006 87075=
85586,2013,04,14,00,00,AAXX 14004 85586 11956 00000 10104 20063 40139 56007 60001 70500 333 10181=
85586,2013,04,14,03,00,AAXX 14034 85586 NIL=
85586,2013,04,14,06,00,AAXX 14064 85586 NIL=
85586,2013,04,14,09,00,AAXX 14094 85586 NIL=
85586,2013,04,14,12,00,AAXX 14124 85586 12960 00000 10050 20039 40125 52007 60004 333 20040 50220 55073 70000=
85586,2013,04,14,15,00,AAXX 14154 85586 42960 02404 10210 20054 40124 56001=
85586,2013,04,14,18,00,AAXX 14184 85586 12960 02505 10200 20050 40120 57004 60001=
85586,2013,04,14,21,00,AAXX 14214 85586 42960 02904 10174 20069 40122 53002=
85586,2013,04,15,00,00,AAXX 15004 85586 12960 03104 10130 20108 40139 52017 60001 333 10212=
85586,2013,04,15,03,00,AAXX 15034 85586 NIL=
85586,2013,04,15,06,00,AAXX 15064 85586 NIL=
85586,2013,04,15,09,00,AAXX 15094 85586 NIL=
85586,2013,04,15,12,00,AAXX 15124 85586 11206 81203 10108 20098 40137 52006 69914 74652 886// 333 20080 31/// 50260 55088 56099 70001 88704=
85586,2013,04,15,15,00,AAXX 15154 85586 41206 82505 10132 20120 40144 52007 74042 886// 333 56699 88706=
85586,2013,04,15,18,00,AAXX 15184 85586 11308 82805 10122 20106 40152 52007 60001 74442 886// 333 56699 88708=
85586,2013,04,15,21,00,AAXX 15214 85586 41315 83004 10126 20103 40159 52007 71042 886// 333 56799 88708=
85586,2013,04,16,00,00,AAXX 16004 85586 11320 83302 10118 20097 40166 52007 60001 71022 886// 333 10140 56099 88708=
85586,2013,04,16,03,00,AAXX 16034 85586 NIL=
85586,2013,04,16,06,00,AAXX 16064 85586 NIL=
85586,2013,04,16,09,00,AAXX 16094 85586 NIL=
85586,2013,04,16,12,00,AAXX 16124 85586 11340 80000 10108 20095 40170 52007 60004 71022 886// 333 20108 30/// 50100 55011 56099 70000 88708=
85586,2013,04,16,15,00,AAXX 16154 85586 41330 89901 10122 20101 40177 52007 71042 886// 333 56099 88708=
85586,2013,04,16,18,00,AAXX 16184 85586 11340 82705 10130 20107 40171 56006 60001 71042 886// 333 56699 88708=
85586,2013,04,16,21,00,AAXX 16214 85586 41330 82703 10128 20112 40168 57003 71042 886// 333 56699 88708=
85586,2013,04,17,00,00,AAXX 17004 85586 11208 80000 10120 20116 40163 57005 60001 74444 886// 333 10138 56799 88704=
85586,2013,04,17,03,00,AAXX 17034 85586 NIL=
85586,2013,04,17,06,00,AAXX 17064 85586 NIL=
85586,2013,04,17,09,00,AAXX 17094 85586 NIL=
85586,2013,04,17,12,00,AAXX 17124 85586 11105 80705 10095 20091 40148 57003 60004 74444 886// 333 20095 30/// 50120 55000 56099 70000 88702=
85586,2013,04,17,15,00,AAXX 17154 85586 41106 82804 10104 20100 40154 53006 74444 886// 333 56099 88703=
85586,2013,04,17,18,00,AAXX 17184 85586 11106 83004 10114 20106 40146 58007 74444 886// 333 56099 88703=
85586,2013,04,17,21,00,AAXX 17214 85586 41103 83204 10107 20103 40147 53001 74444 886// 333 56099 88702=
85586,2013,04,18,00,00,AAXX 18004 85586 NIL=
85586,2013,04,18,03,00,AAXX 18034 85586 NIL=
85586,2013,04,18,06,00,AAXX 18064 85586 NIL=
85586,2013,04,18,09,00,AAXX 18094 85586 NIL=
85586,2013,04,18,12,00,AAXX 18124 85586 11115 80000 10102 20098 40151 53008 69994 71054 886// 333 20102 31/// 50060 55000 56099 70004 88703=
85586,2013,04,18,15,00,AAXX 18154 85586 41315 89901 10116 20107 40158 52008 71042 886// 333 56099 88708=
85586,2013,04,18,18,00,AAXX 18184 85586 11450 89902 10136 20118 40151 56007 60001 70522 886// 333 56099 88710=
85586,2013,04,18,21,00,AAXX 18214 85586 41320 89901 10132 20112 40146 56004 71022 886// 333 56099 88708=
85586,2013,04,19,00,00,AAXX 19004 85586 11208 80000 10131 20121 40142 58003 69901 75044 886// 333 10138 56799 88704=
85586,2013,04,19,03,00,AAXX 19034 85586 NIL=
85586,2013,04,19,06,00,AAXX 19064 85586 NIL=
85586,2013,04,19,09,00,AAXX 19094 85586 NIL=
85586,2013,04,19,12,00,AAXX 19124 85586 11020 83307 10126 20112 40161 52012 69963 71022 886// 333 20121 31/// 50130 55000 56799 70006 88700=
85586,2013,04,19,15,00,AAXX 19154 85586 41308 83306 10132 20123 40177 52017 75152 886// 333 56799 88708=
85586,2013,04,19,18,00,AAXX 19184 85586 11460 73205 10162 20121 40173 56004 69921 70242 87800 333 56700 83812 87620=
85586,2013,04,19,21,00,AAXX 19214 85586 41457 82603 10142 20110 40171 54002 70522 885// 333 56699 88618=
85586,2013,04,20,00,00,AAXX 20004 85586 11456 80000 10141 20118 40173 53002 60001 70522 885// 333 10166 56799 88615=
85586,2013,04,20,03,00,AAXX 20034 85586 NIL=
85586,2013,04,20,06,00,AAXX 20064 85586 NIL=
85586,2013,04,20,09,00,AAXX 20094 85586 NIL=
85586,2013,04,20,12,00,AAXX 20124 85586 12560 40707 10143 20092 40186 51011 69954 84500 333 20078 30/// 50130 55004 56700 70005 84625=
85586,2013,04,20,15,00,AAXX 20154 85586 42460 23008 10188 20106 40192 51007 82500 333 56700 82615=
85586,2013,04,20,18,00,AAXX 20184 85586 12960 03015 10199 20096 40196 53005 60001=
85586,2013,04,20,21,00,AAXX 20214 85586 42960 03009 10184 20105 40205 51008=
85586,2013,04,21,00,00,AAXX 21004 85586 11956 51004 10122 20083 40220 52014 60001 70500 80001 333 10201 56006 85075=
85586,2013,04,21,03,00,AAXX 21034 85586 NIL=
85586,2013,04,21,06,00,AAXX 21064 85586 NIL=
85586,2013,04,21,09,00,AAXX 21094 85586 NIL=
85586,2013,04,21,12,00,AAXX 21124 85586 12960 01005 10094 20084 40187 52011 60004 333 20064 30/// 50250 55099 70000=
85586,2013,04,21,15,00,AAXX 21154 85586 42960 02604 10176 20099 40183 58004=
85586,2013,04,21,18,00,AAXX 21184 85586 12960 02507 10180 20110 40185 53002 60001=
85586,2013,04,21,21,00,AAXX 21214 85586 42960 02803 10186 20134 40188 52003=
85586,2013,04,22,00,00,AAXX 22004 85586 12960 00000 10124 20104 40200 52012 60001 333 10190=
85586,2013,04,22,03,00,AAXX 22034 85586 NIL=
85586,2013,04,22,06,00,AAXX 22064 85586 NIL=
85586,2013,04,22,09,00,AAXX 22094 85586 NIL=
85586,2013,04,22,12,00,AAXX 22124 85586 11206 71204 10086 20078 40192 52006 60004 7462/ 86601 333 20072 30/// 50210 55097 56606 70000 86703 84075=
85586,2013,04,22,15,00,AAXX 22154 85586 41960 32704 10158 20113 40197 51005 70242 80001 333 56000 83075=
85586,2013,04,22,18,00,AAXX 22184 85586 NIL=
85586,2013,04,22,21,00,AAXX 22214 85586 41208 72405 10138 20118 40184 57006 74042 87600 333 56600 87706=
85586,2013,04,23,00,00,AAXX 23004 85586 11450 70404 10126 20113 40185 54001 60001 71044 87600 333 10174 56600 87710=
85586,2013,04,23,03,00,AAXX 23034 85586 NIL=
85586,2013,04,23,06,00,AAXX 23064 85586 NIL=
85586,2013,04,23,09,00,AAXX 23094 85586 NIL=
85586,2013,04,23,12,00,AAXX 23124 85586 12960 70000 10072 20060 40176 52009 60004 80001 333 20068 30/// 50180 55072 56006 70000 87075=
85586,2013,04,23,15,00,AAXX 23154 85586 42960 52705 10188 20113 40178 54001 80004 333 56000 85075=
85586,2013,04,23,18,00,AAXX 23184 85586 12960 62408 10182 20107 40157 57011 60001 80008 333 56006 86273=
85586,2013,04,23,21,00,AAXX 23214 85586 42960 62303 10168 20100 40157 54000 82036 333 56066 82365 86070=
85586,2013,04,24,00,00,AAXX 24004 85586 12960 30000 10122 20096 40168 52011 60001 80001 333 10224 56006 83073=
85586,2013,04,24,03,00,AAXX 24034 85586 NIL=
85586,2013,04,24,06,00,AAXX 24064 85586 NIL=
85586,2013,04,24,09,00,AAXX 24094 85586 NIL=
85586,2013,04,24,12,00,AAXX 24124 85586 11/02 90000 10066 20062 40169 53004 60004 74744 333 20047 30/// 50060 55043 70000 89/01=
85586,2013,04,24,15,00,AAXX 24154 85586 41206 73004 10124 20102 40167 54000 74642 87600 333 56600 87705=
85586,2013,04,24,18,00,AAXX 24184 85586 11102 82704 10120 20103 40165 56003 60001 74542 886// 333 56699 88703=
85586,2013,04,24,21,00,AAXX 24214 85586 41220 82603 10120 20102 40165 54000 71042 886// 333 56699 88706=
85586,2013,04,25,00,00,AAXX 25004 85586 11220 89901 10108 20091 40165 54000 60001 71042 886// 333 10126 56699 88706=
85586,2013,04,25,03,00,AAXX 25034 85586 NIL=
85586,2013,04,25,06,00,AAXX 25064 85586 NIL=
85586,2013,04,25,09,00,AAXX 25094 85586 NIL=
85586,2013,04,25,12,00,AAXX 25124 85586 11450 80000 10113 20089 40172 53009 60004 70522 886// 333 20113 30/// 50060 55017 56099 70000 88710=
85586,2013,04,25,18,00,AAXX 25184 85586 12560 82903 10124 20087 40165 58015 60001 885// 333 56699 88620=
85586,2013,04,25,21,00,AAXX 25214 85586 42460 72103 10122 20084 40155 57010 87500 333 56600 87618=
85586,2013,04,26,00,00,AAXX 26004 85586 11220 82404 10118 20090 40152 56002 60001 71022 886// 333 10128 56799 88704=
85586,2013,04,26,03,00,AAXX 26034 85586 NIL=
85586,2013,04,26,06,00,AAXX 26064 85586 NIL=
85586,2013,04,26,09,00,AAXX 26094 85586 NIL=
85586,2013,04,26,12,00,AAXX 26124 85586 11558 80804 10112 20091 40188 52015 60004 70522 885// 333 20102 30/// 50130 55000 56799 70000 88625=
85586,2013,04,26,15,00,AAXX 26154 85586 42460 83506 10161 20082 40205 52018 885// 333 56799 82815 88630=
85586,2013,04,26,18,00,AAXX 26184 85586 12460 32909 10181 20096 40208 51003 60001 81130 333 56760 81815 83362=
85586,2013,04,26,21,00,AAXX 26214 85586 42960 32706 10161 20093 40209 55001 81031 333 56066 81365 83075=
85586,2013,04,27,00,00,AAXX 27004 85586 11958 00000 10098 20065 40216 53006 60001 70500 333 10183=
85586,2013,04,27,03,00,AAXX 27034 85586 NIL=
85586,2013,04,27,06,00,AAXX 27064 85586 NIL=
85586,2013,04,27,09,00,AAXX 27094 85586 NIL=
85586,2013,04,27,12,00,AAXX 27124 85586 11258 11404 10073 20060 40216 53005 60004 70500 81600 333 20051 30/// 50110 55053 56700 70000 81704=
85586,2013,04,27,15,00,AAXX 27154 85586 41956 22308 10157 20086 40213 55001 70500 80001 333 56006 82075=
85586,2013,04,27,18,00,AAXX 27184 85586 11258 22410 10171 20102 40201 58012 60001 70500 81630 333 56760 81704=
85586,2013,04,27,21,00,AAXX 27214 85586 42960 22505 10177 20101 40189 56012 82030 333 56060 82365=
85586,2013,04,28,00,00,AAXX 28004 85586 11956 01604 10102 20073 40179 56011 60001 70500 333 10186=
85586,2013,04,28,03,00,AAXX 28034 85586 NIL=
85586,2013,04,28,06,00,AAXX 28064 85586 NIL=
85586,2013,04,28,09,00,AAXX 28094 85586 NIL=
85586,2013,04,28,12,00,AAXX 28124 85586 11958 61202 10054 20039 40174 53003 60004 70522 80002 333 20048 30/// 50200 55095 56006 70000 86075=
85586,2013,04,28,15,00,AAXX 28154 85586 41958 60000 10126 20062 40180 52006 70522 80002 333 56006 86075=
85586,2013,04,28,18,00,AAXX 28184 85586 11958 42807 10160 20068 40175 58005 60001 70522 80002 333 56006 84075=
85586,2013,04,28,21,00,AAXX 28214 85586 42960 22504 10150 20098 40170 57005 80002 333 56006 82075=
85586,2013,04,29,00,00,AAXX 29004 85586 11456 72804 10120 20103 40177 52007 60001 70522 87600 333 10167 56600 87712=
85586,2013,04,29,03,00,AAXX 29034 85586 NIL=
85586,2013,04,29,06,00,AAXX 29064 85586 NIL=
85586,2013,04,29,09,00,AAXX 29094 85586 NIL=
85586,2013,04,29,12,00,AAXX 29124 85586 11450 80000 10094 20083 40178 52006 60004 70522 886// 333 20066 30/// 50160 55054 56099 70000 88713=
85586,2013,04,29,15,00,AAXX 29154 85586 41458 63003 10134 20092 40184 52006 70522 86501 333 56700 86518 84075=
85586,2013,04,29,18,00,AAXX 29184 85586 12960 32606 10148 20095 40175 57009 60001 80001 333 56000 83075=
85586,2013,04,29,21,00,AAXX 29214 85586 42560 53006 10142 20098 40179 50004 84502 333 56606 84620 85073=
85586,2013,04,30,00,00,AAXX 30004 85586 11458 79902 10132 20104 40185 52005 60001 70522 87500 333 10156 56600 87610=
85586,2013,04,30,03,00,AAXX 30034 85586 NIL=
85586,2013,04,30,06,00,AAXX 30064 85586 NIL=
85586,2013,04,30,09,00,AAXX 30094 85586 NIL=
85586,2013,04,30,12,00,AAXX 30124 85586 11457 81803 10110 20082 40168 52005 60004 70522 885// 333 20110 30/// 50190 55057 56099 70000 88617=
85586,2013,04,30,15,00,AAXX 30154 85586 41457 83203 10120 20093 40174 52006 70522 885// 333 56799 88612=
85586,2013,04,30,18,00,AAXX 30184 85586 11456 83005 10122 20093 40172 54002 60001 70522 885// 333 56799 88610=
85586,2013,04,30,21,00,AAXX 30214 85586 42560 53305 10132 20097 40172 54000 85500 333 56700 85620=
85586,2013,05,01,00,00,AAXX 01004 85586 11358 30000 10078 20060 40179 52007 60001 70511 83600 333 10132 56600 83708=
85586,2013,05,01,03,00,AAXX 01034 85586 NIL=
85586,2013,05,01,06,00,AAXX 01064 85586 NIL=
85586,2013,05,01,09,00,AAXX 01094 85586 NIL=
85586,2013,05,01,12,00,AAXX 01124 85586 12960 50805 10105 20076 40180 52005 60004 82031 333 20054 30/// 50007 55000 56066 70000 82365 83073=
85586,2013,05,01,15,00,AAXX 01154 85586 42960 57005 10182 20112 40194 52015 80001 333 56006 85073=
85586,2013,05,01,18,00,AAXX 01184 85586 12960 73107 10180 20130 40187 58006 60001 83131 333 56666 83830 83365=
85586,2013,05,01,21,00,AAXX 01214 85586 41560 60000 10171 20119 40182 57005 82131 333 56666 82830 83365=
85586,2013,05,02,00,00,AAXX 02004 85586 12960 30000 10133 20106 40186 53003 60001 80001 333 10202 56006 83073=
85586,2013,05,02,03,00,AAXX 02034 85586 NIL=
85586,2013,05,02,06,00,AAXX 02064 85586 NIL=
85586,2013,05,02,09,00,AAXX 02094 85586 NIL=
85586,2013,05,02,12,00,AAXX 02124 85586 12560 71004 10109 20091 40156 53005 60004 81271 333 20096 30/// 50050 55019 56666 70000 81830 85363=
85586,2013,05,02,15,00,AAXX 02154 85586 42660 79901 10172 20098 40167 52011 83150 333 56000 83840 87362=
85586,2013,05,02,18,00,AAXX 02184 85586 11540 89902 10156 20136 40166 54001 69951 76162 8272/ 333 56669 82825 88556=
85586,2013,05,02,21,00,AAXX 02214 85586 41560 70105 10184 20143 40166 54000 70262 85530 333 56800 85630 87362=
85586,2013,05,03,00,00,AAXX 03004 85586 11558 70607 10152 20138 40168 54002 60051 70582 87720 333 10186 56110 85825 87360=
85586,2013,05,03,03,00,AAXX 03034 85586 NIL=
85586,2013,05,03,06,00,AAXX 03064 85586 NIL=
85586,2013,05,03,09,00,AAXX 03094 85586 NIL=
85586,2013,05,03,12,00,AAXX 03124 85586 12460 50504 10154 20135 40224 52022 60254 85200 333 20094 32/// 50090 55000 56700 70249 85815=
85586,2013,05,03,15,00,AAXX 03154 85586 42460 62706 10182 20146 40236 52006 83202 333 56606 83815 86070=
85586,2013,05,03,18,00,AAXX 03184 85586 12460 62605 10198 20143 40216 57020 60001 82231 333 56666 82812 83365 85070=
85586,2013,05,03,21,00,AAXX 03214 85586 41457 62303 10170 20154 40201 57015 70522 82130 333 56660 82815 86365=
85586,2013,05,04,00,00,AAXX 04004 85586 11956 50000 10141 20122 40199 56002 60001 70511 80001 333 10201 56006 85075=
85586,2013,05,04,03,00,AAXX 04034 85586 NIL=
85586,2013,05,04,06,00,AAXX 04064 85586 NIL=
85586,2013,05,04,09,00,AAXX 04094 85586 NIL=
85586,2013,05,04,12,00,AAXX 04124 85586 12960 01404 10114 20096 40202 53008 60004 333 20081 31/// 50130 55040 70000=
85586,2013,05,04,15,00,AAXX 04154 85586 42960 00704 10197 20124 40202 53002=
85586,2013,05,04,18,00,AAXX 04184 85586 12960 01614 10228 20102 40197 58007 60001=
85586,2013,05,04,21,00,AAXX 04214 85586 42960 01612 10231 20092 40189 56006=
85586,2013,05,05,00,00,AAXX 05004 85586 11956 01705 10141 20087 40204 53013 60001 70500 333 10241=
85586,2013,05,05,03,00,AAXX 05034 85586 NIL=
85586,2013,05,05,06,00,AAXX 05064 85586 NIL=
85586,2013,05,05,09,00,AAXX 05094 85586 NIL=
85586,2013,05,05,12,00,AAXX 05124 85586 12960 11207 10116 20089 40190 52006 60004 80001 333 20104 30/// 50240 55099 56006 70000 81075=
85586,2013,05,05,15,00,AAXX 05154 85586 42960 11404 10204 20101 40188 58002 80002 333 56006 81075=
85586,2013,05,05,18,00,AAXX 05184 85586 12960 02810 10194 20097 40171 57017 60001=
85586,2013,05,05,21,00,AAXX 05214 85586 42960 03403 10202 20107 40171 54000=
85586,2013,05,06,00,00,AAXX 06004 85586 12960 00000 10099 20086 40187 53016 60001 333 10230=
85586,2013,05,06,03,00,AAXX 06034 85586 NIL=
85586,2013,05,06,06,00,AAXX 06064 85586 NIL=
85586,2013,05,06,09,00,AAXX 06094 85586 NIL=
85586,2013,05,06,12,00,AAXX 06124 85586 12960 11504 10078 20052 40217 52007 60004 80002 333 20054 30/// 50230 55097 56006 70000 81075=
85586,2013,05,06,15,00,AAXX 06154 85586 42960 01206 10184 20064 40221 51004=
85586,2013,05,06,18,00,AAXX 06184 85586 12960 01808 10246 20054 40190 57031 60001=
85586,2013,05,06,21,00,AAXX 06214 85586 42960 12404 10192 20117 40184 57006 80001 333 56000 81075=
85586,2013,05,07,00,00,AAXX 07004 85586 12960 01603 10156 20094 40193 52009 60001 333 10248=
85586,2013,05,07,03,00,AAXX 07034 85586 NIL=
85586,2013,05,07,06,00,AAXX 07064 85586 NIL=
85586,2013,05,07,09,00,AAXX 07094 85586 NIL=
85586,2013,05,07,12,00,AAXX 07124 85586 12960 10605 10090 20076 40174 52008 60004 80002 333 20064 30/// 50200 55091 56006 70000 81075=
85586,2013,05,07,15,00,AAXX 07154 85586 41357 33209 10144 20115 40191 52017 70511 83600 333 56600 83708=
85586,2013,05,07,18,00,AAXX 07184 85586 12560 22807 10160 20108 40183 57008 60001 82100 333 56600 82820=
85586,2013,05,07,21,00,AAXX 07214 85586 42460 22804 10150 20116 40173 57010 82100 333 56600 82818=
85586,2013,05,08,00,00,AAXX 08004 85586 11960 00000 10114 20107 40171 54001 60001 70521 333 10162=
85586,2013,05,08,03,00,AAXX 08034 85586 NIL=
85586,2013,05,08,06,00,AAXX 08064 85586 NIL=
85586,2013,05,08,09,00,AAXX 08094 85586 NIL=
85586,2013,05,08,12,00,AAXX 08124 85586 11450 70000 10115 20096 40181 53005 60004 70522 87600 333 20100 30/// 50070 55083 56600 70000 87710=
85586,2013,05,08,15,00,AAXX 08154 85586 41457 70000 10134 20089 40189 52008 70522 87500 333 56600 87614=
85586,2013,05,08,18,00,AAXX 08184 85586 11458 12505 10155 20096 40182 58007 60001 70511 81500 333 56600 81617=
85586,2013,05,08,21,00,AAXX 08214 85586 42460 22803 10147 20112 40179 57003 82500 333 56600 82615=
85586,2013,05,09,00,00,AAXX 09004 85586 11457 30000 10114 20095 40180 52001 70500 83600 333 10156 56600 83710=
85586,2013,05,09,03,00,AAXX 09034 85586 NIL=
85586,2013,05,09,06,00,AAXX 09064 85586 NIL=
85586,2013,05,09,09,00,AAXX 09094 85586 NIL=
85586,2013,05,09,12,00,AAXX 09124 85586 11430 30000 10110 20093 40182 53001 60004 70500 83600 333 20058 30/// 50090 55058 56000 70000 83710=
85586,2013,05,09,15,00,AAXX 09154 85586 NIL=
85586,2013,05,09,18,00,AAXX 09184 85586 12560 63309 10174 20088 40178 57013 60001 82530 333 56700 82620 86363=
85586,2013,05,09,21,00,AAXX 09214 85586 42760 73306 10154 20105 40178 54000 82530 333 56770 82656 87363=
85586,2013,05,10,00,00,AAXX 10004 85586 11458 80000 10132 20105 40181 51004 60001 70522 8313/ 333 10178 56009 83815 88358=
85586,2013,05,10,03,00,AAXX 10034 85586 NIL=
85586,2013,05,10,06,00,AAXX 10064 85586 NIL=
85586,2013,05,10,09,00,AAXX 10094 85586 NIL=
85586,2013,05,10,12,00,AAXX 10124 85586 12560 70000 10126 20098 40218 52011 60004 85530 333 20110 30/// 50150 55010 56660 70000 85630 83360=
85586,2013,05,10,15,00,AAXX 10154 85586 42560 53205 10178 20102 40237 52013 82131 333 56770 82820 83360 85070=
85586,2013,05,10,18,00,AAXX 10184 85586 12560 12908 10184 20122 40215 57022 60001 81100 333 56700 81830=
85586,2013,05,10,21,00,AAXX 10214 85586 42560 22603 10172 20128 40220 52005 82100 333 56600 82820=
85586,2013,05,11,00,00,AAXX 11004 85586 12960 20603 10140 20121 40232 52011 60001 82030 333 10188 56060 82360=
85586,2013,05,11,03,00,AAXX 11034 85586 NIL=
85586,2013,05,11,06,00,AAXX 11064 85586 NIL=
85586,2013,05,11,09,00,AAXX 11094 85586 NIL=
85586,2013,05,11,12,00,AAXX 11124 85586 11920 01503 10072 20066 40214 52013 60004 71044 333 20062 30/// 50190 55072 70000=
85586,2013,05,11,15,00,AAXX 11154 85586 42460 11405 10160 20109 40213 58001 81500 333 56600 81613=
85586,2013,05,11,18,00,AAXX 11184 85586 12560 12411 10164 20114 40200 57013 60001 81500 333 56600 81626=
85586,2013,05,11,21,00,AAXX 11214 85586 42960 22307 10158 20112 40192 57008 80002 333 56006 82075=
85586,2013,05,12,00,00,AAXX 12004 85586 12960 12303 10110 20091 40198 53006 60001 80002 333 10182 56006 81075=
85586,2013,05,12,03,00,AAXX 12034 85586 NIL=
85586,2013,05,12,06,00,AAXX 12064 85586 NIL=
85586,2013,05,12,09,00,AAXX 12094 85586 NIL=
85586,2013,05,12,12,00,AAXX 12124 85586 12960 81806 10103 20082 40191 53011 60004 8803/ 333 20065 30/// 50130 55083 56059 70000 88362=
85586,2013,05,12,15,00,AAXX 12154 85586 41458 82304 10124 20099 40199 51008 70522 8253/ 333 56769 82615 88362=
85586,2013,05,12,18,00,AAXX 12184 85586 12960 81306 10154 20093 40180 58011 60001 8803/ 333 56069 88362=
85586,2013,05,12,21,00,AAXX 12214 85586 42960 72306 10141 20098 40177 56003 87030 333 56060 87362=
85586,2013,05,13,00,00,AAXX 13004 85586 11956 40000 10094 20070 40178 54000 60001 70511 84030 333 10164 56060 84362=
85586,2013,05,13,03,00,AAXX 13034 85586 NIL=
85586,2013,05,13,06,00,AAXX 13064 85586 NIL=
85586,2013,05,13,09,00,AAXX 13094 85586 NIL=
85586,2013,05,13,12,00,AAXX 13124 85586 11958 60000 10071 20054 40191 53017 60004 70511 84030 333 20068 30/// 50140 55000 56060 70000 86365=
85586,2013,05,13,15,00,AAXX 13154 85586 42960 39902 10122 20050 40208 52017 82031 333 56060 82362 83075=
85586,2013,05,13,18,00,AAXX 13184 85586 12960 22508 10146 20046 40201 57007 60001 82030 333 56050 82365=
85586,2013,05,13,21,00,AAXX 13214 85586 42960 12306 10132 20064 40201 54000 81030 333 56000 81362=
85586,2013,05,14,00,00,AAXX 14004 85586 11956 01004 10073 20050 40214 53014 60001 70500 333 10158=
85586,2013,05,14,03,00,AAXX 14034 85586 NIL=
85586,2013,05,14,06,00,AAXX 14064 85586 NIL=
85586,2013,05,14,09,00,AAXX 14094 85586 NIL=
85586,2013,05,14,12,00,AAXX 14124 85586 12960 00000 10023 20006 40204 53004 60004 333 20016 34/// 50090 55077 70000=
85586,2013,05,14,15,00,AAXX 14154 85586 NIL=
85586,2013,05,14,18,00,AAXX 14184 85586 12960 32309 10152 20068 40203 57011 60001 80001 333 56000 83073=
85586,2013,05,14,21,00,AAXX 14214 85586 42960 32512 10136 20075 40197 54001 82034 333 56055 82365=
85586,2013,05,15,00,00,AAXX 15004 85586 12560 22105 10094 20064 40205 52008 60001 82500 333 10175 56500 82630=
85586,2013,05,15,03,00,AAXX 15034 85586 NIL=
85586,2013,05,15,06,00,AAXX 15064 85586 NIL=
85586,2013,05,15,09,00,AAXX 15094 85586 NIL=
85586,2013,05,15,12,00,AAXX 15124 85586 12960 01503 10036 21008 40224 52002 60004 333 20026 30/// 50080 55081 70000=
85586,2013,05,15,15,00,AAXX 15154 85586 42960 01307 10116 20006 40218 58003=
85586,2013,05,15,18,00,AAXX 15184 85586 12960 01708 10165 21009 40192 57025 60001=
85586,2013,05,15,21,00,AAXX 15214 85586 42960 02208 10132 20074 40178 57014=
85586,2013,05,16,00,00,AAXX 16004 85586 12960 00000 10087 20063 40178 54000 60001 333 10175=
85586,2013,05,16,03,00,AAXX 16034 85586 NIL=
85586,2013,05,16,06,00,AAXX 16064 85586 NIL=
85586,2013,05,16,09,00,AAXX 16094 85586 NIL=
85586,2013,05,16,12,00,AAXX 16124 85586 12960 11003 10005 21007 40164 53010 60004 80001 333 20002 34/// 50070 55095 56006 70000 81073=
85586,2013,05,16,15,00,AAXX 16154 85586 42960 03306 10116 20043 40173 52013=
85586,2013,05,16,18,00,AAXX 16184 85586 12460 23007 10132 20084 40166 56007 60001 82100 333 56700 82815=
85586,2013,05,16,21,00,AAXX 16214 85586 42460 23006 10118 20066 40166 54000 82100 333 56700 82815=
85586,2013,05,17,00,00,AAXX 17004 85586 12960 00000 10064 20044 40172 52006 60001 333 10134=
85586,2013,05,17,03,00,AAXX 17034 85586 NIL=
85586,2013,05,17,06,00,AAXX 17064 85586 NIL=
85586,2013,05,17,09,00,AAXX 17094 85586 NIL=
85586,2013,05,17,12,00,AAXX 17124 85586 11430 81203 10072 20053 40171 52009 60004 71022 886// 333 20010 30/// 50220 55071 56099 70000 88610=
85586,2013,05,17,15,00,AAXX 17154 85586 41330 89902 10084 20068 40185 52014 71022 886// 333 56099 88708=
85586,2013,05,17,18,00,AAXX 17184 85586 11440 80603 10092 20068 40175 57010 60001 71022 885// 333 56099 88610=
85586,2013,05,17,21,00,AAXX 17214 85586 41456 89901 10102 20068 40171 56004 70522 8213/ 333 56099 82815 88360=
85586,2013,05,18,00,00,AAXX 18004 85586 12450 80000 10082 20067 40185 52014 60001 70522 8213/ 333 10102 56009 82812 88359=
85586,2013,05,18,03,00,AAXX 18034 85586 NIL=
85586,2013,05,18,06,00,AAXX 18064 85586 NIL=
85586,2013,05,18,09,00,AAXX 18094 85586 NIL=
85586,2013,05,18,12,00,AAXX 18124 85586 11457 80000 10096 20084 40204 52005 60094 71062 8553/ 333 20072 31/// 50120 55000 56709 70089 85615 88360=
85586,2013,05,18,15,00,AAXX 18154 85586 41450 81004 10118 20107 40226 52022 76062 8453/ 333 56709 84612 88359=
85586,2013,05,18,18,00,AAXX 18184 85586 NIL=
85586,2013,05,18,21,00,AAXX 18214 85586 NIL=
85586,2013,05,19,00,00,AAXX 19004 85586 12960 80000 10128 20110 40236 52010 60001 885// 333 10148 56699 88618=
85586,2013,05,19,03,00,AAXX 19034 85586 NIL=
85586,2013,05,19,06,00,AAXX 19064 85586 NIL=
85586,2013,05,19,09,00,AAXX 19094 85586 NIL=
85586,2013,05,19,12,00,AAXX 19124 85586 11908 01205 10082 20072 40225 53007 60023 74400 333 20061 31/// 50110 55002 70018=
85586,2013,05,19,15,00,AAXX 19154 85586 41960 01205 10149 20112 40227 51004 70244=
85586,2013,05,19,18,00,AAXX 19184 85586 12960 02407 10163 20120 40206 58020 60001=
85586,2013,05,19,21,00,AAXX 19214 85586 42960 02210 10161 20109 40197 58018=
85586,2013,05,20,00,00,AAXX 20004 85586 11956 00000 10091 20069 40191 56007 60001 70500 333 10175=
85586,2013,05,20,03,00,AAXX 20034 85586 NIL=
85586,2013,05,20,06,00,AAXX 20064 85586 NIL=
85586,2013,05,20,09,00,AAXX 20094 85586 NIL=
85586,2013,05,20,12,00,AAXX 20124 85586 11203 80000 10071 20062 40190 53012 60004 74644 886// 333 20053 31/// 50130 55092 56799 70000 88704=
85586,2013,05,20,15,00,AAXX 20154 85586 41206 80904 10104 20094 40199 51011 74244 886// 333 56799 88704=
85586,2013,05,20,18,00,AAXX 20184 85586 11358 62508 10134 20110 40179 58020 60001 70544 82601 333 56706 82707 84075=
85586,2013,05,20,21,00,AAXX 20214 85586 42960 62407 10131 20100 40174 56005 80001 333 56006 86075=
85586,2013,05,21,00,00,AAXX 21004 85586 11956 00904 10088 20074 40186 53010 60001 70511 333 10139=
85586,2013,05,21,03,00,AAXX 21034 85586 NIL=
85586,2013,05,21,06,00,AAXX 21064 85586 NIL=
85586,2013,05,21,09,00,AAXX 21094 85586 NIL=
85586,2013,05,21,12,00,AAXX 21124 85586 11103 80000 10039 20030 40204 53004 60004 74644 886// 333 20016 31/// 50090 55048 56799 70000 88703=
85586,2013,05,21,15,00,AAXX 21154 85586 41208 81204 10102 20092 40206 53006 74244 886// 333 56799 88706=
85586,2013,05,21,18,00,AAXX 21184 85586 11956 72204 10151 20087 40195 58011 60001 70544 87030 333 56060 87365=
85586,2013,05,21,21,00,AAXX 21214 85586 42960 80000 10143 20085 40189 58006 8803/ 333 56069 88365=
85586,2013,05,22,00,00,AAXX 22004 85586 11956 70000 10092 20070 40195 53006 60001 70511 80001 333 10153 56006 87075=
85586,2013,05,22,03,00,AAXX 22034 85586 NIL=
85586,2013,05,22,06,00,AAXX 22064 85586 NIL=
85586,2013,05,22,09,00,AAXX 22094 85586 NIL=
85586,2013,05,22,12,00,AAXX 22124 85586 11958 61105 10062 20052 40193 53006 60004 70511 86030 333 20026 31/// 50090 55012 56060 70000 86365=
85586,2013,05,22,15,00,AAXX 22154 85586 41558 69901 10088 20076 40195 51005 70522 82130 333 56000 82830 85362=
85586,2013,05,22,18,00,AAXX 22184 85586 12660 52103 10150 20084 40177 57018 60001 82130 333 56500 82840 85363=
85586,2013,05,22,21,00,AAXX 22214 85586 42960 32308 10132 20102 40181 53004 82031 333 56050 82362 83070=
85586,2013,05,23,00,00,AAXX 23004 85586 11556 20000 10088 20074 40194 52013 60001 70511 82500 333 10152 56000 82640=
85586,2013,05,23,03,00,AAXX 23034 85586 NIL=
85586,2013,05,23,06,00,AAXX 23064 85586 NIL=
85586,2013,05,23,09,00,AAXX 23094 85586 NIL=
85586,2013,05,23,12,00,AAXX 23124 85586 11920 00000 10014 20006 40219 52012 60004 71000 333 20014 31/// 50140 55030 70000=
85586,2013,05,23,15,00,AAXX 23154 85586 42960 01406 10136 20071 40222 54002=
85586,2013,05,23,18,00,AAXX 23184 85586 12960 02306 10134 20108 40207 57015 60001=
85586,2013,05,23,21,00,AAXX 23214 85586 42960 09902 10154 20108 40195 57012=
85586,2013,05,24,00,00,AAXX 24004 85586 11957 00000 10086 20072 40204 52011 60001 70500 333 10156=
85586,2013,05,24,03,00,AAXX 24034 85586 NIL=
85586,2013,05,24,06,00,AAXX 24064 85586 NIL=
85586,2013,05,24,09,00,AAXX 24094 85586 NIL=
85586,2013,05,24,12,00,AAXX 24124 85586 NIL=
85586,2013,05,24,15,00,AAXX 24154 85586 42960 09903 10160 20066 40160 57009=
85586,2013,05,24,18,00,AAXX 24184 85586 12960 02406 10172 20101 40138 57022 60001=
85586,2013,05,24,21,00,AAXX 24214 85586 42960 03003 10150 20111 40140 54002=
85586,2013,05,25,00,00,AAXX 25004 85586 11956 00000 10090 20078 40145 53005 60001 70500 333 10204=
85586,2013,05,25,03,00,AAXX 25034 85586 NIL=
85586,2013,05,25,06,00,AAXX 25064 85586 NIL=
85586,2013,05,25,09,00,AAXX 25094 85586 NIL=
85586,2013,05,25,12,00,AAXX 25124 85586 11440 80000 10106 20088 40182 57004 60004 70522 886// 333 20100 30/// 50140 55072 56099 70000 88712=
85586,2013,05,25,15,00,AAXX 25154 85586 41440 80803 10112 20097 40193 53011 70522 885// 333 56099 88615=
85586,2013,05,25,18,00,AAXX 25184 85586 11440 82905 10144 20098 40183 58010 60001 70522 885// 333 56099 88618=
85586,2013,05,25,21,00,AAXX 25214 85586 41550 83103 10130 20099 40183 54000 70522 8253/ 333 56609 82630 88360=
85586,2013,05,26,00,00,AAXX 26004 85586 11650 80000 10120 20099 40190 52007 60001 70522 885// 333 10150 56099 88640=
85586,2013,05,26,03,00,AAXX 26034 85586 NIL=
85586,2013,05,26,06,00,AAXX 26064 85586 NIL=
85586,2013,05,26,09,00,AAXX 26094 85586 NIL=
85586,2013,05,26,12,00,AAXX 26124 85586 11520 80604 10122 20106 40197 51006 60004 71022 885// 333 20119 31/// 50090 55000 56799 70000 88625=
85586,2013,05,26,15,00,AAXX 26154 85586 41240 73307 10151 20087 40195 58002 70522 82601 333 56706 82704 87075=
85586,2013,05,26,18,00,AAXX 26184 85586 11256 72805 10151 20102 40174 58020 60001 70522 81630 333 56760 81704 87365=
85586,2013,05,26,21,00,AAXX 26214 85586 41458 72506 10134 20110 40175 55000 70511 81101 333 56706 81815 87075=
85586,2013,05,27,00,00,AAXX 27004 85586 11456 80000 10104 20082 40171 56004 60001 70522 8213/ 333 10161 56769 82815 88362=
85586,2013,05,27,03,00,AAXX 27034 85586 NIL=
85586,2013,05,27,06,00,AAXX 27064 85586 NIL=
85586,2013,05,27,09,00,AAXX 27094 85586 NIL=
85586,2013,05,27,12,00,AAXX 27124 85586 11456 83606 10133 20095 40144 53005 69984 76066 8112/ 333 20103 31/// 50080 55016 56779 70008 81815 88456=
85586,2013,05,27,15,00,AAXX 27154 85586 41550 80507 10124 20108 40141 56004 76062 8272/ 333 56229 82830 88556=
85586,2013,05,27,18,00,AAXX 27184 85586 11410 80206 10122 20104 40123 57018 60171 76362 8362/ 333 56889 83710 88540=
85586,2013,05,27,21,00,AAXX 27214 85586 41520 80712 10116 20099 40105 57017 76362 8472/ 333 56339 84820 88550=
85586,2013,05,28,00,00,AAXX 28004 85586 11540 80510 10112 20095 40117 53012 60471 78166 882// 333 10135 56799 88825=
85586,2013,05,28,03,00,AAXX 28034 85586 NIL=
85586,2013,05,28,06,00,AAXX 28064 85586 NIL=
85586,2013,05,28,09,00,AAXX 28094 85586 NIL=
85586,2013,05,28,12,00,AAXX 28124 85586 11456 83314 10131 20115 40140 53006 60984 70588 882// 333 20106 32/// 50070 55000 56799 70977 81815 88825=
85586,2013,05,28,15,00,AAXX 28154 85586 41558 83111 10138 20118 40150 52009 70522 888// 333 56799 84820 88640=
85586,2013,05,28,18,00,AAXX 28184 85586 11340 83010 10108 20093 40160 52010 60141 78082 886// 333 56799 88708=
85586,2013,05,28,21,00,AAXX 28214 85586 41450 83303 10114 20096 40170 52010 78082 888// 333 56799 85810 88630=
85586,2013,05,29,00,00,AAXX 29004 85586 11556 60304 10114 20103 40198 52028 60061 78088 86200 333 10137 56700 86825=
85586,2013,05,29,03,00,AAXX 29034 85586 NIL=
85586,2013,05,29,06,00,AAXX 29064 85586 NIL=
85586,2013,05,29,09,00,AAXX 29094 85586 NIL=
85586,2013,05,29,12,00,AAXX 29124 85586 12960 01205 10069 20057 40243 53003 60204 333 20061 32/// 50070 55000 70199=
85586,2013,05,29,15,00,AAXX 29154 85586 42960 31507 10128 20081 40243 51003 80001 333 56006 83075=
85586,2013,05,29,18,00,AAXX 29184 85586 12960 51208 10171 20090 40220 58022 60001 80001 333 56006 85075=
85586,2013,05,29,21,00,AAXX 29214 85586 42960 51606 10160 20040 40209 57012 80002 333 56006 85075=
85586,2013,05,30,00,00,AAXX 30004 85586 NIL=
85586,2013,05,30,03,00,AAXX 30034 85586 NIL=
85586,2013,05,30,06,00,AAXX 30064 85586 NIL=
85586,2013,05,30,09,00,AAXX 30094 85586 NIL=
85586,2013,05,30,12,00,AAXX 30124 85586 12960 60903 10066 20052 40173 53004 60004 80002 333 20044 32/// 50130 55056 56006 70000 86070=
85586,2013,05,30,15,00,AAXX 30154 85586 42960 69902 10132 20076 40173 54000 80004 333 56000 86073=
85586,2013,05,30,18,00,AAXX 30184 85586 12960 62603 10142 20083 40150 57023 60001 80008 333 56000 86270=
85586,2013,05,30,21,00,AAXX 30214 85586 42560 72704 10124 20106 40151 54001 82130 333 56600 82825 87365=
85586,2013,05,31,00,00,AAXX 31004 85586 12960 50602 10098 20087 40157 51006 60001 80004 333 10144 56000 85070=
85586,2013,05,31,03,00,AAXX 31034 85586 NIL=
85586,2013,05,31,06,00,AAXX 31064 85586 NIL=
85586,2013,05,31,09,00,AAXX 31094 85586 NIL=
85586,2013,05,31,12,00,AAXX 31124 85586 11457 83107 10122 20110 40183 52009 60134 76062 888// 333 20070 32/// 50090 55005 56799 70127 85818 86625=
85586,2013,05,31,15,00,AAXX 31154 85586 41460 79903 10138 20113 40207 52024 70262 87800 333 56000 85815 87657=
85586,2013,05,31,18,00,AAXX 31184 85586 11560 63407 10152 20122 40215 52008 60041 70282 86200 333 56800 84820 86850=
85586,2013,05,31,21,00,AAXX 31214 85586 42560 53307 10152 20113 40229 52014 84201 333 56700 84830 85070=
85586,2013,06,01,00,00,AAXX 01004 85586 12560 69902 10122 20104 40155 52016 60001 82134 333 10158 56000 82825 83360 85070=
85586,2013,06,01,03,00,AAXX 01034 85586 NIL=
85586,2013,06,01,06,00,AAXX 01064 85586 NIL=
85586,2013,06,01,09,00,AAXX 01094 85586 NIL=
85586,2013,06,01,12,00,AAXX 01124 85586 11560 81006 10126 20097 40263 52008 60044 885// 333 20110 31/// 50090 55014 56099 70043 88620=
85586,2013,06,01,15,00,AAXX 01154 85586 41660 71203 10152 20107 40264 54001 70262 85530 333 56660 85633 86359=
85586,2013,06,01,18,00,AAXX 01184 85586 12660 32405 10184 20080 40244 57020 69911 81501 333 56606 81640 83075=
85586,2013,06,01,21,00,AAXX 01214 85586 NIL=
85586,2013,06,02,00,00,AAXX 02004 85586 12960 20000 10109 20092 40228 58006 60001 333 10190 56006 82075=
85586,2013,06,02,03,00,AAXX 02034 85586 NIL=
85586,2013,06,02,06,00,AAXX 02064 85586 NIL=
85586,2013,06,02,09,00,AAXX 02094 85586 NIL=
85586,2013,06,02,12,00,AAXX 02124 85586 12960 00000 10073 20061 40247 53003 69914 333 20063 31/// 50110 55055 70001=
85586,2013,06,02,15,00,AAXX 02154 85586 42960 01504 10157 20105 40243 50001=
85586,2013,06,02,18,00,AAXX 02184 85586 12960 02408 10179 20127 40224 58018 60001=
85586,2013,06,02,21,00,AAXX 02214 85586 42960 02304 10181 20125 40217 56007=
85586,2013,06,03,00,00,AAXX 03004 85586 11956 01707 10143 20105 40220 53002 60001 70500 333 10194=
85586,2013,06,03,03,00,AAXX 03034 85586 NIL=
85586,2013,06,03,06,00,AAXX 03064 85586 NIL=
85586,2013,06,03,09,00,AAXX 03094 85586 NIL=
85586,2013,06,03,12,00,AAXX 03124 85586 12960 00000 10055 20043 40188 58002 60004 333 20051 31/// 50110 55092 70000=
85586,2013,06,03,15,00,AAXX 03154 85586 42960 00203 10146 20098 40182 56004=
85586,2013,06,03,18,00,AAXX 03184 85586 12360 12308 10150 20122 40172 57010 60001 81100 333 56600 81808=
85586,2013,06,03,21,00,AAXX 03214 85586 42960 02303 10148 20120 40165 56007=
85586,2013,06,04,00,00,AAXX 04004 85586 11956 00000 10087 20075 40169 53004 60001 70500 333 10183=
85586,2013,06,04,03,00,AAXX 04034 85586 NIL=
85586,2013,06,04,06,00,AAXX 04064 85586 NIL=
85586,2013,06,04,09,00,AAXX 04094 85586 NIL=
85586,2013,06,04,12,00,AAXX 04124 85586 12960 01506 10096 20072 40165 53007 60004 333 20068 31/// 50120 55090 70000=
85586,2013,06,04,15,00,AAXX 04154 85586 42960 01304 10168 20075 40171 51007=
85586,2013,06,04,18,00,AAXX 04184 85586 12960 01711 10238 20079 40148 57022 60001=
85586,2013,06,04,21,00,AAXX 04214 85586 42960 12605 10182 20124 40146 53002 80001 333 56000 81075=
85586,2013,06,05,00,00,AAXX 05004 85586 11958 00000 10120 20107 40155 52008 60001 70500 333 10244=
85586,2013,06,05,03,00,AAXX 05034 85586 NIL=
85586,2013,06,05,06,00,AAXX 05064 85586 NIL=
85586,2013,06,05,09,00,AAXX 05094 85586 NIL=
85586,2013,06,05,12,00,AAXX 05124 85586 12960 11705 10106 20087 40181 53006 60004 80001 333 20074 31/// 50060 55090 56005 70000 81075=
85586,2013,06,05,15,00,AAXX 05154 85586 42960 11405 10160 20107 40186 52006 80001 333 56005 81075=
85586,2013,06,05,18,00,AAXX 05184 85586 12960 01407 10207 20142 40165 58019 60001=
85586,2013,06,05,21,00,AAXX 05214 85586 42960 11509 10202 20098 40159 56006 80001 333 56005 81075=
85586,2013,06,06,00,00,AAXX 06004 85586 12960 21703 10134 20080 40170 53008 60001 80001 333 10216 56005 82075=
85586,2013,06,06,03,00,AAXX 06034 85586 NIL=
85586,2013,06,06,06,00,AAXX 06064 85586 NIL=
85586,2013,06,06,09,00,AAXX 06094 85586 NIL=
85586,2013,06,06,12,00,AAXX 06124 85586 12960 10000 10078 20062 40164 53010 60004 80001 333 20056 31/// 50090 55085 56006 70000 81075=
85586,2013,06,06,15,00,AAXX 06154 85586 42960 09903 10158 20100 40160 51006=
85586,2013,06,06,18,00,AAXX 06184 85586 12960 01609 10204 20056 40134 57025 60001=
85586,2013,06,06,21,00,AAXX 06214 85586 42960 02306 10164 20096 40125 57009=
85586,2013,06,07,00,00,AAXX 07004 85586 12960 00000 10100 20086 40134 52009 60001 333 10212=
85586,2013,06,07,03,00,AAXX 07034 85586 NIL=
85586,2013,06,07,06,00,AAXX 07064 85586 NIL=
85586,2013,06,07,09,00,AAXX 07094 85586 NIL=
85586,2013,06,07,12,00,AAXX 07124 85586 12960 11804 10070 20051 40168 52006 60004 80001 333 20060 31/// 50140 55078 56006 70000 81075=
85586,2013,06,07,15,00,AAXX 07154 85586 42960 13304 10156 20088 40179 52011 80001 333 56000 81075=
85586,2013,06,07,18,00,AAXX 07184 85586 12960 13109 10150 20096 40173 56006 60001 80001 333 56000 81075=
85586,2013,06,07,21,00,AAXX 07214 85586 42560 23204 10142 20121 40170 55003 82101 333 56700 82820=
85586,2013,06,08,00,00,AAXX 08004 85586 11230 40000 10098 20090 40172 52006 60001 71011 84600 333 10168 56600 84705=
85586,2013,06,08,03,00,AAXX 08034 85586 NIL=
85586,2013,06,08,06,00,AAXX 08064 85586 NIL=
85586,2013,06,08,09,00,AAXX 08094 85586 NIL=
85586,2013,06,08,12,00,AAXX 08124 85586 11440 80603 10108 20095 40187 52010 60004 71022 886// 333 20096 30/// 50140 55085 56099 70000 88710=
85586,2013,06,08,15,00,AAXX 08154 85586 41440 80605 10114 20097 40191 52004 70522 886// 333 56099 88712=
85586,2013,06,08,18,00,AAXX 08184 85586 11450 80000 10116 20089 40178 58013 60001 70522 886// 333 56099 88712=
85586,2013,06,08,21,00,AAXX 08214 85586 41450 82103 10124 20100 40179 53001 70522 886// 333 56099 88712=
85586,2013,06,09,00,00,AAXX 09004 85586 11450 80000 10114 20097 40180 54001 60001 70522 886// 333 10124 56099 88710=
85586,2013,06,09,03,00,AAXX 09034 85586 NIL=
85586,2013,06,09,06,00,AAXX 09064 85586 NIL=
85586,2013,06,09,09,00,AAXX 09094 85586 NIL=
85586,2013,06,09,12,00,AAXX 09124 85586 11340 80000 10092 20077 40167 53002 60004 71022 886// 333 20084 31/// 50110 55000 56799 70000 88707=
85586,2013,06,09,15,00,AAXX 09154 85586 41320 20804 10119 20085 40176 52010 71022 82600 333 56700 82709=
85586,2013,06,09,18,00,AAXX 09184 85586 11956 02507 10154 20078 40156 58020 60001 70500=
85586,2013,06,09,21,00,AAXX 09214 85586 41958 02205 10134 20091 40150 56006 70500=
85586,2013,06,10,00,00,AAXX 10004 85586 11956 00000 10069 20052 40158 53006 60001 70500 333 10161=
85586,2013,06,10,03,00,AAXX 10034 85586 NIL=
85586,2013,06,10,06,00,AAXX 10064 85586 NIL=
85586,2013,06,10,09,00,AAXX 10094 85586 NIL=
85586,2013,06,10,12,00,AAXX 10124 85586 12960 01104 10031 20021 40152 53007 60004 333 20013 34/// 50110 55070 70000=
85586,2013,06,10,15,00,AAXX 10154 85586 41940 00000 10121 20081 40162 53007 70500=
85586,2013,06,10,18,00,AAXX 10184 85586 11956 03005 10136 20071 40159 58002 60001 70500=
85586,2013,06,10,21,00,AAXX 10214 85586 41958 03108 10126 20082 40167 53008 70500=
85586,2013,06,11,00,00,AAXX 11004 85586 NIL=
85586,2013,06,11,03,00,AAXX 11034 85586 NIL=
85586,2013,06,11,06,00,AAXX 11064 85586 NIL=
85586,2013,06,11,09,00,AAXX 11094 85586 NIL=
85586,2013,06,11,12,00,AAXX 11124 85586 11103 81404 10071 20060 40177 53003 60004 74444 886// 333 20041 31/// 50090 55087 56799 70000 88703=
85586,2013,06,11,15,00,AAXX 11154 85586 41206 80000 10076 20065 40188 52011 74444 886// 333 56799 88706=
85586,2013,06,11,18,00,AAXX 11184 85586 11320 23006 10116 20088 40175 58011 60001 71044 82600 333 56700 82708=
85586,2013,06,11,21,00,AAXX 11214 85586 41356 13004 10123 20087 40174 55001 70500 81600 333 56700 81708=
85586,2013,06,12,00,00,AAXX 12004 85586 11940 00000 10061 20041 40181 53005 60001 70500 333 10131=
85586,2013,06,12,03,00,AAXX 12034 85586 NIL=
85586,2013,06,12,06,00,AAXX 12064 85586 NIL=
85586,2013,06,12,09,00,AAXX 12094 85586 NIL=
85586,2013,06,12,12,00,AAXX 12124 85586 11906 00000 10048 20033 40176 52013 60004 74600 333 20029 31/// 50080 55050 70000=
85586,2013,06,12,15,00,AAXX 12154 85586 41130 60000 10092 20072 40194 52020 70511 86600 333 56600 86703=
85586,2013,06,12,18,00,AAXX 12184 85586 11240 43107 10136 20110 40192 58002 60001 70511 84600 333 56600 84705=
85586,2013,06,12,21,00,AAXX 12214 85586 41340 70000 10125 20097 40196 53004 70522 87600 333 56600 87709=
85586,2013,06,13,00,00,AAXX 13004 85586 11340 40000 10092 20076 40198 52003 60001 70511 84600 333 10140 56600 84708=
85586,2013,06,13,03,00,AAXX 13034 85586 NIL=
85586,2013,06,13,06,00,AAXX 13064 85586 NIL=
85586,2013,06,13,09,00,AAXX 13094 85586 NIL=
85586,2013,06,13,12,00,AAXX 13124 85586 11105 31205 10070 20066 40176 54000 60004 74441 83600 333 20060 31/// 50060 55017 56000 70000 83703=
85586,2013,06,13,15,00,AAXX 13154 85586 41250 29903 10118 20109 40178 53004 70942 82600 333 56000 82705=
85586,2013,06,13,18,00,AAXX 13184 85586 11958 23007 10150 20096 40172 56006 60001 71500 80001 333 56000 82075=
85586,2013,06,13,21,00,AAXX 13214 85586 41956 03206 10132 20105 40183 52011 71500=
85586,2013,06,14,00,00,AAXX 14004 85586 11250 22804 10090 20080 40195 52012 60001 70511 82600 333 10166 56600 82705=
85586,2013,06,14,03,00,AAXX 14034 85586 NIL=
85586,2013,06,14,06,00,AAXX 14064 85586 NIL=
85586,2013,06,14,09,00,AAXX 14094 85586 NIL=
85586,2013,06,14,12,00,AAXX 14124 85586 11320 81303 10102 20096 40179 54000 60004 71022 887// 333 20060 31/// 50050 55062 56099 70000 88708=
85586,2013,06,14,15,00,AAXX 14154 85586 41440 81504 10108 20099 40180 54001 71022 886// 333 56499 88710=
85586,2013,06,14,18,00,AAXX 14184 85586 11456 82005 10132 20114 40166 57014 60001 70522 885// 333 56499 88612=
85586,2013,06,14,21,00,AAXX 14214 85586 41340 83004 10118 20108 40177 52011 71022 886// 333 56799 88708=
85586,2013,06,15,00,00,AAXX 15004 85586 11220 81704 10114 20100 40192 52015 69901 75022 886// 333 10136 56799 88706=
85586,2013,06,15,03,00,AAXX 15034 85586 NIL=
85586,2013,06,15,06,00,AAXX 15064 85586 NIL=
85586,2013,06,15,09,00,AAXX 15094 85586 NIL=
85586,2013,06,15,12,00,AAXX 15124 85586 11320 80000 10111 20096 40203 53011 69964 71055 886// 333 20104 31/// 50080 55000 56799 70006 88707=
85586,2013,06,15,15,00,AAXX 15154 85586 41320 80000 10116 20099 40217 53014 71022 886// 333 56799 88707=
85586,2013,06,15,18,00,AAXX 15184 85586 11320 81906 10123 20105 40205 58012 60001 71022 886// 333 56799 88709=
85586,2013,06,15,21,00,AAXX 15214 85586 41356 82404 10121 20102 40209 53004 70522 885// 333 56799 82708 88615=
85586,2013,06,16,00,00,AAXX 16004 85586 11440 80000 10117 20104 40225 53016 60001 70522 885// 333 10132 56799 88615=
85586,2013,06,16,03,00,AAXX 16034 85586 NIL=
85586,2013,06,16,06,00,AAXX 16064 85586 NIL=
85586,2013,06,16,09,00,AAXX 16094 85586 NIL=
85586,2013,06,16,12,00,AAXX 16124 85586 12560 71504 10100 20089 40211 52008 60004 83501 333 20086 31/// 50080 55000 56606 70000 83626 84075=
85586,2013,06,16,15,00,AAXX 16154 85586 41457 51608 10124 20090 40215 52004 70522 85500 333 56600 85617=
85586,2013,06,16,18,00,AAXX 16184 85586 12460 21607 10164 20072 40188 58027 60001 81501 333 56606 81617=
85586,2013,06,16,21,00,AAXX 16214 85586 42460 11708 10148 20030 40179 55009 81500 333 56600 81617=
85586,2013,06,17,00,00,AAXX 17004 85586 12960 11803 10081 20012 40186 52007 60001 80001 333 10164 56006 81075=
85586,2013,06,17,03,00,AAXX 17034 85586 NIL=
85586,2013,06,17,06,00,AAXX 17064 85586 NIL=
85586,2013,06,17,09,00,AAXX 17094 85586 NIL=
85586,2013,06,17,12,00,AAXX 17124 85586 12960 11802 11004 21012 40186 52007 60004 80001 333 21004 31/// 50120 55063 56006 70000 81075=
85586,2013,06,17,15,00,AAXX 17154 85586 41457 61605 10074 20068 40197 52011 70522 86100 333 56400 86710=
85586,2013,06,17,18,00,AAXX 17184 85586 12560 21708 10124 20018 40189 57008 60001 82101 333 56400 82820=
85586,2013,06,17,21,00,AAXX 17214 85586 42960 21607 10118 21002 40193 53004 80001 333 56000 82075=
85586,2013,06,18,00,00,AAXX 18004 85586 12960 09902 10040 20010 40202 52009 60001 333 10128=
85586,2013,06,18,03,00,AAXX 18034 85586 NIL=
85586,2013,06,18,06,00,AAXX 18064 85586 NIL=
85586,2013,06,18,09,00,AAXX 18094 85586 NIL=
85586,2013,06,18,12,00,AAXX 18124 85586 12960 31208 10026 20009 40225 52009 60004 80001 333 21006 31/// 50130 55052 56006 70000 83075=
85586,2013,06,18,15,00,AAXX 18154 85586 42960 41505 10104 20035 40227 54000 80002 333 56006 84075=
85586,2013,06,18,18,00,AAXX 18184 85586 12960 21811 10146 20042 40207 57018 60001 80002 333 56006 82075=
85586,2013,06,18,21,00,AAXX 18214 85586 42960 22306 10126 20077 40195 57012 80002 333 56006 82075=
85586,2013,06,19,00,00,AAXX 19004 85586 12960 10000 10042 40207 52009 60001 80002 333 10157 56006 81075=
85586,2013,06,19,03,00,AAXX 19034 85586 NIL=
85586,2013,06,19,06,00,AAXX 19064 85586 NIL=
85586,2013,06,19,09,00,AAXX 19094 85586 NIL=
85586,2013,06,19,12,00,AAXX 19124 85586 12960 30000 11006 21011 40208 53008 60004 80002 333 21006 31/// 50150 55075 56006 70000 83075=
85586,2013,06,19,15,00,AAXX 19154 85586 42960 21404 10074 20032 40206 55003 80001 333 56000 82075=
85586,2013,06,19,18,00,AAXX 19184 85586 12960 22507 10108 20000 40194 57012 60001 80001 333 56000 82075=
85586,2013,06,19,21,00,AAXX 19214 85586 42960 22304 10102 20010 40198 51004 80001 333 56000 82073=
85586,2013,06,20,00,00,AAXX 20004 85586 12960 09902 10022 20001 40210 52012 60001 333 10114=
85586,2013,06,20,03,00,AAXX 20034 85586 NIL=
85586,2013,06,20,06,00,AAXX 20064 85586 NIL=
85586,2013,06,20,09,00,AAXX 20094 85586 NIL=
85586,2013,06,20,12,00,AAXX 20124 85586 12960 01204 10007 21004 40229 53009 60004 333 21008 34/// 50050 55066 70000=
85586,2013,06,20,15,00,AAXX 20154 85586 42960 09902 10084 20045 40230 52006=
85586,2013,06,20,18,00,AAXX 20184 85586 12960 02506 10112 20032 40218 57012 60001=
85586,2013,06,20,21,00,AAXX 20214 85586 42960 02305 10104 20051 40222 55004=
85586,2013,06,21,00,00,AAXX 21004 85586 11958 00000 10028 20013 40236 53010 60001 70500 333 10113=
85586,2013,06,21,03,00,AAXX 21034 85586 NIL=
85586,2013,06,21,06,00,AAXX 21064 85586 NIL=
85586,2013,06,21,09,00,AAXX 21094 85586 NIL=
85586,2013,06,21,12,00,AAXX 21124 85586 11940 11104 10011 21005 40251 55001 60004 71000 81030 333 21002 34/// 50080 55084 56060 70000 81365=
85586,2013,06,21,15,00,AAXX 21154 85586 41958 49902 10068 20058 40247 54001 70541 80001 333 56000 84075=
85586,2013,06,21,18,00,AAXX 21184 85586 12660 62504 10104 20054 40231 57016 60001 82130 333 56660 82840 86362=
85586,2013,06,21,21,00,AAXX 21214 85586 42560 72304 10100 20079 40217 57014 83520 333 56550 83630 87460=
85586,2013,06,22,00,00,AAXX 22004 85586 11456 82304 10087 20069 40221 53003 60001 70522 885// 333 10111 56799 88615=
85586,2013,06,22,03,00,AAXX 22034 85586 NIL=
85586,2013,06,22,06,00,AAXX 22064 85586 NIL=
85586,2013,06,22,09,00,AAXX 22094 85586 NIL=
85586,2013,06,22,12,00,AAXX 22124 85586 11840 83508 10099 20062 40183 53013 60004 70522 8803/ 333 20073 32/// 50080 55030 56069 70000 88358=
85586,2013,06,22,15,00,AAXX 22154 85586 41456 80000 10117 20067 40190 51007 70522 8253/ 333 56769 82615 88358=
85586,2013,06,22,18,00,AAXX 22184 85586 11456 82505 10139 20064 40175 58015 60001 70522 8253/ 333 56769 82615 88362=
85586,2013,06,22,21,00,AAXX 22214 85586 41456 50000 10128 20068 40180 53005 70522 81530 333 56760 81615 85362=
85586,2013,06,23,00,00,AAXX 23004 85586 11856 40000 10096 20082 40185 53005 69941 70588 84030 333 10144 56060 84358=
85586,2013,06,23,03,00,AAXX 23034 85586 NIL=
85586,2013,06,23,06,00,AAXX 23064 85586 NIL=
85586,2013,06,23,09,00,AAXX 23094 85586 NIL=
85586,2013,06,23,12,00,AAXX 23124 85586 11906 11203 10024 20016 40190 52012 60004 74600 80001 333 20024 31/// 50130 55000 56006 70000 81075=
85586,2013,06,23,15,00,AAXX 23154 85586 41935 30000 10086 20078 40205 57016 71041 83030 333 56060 83363=
85586,2013,06,23,18,00,AAXX 23184 85586 11950 12804 10146 20089 40198 58005 60001 70500 80002 333 56006 81075=
85586,2013,06,23,21,00,AAXX 23214 85586 NIL=
85586,2013,06,24,00,00,AAXX 24004 85586 NIL=
85586,2013,06,24,03,00,AAXX 24034 85586 NIL=
85586,2013,06,24,06,00,AAXX 24064 85586 NIL=
85586,2013,06,24,09,00,AAXX 24094 85586 NIL=
85586,2013,06,24,12,00,AAXX 24124 85586 11440 80704 10080 20072 40215 52004 60004 71022 886// 333 20038 31/// 50140 55057 56099 70000 88710=
85586,2013,06,24,18,00,AAXX 24184 85586 11450 89902 10108 20089 40205 57016 60001 70522 886// 333 56099 88712=
85586,2013,06,24,21,00,AAXX 24214 85586 41440 89902 10104 20083 40194 57011 71022 886// 333 56699 88710=
85586,2013,06,25,00,00,AAXX 25004 85586 11330 81804 10092 20076 40197 56003 60001 71022 886// 333 10108 56499 88708=
85586,2013,06,25,03,00,AAXX 25034 85586 NIL=
85586,2013,06,25,06,00,AAXX 25064 85586 NIL=
85586,2013,06,25,09,00,AAXX 25094 85586 NIL=
85586,2013,06,25,12,00,AAXX 25124 85586 11330 80505 10078 20062 40207 52007 69914 71052 886// 333 20074 31/// 50080 55000 56099 70001 88709=
85586,2013,06,25,15,00,AAXX 25154 85586 41330 89901 10082 20066 40223 52018 71022 886// 333 56099 88708=
85586,2013,06,25,18,00,AAXX 25184 85586 11340 89903 10098 20072 40211 57012 60001 71022 886// 333 56099 88708=
85586,2013,06,25,21,00,AAXX 25214 85586 41440 89902 10094 20070 40214 51003 71022 886// 333 56099 88710=
85586,2013,06,26,00,00,AAXX 26004 85586 11330 80000 10088 20070 40225 52011 60001 71022 886// 333 10102 56099 88708=
85586,2013,06,26,03,00,AAXX 26034 85586 NIL=
85586,2013,06,26,06,00,AAXX 26064 85586 NIL=
85586,2013,06,26,09,00,AAXX 26094 85586 NIL=
85586,2013,06,26,12,00,AAXX 26124 85586 11430 80000 10087 20067 40226 53009 60004 70522 885// 333 20087 31/// 50060 55000 56099 70000 88518=
85586,2013,06,26,15,00,AAXX 26154 85586 41435 80716 10094 20066 40205 58020 70522 8357/ 333 56779 83618 85362=
85586,2013,06,26,18,00,AAXX 26184 85586 11960 72203 10123 20085 40187 58017 60001 87070 333 56700 87362=
85586,2013,06,26,21,00,AAXX 26214 85586 41458 80000 10115 20077 40183 57004=
85586,2013,06,27,00,00,AAXX 27004 85586 11456 80000 10105 20086 40186 53002 60001 70522 8557/ 333 10124 56779 85615 83362=
85586,2013,06,27,03,00,AAXX 27034 85586 NIL=
85586,2013,06,27,06,00,AAXX 27064 85586 NIL=
85586,2013,06,27,09,00,AAXX 27094 85586 NIL=
85586,2013,06,27,12,00,AAXX 27124 85586 12960 83409 10124 20086 40167 54000 69914 8807/ 333 20104 31/// 50050 55000 56079 70001 88362=
85586,2013,06,27,15,00,AAXX 27154 85586 NIL=
85586,2013,06,27,18,00,AAXX 27184 85586 11420 83507 10124 20114 40175 53003 60211 75862 8572/ 333 56899 85812 88457=
85586,2013,06,27,21,00,AAXX 27214 85586 41458 73604 10126 20116 40175 54000 70552 84130 333 56880 84812 87357=
85586,2013,06,28,00,00,AAXX 28004 85586 11556 80306 10121 20105 40178 51003 60031 70522 882// 333 10128 56799 88825=
85586,2013,06,28,03,00,AAXX 28034 85586 NIL=
85586,2013,06,28,06,00,AAXX 28064 85586 NIL=
85586,2013,06,28,09,00,AAXX 28094 85586 NIL=
85586,2013,06,28,12,00,AAXX 28124 85586 11558 53210 10126 20113 40209 52028 60324 70588 85200 333 20116 32/// 50080 55000 56700 70321 85825=
85586,2013,06,28,15,00,AAXX 28154 85586 41556 53208 10143 20129 40222 52013 70522 85200 333 56700 85820=
85586,2013,06,28,18,00,AAXX 28184 85586 11556 53315 10153 20132 40225 51003 60001 70522 85200 333 56700 85820=
85586,2013,06,28,21,00,AAXX 28214 85586 41458 63307 10138 20124 40227 54002 70522 86200 333 56700 82812 86825=
85586,2013,06,29,00,00,AAXX 29004 85586 113// 83304 10124 20110 40237 53010 60001 71011 886// 333 10154 56799 88707=
85586,2013,06,29,03,00,AAXX 29034 85586 NIL=
85586,2013,06,29,06,00,AAXX 29064 85586 NIL=
85586,2013,06,29,09,00,AAXX 29094 85586 NIL=
85586,2013,06,29,12,00,AAXX 29124 85586 11103 81107 10055 20046 40217 53004 60004 74600 886// 333 20051 31/// 50080 55031 56799 70000 88703=
85586,2013,06,29,15,00,AAXX 29154 85586 41220 80000 10096 20086 40228 52014 71044 886// 333 56799 88706=
85586,2013,06,29,18,00,AAXX 29184 85586 11458 42904 10134 20103 40221 58007 60001 70544 82230 333 56760 82815 84359=
85586,2013,06,29,21,00,AAXX 29214 85586 42960 22804 10131 20095 40226 53005 82030 333 56060 82359=
85586,2013,06,30,00,00,AAXX 30004 85586 11956 00000 10061 20041 40238 51009 60001 70500 333 10143=
85586,2013,06,30,03,00,AAXX 30034 85586 NIL=
85586,2013,06,30,06,00,AAXX 30064 85586 NIL=
85586,2013,06,30,09,00,AAXX 30094 85586 NIL=
85586,2013,06,30,12,00,AAXX 30124 85586 11350 21205 10040 20032 40237 52007 60004 71000 81701 333 20040 31/// 50100 55042 56606 70000 81708=
85586,2013,06,30,15,00,AAXX 30154 85586 42960 51203 10100 20090 40250 52015 80001 333 56006 85075=
85586,2013,06,30,18,00,AAXX 30184 85586 12960 11503 10160 20067 40232 58016 60001 80001 333 56006 81075=
85586,2013,06,30,21,00,AAXX 30214 85586 42960 22307 10130 20095 40235 53004 80001 333 56006 82075=
85586,2013,07,01,00,00,AAXX 01004 85586 12960 50000 10052 20044 40249 52012 60001 80001 333 10162 56006 85075=
85586,2013,07,01,03,00,AAXX 01034 85586 NIL=
85586,2013,07,01,06,00,AAXX 01064 85586 NIL=
85586,2013,07,01,09,00,AAXX 01094 85586 NIL=
85586,2013,07,01,12,00,AAXX 01124 85586 12960 61204 10028 20020 40221 57004 60004 80001 333 20022 31/// 50130 55070 56006 70000 86075=
85586,2013,07,01,15,00,AAXX 01154 85586 42960 61003 10106 20072 40224 52007 80005 333 56000 86273=
85586,2013,07,01,18,00,AAXX 01184 85586 12960 52407 10140 20084 40203 57021 60001 80001 333 56000 85073=
85586,2013,07,01,21,00,AAXX 01214 85586 42960 40102 10138 20099 40200 53003 80001 333 56000 84073=
85586,2013,07,02,00,00,AAXX 02004 85586 12960 00000 10070 20057 40199 54001 60001 333 10152=
85586,2013,07,02,03,00,AAXX 02034 85586 NIL=
85586,2013,07,02,06,00,AAXX 02064 85586 NIL=
85586,2013,07,02,09,00,AAXX 02094 85586 NIL=
85586,2013,07,02,12,00,AAXX 02124 85586 11306 80902 10060 20052 40187 57005 60004 74642 886// 333 20030 31/// 50140 55082 56099 70000 88704=
85586,2013,07,02,15,00,AAXX 02154 85586 41460 59901 10108 20098 40195 52010 70242 83101 333 56000 83815 85073=
85586,2013,07,02,18,00,AAXX 02184 85586 12960 62708 10138 20104 40172 57023 60001 80009 333 56006 86170=
85586,2013,07,02,21,00,AAXX 02214 85586 42560 72803 10126 20102 40185 52013 82130 333 56660 82820 87360=
85586,2013,07,03,00,00,AAXX 03004 85586 11420 81404 10112 20098 40209 52014 60031 76044 8212/ 333 10129 56779 82815 88457=
85586,2013,07,03,03,00,AAXX 03034 85586 NIL=
85586,2013,07,03,06,00,AAXX 03064 85586 NIL=
85586,2013,07,03,09,00,AAXX 03094 85586 NIL=
85586,2013,07,03,12,00,AAXX 03124 85586 12560 80308 10119 20071 40180 53005 60004 885// 333 20063 31/// 50130 55029 56799 70000 88625=
85586,2013,07,03,15,00,AAXX 03154 85586 42560 83505 10124 20076 40189 52009 885// 333 56799 88625=
85586,2013,07,03,18,00,AAXX 03184 85586 11308 82305 10121 20105 40184 58004 69901 75322 886// 333 56799 88708=
85586,2013,07,03,21,00,AAXX 03214 85586 41308 83204 10112 20102 40195 53011 75355 886// 333 56799 88708=
85586,2013,07,04,00,00,AAXX 04004 85586 NIL=
85586,2013,07,04,03,00,AAXX 04034 85586 NIL=
85586,2013,07,04,06,00,AAXX 04064 85586 NIL=
85586,2013,07,04,09,00,AAXX 04094 85586 NIL=
85586,2013,07,04,12,00,AAXX 04124 85586 11820 81204 10102 20086 40182 53006 60094 71022 8803/ 333 20098 32/// 50080 55000 56069 70091 88358=
85586,2013,07,04,15,00,AAXX 04154 85586 41820 80000 10114 20105 40187 53005 71022 8803/ 333 56069 88358=
85586,2013,07,04,18,00,AAXX 04184 85586 11440 82205 10116 20107 40184 56003 69921 71022 888// 333 56599 84815 88656=
85586,2013,07,04,21,00,AAXX 04214 85586 42560 81707 10114 20096 40169 57015 8352/ 333 56409 83625 88458=
85586,2013,07,05,00,00,AAXX 05004 85586 11858 81305 10111 20074 40145 57023 60001 70522 8803/ 333 10122 56069 88358=
85586,2013,07,05,03,00,AAXX 05034 85586 NIL=
85586,2013,07,05,06,00,AAXX 05064 85586 NIL=
85586,2013,07,05,09,00,AAXX 05094 85586 NIL=
85586,2013,07,05,12,00,AAXX 05124 85586 11540 80804 10096 20083 40154 53027 69924 78022 882// 333 20084 32/// 50080 55000 56799 70002 88820=
85586,2013,07,05,15,00,AAXX 05154 85586 41458 83407 10123 20093 40178 52024 78088 882// 333 56799 82815 88825=
85586,2013,07,05,18,00,AAXX 05184 85586 11450 80705 10118 20101 40171 57007 60021 78082 888// 333 56299 82815 88630=
85586,2013,07,05,21,00,AAXX 05214 85586 41320 89901 10108 20098 40182 52011 76382=
85586,2013,07,06,00,00,AAXX 06004 85586 11640 80805 10111 20098 40196 53014 60201 76366 8802/ 333 10125 56079 88540=
85586,2013,07,06,03,00,AAXX 06034 85586 NIL=
85586,2013,07,06,06,00,AAXX 06064 85586 NIL=
85586,2013,07,06,09,00,AAXX 06094 85586 NIL=
85586,2013,07,06,12,00,AAXX 06124 85586 11958 81107 10087 20073 40190 56004 60244 70522 8803/ 333 20084 32/// 50080 55000 56069 70240 88362=
85586,2013,07,06,15,00,AAXX 06154 85586 41956 71205 10114 20092 40193 53004 70511 87030 333 56060 87362=
85586,2013,07,06,18,00,AAXX 06184 85586 11958 71405 10143 20092 40179 58014 60001 705// 80001 333 56006 87075=
85586,2013,07,06,21,00,AAXX 06214 85586 42960 71204 10141 20103 40166 56013 87030 333 56060 87365=
85586,2013,07,07,00,00,AAXX 07004 85586 11956 41206 10113 20088 40158 56008 60001 70511 84030 333 10153 56060 84365=
85586,2013,07,07,03,00,AAXX 07034 85586 NIL=
85586,2013,07,07,06,00,AAXX 07064 85586 NIL=
85586,2013,07,07,09,00,AAXX 07094 85586 NIL=
85586,2013,07,07,12,00,AAXX 07124 85586 11303 80000 10066 20058 40150 52013 60004 74642 886// 333 20066 31/// 50110 50260 56099 70000 88706=
85586,2013,07,07,15,00,AAXX 07154 85586 41206 80603 10098 20091 40162 52014 74644 886// 333 56099 88706=
85586,2013,07,07,18,00,AAXX 07184 85586 11340 83304 10126 20113 40159 58003 60001 71022 885// 333 56699 83608 88612=
85586,2013,07,07,21,00,AAXX 07214 85586 41450 83004 10126 20104 40156 56003 70522 885// 333 56099 88617=
85586,2013,07,08,00,00,AAXX 08004 85586 11550 80000 10118 20101 40156 54000 60001 70522 885// 333 10127 56099 88620=
85586,2013,07,08,03,00,AAXX 08034 85586 NIL=
85586,2013,07,08,06,00,AAXX 08064 85586 NIL=
85586,2013,07,08,09,00,AAXX 08094 85586 NIL=
85586,2013,07,08,12,00,AAXX 08124 85586 11557 70603 10104 20079 40167 52012 60004 70522 87500 333 20104 31/// 50080 55000 56600 70000 87623=
85586,2013,07,08,15,00,AAXX 08154 85586 42560 60506 10126 20068 40181 52015 86500 333 56200 86630=
85586,2013,07,08,18,00,AAXX 08184 85586 12460 53107 10140 20076 40167 57014 60001 82101 333 56700 82815 85075=
85586,2013,07,08,21,00,AAXX 08214 85586 42460 53207 10135 20099 40162 56005 82101 333 56000 82815 85073=
85586,2013,07,09,00,00,AAXX 09004 85586 11958 39902 10090 20078 40165 51003 60001 70522 80001 333 10148 56000 83073=
85586,2013,07,09,03,00,AAXX 09034 85586 NIL=
85586,2013,07,09,06,00,AAXX 09064 85586 NIL=
85586,2013,07,09,09,00,AAXX 09094 85586 NIL=
85586,2013,07,09,12,00,AAXX 09124 85586 12560 70205 10130 20091 40178 53004 60004 81530 333 20080 31/// 50140 55057 56660 70000 81630 87360=
85586,2013,07,09,15,00,AAXX 09154 85586 42560 70000 10142 20087 40189 52011 86530 333 56000 86620=
85586,2013,07,09,18,00,AAXX 09184 85586 12560 73308 10162 20118 40179 57010 60001 84508 333 56700 84630 87270=
85586,2013,07,09,21,00,AAXX 09214 85586 42560 70105 10160 20098 40173 56006 84520 333 56800 84625 87462=
85586,2013,07,10,00,00,AAXX 10004 85586 11558 89902 10124 20104 40177 56004 69911 78082 885// 333 10164 56799 88620=
85586,2013,07,10,03,00,AAXX 10034 85586 NIL=
85586,2013,07,10,06,00,AAXX 10064 85586 NIL=
85586,2013,07,10,09,00,AAXX 10094 85586 NIL=
85586,2013,07,10,12,00,AAXX 10124 85586 12560 80000 10128 20110 40165 54000 69954 70222 8557/ 333 20128 32/// 50040 55009 56779 70005 85625 83363=
85586,2013,07,10,15,00,AAXX 10154 85586 12460 83206 10147 20115 40185 52005 60001 8557/ 333 56779 85615 83362=
85586,2013,07,10,17,00,AAXX 10174 85586 12460 83206 10147 20115 40185 52005 60001=
85586,2013,07,10,18,00,AAXX 10184 85586 12460 83206 10147 20115 40185 52005 60001 8557/ 333 56779 85615 83362=
85586,2013,07,10,21,00,AAXX 10214 85586 41460 83306 10150 20133 40195 52010 70252 8657/ 333 56779 86613=
85586,2013,07,11,00,00,AAXX 11004 85586 12460 60000 10124 20106 40201 52005 69921 70252 86500 333 10151 56700 86615=
85586,2013,07,11,03,00,AAXX 11034 85586 NIL=
85586,2013,07,11,06,00,AAXX 11064 85586 NIL=
85586,2013,07,11,09,00,AAXX 11094 85586 NIL=
85586,2013,07,11,12,00,AAXX 11124 85586 11406 20000 10109 20105 40238 52014 60034 74484 82200 333 20109 32/// 50040 55001 56600 70031 82815=
85586,2013,07,11,15,00,AAXX 11154 85586 41360 62102 10138 20124 40249 52012 70242 86600 333 56500 86709=
85586,2013,07,11,18,00,AAXX 11184 85586 NIL=
85586,2013,07,11,21,00,AAXX 11214 85586 42960 02209 10146 20122 40232 57007=
85586,2013,07,12,00,00,AAXX 12004 85586 11958 09902 10098 20085 40239 52007 60001 70500 333 10176=
85586,2013,07,12,03,00,AAXX 12034 85586 NIL=
85586,2013,07,12,06,00,AAXX 12064 85586 NIL=
85586,2013,07,12,09,00,AAXX 12094 85586 NIL=
85586,2013,07,12,12,00,AAXX 12124 85586 12960 01202 10050 22042 40213 53011 60004 333 20050 31/// 50130 55054 70000=
85586,2013,07,12,15,00,AAXX 12154 85586 41958 09902 10122 20098 40220 52010 70500=
85586,2013,07,12,18,00,AAXX 12184 85586 12960 02306 10145 20105 40212 57008 60001=
85586,2013,07,12,21,00,AAXX 12214 85586 42960 02404 10134 20107 40214 54002=
85586,2013,07,13,00,00,AAXX 13004 85586 11958 00000 10092 20081 40225 52011 60001 70500 333 10148=
85586,2013,07,13,03,00,AAXX 13034 85586 NIL=
85586,2013,07,13,06,00,AAXX 13064 85586 NIL=
85586,2013,07,13,09,00,AAXX 13094 85586 NIL=
85586,2013,07,13,12,00,AAXX 13124 85586 12960 01805 10060 20049 40249 53007 60004 333 20024 31/// 50170 55078 70000=
85586,2013,07,13,15,00,AAXX 13154 85586 42960 01506 10104 20071 40256 52008=
85586,2013,07,13,18,00,AAXX 13184 85586 12960 11204 10162 20064 40234 58020 60001 81030 333 56060 81360=
85586,2013,07,13,21,00,AAXX 13211 85586 42960 11406 10176 20024 40217 56016 80002 333 56006 81075=
85586,2013,07,14,00,00,AAXX 14004 85586 12960 41603 10116 20072 40228 53009 60001 80002 333 10186 56006 84075=
85586,2013,07,14,03,00,AAXX 14034 85586 NIL=
85586,2013,07,14,06,00,AAXX 14064 85586 NIL=
85586,2013,07,14,09,00,AAXX 14094 85586 NIL=
85586,2013,07,14,12,00,AAXX 14124 85586 12960 01304 10064 20046 40225 53003 60004 333 20059 31/// 50120 55086 70000=
85586,2013,07,14,15,00,AAXX 14154 85586 42960 01607 10164 20087 40230 51005=
85586,2013,07,14,18,00,AAXX 14184 85586 12960 01512 10211 20071 40210 53020 60001=
85586,2013,07,14,21,00,AAXX 14211 85586 42960 01712 10201 20083 40200 56009=
85586,2013,07,15,00,00,AAXX 15004 85586 11958 01606 10143 20083 40211 53010 60001 70500 333 10215=
85586,2013,07,15,03,00,AAXX 15034 85586 NIL=
85586,2013,07,15,06,00,AAXX 15064 85586 NIL=
85586,2013,07,15,09,00,AAXX 15094 85586 NIL=
85586,2013,07,15,12,00,AAXX 15124 85586 12960 01309 10104 20085 40186 54000 60004 333 20102 31/// 50130 55094 70000=
85586,2013,07,15,15,00,AAXX 15154 85586 42960 01709 10162 20098 40186 50000=
85586,2013,07,15,18,00,AAXX 15184 85586 12960 01507 10208 20083 40161 57025 60001=
85586,2013,07,15,21,00,AAXX 15214 85586 42960 02005 10208 20045 40150 57011=
85586,2013,07,16,00,00,AAXX 16004 85586 11958 02006 10152 20053 40160 53010 60001 70500 333 10226=
85586,2013,07,16,03,00,AAXX 16034 85586 NIL=
85586,2013,07,16,06,00,AAXX 16064 85586 NIL=
85586,2013,07,16,09,00,AAXX 16094 85586 NIL=
85586,2013,07,16,12,00,AAXX 16124 85586 12960 01608 10094 20061 40145 53002 60004 333 20088 31/// 50130 55095 70000=
85586,2013,07,16,15,00,AAXX 16154 85586 42960 01509 10154 20082 40144 55001=
85586,2013,07,16,18,00,AAXX 16184 85586 12960 01909 10204 20088 40126 58017 60001=
85586,2013,07,16,21,00,AAXX 16214 85586 42960 01712 10194 20076 40125 55001=
85586,2013,07,17,00,00,AAXX 17004 85586 11958 00000 10126 20062 40142 53016 60001 70500 333 10212=
85586,2013,07,17,03,00,AAXX 17034 85586 NIL=
85586,2013,07,17,06,00,AAXX 17064 85586 NIL=
85586,2013,07,17,09,00,AAXX 17094 85586 NIL=
85586,2013,07,17,12,00,AAXX 17124 85586 12960 01005 10038 20024 40174 52009 60004 333 20027 31/// 50130 55094 70000=
85586,2013,07,17,15,00,AAXX 17154 85586 41208 70802 10094 20083 40199 52020 74444 87600 333 56700 87704=
85586,2013,07,17,18,00,AAXX 17184 85586 11956 02805 10143 20097 40180 58017 60001 70500=
85586,2013,07,17,21,00,AAXX 17214 85586 42960 02404 10143 20097 40184 54000=
85586,2013,07,18,00,00,AAXX 18004 85586 12960 00000 10090 20070 40192 52006 60001 333 10150=
85586,2013,07,18,03,00,AAXX 18034 85586 NIL=
85586,2013,07,18,06,00,AAXX 18064 85586 NIL=
85586,2013,07,18,09,00,AAXX 18094 85586 NIL=
85586,2013,07,18,12,00,AAXX 18124 85586 11956 50000 10036 20022 40205 52007 60004 70522 83031 333 20036 31/// 50050 55068 56066 70000 83365=
85586,2013,07,18,15,00,AAXX 18154 85586 41457 30503 10116 20086 40208 52006 70511 81530 333 56660 81615=
85586,2013,07,18,18,00,AAXX 18184 85586 12460 42307 10123 20086 40189 58018 60001 83501 333 56606 83617=
85586,2013,07,18,21,00,AAXX 18214 85586 42960 22308 10113 20074 40186 57003 80001 333 56006 82073=
85586,2013,07,19,00,00,AAXX 19004 85586 12960 10000 10080 20056 40196 53008 60001 80001 333 10132 56006 81073=
85586,2013,07,19,03,00,AAXX 19034 85586 NIL=
85586,2013,07,19,06,00,AAXX 19064 85586 NIL=
85586,2013,07,19,09,00,AAXX 19094 85586 NIL=
85586,2013,07,19,12,00,AAXX 19124 85586 12960 80000 10032 20022 40188 53015 60004 8807/ 333 20026 31/// 50070 55066 56069 70000 88363=
85586,2013,07,19,15,00,AAXX 19154 85586 42960 70000 10082 20047 40194 52007 87030 333 56060 87363=
85586,2013,07,19,18,00,AAXX 19184 85586 12560 62403 10095 20055 40186 58007 60001 81130 333 56660 81820 85365=
85586,2013,07,19,21,00,AAXX 19214 85586 42960 52304 10095 20055 40185 57001 84031 333 56066 84365=
85586,2013,07,20,00,00,AAXX 20004 85586 12960 00000 10060 20045 40195 53010 60001 333 10104=
85586,2013,07,20,03,00,AAXX 20034 85586 NIL=
85586,2013,07,20,06,00,AAXX 20064 85586 NIL=
85586,2013,07,20,09,00,AAXX 20094 85586 NIL=
85586,2013,07,20,12,00,AAXX 20124 85586 11950 01504 10020 20010 40248 52027 60004 71000 333 20003 34/// 50080 55009 70000=
85586,2013,07,20,15,00,AAXX 20154 85586 42560 11104 10090 20049 40268 52021 81500 333 56600 81620=
85586,2013,07,20,18,00,AAXX 20184 85586 12560 22607 10112 20047 40255 58011 60001 82200 333 56600 82820=
85586,2013,07,20,21,00,AAXX 20214 85586 42560 32406 10099 20057 40254 57001 82100 333 56600 83820=
85586,2013,07,21,00,00,AAXX 21004 85586 12560 10000 10062 20036 40258 52003 60001 81100 333 10114 56600 81820=
85586,2013,07,21,03,00,AAXX 21034 85586 NIL=
85586,2013,07,21,06,00,AAXX 21064 85586 NIL=
85586,2013,07,21,09,00,AAXX 21094 85586 NIL=
85586,2013,07,21,12,00,AAXX 21124 85586 11902 01004 10000 21008 40259 52007 60004 74640 333 20000 31/// 50130 55065 70000=
85586,2013,07,21,15,00,AAXX 21154 85586 41960 00904 10066 20035 40262 52005 70240=
85586,2013,07,21,18,00,AAXX 21184 85586 12460 12105 10106 20015 40241 58019 60001 81500 333 56600 81617=
85586,2013,07,21,21,00,AAXX 21214 85586 42560 12108 10100 20017 40232 57010 81100 333 56600 81820=
85586,2013,07,22,00,00,AAXX 22004 85586 12960 00000 10026 21006 40242 53008 60001 333 10116=
85586,2013,07,22,03,00,AAXX 22034 85586 NIL=
85586,2013,07,22,06,00,AAXX 22064 85586 NIL=
85586,2013,07,22,09,00,AAXX 22094 85586 NIL=
85586,2013,07,22,12,00,AAXX 22124 85586 12960 01206 10006 21008 40270 52011 60004 333 21016 31/// 50170 55082 70000=
85586,2013,07,22,15,00,AAXX 22154 85586 42960 09902 10088 20009 40271 52006=
85586,2013,07,22,18,00,AAXX 22184 85586 12960 02109 10140 21008 40269 56003 60001=
85586,2013,07,22,21,00,AAXX 22214 85586 42960 22207 10106 20031 40258 57011 80001 333 56000 82075=
85586,2013,07,23,00,00,AAXX 23004 85586 12960 01804 10058 20029 40260 54002 60001 80001 333 10142 56000 82075=
85586,2013,07,23,03,00,AAXX 23034 85586 NIL=
85586,2013,07,23,06,00,AAXX 23064 85586 NIL=
85586,2013,07,23,09,00,AAXX 23094 85586 NIL=
85586,2013,07,23,12,00,AAXX 23124 85586 12960 01604 10024 21014 40239 53004 60003 333 20017 34/// 50140 55095 70000=
85586,2013,07,23,15,00,AAXX 23154 85586 42960 09902 10098 21006 40228 57008=
85586,2013,07,23,18,00,AAXX 23184 85586 12960 01907 10158 20003 40208 57020 60001=
85586,2013,07,23,21,00,AAXX 23214 85586 42960 01607 10142 20007 40196 57012=
85586,2013,07,24,00,00,AAXX 24004 85586 11956 01707 10077 20002 40195 58003 60001 70500 333 10160=
85586,2013,07,24,03,00,AAXX 24034 85586 NIL=
85586,2013,07,24,06,00,AAXX 24064 85586 NIL=
85586,2013,07,24,09,00,AAXX 24094 85586 NIL=
85586,2013,07,24,12,00,AAXX 24124 85586 12960 01306 10056 20000 40156 58003 60004 333 20023 31/// 50130 55095 70000=
85586,2013,07,24,15,00,AAXX 24154 85586 42960 01206 10135 20020 40155 53001=
85586,2013,07,24,18,00,AAXX 24184 85586 12960 02804 10201 20080 40135 57019 60001=
85586,2013,07,24,21,00,AAXX 24214 85586 42960 03304 10143 20086 40131 56004=
85586,2013,07,25,00,00,AAXX 25004 85586 11956 00000 10058 20043 40135 53003 60001 70500 333 10203=
85586,2013,07,25,03,00,AAXX 25034 85586 NIL=
85586,2013,07,25,06,00,AAXX 25064 85586 NIL=
85586,2013,07,25,09,00,AAXX 25094 85586 NIL=
85586,2013,07,25,12,00,AAXX 25124 85586 11320 80603 10076 20070 40149 53010 60004 71022 886// 333 20020 31/// 50090 55095 56099 70000 88708=
85586,2013,07,25,15,00,AAXX 25154 85586 41440 70505 10098 20080 40161 52013 71022 87600 333 56200 87710=
85586,2013,07,25,18,00,AAXX 25184 85586 11440 83305 10116 20082 40152 57009 60001 70522 885// 333 56899 88610=
85586,2013,07,25,21,00,AAXX 25214 85586 41450 83303 10116 20082 40150 54002 70522 885// 333 56899 88612=
85586,2013,07,26,00,00,AAXX 26004 85586 11350 89902 10108 20079 40158 52008 60001 70522 333 10118 56099 88612=
85586,2013,07,26,03,00,AAXX 26034 85586 NIL=
85586,2013,07,26,06,00,AAXX 26064 85586 NIL=
85586,2013,07,26,09,00,AAXX 26094 85586 NIL=
85586,2013,07,26,12,00,AAXX 26124 85586 11460 53405 10104 20089 40196 52021 60014 70181 83131 333 20080 32/// 50060 55002 56666 70011 83815=
85586,2013,07,26,15,00,AAXX 26154 85586 42560 73307 10145 20099 40206 52011 87500 333 56600 87620=
85586,2013,07,26,18,00,AAXX 26184 85586 12460 73208 10150 20114 40217 52012 60001 87500 333 56600 87618=
85586,2013,07,26,21,00,AAXX 26214 85586 42460 73306 10140 20104 40220 52003 87500 333 56600 887618=
85586,2013,07,27,00,00,AAXX 27004 85586 12460 60000 10111 20090 40231 52010 60001 86500 333 10158 56600 86618=
85586,2013,07,27,03,00,AAXX 27034 85586 NIL=
85586,2013,07,27,06,00,AAXX 27064 85586 NIL=
85586,2013,07,27,09,00,AAXX 27094 85586 NIL=
85586,2013,07,27,12,00,AAXX 27124 85586 12960 71204 10072 20060 40198 56008 60004 80002 333 20070 31/// 50110 55022 56006 70000 87070=
85586,2013,07,27,15,00,AAXX 27154 85586 42960 71903 10140 20092 40191 56004 80002 333 56006 87070=
85586,2013,07,27,18,00,AAXX 27184 85586 12960 72408 10144 20098 40174 57017 60001 80002 333 56006 87073=
85586,2013,07,27,21,00,AAXX 27214 85586 41956 72405 10126 20103 40174 56001 70522 80002 333 56006 87073=
85586,2013,07,28,00,00,AAXX 28004 85586 11940 70000 10100 20089 40184 53009 60001 70522 80002 333 10172 56006 87073=
85586,2013,07,28,03,00,AAXX 28034 85586 NIL=
85586,2013,07,28,06,00,AAXX 28064 85586 NIL=
85586,2013,07,28,09,00,AAXX 28094 85586 NIL=
85586,2013,07,28,12,00,AAXX 28124 85586 11204 81202 10056 20050 40173 53010 60004 74622 886// 333 20048 31/// 50130 55039 56099 70000 88704=
85586,2013,07,28,15,00,AAXX 28154 85586 41930 80000 10096 20088 40184 52010 71042 83032 333 56066 83360 85073=
85586,2013,07,28,18,00,AAXX 28184 85586 11940 62503 10132 20102 40172 58011 60001 70522 80001 333 56006 86073=
85586,2013,07,28,21,00,AAXX 28214 85586 41440 82603 10114 20098 40168 57004 71022 85501 333 56606 85610 85073=
85586,2013,07,29,00,00,AAXX 29004 85586 11210 80000 10092 20082 40178 53009 60001 71022 886// 333 10138 56099 88705=
85586,2013,07,29,03,00,AAXX 29034 85586 NIL=
85586,2013,07,29,06,00,AAXX 29064 85586 NIL=
85586,2013,07,29,09,00,AAXX 29094 85586 NIL=
85586,2013,07,29,12,00,AAXX 29124 85586 11320 82404 10098 20088 40188 53016 69934 75022 886// 333 20096 31/// 50080 55025 56799 70003 88707=
85586,2013,07,29,15,00,AAXX 29154 85586 41440 80000 10098 20081 40200 52012 70552 886// 333 56099 88710=
85586,2013,07,29,18,00,AAXX 29184 85586 11440 83204 10108 20076 40195 56005 60001 70522 885// 333 56799 88610=
85586,2013,07,29,21,00,AAXX 29214 85586 41460 89902 10112 20069 40194 54001 70522 885// 333 56799 88612=
85586,2013,07,30,00,00,AAXX 30004 85586 11556 80704 10106 20077 40197 53003 60001 70522 885// 333 10116 56799 88625=
85586,2013,07,30,03,00,AAXX 30034 85586 NIL=
85586,2013,07,30,06,00,AAXX 30064 85586 NIL=
85586,2013,07,30,09,00,AAXX 30094 85586 NIL=
85586,2013,07,30,12,00,AAXX 30124 85586 12560 70406 10104 20057 40229 52023 69904 87500 333 20102 31/// 50090 55000 56700 70000 87625=
85586,2013,07,30,15,00,AAXX 30154 85586 42460 60000 10134 20054 40236 51003 82130 333 56760 82815 86358=
85586,2013,07,30,18,00,AAXX 30184 85586 12660 32705 10142 20052 40223 57013 60001 83500 333 56600 83640=
85586,2013,07,30,21,00,AAXX 30214 85586 42560 22405 10138 20045 40224 54001 82100 333 56600 82820=
85586,2013,07,31,00,00,AAXX 31004 85586 11956 00000 10073 20046 40233 53009 60001 70500 333 10154=
85586,2013,07,31,03,00,AAXX 31034 85586 NIL=
85586,2013,07,31,06,00,AAXX 31064 85586 NIL=
85586,2013,07,31,09,00,AAXX 31094 85586 NIL=
85586,2013,07,31,12,00,AAXX 31124 85586 12860 41106 10054 20036 40223 53010 60004 84030 333 20023 31/// 50110 55056 56700 70000 84358=
85586,2013,07,31,15,00,AAXX 31154 85586 41956 10905 10141 20071 40226 51006 70500 80001 333 56006 81075=
85586,2013,07,31,18,00,AAXX 31184 85586 12960 02408 10147 20064 40210 58016 60001=
85586,2013,07,31,21,00,AAXX 31214 85586 42960 02309 10138 20088 40196 56014=
85586,2013,08,01,00,00,AAXX 01004 85586 11956 00000 10074 20055 40200 53004 60001 70500 333 10157=
85586,2013,08,01,03,00,AAXX 01034 85586 NIL=
85586,2013,08,01,06,00,AAXX 01064 85586 NIL=
85586,2013,08,01,09,00,AAXX 01094 85586 NIL=
85586,2013,08,01,12,00,AAXX 01124 85586 11230 80000 10070 20064 40219 53015 60004 71022 886// 333 20023 31/// 50070 55096 56699 70000 88705=
85586,2013,08,01,15,00,AAXX 01154 85586 41340 89901 10095 20084 40232 52016 71022 886// 333 56099 88708=
85586,2013,08,01,18,00,AAXX 01184 85586 11457 82404 10106 20084 40233 54001 60001 70522 885// 333 56599 88612=
85586,2013,08,01,21,00,AAXX 01214 85586 41457 83003 10102 20069 40236 51003 70522 885// 333 56799 88615=
85586,2013,08,02,00,00,AAXX 02004 85586 11350 80000 10094 20070 40244 52008 60001 70522 885// 333 10106 56099 88610=
85586,2013,08,02,03,00,AAXX 02034 85586 NIL=
85586,2013,08,02,06,00,AAXX 02064 85586 NIL=
85586,2013,08,02,09,00,AAXX 02094 85586 NIL=
85586,2013,08,02,12,00,AAXX 02124 85586 11330 81704 10076 20068 40229 53006 60004 71022 886// 333 20024 31/// 50080 55000 56099 70000 88708=
85586,2013,08,02,15,00,AAXX 02154 85586 41330 81803 10088 20080 40225 54002 71022 886// 333 56499 88708=
85586,2013,08,02,18,00,AAXX 02184 85586 11340 81404 10102 20078 40212 57013 60001 70522 886// 333 56499 88708=
85586,2013,08,02,21,00,AAXX 02214 85586 41440 82403 10102 20074 40197 57015 70522 886// 333 56099 88710=
85586,2013,08,03,00,00,AAXX 03004 85586 11340 80000 10084 20066 40192 56005 60001 70522 886// 333 10106 56099 88710=
85586,2013,08,03,03,00,AAXX 03034 85586 NIL=
85586,2013,08,03,06,00,AAXX 03064 85586 NIL=
85586,2013,08,03,09,00,AAXX 03094 85586 NIL=
85586,2013,08,03,12,00,AAXX 03124 85586 11658 70604 10080 20062 40249 52013 60004 70522 83531 333 20056 31/// 50070 55000 56666 70000 83640 83360 85075=
85586,2013,08,03,15,00,AAXX 03154 85586 41558 70303 10120 20066 40270 52022 70522 81130 333 56660 81820 87360=
85586,2013,08,03,18,00,AAXX 03184 85586 12560 73305 10126 20074 40271 51001 60001 81530 333 56660 81620 87360=
85586,2013,08,03,21,00,AAXX 03214 85586 NIL=
85586,2013,08,04,00,00,AAXX 04004 85586 11958 70000 10090 20074 40279 54000 60001 70522 8803/ 333 10130 56009 88360=
85586,2013,08,04,03,00,AAXX 04034 85586 NIL=
85586,2013,08,04,06,00,AAXX 04064 85586 NIL=
85586,2013,08,04,09,00,AAXX 04094 85586 NIL=
85586,2013,08,04,12,00,AAXX 04124 85586 12960 71204 10070 20062 40264 53004 60004 70222 87030 333 20062 31/// 50070 55000 56060 70000 87364=
85586,2013,08,04,15,00,AAXX 04154 85586 42960 50904 10123 20085 40254 58008 85030 333 56060 85365=
85586,2013,08,04,18,00,AAXX 04184 85586 12960 62308 10144 20089 40232 52021 60001 80001 333 56006 86070=
85586,2013,08,04,21,00,AAXX 04214 85586 42960 62309 10138 20082 40233 53001 84031 333 56066 84365=
85586,2013,08,05,00,00,AAXX 05004 85586 12960 70000 10110 20091 40243 52010 60001 84031 333 10155 56066 84365 83070=
85586,2013,08,05,03,00,AAXX 05034 85586 NIL=
85586,2013,08,05,06,00,AAXX 05064 85586 NIL=
85586,2013,08,05,09,00,AAXX 05094 85586 NIL=
85586,2013,08,05,12,00,AAXX 05124 85586 12960 50000 10034 20022 40231 53006 60004 80001 333 20031 31/// 50080 55055 56006 70000 85075=
85586,2013,08,05,15,00,AAXX 05154 85586 42960 01509 10151 20074 40239 51012=
85586,2013,08,05,18,00,AAXX 05184 85586 12960 01506 10200 20043 40213 57026 60001=
85586,2013,08,05,21,00,AAXX 05214 85586 42960 01807 10174 20054 40198 57015=
85586,2013,08,06,00,00,AAXX 06004 85586 11958 41605 10094 20056 40197 55001 60001 70500 80001 333 10203 56006 84075=
85586,2013,08,06,03,00,AAXX 06034 85586 NIL=
85586,2013,08,06,06,00,AAXX 06064 85586 NIL=
85586,2013,08,06,09,00,AAXX 06094 85586 NIL=
85586,2013,08,06,12,00,AAXX 06124 85586 12960 81104 10090 20060 40173 53018 60004 84015 333 20044 31/// 50090 55094 56066 70000 84465 84270=
85586,2013,08,06,15,00,AAXX 06154 85586 42960 69902 10100 20072 40176 50004 86031 333 56000 86365=
85586,2013,08,06,18,00,AAXX 06184 85586 12960 69901 10150 20084 40160 57016 60001 86030 333 56000 86365=
85586,2013,08,06,21,00,AAXX 06214 85586 41657 72405 10115 20094 40167 52007 70522 83530 333 56500 83640 87362=
85586,2013,08,07,00,00,AAXX 07004 85586 11550 80000 10094 20083 40170 57007 60001 70522 8552/ 333 10152 56009 84620 88462=
85586,2013,08,07,03,00,AAXX 07034 85586 NIL=
85586,2013,08,07,06,00,AAXX 07064 85586 NIL=
85586,2013,08,07,09,00,AAXX 07094 85586 NIL=
85586,2013,08,07,12,00,AAXX 07124 85586 11450 83603 10102 20085 40167 53009 60184 76166 8552/ 333 20083 32/// 50060 55009 56779 70180 85618 84459=
85586,2013,08,07,15,00,AAXX 07154 85586 41456 83505 10109 20092 40194 52027 76062=
85586,2013,08,07,18,00,AAXX 07184 85586 11460 73307 10131 20108 40192 53002 60081 70262 87200 333 56700 87817=
85586,2013,08,07,21,00,AAXX 07214 85586 41560 22306 10131 20108 40201 52009 70161 82200 333 56600 82820=
85586,2013,08,08,00,00,AAXX 08004 85586 11960 00000 10090 20071 40219 52019 69951 70181 333 10132=
85586,2013,08,08,03,00,AAXX 08034 85586 NIL=
85586,2013,08,08,06,00,AAXX 08064 85586 NIL=
85586,2013,08,08,09,00,AAXX 08094 85586 NIL=
85586,2013,08,08,12,00,AAXX 08124 85586 11960 31502 10036 20024 40236 53002 60094 81031 333 20006 31/// 50110 55019 56066 70085 81360 83075=
85586,2013,08,08,15,00,AAXX 08154 85586 41358 31405 10100 20066 40238 51005 70522 81101 333 56000 81808 83075=
85586,2013,08,08,18,00,AAXX 08184 85586 12460 51808 10136 20026 40231 56007 60001 82109 333 56400 82812 85170=
85586,2013,08,08,21,00,AAXX 08214 85586 42460 42308 10116 20056 40229 54002 81101 333 56000 81812 84070=
85586,2013,08,09,00,00,AAXX 09004 85586 12960 02006 10082 20057 40238 52019 60001 333 10142=
85586,2013,08,09,03,00,AAXX 09034 85586 NIL=
85586,2013,08,09,06,00,AAXX 09064 85586 NIL=
85586,2013,08,09,09,00,AAXX 09094 85586 NIL=
85586,2013,08,09,12,00,AAXX 09124 85586 12960 01503 10009 21006 40279 52006 60004 333 20004 31/// 50130 55067 70000=
85586,2013,08,09,15,00,AAXX 09154 85586 42960 01206 10105 20040 40279 56005=
85586,2013,08,09,18,00,AAXX 09184 85586 12960 02409 10120 20041 40268 57010 60001=
85586,2013,08,09,21,00,AAXX 09214 85586 42960 02307 10122 20064 40261 57007=
85586,2013,08,10,00,00,AAXX 10004 85586 11958 20000 10080 20062 40257 56004 60001 70500 80001 333 10140 56000 82073=
85586,2013,08,10,03,00,AAXX 10034 85586 NIL=
85586,2013,08,10,06,00,AAXX 10064 85586 NIL=
85586,2013,08,10,09,00,AAXX 10094 85586 NIL=
85586,2013,08,10,12,00,AAXX 10124 85586 12960 41704 10034 20012 40249 52008 60004 80001 333 20004 31/// 50090 55000 56006 70000 84075=
85586,2013,08,10,15,00,AAXX 10154 85586 42960 01504 10125 20044 40248 53003=
85586,2013,08,10,18,00,AAXX 10184 85586 12960 22408 10144 20065 40231 58017 60001 80001 333 56000 82075=
85586,2013,08,10,21,00,AAXX 10214 85586 42960 72308 10131 20084 40218 57013 80001 333 56006 87075=
85586,2013,08,11,00,00,AAXX 11004 85586 11956 72104 10086 20064 40223 53005 60001 70511 80001 333 10156 56006 87075=
85586,2013,08,11,03,00,AAXX 11034 85586 NIL=
85586,2013,08,11,06,00,AAXX 11064 85586 NIL=
85586,2013,08,11,09,00,AAXX 11094 85586 NIL=
85586,2013,08,11,12,00,AAXX 11124 85586 12960 60000 10037 20017 40235 53015 60004 80001 333 20034 31/// 50130 55075 56006 70000 86075=
85586,2013,08,11,15,00,AAXX 11154 85586 42960 70605 10113 20071 40240 51009 87030 333 56060 87365=
85586,2013,08,11,18,00,AAXX 11184 85586 12460 82504 10135 20088 40230 58010 60001 8253/ 333 56769 82615 88359=
85586,2013,08,11,21,00,AAXX 11214 85586 41558 82404 10133 20113 40224 56006 70522 885// 333 56799 88620=
85586,2013,08,12,00,00,AAXX 12004 85586 11556 42004 10116 20099 40225 55001 60001 70522 84500 333 10137 56700 84625=
85586,2013,08,12,03,00,AAXX 12034 85586 NIL=
85586,2013,08,12,06,00,AAXX 12064 85586 NIL=
85586,2013,08,12,09,00,AAXX 12094 85586 NIL=
85586,2013,08,12,12,00,AAXX 12124 85586 12460 20000 10073 20064 40231 52011 60004 82100 333 20058 31/// 50009 56600 70000 82818=
85586,2013,08,12,15,00,AAXX 12154 85586 42460 32205 10140 20084 40232 51004 83200 333 56500 83815=
85586,2013,08,12,18,00,AAXX 12184 85586 12460 32311 10132 20093 40223 57009 60001 83200 333 56500 83918=
85586,2013,08,12,21,00,AAXX 12214 85586 42460 22307 10134 20092 40226 53006 82200 333 56500 82815=
85586,2013,08,13,00,00,AAXX 13004 85586 12960 02106 10090 20069 40239 52013 60001 333 10142=
85586,2013,08,13,03,00,AAXX 13034 85586 NIL=
85586,2013,08,13,06,00,AAXX 13064 85586 NIL=
85586,2013,08,13,09,00,AAXX 13094 85586 NIL=
85586,2013,08,13,12,00,AAXX 13124 85586 12960 01404 10054 20042 40261 53003 60004 333 20018 31/// 50080 55089 70000=
85586,2013,08,13,15,00,AAXX 13154 85586 42960 01506 10118 20050 40262 53004=
85586,2013,08,13,18,00,AAXX 13184 85586 12960 01607 10168 20035 40240 57022 60001=
85586,2013,08,13,21,00,AAXX 13214 85586 NIL=
85586,2013,08,14,00,00,AAXX 14004 85586 12960 01403 10124 20020 40239 54001 60001 333 10178=
85586,2013,08,14,03,00,AAXX 14034 85586 NIL=
85586,2013,08,14,06,00,AAXX 14064 85586 NIL=
85586,2013,08,14,09,00,AAXX 14094 85586 NIL=
85586,2013,08,14,12,00,AAXX 14124 85586 12960 01503 10056 20022 40190 56003 60004 333 20050 31/// 50150 55093 70000=
85586,2013,08,14,15,00,AAXX 14154 85586 42960 11507 10158 20020 40190 52002 80001 333 56006 81075=
85586,2013,08,14,18,00,AAXX 14184 85586 12960 11205 10184 20053 40168 57021 60001 80001 333 56006 81075=
85586,2013,08,14,21,00,AAXX 14214 85586 42960 01906 10200 20033 40151 57016=
85586,2013,08,15,00,00,AAXX 15004 85586 12960 01904 10124 20039 40156 53003 60001 333 10218=
85586,2013,08,15,03,00,AAXX 15034 85586 NIL=
85586,2013,08,15,06,00,AAXX 15064 85586 NIL=
85586,2013,08,15,09,00,AAXX 15094 85586 NIL=
85586,2013,08,15,12,00,AAXX 15124 85586 12960 01202 10006 21002 40195 52012 60004 333 20006 31/// 50170 55099 70000=
85586,2013,08,15,15,00,AAXX 15154 85586 42960 03303 10124 20069 40206 52015=
85586,2013,08,15,18,00,AAXX 15184 85586 12960 02404 10134 20072 40193 58013 60001=
85586,2013,08,15,21,00,AAXX 15214 85586 42960 00000 10164 20078 40189 56003=
85586,2013,08,16,00,00,AAXX 16004 85586 12960 00000 10092 20070 40208 52017 60001 333 10170=
85586,2013,08,16,03,00,AAXX 16034 85586 NIL=
85586,2013,08,16,06,00,AAXX 16064 85586 NIL=
85586,2013,08,16,09,00,AAXX 16094 85586 NIL=
85586,2013,08,16,12,00,AAXX 16124 85586 12960 01506 10099 20073 40201 53004 60003 333 20068 31/// 50130 55088 70000=
85586,2013,08,16,15,00,AAXX 16154 85586 42960 01507 10165 20103 40196 58005=
85586,2013,08,16,18,00,AAXX 16184 85586 12960 02306 10176 20087 40172 57024 60001=
85586,2013,08,16,21,00,AAXX 16214 85586 42960 02305 10164 20097 40161 56011=
85586,2013,08,17,00,00,AAXX 17004 85586 11956 00000 10083 20059 40162 54001 60001 70500 333 10209=
85586,2013,08,17,03,00,AAXX 17034 85586 NIL=
85586,2013,08,17,06,00,AAXX 17064 85586 NIL=
85586,2013,08,17,09,00,AAXX 17094 85586 NIL=
85586,2013,08,17,12,00,AAXX 17124 85586 12960 01104 10023 20008 40152 53007 60004 333 20016 34/// 50140 55102 70000=
85586,2013,08,17,15,00,AAXX 17154 85586 42960 02504 10152 20090 40151 53002=
85586,2013,08,17,18,00,AAXX 17184 85586 12960 02404 10173 20092 40128 58022 60001=
85586,2013,08,17,21,00,AAXX 17214 85586 42960 02507 10141 20089 40130 55001=
85586,2013,08,18,00,00,AAXX 18004 85586 11956 00204 10103 20080 40145 52015 60001 70500 333 10176=
85586,2013,08,18,03,00,AAXX 18034 85586 NIL=
85586,2013,08,18,06,00,AAXX 18064 85586 NIL=
85586,2013,08,18,09,00,AAXX 18094 85586 NIL=
85586,2013,08,18,12,00,AAXX 18124 85586 11230 80000 10096 20084 40192 52020 60004 71022 886// 333 20038 31/// 50070 55101 56699 70000 88705=
85586,2013,08,18,18,00,AAXX 18184 85586 11457 82906 10121 20091 40205 58005 60001 70522 885// 333 56799 88615=
85586,2013,08,18,21,00,AAXX 18214 85586 42460 72903 10121 20091 40201 57004 87500 333 56700 87618=
85586,2013,08,19,00,00,AAXX 19004 85586 12460 70000 10103 20084 40209 53006 60001 87500 333 10125 56600 87618=
85586,2013,08,19,03,00,AAXX 19034 85586 NIL=
85586,2013,08,19,06,00,AAXX 19064 85586 NIL=
85586,2013,08,19,09,00,AAXX 19094 85586 NIL=
85586,2013,08,19,12,00,AAXX 19124 85586 12460 71704 10084 20072 40234 53008 60004 87500 333 20084 31/// 50080 55000 56600 70000 87612=
85586,2013,08,19,15,00,AAXX 19154 85586 41958 61208 10124 20075 40237 51005 70522 80008 333 56000 86270=
85586,2013,08,19,18,00,AAXX 19184 85586 12960 52408 10144 20079 40208 57029 60001 80001 333 56000 85073=
85586,2013,08,19,21,00,AAXX 19214 85586 42960 42307 10140 20094 40183 57025 80001 333 56000 84073=
85586,2013,08,20,00,00,AAXX 20004 85586 11958 20000 10096 20077 40181 54002 60001 80001 333 10175 56000 82073=
85586,2013,08,20,03,00,AAXX 20034 85586 NIL=
85586,2013,08,20,06,00,AAXX 20064 85586 NIL=
85586,2013,08,20,09,00,AAXX 20094 85586 NIL=
85586,2013,08,20,12,00,AAXX 20124 85586 11102 80903 10054 20046 40186 52006 60004 74644 886// 333 20054 31/// 50160 55075 56099 70000 88702=
85586,2013,08,20,15,00,AAXX 20154 85586 41450 72303 10102 20091 40200 51005 71042 87600 333 56500 87710=
85586,2013,08,20,18,00,AAXX 20184 85586 12960 22406 10135 20060 40189 57011 60001 80001 333 56000 82073=
85586,2013,08,20,21,00,AAXX 20214 85586 42960 02308 10126 20058 40186 57003=
85586,2013,08,21,00,00,AAXX 21004 85586 11958 09901 10090 20065 40196 54000 60001 70500 333 10142=
85586,2013,08,21,03,00,AAXX 21034 85586 NIL=
85586,2013,08,21,06,00,AAXX 21064 85586 NIL=
85586,2013,08,21,09,00,AAXX 21094 85586 NIL=
85586,2013,08,21,12,00,AAXX 21124 85586 12960 31203 10004 21003 40216 52007 60004 80001 333 20004 31/// 50150 55076 56009 70000 83075=
85586,2013,08,21,15,00,AAXX 21154 85586 42960 31507 10140 20038 40215 52004 80001 333 56006 83075=
85586,2013,08,21,18,00,AAXX 21184 85586 12960 22308 10156 20072 40203 58012 60001 80001 333 56006 82075=
85586,2013,08,21,21,00,AAXX 21214 85586 42960 42406 10148 20079 40193 57010 80001 333 56006 84075=
85586,2013,08,22,00,00,AAXX 22004 85586 12960 22303 10094 20075 40207 53012 60001 80001 333 10177 56006 82075=
85586,2013,08,22,03,00,AAXX 22034 85586 NIL=
85586,2013,08,22,06,00,AAXX 22064 85586 NIL=
85586,2013,08,22,09,00,AAXX 22094 85586 NIL=
85586,2013,08,22,12,00,AAXX 22124 85586 12960 71410 10073 20032 40179 56007 60004 80001 333 20044 31/// 50130 55082 56006 70000 87075=
85586,2013,08,22,15,00,AAXX 22154 85586 42960 61407 10110 20045 40173 56004 80002 333 56000 86073=
85586,2013,08,22,18,00,AAXX 22184 85586 12960 51907 10168 20043 40158 57012 60001 80001 333 56000 85073=
85586,2013,08,22,21,00,AAXX 22214 85586 42660 62109 10122 20056 40149 57009 82531 333 56550 82650 83362 85070=
85586,2013,08,23,00,00,AAXX 23004 85586 11956 81207 10122 20040 40146 50001 60001 70522 8803/ 333 10170 56069 88362=
85586,2013,08,23,03,00,AAXX 23034 85586 NIL=
85586,2013,08,23,06,00,AAXX 23064 85586 NIL=
85586,2013,08,23,09,00,AAXX 23094 85586 NIL=
85586,2013,08,23,12,00,AAXX 23124 85586 12960 80000 10035 20019 40140 53013 60004 8803/ 333 20031 30/// 50150 55063 56069 70000 88362=
85586,2013,08,23,15,00,AAXX 23154 85586 41958 73105 10098 20047 40156 51018 70522 84031 333 56060 84362 87073=
85586,2013,08,23,18,00,AAXX 23184 85586 12660 72606 10105 20031 40156 54000 60001 82530 333 56500 82640 87362=
85586,2013,08,23,21,00,AAXX 23214 85586 42560 89902 10100 20026 40162 51006 8352/ 333 56600 83630 88462=
85586,2013,08,24,00,00,AAXX 24004 85586 11956 70000 10083 20048 40167 51004 60001 70522 87030 333 10116 56060 87362=
85586,2013,08,24,03,00,AAXX 24034 85586 NIL=
85586,2013,08,24,06,00,AAXX 24064 85586 NIL=
85586,2013,08,24,09,00,AAXX 24094 85586 NIL=
85586,2013,08,24,12,00,AAXX 24124 85586 12560 60000 10047 20038 40204 52026 60004 85501 333 20016 31/// 50080 55027 56606 70000 85623=
85586,2013,08,24,15,00,AAXX 24154 85586 42560 13505 10133 20097 40216 52014 81100 333 56600 81825=
85586,2013,08,24,18,00,AAXX 24184 85586 12960 02806 10128 20073 40216 54000 60001=
85586,2013,08,24,21,00,AAXX 24214 85586 42960 00000 10130 20093 40213 57003=
85586,2013,08,25,00,00,AAXX 25004 85586 12960 00000 10084 20064 40255 53011 60001=
85586,2013,08,25,03,00,AAXX 25034 85586 NIL=
85586,2013,08,25,06,00,AAXX 25064 85586 NIL=
85586,2013,08,25,09,00,AAXX 25094 85586 NIL=
85586,2013,08,25,12,00,AAXX 25124 85586 12960 50803 10018 20006 40263 52015 60004 80001 333 20002 31/// 50080 55091 56006 70000 85073=
85586,2013,08,25,15,00,AAXX 25154 85586 42960 70000 10100 20051 40269 52009 82031 333 56066 82366 85073=
85586,2013,08,25,18,00,AAXX 25184 85586 12960 72603 10108 20074 40279 52009 60001 87030 333 56060 87365=
85586,2013,08,25,21,00,AAXX 25214 85586 42960 62804 10114 20076 40279 54000 86030 333 56060 86365=
85586,2013,08,26,00,00,AAXX 26004 85586 12960 00000 10068 20048 40280 54000 60001 333 10122=
85586,2013,08,26,03,00,AAXX 26034 85586 NIL=
85586,2013,08,26,06,00,AAXX 26064 85586 NIL=
85586,2013,08,26,09,00,AAXX 26094 85586 NIL=
85586,2013,08,26,12,00,AAXX 26124 85586 11940 00806 10037 20028 40300 53004 60004 71000 333 20007 31/// 50090 55016 70000=
85586,2013,08,26,15,00,AAXX 26154 85586 42960 01705 10146 20044 40297 54002=
85586,2013,08,26,18,00,AAXX 26184 85586 12960 12309 10138 20057 40279 57018 60001 80001 333 56000 81073=
85586,2013,08,26,21,00,AAXX 26214 85586 42960 29902 10152 20064 40261 57018 82030 333 56000 82365=
85586,2013,08,27,00,00,AAXX 27004 85586 11960 00000 10086 20056 40260 54001 60001 70500 333 10164=
85586,2013,08,27,03,00,AAXX 27034 85586 NIL=
85586,2013,08,27,06,00,AAXX 27064 85586 NIL=
85586,2013,08,27,09,00,AAXX 27094 85586 NIL=
85586,2013,08,27,12,00,AAXX 27124 85586 12960 01503 10064 20016 40241 53007 60004 333 20033 31/// 50100 55096 70000=
85586,2013,08,27,15,00,AAXX 27154 85586 42960 01107 10162 20027 40235 56003=
85586,2013,08,27,18,00,AAXX 27184 85586 12960 11609 10232 20050 40204 57031 60001 80001 333 56000 81073=
85586,2013,08,27,21,00,AAXX 27214 85586 42960 22108 10202 20098 40187 57017 80001 333 56000 82073=
85586,2013,08,28,00,00,AAXX 28001 85586 12960 21804 10166 20095 40186 54001 60001 333 10263 56000 82073=
85586,2013,08,28,03,00,AAXX 28034 85586 NIL=
85586,2013,08,28,06,00,AAXX 28064 85586 NIL=
85586,2013,08,28,09,00,AAXX 28094 85586 NIL=
85586,2013,08,28,12,00,AAXX 28124 85586 12960 01704 10108 20076 40145 56008 60004 333 20096 30/// 50150 55102 70000=
85586,2013,08,28,15,00,AAXX 28154 85586 42960 01512 10216 20085 40133 56011=
85586,2013,08,28,18,00,AAXX 28184 85586 12960 01412 10296 20095 40101 57028 60001=
85586,2013,08,28,21,00,AAXX 28214 85586 42960 03412 10167 20103 40110 53004=
85586,2013,08,29,00,00,AAXX 29004 85586 11956 02908 10121 20105 40137 52027 60001 70500 333 10299=
85586,2013,08,29,03,00,AAXX 29034 85586 NIL=
85586,2013,08,29,06,00,AAXX 29064 85586 NIL=
85586,2013,08,29,09,00,AAXX 29094 85586 NIL=
85586,2013,08,29,12,00,AAXX 29124 85586 11320 80000 10121 20104 40184 52016 60004 71022 886// 333 20113 30/// 50230 55106 56799 70000 88707=
85586,2013,08,29,15,00,AAXX 29154 85586 41340 89902 10134 20108 40194 52008 70522 886// 333 56099 88709=
85586,2013,08,29,18,00,AAXX 29184 85586 11557 83007 10148 20093 40181 57013 60001 70522 885// 333 56799 88623=
85586,2013,08,29,21,00,AAXX 29214 85586 41557 72904 10138 20092 40178 56003 70522 87500 333 56700 87620=
85586,2013,08,30,00,00,AAXX 30004 85586 11556 80000 10133 20094 40180 53002 60001 70522 885// 333 10149 56799 88625=
85586,2013,08,30,03,00,AAXX 30034 85586 NIL=
85586,2013,08,30,06,00,AAXX 30064 85586 NIL=
85586,2013,08,30,09,00,AAXX 30094 85586 NIL=
85586,2013,08,30,12,00,AAXX 30124 85586 11457 80000 10118 20103 40196 53008 60004 70522 885// 333 20118 30/// 50090 55000 56699 70000 88615=
85586,2013,08,30,15,00,AAXX 30154 85586 41458 82905 10138 20082 40211 52016 70522 885// 333 56699 88617=
85586,2013,08,30,18,00,AAXX 30184 85586 11558 83305 10142 20082 40206 56006 60001 70522 885// 333 56799 88620=
85586,2013,08,30,21,00,AAXX 30214 85586 42560 89902 10142 20074 40190 57016 885// 333 56099 88623=
85586,2013,08,31,00,00,AAXX 31004 85586 NIL=
85586,2013,08,31,03,00,AAXX 31034 85586 NIL=
85586,2013,08,31,06,00,AAXX 31064 85586 NIL=
85586,2013,08,31,09,00,AAXX 31094 85586 NIL=
85586,2013,08,31,12,00,AAXX 31124 85586 12560 30000 10092 20074 40210 53002 60004 83500 333 20090 30/// 50090 55000 56600 70000 83627=
85586,2013,08,31,15,00,AAXX 31154 85586 42460 62603 10153 20098 40221 52013 81501 333 56006 81617 85073=
85586,2013,08,31,18,00,AAXX 31184 85586 12960 62407 10158 20090 40211 58010 60001 80001 333 56006 86073=
85586,2013,08,31,21,00,AAXX 31214 85586 42960 62404 10141 20105 40212 53001 80001 333 56006 86073=
85586,2013,09,01,00,00,AAXX 01004 85586 12960 50000 10104 20087 40212 54000 60004 80001 333 10164 56006 85073=
85586,2013,09,01,03,00,AAXX 01034 85586 NIL=
85586,2013,09,01,06,00,AAXX 01064 85586 NIL=
85586,2013,09,01,09,00,AAXX 01094 85586 NIL=
85586,2013,09,01,12,00,AAXX 01124 85586 11550 81803 10100 20092 40186 58003 60004 71022 8253/ 333 20070 31/// 50120 55058 56669 70000 82630 87360=
85586,2013,09,01,15,00,AAXX 01154 85586 41950 83004 10136 20104 40206 52020 70522 86032 333 56066 86362 83075=
85586,2013,09,01,18,00,AAXX 01184 85586 11956 82607 10150 20097 40200 58006 60001 70522 85032 333 56066 85362 85075=
85586,2013,09,01,21,00,AAXX 01214 85586 41958 62303 10138 20104 40205 53005 70522 84031 333 56066 84362 83075=
85586,2013,09,02,00,00,AAXX 02004 85586 12960 30000 10096 20091 40220 52013 60001 80001 333 10166 56006 83075=
85586,2013,09,02,03,00,AAXX 02034 85586 NIL=
85586,2013,09,02,06,00,AAXX 02064 85586 NIL=
85586,2013,09,02,09,00,AAXX 02094 85586 NIL=
85586,2013,09,02,12,00,AAXX 02124 85586 11910 40000 10064 20056 40230 53011 60004 71011 83031 333 20060 31/// 50110 55025 56066 70000 83362=
85586,2013,09,02,15,00,AAXX 02154 85586 41940 89901 10122 20109 40228 50001 71022 85037 333 56000 85362 88270=
85586,2013,09,02,18,00,AAXX 02184 85586 11550 81405 10148 20113 40231 51003 60001 78022 8652/ 333 56669 86630 88460=
85586,2013,09,02,21,00,AAXX 02214 85586 41656 71504 10142 20115 40222 57009 70582 84530 333 56550 84640 87362=
85586,2013,09,03,00,00,AAXX 03004 85586 11656 60000 10130 20112 40225 54002 69911 70522 83530 333 10150 56000 83640 86362=
85586,2013,09,03,03,00,AAXX 03034 85586 NIL=
85586,2013,09,03,06,00,AAXX 03064 85586 NIL=
85586,2013,09,03,09,00,AAXX 03094 85586 NIL=
85586,2013,09,03,12,00,AAXX 03124 85586 12960 61107 10104 20085 40198 58004 69914 86030 333 20061 30/// 50150 55000 56070 79999 86365=
85586,2013,09,03,15,00,AAXX 03154 85586 42960 42105 10179 20127 40192 58006 80001 333 56006 84075=
85586,2013,09,03,18,00,AAXX 03184 85586 12960 32407 10178 20116 40167 57026 60001 80001 333 56000 83073=
85586,2013,09,03,21,00,AAXX 03214 85586 42960 70000 10164 20109 40151 56016 80001 333 56006 87075=
85586,2013,09,04,00,00,AAXX 04004 85586 11956 50000 10124 20100 40153 53002 60001 70511 80001 333 10201 56006 85075=
85586,2013,09,04,03,00,AAXX 04034 85586 NIL=
85586,2013,09,04,06,00,AAXX 04064 85586 NIL=
85586,2013,09,04,09,00,AAXX 04094 85586 NIL=
85586,2013,09,04,12,00,AAXX 04124 85586 12960 80000 10093 20075 40151 52010 60004 8803/ 333 20084 30/// 50130 55072 56069 70000 88362=
85586,2013,09,04,15,00,AAXX 04154 85586 42960 80000 10131 20108 40171 52023 8803/ 333 56069 88362=
85586,2013,09,04,18,00,AAXX 04184 85586 12960 83604 10148 20107 40180 51009 60001 8803/ 333 56069 88362=
85586,2013,09,04,21,00,AAXX 04214 85586 43460 50406 10136 20108 40183 58030 82130 333 56760 82815 85365=
85586,2013,09,05,00,00,AAXX 05004 85586 11903 00000 10111 20097 40195 53012 60001 74611 333 10149=
85586,2013,09,05,03,00,AAXX 05034 85586 NIL=
85586,2013,09,05,06,00,AAXX 05064 85586 NIL=
85586,2013,09,05,09,00,AAXX 05094 85586 NIL=
85586,2013,09,05,12,00,AAXX 05124 85586 12960 61003 10107 20094 40229 52010 60004 83031 333 20104 30/// 50070 55009 56066 70000 83365 83073=
85586,2013,09,05,15,00,AAXX 05154 85586 42960 32605 10152 20099 40229 54001 80001 333 56000 83073=
85586,2013,09,05,18,00,AAXX 05184 85586 11958 69901 10156 20111 40215 57014 60001 70522 86030 333 56060 86365=
85586,2013,09,05,21,00,AAXX 05214 85586 41558 79902 10132 20112 40200 57015 70522 83130 333 56660 83820 86362=
85586,2013,09,06,00,00,AAXX 06004 85586 11101 80000 10116 20110 40199 52005 60004 74444 886// 333 20114 30/// 50120 55040 56099 70000 88702=
85586,2013,09,06,03,00,AAXX 06034 85586 NIL=
85586,2013,09,06,06,00,AAXX 06064 85586 NIL=
85586,2013,09,06,09,00,AAXX 06094 85586 NIL=
85586,2013,09,06,12,00,AAXX 06124 85586 11101 80000 10116 20110 40199 52005 60004 74444 886// 333 20114 30/// 50120 55040 56099 70000 88702=
85586,2013,09,06,15,00,AAXX 06154 85586 41208 81004 10122 20112 40205 51007 74242=
85586,2013,09,06,18,00,AAXX 06184 85586 11650 72305 10136 20118 40186 57019 60001 70542 82130 333 56660 82840 87362=
85586,2013,09,06,21,00,AAXX 06214 85586 41540 89902 10134 20118 40180 57006 70522 8312/ 333 56669 83825 88458=
85586,2013,09,07,00,00,AAXX 07004 85586 11102 89902 10106 20098 40197 52007 60001 74242 886// 333 10152 56099 88702=
85586,2013,09,07,03,00,AAXX 07034 85586 NIL=
85586,2013,09,07,06,00,AAXX 07064 85586 NIL=
85586,2013,09,07,09,00,AAXX 07094 85586 NIL=
85586,2013,09,07,12,00,AAXX 07124 85586 11958 80000 10114 20105 40210 52007 69933 71011 83032 333 20110 31/// 50110 55000 56066 70003 83363 86075=
85586,2013,09,07,15,00,AAXX 07154 85586 42960 61205 10183 20136 40192 58017 84032 333 56066 84363 83075=
85586,2013,09,07,18,00,AAXX 07184 85586 12960 42406 10192 20127 40200 53009 60001 80002 333 56006 84075=
85586,2013,09,07,21,00,AAXX 07214 85586 42960 72409 10152 20126 40194 58007 84032 333 56066 83363 85075=
85586,2013,09,08,00,00,AAXX 08004 85586 12960 82404 10140 20124 40191 56003 60001 81532 333 10198 56666 81633 83363 85075=
85586,2013,09,08,03,00,AAXX 08034 85586 NIL=
85586,2013,09,08,06,00,AAXX 08064 85586 NIL=
85586,2013,09,08,09,00,AAXX 08094 85586 NIL=
85586,2013,09,08,12,00,AAXX 08124 85586 11208 70000 10104 20095 40192 56003 60004 74542 85602 333 20090 31/// 50130 55043 56606 70000 85704 83075=
85586,2013,09,08,15,00,AAXX 08154 85586 42960 52405 10210 20153 40166 57021 80002 333 56006 85075=
85586,2013,09,08,18,00,AAXX 08184 85586 12960 62409 10194 20127 40148 57020 60001 80002 333 56006 86075=
85586,2013,09,08,21,00,AAXX 08214 85586 42960 73002 10210 20133 40129 57017 80002 333 56006 87075=
85586,2013,09,09,00,00,AAXX 09004 85586 12960 70000 10157 20128 40120 56012 60001 80002 333 10232 56006 87075=
85586,2013,09,09,03,00,AAXX 09034 85586 NIL=
85586,2013,09,09,06,00,AAXX 09064 85586 NIL=
85586,2013,09,09,09,00,AAXX 09094 85586 NIL=
85586,2013,09,09,12,00,AAXX 09124 85586 12960 70000 10120 20111 40136 52012 60004 81032 333 20108 31/// 50130 55064 56066 70000 81363 87075=
85586,2013,09,09,15,00,AAXX 09154 85586 41357 72910 10144 20122 40181 52045 70522 87600 333 56700 87708=
85586,2013,09,09,18,00,AAXX 09184 85586 12460 73314 10162 20132 40180 54001 60001 82130 333 56770 82815 87365=
85586,2013,09,09,21,00,AAXX 09214 85586 41558 73213 10144 20116 40185 55005 70522 85530 333 56770 85620 87360=
85586,2013,09,10,00,00,AAXX 10004 85586 11557 83204 10126 20109 40192 53006 60001 70522 8353/ 333 10164 56669 83625 87362=
85586,2013,09,10,03,00,AAXX 10034 85586 NIL=
85586,2013,09,10,06,00,AAXX 10064 85586 NIL=
85586,2013,09,10,09,00,AAXX 10094 85586 NIL=
85586,2013,09,10,12,00,AAXX 10124 85586 11108 80000 10122 20114 40199 52005 60004 74642 886// 333 20111 30/// 50100 55003 56699 70000 88703=
85586,2013,09,10,15,00,AAXX 10154 85586 41458 52504 10165 20136 40203 51005 70542 82101 333 56600 82812 85075=
85586,2013,09,10,18,00,AAXX 10184 85586 11106 82706 10134 20123 40196 56006 60001 74022 886// 333 56699 88702=
85586,2013,09,10,21,00,AAXX 10214 85586 41210 82803 10138 20127 40194 58002 71042 886// 333 56699 88704=
85586,2013,09,11,00,00,AAXX 11004 85586 11110 50000 10133 20127 40196 52002 60001 71042 85600 333 10180 56000 85703=
85586,2013,09,11,03,00,AAXX 11034 85586 NIL=
85586,2013,09,11,06,00,AAXX 11064 85586 NIL=
85586,2013,09,11,09,00,AAXX 11094 85586 NIL=
85586,2013,09,11,12,00,AAXX 11124 85586 11130 82103 10117 20110 40198 52018 69934 71054 886// 333 20115 31/// 50110 55035 56699 70003 88703=
85586,2013,09,11,15,00,AAXX 11154 85586 42460 72206 10138 20121 40204 52006 87600 333 56600 87712=
85586,2013,09,11,18,00,AAXX 11184 85586 12460 52307 10156 20115 40196 58007 60001 85500 333 56600 85617=
85586,2013,09,11,21,00,AAXX 11214 85586 42560 12606 10156 20115 40194 57002 81500 333 56600 81620=
85586,2013,09,12,00,00,AAXX 12004 85586 12460 50000 10116 20097 40202 52007 60001 85500 333 10164 56600 85613=
85586,2013,09,12,03,00,AAXX 12034 85586 NIL=
85586,2013,09,12,06,00,AAXX 12064 85586 NIL=
85586,2013,09,12,09,00,AAXX 12094 85586 NIL=
85586,2013,09,12,12,00,AAXX 12124 85586 11460 52005 10099 20082 40229 52019 60024 70282 85500 333 20081 31/// 50120 55040 56600 70015 85615=
85586,2013,09,12,15,00,AAXX 12154 85586 42560 52006 10125 20080 40235 52009 85200 333 56600 85820=
85586,2013,09,12,18,00,AAXX 12184 85586 12560 32311 10144 20082 40217 58019 60001 83200 333 56600 83825=
85586,2013,09,12,21,00,AAXX 12214 85586 42560 12311 10144 20082 40209 57009 81200 333 56600 81825=
85586,2013,09,13,00,00,AAXX 13004 85586 12960 02203 10093 20067 40219 53009 60001 333 10146=
85586,2013,09,13,03,00,AAXX 13034 85586 NIL=
85586,2013,09,13,06,00,AAXX 13064 85586 NIL=
85586,2013,09,13,09,00,AAXX 13094 85586 NIL=
85586,2013,09,13,12,00,AAXX 13124 85586 12960 11804 10052 20020 40191 56003 60004 80001 333 20006 30/// 50150 55075 56006 70000 81075=
85586,2013,09,13,15,00,AAXX 13154 85586 42960 61810 10130 20011 40185 57004 80002 333 56006 86075=
85586,2013,09,13,18,00,AAXX 13184 85586 12960 71807 10140 21004 40174 57011 60001 80002 333 56006 87072=
85586,2013,09,13,21,00,AAXX 13214 85586 42960 82006 10120 20054 40179 53005 84032 333 56066 85363 85075=
85586,2013,09,14,00,00,AAXX 14004 85586 12960 81803 10094 20054 40187 52007 60001 82032 333 10148 56066 82363 87075=
85586,2013,09,14,03,00,AAXX 14034 85586 NIL=
85586,2013,09,14,06,00,AAXX 14064 85586 NIL=
85586,2013,09,14,09,00,AAXX 14094 85586 NIL=
85586,2013,09,14,12,00,AAXX 14124 85586 12560 30000 10040 20033 40207 52012 60003 81102 333 20020 30/// 50120 55026 56606 70000 81820 83075=
85586,2013,09,14,15,00,AAXX 14154 85586 42560 32806 10120 20060 40212 52008 83500 333 56600 83625=
85586,2013,09,14,18,00,AAXX 14184 85586 12560 32410 10128 20051 40214 51002 60001 83500 333 56600 83626=
85586,2013,09,14,21,00,AAXX 14214 85586 42560 12409 10118 20013 40223 52009 81500 333 56600 81630=
85586,2013,09,15,00,00,AAXX 15004 85586 NIL=
85586,2013,09,15,03,00,AAXX 15034 85586 NIL=
85586,2013,09,15,06,00,AAXX 15064 85586 NIL=
85586,2013,09,15,09,00,AAXX 15094 85586 NIL=
85586,2013,09,15,12,00,AAXX 15124 85586 12960 10000 10016 20009 40246 52007 60004 81030 333 21006 30/// 50170 55100 56060 70000 81363=
85586,2013,09,15,15,00,AAXX 15154 85586 42560 22507 10120 20030 40242 52007 82500 333 56600 82625=
85586,2013,09,15,18,00,AAXX 15184 85586 12560 12410 10126 20048 40238 57004 60001 81500 333 56600 81620=
85586,2013,09,15,21,00,AAXX 15214 85586 42560 12409 10120 20041 40232 57006 81500 333 56600 81623=
85586,2013,09,16,00,00,AAXX 16004 85586 12960 12409 10080 20038 40236 53003 60001 81030 333 10128 56060 81363=
85586,2013,09,16,03,00,AAXX 16034 85586 NIL=
85586,2013,09,16,06,00,AAXX 16064 85586 NIL=
85586,2013,09,16,09,00,AAXX 16094 85586 NIL=
85586,2013,09,16,12,00,AAXX 16124 85586 12460 40000 10024 20006 40252 53010 60004 81231 333 21002 30/// 50130 55103 56666 70000 81815=
85586,2013,09,16,15,00,AAXX 16154 85586 42560 32505 10116 20056 40257 52008 83200 333 56600 83823=
85586,2013,09,16,18,00,AAXX 16184 85586 12560 22711 10125 20055 40262 52005 60001 82200 333 56600 82823=
85586,2013,09,16,21,00,AAXX 16214 85586 42560 12309 10117 20064 40264 52002 81200 333 56600 81823=
85586,2013,09,17,00,00,AAXX 17004 85586 12960 02103 10074 20049 40270 52005 60001 333 10131=
85586,2013,09,17,03,00,AAXX 17034 85586 NIL=
85586,2013,09,17,06,00,AAXX 17064 85586 NIL=
85586,2013,09,17,09,00,AAXX 17094 85586 NIL=
85586,2013,09,17,12,00,AAXX 17124 85586 12960 11403 10037 20013 40241 57006 60003 80001 333 20011 34/// 50220 55101 56006 70000 81075=
85586,2013,09,17,15,00,AAXX 17154 85586 42960 01908 10140 20061 40228 57009=
85586,2013,09,17,18,00,AAXX 17184 85586 12960 22313 10138 20069 40208 57020 60001 80001 333 56006 82075=
85586,2013,09,17,21,00,AAXX 17214 85586 42960 32214 10136 20077 40196 57016 80001 333 56006 83075=
85586,2013,09,18,00,00,AAXX 18004 85586 12960 02204 10091 20050 40192 57002 60001 333 10164=
85586,2013,09,18,03,00,AAXX 18034 85586 NIL=
85586,2013,09,18,06,00,AAXX 18064 85586 NIL=
85586,2013,09,18,09,00,AAXX 18094 85586 NIL=
85586,2013,09,18,12,00,AAXX 18124 85586 12960 00000 10043 20014 40205 52010 60004 333 20008 34/// 50190 55107 70000=
85586,2013,09,18,15,00,AAXX 18154 85586 42960 01204 10152 20074 40192 58009=
85586,2013,09,18,18,00,AAXX 18184 85586 12960 12312 10148 20083 40179 57013 60001 80001 333 56006 81075=
85586,2013,09,18,21,00,AAXX 18214 85586 42960 42308 10134 20081 40164 57015 80001 333 56006 84075=
85586,2013,09,19,00,00,AAXX 19004 85586 12960 50000 10110 20075 40169 53005 60001 80001 333 10180 56006 85075=
85586,2013,09,19,03,00,AAXX 19034 85586 NIL=
85586,2013,09,19,06,00,AAXX 19064 85586 NIL=
85586,2013,09,19,09,00,AAXX 19094 85586 NIL=
85586,2013,09,19,12,00,AAXX 19124 85586 12960 60000 10050 20041 40176 52012 60004 80002 333 20024 30/// 50170 55107 56006 70000 86075=
85586,2013,09,19,15,00,AAXX 19154 85586 42960 72605 10112 20086 40183 52014 80002 333 56006 87073=
85586,2013,09,19,18,00,AAXX 19184 85586 12960 72604 10136 20064 40185 51002 60001 80002 333 56006 87073=
85586,2013,09,19,21,00,AAXX 19214 85586 42960 72403 10136 20096 40191 52006 80002 333 56006 87073=
85586,2013,09,20,00,00,AAXX 20004 85586 12960 70000 10120 20094 40209 52017 60001 80002 333 10138 56006 87075=
85586,2013,09,20,03,00,AAXX 20034 85586 NIL=
85586,2013,09,20,06,00,AAXX 20064 85586 NIL=
85586,2013,09,20,09,00,AAXX 20094 85586 NIL=
85586,2013,09,20,12,00,AAXX 20124 85586 12460 21503 10086 20078 40232 52014 60004 82600 333 20060 30/// 50110 55009 56600 70000 82710=
85586,2013,09,20,15,00,AAXX 20154 85586 42460 62704 10116 20082 40242 52011 86500 333 56600 81710 86617=
85586,2013,09,20,18,00,AAXX 20184 85586 12560 22411 10136 20045 40235 58006 60001 81501 333 56606 81625=
85586,2013,09,20,21,00,AAXX 20214 85586 42560 62408 10126 20054 40234 54001 81101 333 56606 81820 86075=
85586,2013,09,21,00,00,AAXX 21004 85586 12960 62403 10088 20065 40243 53007 60001 80001 333 10146 56006 86075=
85586,2013,09,21,03,00,AAXX 21034 85586 NIL=
85586,2013,09,21,06,00,AAXX 21064 85586 NIL=
85586,2013,09,21,09,00,AAXX 21094 85586 NIL=
85586,2013,09,21,12,00,AAXX 21124 85586 12560 11604 10076 20052 40232 52006 60004 81500 333 20046 30/// 50130 55051 56600 70000 81620=
85586,2013,09,21,15,00,AAXX 21154 85586 42560 31708 10124 20023 40231 54000 83500 333 56600 83620=
85586,2013,09,21,18,00,AAXX 21184 85586 12560 32414 10126 20043 40229 56002 60001 83500 333 56600 83620=
85586,2013,09,21,21,00,AAXX 21214 85586 42560 22312 10120 20048 40230 54001 82500 333 56600 82625=
85586,2013,09,22,00,00,AAXX 22004 85586 12960 02404 10079 20047 40243 52012 60001 333 10140=
85586,2013,09,22,03,00,AAXX 22034 85586 NIL=
85586,2013,09,22,06,00,AAXX 22064 85586 NIL=
85586,2013,09,22,09,00,AAXX 22094 85586 NIL=
85586,2013,09,22,12,00,AAXX 22124 85586 12960 00000 10059 20028 40243 53003 60004 333 20030 30/// 50250 55099 70000=
85586,2013,09,22,15,00,AAXX 22154 85586 42960 01407 10150 20075 40232 58008=
85586,2013,09,22,18,00,AAXX 22184 85586 12960 02310 10142 20082 40209 57023 60001=
85586,2013,09,22,21,00,AAXX 22214 85586 42960 02311 10132 20072 40196 57013=
85586,2013,09,23,00,00,AAXX 23004 85586 12960 00000 10080 20060 40204 53006 60001 333 10172=
85586,2013,09,23,03,00,AAXX 23034 85586 NIL=
85586,2013,09,23,06,00,AAXX 23064 85586 NIL=
85586,2013,09,23,09,00,AAXX 23094 85586 NIL=
85586,2013,09,23,12,00,AAXX 23124 85586 12960 01103 10083 20036 40172 53002 60004 333 20030 30/// 50280 55106 70000=
85586,2013,09,23,15,00,AAXX 23154 85586 42960 00000 10191 20082 40166 58004=
85586,2013,09,23,18,00,AAXX 23184 85586 12960 02307 10185 20041 40154 57012 60001=
85586,2013,09,23,21,00,AAXX 23214 85586 42960 02904 10191 20084 40140 57014=
85586,2013,09,24,00,00,AAXX 24004 85586 12960 00000 10113 20053 40141 54000 60001 333 10210=
85586,2013,09,24,03,00,AAXX 24034 85586 NIL=
85586,2013,09,24,06,00,AAXX 24064 85586 NIL=
85586,2013,09,24,09,00,AAXX 24094 85586 NIL=
85586,2013,09,24,12,00,AAXX 24124 85586 12960 00000 10062 20044 40141 53012 60004 333 20016 30/// 50300 55110 70000=
85586,2013,09,24,15,00,AAXX 24154 85586 41258 22605 10138 20114 40153 52014 70500 82600 333 56600 82704=
85586,2013,09,24,18,00,AAXX 24184 85586 11356 83010 10129 20104 40158 53005 60001 70522 886// 333 56699 88708=
85586,2013,09,24,21,00,AAXX 24214 85586 41457 83109 10125 20097 40161 52003 70522 886// 333 56699 88710=
85586,2013,09,25,00,00,AAXX 25004 85586 11457 83003 10102 20085 40163 52002 60001 70522 886// 333 10142 56699 88710=
85586,2013,09,25,03,00,AAXX 25034 85586 NIL=
85586,2013,09,25,06,00,AAXX 25064 85586 NIL=
85586,2013,09,25,09,00,AAXX 25094 85586 NIL=
85586,2013,09,25,12,00,AAXX 25124 85586 11430 81003 10094 20076 40161 52006 60001 886// 333 20092 30/// 50130 55044 56099 70000 88710=
85586,2013,09,25,15,00,AAXX 25154 85586 41450 82403 10110 20075 40172 50012 70522 885// 333 56099 88615=
85586,2013,09,25,18,00,AAXX 25184 85586 12960 02408 10130 20064 40180 58002 60001=
85586,2013,09,25,21,00,AAXX 25214 85586 42960 02406 10130 20064 40167 56003=
85586,2013,09,26,00,00,AAXX 26004 85586 12960 02303 10082 20053 40171 53004 60001 333 10132=
85586,2013,09,26,03,00,AAXX 26034 85586 NIL=
85586,2013,09,26,06,00,AAXX 26064 85586 NIL=
85586,2013,09,26,09,00,AAXX 26094 85586 NIL=
85586,2013,09,26,12,00,AAXX 26124 85586 11540 80903 10074 20065 40193 52015 60004 71022 885// 333 20010 30/// 50160 55063 56099 70000 88620=
85586,2013,09,26,15,00,AAXX 26154 85586 41440 83005 10110 20082 40209 52018 70522 885// 333 56099 88615=
85586,2013,09,26,18,00,AAXX 26184 85586 11450 82705 10120 20086 40207 58003 60001 70522 885// 333 56699 83615 88623=
85586,2013,09,26,21,00,AAXX 26214 85586 41550 82403 10116 20082 40207 54000 70522 885// 333 56099 88620=
85586,2013,09,27,00,00,AAXX 27004 85586 11550 80000 10114 20089 40210 53003 60001 70522 885// 333 10129 56099 88620=
85586,2013,09,27,03,00,AAXX 27034 85586 NIL=
85586,2013,09,27,06,00,AAXX 27064 85586 NIL=
85586,2013,09,27,09,00,AAXX 27094 85586 NIL=
85586,2013,09,27,12,00,AAXX 27124 85586 12960 01607 10078 20027 40219 52021 60004 333 20013 30/// 50300 55000 70000=
85586,2013,09,27,15,00,AAXX 27154 85586 42960 01909 10140 20044 40231 52014=
85586,2013,09,27,18,00,AAXX 27184 85586 12960 02313 10133 20055 40233 52002 60001=
85586,2013,09,27,21,00,AAXX 27214 85586 42960 02313 10131 20050 40233 54000=
85586,2013,09,28,00,00,AAXX 28004 85586 12960 02304 10083 20034 40249 52014 60001 333 10165=
85586,2013,09,28,03,00,AAXX 28034 85586 NIL=
85586,2013,09,28,06,00,AAXX 28064 85586 NIL=
85586,2013,09,28,09,00,AAXX 28094 85586 NIL=
85586,2013,09,28,12,00,AAXX 28124 85586 12960 01106 10058 20021 40273 52004 60004 333 21004 30/// 50180 55112 70000=
85586,2013,09,28,15,00,AAXX 28154 85586 42960 01911 10166 20008 40255 58012=
85586,2013,09,28,18,00,AAXX 28184 85586 12960 02416 10148 20057 40235 57020 60001=
85586,2013,09,28,21,00,AAXX 28214 85586 42960 02316 10150 20059 40218 57017=
85586,2013,09,29,00,00,AAXX 29004 85586 11958 00000 10103 20000 40220 53002 60001 70500 333 10168=
85586,2013,09,29,03,00,AAXX 29034 85586 NIL=
85586,2013,09,29,06,00,AAXX 29064 85586 NIL=
85586,2013,09,29,09,00,AAXX 29094 85586 NIL=
85586,2013,09,29,12,00,AAXX 29124 85586 12960 61105 10065 20014 40211 52009 60004 80001 333 20002 30/// 50230 55112 56006 70000 86075=
85586,2013,09,29,15,00,AAXX 29154 85586 42960 22508 10147 20019 40211 53003 80001 333 56006 82075=
85586,2013,09,29,18,00,AAXX 29184 85586 12960 02409 10144 20043 40208 58003 60001=
85586,2013,09,29,21,00,AAXX 29214 85586 42960 02314 10134 20054 40208 55000=
85586,2013,09,30,00,00,AAXX 30004 85586 11958 00000 10088 20053 40224 52016 60001 70500 333 10153=
85586,2013,09,30,03,00,AAXX 30034 85586 NIL=
85586,2013,09,30,06,00,AAXX 30064 85586 NIL=
85586,2013,09,30,09,00,AAXX 30094 85586 NIL=
85586,2013,09,30,12,00,AAXX 30124 85586 12960 00804 10071 20051 40225 51007 60004 333 21001 30/// 50270 55113 70000=
85586,2013,09,30,15,00,AAXX 30154 85586 42960 72608 10128 20068 40226 55001 80001 333 56006 87075=
85586,2013,09,30,18,00,AAXX 30184 85586 12960 72410 10131 20072 40215 58011 60001 80001 333 56006 87075=
85586,2013,09,30,21,00,AAXX 30214 85586 42460 72408 10118 20069 40210 56005 82501 333 56706 82615 87075=
85586,2013,10,01,00,00,AAXX 01004 85586 11458 72704 10103 20070 40207 58003 60001 70522 82501 333 10167 56706 82615 87075=
85586,2013,10,01,03,00,AAXX 01034 85586 NIL=
85586,2013,10,01,06,00,AAXX 01064 85586 NIL=
85586,2013,10,01,09,00,AAXX 01094 85586 NIL=
85586,2013,10,01,12,00,AAXX 01124 85586 12960 50000 10062 20049 40212 52006 60004 80001 333 20017 30/// 50280 55066 56006 70000 85075=
85586,2013,10,01,15,00,AAXX 01154 85586 42960 32605 10134 20074 40207 54002 80001 333 56000 83075=
85586,2013,10,01,18,00,AAXX 01184 85586 12960 62311 10138 20071 40197 57010 60001 80008 333 56005 86273=
85586,2013,10,01,21,00,AAXX 01214 85586 42960 52308 10135 20067 40185 57012 80004 333 56005 85073=
85586,2013,10,02,00,00,AAXX 02004 85586 12960 50000 10110 20082 40187 53004 60001 80001 333 10146 56006 85073=
85586,2013,10,02,03,00,AAXX 02034 85586 NIL=
85586,2013,10,02,06,00,AAXX 02064 85586 NIL=
85586,2013,10,02,09,00,AAXX 02094 85586 NIL=
85586,2013,10,02,12,00,AAXX 02124 85586 12960 60603 10086 20074 40196 52016 60004 86030 333 20056 30/// 50180 55091 56060 70000 86365=
85586,2013,10,02,15,00,AAXX 02154 85586 42560 73207 10144 20074 40208 52014 81502 333 56606 81623 87075=
85586,2013,10,02,18,00,AAXX 02184 85586 12560 72909 10137 20080 40218 52010 60001 81502 333 56606 81620 87075=
85586,2013,10,02,21,00,AAXX 02214 85586 42560 62606 10124 20063 40229 52010 81502 333 56606 81620 86075=
85586,2013,10,03,00,00,AAXX 03004 85586 12560 32505 10096 20066 40247 52017 60001 81530 333 10150 56660 81630 83365=
85586,2013,10,03,03,00,AAXX 03034 85586 NIL=
85586,2013,10,03,06,00,AAXX 03064 85586 NIL=
85586,2013,10,03,09,00,AAXX 03094 85586 NIL=
85586,2013,10,03,12,00,AAXX 03124 85586 12960 01203 10088 20068 40263 52010 60004 333 20034 30/// 50140 55035 70000=
85586,2013,10,03,15,00,AAXX 03154 85586 42560 12408 10130 20053 40260 54001 81100 333 56500 81820=
85586,2013,10,03,18,00,AAXX 03184 85586 12960 02311 10153 20064 40246 57014 60001=
85586,2013,10,03,21,00,AAXX 03214 85586 42960 02308 10160 20065 40234 57012=
85586,2013,10,04,00,00,AAXX 04004 85586 12960 00000 10106 20051 40247 52012 60001 333 10165=
85586,2013,10,04,03,00,AAXX 04034 85586 NIL=
85586,2013,10,04,06,00,AAXX 04064 85586 NIL=
85586,2013,10,04,09,00,AAXX 04094 85586 NIL=
85586,2013,10,04,12,00,AAXX 04124 85586 12960 00000 10117 20067 40197 53003 60004 333 20034 30/// 50270 55108 70000=
85586,2013,10,04,15,00,AAXX 04154 85586 42960 02506 10185 20062 40186 57011=
85586,2013,10,04,18,00,AAXX 04184 85586 12960 02412 10176 20078 40172 57014 60001=
85586,2013,10,04,21,00,AAXX 04214 85586 42960 02312 10192 20067 40159 56012=
85586,2013,10,05,00,00,AAXX 05004 85586 11958 00000 10133 20070 40172 52013 60001 70500 333 10198=
85586,2013,10,05,03,00,AAXX 05034 85586 NIL=
85586,2013,10,05,06,00,AAXX 05064 85586 NIL=
85586,2013,10,05,09,00,AAXX 05094 85586 NIL=
85586,2013,10,05,12,00,AAXX 05124 85586 12960 00000 10123 20095 40213 52006 60004 333 20051 30/// 50310 55117 70000=
85586,2013,10,05,15,00,AAXX 05154 85586 42960 02311 10172 20095 40168 58002=
85586,2013,10,05,18,00,AAXX 05184 85586 12960 02309 10169 20099 40167 55001 60001=
85586,2013,10,05,21,00,AAXX 05214 85586 42960 02409 10159 20095 40163 56004=
85586,2013,10,06,00,00,AAXX 06004 85586 11958 03505 10112 20091 40176 53013 60001 70500 333 10185=
85586,2013,10,06,03,00,AAXX 06034 85586 NIL=
85586,2013,10,06,06,00,AAXX 06064 85586 NIL=
85586,2013,10,06,09,00,AAXX 06094 85586 NIL=
85586,2013,10,06,12,00,AAXX 06124 85586 11240 83306 10108 20102 40192 52021 60004 71022 886// 333 20106 30/// 50320 55116 56799 70000 88704=
85586,2013,10,06,15,00,AAXX 06154 85586 41458 83407 10124 20106 40203 52011 70522 886// 333 56799 88712=
85586,2013,10,06,18,00,AAXX 06184 85586 12460 83209 10127 20106 40210 51007 60001 885// 333 56799 88615=
85586,2013,10,06,21,00,AAXX 06214 85586 41458 82907 10120 20101 40207 58003 70522 886// 333 56799 88712=
85586,2013,10,07,00,00,AAXX 07004 85586 11458 82803 10113 20094 40213 52006 60001 70522 886// 333 10133 56799 88712=
85586,2013,10,07,03,00,AAXX 07034 85586 NIL=
85586,2013,10,07,06,00,AAXX 07064 85586 NIL=
85586,2013,10,07,09,00,AAXX 07094 85586 NIL=
85586,2013,10,07,12,00,AAXX 07124 85586 12460 80000 10108 20080 40208 53002 60004 886// 333 20105 30/// 50250 55000 56799 70000 88713=
85586,2013,10,07,15,00,AAXX 07154 85586 42460 82406 10130 20074 40202 56005 885// 333 56599 88618=
85586,2013,10,07,18,00,AAXX 07184 85586 12960 02608 10144 20072 40191 57009 60001=
85586,2013,10,07,21,00,AAXX 07214 85586 42960 02408 10132 20073 40192 54001=
85586,2013,10,08,00,00,AAXX 08004 85586 12460 52404 10111 20090 40197 52004 60001 85500 333 10158 56700 85614=
85586,2013,10,08,03,00,AAXX 08034 85586 NIL=
85586,2013,10,08,06,00,AAXX 08064 85586 NIL=
85586,2013,10,08,09,00,AAXX 08094 85586 NIL=
85586,2013,10,08,12,00,AAXX 08124 85586 11558 81503 10100 20085 40184 52004 60004 70522 885// 333 20096 30/// 5//// 55/// 56099 70000 88620=
85586,2013,10,08,15,00,AAXX 08154 85586 42460 82304 10114 20088 40193 52010 885// 333 56599 88618=
85586,2013,10,08,18,00,AAXX 08184 85586 12560 32407 10152 20088 40195 54002 60001 83100 333 56500 83825=
85586,2013,10,08,21,00,AAXX 08214 85586 42960 02407 10152 20084 40191 56004=
85586,2013,10,09,00,00,AAXX 09004 85586 12960 01503 10110 20071 40204 52012 60001 333 10162=
85586,2013,10,09,03,00,AAXX 09034 85586 NIL=
85586,2013,10,09,06,00,AAXX 09064 85586 NIL=
85586,2013,10,09,09,00,AAXX 09094 85586 NIL=
85586,2013,10,09,12,00,AAXX 09124 85586 12960 01506 10124 20087 40205 52008 60004 333 20046 30/// 5//// 55///=
85586,2013,10,09,15,00,AAXX 09154 85586 42960 02407 10174 20111 40207 52004=
85586,2013,10,09,18,00,AAXX 09184 85586 12960 02417 10150 20093 40207 56001 60001=
85586,2013,10,09,21,00,AAXX 09214 85586 42960 02408 10150 20093 40204 57003=
85586,2013,10,10,00,00,AAXX 10004 85586 12960 02403 10106 20074 40215 52010 60001 333 10184=
85586,2013,10,10,03,00,AAXX 10034 85586 NIL=
85586,2013,10,10,06,00,AAXX 10064 85586 NIL=
85586,2013,10,10,09,00,AAXX 10094 85586 NIL=
85586,2013,10,10,12,00,AAXX 10124 85586 12960 00000 10086 20070 40201 52005 69904 333 20011 30/// 55087 70000=
85586,2013,10,10,15,00,AAXX 10154 85586 42960 02407 10152 20078 40195 56004=
85586,2013,10,10,18,00,AAXX 10184 85586 12960 02410 10152 20087 40184 57011 60001=
85586,2013,10,10,21,00,AAXX 10214 85586 42960 02307 10158 20083 40177 57007=
85586,2013,10,11,00,00,AAXX 11004 85586 11958 00000 10116 20081 40188 52011 60001 70500 333 10164=
85586,2013,10,11,03,00,AAXX 11034 85586 NIL=
85586,2013,10,11,06,00,AAXX 11064 85586 NIL=
85586,2013,10,11,09,00,AAXX 11094 85586 NIL=
85586,2013,10,11,12,00,AAXX 11124 85586 11203 80000 10079 20069 40189 52011 60004 74644 886// 333 20041 30/// 50260 55114 56799 70000 88704=
85586,2013,10,11,15,00,AAXX 11154 85586 41306 62505 10118 20097 40188 54001 74042 86600 333 56600 86708=
85586,2013,10,11,18,00,AAXX 11184 85586 11460 22410 10140 20100 40181 56007 60001 70242 82100 333 56600 82610=
85586,2013,10,11,21,00,AAXX 11214 85586 42960 02312 10138 20104 40174 56007=
85586,2013,10,12,00,00,AAXX 12004 85586 11958 00504 10105 20087 40178 53004 60001 70500 333 10146=
85586,2013,10,12,03,00,AAXX 12034 85586 NIL=
85586,2013,10,12,06,00,AAXX 12064 85586 NIL=
85586,2013,10,12,09,00,AAXX 12094 85586 NIL=
85586,2013,10,12,12,00,AAXX 12124 85586 11120 80000 10094 20086 40174 52011 60004 71022 886// 333 20088 30/// 50200 55091 56099 70000 88703=
85586,2013,10,12,15,00,AAXX 12154 85586 41340 80000 10118 20103 40180 52006 70522 886// 333 56099 88708=
85586,2013,10,12,18,00,AAXX 12184 85586 11440 82408 10130 20112 40175 58004 60001 70522 886// 333 56699 88710=
85586,2013,10,12,21,00,AAXX 12214 85586 41450 72808 10116 20095 40172 57003 70522 87600 333 56600 87710=
85586,2013,10,13,00,00,AAXX 13004 85586 12450 30000 10101 20084 40176 52004 60001 70522 83600 333 10138 56600 83710=
85586,2013,10,13,03,00,AAXX 13034 85586 NIL=
85586,2013,10,13,06,00,AAXX 13064 85586 NIL=
85586,2013,10,13,09,00,AAXX 13094 85586 NIL=
85586,2013,10,13,12,00,AAXX 13124 85586 11350 80000 10096 20081 40198 52016 60004 70522 886// 333 20086 30/// 50190 55001 56099 70000 88708=
85586,2013,10,13,15,00,AAXX 13154 85586 41458 52605 10121 20087 40201 52004 70522 85600 333 56600 85712=
85586,2013,10,13,18,00,AAXX 13184 85586 11356 42706 10138 20102 40198 58003 60001 70522 84600 333 56600 84708=
85586,2013,10,13,21,00,AAXX 13214 85586 42960 02505 10144 20100 40188 57009=
85586,2013,10,14,00,00,AAXX 14004 85586 12960 00000 10102 20083 40193 58005 60001 333 10154=
85586,2013,10,14,03,00,AAXX 14034 85586 NIL=
85586,2013,10,14,06,00,AAXX 14064 85586 NIL=
85586,2013,10,14,09,00,AAXX 14094 85586 NIL=
85586,2013,10,14,12,00,AAXX 14124 85586 11104 60000 10088 20080 40196 53014 60004 74600 86600 333 20028 30/// 50200 55066 56600 70000 86702=
85586,2013,10,14,15,00,AAXX 14154 85586 41360 22805 10125 20102 40189 56005 70242 82600 333 56600 82708=
85586,2013,10,14,18,00,AAXX 14184 85586 12960 02308 10168 20090 40172 57017 60001=
85586,2013,10,14,21,00,AAXX 14214 85586 42960 02505 10166 20093 40152 57020=
85586,2013,10,15,00,00,AAXX 15004 85586 11958 00000 10124 20097 40153 54001 60001 70500 333 10174=
85586,2013,10,15,03,00,AAXX 15034 85586 NIL=
85586,2013,10,15,06,00,AAXX 15064 85586 NIL=
85586,2013,10,15,09,00,AAXX 15094 85586 NIL=
85586,2013,10,15,12,00,AAXX 15124 85586 11202 80000 10090 20082 40167 52014 60004 74642 886// 333 20046 30/// 50180 55099 56099 70000 88704=
85586,2013,10,15,15,00,AAXX 15154 85586 41320 83008 10120 20107 40175 52009 71042 886// 333 56799 88708=
85586,2013,10,15,18,00,AAXX 15184 85586 11430 83007 10132 20112 40176 54001 60001 71022 886// 333 56799 88710=
85586,2013,10,15,21,00,AAXX 15214 85586 41206 82705 10114 20107 40179 51003 74042 886// 333 56699 88706=
85586,2013,10,16,00,00,AAXX 16004 85586 11205 83004 10106 20098 40186 52007 60001 74644 886// 333 10134 56099 88704=
85586,2013,10,16,03,00,AAXX 16034 85586 NIL=
85586,2013,10,16,06,00,AAXX 16064 85586 NIL=
85586,2013,10,16,09,00,AAXX 16094 85586 NIL=
85586,2013,10,16,12,00,AAXX 16124 85586 11212 80903 10098 20091 40187 52007 60004 71044 886// 333 20096 30/// 50110 55000 56099 70000 88706=
85586,2013,10,16,15,00,AAXX 16154 85586 41450 72505 10134 20109 40188 52002 70522 87500 333 56600 87613=
85586,2013,10,16,18,00,AAXX 16184 85586 11450 82807 10124 20096 40195 52006 60001 70522 886// 333 56099 88712=
85586,2013,10,16,21,00,AAXX 16214 85586 41450 83005 10116 20096 40195 54000 70522 885// 333 56099 88613=
85586,2013,10,17,00,00,AAXX 17004 85586 11340 82803 10106 20098 40201 52006 60001 71022 886// 333 10138 56099 88708=
85586,2013,10,17,03,00,AAXX 17034 85586 NIL=
85586,2013,10,17,06,00,AAXX 17064 85586 NIL=
85586,2013,10,17,09,00,AAXX 17094 85586 NIL=
85586,2013,10,17,12,00,AAXX 17124 85586 11212 80000 10095 20089 40175 54001 69904 71052 886// 333 20095 31/// 50120 55000 56099 79999 88705=
85586,2013,10,17,15,00,AAXX 17154 85586 41408 82707 10120 20102 40182 52008 74122 886// 333 56699 88710=
85586,2013,10,17,18,00,AAXX 17184 85586 11457 72804 10130 20108 40179 53003 60001 70522 87500 333 56600 87612=
85586,2013,10,17,21,00,AAXX 17214 85586 41315 82704 10120 20108 40175 56004 71022 886// 333 56699 88708=
85586,2013,10,18,00,00,AAXX 18004 85586 11204 80000 10106 20098 40184 52009 60001 75044 886// 333 10142 56099 88703=
85586,2013,10,18,03,00,AAXX 18034 85586 NIL=
85586,2013,10,18,06,00,AAXX 18064 85586 NIL=
85586,2013,10,18,09,00,AAXX 18094 85586 NIL=
85586,2013,10,18,12,00,AAXX 18124 85586 11104 80000 10103 20097 40190 53005 69984 75054 886// 333 20101 31/// 50120 55000 56099 70008 88702=
85586,2013,10,18,15,00,AAXX 18154 85586 41230 82504 10115 20106 40191 52001 71042 886// 333 56699 88706=
85586,2013,10,18,18,00,AAXX 18184 85586 11457 89901 10125 20103 40180 57010 60001 70522 885// 333 56699 88612=
85586,2013,10,18,21,00,AAXX 18214 85586 41457 82404 10122 20102 40173 56007 70522 886// 333 56599 88710=
85586,2013,10,19,00,00,AAXX 19004 85586 11230 80000 10114 20099 40173 54000 60001 70522 886// 333 10134 56099 88706=
85586,2013,10,19,03,00,AAXX 19034 85586 NIL=
85586,2013,10,19,06,00,AAXX 19064 85586 NIL=
85586,2013,10,19,09,00,AAXX 19094 85586 NIL=
85586,2013,10,19,12,00,AAXX 19124 85586 11230 82905 10106 20102 40157 53005 69964 75052 886// 333 20105 31/// 50130 55000 56699 70006 88706=
85586,2013,10,19,15,00,AAXX 19154 85586 41460 82906 10117 20098 40165 52008 70252 885// 333 56699 88615=
85586,2013,10,19,18,00,AAXX 19184 85586 11460 62505 10138 20100 40159 58006 69911 70152 85501 333 56606 85618=
85586,2013,10,19,21,00,AAXX 19214 85586 42560 72608 10135 20099 40159 54000 85501 333 56606 85620=
85586,2013,10,20,00,00,AAXX 20004 85586 12460 70000 10111 20081 40160 57001 60001 85501 333 10152 56606 85618=
85586,2013,10,20,03,00,AAXX 20034 85586 NIL=
85586,2013,10,20,06,00,AAXX 20064 85586 NIL=
85586,2013,10,20,09,00,AAXX 20094 85586 NIL=
85586,2013,10,20,12,00,AAXX 20124 85586 12560 70000 10114 20087 40187 52022 69913 87500 333 20068 30/// 50190 55030 56600 70001 87625=
85586,2013,10,20,15,00,AAXX 20154 85586 42560 63210 10164 20108 40200 52013 86500 333 56600 86625=
85586,2013,10,20,18,00,AAXX 20184 85586 12560 63011 10160 20107 40211 52011 60001 85201 333 56606 85825=
85586,2013,10,20,21,00,AAXX 20214 85586 42560 53213 10153 20106 40209 58002 85500 333 56700 85620=
85586,2013,10,21,00,00,AAXX 21004 85586 12560 50000 10110 20091 40223 53013 60001 83501 333 10173 56606 83620=
85586,2013,10,21,03,00,AAXX 21034 85586 NIL=
85586,2013,10,21,06,00,AAXX 21064 85586 NIL=
85586,2013,10,21,09,00,AAXX 21094 85586 NIL=
85586,2013,10,21,12,00,AAXX 21124 85586 11358 21305 10136 20109 40202 51007 60003 70511 82600 333 20104 30/// 50260 55042 56300 70000 82707=
85586,2013,10,21,15,00,AAXX 21154 85586 42460 12410 10176 20104 40186 57016 81100 333 56500 81812=
85586,2013,10,21,18,00,AAXX 21184 85586 12960 72314 10152 20114 40180 56006 60001 80008 333 56005 87270=
85586,2013,10,21,21,00,AAXX 21214 85586 42960 52413 10142 20103 40173 56007 80004 333 56005 85073=
85586,2013,10,22,00,00,AAXX 22004 85586 11958 52104 10113 20091 40180 56003 60001 70511 80001 333 10183 56006 85075=
85586,2013,10,22,03,00,AAXX 22034 85586 NIL=
85586,2013,10,22,06,00,AAXX 22064 85586 NIL=
85586,2013,10,22,09,00,AAXX 22094 85586 NIL=
85586,2013,10,22,12,00,AAXX 22124 85586 11258 80000 10101 20084 40167 52010 60004 70522 81607 333 20054 30/// 50320 55108 56706 70000 81704 88273=
85586,2013,10,22,15,00,AAXX 22154 85586 42460 72807 10140 20087 40183 52016 83230 333 56660 83812 87362=
85586,2013,10,22,18,00,AAXX 22184 85586 12460 42610 10154 20072 40187 52004 60001 84100 333 56700 84815=
85586,2013,10,22,21,00,AAXX 22214 85586 42460 12412 10139 20061 40196 53009 81100 333 56700 81815=
85586,2013,10,23,00,00,AAXX 23004 85586 12960 02306 10104 20071 40210 52014 60001 333 10160=
85586,2013,10,23,03,00,AAXX 23034 85586 NIL=
85586,2013,10,23,06,00,AAXX 23064 85586 NIL=
85586,2013,10,23,09,00,AAXX 23094 85586 NIL=
85586,2013,10,23,12,00,AAXX 23124 85586 12960 01607 10106 20057 40209 53004 60004 333 20011 30/// 50340 55069 70000=
85586,2013,10,23,15,00,AAXX 23154 85586 42960 02014 10163 20080 40194 58009=
85586,2013,10,23,18,00,AAXX 23184 85586 12960 02416 10154 20093 40189 57005 60001=
85586,2013,10,23,21,00,AAXX 23214 85586 42960 02314 10163 20087 40178 57011=
85586,2013,10,24,00,00,AAXX 24004 85586 12960 00000 10114 20069 40181 53003 60001 333 10174=
85586,2013,10,24,03,00,AAXX 24034 85586 NIL=
85586,2013,10,24,06,00,AAXX 24064 85586 NIL=
85586,2013,10,24,09,00,AAXX 24094 85586 NIL=
85586,2013,10,24,12,00,AAXX 24124 85586 12960 60000 10104 20077 40150 53004 60004 83031 333 20052 30/// 50200 55125 56066 70000 83365 83073=
85586,2013,10,24,15,00,AAXX 24154 85586 42960 52804 10148 20079 40156 52007 83034 333 56060 83359 85070=
85586,2013,10,24,18,00,AAXX 24184 85586 12760 52506 10150 20085 40155 53001 60001 82530 333 56660 82650 85362=
85586,2013,10,24,21,00,AAXX 24214 85586 42760 62705 10134 20092 40156 54001 82531 333 56660 82650 86365=
85586,2013,10,25,00,00,AAXX 25004 85586 12960 70000 10114 20087 40156 54001 60001 85031 333 10155 56066 85363=
85586,2013,10,25,03,00,AAXX 25034 85586 NIL=
85586,2013,10,25,06,00,AAXX 25064 85586 NIL=
85586,2013,10,25,09,00,AAXX 25094 85586 NIL=
85586,2013,10,25,12,00,AAXX 25124 85586 12560 60000 10123 20098 40195 52019 60004 83530 333 20088 30/// 50230 55019 56660 70000 83620 83365=
85586,2013,10,25,15,00,AAXX 25154 85586 42560 22606 10152 20080 40208 52014 82100 333 56600 82820=
85586,2013,10,25,18,00,AAXX 25184 85586 12560 12809 10155 20061 40212 52004 60001 81100 333 56600 81820=
85586,2013,10,25,21,00,AAXX 25214 85586 42560 12607 10150 20069 40209 56003 81100 333 56600 81820=
85586,2013,10,26,00,00,AAXX 26004 85586 12960 00000 10112 20074 40215 52005 60001 333 10160=
85586,2013,10,26,03,00,AAXX 26034 85586 NIL=
85586,2013,10,26,06,00,AAXX 26064 85586 NIL=
85586,2013,10,26,09,00,AAXX 26094 85586 NIL=
85586,2013,10,26,12,00,AAXX 26124 85586 12960 00903 10110 20075 40211 54000 60004 333 20040 30/// 50200 55105 70000=
85586,2013,10,26,15,00,AAXX 26154 85586 42960 02409 10164 20089 40198 57013=
85586,2013,10,26,18,00,AAXX 26184 85586 12960 02408 10174 20113 40178 57022 60001=
85586,2013,10,26,21,00,AAXX 26214 85586 42960 53303 10174 20113 40155 57023 80002 333 56006 85075=
85586,2013,10,27,00,00,AAXX 27004 85586 12960 10103 10130 20087 40154 56002 60001 80001 333 10196 56006 81075=
85586,2013,10,27,03,00,AAXX 27034 85586 NIL=
85586,2013,10,27,06,00,AAXX 27064 85586 NIL=
85586,2013,10,27,09,00,AAXX 27094 85586 NIL=
85586,2013,10,27,12,00,AAXX 27124 85586 12960 60000 10104 20094 40132 56002 60004 80002 333 20060 30/// 50230 55115 56006 70000 86075=
85586,2013,10,27,15,00,AAXX 27154 85586 42460 72705 10142 20112 40140 53009 81602 333 56606 81710 87075=
85586,2013,10,27,18,00,AAXX 27184 85586 12460 63007 10150 20096 40141 54001 60001 83602 333 56606 83710=
85586,2013,10,27,21,00,AAXX 27214 85586 42460 63108 10144 20112 40134 57007 84501 333 56606 84615 87075=
85586,2013,10,28,00,00,AAXX 28004 85586 11458 63303 10126 20100 40138 53004 60001 70522 82501 333 10158 56606 82612 86075=
85586,2013,10,28,06,00,AAXX 28064 85586 NIL=
85586,2013,10,28,09,00,AAXX 28094 85586 NIL=
85586,2013,10,28,12,00,AAXX 28124 85586 11220 83306 10116 20109 40181 52017 69934 75052 886// 333 20112 31/// 50170 55055 56099 70003 88706=
85586,2013,10,28,15,00,AAXX 28154 85586 41430 83109 10130 20113 40193 52012 71022 885// 333 56799 88610=
85586,2013,10,28,18,00,AAXX 28184 85586 12460 53210 10155 20126 40194 54001 60001 85100 333 56700 85818=
85586,2013,10,28,21,00,AAXX 28214 85586 NIL=
85586,2013,10,29,00,00,AAXX 29004 85586 12560 10000 10122 20102 40195 52009 60001 81100 333 10164 56000 81820=
85586,2013,10,29,03,00,AAXX 29034 85586 NIL=
85586,2013,10,29,06,00,AAXX 29064 85586 NIL=
85586,2013,10,29,09,00,AAXX 29094 85586 NIL=
85586,2013,10,29,12,00,AAXX 29124 85586 12560 70000 10129 20096 40175 53003 60004 81531 333 20080 30/// 50130 55052 56666 70000 81625 83365=
85586,2013,10,29,15,00,AAXX 29154 85586 42560 82806 10145 20105 40196 52021 885// 333 56699 88625=
85586,2013,10,29,18,00,AAXX 29184 85586 12560 42309 10162 20093 40187 56009 60001 82130 333 56500 82830 84362=
85586,2013,10,29,21,00,AAXX 29214 85586 42560 62505 10150 20096 40171 57016 83530 333 56550 83625 86362=
85586,2013,10,30,00,00,AAXX 30004 85586 12560 72404 10127 20109 40168 57003 60001 82131 333 10168 56666 82820 83365=
85586,2013,10,30,03,00,AAXX 30034 85586 NIL=
85586,2013,10,30,06,00,AAXX 30064 85586 NIL=
85586,2013,10,30,09,00,AAXX 30094 85586 NIL=
85586,2013,10,30,12,00,AAXX 30124 85586 12560 80000 10118 20088 40150 53005 60004 885// 333 20100 30/// 50180 55037 56699 70000 88623=
85586,2013,10,30,15,00,AAXX 30154 85586 42560 82704 10136 20087 40158 52008 885// 333 56699 88620=
85586,2013,10,30,18,00,AAXX 30184 85586 12460 82806 10136 20096 40166 52008 60001 888// 333 56699 82812 88630=
85586,2013,10,30,21,00,AAXX 30214 85586 42560 83005 10130 20105 40168 54002 885// 333 56799 88620=
85586,2013,10,31,00,00,AAXX 31004 85586 12560 80000 10120 20092 40172 52004 60001 885// 333 10145 56699 88625=
85586,2013,10,31,03,00,AAXX 31034 85586 NIL=
85586,2013,10,31,06,00,AAXX 31064 85586 NIL=
85586,2013,10,31,09,00,AAXX 31094 85586 NIL=
85586,2013,10,31,12,00,AAXX 31124 85586 12460 80103 10129 20098 40180 52019 60004 8253/ 333 20114 30/// 50200 55000 56669 70000 82618 86365=
85586,2013,10,31,15,00,AAXX 31154 85586 42560 83009 10148 20097 40205 52025 8213/ 333 56669 82825 86365=
85586,2013,10,31,18,00,AAXX 31184 85586 12560 83306 10147 20099 40212 52007 60001 8553/ 333 56669 85625 83365=
85586,2013,10,31,21,00,AAXX 31214 85586 42560 72904 10148 20104 40209 58003 83530 333 56660 83625 84365=
85586,2013,11,01,00,00,AAXX 01004 85586 12560 50000 10130 20108 40215 52006 60001 81531 333 10158 56666 81625=
85586,2013,11,01,03,00,AAXX 01034 85586 NIL=
85586,2013,11,01,06,00,AAXX 01064 85586 NIL=
85586,2013,11,01,09,00,AAXX 01094 85586 NIL=
85586,2013,11,01,12,00,AAXX 01124 85586 12460 10000 10113 20094 40217 52013 60003 81100 333 20054 30/// 50250 55001 56000 70000 81817=
85586,2013,11,01,15,00,AAXX 01154 85586 42560 12410 10154 20099 40209 58008 81100 333 56600 81822=
85586,2013,11,01,18,00,AAXX 01184 85586 12960 02412 10160 20106 40209 55000 60001=
85586,2013,11,01,21,00,AAXX 01214 85586 42460 32314 10150 20105 40218 52009 82630 333 56770 82710=
85586,2013,11,02,00,00,AAXX 02004 85586 12460 72903 10126 20108 40240 52022 60001 87500 333 10167 56700 87613=
85586,2013,11,02,03,00,AAXX 02034 85586 NIL=
85586,2013,11,02,06,00,AAXX 02064 85586 NIL=
85586,2013,11,02,09,00,AAXX 02094 85586 NIL=
85586,2013,11,02,12,00,AAXX 02124 85586 11457 10000 10135 20108 40240 52004 60004 70500 81500 333 20074 30/// 50240 55103 56600 70000 81615=
85586,2013,11,02,15,00,AAXX 02154 85586 42960 02408 10168 20116 40224 58016=
85586,2013,11,02,18,00,AAXX 02184 85586 12960 02311 10162 20114 40214 57010 60001=
85586,2013,11,02,21,00,AAXX 02214 85586 42960 02414 10166 20107 40193 57020=
85586,2013,11,03,00,00,AAXX 03004 85586 12960 02504 10125 20083 40195 54000 60001 333 10176=
85586,2013,11,03,03,00,AAXX 03034 85586 NIL=
85586,2013,11,03,06,00,AAXX 03064 85586 NIL=
85586,2013,11,03,09,00,AAXX 03094 85586 NIL=
85586,2013,11,03,12,00,AAXX 03124 85586 12960 00000 10150 20107 40164 52004 60004 333 20054 30/// 50280 55123 70000=
85586,2013,11,03,15,00,AAXX 03154 85586 42960 02505 10192 20101 40159 56004=
85586,2013,11,03,18,00,AAXX 03184 85586 12960 02410 10174 20113 40157 56004 60001=
85586,2013,11,03,21,00,AAXX 03214 85586 42960 02407 10164 20114 40150 57005=
85586,2013,11,04,00,00,AAXX 04004 85586 12960 00203 10120 20103 40155 53004 60001 333 10198=
85586,2013,11,04,03,00,AAXX 04034 85586 NIL=
85586,2013,11,04,06,00,AAXX 04064 85586 NIL=
85586,2013,11,04,09,00,AAXX 04094 85586 NIL=
85586,2013,11,04,12,00,AAXX 04124 85586 11304 80804 10100 20092 40168 52012 60001 74644 886// 333 20060 30/// 50310 55124 56099 70000 88707=
85586,2013,11,04,15,00,AAXX 04154 85586 41450 83009 10136 20117 40189 52022 71042 885// 333 56799 88610=
85586,2013,11,04,18,00,AAXX 04184 85586 11458 83011 10148 20127 40201 52012 60001 70522 885// 333 56799 88612=
85586,2013,11,04,21,00,AAXX 04214 85586 42460 72406 10148 20123 40198 56003 87500 333 56500 87618=
85586,2013,11,05,00,00,AAXX 05004 85586 12560 82004 10130 20108 40203 53004 60001 885// 333 10153 56099 88620=
85586,2013,11,05,03,00,AAXX 05034 85586 NIL=
85586,2013,11,05,06,00,AAXX 05064 85586 NIL=
85586,2013,11,05,09,00,AAXX 05094 85586 NIL=
85586,2013,11,05,12,00,AAXX 05124 85586 11356 80000 10119 20108 40165 53005 60004 71022 886// 333 20117 30/// 50210 55000 56699 70000 88709=
85586,2013,11,05,15,00,AAXX 05154 85586 NIL=
85586,2013,11,05,18,00,AAXX 05184 85586 12460 72507 10148 20095 40179 51003 60001 87500 333 56600 87615=
85586,2013,11,05,21,00,AAXX 05214 85586 42460 82307 10138 20093 40173 56006 885// 333 56699 88615=
85586,2013,11,06,00,00,AAXX 06004 85586 12460 80000 10124 20098 40170 57003 60001 885// 333 10150 56699 88615=
85586,2013,11,06,03,00,AAXX 06034 85586 NIL=
85586,2013,11,06,06,00,AAXX 06064 85586 NIL=
85586,2013,11,06,09,00,AAXX 06094 85586 NIL=
85586,2013,11,06,12,00,AAXX 06124 85586 12560 70604 10133 20079 40219 52027 60004 87500 333 20116 30/// 50250 55000 56600 70000 87630=
85586,2013,11,06,15,00,AAXX 06154 85586 42560 22706 10166 20084 40225 50007 82500 333 56600 82630=
85586,2013,11,06,18,00,AAXX 06184 85586 12960 02509 10175 20094 40222 57003 60001=
85586,2013,11,06,21,00,AAXX 06214 85586 42960 00000 10160 20107 40216 57006=
85586,2013,11,07,00,00,AAXX 07004 85586 12960 02403 10130 20108 40217 54000 60001 333 10188=
85586,2013,11,07,03,00,AAXX 07034 85586 NIL=
85586,2013,11,07,06,00,AAXX 07064 85586 NIL=
85586,2013,11,07,09,00,AAXX 07094 85586 NIL=
85586,2013,11,07,12,00,AAXX 07124 85586 12960 01604 10140 20084 40217 53005 60004 333 20052 30/// 50300 55105 70000=
85586,2013,11,07,15,00,AAXX 07154 85586 42960 12410 10178 20112 40208 58006 80001 333 56006 81075=
85586,2013,11,07,18,00,AAXX 07184 85586 12960 12316 10182 20112 40195 57013 60001 80001 333 56006 81075=
85586,2013,11,07,21,00,AAXX 07214 85586 42960 12315 10180 20110 40181 57014 80001 333 56006 81075=
85586,2013,11,08,00,00,AAXX 08004 85586 12960 12303 10134 20097 40188 53006 60001 80001 333 10198 56006 81075=
85586,2013,11,08,03,00,AAXX 08034 85586 NIL=
85586,2013,11,08,06,00,AAXX 08064 85586 NIL=
85586,2013,11,08,09,00,AAXX 08094 85586 NIL=
85586,2013,11,08,12,00,AAXX 08124 85586 12960 00000 10137 20097 40176 54000 60003 333 20044 30/// 50310 55128 70000=
85586,2013,11,08,15,00,AAXX 08154 85586 42960 02312 10164 20097 40171 58006=
85586,2013,11,08,18,00,AAXX 08184 85586 12960 02417 10168 20102 40163 57007 60001=
85586,2013,11,08,21,00,AAXX 08214 85586 42960 02415 10154 20093 40160 56003=
85586,2013,11,09,00,00,AAXX 09004 85586 12960 02706 10123 20109 40169 53008 60001 333 10178=
85586,2013,11,09,03,00,AAXX 09034 85586 NIL=
85586,2013,11,09,06,00,AAXX 09064 85586 NIL=
85586,2013,11,09,09,00,AAXX 09094 85586 NIL=
85586,2013,11,09,12,00,AAXX 09124 85586 12960 51004 10124 20080 40123 58003 60004 85030 333 20082 30/// 50370 55129 56060 70000 85365=
85586,2013,11,09,15,00,AAXX 09154 85586 42960 72710 10156 20092 40119 56004 87030 333 56060 87365=
85586,2013,11,09,18,00,AAXX 09184 85586 12460 72911 10156 20099 40131 53012 60001 82530 333 56760 82615 87365=
85586,2013,11,09,21,00,AAXX 09214 85586 42460 83012 10147 20093 40141 53010 8353/ 333 56769 83615 88362=
85586,2013,11,10,00,00,AAXX 10004 85586 12960 63304 10134 20083 40146 52005 60001 80001 333 10165 56006 86175=
85586,2013,11,10,03,00,AAXX 10034 85586 NIL=
85586,2013,11,10,06,00,AAXX 10064 85586 NIL=
85586,2013,11,10,09,00,AAXX 10094 85586 NIL=
85586,2013,11,10,12,00,AAXX 10124 85586 12960 00000 10141 20087 40179 52023 60004 333 20066 30/// 50290 55055 70000=
85586,2013,11,10,15,00,AAXX 10154 85586 42460 32410 10174 20080 40197 52019 81101 333 56706 81815 83075=
85586,2013,11,10,18,00,AAXX 10184 85586 12960 02314 10174 20089 40202 51005 60001=
85586,2013,11,10,21,00,AAXX 10214 85586 42960 02611 10166 20112 40211 53009=
85586,2013,11,11,00,00,AAXX 11004 85586 12460 32806 10138 20111 40224 53012 60001 83100 333 10186 56000 83815=
85586,2013,11,11,03,00,AAXX 11034 85586 NIL=
85586,2013,11,11,06,00,AAXX 11064 85586 NIL=
85586,2013,11,11,09,00,AAXX 11094 85586 NIL=
85586,2013,11,11,12,00,AAXX 11124 85586 12960 01204 10146 20091 40227 50004 60004 333 20076 30/// 50300 55129 70000=
85586,2013,11,11,15,00,AAXX 11154 85586 42960 02410 10166 20117 40219 57007=
85586,2013,11,11,18,00,AAXX 11184 85586 12960 02411 10174 20123 40205 57014 60001=
85586,2013,11,11,21,00,AAXX 11214 85586 42960 02312 10167 20114 40187 57018=
85586,2013,11,12,00,00,AAXX 12004 85586 12960 00000 10141 20105 40185 57003 60001 333 10182=
85586,2013,11,12,03,00,AAXX 12034 85586 NIL=
85586,2013,11,12,06,00,AAXX 12064 85586 NIL=
85586,2013,11,12,09,00,AAXX 12094 85586 NIL=
85586,2013,11,12,12,00,AAXX 12124 85586 12960 00000 10146 20094 40168 54001 60004 333 20050 30/// 50310 55127 70000=
85586,2013,11,12,15,00,AAXX 12154 85586 42960 02411 10189 20121 40152 57015=
85586,2013,11,12,18,00,AAXX 12184 85586 12960 02313 10192 20109 40137 57015 60001=
85586,2013,11,12,21,00,AAXX 12214 85586 42960 02407 10192 20109 40123 57014=
85586,2013,11,13,00,00,AAXX 13004 85586 12960 00000 10153 20098 40126 54002 60001 333 10226=
85586,2013,11,13,03,00,AAXX 13034 85586 NIL=
85586,2013,11,13,06,00,AAXX 13064 85586 NIL=
85586,2013,11,13,09,00,AAXX 13094 85586 NIL=
85586,2013,11,13,12,00,AAXX 13124 85586 12960 10000 10141 20093 40121 53006 60004 80001 333 20058 30/// 50330 55130 56006 70000 81075=
85586,2013,11,13,15,00,AAXX 13154 85586 42960 02805 10178 20127 40118 54002=
85586,2013,11,13,18,00,AAXX 13184 85586 12960 02410 10172 20101 40124 53006 60001=
85586,2013,11,13,21,00,AAXX 13214 85586 42960 02810 10156 20119 40127 52003=
85586,2013,11,14,00,00,AAXX 14004 85586 12360 12906 10143 20126 40155 52027 60001 81600 333 10198 56700 81708=
85586,2013,11,14,03,00,AAXX 14034 85586 NIL=
85586,2013,11,14,06,00,AAXX 14064 85586 NIL=
85586,2013,11,14,09,00,AAXX 14094 85586 NIL=
85586,2013,11,14,12,00,AAXX 14124 85586 12460 21105 10166 20087 40195 52015 60004 82500 333 20116 30/// 50340 55125 56700 70000 82615=
85586,2013,11,14,15,00,AAXX 14154 85586 42460 52608 10176 20106 40208 54002 85500 333 56600 85618=
85586,2013,11,14,18,00,AAXX 14184 85586 12560 22316 10172 20076 40215 52007 60001 82100 333 56500 82820=
85586,2013,11,14,21,00,AAXX 14214 85586 42960 02314 10176 20067 40209 56006=
85586,2013,11,15,00,00,AAXX 15004 85586 12960 02309 10143 20077 40218 53009 60001 333 10184=
85586,2013,11,15,03,00,AAXX 15034 85586 NIL=
85586,2013,11,15,06,00,AAXX 15064 85586 NIL=
85586,2013,11,15,09,00,AAXX 15094 85586 NIL=
85586,2013,11,15,12,00,AAXX 15124 85586 12960 01611 10161 20069 40190 58005 60004 333 20073 30/// 50360 55089 70000=
85586,2013,11,15,15,00,AAXX 15154 85586 42960 01609 10240 20059 40167 57023=
85586,2013,11,15,18,00,AAXX 15184 85586 12960 02315 10182 20108 40145 57022 60001=
85586,2013,11,15,21,00,AAXX 15214 85586 42960 02312 10184 20109 40127 57016=
85586,2013,11,16,00,00,AAXX 16004 85586 11958 00104 10151 20098 40131 53003 60001 70500 333 10264=
85586,2013,11,16,03,00,AAXX 16034 85586 NIL=
85586,2013,11,16,06,00,AAXX 16064 85586 NIL=
85586,2013,11,16,09,00,AAXX 16094 85586 NIL=
85586,2013,11,16,12,00,AAXX 16124 85586 11956 00000 10143 20105 40108 53009 60004 70500 333 20061 30/// 50430 55132 70000=
85586,2013,11,16,15,00,AAXX 16154 85586 42260 12608 10164 20109 40115 52008 81600 333 56700 81704=
85586,2013,11,16,18,00,AAXX 16184 85586 12360 32909 10175 20118 40127 52012 60001 83600 333 56700 83707=
85586,2013,11,16,21,00,AAXX 16214 85586 41458 83112 10154 20129 40140 52012 70522 885// 333 56799 88612=
85586,2013,11,17,00,00,AAXX 17004 85586 11456 83207 10143 20109 40142 51002 60001 70522 885// 333 10183 56799 88610=
85586,2013,11,17,03,00,AAXX 17034 85586 NIL=
85586,2013,11,17,06,00,AAXX 17064 85586 NIL=
85586,2013,11,17,09,00,AAXX 17094 85586 NIL=
85586,2013,11,17,12,00,AAXX 17124 85586 11340 80000 10125 20117 40137 53014 60004 71022 886// 333 20123 30/// 50260 55094 56799 70000 88707=
85586,2013,11,17,15,00,AAXX 17154 85586 41456 82807 10136 20120 40159 52021 70522 885// 333 56799 88613=
85586,2013,11,17,18,00,AAXX 17184 85586 11458 83009 10140 20123 40170 52011 60001 70522 885// 333 56799 88615=
85586,2013,11,17,21,00,AAXX 17214 85586 42560 83008 10142 20112 40160 57010 885// 333 56799 88620=
85586,2013,11,18,00,00,AAXX 18004 85586 12560 50000 10133 20115 40154 56004 60001 85500 333 10150 56700 85623=
85586,2013,11,18,03,00,AAXX 18034 85586 NIL=
85586,2013,11,18,06,00,AAXX 18064 85586 NIL=
85586,2013,11,18,09,00,AAXX 18094 85586 NIL=
85586,2013,11,18,12,00,AAXX 18124 85586 12560 83103 10136 20116 40157 53020 60004 885// 333 20130 30/// 50220 55010 56699 70000 88620=
85586,2013,11,18,15,00,AAXX 18154 85586 42460 82704 10154 20114 40166 52009 885// 333 56699 88618=
85586,2013,11,18,18,00,AAXX 18184 85586 12560 72405 10170 20106 40163 56003 60001 87500 333 56600 87620=
85586,2013,11,18,21,00,AAXX 18214 85586 42560 42506 10162 20115 40154 57009 83106 333 56600 83820 84070=
85586,2013,11,19,00,00,AAXX 19004 85586 12560 42304 10136 20122 40158 52004 60001 81501 333 10176 56606 81620 83073=
85586,2013,11,19,03,00,AAXX 19034 85586 NIL=
85586,2013,11,19,06,00,AAXX 19064 85586 NIL=
85586,2013,11,19,09,00,AAXX 19094 85586 NIL=
85586,2013,11,19,12,00,AAXX 19124 85586 11456 82904 10133 20114 40176 52015 60004 70522 886// 333 20083 30/// 50230 55026 56699 70000 88710=
85586,2013,11,19,15,00,AAXX 19154 85586 42460 72805 10158 20118 40181 54001 87500 333 56600 87615=
85586,2013,11,19,18,00,AAXX 19184 85586 12560 42409 10172 20111 40181 54000 60001 84500 333 56600 84620=
85586,2013,11,19,21,00,AAXX 19214 85586 42560 22406 10165 20120 40173 57008 82100 333 56600 82825=
85586,2013,11,20,00,00,AAXX 20004 85586 12960 00000 10136 20117 40181 52008 60001 333 10178=
85586,2013,11,20,03,00,AAXX 20034 85586 NIL=
85586,2013,11,20,06,00,AAXX 20064 85586 NIL=
85586,2013,11,20,12,00,AAXX 20124 85586 11458 83206 10134 20102 40210 52020 60004 70522 885// 333 20094 30/// 50370 55075 56799 70000 88612=
85586,2013,11,20,15,00,AAXX 20154 85586 42460 22808 10161 20094 40218 51008 82500 333 56700 82615=
85586,2013,11,20,18,00,AAXX 20184 85586 12460 12610 10168 20106 40219 54001 60001 81500 333 56700 81615=
85586,2013,11,20,21,00,AAXX 20214 85586 42960 02609 10156 20107 40211 58008=
85586,2013,11,21,00,00,AAXX 21004 85586 11458 82606 10137 20110 40216 53005 60001 70522 885// 333 10177 56799 88612=
85586,2013,11,21,03,00,AAXX 21034 85586 NIL=
85586,2013,11,21,06,00,AAXX 21064 85586 NIL=
85586,2013,11,21,09,00,AAXX 21094 85586 NIL=
85586,2013,11,21,12,00,AAXX 21124 85586 11208 80904 10116 20107 40194 52009 60004 74244 886// 333 20101 30/// 50360 55087 56799 70000 88704=
85586,2013,11,21,15,00,AAXX 21154 85586 41240 22705 10154 20122 40185 57009 71042 82600 333 56600 82706=
85586,2013,11,21,18,00,AAXX 21184 85586 11460 22508 10170 20132 40176 57009 60001 70142 82600 333 56600 82710=
85586,2013,11,21,21,00,AAXX 21214 85586 42960 02808 10168 20132 40166 57010=
85586,2013,11,22,00,00,AAXX 22004 85586 11956 43505 10138 20115 40165 55001 60001 70511 80001 333 10179 56006 84075=
85586,2013,11,22,03,00,AAXX 22034 85586 NIL=
85586,2013,11,22,06,00,AAXX 22064 85586 NIL=
85586,2013,11,22,09,00,AAXX 22094 85586 NIL=
85586,2013,11,22,12,00,AAXX 22124 85586 11356 83306 10133 20101 40167 53008 60004 70522 886// 333 20111 30/// 50410 55108 56799 70000 88709=
85586,2013,11,22,15,00,AAXX 22154 85586 41458 82905 10140 20113 40166 54001 70522 886// 333 56799 88710=
85586,2013,11,22,18,00,AAXX 22184 85586 11458 72807 10150 20114 40162 56004 60001 70522 87500 333 56600 87615=
85586,2013,11,22,21,00,AAXX 22214 85586 42460 72508 10149 20108 40155 58007 87500 333 56700 87615=
85586,2013,11,23,00,00,AAXX 23004 85586 11458 82806 10138 20100 40146 56008 60001 70522 885// 333 10161 56799 88610=
85586,2013,11,23,03,00,AAXX 23034 85586 NIL=
85586,2013,11,23,06,00,AAXX 23064 85586 NIL=
85586,2013,11,23,09,00,AAXX 23094 85586 NIL=
85586,2013,11,23,12,00,AAXX 23124 85586 12460 73206 10132 20112 40126 53010 60004 87500 333 20110 30/// 50240 55023 56700 79999 87615=
85586,2013,11,23,15,00,AAXX 23154 85586 42460 73007 10147 20112 40139 52013 87500 333 56700 87615=
85586,2013,11,23,18,00,AAXX 23184 85586 12460 73007 10160 20116 40147 52008 60001 87500 333 56600 87618=
85586,2013,11,23,21,00,AAXX 23214 85586 42460 72706 10157 20128 40146 54001 87500 333 56600 87618=
85586,2013,11,24,00,00,AAXX 24004 85586 12460 80000 10137 20115 40151 52005 60001 885// 333 10170 56699 88618=
85586,2013,11,24,03,00,AAXX 24034 85586 NIL=
85586,2013,11,24,06,00,AAXX 24064 85586 NIL=
85586,2013,11,24,09,00,AAXX 24094 85586 NIL=
85586,2013,11,24,12,00,AAXX 24124 85586 12560 71203 10143 20111 40160 53016 60004 87500 333 20133 30/// 50250 55002 56600 70000 87623=
85586,2013,11,24,15,00,AAXX 24154 85586 42560 32408 10165 20122 40163 52004 83500 333 56600 83625=
85586,2013,11,24,18,00,AAXX 24184 85586 12560 12511 10176 20123 40164 54001 60001 81200 333 56600 81825=
85586,2013,11,24,21,00,AAXX 24214 85586 42960 02313 10180 20111 40156 58008=
85586,2013,11,25,00,00,AAXX 25004 85586 12960 02107 10138 20096 40172 52015 60001 333 10186=
85586,2013,11,25,03,00,AAXX 25034 85586 NIL=
85586,2013,11,25,06,00,AAXX 25064 85586 NIL=
85586,2013,11,25,09,00,AAXX 25094 85586 NIL=
85586,2013,11,25,12,00,AAXX 25124 85586 11356 53105 10134 20098 40183 53012 60004 70522 85600 333 20095 30/// 50250 55087 56700 70000 85708=
85586,2013,11,25,15,00,AAXX 25154 85586 42460 22909 10160 20108 40188 52005 82100 333 56600 82815=
85586,2013,11,25,18,00,AAXX 25184 85586 12560 22709 10168 20108 40191 51003 60001 82100 333 56600 82820=
85586,2013,11,25,21,00,AAXX 25214 85586 42960 02609 10154 20093 40191 54000=
85586,2013,11,26,00,00,AAXX 26004 85586 12960 02705 10134 20096 40192 54001 60001 333 10184=
85586,2013,11,26,03,00,AAXX 26034 85586 NIL=
85586,2013,11,26,06,00,AAXX 26064 85586 NIL=
85586,2013,11,26,09,00,AAXX 26094 85586 NIL=
85586,2013,11,26,12,00,AAXX 26124 85586 11558 82404 10132 20073 40204 52016 60003 70522 885// 333 20104 30/// 50310 55111 56799 70000 88620=
85586,2013,11,26,15,00,AAXX 26154 85586 42560 82606 10146 20076 40212 52008 885// 333 56799 8862=
85586,2013,11,26,18,00,AAXX 26184 85586 12560 32808 10164 20082 40212 54000 60001 83800 333 56600 82820 83630=
85586,2013,11,26,21,00,AAXX 26214 85586 42560 12505 10165 20082 40207 56005 81100 333 56600 81820=
85586,2013,11,27,00,00,AAXX 27004 85586 12960 02306 10134 20087 40214 53007 60001 333 10172=
85586,2013,11,27,03,00,AAXX 27034 85586 NIL=
85586,2013,11,27,06,00,AAXX 27064 85586 NIL=
85586,2013,11,27,09,00,AAXX 27094 85586 NIL=
85586,2013,11,27,12,00,AAXX 27124 85586 12960 01905 10142 20088 40191 53004 60004 333 20036 30/// 50300 55061 70000=
85586,2013,11,27,15,00,AAXX 27154 85586 42960 02314 10164 20085 40185 58005=
85586,2013,11,27,18,00,AAXX 27184 85586 12960 02421 10164 20085 40175 57010 60001=
85586,2013,11,27,21,00,AAXX 27214 85586 42960 02414 10159 20103 40163 57012=
85586,2013,11,28,00,00,AAXX 28004 85586 12960 02308 10126 20087 40167 53003 60001 333 10173=
85586,2013,11,28,03,00,AAXX 28034 85586 NIL=
85586,2013,11,28,06,00,AAXX 28064 85586 NIL=
85586,2013,11,28,09,00,AAXX 28094 85586 NIL=
85586,2013,11,28,12,00,AAXX 28124 85586 12960 00805 10134 20075 40193 52013 60004 333 20037 30/// 50410 55132 70000=
85586,2013,11,28,15,00,AAXX 28154 85586 42960 02410 10150 20089 40192 54001=
85586,2013,11,28,18,00,AAXX 28184 85586 12960 02315 10160 20103 40187 56005 60001=
85586,2013,11,28,21,00,AAXX 28214 85586 42960 02413 10158 20109 40178 56009=
85586,2013,11,29,00,00,AAXX 29004 85586 12960 00000 10138 20092 40175 56003 60001 333 10166=
85586,2013,11,29,03,00,AAXX 29034 85586 NIL=
85586,2013,11,29,06,00,AAXX 29064 85586 NIL=
85586,2013,11,29,09,00,AAXX 29094 85586 NIL=
85586,2013,11,29,12,00,AAXX 29124 85586 11150 20000 10126 20108 40173 53013 60004 70500 82600 333 20080 30/// 50340 55133 56000 70000 82703=
85586,2013,11,29,15,00,AAXX 29154 85586 NIL=
85586,2013,11,29,21,00,AAXX 29214 85586 42460 22608 10155 20114 40169 56006 82100 333 56500 82815=
85586,2013,11,30,00,00,AAXX 30004 85586 12460 82906 10133 20119 40171 54002 60001 885// 333 10170 56799 88613=
85586,2013,11,30,03,00,AAXX 30034 85586 NIL=
85586,2013,11,30,06,00,AAXX 30064 85586 NIL=
85586,2013,11,30,09,00,AAXX 30094 85586 NIL=
85586,2013,11,30,12,00,AAXX 30124 85586 11250 83103 10116 20106 40158 53010 60004 71022 886// 333 20113 30/// 50280 55120 56099 70000 88705=
85586,2013,11,30,15,00,AAXX 30154 85586 41458 73004 10134 20105 40163 52005 70522 87600 333 56600 87712=
85586,2013,11,30,18,00,AAXX 30184 85586 12460 62807 10147 20123 40161 58002 60001 86500 333 56600 86613=
85586,2013,11,30,21,00,AAXX 30214 85586 41340 82906 10134 20127 40162 54001 71022 886// 333 56699 88708=
85586,2013,12,01,00,00,AAXX 01004 85586 11330 82603 10126 20117 40166 52004 60001 71022 886// 333 10156 56699 88707=
85586,2013,12,01,03,00,AAXX 01034 85586 NIL=
85586,2013,12,01,06,00,AAXX 01064 85586 NIL=
85586,2013,12,01,09,00,AAXX 01094 85586 NIL=
85586,2013,12,01,12,00,AAXX 01124 85586 11458 80000 10118 20104 40166 53010 60004 70522 886// 333 20116 30/// 50230 55004 56699 70000 88710=
85586,2013,12,01,15,00,AAXX 01154 85586 42460 62704 10136 20109 40182 52016 86500 333 56600 86615=
85586,2013,12,01,18,00,AAXX 01184 85586 12460 52605 10155 20121 40185 50003 60001 85500 333 56600 85615=
85586,2013,12,01,21,00,AAXX 01214 85586 42460 72608 10143 20117 40180 57005 87500 333 56600 87613=
85586,2013,12,02,00,00,AAXX 02004 85586 12460 82503 10126 20110 40197 52016 60001 886// 333 10164 56699 88710=
85586,2013,12,02,03,00,AAXX 02034 85586 NIL=
85586,2013,12,02,06,00,AAXX 02064 85586 NIL=
85586,2013,12,02,09,00,AAXX 02094 85586 NIL=
85586,2013,12,02,12,00,AAXX 02124 85586 11958 72504 10134 20096 40201 52015 60004 70522 80001 333 20104 30/// 50350 55026 56006 70000 87075=
85586,2013,12,02,15,00,AAXX 02154 85586 42960 52606 10166 20094 40206 51005 80004 333 56000 85073=
85586,2013,12,02,18,00,AAXX 02184 85586 12960 32311 10168 20103 40203 56003 60001 80004 333 56000 83073=
85586,2013,12,02,21,00,AAXX 02214 85586 42960 22604 10208 20090 40179 57024 80001 333 56000 82073=
85586,2013,12,03,00,00,AAXX 03004 85586 12960 03304 10177 20120 40174 56004 60001 333 10214=
85586,2013,12,03,03,00,AAXX 03034 85586 NIL=
85586,2013,12,03,06,00,AAXX 03064 85586 NIL=
85586,2013,12,03,09,00,AAXX 03094 85586 NIL=
85586,2013,12,03,12,00,AAXX 03124 85586 12960 71708 10194 20101 40138 52005 60004 80001 333 20079 30/// 50440 55124 56006 70000 87075=
85586,2013,12,03,15,00,AAXX 03154 85586 42960 42310 10208 20082 40139 54001 80001 333 56000 84075=
85586,2013,12,03,18,00,AAXX 03184 85586 11958 32510 10182 20081 40135 56004 60001 70411 80001 333 56000 83075=
85586,2013,12,03,21,00,AAXX 03214 85586 41958 13210 10174 20085 40133 54002 70411 80001 333 56000 81075=
85586,2013,12,04,00,00,AAXX 04004 85586 11956 00310 10133 20092 40131 55001 60001 70400 333 10225=
85586,2013,12,04,03,00,AAXX 04034 85586 NIL=
85586,2013,12,04,06,00,AAXX 04064 85586 NIL=
85586,2013,12,04,09,00,AAXX 04094 85586 NIL=
85586,2013,12,04,12,00,AAXX 04124 85586 11956 23504 10141 20099 40122 52011 60004 70500 80001 333 20051 30/// 50460 55130 56000 70000 82075=
85586,2013,12,04,15,00,AAXX 04154 85586 42960 03010 10171 20098 40154 52032=
85586,2013,12,04,18,00,AAXX 04184 85586 12960 02914 10178 20113 40181 52027 60001=
85586,2013,12,04,21,00,AAXX 04214 85586 42960 02309 10167 20098 40172 58009=
85586,2013,12,05,00,00,AAXX 05004 85586 13960 02404 10131 20100 40175 53002 60001 333 10184=
85586,2013,12,05,03,00,AAXX 05034 85586 NIL=
85586,2013,12,05,06,00,AAXX 05064 85586 NIL=
85586,2013,12,05,09,00,AAXX 05094 85586 NIL=
85586,2013,12,05,12,00,AAXX 05124 85586 11205 81203 10092 20084 40177 52009 60004 74644 886// 333 20076 30/// 50310 55128 56099 70000 88705=
85586,2013,12,05,15,00,AAXX 05154 85586 41357 72807 10134 20116 40190 57024 70542 87600 333 56700 87708=
85586,2013,12,05,18,00,AAXX 05184 85586 12460 32907 10168 20116 40195 52005 60001 82101 333 56700 82818 83073=
85586,2013,12,05,21,00,AAXX 05214 85586 42460 32707 10160 20116 40188 56006 82101 333 56600 82815 83073=
85586,2013,12,06,00,00,AAXX 06004 85586 12460 62403 10128 20119 40191 53002 60001 83501 333 10184 56606 81710 83615=
85586,2013,12,06,03,00,AAXX 06034 85586 NIL=
85586,2013,12,06,06,00,AAXX 06064 85586 NIL=
85586,2013,12,06,09,00,AAXX 06094 85586 NIL=
85586,2013,12,06,12,00,AAXX 06124 85586 11450 80204 10114 20096 40180 52010 60004 70522 885// 333 20086 30/// 50240 55064 56699 70000 83710 88615=
85586,2013,12,06,15,00,AAXX 06154 85586 42460 12606 10146 20098 40176 56004 81100 333 56600 81810=
85586,2013,12,06,18,00,AAXX 06184 85586 12460 22410 10158 20110 40170 57006 60001 81101 333 56600 81812=
85586,2013,12,06,21,00,AAXX 06214 85586 12460 42608 10148 20109 40158 57012 82101 333 56600 82812 84070=
85586,2013,12,07,00,00,AAXX 07004 85586 NIL=
85586,2013,12,07,03,00,AAXX 07034 85586 NIL=
85586,2013,12,07,06,00,AAXX 07064 85586 NIL=
85586,2013,12,07,09,00,AAXX 07094 85586 NIL=
85586,2013,12,07,12,00,AAXX 07124 85586 11457 83003 10116 20091 40150 53006 60004 70522 886// 333 20070 30/// 50280 55105 56099 70000 88712=
85586,2013,12,07,15,00,AAXX 07154 85586 42460 72806 10134 20081 40163 52013 87500 333 56600 87618=
85586,2013,12,07,18,00,AAXX 07184 85586 12660 12807 10164 20090 40159 58003 60001 81500 333 56600 81633=
85586,2013,12,07,21,00,AAXX 07214 85586 42560 12505 10164 20090 40139 57020 81500 333 56600 81630=
85586,2013,12,08,00,00,AAXX 08004 85586 12560 32603 10134 20087 40138 56002 60001 83500 333 10170 56600 83626=
85586,2013,12,08,03,00,AAXX 08034 85586 NIL=
85586,2013,12,08,06,00,AAXX 08064 85586 NIL=
85586,2013,12,08,09,00,AAXX 08094 85586 NIL=
85586,2013,12,08,12,00,AAXX 08124 85586 11458 73110 10151 20098 40188 52026 60004 70522 87500 333 20114 30/// 50410 55080 56700 70000 81612 87620=
85586,2013,12,08,15,00,AAXX 08154 85586 42560 73010 10188 20072 40191 51004 87500 333 56700 87620=
85586,2013,12,08,18,00,AAXX 08184 85586 12460 22811 10193 20092 40196 51005 60001 82500 333 56000 82615=
85586,2013,12,08,21,00,AAXX 08214 85586 42560 32810 10171 20106 40196 54000 83500 333 56700 83620=
85586,2013,12,09,00,00,AAXX 09004 85586 12860 72605 10154 20105 40207 53010 60001 87030 333 10194 56060 87358=
85586,2013,12,09,03,00,AAXX 09034 85586 NIL=
85586,2013,12,09,06,00,AAXX 09064 85586 NIL=
85586,2013,12,09,09,00,AAXX 09094 85586 NIL=
85586,2013,12,09,12,00,AAXX 09124 85586 12960 00000 10169 20103 40198 55001 60004 333 20067 30/// 50320 55060 70000=
85586,2013,12,09,15,00,AAXX 09154 85586 42960 02314 10183 20119 40194 56003=
85586,2013,12,09,18,00,AAXX 09184 85586 12960 02415 10191 20110 40193 50001 60001=
85586,2013,12,09,21,00,AAXX 09214 85586 42960 02315 10193 20112 40177 57016=
85586,2013,12,10,00,00,AAXX 10004 85586 12960 02304 10154 20102 40180 55002 60001 333 10196=
85586,2013,12,10,03,00,AAXX 10034 85586 NIL=
85586,2013,12,10,06,00,AAXX 10064 85586 NIL=
85586,2013,12,10,09,00,AAXX 10094 85586 NIL=
85586,2013,12,10,12,00,AAXX 10124 85586 12960 00000 10156 20099 40173 52010 60004 333 20074 30/// 50430 55132 70000=
85586,2013,12,10,15,00,AAXX 10154 85586 42960 02505 10176 20128 40175 54002=
85586,2013,12,10,18,00,AAXX 10184 85586 12960 02609 10174 20131 40178 51003 60001=
85586,2013,12,10,21,00,AAXX 10214 85586 42460 32709 10162 20129 40169 57010 83100 333 56600 83812=
85586,2013,12,11,00,00,AAXX 11004 85586 12460 83208 10146 20123 40166 56003 60001 885// 333 10178 56799 88610=
85586,2013,12,11,03,00,AAXX 11034 85586 NIL=
85586,2013,12,11,06,00,AAXX 11064 85586 NIL=
85586,2013,12,11,09,00,AAXX 11094 85586 NIL=
85586,2013,12,11,12,00,AAXX 11124 85586 11340 80000 10126 20115 40172 52009 60004 71022 886// 333 20114 30/// 50320 55120 56099 70000 88708=
85586,2013,12,11,15,00,AAXX 11154 85586 41330 83008 10144 20123 40177 52005 70522 886// 333 56099 88707=
85586,2013,12,11,18,00,AAXX 11184 85586 11320 82706 10136 20127 40174 58003 60001 71042 886// 333 56099 88707=
85586,2013,12,11,21,00,AAXX 11214 85586 41330 82808 10136 20127 40162 57012 71022 886// 333 56099 88707=
85586,2013,12,12,00,00,AAXX 12004 85586 11330 82704 10126 20118 40156 56006 60001 71022 886// 333 10146 56099 88707=
85586,2013,12,12,03,00,AAXX 12034 85586 NIL=
85586,2013,12,12,06,00,AAXX 12064 85586 NIL=
85586,2013,12,12,09,00,AAXX 12094 85586 NIL=
85586,2013,12,12,12,00,AAXX 12124 85586 11240 83305 10124 20117 40145 52007 60004 71022 886// 333 20116 30/// 50160 55000 56099 70000 88706=
85586,2013,12,12,15,00,AAXX 12154 85586 41456 83208 10142 20121 40144 54001 70522 886// 333 56799 88710=
85586,2013,12,12,18,00,AAXX 12184 85586 NIL=
85586,2013,12,12,21,00,AAXX 12214 85586 41450 82806 10148 20134 40138 56008 71022 886// 333 56699 88710=
85586,2013,12,13,00,00,AAXX 13004 85586 11340 83003 10134 20127 40140 53002 60001 71022 886// 333 10160 56099 88708=
85586,2013,12,13,03,00,AAXX 13034 85586 NIL=
85586,2013,12,13,06,00,AAXX 13064 85586 NIL=
85586,2013,12,13,09,00,AAXX 13094 85586 NIL=
85586,2013,12,13,12,00,AAXX 13124 85586 11220 82603 10126 20119 40148 52009 69904 75052 886// 333 20120 31/// 50000 55000 56099 79999 88706=
85586,2013,12,13,15,00,AAXX 13154 85586 41230 82905 10138 20132 40152 51004 71052 886// 333 56799 88706=
85586,2013,12,13,18,00,AAXX 13184 85586 11458 82505 10158 20127 40148 56004 69901 70522 885// 333 56699 88612=
85586,2013,12,13,21,00,AAXX 13214 85586 42460 72305 10160 20126 40131 57017 87500 333 56600 87618=
85586,2013,12,14,00,00,AAXX 14004 85586 12460 82803 10144 20119 40129 56002 60001 885// 333 10170 56099 88615=
85586,2013,12,14,03,00,AAXX 14034 85586 NIL=
85586,2013,12,14,06,00,AAXX 14064 85586 NIL=
85586,2013,12,14,09,00,AAXX 14094 85586 NIL=
85586,2013,12,14,12,00,AAXX 14124 85586 11320 83104 10134 20118 40147 52017 69904 71055 886// 333 20124 31/// 55004 56799 70000 88707=
85586,2013,12,14,15,00,AAXX 14154 85586 41330 82605 10144 20128 40159 52011 71022 886// 333 56699 88708=
85586,2013,12,14,18,00,AAXX 14184 85586 11456 82607 10165 20120 40154 56005 60001 70522 885// 333 56699 88612=
85586,2013,12,14,21,00,AAXX 14214 85586 42460 82806 10154 20125 40145 57009 885// 333 56699 88615=
85586,2013,12,15,00,00,AAXX 15004 85586 11456 82804 10146 20108 40146 53002 60001 70522 885// 333 10168 56799 88610=
85586,2013,12,15,03,00,AAXX 15034 85586 NIL=
85586,2013,12,15,06,00,AAXX 15064 85586 NIL=
85586,2013,12,15,09,00,AAXX 15094 85586 NIL=
85586,2013,12,15,12,00,AAXX 15124 85586 11308 83404 10139 20127 40173 52022 69924 75055 886// 333 20131 31/// 55000 56799 70002 88707=
85586,2013,12,15,15,00,AAXX 15154 85586 41440 83011 10155 20122 40181 51008 70522 886// 333 56799 88710=
85586,2013,12,15,18,00,AAXX 15184 85586 12460 32811 10183 20120 40172 58008 69901 83500 333 56700 83615=
85586,2013,12,15,21,00,AAXX 15214 85586 42460 72407 10176 20127 40161 57012 87500 333 56700 87615=
85586,2013,12,16,00,00,AAXX 16004 85586 11460 82504 10154 20117 40157 56004 60001 70522 885// 333 10185 56799 88612=
85586,2013,12,16,03,00,AAXX 16034 85586 NIL=
85586,2013,12,16,06,00,AAXX 16064 85586 NIL=
85586,2013,12,16,09,00,AAXX 16094 85586 NIL=
85586,2013,12,16,12,00,AAXX 16124 85586 11320 83305 10141 20114 40151 52016 69904 71022 886// 333 20137 30/// 55027 56799 70000 88707=
85586,2013,12,16,15,00,AAXX 16154 85586 41330 83005 10152 20132 40156 51005 71022 886// 333 56799 88708=
85586,2013,12,16,18,00,AAXX 16184 85586 11457 82706 10168 20133 40151 56005 60001 70522 886// 333 56699 88710=
85586,2013,12,16,21,00,AAXX 16214 85586 42460 72604 10164 20130 40140 57011 87500 333 56600 87615=
85586,2013,12,17,00,00,AAXX 17004 85586 11356 82905 10154 20121 40145 53008 60001 70522 886// 333 10173 56799 88709=
85586,2013,12,17,03,00,AAXX 17034 85586 NIL=
85586,2013,12,17,06,00,AAXX 17064 85586 NIL=
85586,2013,12,17,09,00,AAXX 17094 85586 NIL=
85586,2013,12,17,12,00,AAXX 17124 85586 11335 83303 10140 20132 40165 52011 60004 71022 886// 333 20138 30/// 55000 56099 70000 88708=
85586,2013,12,17,15,00,AAXX 17154 85586 41330 82905 10156 20142 40168 52008 71052 886// 333 56799 88708=
85586,2013,12,17,18,00,AAXX 17184 85586 11458 82705 10170 20142 40163 56005 60001 70522 886// 333 56699 88710=
85586,2013,12,17,21,00,AAXX 17214 85586 42460 82705 10160 20139 40153 57010 885// 333 56699 88612=
85586,2013,12,18,00,00,AAXX 18004 85586 12560 82804 10144 20130 40154 54001 60001 885// 333 10174 56099 88620=
85586,2013,12,18,03,00,AAXX 18034 85586 NIL=
85586,2013,12,18,06,00,AAXX 18064 85586 NIL=
85586,2013,12,18,09,00,AAXX 18094 85586 NIL=
85586,2013,12,18,12,00,AAXX 18124 85586 NIL=
85586,2013,12,18,15,00,AAXX 18154 85586 41458 83005 10168 20133 40165 52007 70522 885// 333 56699 85617 88620=
85586,2013,12,18,18,00,AAXX 18184 85586 12460 82606 10178 20136 40163 56001 60001 885// 333 56699 82615 88620=
85586,2013,12,18,21,00,AAXX 18214 85586 41458 82705 10164 20144 40150 57013 70522 885// 333 56699 83615 88623=
85586,2013,12,19,00,00,AAXX 19004 85586 12460 80000 10150 20137 40151 54000 60001 885// 333 10182 56699 83615 88626=
85586,2013,12,19,03,00,AAXX 19034 85586 NIL=
85586,2013,12,19,06,00,AAXX 19064 85586 NIL=
85586,2013,12,19,09,00,AAXX 19094 85586 NIL=
85586,2013,12,19,12,00,AAXX 19124 85586 11350 80000 10144 20138 40158 52010 69934 75052 886// 333 20138 31/// 55000 56099 70003 88708=
85586,2013,12,19,15,00,AAXX 19154 85586 41460 83004 10164 20140 40164 51006 70252 885// 333 56799 88612=
85586,2013,12,19,18,00,AAXX 19184 85586 12460 82805 10176 20143 40166 54002 60001 885// 333 56699 88615=
85586,2013,12,19,21,00,AAXX 19214 85586 42460 82705 10166 20138 40153 57013 885// 333 56699 88615=
85586,2013,12,20,00,00,AAXX 20004 85586 12560 82405 10156 20130 40158 53005 60001 885// 333 10184 56099 88620=
85586,2013,12,20,03,00,AAXX 20034 85586 NIL=
85586,2013,12,20,06,00,AAXX 20064 85586 NIL=
85586,2013,12,20,09,00,AAXX 20094 85586 NIL=
85586,2013,12,20,12,00,AAXX 20124 85586 11320 80000 10149 20130 40157 53004 69904 75022 886// 333 20143 30/// 55000 56799 70000 88707=
85586,2013,12,20,15,00,AAXX 20154 85586 41458 82905 10170 20133 40166 52009 70522 886// 333 56699 88710=
85586,2013,12,20,18,00,AAXX 20184 85586 12460 72707 10180 20144 40164 54002 60001 87500 333 56600 87815=
85586,2013,12,20,21,00,AAXX 20214 85586 42460 82706 10172 20147 40152 57012 885// 333 56699 88615=
85586,2013,12,21,00,00,AAXX 21004 85586 11456 82205 10163 20131 40154 51002 60001 70522 885// 333 10184 56799 81612 88620=
85586,2013,12,21,03,00,AAXX 21034 85586 NIL=
85586,2013,12,21,06,00,AAXX 21064 85586 NIL=
85586,2013,12,21,09,00,AAXX 21094 85586 NIL=
85586,2013,12,21,12,00,AAXX 21124 85586 11320 80000 10151 20131 40140 52011 60004 71022 886// 333 20144 30/// 55000 56799 70000 88707=
85586,2013,12,21,15,00,AAXX 21154 85586 41356 82806 10169 20137 40147 51007 70522 886// 333 56799 88709=
85586,2013,12,21,18,00,AAXX 21184 85586 11458 82809 10192 20134 40156 53009 60001 70522 885// 333 56799 82612 88615=
85586,2013,12,21,21,00,AAXX 21214 85586 42460 72808 10187 20136 40148 58007 87500 333 56700 87615=
85586,2013,12,22,00,00,AAXX 22004 85586 11458 82904 10167 20127 40150 54001 60001 70522 885// 333 10204 56799 88612=
85586,2013,12,22,03,00,AAXX 22034 85586 NIL=
85586,2013,12,22,06,00,AAXX 22064 85586 NIL=
85586,2013,12,22,09,00,AAXX 22094 85586 NIL=
85586,2013,12,22,12,00,AAXX 22124 85586 11456 83207 10161 20132 40166 52019 60004 70522 885// 333 20151 30/// 55017 56799 70000 88610=
85586,2013,12,22,15,00,AAXX 22154 85586 41456 83110 10171 20132 40176 52011 70555 886// 333 56799 88710=
85586,2013,12,22,18,00,AAXX 22184 85586 11458 73012 10199 20138 40173 58003 60001 70522 87500 333 56700 82612 87615=
85586,2013,12,22,21,00,AAXX 22214 85586 42460 12509 10196 20131 40162 57010 81500 333 56700 81612=
85586,2013,12,23,00,00,AAXX 23004 85586 12960 02404 10171 20124 40153 57010 60001 333 10204=
85586,2013,12,23,03,00,AAXX 23034 85586 NIL=
85586,2013,12,23,06,00,AAXX 23064 85586 NIL=
85586,2013,12,23,09,00,AAXX 23094 85586 NIL=
85586,2013,12,23,12,00,AAXX 23124 85586 11340 83303 10150 20136 40147 52008 60004 70522 886// 333 20108 30/// 55046 56099 70000 88709=
85586,2013,12,23,15,00,AAXX 23154 85586 41450 83107 10168 20143 40153 52006 70522 886// 333 56099 88710=
85586,2013,12,23,18,00,AAXX 23184 85586 11450 82807 10168 20150 40153 54000 60001 70522 886// 333 56099 88710=
85586,2013,12,23,21,00,AAXX 23214 85586 41456 82705 10172 20139 40141 57012 70522 885// 333 56099 88613=
85586,2013,12,24,00,00,AAXX 24004 85586 11457 82302 10166 20139 40137 56004 60001 70522 885// 333 10176 56099 88613=
85586,2013,12,24,03,00,AAXX 24034 85586 NIL=
85586,2013,12,24,06,00,AAXX 24064 85586 NIL=
85586,2013,12,24,09,00,AAXX 24094 85586 NIL=
85586,2013,12,24,12,00,AAXX 24124 85586 11330 83304 10158 20146 40147 52014 60004 71022 886// 333 20146 30/// 55000 56099 70000 88707=
85586,2013,12,24,15,00,AAXX 24154 85586 41220 83108 10154 20148 40161 52014 75052 886// 333 56099 88706=
85586,2013,12,24,18,00,AAXX 24184 85586 11457 83008 10174 20419 40161 54000 69911 70552 885// 333 56699 84610 88617=
85586,2013,12,24,21,00,AAXX 24214 85586 42460 82906 10180 20144 40149 57011 885// 333 56699 82615 88623=
85586,2013,12,25,00,00,AAXX 25004 85586 12560 80000 10176 20136 40139 56010 60001 885// 333 10184 56099 88630=
85586,2013,12,25,03,00,AAXX 25034 85586 NIL=
85586,2013,12,25,06,00,AAXX 25064 85586 NIL=
85586,2013,12,25,09,00,AAXX 25094 85586 NIL=
85586,2013,12,25,12,00,AAXX 25124 85586 11350 83103 10164 20151 40173 52012 69913 70522 885// 333 20154 30/// 55003 56699 85708 88613=
85586,2013,12,25,15,00,AAXX 25154 85586 41457 83104 10178 20131 40182 52009 70522 885// 333 56699 82615 88623=
85586,2013,12,25,18,00,AAXX 25184 85586 12560 82706 10196 20129 40182 54001 60001 885// 333 56099 88630=
85586,2013,12,25,21,00,AAXX 25214 85586 42660 82405 10192 20138 40169 57014 885// 333 56099 88633=
85586,2013,12,26,00,00,AAXX 26004 85586 12960 12403 10172 20146 40161 57008 60001 80001 333 10204 56006 81075=
85586,2013,12,26,03,00,AAXX 26034 85586 NIL=
85586,2013,12,26,06,00,AAXX 26064 85586 NIL=
85586,2013,12,26,09,00,AAXX 26094 85586 NIL=
85586,2013,12,26,12,00,AAXX 26124 85586 11258 20000 10176 20137 40184 52016 60004 70500 82600 333 20094 30/// 55008 56700 70000 82704=
85586,2013,12,26,15,00,AAXX 26154 85586 42960 02607 10204 20137 40185 58002=
85586,2013,12,26,18,00,AAXX 26184 85586 12960 02510 10211 20145 40178 57007 60001=
85586,2013,12,26,21,00,AAXX 26214 85586 42960 02810 10214 20138 40161 57017=
85586,2013,12,27,00,00,AAXX 27004 85586 12960 02406 10202 20129 40152 56009 60001 333 10221=
85586,2013,12,27,03,00,AAXX 27034 85586 NIL=
85586,2013,12,27,06,00,AAXX 27064 85586 NIL=
85586,2013,12,27,09,00,AAXX 27094 85586 NIL=
85586,2013,12,27,12,00,AAXX 27124 85586 12960 00000 10179 20137 40177 52011 60004 333 20138 30/// 55130 70000=
85586,2013,12,27,15,00,AAXX 27154 85586 41256 62508 10194 20144 40182 51040 70500 86600 333 56700 86706=
85586,2013,12,27,18,00,AAXX 27184 85586 12960 02511 10209 20143 40170 58011 60001=
85586,2013,12,27,21,00,AAXX 27214 85586 42960 02511 10205 20137 40152 57018=
85586,2013,12,28,00,00,AAXX 28004 85586 13960 02704 10192 20123 40145 56006 60001 333 10222=
85586,2013,12,28,03,00,AAXX 28034 85586 NIL=
85586,2013,12,28,06,00,AAXX 28064 85586 NIL=
85586,2013,12,28,09,00,AAXX 28094 85586 NIL=
85586,2013,12,28,12,00,AAXX 28124 85586 12960 20504 10173 20123 40146 52014 60004 80001 333 20082 30/// 55133 56000 70000 82075=
85586,2013,12,28,15,00,AAXX 28154 85586 42960 22708 10218 20127 40148 51003 80001 333 56006 82075=
85586,2013,12,28,18,00,AAXX 28184 85586 12960 02612 10204 20130 40149 54001 60001=
85586,2013,12,28,21,00,AAXX 28214 85586 42960 42412 10201 20122 40131 58017 80001 333 56006 84075=
85586,2013,12,29,00,00,AAXX 29004 85586 12960 00505 10177 20116 40133 55001 60001 333 10223=
85586,2013,12,29,03,00,AAXX 29034 85586 NIL=
85586,2013,12,29,06,00,AAXX 29064 85586 NIL=
85586,2013,12,29,09,00,AAXX 29094 85586 NIL=
85586,2013,12,29,12,00,AAXX 29124 85586 12960 00000 10164 20117 40131 52010 60004 333 20076 30/// 55131 70000=
85586,2013,12,29,15,00,AAXX 29154 85586 NIL=
85586,2013,12,29,18,00,AAXX 29184 85586 NIL=
85586,2013,12,29,21,00,AAXX 29214 85586 42960 02311 10222 20146 40108 57011=
85586,2013,12,30,00,00,AAXX 30004 85586 12960 02306 10182 20135 40113 53005 60001 333 10234=
85586,2013,12,30,03,00,AAXX 30034 85586 NIL=
85586,2013,12,30,06,00,AAXX 30064 85586 NIL=
85586,2013,12,30,09,00,AAXX 30094 85586 NIL=
85586,2013,12,30,12,00,AAXX 30124 85586 12960 03103 10194 20142 40126 52012 60004 333 20104 30/// 55129 70000=
85586,2013,12,30,15,00,AAXX 30154 85586 42960 02410 10200 20118 40134 52007=
85586,2013,12,30,18,00,AAXX 30184 85586 NIL=
85586,2013,12,30,21,00,AAXX 30214 85586 42960 02412 10192 20148 40131 56006=
85586,2013,12,31,00,00,AAXX 31004 85586 12960 00203 10180 20104 40131 53001 60001 333 10222=
85586,2013,12,31,03,00,AAXX 31034 85586 NIL=
85586,2013,12,31,06,00,AAXX 31064 85586 NIL=
85586,2013,12,31,09,00,AAXX 31094 85586 NIL=
85586,2013,12,31,12,00,AAXX 31124 85586 12960 02403 10150 20111 40145 52014 60004 333 20080 30/// 55129 70000=
85586,2013,12,31,15,00,AAXX 31154 85586 42960 02506 10182 20126 40150 52010=
85586,2013,12,31,18,00,AAXX 31184 85586 12960 02314 10194 20117 40152 54002 60001=
85586,2013,12,31,21,00,AAXX 31214 85586 42960 02412 10184 20113 40147 57004=
