85586,2012,01,01,00,00,AAXX 01004 85586 12958 02404 10172 20111 40159 56005 60001 70500 333 10203=
85586,2012,01,01,03,00,AAXX 01034 85586 NIL=
85586,2012,01,01,06,00,AAXX 01064 85586 NIL=
85586,2012,01,01,09,00,AAXX 01094 85586 NIL=
85586,2012,01,01,12,00,AAXX 01124 85586 11458 52705 10174 20128 40182 52027 60004 7052/ 85500 333 20114 30/// 50330 55048 56700 85612=
85586,2012,01,01,15,00,AAXX 01154 85586 41358 82806 10183 20129 40176 58006 70522 886// 333 56799 88709=
85586,2012,01,01,18,00,AAXX 01184 85586 11458 52610 10193 20121 40162 60001 70522 85500 333 56700 85615=
85586,2012,01,01,21,00,AAXX 01214 85586 41458 83307 10178 20125 40143 57023 70522 885// 333 56799 88612=
85586,2012,01,02,00,00,AAXX 02004 85586 12458 83304 10163 20111 40139 53006 60001 70522 333 10199=
85586,2012,01,02,06,00,AAXX 02064 85586 NIL=
85586,2012,01,02,09,00,AAXX 02094 85586 NIL=
85586,2012,01,02,12,00,AAXX 02124 85586 11456 83304 10172 20142 40162 51017 60004 7052/ 886// 333 20152 30/// 50330 55040 56799 88709=
85586,2012,01,02,15,00,AAXX 02154 85586 41956 02809 10204 20137 40160 55000 70511=
85586,2012,01,02,18,00,AAXX 02184 85586 12960 02609 10206 20132 40160 60001=
85586,2012,01,02,21,00,AAXX 02214 85586 41360 12407 10198 20136 40156 56006 81600 333 56700 81708=
85586,2012,01,03,00,00,AAXX 03004 85586 12460 42504 10167 20140 40156 55001 60001 84600 333 10216 56700=
85586,2012,01,03,03,00,AAXX 03034 85586 NIL=
85586,2012,01,03,06,00,AAXX 03064 85586 NIL=
85586,2012,01,03,09,00,AAXX 03094 85586 NIL=
85586,2012,01,03,12,00,AAXX 03124 85586 11330 83204 10147 20130 40165 52010 60004 7102/ 886// 333 20146 30/// 50310 55104 56099 88707=
85586,2012,01,03,15,00,AAXX 03154 85586 41430 83104 10158 20141 40174 52009 71022 886// 333 56099 88710=
85586,2012,01,03,18,00,AAXX 03184 85586 11456 82806 10186 20131 40169 58005 69901 70522 885// 333 56099 88618=
85586,2012,01,03,21,00,AAXX 03214 85586 41558 82606 10180 20126 40152 57016 70522 885// 333 56099 88620=
85586,2012,01,04,00,00,AAXX 04004 85586 11558 82702 10158 20125 40143 56009 60001 70522 885// 333 10194 56099 88620=
85586,2012,01,04,06,00,AAXX 04064 85586 NIL=
85586,2012,01,04,09,00,AAXX 04094 85586 NIL=
85586,2012,01,04,12,00,AAXX 04124 85586 11450 83004 10166 20128 40179 52018 69904 7052/ 885// 333 20154 30/// 50180 55000 56099 70000 88613=
85586,2012,01,04,15,00,AAXX 04154 85586 41558 43109 10194 20129 40188 52009 70522 84500 333 56600 84620=
85586,2012,01,04,18,00,AAXX 04184 85586 11457 82707 10190 20137 40186 58002 60001 70522 885// 333 56099 88617=
85586,2012,01,04,21,00,AAXX 04214 85586 41558 22605 10200 20128 40171 57015 70511 82500 333 56600 82623=
85586,2012,01,05,00,00,AAXX 05004 85586 11458 12603 10166 20130 40163 57012 60001 70511 81500 333 10208 56600 81615=
85586,2012,01,05,03,00,AAXX 05034 85586 NIL=
85586,2012,01,05,06,00,AAXX 05064 85586 NIL=
85586,2012,01,05,09,00,AAXX 05094 85586 NIL=
85586,2012,01,05,12,00,AAXX 05124 85586 11440 83303 10166 20131 40174 52007 60004 70522 886// 333 20160 30/// 50240 55073 56099 88713=
85586,2012,01,05,15,00,AAXX 05154 85586 41457 62706 10194 20127 40180 52006 70522 86500 333 56600 86617=
85586,2012,01,05,18,00,AAXX 05184 85586 11560 42510 10210 20120 40188 52007 60001 84600 333 56500 86425=
85586,2012,01,05,21,00,AAXX 05214 85586 42460 82406 10190 20092 40208 52020 885// 333 56599 88617=
85586,2012,01,06,00,00,AAXX 06004 85586 11557 82003 10170 20127 40176 57032 60001 885// 333 10212 56599 88615=
85586,2012,01,06,03,00,AAXX 06034 85586 NIL=
85586,2012,01,06,06,00,AAXX 06064 85586 NIL=
85586,2012,01,06,09,00,AAXX 06094 85586 NIL=
85586,2012,01,06,12,00,AAXX 06124 85586 12560 83305 10178 20125 40158 53013 60004 885// 333 20170 30/// 50410 55045 56799 88620=
85586,2012,01,06,15,00,AAXX 06154 85586 41558 82507 10184 20132 40163 52005 70522 885// 333 56599 88625=
85586,2012,01,06,18,00,AAXX 06184 85586 12560 82408 10192 20124 40179 52016 60001 885// 333 56599 88630=
85586,2012,01,06,21,00,AAXX 06214 85586 42560 42406 10190 20120 40169 57010 84500 333 56500 84620=
85586,2012,01,07,00,00,AAXX 07004 85586 12560 42403 10164 20116 40161 57009 60001 84600 333 10200 56500 84620=
85586,2012,01,07,03,00,AAXX 07034 85586 NIL=
85586,2012,01,07,06,00,AAXX 07064 85586 NIL=
85586,2012,01,07,09,00,AAXX 07094 85586 NIL=
85586,2012,01,07,12,00,AAXX 07124 85586 12560 70503 10171 20132 40156 53015 60004 87500 333 20124 30/// 50380 55026 56600 87625=
85586,2012,01,07,15,00,AAXX 07154 85586 42560 72907 10200 20136 40154 52001 87500 333 56600 87630=
85586,2012,01,07,18,00,AAXX 07184 85586 12960 02809 10220 20119 40143 58012 60001=
85586,2012,01,07,21,00,AAXX 07214 85586 442960 02907 10210 20127 40152 53008=
85586,2012,01,08,00,00,AAXX 08004 85586 12560 12904 10178 20132 40149 57004 60001 81500 333 10226 56600 81620=
85586,2012,01,08,03,00,AAXX 08034 85586 NIL=
85586,2012,01,08,06,00,AAXX 08064 85586 NIL=
85586,2012,01,08,09,00,AAXX 08094 85586 NIL=
85586,2012,01,08,12,00,AAXX 08124 85586 12560 10000 10182 20116 40175 52031 60004 81500 333 20122 30/// 50410 55080 56600 81623=
85586,2012,01,08,15,00,AAXX 08154 85586 42960 02708 10214 2012240165 52002=
85586,2012,01,08,18,00,AAXX 08184 85586 12960 02807 10227 20128 40172 58003 60001=
85586,2012,01,08,21,00,AAXX 08214 85586 42960 02607 10220 20120 40159 57013=
85586,2012,01,09,00,00,AAXX 09004 85586 12460 42604 10188 20150 40158 57003 60001 85400 333 10230 56600 84612=
85586,2012,01,09,03,00,AAXX 09034 85586 NIL=
85586,2012,01,09,06,00,AAXX 09064 85586 NIL=
85586,2012,01,09,09,00,AAXX 09094 85586 NIL=
85586,2012,01,09,12,00,AAXX 09124 85586 12960 20805 10185 20124 40167 52020 60004 80001 333 20124 30/// 50430 55114 56600 82075=
85586,2012,01,09,15,00,AAXX 09154 85586 42560 42707 10220 20140 40184 52017 84500 333 56600 84620=
85586,2012,01,09,18,00,AAXX 09184 85586 12960 02310 10230 20140 40205 52020 60001=
85586,2012,01,09,21,00,AAXX 09214 85586 42960 02508 10200 20130 40205 54000=
85586,2012,01,10,00,00,AAXX 10004 85586 12560 42305 10182 20137 40169 57036 60001 84500 333 10234 56500 84630=
85586,2012,01,10,03,00,AAXX 10034 85586 NIL=
85586,2012,01,10,06,00,AAXX 10064 85586 NIL=
85586,2012,01,10,09,00,AAXX 10094 85586 NIL=
85586,2012,01,10,12,00,AAXX 10124 85586 12960 00000 10182 20131 40168 53003 60004 333 20123 30/// 50400 55120=
85586,2012,01,10,15,00,AAXX 10154 85586 42560 32308 10220 20148 40164 56004 83500 333 56500 83620=
85586,2012,01,10,18,00,AAXX 10184 85586 12960 02312 10220 20150 40150 57014 60001=
85586,2012,01,10,21,00,AAXX 10214 85586 42960 02115 10210 20114 40145 56004=
85586,2012,01,11,00,00,AAXX 11004 85586 12960 02008 10194 20122 40140 56005 60001 333 10222=
85586,2012,01,11,03,00,AAXX 11034 85586 NIL=
85586,2012,01,11,06,00,AAXX 11064 85586 NIL=
85586,2012,01,11,09,00,AAXX 11094 85586 NIL=
85586,2012,01,11,12,00,AAXX 11124 85586 12960 00000 10170 20103 40150 52012 60004 333 20112 30/// 50340 55128=
85586,2012,01,11,15,00,AAXX 11154 85586 42960 12312 10200 20102 40140 57009 80001 333 56006 81075=
85586,2012,01,11,18,00,AAXX 11184 85586 12960 12314 10202 20098 40131 57009 60001 80001 333 56006 81075=
85586,2012,01,11,21,00,AAXX 11214 85586 42560 12411 10196 20101 40119 57008 81100 333 56600 81820=
85586,2012,01,12,00,00,AAXX 12004 85586 12960 00305 10174 20101 40123 52004 60001 333 10218=
85586,2012,01,12,03,00,AAXX 12034 85586 NIL=
85586,2012,01,12,06,00,AAXX 12064 85586 NIL=
85586,2012,01,12,09,00,AAXX 12094 85586 NIL=
85586,2012,01,12,12,00,AAXX 12124 85586 12460 13405 10166 20121 40121 52012 60004 81600 333 20100 30/// 50310 55124 56600 81710=
85586,2012,01,12,15,00,AAXX 12154 85586 42560 42810 10200 20120 40141 52021 84500 333 56600 84620=
85586,2012,01,12,18,00,AAXX 12184 85586 12460 62808 10202 20106 40138 52007 60001 86500 333 56600 86615=
85586,2012,01,12,21,00,AAXX 12214 85586 42960 02510 10200 20117 40122 57027=
85586,2012,01,13,00,00,AAXX 13004 85586 12960 02704 10178 20137 40121 54001 60001 333 10214=
85586,2012,01,13,03,00,AAXX 13034 85586 NIL=
85586,2012,01,13,06,00,AAXX 13064 85586 NIL=
85586,2012,01,13,09,00,AAXX 13094 85586 NIL=
85586,2012,01,13,12,00,AAXX 13124 85586 11458 83206 10168 20144 40143 52016 60004 70522 885// 333 20102 30/// 50370 55116 56799 88613=
85586,2012,01,13,15,00,AAXX 13154 85586 42560 83007 10184 20133 40150 52007 885// 333 56799 88625=
85586,2012,01,13,18,00,AAXX 13184 85586 12560 33208 10212 20128 40155 52005 60001 83500 333 56700 83630=
85586,2012,01,13,21,00,AAXX 13214 85586 42560 32407 10210 20125 40149 56006 83500 333 56600 83630=
85586,2012,01,14,00,00,AAXX 14004 85586 12960 33204 10185 20127 40131 57018 60001 80001 333 10224 56007 83070=
85586,2012,01,14,03,00,AAXX 14034 85586 NIL=
85586,2012,01,14,06,00,AAXX 14064 85586 NIL=
85586,2012,01,14,09,00,AAXX 14094 85586 NIL=
85586,2012,01,14,12,00,AAXX 14124 85586 12460 80000 10174 20134 40164 52021 60004 885// 333 20142 30/// 50390 55055 56699 88618=
85586,2012,01,14,15,00,AAXX 14154 85586 42560 82906 10182 20133 40173 52009 885// 333 56699 88620=
85586,2012,01,14,18,00,AAXX 14184 85586 12560 83005 10188 20127 40176 50003 60001 885// 333 56699 88625=
85586,2012,01,14,21,00,AAXX 14214 85586 42560 83006 10189 20141 40174 57002 885// 333 56699 88627=
85586,2012,01,15,00,00,AAXX 15004 85586 12560 72803 10174 20141 40174 54000 60001 333 10202 56660 83627 87363=
85586,2012,01,15,03,00,AAXX 15034 85586 NIL=
85586,2012,01,15,06,00,AAXX 15064 85586 NIL=
85586,2012,01,15,09,00,AAXX 15094 85586 NIL=
85586,2012,01,15,12,00,AAXX 15124 85586 12460 32604 10184 20128 40167 53018 60004 83600 333 20144 30/// 50350 55000 56700 83710=
85586,2012,01,15,15,00,AAXX 15154 85586 42458 72408 10196 20142 40170 51005 70522 87500 333 56700 87612=
85586,2012,01,15,18,00,AAXX 15184 85586 12460 12612 10214 20138 40177 53005 60001 81500 333 56700 81612=
85586,2012,01,15,21,00,AAXX 15214 85586 42960 02808 10216 20136 40169 58006=
85586,2012,01,16,00,00,AAXX 16004 85586 12960 02304 10186 20134 40177 53006 60001 333 10223=
85586,2012,01,16,03,00,AAXX 16034 85586 NIL=
85586,2012,01,16,06,00,AAXX 16064 85586 NIL=
85586,2012,01,16,09,00,AAXX 16094 85586 NIL=
85586,2012,01,16,12,00,AAXX 16124 85586 12560 61108 10194 20125 40183 52023 60004 86500 333 20111 30/// 50350 55075 56700 86625=
85586,2012,01,16,15,00,AAXX 16154 85586 42460 22406 10216 20128 40188 52006 82500 333 56500 82617=
85586,2012,01,16,18,00,AAXX 16184 85586 12960 02508 10220 20120 40190 54001 60001=
85586,2012,01,16,21,00,AAXX 16214 85586 42960 02306 10210 20113 40188 54001=
85586,2012,01,17,00,00,AAXX 17004 85586 12560 52204 10184 20124 40189 54000 60001 85500 333 10226 56500 85625=
85586,2012,01,17,03,00,AAXX 17034 85586 NIL=
85586,2012,01,17,06,00,AAXX 17064 85586 NIL=
85586,2012,01,17,09,00,AAXX 17094 85586 NIL=
85586,2012,01,17,12,00,AAXX 17124 85586 12960 00000 10177 20124 40174 53006 60004 333 20125 30/// 50350 55103=
85586,2012,01,17,15,00,AAXX 17154 85586 42960 02310 10220 20118 40183 52008=
85586,2012,01,17,18,00,AAXX 17184 85586 12960 02313 10210 20100 40173 57010 60001=
85586,2012,01,17,21,00,AAXX 17214 85586 42960 02013 10202 20114 40148 57024=
85586,2012,01,18,00,00,AAXX 18004 85586 12960 01904 10182 20126 40140 57008 60001 333 10222=
85586,2012,01,18,03,00,AAXX 18034 85586 NIL=
85586,2012,01,18,06,00,AAXX 18064 85586 NIL=
85586,2012,01,18,09,00,AAXX 18094 85586 NIL=
85586,2012,01,18,12,00,AAXX 18124 85586 12960 03303 10165 20132 40138 53014 60004 333 20102 30/// 50410 55125=
85586,2012,01,18,15,00,AAXX 18154 85586 42260 12905 10185 20131 40147 52009 81600 333 56600 81705=
85586,2012,01,18,18,00,AAXX 18184 85586 11357 72608 10180 20150 40153 52007 60001 70511 87500 333 56600 87708=
85586,2012,01,18,21,00,AAXX 18214 85586 41356 82605 10175 20147 40152 57001 70522 886// 333 56699 88708=
85586,2012,01,19,00,00,AAXX 19004 85586 11320 82505 10160 20144 40155 53004 69901 75022 886// 333 10190 56699 88708=
85586,2012,01,19,03,00,AAXX 19034 85586 NIL=
85586,2012,01,19,06,00,AAXX 19064 85586 NIL=
85586,2012,01,19,09,00,AAXX 19094 85586 NIL=
85586,2012,01,19,12,00,AAXX 19124 85586 11350 80000 10152 20128 40140 53003 69904 70522 886// 333 20150 30/// 50330 55053 56699 70000 88708=
85586,2012,01,19,15,00,AAXX 19154 85586 41458 82805 10164 20124 40152 52013 70522 885// 333 56699 88612=
85586,2012,01,19,18,00,AAXX 19184 85586 12460 62707 10180 20123 40158 52006 60001 86500 333 56600 86617=
85586,2012,01,19,21,00,AAXX 19214 85586 42560 82708 10180 20135 40132 57025 885// 333 56699 88620=
85586,2012,01,20,00,00,AAXX 20004 85586 12460 82803 10160 20123 40119 57014 60001 885// 333 10196 56799 88615=
85586,2012,01,20,03,00,AAXX 20034 85586 NIL=
85586,2012,01,20,06,00,AAXX 20064 85586 NIL=
85586,2012,01,20,09,00,AAXX 20094 85586 NIL=
85586,2012,01,20,12,00,AAXX 20124 85586 11458 80000 10161 20125 40136 53015 60004 70522 885// 333 20152 30/// 50350 55000 56699 88613=
85586,2012,01,20,15,00,AAXX 20154 85586 42460 82807 10172 20126 40153 52016 885// 333 56699 88613=
85586,2012,01,20,18,00,AAXX 20184 85586 12560 82707 10190 20122 40168 52015 60001 885// 333 56799 88620=
85586,2012,01,20,21,00,AAXX 20214 85586 42560 32705 10190 20122 40157 83500 333 56600 83630=
85586,2012,01,21,00,00,AAXX 21004 85586 12560 42004 10180 20127 40155 54003 60001 84500 333 10194 56500 84630=
85586,2012,01,21,03,00,AAXX 21034 85586 NIL=
85586,2012,01,21,06,00,AAXX 21064 85586 NIL=
85586,2012,01,21,09,00,AAXX 21094 85586 NIL=
85586,2012,01,21,12,00,AAXX 21124 85586 11558 82504 10175 20129 40161 52018 60004 7052/ 885// 333 20157 30/// 50350 55020 56788 88620=
85586,2012,01,21,15,00,AAXX 21154 85586 42458 82906 10183 20129 40176 51015 885// 333 56799 82615 88625=
85586,2012,01,21,18,00,AAXX 21184 85586 12960 22509 10204 20117 40179 50002 60001 82500 333 56700 82615=
85586,2012,01,21,21,00,AAXX 21214 85586 42960 02409 10211 20118 40160 57015=
85586,2012,01,22,00,00,AAXX 22004 85586 12960 02406 10176 20127 40159 55002 60001 333 10225=
85586,2012,01,22,03,00,AAXX 22034 85586 NIL=
85586,2012,01,22,06,00,AAXX 22064 85586 NIL=
85586,2012,01,22,09,00,AAXX 22094 85586 NIL=
85586,2012,01,22,12,00,AAXX 22124 85586 12960 00105 10173 20127 40147 53015 60004 333 20118 30/// 50350 55062=
85586,2012,01,22,15,00,AAXX 22154 85586 42960 02709 10201 20130 40155 51008=
85586,2012,01,22,18,00,AAXX 22184 85586 12960 02610 10224 20131 40158 51003 60001=
85586,2012,01,22,21,00,AAXX 22214 85586 42960 12411 10206 20143 40151 58009 81500 333 56700 81612=
85586,2012,01,23,00,00,AAXX 23004 85586 12960 02408 10178 20142 40145 56004 60001 333 10226=
85586,2012,01,23,03,00,AAXX 23034 85586 NIL=
85586,2012,01,23,06,00,AAXX 23064 85586 NIL=
85586,2012,01,23,09,00,AAXX 23094 85586 NIL=
85586,2012,01,23,12,00,AAXX 23124 85586 12960 01109 10193 20122 40170 52007 60004 333 20121 30/// 50350 55129=
85586,2012,01,23,15,00,AAXX 23154 85586 42560 22408 10220 20137 40180 52010 82500 333 56500 82620=
85586,2012,01,23,18,00,AAXX 23184 85586 12560 22311 10220 20110 40199 52020 82100 333 56500 82820=
85586,2012,01,23,21,00,AAXX 23214 85586 42960 02411 10200 20117 40200 54000=
85586,2012,01,24,00,00,AAXX 24004 85586 12960 01904 10180 20131 40175 57030 60001 333 10222=
85586,2012,01,24,03,00,AAXX 24034 85586 NIL=
85586,2012,01,24,06,00,AAXX 24064 85586 NIL=
85586,2012,01,24,09,00,AAXX 24094 85586 NIL=
85586,2012,01,24,12,00,AAXX 24124 85586 12960 00000 10160 20117 40159 54000 60004 333 20100 30/// 50440 55140=
85586,2012,01,24,15,00,AAXX 24154 85586 42960 02208 10210 20127 40171 52011=
85586,2012,01,24,18,00,AAXX 24184 85586 12960 02209 10230 20124 40171 54000 60001=
85586,2012,01,24,21,00,AAXX 24214 85586 42960 01810 10205 20140 40145 57025=
85586,2012,01,25,00,00,AAXX 25004 85586 12960 01904 10184 20140 40138 57007 60001 333 10234=
85586,2012,01,25,03,00,AAXX 25034 85586 NIL=
85586,2012,01,25,06,00,AAXX 25064 85586 NIL=
85586,2012,01,25,09,00,AAXX 25094 85586 NIL=
85586,2012,01,25,12,00,AAXX 25124 85586 11257 20000 10149 20127 40146 53010 60004 70500 82600 333 20134 30/// 50380 55127 56600 82704=
85586,2012,01,25,15,00,AAXX 25154 85586 41258 22906 10189 20142 40150 52005 70500 82600 333 56600 82705=
85586,2012,01,25,18,00,AAXX 25184 85586 11258 12708 10196 20138 40154 52005 60001 70500 81600 333 56600 81706=
85586,2012,01,25,21,00,AAXX 25214 85586 41260 32807 10195 20138 40147 58017 83600 333 56600 83706=
85586,2012,01,26,00,00,AAXX 26004 85586 12260 23004 10165 20122 40148 54000 60001 82600 333 10204 56600 82706=
85586,2012,01,26,03,00,AAXX 26034 85586 NIL=
85586,2012,01,26,06,00,AAXX 26064 85586 NIL=
85586,2012,01,26,09,00,AAXX 26094 85586 NIL=
85586,2012,01,26,12,00,AAXX 26124 85586 11358 20105 10156 20122 40159 53013 60004 70500 82600 333 20118 30/// 50380 55120 56700 82707=
85586,2012,01,26,15,00,AAXX 26154 85586 41450 73006 10170 20114 40164 52005 70522 87500 333 56700 87612=
85586,2012,01,26,18,00,AAXX 26184 85586 12560 52308 10190 20120 40189 52025 60001 85500 333 56500 85625=
85586,2012,01,26,21,00,AAXX 26214 85586 42560 22207 10200 20103 40165 57026 82500 333 56500 82630=
85586,2012,01,27,00,00,AAXX 27004 85586 12460 72303 10154 20108 40151 57015 60001 87500 333 10204 56600 87613=
85586,2012,01,27,06,00,AAXX 27064 85586 NIL=
85586,2012,01,27,09,00,AAXX 27094 85586 NIL=
85586,2012,01,27,12,00,AAXX 27124 85586 11358 73506 10151 20120 40145 52014 60004 7052/ 87500 333 20103 30/// 50350 55084 56700 87612=
85586,2012,01,27,15,00,AAXX 27154 85586 42460 82204 10161 20113 40154 54002 885// 333 56599 88615=
85586,2012,01,27,18,00,AAXX 27184 85586 12560 72808 10190 20110 40155 52010 60001 87500 333 56700 87620=
85586,2012,01,27,21,00,AAXX 27214 85586 42560 22707 10182 20116 40150 56005 82500 333 56600 82625=
85586,2012,01,28,00,00,AAXX 28004 85586 12458 52607 10166 20141 40149 54000 60001 70522 85500 333 10192 56700 85615=
85586,2012,01,28,03,00,AAXX 28034 85586 NIL=
85586,2012,01,28,06,00,AAXX 28064 85586 NIL=
85586,2012,01,28,09,00,AAXX 28094 85586 NIL=
85586,2012,01,28,12,00,AAXX 28124 85586 12960 00604 10154 20124 40156 52021 60004 333 20096 30/// 50320 55037=
85586,2012,01,28,15,00,AAXX 28154 85586 42960 02508 10196 20122 40162 53007=
85586,2012,01,28,18,00,AAXX 28184 85586 12240 82510 10181 20134 40163 50000 60001 71000 886// 333 56799 88704=
85586,2012,01,28,21,00,AAXX 28214 85586 42260 12808 10191 20136 40150 56013 81600 333 56700 81704=
85586,2012,01,29,00,00,AAXX 29004 85586 12960 00705 10189 20134 40139 58010 60001 333 10210=
85586,2012,01,29,03,00,AAXX 29034 85586 NIL=
85586,2012,01,29,06,00,AAXX 29064 85586 NIL=
85586,2012,01,29,09,00,AAXX 29094 85586 NIL=
85586,2012,01,29,12,00,AAXX 29124 85586 12960 00000 10181 20117 40150 52022 60004 333 20095 30/// 50310 55127=
85586,2012,01,29,15,00,AAXX 29154 85586 42960 02808 10211 20114 40161 52010=
85586,2012,01,29,18,00,AAXX 29184 85586 12960 02319 10222 20124 40155 58004 60001=
85586,2012,01,29,21,00,AAXX 29214 85586 42960 02317 10233 20102 40139 57015=
85586,2012,01,30,00,00,AAXX 30004 85586 12960 02409 10194 20113 40150 53009 60001 333 10236=
85586,2012,01,30,03,00,AAXX 30034 85586 NIL=
85586,2012,01,30,06,00,AAXX 30064 85586 NIL=
85586,2012,01,30,09,00,AAXX 30094 85586 NIL=
85586,2012,01,30,12,00,AAXX 30124 85586 12960 20000 10154 20098 40167 52013 60004 80001 333 20100 30/// 50360 55126 56006 82075=
85586,2012,01,30,15,00,AAXX 30154 85586 42960 32607 10208 20092 40169 51002 80001 333 56006 83075=
85586,2012,01,30,18,00,AAXX 30184 85586 12960 02312 10242 20122 40170 54001 60001=
85586,2012,01,30,21,00,AAXX 30214 85586 42960 02210 10210 20124 40150 57020=
85586,2012,01,31,00,00,AAXX 31004 85586 12960 02104 10182 20142 40153 52003 60001 333 10244=
85586,2012,01,31,03,00,AAXX 31034 85586 NIL=
85586,2012,01,31,06,00,AAXX 31064 85586 NIL=
85586,2012,01,31,09,00,AAXX 31094 85586 NIL=
85586,2012,01,31,12,00,AAXX 31124 85586 12960 11202 10170 20122 40158 52004 60004 80001 333 20104 30/// 50340 55122 56006 81075=
85586,2012,01,31,15,00,AAXX 31154 85586 42960 02008 10202 20132 40159 54001=
85586,2012,01,31,18,00,AAXX 31184 85586 12960 02312 10210 20126 40142 57016 60001=
85586,2012,01,31,21,00,AAXX 31214 85586 42960 02312 10200 20116 40122 57020=
85586,2012,02,01,00,00,AAXX 01004 85586 12960 01904 10172 20115 40124 56002 333 10212=
85586,2012,02,01,03,00,AAXX 01034 85586 NIL=
85586,2012,02,01,06,00,AAXX 01064 85586 NIL=
85586,2012,02,01,09,00,AAXX 01094 85586 NIL=
85586,2012,02,01,12,00,AAXX 01124 85586 12960 22102 10147 20107 40137 52011 60004 82030 333 20112 30/// 50310 55119 56060 82365=
85586,2012,02,01,15,00,AAXX 01154 85586 42960 12605 10192 20094 40142 52006 80001 333 56006 81075=
85586,2012,02,01,18,00,AAXX 01184 85586 12960 12411 10200 20094 40134 58008 60001 80001 333 56006 81075=
85586,2012,02,01,21,00,AAXX 01214 85586 42560 12409 10200 20090 40122 57012 81100 333 56600 81820=
85586,2012,02,02,00,00,AAXX 02004 85586 12960 03503 10170 20097 40126 53004 60001 333 10208=
85586,2012,02,02,03,00,AAXX 02034 85586 NIL=
85586,2012,02,02,06,00,AAXX 02064 85586 NIL=
85586,2012,02,02,09,00,AAXX 02094 85586 NIL=
85586,2012,02,02,12,00,AAXX 02124 85586 12960 00000 10148 20115 40126 51014 60004 333 20083 30/// 50310 55122=
85586,2012,02,02,15,00,AAXX 02154 85586 42960 03006 10180 20100 40145 52018=
85586,2012,02,02,18,00,AAXX 02184 85586 12960 02008 10200 20100 40135 57010 60001=
85586,2012,02,02,21,00,AAXX 02214 85586 42960 02708 10195 20095 40115 57019=
85586,2012,02,03,00,00,AAXX 03004 85586 12960 03404 10143 20105 40128 53014 60001 333 10202=
85586,2012,02,03,03,00,AAXX 03034 85586 NIL=
85586,2012,02,03,06,00,AAXX 03064 85586 NIL=
85586,2012,02,03,09,00,AAXX 03094 85586 NIL=
85586,2012,02,03,12,00,AAXX 03124 85586 12220 80000 10121 20101 40120 52020 60004 7202/ 886// 333 20091 30/// 50310 55123 56799 88706=
85586,2012,02,03,15,00,AAXX 03154 85586 41460 53506 10154 20114 40120 54001 70522 85600 333 56700 85710=
85586,2012,02,03,18,00,AAXX 03184 85586 12457 82806 10150 20106 40130 52010 60001 70522 886// 333 56699 88710=
85586,2012,02,03,21,00,AAXX 03214 85586 42460 22407 10162 20107 40120 57010 82500 333 56500 82615=
85586,2012,02,04,00,00,AAXX 04004 85586 12958 00207 10142 20108 40147 53026 70400 60001 333 10166=
85586,2012,02,04,03,00,AAXX 04034 85586 NIL=
85586,2012,02,04,06,00,AAXX 04064 85586 NIL=
85586,2012,02,04,09,00,AAXX 04094 85586 NIL=
85586,2012,02,04,12,00,AAXX 04124 85586 12958 00000 10134 20096 40146 53013 60004 7050/ 333 20069 30/// 50280 55068=
85586,2012,02,04,15,00,AAXX 04154 85586 41960 02808 10184 20099 40150 51004=
85586,2012,02,04,18,00,AAXX 04184 85586 12260 12410 10197 20138 40143 56005 60001 81600 333 56700 81704=
85586,2012,02,04,21,00,AAXX 04214 85586 42356 62319 10182 20151 40132 58012 70511 86600 333 56700 86707=
85586,2012,02,05,00,00,AAXX 05004 85586 12960 02304 10167 20123 40130 56002 333 10201=
85586,2012,02,05,03,00,AAXX 05034 85586 NIL=
85586,2012,02,05,06,00,AAXX 05064 85586 NIL=
85586,2012,02,05,09,00,AAXX 05094 85586 NIL=
85586,2012,02,05,12,00,AAXX 05124 85586 12460 53602 10122 20102 40135 53010 60004 85500 333 20091 30/// 50290 55101 56700 82710 83615=
85586,2012,02,05,15,00,AAXX 05154 85586 42960 02505 10170 20105 40140 52005=
85586,2012,02,05,18,00,AAXX 05184 85586 12960 02308 10178 20104 40139 56001 60001=
85586,2012,02,05,21,00,AAXX 05214 85586 42960 02608 10170 20103 40129 57010=
85586,2012,02,06,00,00,AAXX 06004 85586 12960 00604 10150 20089 40125 56004 60001 333 10184=
85586,2012,02,06,03,00,AAXX 06034 85586 NIL=
85586,2012,02,06,06,00,AAXX 06064 85586 NIL=
85586,2012,02,06,09,00,AAXX 06094 85586 NIL=
85586,2012,02,06,12,00,AAXX 06124 85586 12960 00000 10126 20096 40138 52011 60004 333 20084 30/// 50300 55114=
85586,2012,02,06,15,00,AAXX 06154 85586 41458 73207 10150 20104 40149 52011 70522 87500 333 56700 87610=
85586,2012,02,06,18,00,AAXX 06184 85586 12960 02708 10178 20110 40169 52020 60001=
85586,2012,02,06,21,00,AAXX 06214 85586 42960 02706 10172 20111 40129 57030=
85586,2012,02,07,00,00,AAXX 07004 85586 12960 00205 10154 20114 40122 56007 60001 333 10182=
85586,2012,02,07,03,00,AAXX 07034 85586 NIL=
85586,2012,02,07,06,00,AAXX 07064 85586 NIL=
85586,2012,02,07,09,00,AAXX 07094 85586 NIL=
85586,2012,02,07,12,00,AAXX 07124 85586 11458 70304 10134 20109 40154 52015 60004 7052/ 87500 333 20094 30/// 50280 55107 56800 87617=
85586,2012,02,07,15,00,AAXX 07154 85586 41456 52407 10154 20092 40169 52015 70522 85500 333 56600 85612=
85586,2012,02,07,18,00,AAXX 07184 85586 12958 02705 10190 20095 40173 52004 60001 70500=
85586,2012,02,07,21,00,AAXX 07214 85586 42960 02308 10175 20108 40158 57015=
85586,2012,02,08,00,00,AAXX 08004 85586 12957 01904 10162 20122 40142 57015 60001 70500 333 10192=
85586,2012,02,08,03,00,AAXX 08034 85586 NIL=
85586,2012,02,08,06,00,AAXX 08064 85586 NIL=
85586,2012,02,08,09,00,AAXX 08094 85586 NIL=
85586,2012,02,08,12,00,AAXX 08124 85586 11940 00000 10143 20109 40159 53012 60004 7050/ 333 20081 30/// 50280 55082=
85586,2012,02,08,15,00,AAXX 08154 85586 41956 02607 10198 20114 40155 58002 70500=
85586,2012,02,08,18,00,AAXX 08184 85586 12960 02316 10209 20114 40146 57011 60001=
85586,2012,02,08,21,00,AAXX 08214 85586 42958 02312 10203 20116 40137 56006 70500=
85586,2012,02,09,00,00,AAXX 09004 85586 12956 00106 10164 20108 40144 53006 60001 70500 333 10218=
85586,2012,02,09,03,00,AAXX 09034 85586 NIL=
85586,2012,02,09,06,00,AAXX 09064 85586 NIL=
85586,2012,02,09,09,00,AAXX 09094 85586 NIL=
85586,2012,02,09,12,00,AAXX 09124 85586 11960 00000 10141 20109 40133 53011 60004 333 20083 30/// 50280 55118=
85586,2012,02,09,15,00,AAXX 09154 85586 42960 03207 10200 20125 40150 52016=
85586,2012,02,09,18,00,AAXX 09184 85586 12960 03207 10190 20107 40148 54001 60001=
85586,2012,02,09,21,00,AAXX 09214 85586 42960 02405 10188 20105 40142 56006=
85586,2012,02,10,00,00,AAXX 10004 85586 12958 02604 10152 20122 40138 56002 60001 70500 333 10202=
85586,2012,02,10,03,00,AAXX 10034 85586 NIL=
85586,2012,02,10,06,00,AAXX 10064 85586 NIL=
85586,2012,02,10,09,00,AAXX 10094 85586 NIL=
85586,2012,02,10,12,00,AAXX 10124 85586 11240 83304 10139 20116 40144 52026 60004 7102/ 886// 333 20109 30/// 50280 55123 88706=
85586,2012,02,10,15,00,AAXX 10154 85586 41458 33208 10172 20108 40152 52008 70520 83500 333 56700 83615=
85586,2012,02,10,18,00,AAXX 10184 85586 12960 02806 10186 20102 40153 54000 60001=
85586,2012,02,10,21,00,AAXX 10214 85586 41358 42206 10180 20100 40139 56007 70520 84600 333 56500 84708=
85586,2012,02,11,00,00,AAXX 11004 85586 12356 72003 10142 20121 40132 56007 60001 70522 87600 333 10194 56500 87708=
85586,2012,02,11,03,00,AAXX 11034 85586 NIL=
85586,2012,02,11,06,00,AAXX 11064 85586 NIL=
85586,2012,02,11,09,00,AAXX 11094 85586 NIL=
85586,2012,02,11,12,00,AAXX 11124 85586 11340 83205 10144 20118 40160 52012 60004 7052/ 886// 333 20132 30/// 50240 55080 56099 88709=
85586,2012,02,11,15,00,AAXX 11154 85586 41456 82905 10159 20121 40163 51003 70522 885// 333 56099 88613=
85586,2012,02,11,18,00,AAXX 11184 85586 11457 72808 10184 20115 40159 57004 60001 70522 87500 333 56600 87615=
85586,2012,02,11,21,00,AAXX 11214 85586 NIL=
85586,2012,02,12,00,00,AAXX 12004 85586 11558 83004 10148 20114 40138 56005 60001 70522 885// 333 10190 56099 88620=
85586,2012,02,12,03,00,AAXX 12034 85586 NIL=
85586,2012,02,12,06,00,AAXX 12064 85586 NIL=
85586,2012,02,12,09,00,AAXX 12094 85586 NIL=
85586,2012,02,12,12,00,AAXX 12124 85586 11340 83503 10140 20119 40147 52007 60004 7052/ 886// 333 20134 30/// 50190 55027 56099 88709=
85586,2012,02,12,15,00,AAXX 12154 85586 41458 52807 10178 20130 40160 52012 70522 85500 333 56600 85617=
85586,2012,02,12,18,00,AAXX 12184 85586 12560 32908 10128 40159 58001 60001 83500 333 56600 83623=
85586,2012,02,12,21,00,AAXX 12214 85586 42460 62806 10186 20127 40154 57005 86500 333 56600 86618=
85586,2012,02,13,00,00,AAXX 13004 85586 11240 83002 10160 20140 40151 55003 69901 75022 886// 333 10199 56099 88704=
85586,2012,02,13,03,00,AAXX 13034 85586 NIL=
85586,2012,02,13,06,00,AAXX 13064 85586 NIL=
85586,2012,02,13,09,00,AAXX 13094 85586 NIL=
85586,2012,02,13,12,00,AAXX 13124 85586 11320 80302 10148 20137 40151 52008 69934 7505/ 886// 333 20146 31/// 50190 55056 56099 70003 88707=
85586,2012,02,13,15,00,AAXX 13154 85586 42456 83105 10176 20143 40157 52006 70522 885// 333 56099 88613=
85586,2012,02,13,18,00,AAXX 13184 85586 11560 32507 10200 20142 51002 69901 83522 333 56600 83620=
85586,2012,02,13,21,00,AAXX 13214 85586 41458 82504 10174 20143 40150 57008 70522 885// 333 56099 88613=
85586,2012,02,14,00,00,AAXX 14004 85586 11450 82602 10170 20142 40138 58002 60001 70522 885// 333 10202 56099 88613=
85586,2012,02,14,03,00,AAXX 14034 85586 NIL=
85586,2012,02,14,06,00,AAXX 14064 85586 NIL=
85586,2012,02,14,09,00,AAXX 14094 85586 NIL=
85586,2012,02,14,12,00,AAXX 14124 85586 11208 83004 10144 20135 40151 52022 69924 7505/ 886// 333 20142 31/// 50220 55042 56799 70002 88706=
85586,2012,02,14,15,00,AAXX 14154 85586 42340 82807 10175 20140 40159 51009 70552 886// 333 56799 88709=
85586,2012,02,14,18,00,AAXX 14184 85586 11456 82407 10184 20141 53002 69901 70522 885// 333 56799 88612=
85586,2012,02,14,21,00,AAXX 14214 85586 41460 82607 10183 20135 40156 58006 885// 333 56799 88615=
85586,2012,02,15,00,00,AAXX 15004 85586 11460 10000 10166 20123 40153 58003 60001 81100 333 10189 56700 81815=
85586,2012,02,15,03,00,AAXX 15034 85586 NIL=
85586,2012,02,15,06,00,AAXX 15064 85586 NIL=
85586,2012,02,15,09,00,AAXX 15094 85586 NIL=
85586,2012,02,15,12,00,AAXX 15124 85586 12960 00000 10164 20128 40166 52024 60004 333 20109 30/// 50220 55015=
85586,2012,02,15,15,00,AAXX 15154 85586 42960 42707 10213 20123 40173 51008 80001 333 56006 84075=
85586,2012,02,15,18,00,AAXX 15184 85586 12960 02708 10242 20132 58012 60001=
85586,2012,02,15,21,00,AAXX 15214 85586 41960 32608 10219 20144 40159 55001 82030 333 56060 82365=
85586,2012,02,16,00,00,AAXX 16004 85586 11960 02204 10184 20137 40155 58006 60001 333 10246=
85586,2012,02,16,03,00,AAXX 16034 85586 NIL=
85586,2012,02,16,06,00,AAXX 16064 85586 NIL=
85586,2012,02,16,09,00,AAXX 16094 85586 NIL=
85586,2012,02,16,12,00,AAXX 16124 85586 12960 00904 10186 20133 40150 51006 60004 333 20126 30/// 50330 55098=
85586,2012,02,16,15,00,AAXX 16154 85586 42960 02707 10224 20142 40164 51014=
85586,2012,02,16,18,00,AAXX 16184 85586 12960 02709 10231 20126 40153 58010 60001=
85586,2012,02,16,21,00,AAXX 16214 85586 41960 02708 10234 20153 40140 57009=
85586,2012,02,17,00,00,AAXX 17004 85586 12960 00000 10193 20160 40143 58002 60001 333 10245=
85586,2012,02,17,03,00,AAXX 17034 85586 NIL=
85586,2012,02,17,06,00,AAXX 17064 85586 NIL=
85586,2012,02,17,09,00,AAXX 17094 85586 NIL=
85586,2012,02,17,12,00,AAXX 17124 85586 12560 60000 10168 20141 40148 52004 60004 86500 333 20130 30/// 50300 55123 56600 88620=
85586,2012,02,17,15,00,AAXX 17154 85586 42960 02708 10210 20110 40158 52009=
85586,2012,02,17,18,00,AAXX 17184 85586 12960 02207 10230 20110 40158 54000 60001=
85586,2012,02,17,21,00,AAXX 17214 85586 42960 02704 10215 20105 40139 57028=
85586,2012,02,18,00,00,AAXX 18004 85586 12960 12902 10194 20142 40144 52015 60001 81030 333 10234 56060 81365=
85586,2012,02,18,03,00,AAXX 18034 85586 NIL=
85586,2012,02,18,06,00,AAXX 18064 85586 NIL=
85586,2012,02,18,09,00,AAXX 18094 85586 NIL=
85586,2012,02,18,12,00,AAXX 18124 85586 12960 50803 10174 20143 40143 52009 60004 85030 333 20148 30/// 50260 55114 56060 85365=
85586,2012,02,18,15,00,AAXX 18154 85586 NIL=
85586,2012,02,18,18,00,AAXX 18184 85586 12560 42708 10232 20162 40156 54000 60001 82101 333 56606 82820 83075=
85586,2012,02,18,21,00,AAXX 18214 85586 42560 52607 10226 20175 40152 57004 81530 333 56660 81623 85365=
85586,2012,02,19,00,00,AAXX 19004 85586 12560 30000 10198 20170 40150 53002 60001 81502 333 10242 56606 81620 83070=
85586,2012,02,19,03,00,AAXX 19034 85586 NIL=
85586,2012,02,19,06,00,AAXX 19064 85586 NIL=
85586,2012,02,19,09,00,AAXX 19094 85586 NIL=
85586,2012,02,19,12,00,AAXX 19124 85586 12560 21202 10184 20157 40147 52006 60004 82500 333 20154 30/// 50240 55077 56600 82623=
85586,2012,02,19,15,00,AAXX 19154 85586 42360 12408 10214 20161 40144 56003 81600 333 56600 81707=
85586,2012,02,19,18,00,AAXX 19184 85586 12360 12313 10214 20167 40138 57006 60001 81600 333 56600 81708=
85586,2012,02,19,21,00,AAXX 19214 85586 42960 02312 10214 20138 40119 57019=
85586,2012,02,20,00,00,AAXX 20004 85586 12960 00000 10192 20126 40118 55001 60001 333 10226=
85586,2012,02,20,03,00,AAXX 20034 85586 NIL=
85586,2012,02,20,06,00,AAXX 20064 85586 NIL=
85586,2012,02,20,09,00,AAXX 20094 85586 NIL=
85586,2012,02,20,12,00,AAXX 20124 85586 12960 00000 10166 20134 40151 52026 60004 333 20111 30/// 50330 55112=
85586,2012,02,20,15,00,AAXX 20154 85586 42960 02708 10213 20143 40155 53008=
85586,2012,02,20,18,00,AAXX 20184 85586 12960 02308 10210 20110 40158 54000 60001=
85586,2012,02,20,21,00,AAXX 20214 85586 42960 02312 10202 20136 40151 56006=
85586,2012,02,21,00,00,AAXX 21004 85586 12960 00000 10176 20105 40157 53007 60001 333 10222=
85586,2012,02,21,03,00,AAXX 21034 85586 NIL=
85586,2012,02,21,06,00,AAXX 21064 85586 NIL=
85586,2012,02,21,09,00,AAXX 21094 85586 NIL=
85586,2012,02,21,12,00,AAXX 21124 85586 12960 00000 10153 20107 40163 53017 60004 333 20094 30/// 50280 55117=
85586,2012,02,21,15,00,AAXX 21154 85586 42960 02405 10200 20100 40166 54003=
85586,2012,02,21,18,00,AAXX 21184 85586 12960 02010 10206 20108 40148 57017 60001=
85586,2012,02,21,21,00,AAXX 21214 85586 42960 02212 10192 20101 40133 57015=
85586,2012,02,22,00,00,AAXX 22004 85586 12960 00105 10174 20107 40137 53004 60001 333 10214=
85586,2012,02,22,03,00,AAXX 22034 85586 NIL=
85586,2012,02,22,06,00,AAXX 22064 85586 NIL=
85586,2012,02,22,09,00,AAXX 22094 85586 NIL=
85586,2012,02,22,12,00,AAXX 22124 85586 12960 00000 10154 20118 40129 53006 60004 333 20088 30/// 50330 55116=
85586,2012,02,22,15,00,AAXX 22154 85586 42960 02409 10194 20125 40128 50001=
85586,2012,02,22,18,00,AAXX 22184 85586 12960 022311 10194 20126 40126 58002 60001=
85586,2012,02,22,21,00,AAXX 22214 85586 42960 02612 10188 20131 40117 57009=
85586,2012,02,23,00,00,AAXX 23004 85586 12960 00210 10153 20117 40121 53004 60001 333 10213=
85586,2012,02,23,03,00,AAXX 23034 85586 NIL=
85586,2012,02,23,06,00,AAXX 23064 85586 NIL=
85586,2012,02,23,09,00,AAXX 23094 85586 NIL=
85586,2012,02,23,12,00,AAXX 23124 85586 12560 60503 10140 20113 40126 52009 60004 86500 333 20120 30/// 50320 55122 56600 81620 86640=
85586,2012,02,23,15,00,AAXX 23154 85586 42560 42708 10175 20125 40134 52009 84500 333 56600 84625=
85586,2012,02,23,18,00,AAXX 23184 85586 12560 43010 10190 20140 40158 52023 60001 84500 333 56700 84630=
85586,2012,02,23,21,00,AAXX 23214 85586 41458 82305 10172 20145 40136 57018 70522 886// 333 56599 88712=
85586,2012,02,24,00,00,AAXX 24004 85586 11456 82802 10150 20117 40145 53008 60001 70522 885// 333 10194 56099 88613=
85586,2012,02,24,03,00,AAXX 24034 85586 NIL=
85586,2012,02,24,06,00,AAXX 24064 85586 NIL=
85586,2012,02,24,09,00,AAXX 24094 85586 NIL=
85586,2012,02,24,12,00,AAXX 24124 85586 11330 82302 10140 20126 40160 52012 60004 7102/ 886// 333 20130 30/// 50160 55024 56099 88708=
85586,2012,02,24,15,00,AAXX 24154 85586 41330 82403 10150 20126 40187 52028 71022 886// 333 56599 88708=
85586,2012,02,24,18,00,AAXX 24184 85586 11458 82306 10162 20096 40173 57014 69911 70522 885// 333 56599 88615=
85586,2012,02,24,21,00,AAXX 24214 85586 42560 62406 10164 20085 40155 57018 86500 333 56500 86630=
85586,2012,02,25,00,00,AAXX 25004 85586 12560 72502 10146 20094 40173 52017 60001 83502 333 10178 56606 83630 87075=
85586,2012,02,25,03,00,AAXX 25034 85586 NIL=
85586,2012,02,25,06,00,AAXX 25064 85586 NIL=
85586,2012,02,25,09,00,AAXX 25094 85586 NIL=
85586,2012,02,25,12,00,AAXX 25124 85586 11960 71502 10130 20110 40178 52013 69964 7258/ 85032 333 20078 31/// 50140 55001 56066 70006 85362 85075=
85586,2012,02,25,15,00,AAXX 25154 85586 42660 52402 10214 20137 40174 58004 81530 333 56660 81633 85362=
85586,2012,02,25,18,00,AAXX 25184 85586 12960 52312 10204 20143 40167 57007 60001 85030 333 56060 85363=
85586,2012,02,25,21,00,AAXX 25214 85586 42560 12311 10210 20132 40151 57016 81500 333 56600 81625=
85586,2012,02,26,00,00,AAXX 26004 85586 12960 02202 10180 20110 40151 54000 60001 333 10234=
85586,2012,02,26,03,00,AAXX 26034 85586 NIL=
85586,2012,02,26,06,00,AAXX 26064 85586 NIL=
85586,2012,02,26,09,00,AAXX 26094 85586 NIL=
85586,2012,02,26,15,00,AAXX 26154 85586 NIL=
85586,2012,02,26,18,00,AAXX 26184 85586 12960 02318 10213 20109 40129 58010 60001=
85586,2012,02,26,21,00,AAXX 26214 85586 42960 02312 10208 20110 40121 56011=
85586,2012,02,27,00,00,AAXX 27004 85586 12960 00104 10177 20094 40128 53006 60001 333 10226=
85586,2012,02,27,09,00,AAXX 27094 85586 NIL=
85586,2012,02,27,12,00,AAXX 27124 85586 12960 00000 10151 20098 40130 53012 60004 333 20086 30/// 50330 55115=
85586,2012,02,27,15,00,AAXX 27154 85586 42960 02309 10224 20114 40139 52023=
85586,2012,02,27,18,00,AAXX 27184 85586 12960 02218 10224 20152 40141 58010 60001 80001 333 56006 81075=
85586,2012,02,27,21,00,AAXX 27214 85586 42960 22314 10211 20156 40139 56003 81601 333 56706 81704 82075=
85586,2012,02,28,00,00,AAXX 28004 85586 11206 82804 10163 20153 40159 53018 60001 74611 886// 333 10236 56799 88704=
85586,2012,02,28,03,00,AAXX 28034 85586 NIL=
85586,2012,02,28,06,00,AAXX 28064 85586 NIL=
85586,2012,02,28,09,00,AAXX 28094 85586 NIL=
85586,2012,02,28,12,00,AAXX 28124 85586 11206 70000 10151 20139 40160 53014 60004 74244 87600 333 20143 30/// 50330 55119 56700 87704=
85586,2012,02,28,15,00,AAXX 28154 85586 42960 02707 10194 20132 40171 52010=
85586,2012,02,28,18,00,AAXX 28184 85586 12960 02317 10207 20139 40165 58006 60001=
85586,2012,02,28,21,00,AAXX 28214 85586 42960 02315 10203 20143 40159 56004=
85586,2012,02,29,00,00,AAXX 29004 85586 12960 02409 10168 20144 40162 52004 60001 333 10214=
85586,2012,02,29,03,00,AAXX 29034 85586 NIL=
85586,2012,02,29,06,00,AAXX 29064 85586 NIL=
85586,2012,02,29,09,00,AAXX 29094 85586 NIL=
85586,2012,02,29,12,00,AAXX 29124 85586 12960 10000 10120 20094 40185 52013 60004 80001 333 20074 30/// 50360 55120 56006 81075=
85586,2012,02,29,15,00,AAXX 29154 85586 42560 32409 10200 20098 40196 52011 83500 333 83620=
85586,2012,02,29,18,00,AAXX 29184 85586 12960 02313 10214 20081 40193 56003 60001=
85586,2012,02,29,21,00,AAXX 29214 85586 42960 02216 10182 20110 40174 57022=
85586,2012,03,01,00,00,AAXX 01004 85586 12960 01907 10150 20086 40185 52014 60001 333 10218=
85586,2012,03,01,03,00,AAXX 01034 85586 NIL=
85586,2012,03,01,06,00,AAXX 01064 85586 NIL=
85586,2012,03,01,09,00,AAXX 01094 85586 NIL=
85586,2012,03,01,12,00,AAXX 01124 85586 12960 00803 10152 20093 40147 57012 60004 333 20090 30/// 50280 55115=
85586,2012,03,01,15,00,AAXX 01154 85586 42960 02310 10224 20092 40154 52007=
85586,2012,03,01,18,00,AAXX 01184 85586 12960 02210 10208 20101 40148 57005 60001=
85586,2012,03,01,21,00,AAXX 01214 85586 42960 02407 10190 20100 40120 57028=
85586,2012,03,02,00,00,AAXX 02004 85586 12960 03503 10182 20100 40119 54002 60001 333 10212=
85586,2012,03,02,03,00,AAXX 02034 85586 NIL=
85586,2012,03,02,06,00,AAXX 02064 85586 NIL=
85586,2012,03,02,09,00,AAXX 02094 85586 NIL=
85586,2012,03,02,12,00,AAXX 02124 85586 12960 00000 10136 20077 40130 53015 60004 333 20087 30/// 50300 55118 70000=
85586,2012,03,02,15,00,AAXX 02154 85586 42960 02407 10220 20098 40140 52011=
85586,2012,03,02,18,00,AAXX 02184 85586 12960 02310 10212 20128 40138 54002 60001=
85586,2012,03,02,21,00,AAXX 02214 85586 42960 02314 10216 20137 40129 57009=
85586,2012,03,03,00,00,AAXX 03004 85586 12960 02005 10194 20125 40132 54003 60001 333 10244=
85586,2012,03,03,03,00,AAXX 03034 85586 NIL=
85586,2012,03,03,06,00,AAXX 03064 85586 NIL=
85586,2012,03,03,09,00,AAXX 03094 85586 NIL=
85586,2012,03,03,12,00,AAXX 03124 85586 12960 01705 10216 20144 40128 51013 60004 333 20148 30/// 50330 55115=
85586,2012,03,03,15,00,AAXX 03154 85586 42960 02410 10243 20147 40143 53007=
85586,2012,03,03,18,00,AAXX 03184 85586 12960 02412 10221 20133 40123 58010 60001=
85586,2012,03,03,21,00,AAXX 03214 85586 42960 02317 10244 20115 40105 57018=
85586,2012,03,04,00,00,AAXX 04004 85586 12960 00000 10211 20102 40103 56004 60001 333 10252=
85586,2012,03,04,03,00,AAXX 04034 85586 NIL=
85586,2012,03,04,06,00,AAXX 04064 85586 NIL=
85586,2012,03,04,09,00,AAXX 04094 85586 NIL=
85586,2012,03,04,12,00,AAXX 04124 85586 12960 00000 10178 20103 40105 53012 60004 333 20126 30/// 50290 55117=
85586,2012,03,04,15,00,AAXX 04154 85586 42260 12409 10198 20139 40123 52019 81600 333 56700 81704=
85586,2012,03,04,18,00,AAXX 04184 85586 11220 52412 10194 20163 40121 58002 60001 71000 85600 333 56700 85704=
85586,2012,03,04,21,00,AAXX 04214 85586 42260 12415 10207 20166 40123 56008 81600 333 56700 81706=
85586,2012,03,05,00,00,AAXX 05004 85586 12256 23004 10182 20157 40132 53017 60001 70511 82600 333 10215=
85586,2012,03,05,03,00,AAXX 05034 85586 NIL=
85586,2012,03,05,06,00,AAXX 05064 85586 NIL=
85586,2012,03,05,09,00,AAXX 05094 85586 NIL=
85586,2012,03,05,12,00,AAXX 05124 85586 11203 80204 10162 20152 40146 52018 69904 7444/ 886// 333 20156 31/// 50330 55117 56799 70000 8704=
85586,2012,03,05,15,00,AAXX 05154 85586 41308 62306 10172 20151 40161 52013 74622 88600 333 56500 86708=
85586,2012,03,05,18,00,AAXX 05184 85586 12960 02307 10230 20142 40159 54002 60001=
85586,2012,03,05,21,00,AAXX 05214 85586 42260 12610 10203 20140 40149 58008 81600 333 56700 81704=
85586,2012,03,06,00,00,AAXX 06004 85586 12958 03204 10163 20131 40149 54001 60001 70500 333 10232=
85586,2012,03,06,03,00,AAXX 06034 85586 NIL=
85586,2012,03,06,06,00,AAXX 06064 85586 NIL=
85586,2012,03,06,09,00,AAXX 06094 85586 NIL=
85586,2012,03,06,12,00,AAXX 06124 85586 12960 00802 10134 20110 40153 52008 60004 333 20104 30/// 50240 55080=
85586,2012,03,06,15,00,AAXX 06154 85586 42960 02307 10174 20098 40148 56004=
85586,2012,03,06,18,00,AAXX 06184 85586 12960 02312 10184 20087 40155 52007 60001=
85586,2012,03,06,21,00,AAXX 06214 85586 42960 02211 10180 20112 40148 57007=
85586,2012,03,07,00,00,AAXX 07004 85586 12960 02503 10164 20116 40151 54002 60001 333 10198=
85586,2012,03,07,03,00,AAXX 07034 85586 NIL=
85586,2012,03,07,06,00,AAXX 07064 85586 NIL=
85586,2012,03,07,09,00,AAXX 07094 85586 NIL=
85586,2012,03,07,12,00,AAXX 07124 85586 12960 00000 10110 20080 40129 56006 60004 333 20080 30/// 50310 55108=
85586,2012,03,07,15,00,AAXX 07154 85586 42960 02407 10204 20092 40122 57007=
85586,2012,03,07,18,00,AAXX 07184 85586 12960 02309 10202 20088 40107 57015 60001=
85586,2012,03,07,21,00,AAXX 07214 85586 42960 02905 10194 20093 40094 57013=
85586,2012,03,08,00,00,AAXX 08004 85586 12960 10105 10154 20098 40092 56002 60001 80001 333 10252 56006 81075=
85586,2012,03,08,03,00,AAXX 08034 85586 NIL=
85586,2012,03,08,06,00,AAXX 08064 85586 NIL=
85586,2012,03,08,09,00,AAXX 08094 85586 NIL=
85586,2012,03,08,12,00,AAXX 08124 85586 11101 80000 10100 20092 40105 52012 60004 7464/ 886// 333 20072 30/// 50300 55107 56099 88702=
85586,2012,03,08,15,00,AAXX 08154 85586 42460 22206 10150 20110 40129 52005 70220 82600 333 56500 82710=
85586,2012,03,08,18,00,AAXX 08184 85586 12457 82805 10182 20113 40150 52020 60001 70522 885// 333 56699 88612=
85586,2012,03,08,21,00,AAXX 08214 85586 41450 82205 10170 20120 40150 54000 70522 885// 333 56599 88610=
85586,2012,03,09,00,00,AAXX 09004 85586 11230 82603 10150 20137 40138 56011 69901 75022 886// 333 10186 56099 88706=
85586,2012,03,09,03,00,AAXX 09034 85586 NIL=
85586,2012,03,09,06,00,AAXX 09064 85586 NIL=
85586,2012,03,09,09,00,AAXX 09094 85586 NIL=
85586,2012,03,09,12,00,AAXX 09124 85586 NIL=
85586,2012,03,09,15,00,AAXX 09154 85586 42460 50905 10178 20110 40144 54001 85500 333 56699 85617=
85586,2012,03,09,18,00,AAXX 09184 85586 12960 22211 10188 20105 40136 54002 60001 80001 333 56005 82073=
85586,2012,03,09,21,00,AAXX 09214 85586 42960 42008 10178 20108 40123 57014 80001 333 56005 84070=
85586,2012,03,10,00,00,AAXX 10004 85586 12960 01903 10160 20102 40112 57011 60001 333 10195=
85586,2012,03,10,03,00,AAXX 10034 85586 NIL=
85586,2012,03,10,06,00,AAXX 10064 85586 NIL=
85586,2012,03,10,09,00,AAXX 10094 85586 NIL=
85586,2012,03,10,12,00,AAXX 10124 85586 11103 80804 10118 20114 40111 53015 60004 74444 886// 333 20102 30/// 50260 55080 56099 88703=
85586,2012,03,10,15,00,AAXX 10154 85586 41230 83308 10140 20129 40124 52013 71042 886// 333 56799 88706=
85586,2012,03,10,18,00,AAXX 10184 85586 11208 83005 10140 20129 40125 52001 60001 74642 886// 333 56799 88704=
85586,2012,03,10,21,00,AAXX 10214 85586 41356 82903 10145 20128 40133 52008 70542 886// 333 56799 88708=
85586,2012,03,11,00,00,AAXX 11004 85586 11458 83303 10145 20128 40151 52018 60001 70542 886// 333 10160 56799 88712=
85586,2012,03,11,03,00,AAXX 11034 85586 NIL=
85586,2012,03,11,06,00,AAXX 11064 85586 NIL=
85586,2012,03,11,09,00,AAXX 11094 85586 NIL=
85586,2012,03,11,12,00,AAXX 11124 85586 12560 80000 10142 20104 40168 57020 60004 885// 333 20135 30/// 50200 55000 56699 88623=
85586,2012,03,11,15,00,AAXX 11154 85586 42560 40804 10170 20109 40169 52002 85500 333 56600 85630=
85586,2012,03,11,18,00,AAXX 11184 85586 12960 02409 10192 20096 40154 58015 60001=
85586,2012,03,11,21,00,AAXX 11214 85586 42960 02310 10171 20099 40148 57006=
85586,2012,03,12,00,00,AAXX 12004 85586 12960 00000 10138 20111 40149 54000 60001 333 10193=
85586,2012,03,12,03,00,AAXX 12034 85586 NIL=
85586,2012,03,12,06,00,AAXX 12064 85586 NIL=
85586,2012,03,12,09,00,AAXX 12094 85586 NIL=
85586,2012,03,12,12,00,AAXX 12124 85586 12960 10000 10104 20089 40154 52009 60004 80001 333 20074 30/// 50240 55081 56006 81075=
85586,2012,03,12,15,00,AAXX 12154 85586 42460 12405 10150 20110 40150 56003 81600 333 56500 81710=
85586,2012,03,12,18,00,AAXX 12184 85586 12460 42408 10170 20118 40152 51002 60001 84600 333 56500 84710=
85586,2012,03,12,21,00,AAXX 12214 85586 42960 02310 10192 20083 40147 56006 80001 333 56005 84073=
85586,2012,03,13,00,00,AAXX 13004 85586 12960 00603 10154 20104 40153 53006 60001 333 10198=
85586,2012,03,13,03,00,AAXX 13034 85586 NIL=
85586,2012,03,13,06,00,AAXX 13064 85586 NIL=
85586,2012,03,13,09,00,AAXX 13094 85586 NIL=
85586,2012,03,13,12,00,AAXX 13124 85586 12960 00000 10114 20084 40143 52009 60004 333 20076 30/// 50290 55085=
85586,2012,03,13,15,00,AAXX 13154 85586 42960 02406 10192 20097 40144 54001=
85586,2012,03,13,18,00,AAXX 13184 85586 12960 01911 10192 20097 40131 57013 60001=
85586,2012,03,13,21,00,AAXX 13214 85586 42960 02406 10182 20098 40122 57009=
85586,2012,03,14,00,00,AAXX 14004 85586 12960 00000 10154 20098 40125 53003 60001 333 10228=
85586,2012,03,14,03,00,AAXX 14034 85586 NIL=
85586,2012,03,14,06,00,AAXX 14064 85586 NIL=
85586,2012,03,14,09,00,AAXX 14094 85586 NIL=
85586,2012,03,14,12,00,AAXX 14124 85586 12960 00000 10102 20078 40109 53004 60004 333 20074 30/// 50290 55103=
85586,2012,03,14,15,00,AAXX 14154 85586 42960 02705 10192 20091 40109 54000=
85586,2012,03,14,18,00,AAXX 14184 85586 NIL=
85586,2012,03,14,21,00,AAXX 14214 85586 42960 02804 10186 20104 40107 54000=
85586,2012,03,15,00,00,AAXX 15004 85586 12960 03303 10150 20124 40112 53005 60001 333 10208=
85586,2012,03,15,03,00,AAXX 15034 85586 NIL=
85586,2012,03,15,06,00,AAXX 15064 85586 NIL=
85586,2012,03,15,09,00,AAXX 15094 85586 NIL=
85586,2012,03,15,12,00,AAXX 15124 85586 11210 80000 10133 20129 40124 52020 60004 71022 886// 333 20110 30/// 50280 55099 56799 88704=
85586,2012,03,15,15,00,AAXX 15154 85586 41457 22704 10165 20093 40131 52009 70511 82600 333 56600 82710=
85586,2012,03,15,18,00,AAXX 15184 85586 11458 53007 10180 20098 40149 52018 60001 70522 85500 333 56700 85615=
85586,2012,03,15,21,00,AAXX 15214 85586 42460 72706 10160 20115 40132 57016 87500 333 56600 87615=
85586,2012,03,16,00,00,AAXX 16004 85586 11460 72805 10152 20137 40132 54002 60001 87500 333 10184 56700 87610=
85586,2012,03,16,03,00,AAXX 16034 85586 NIL=
85586,2012,03,16,06,00,AAXX 16064 85586 NIL=
85586,2012,03,16,09,00,AAXX 16094 85586 NIL=
85586,2012,03,16,12,00,AAXX 16124 85586 11457 83203 10154 20133 40141 52028 60004 70522 88600 333 20131 30/// 50240 55039 56799 88712=
85586,2012,03,16,15,00,AAXX 16154 85586 42460 83006 10162 20132 40149 52009 885// 333 56799 88617=
85586,2012,03,16,18,00,AAXX 16184 85586 12560 82807 10164 20107 40156 52007 60001 885// 333 56699 88625=
85586,2012,03,16,21,00,AAXX 16214 85586 42560 43010 10175 20114 40146 57010 84500 333 56700 84630=
85586,2012,03,17,00,00,AAXX 17004 85586 12960 02706 10176 20113 40151 52005 60001 333 10180=
85586,2012,03,17,03,00,AAXX 17034 85586 NIL=
85586,2012,03,17,06,00,AAXX 17064 85586 NIL=
85586,2012,03,17,09,00,AAXX 17094 85586 NIL=
85586,2012,03,17,12,00,AAXX 17124 85586 12560 70504 10187 20108 40160 53007 60004 87500 333 20168 30/// 50240 55015 56600 87630=
85586,2012,03,17,15,00,AAXX 17154 85586 42660 32906 10222 20096 40162 52004 83500 333 56600 83640=
85586,2012,03,17,18,00,AAXX 17184 85586 12960 02908 10225 20115 40165 52003 60001=
85586,2012,03,17,21,00,AAXX 17214 85586 442960 02906 10216 20130 40153 58012=
85586,2012,03,18,00,00,AAXX 18004 85586 12960 00000 10170 20127 40150 52005 60001 333 10230=
85586,2012,03,18,03,00,AAXX 18034 85586 NIL=
85586,2012,03,18,06,00,AAXX 18064 85586 NIL=
85586,2012,03,18,09,00,AAXX 18094 85586 NIL=
85586,2012,03,18,12,00,AAXX 18124 85586 12960 01003 10138 20111 40143 52007 60004 333 20074 30/// 50290 55096=
85586,2012,03,18,15,00,AAXX 18154 85586 NIL=
85586,2012,03,18,18,00,AAXX 18184 85586 12960 02707 10224 20106 40139 57008 60001=
85586,2012,03,18,21,00,AAXX 18214 85586 42960 02707 10208 20138 40141 53002=
85586,2012,03,19,00,00,AAXX 19004 85586 12960 00000 10180 20140 40147 52006 60001 333 10232=
85586,2012,03,19,03,00,AAXX 19034 85586 NIL=
85586,2012,03,19,06,00,AAXX 19064 85586 NIL=
85586,2012,03,19,09,00,AAXX 19094 85586 NIL=
85586,2012,03,19,12,00,AAXX 19124 85586 12560 71004 10156 20127 40151 52011 60004 87500 333 20128 30/// 50270 55106 56600 87626=
85586,2012,03,19,15,00,AAXX 19154 85586 42560 72604 10202 20146 40161 52010 87500 333 56600 87623=
85586,2012,03,19,18,00,AAXX 19184 85586 12560 12808 10220 20143 40153 58008 60001 81800 333 56600 81823=
85586,2012,03,19,21,00,AAXX 19214 85586 42960 02707 10208 20194 40145 57007=
85586,2012,03,20,00,00,AAXX 20004 85586 12960 01904 10172 20142 40144 56001 60001 333 10224=
85586,2012,03,20,03,00,AAXX 20034 85586 NIL=
85586,2012,03,20,06,00,AAXX 20064 85586 NIL=
85586,2012,03,20,09,00,AAXX 20094 85586 NIL=
85586,2012,03,20,12,00,AAXX 20124 85586 11101 81203 10142 20135 40159 53002 60004 7464/ 886// 333 20142 30/// 50250 55073 56099 88703=
85586,2012,03,20,15,00,AAXX 20154 85586 41430 52704 10158 20146 40163 52005 71022 85600 333 56600 85710=
85586,2012,03,20,18,00,AAXX 20184 85586 11210 82508 10170 20160 40173 52010 60001 71022 886// 333 56599 88706=
85586,2012,03,20,21,00,AAXX 20214 85586 41210 82707 10152 20126 40158 57015 71022 886// 333 56699 88704=
85586,2012,03,21,00,00,AAXX 21004 85586 11220 83103 10150 20138 40164 53006 60001 71022 886// 333 10180 56099 88705=
85586,2012,03,21,03,00,AAXX 21034 85586 NIL=
85586,2012,03,21,06,00,AAXX 21064 85586 NIL=
85586,2012,03,21,09,00,AAXX 21094 85586 NIL=
85586,2012,03,21,12,00,AAXX 21124 85586 NIL=
85586,2012,03,21,15,00,AAXX 21154 85586 41250 60000 10165 20122 40168 52006 70522 81601 333 56006 81706 85073=
85586,2012,03,21,18,00,AAXX 21184 85586 11220 72706 10164 20158 40163 58005 60001 71022 87600 333 56600 87604=
85586,2012,03,21,21,00,AAXX 21214 85586 41107 82707 10155 20148 40156 57007 74622 886// 333 56699 88702=
85586,2012,03,22,00,00,AAXX 22004 85586 11230 50104 10150 20143 40153 57004 60001 71042 85600 333 10180 56700 84704=
85586,2012,03,22,03,00,AAXX 22034 85586 NIL=
85586,2012,03,22,06,00,AAXX 22064 85586 NIL=
85586,2012,03,22,09,00,AAXX 22094 85586 NIL=
85586,2012,03,22,12,00,AAXX 22124 85586 11906 00000 10099 20095 40138 57010 60004 74244 333 20096 30/// 50200 55027=
85586,2012,03,22,15,00,AAXX 22154 85586 42960 02307 10170 20130 40136 56002=
85586,2012,03,22,18,00,AAXX 22184 85586 12960 02212 10182 20098 40115 57019 60001=
85586,2012,03,22,21,00,AAXX 22214 85586 42960 02204 10180 20100 40085 57026=
85586,2012,03,23,00,00,AAXX 23004 85586 12960 03503 10160 20114 40117 52028 60001 333 10196=
85586,2012,03,23,03,00,AAXX 23034 85586 NIL=
85586,2012,03,23,06,00,AAXX 23064 85586 NIL=
85586,2012,03,23,09,00,AAXX 23094 85586 NIL=
85586,2012,03,23,12,00,AAXX 23124 85586 11230 80000 10108 20102 40142 53018 60004 71022 886// 333 20090 30/// 50220 55100 56699 88704=
85586,2012,03,23,15,00,AAXX 23154 85586 41457 52806 10154 20108 40145 52004 70522 85500 333 56600 85612=
85586,2012,03,23,18,00,AAXX 23184 85586 11457 82806 10162 20101 40152 52007 60001 885// 333 56699 88612=
85586,2012,03,23,21,00,AAXX 23214 85586 41558 53505 10154 20111 40142 57010 70522 85500 333 56700 85615=
85586,2012,03,24,00,00,AAXX 24004 85586 11460 32403 10142 20110 40147 52005 60001 83500 333 10164 56600 83610=
85586,2012,03,24,03,00,AAXX 24034 85586 NIL=
85586,2012,03,24,06,00,AAXX 24064 85586 NIL=
85586,2012,03,24,09,00,AAXX 24094 85586 NIL=
85586,2012,03,24,12,00,AAXX 24124 85586 11320 81203 10122 20117 40170 52006 60004 7102/ 886// 333 20122 30/// 50140 55009 56099 88707=
85586,2012,03,24,15,00,AAXX 24154 85586 41450 32802 10154 20144 40173 52003 70522 83500 333 56600 83617=
85586,2012,03,24,18,00,AAXX 24184 85586 11456 52308 10160 20110 40167 58006 60001 70511 856// 333 56099 85710=
85586,2012,03,24,21,00,AAXX 24214 85586 41558 32507 10156 20110 40160 57007 83501 333 56606 83620=
85586,2012,03,25,00,00,AAXX 25004 85586 12960 53603 10124 20098 40161 54001 60001 80001 333 10176 56006 85075=
85586,2012,03,25,03,00,AAXX 25034 85586 NIL=
85586,2012,03,25,06,00,AAXX 25064 85586 NIL=
85586,2012,03,25,09,00,AAXX 25094 85586 NIL=
85586,2012,03,25,12,00,AAXX 25124 85586 12560 30000 10080 20068 40166 52003 60004 83500 333 20058 30/// 50170 55055 56600 83620=
85586,2012,03,25,15,00,AAXX 25154 85586 42560 22604 10155 20119 40174 52008 82500 333 56600 82620=
85586,2012,03,25,18,00,AAXX 25184 85586 12560 12409 10178 20096 40161 58013 60001 81100 333 56600 81820=
85586,2012,03,25,21,00,AAXX 25214 85586 42560 12405 10174 20102 40152 57009 81100 333 56600 81820=
85586,2012,03,26,00,00,AAXX 26004 85586 12960 00303 10134 20103 40157 53005 60001 333 10188=
85586,2012,03,26,03,00,AAXX 26034 85586 NIL=
85586,2012,03,26,06,00,AAXX 26064 85586 NIL=
85586,2012,03,26,09,00,AAXX 26094 85586 NIL=
85586,2012,03,26,12,00,AAXX 26124 85586 11960 00000 10076 20064 40151 52004 60004 333 20044 30/// 50160 55077=
85586,2012,03,26,15,00,AAXX 26154 85586 42960 02706 10168 20087 40148 57023=
85586,2012,03,26,18,00,AAXX 26184 85586 12960 02710 10180 20110 40150 51002 60001=
85586,2012,03,26,21,00,AAXX 26214 85586 42960 02805 10160 20100 40150 54000=
85586,2012,03,27,00,00,AAXX 27004 85586 12960 00000 10120 20094 40154 53003 60001 333 10184=
85586,2012,03,27,03,00,AAXX 27034 85586 NIL=
85586,2012,03,27,06,00,AAXX 27064 85586 NIL=
85586,2012,03,27,09,00,AAXX 27094 85586 NIL=
85586,2012,03,27,12,00,AAXX 27124 85586 12960 00000 10072 20056 40149 53002 60004 333 20064 30/// 50210 55092 70000=
85586,2012,03,27,15,00,AAXX 27154 85586 42960 03005 10170 20100 40155 52008=
85586,2012,03,27,18,00,AAXX 27184 85586 12460 42807 10174 20120 40175 52021 60001 84500 333 56600 84615=
85586,2012,03,27,21,00,AAXX 27214 85586 42460 23307 10170 20120 40175 54000 82500 333 56700 82615=
85586,2012,03,28,00,00,AAXX 28004 85586 12960 03003 10154 20118 40154 57022 60001 333 10176=
85586,2012,03,28,03,00,AAXX 28034 85586 NIL=
85586,2012,03,28,06,00,AAXX 28064 85586 NIL=
85586,2012,03,28,09,00,AAXX 28094 85586 NIL=
85586,2012,03,28,12,00,AAXX 28124 85586 11330 80000 10135 20126 40161 53007 60004 71022 886// 333 20118 30/// 50200 55094 56099 70000 88707=
85586,2012,03,28,15,00,AAXX 28154 85586 41340 82804 10140 20123 40172 52011 70522 886// 333 56699 88707=
85586,2012,03,28,18,00,AAXX 28184 85586 12460 83003 10160 20110 40167 58004 60001 885// 333 56699 88615=
85586,2012,03,28,21,00,AAXX 28214 85586 42460 72304 10151 20115 40161 57007 87500 333 56600 87615=
85586,2012,03,29,00,00,AAXX 29004 85586 12460 82203 10134 20116 40162 52001 60001 88600 333 10164 56699 88710=
85586,2012,03,29,03,00,AAXX 29034 85586 NIL=
85586,2012,03,29,06,00,AAXX 29064 85586 NIL=
85586,2012,03,29,09,00,AAXX 29094 85586 NIL=
85586,2012,03,29,12,00,AAXX 29124 85586 11002 80000 10102 20098 40150 53009 60004 74444 886// 333 20100 30/// 50180 55000 56099 70000 88701=
85586,2012,03,29,15,00,AAXX 29154 85586 41205 83203 10150 20140 40157 52009 74642 886// 333 56799 88704=
85586,2012,03,29,18,00,AAXX 29184 85586 11215 82704 10142 20107 40151 56006 60001 71022 886// 333 56699 88706=
85586,2012,03,29,21,00,AAXX 29214 85586 42460 23003 10152 20122 40139 57012 82600 333 56700 82710=
85586,2012,03,30,00,00,AAXX 30004 85586 12460 20000 10136 20127 40135 56004 60001 82500 333 10156 56700 82710=
85586,2012,03,30,03,00,AAXX 30034 85586 NIL=
85586,2012,03,30,06,00,AAXX 30064 85586 NIL=
85586,2012,03,30,09,00,AAXX 30094 85586 NIL=
85586,2012,03,30,12,00,AAXX 30124 85586 11101 80000 10096 20088 40132 52008 60004 7464/ 886// 333 20096 30/// 50130 55030 56099 88702=
85586,2012,03,30,15,00,AAXX 30154 85586 41330 82303 10130 20120 40144 52014 71022 886// 333 56799 88707=
85586,2012,03,30,18,00,AAXX 30184 85586 11340 82806 10144 20124 40149 52004 60001 70522 885// 333 56699 88608=
85586,2012,03,30,21,00,AAXX 30214 85586 41350 82704 10150 20114 40144 52004 70522 885// 333 56699 88607=
85586,2012,03,31,00,00,AAXX 31004 85586 11450 83102 10140 20123 40148 53003 60001 70522 886// 333 10152 56099 88710=
85586,2012,03,31,03,00,AAXX 31034 85586 NIL=
85586,2012,03,31,06,00,AAXX 31064 85586 NIL=
85586,2012,03,31,09,00,AAXX 31094 85586 NIL=
85586,2012,03,31,12,00,AAXX 31124 85586 11320 80000 10122 20108 40144 52006 60004 7102/ 886// 333 20122 30/// 50110 55004 56099 88708=
85586,2012,03,31,15,00,AAXX 31154 85586 41456 62705 10140 20115 40153 52008 70522 86600 333 56600 86712=
85586,2012,03,31,18,00,AAXX 31184 85586 11456 82505 10148 20113 40147 58005 60001 70522 886// 333 56099 88712=
85586,2012,03,31,21,00,AAXX 31214 85586 41450 82604 10138 20114 40139 57008 70522 886// 333 56099 88710=
85586,2012,04,01,00,00,AAXX 01004 85586 11330 80000 10121 20110 40150 53010 60001 71022 886// 333 10160 56099 88708=
85586,2012,04,01,03,00,AAXX 01034 85586 NIL=
85586,2012,04,01,06,00,AAXX 01064 85586 NIL=
85586,2012,04,01,09,00,AAXX 01094 85586 NIL=
85586,2012,04,01,12,00,AAXX 01124 85586 11201 80602 10104 20095 40137 52007 60004 7464/ 886// 333 20100 31/// 50120 55024 56099 88703=
85586,2012,04,01,15,00,AAXX 01154 85586 41440 23102 10135 20113 40145 52008 70542 82601 333 56606 82710=
85586,2012,04,01,18,00,AAXX 01184 85586 11450 42804 10170 20108 40132 58013 60001 70522 81601 333 56606 81710 84075=
85586,2012,04,01,21,00,AAXX 01214 85586 42460 13107 10164 20113 40137 53003 81600 333 56600 81712=
85586,2012,04,02,00,00,AAXX 02004 85586 12460 73105 10125 20098 40146 52009 60001 87500 333 10176 56600 87612=
85586,2012,04,02,03,00,AAXX 02034 85586 NIL=
85586,2012,04,02,06,00,AAXX 02064 85586 NIL=
85586,2012,04,02,09,00,AAXX 02094 85586 NIL=
85586,2012,04,02,12,00,AAXX 02124 85586 11330 80403 10120 20113 40128 53003 60004 71022 886// 333 20092 30/// 50160 55066 56099 70000 88708=
85586,2012,04,02,15,00,AAXX 02154 85586 41440 83305 10162 20119 40134 51007 70522 886// 333 56799 88710=
85586,2012,04,02,18,00,AAXX 02184 85586 12460 12909 10184 20121 40134 54001 60001 81600 333 56700 81712=
85586,2012,04,02,21,00,AAXX 02214 85586 42460 52807 10169 20124 40132 58002 85500 333 56700 85612=
85586,2012,04,03,00,00,AAXX 03004 85586 12456 83204 10154 20123 40141 51008 60001 885// 333 10186 56799 88612=
85586,2012,04,03,03,00,AAXX 03034 85586 NIL=
85586,2012,04,03,06,00,AAXX 03064 85586 NIL=
85586,2012,04,03,09,00,AAXX 03094 85586 NIL=
85586,2012,04,03,12,00,AAXX 03124 85586 11340 83204 10137 20114 40128 53014 60004 7052/ 886// 333 20134 30/// 50240 55038 56799 88708=
85586,2012,04,03,15,00,AAXX 03154 85586 41320 82705 10140 20113 40147 52020 71022 886// 333 56699 88707=
85586,2012,04,03,21,00,AAXX 03214 85586 42460 82904 10163 20122 40164 51002 885// 333 56799 88617=
85586,2012,04,04,00,00,AAXX 04004 85586 12456 82904 10154 20132 40170 53006 60001 70522 885// 333 10165 56799 88615=
85586,2012,04,04,03,00,AAXX 04034 85586 NIL=
85586,2012,04,04,06,00,AAXX 04064 85586 NIL=
85586,2012,04,04,09,00,AAXX 04094 85586 NIL=
85586,2012,04,04,12,00,AAXX 04124 85586 11560 80000 10152 20119 40165 53008 60004 885// 333 20146 30/// 50240 55000 56799 88625=
85586,2012,04,04,15,00,AAXX 04154 85586 42560 82207 10168 20093 40186 52021 70522 885// 333 56699 88625=
85586,2012,04,04,18,00,AAXX 04184 85586 12560 22212 10184 20081 40183 56002 60001 82500 333 56500 82630=
85586,2012,04,04,21,00,AAXX 04214 85586 42560 22207 10170 20095 40180 56004 82500 333 56500 82630=
85586,2012,04,05,00,00,AAXX 05004 85586 12958 00000 10134 20091 40170 56010 60001 70500 333 10186=
85586,2012,04,05,03,00,AAXX 05034 85586 NIL=
85586,2012,04,05,06,00,AAXX 05064 85586 NIL=
85586,2012,04,05,09,00,AAXX 05094 85586 NIL=
85586,2012,04,05,12,00,AAXX 05124 85586 12960 31906 10124 20060 40173 52008 60004 80001 333 20090 30/// 50150 55068 56006 83075=
85586,2012,04,05,15,00,AAXX 05154 85586 42960 41610 10210 20048 40195 52022 80001 333 56006 84075=
85586,2012,04,05,18,00,AAXX 05184 85586 12960 32312 10220 20008 40169 57026 60001 80001 333 56005 83075=
85586,2012,04,05,21,00,AAXX 05214 85586 42960 02212 10190 20100 40151 57018=
85586,2012,04,06,00,00,AAXX 06004 85586 12960 00000 10142 20072 40159 52008 60001 333 10254=
85586,2012,04,06,03,00,AAXX 06034 85586 NIL=
85586,2012,04,06,06,00,AAXX 06064 85586 NIL=
85586,2012,04,06,09,00,AAXX 06094 85586 NIL=
85586,2012,04,06,12,00,AAXX 06124 85586 12960 01505 10146 20028 40170 52004 60004 333 20082 30/// 50240 55106=
85586,2012,04,06,15,00,AAXX 06154 85586 42960 11207 10224 20048 40177 52007 80002 333 56006 81075=
85586,2012,04,06,18,00,AAXX 06184 85586 12960 02409 10194 20107 40170 58007 60001=
85586,2012,04,06,21,00,AAXX 06214 85586 NIL=
85586,2012,04,07,00,00,AAXX 07004 85586 12960 00000 10132 20117 40172 53009 60001 333 10240=
85586,2012,04,07,03,00,AAXX 07034 85586 NIL=
85586,2012,04,07,06,00,AAXX 07064 85586 NIL=
85586,2012,04,07,09,00,AAXX 07094 85586 NIL=
85586,2012,04,07,12,00,AAXX 07124 85586 12960 01702 10072 20060 40169 53002 60004 333 20068 30/// 50240 55103=
85586,2012,04,07,15,00,AAXX 07154 85586 42960 02805 10166 20104 40175 52006=
85586,2012,04,07,18,00,AAXX 07184 85586 12360 22405 10156 20112 40166 58011 60001 82600 333 56600 82708=
85586,2012,04,07,21,00,AAXX 07214 85586 42960 00205 10170 20103 40152 57014=
85586,2012,04,08,00,00,AAXX 08004 85586 12960 10000 10138 20102 40154 53002 60001 80002 333 10194 56006 81075=
85586,2012,04,08,03,00,AAXX 08034 85586 NIL=
85586,2012,04,08,06,00,AAXX 08064 85586 NIL=
85586,2012,04,08,09,00,AAXX 08094 85586 NIL=
85586,2012,04,08,12,00,AAXX 08124 85586 12956 60000 10122 20102 40136 56008 60004 7052/ 86300 333 20101 30/// 50240 55097 86362=
85586,2012,04,08,15,00,AAXX 08154 85586 42960 72904 10146 20114 40137 55001 87030 333 56060 87359=
85586,2012,04,08,18,00,AAXX 08184 85586 12460 72404 10165 20119 40127 58010 60001 81531 333 56766 81615 84362=
85586,2012,04,08,21,00,AAXX 08214 85586 42460 80104 10142 20104 40129 51002 8153/ 333 5676/ 81615 88359=
85586,2012,04,09,00,00,AAXX 09004 85586 11956 80407 10128 20103 40131 53002 69911 70562 8803/ 333 10167 56079 88359=
85586,2012,04,09,03,00,AAXX 09034 85586 NIL=
85586,2012,04,09,06,00,AAXX 09064 85586 NIL=
85586,2012,04,09,09,00,AAXX 09094 85586 NIL=
85586,2012,04,09,12,00,AAXX 09124 85586 12456 82905 10122 20094 40146 52024 69914 7052/ 885// 333 20109 30/// 50220 55003 88615=
85586,2012,04,09,15,00,AAXX 09154 85586 41458 83310 10134 20093 40173 52017 70522 885// 333 56799 88617=
85586,2012,04,09,18,00,AAXX 09184 85586 12560 52807 10162 20082 40181 52017 60001 85500 333 56700 85630=
85586,2012,04,09,21,00,AAXX 09214 85586 42560 52105 10158 20095 40180 54000 85500 333 56500 85630=
85586,2012,04,10,00,00,AAXX 10004 85586 11956 00000 10122 20091 40172 56009 60001 70500 333 10172=
85586,2012,04,10,03,00,AAXX 10034 85586 NIL=
85586,2012,04,10,06,00,AAXX 10064 85586 NIL=
85586,2012,04,10,09,00,AAXX 10094 85586 NIL=
85586,2012,04,10,12,00,AAXX 10124 85586 12940 60904 10087 20077 40183 53007 60004 7102/ 80001 333 20074 30/// 50240 55042 86075=
85586,2012,04,10,15,00,AAXX 10154 85586 41958 42704 10134 20084 40206 52023 70520 80001 333 56006 84073=
85586,2012,04,10,18,00,AAXX 10184 85586 12960 42408 10146 20064 40187 57017 60001 80001 333 56005 84073=
85586,2012,04,10,21,00,AAXX 10214 85586 42960 52506 10142 20064 40186 54001 80001 333 56005 85073=
85586,2012,04,11,00,00,AAXX 11004 85586 11956 00000 10114 20094 40185 58002 60001 70500 333 10160=
85586,2012,04,11,03,00,AAXX 11034 85586 NIL=
85586,2012,04,11,06,00,AAXX 11064 85586 NIL=
85586,2012,04,11,09,00,AAXX 11094 85586 NIL=
85586,2012,04,11,12,00,AAXX 11124 85586 12960 20000 10064 20052 40167 53004 60004 80001 333 20060 30/// 50220 55081 56006 82075=
85586,2012,04,11,15,00,AAXX 11154 85586 41958 32705 10146 20081 40178 52011 70511 80001 333 56006 83075=
85586,2012,04,11,18,00,AAXX 11184 85586 12960 32406 10160 20098 40168 58010 60001 70511 80001 333 56006 83075=
85586,2012,04,11,21,00,AAXX 11214 85586 42960 42805 10154 20108 40165 56003 80001 333 56006 84075=
85586,2012,04,12,00,00,AAXX 12004 85586 12460 53302 10105 20088 40172 52007 60001 83601 333 10170 56606 83710 83075=
85586,2012,04,12,03,00,AAXX 12034 85586 NIL=
85586,2012,04,12,06,00,AAXX 12064 85586 NIL=
85586,2012,04,12,09,00,AAXX 12094 85586 NIL=
85586,2012,04,12,12,00,AAXX 12124 85586 11450 83604 10126 20113 40182 52006 60004 7052/ 886// 333 20090 30/// 50240 55088 56099 88710=
85586,2012,04,12,15,00,AAXX 12154 85586 41458 63003 10156 20106 40194 52012 70522 84501 333 56606 84615 83075=
85586,2012,04,12,18,00,AAXX 12184 85586 12460 73005 10170 20114 40196 51002 60001 85502 333 56606 85617=
85586,2012,04,12,21,00,AAXX 12214 85586 41558 82603 10160 20111 40195 56001 70522 87502 333 56606 87620=
85586,2012,04,13,00,00,AAXX 13004 85586 11558 80000 10143 20107 40186 57009 60001 70522 885// 333 10174 56099 88620=
85586,2012,04,13,03,00,AAXX 13034 85586 NIL=
85586,2012,04,13,06,00,AAXX 13064 85586 NIL=
85586,2012,04,13,09,00,AAXX 13094 85586 NIL=
85586,2012,04,13,12,00,AAXX 13124 85586 11557 70000 10122 20111 40213 52016 69924 7026/ 85530 333 20120 31/// 50130 55030 56660 70002 85525 84363=
85586,2012,04,13,15,00,AAXX 13154 85586 41557 82304 10154 20124 40218 52005 70522 8353/ 333 56669 83625 88363=
85586,2012,04,13,18,00,AAXX 13184 85586 11558 82407 10160 20110 40215 58003 60001 70522 8257/ 333 56669 82625 88360=
85586,2012,04,13,21,00,AAXX 13214 85586 41558 62304 10160 20087 40215 54000 70522 81630 333 56660 81620 86363=
85586,2012,04,14,00,00,AAXX 14004 85586 11558 22403 10110 20084 40224 52009 60001 70522 81530 333 10178 56660 81620=
85586,2012,04,14,03,00,AAXX 14034 85586 NIL=
85586,2012,04,14,06,00,AAXX 14064 85586 NIL=
85586,2012,04,14,09,00,AAXX 14094 85586 NIL=
85586,2012,04,14,12,00,AAXX 14124 85586 11960 00000 10076 20063 40207 56008 60004 333 20053 30/// 50220 55022=
85586,2012,04,14,15,00,AAXX 14154 85586 41958 02405 10166 20110 40197 58008 70500=
85586,2012,04,14,18,00,AAXX 14184 85586 11960 02508 10171 20111 40177 57020 60001=
85586,2012,04,14,21,00,AAXX 14214 85586 41960 02505 10172 20111 40167 56009=
85586,2012,04,15,00,00,AAXX 15004 85586 11956 00404 10133 20104 40179 53011 60001 70500 333 10174=
85586,2012,04,15,03,00,AAXX 15034 85586 NIL=
85586,2012,04,15,06,00,AAXX 15064 85586 NIL=
85586,2012,04,15,09,00,AAXX 15094 85586 NIL=
85586,2012,04,15,12,00,AAXX 15124 85586 11958 20000 10074 20056 40157 53003 60004 7050/ 80001 333 20063 30/// 50220 55100 56006 82075=
85586,2012,04,15,15,00,AAXX 15154 85586 41958 32507 10179 20093 40164 51009 70511 80001 333 56006 83075=
85586,2012,04,15,18,00,AAXX 15184 85586 11960 52310 10171 20090 40159 58005 60001 80001 333 56006 85075=
85586,2012,04,15,21,00,AAXX 15214 85586 41960 22807 10168 20093 40161 53002 80001 333 56006 82075=
85586,2012,04,16,00,00,AAXX 16004 85586 11958 30306 10132 20098 40178 52016 60001 70511 80001 333 10185 56006 83075=
85586,2012,04,16,03,00,AAXX 16034 85586 NIL=
85586,2012,04,16,06,00,AAXX 16064 85586 NIL=
85586,2012,04,16,09,00,AAXX 16094 85586 NIL=
85586,2012,04,16,12,00,AAXX 16124 85586 11960 00000 10053 20039 40190 53008 60004 333 20036 30/// 50240 55102=
85586,2012,04,16,15,00,AAXX 16154 85586 42960 02706 10154 20098 40208 52020=
85586,2012,04,16,18,00,AAXX 16184 85586 12960 02407 10170 20110 40208 54000 60001=
85586,2012,04,16,21,00,AAXX 16214 85586 42960 02307 10162 20075 40187 57021=
85586,2012,04,17,00,00,AAXX 17004 85586 11956 00000 10108 20076 40184 56013 60001 70500 333 10172=
85586,2012,04,17,03,00,AAXX 17034 85586 NIL=
85586,2012,04,17,06,00,AAXX 17064 85586 NIL=
85586,2012,04,17,09,00,AAXX 17094 85586 NIL=
85586,2012,04,17,12,00,AAXX 17124 85586 12960 00903 10050 20038 40157 53004 60004 333 20038 30/// 50260 55105=
85586,2012,04,17,15,00,AAXX 17154 85586 42960 00202 10194 20068 40160 52003=
85586,2012,04,17,18,00,AAXX 17184 85586 12960 02411 10170 20073 40156 58004 60001=
85586,2012,04,17,21,00,AAXX 17214 85586 42960 02407 10162 20098 40159 53003=
85586,2012,04,18,00,00,AAXX 18004 85586 12960 00103 10104 20084 40171 52012 60001 333 10204=
85586,2012,04,18,03,00,AAXX 18034 85586 NIL=
85586,2012,04,18,06,00,AAXX 18064 85586 NIL=
85586,2012,04,18,12,00,AAXX 18124 85586 11201 81204 10080 20076 40167 52008 60004 7464/ 886// 333 20044 31/// 50200 55083 56099 88702=
85586,2012,04,18,15,00,AAXX 18154 85586 41450 42604 10116 20101 40177 52010 70542 84600 333 56600 84712=
85586,2012,04,18,18,00,AAXX 18184 85586 11357 22906 10137 20100 40172 58005 60001 70540 82600 333 56600 82708=
85586,2012,04,18,21,00,AAXX 18214 85586 42960 02805 10144 20112 40173 54001=
85586,2012,04,19,00,00,AAXX 19004 85586 12960 00704 10106 20079 40177 52006 60001 333 10145=
85586,2012,04,19,03,00,AAXX 19034 85586 NIL=
85586,2012,04,19,06,00,AAXX 19064 85586 NIL=
85586,2012,04,19,09,00,AAXX 19094 85586 NIL=
85586,2012,04,19,12,00,AAXX 19124 85586 12960 01204 10070 20060 40159 56003 60004 333 20042 30/// 50190 55069=
85586,2012,04,19,15,00,AAXX 19154 85586 42960 02203 10150 20090 40157 54002=
85586,2012,04,19,18,00,AAXX 19184 85586 12960 02210 10160 20080 40147 54000 60001=
85586,2012,04,19,21,00,AAXX 19214 85586 42960 00000 10160 20110 40134 57013=
85586,2012,04,20,00,00,AAXX 20004 85586 12960 00205 10116 20099 40147 53004 60001 333 10198=
85586,2012,04,20,03,00,AAXX 20034 85586 NIL=
85586,2012,04,20,06,00,AAXX 20064 85586 NIL=
85586,2012,04,20,09,00,AAXX 20094 85586 NIL=
85586,2012,04,20,12,00,AAXX 20124 85586 12340 50000 10121 20106 40178 52022 60004 7052/ 85600 333 20064 30/// 50210 55092 56700 85609=
85586,2012,04,20,15,00,AAXX 20154 85586 41458 33208 10170 20100 40206 52010 70520 83500 333 56700 83612=
85586,2012,04,20,18,00,AAXX 20184 85586 12460 43208 10172 20104 40205 54000 60001 333 84500 56700 84615=
85586,2012,04,20,21,00,AAXX 20214 85586 42560 43204 10154 20109 40181 57007 84500 333 56700 84617=
85586,2012,04,21,00,00,AAXX 21004 85586 12956 00000 10104 20075 40183 53002 60001 70500 333 10174=
85586,2012,04,21,03,00,AAXX 21034 85586 NIL=
85586,2012,04,21,06,00,AAXX 21064 85586 NIL=
85586,2012,04,21,09,00,AAXX 21094 85586 NIL=
85586,2012,04,21,12,00,AAXX 21124 85586 11103 80000 10063 20050 40165 56007 60004 7444/ 886// 333 20049 30/// 50200 55064 567// 88703=
85586,2012,04,21,15,00,AAXX 21154 85586 41206 83205 10111 20097 40162 50001 74444 886// 333 56799 88704=
85586,2012,04,21,18,00,AAXX 21184 85586 12320 83006 10143 20110 40161 54001 60001 71044 333 56799 88708=
85586,2012,04,21,21,00,AAXX 21214 85586 42458 83207 10147 20110 40167 53006 70522 885// 333 56799 88612=
85586,2012,04,22,00,00,AAXX 22004 85586 12956 00000 10117 20084 40172 53005 60001 70511 333 10153=
85586,2012,04,22,03,00,AAXX 22034 85586 NIL=
85586,2012,04,22,06,00,AAXX 22064 85586 NIL=
85586,2012,04,22,09,00,AAXX 22094 85586 NIL=
85586,2012,04,22,12,00,AAXX 22124 85586 11220 80000 10123 20107 40159 54001 69004 7105/ 886// 333 20079 31/// 50180 55000 567// 70000 88706=
85586,2012,04,22,15,00,AAXX 22154 85586 41320 80000 10133 20117 40177 53017 71022 886// 333 56799 88708=
85586,2012,04,22,18,00,AAXX 22184 85586 12440 82906 10152 20112 40175 58002 69901 70522 333 56799 88710=
85586,2012,04,22,21,00,AAXX 22214 85586 42456 82904 10143 20109 40177 53002 70522 885// 333 56799 88612=
85586,2012,04,23,00,00,AAXX 23004 85586 12556 80000 10142 20107 40182 58004 60001 70522 885// 333 10154=
85586,2012,04,23,03,00,AAXX 23034 85586 NIL=
85586,2012,04,23,06,00,AAXX 23064 85586 NIL=
85586,2012,04,23,09,00,AAXX 23094 85586 NIL=
85586,2012,04,23,12,00,AAXX 23124 85586 11440 81203 10130 20106 40173 52014 60004 7052/ 885// 333 20130 30/// 50130 56099 88615=
85586,2012,04,23,15,00,AAXX 23154 85586 41430 80203 10144 20122 40177 52005 70522 885// 333 56199 88615=
85586,2012,04,23,18,00,AAXX 23184 85586 12440 82403 10150 20120 40177 54000 60001 70522 885// 333 56699 88615=
85586,2012,04,23,21,00,AAXX 23214 85586 42540 82303 10140 20120 40160 57018 70522 885// 333 56699 88617=
85586,2012,04,24,00,00,AAXX 24004 85586 11550 80000 10136 20099 40161 53001 60001 70522 885// 333 10154 56099 88620=
85586,2012,04,24,03,00,AAXX 24034 85586 NIL=
85586,2012,04,24,06,00,AAXX 24064 85586 NIL=
85586,2012,04,24,09,00,AAXX 24094 85586 NIL=
85586,2012,04,24,12,00,AAXX 24124 85586 11912 31002 10056 20048 40159 53003 60004 7104/ 80001 333 20050 30/// 50110 55000 56006 83075=
85586,2012,04,24,15,00,AAXX 24154 85586 42958 32405 10160 20100 40164 52005 70520 333 56005 83070=
85586,2012,04,24,18,00,AAXX 24184 85586 12960 21908 10164 20104 40160 56004 60001 80001 333 56005 82070=
85586,2012,04,24,21,00,AAXX 24214 85586 42960 02305 10160 20110 40140 57020=
85586,2012,04,25,00,00,AAXX 25004 85586 12960 10000 10116 20093 40153 52013 60001 80001 333 10172 56006 81075=
85586,2012,04,25,03,00,AAXX 25034 85586 NIL=
85586,2012,04,25,06,00,AAXX 25064 85586 NIL=
85586,2012,04,25,09,00,AAXX 25094 85586 NIL=
85586,2012,04,25,12,00,AAXX 25124 85586 11440 80000 10110 20103 40163 52012 60004 7102/ 885// 333 20100 30/// 50170 55081 56099 88615=
85586,2012,04,25,15,00,AAXX 25154 85586 41440 82002 10134 20105 40183 52020 70522 885// 333 56099 88615=
85586,2012,04,25,18,00,AAXX 25184 85586 11556 32407 10164 20096 40181 56002 60001 70522 83500 333 56600 83630=
85586,2012,04,25,21,00,AAXX 25214 85586 41958 32306 10144 20108 40182 53001 70511 80002 333 56006 83073=
85586,2012,04,26,00,00,AAXX 26004 85586 11958 50000 10110 20097 40187 52005 60001 70511 80002 333 10168 56006 85073=
85586,2012,04,26,03,00,AAXX 26034 85586 NIL=
85586,2012,04,26,06,00,AAXX 26064 85586 NIL=
85586,2012,04,26,09,00,AAXX 26094 85586 NIL=
85586,2012,04,26,12,00,AAXX 26124 85586 11856 80000 10113 20092 40188 54001 60004 7052/ 8803/ 333 20084 30/// 50160 55039 56079 88358=
85586,2012,04,26,15,00,AAXX 26154 85586 41756 80903 10112 20097 40204 52015 70522 884// 333 56299 88650=
85586,2012,04,26,18,00,AAXX 26184 85586 11758 82204 10134 20102 40181 57021 60001 885// 333 56599 88650=
85586,2012,04,26,21,00,AAXX 26214 85586 41856 82105 10134 20098 40157 57024 70522 8803/ 333 56059 88358=
85586,2012,04,27,00,00,AAXX 27004 85586 11556 81804 10126 20085 40162 53004 60001 70522 885// 333 10136 56799 88630=
85586,2012,04,27,03,00,AAXX 27034 85586 NIL=
85586,2012,04,27,06,00,AAXX 27064 85586 NIL=
85586,2012,04,27,09,00,AAXX 27094 85586 NIL=
85586,2012,04,27,12,00,AAXX 27124 85586 11558 80000 10116 20092 40162 52024 69904 7052/ 8112/ 333 20096 30/// 50180 55000 56779 81820 88442=
85586,2012,04,27,15,00,AAXX 27154 85586 41560 83205 10144 20100 40176 52014 885// 333 56799 88625=
85586,2012,04,27,18,00,AAXX 27184 85586 12560 32708 10162 20104 40189 52014 60001 333 56700 83820=
85586,2012,04,27,21,00,AAXX 27214 85586 42560 42505 10155 20098 40199 52010 84300 333 56600 84820=
85586,2012,04,28,00,00,AAXX 28004 85586 11558 30000 10113 20073 40213 53012 60001 70511 83100 333 10164 56700 83820=
85586,2012,04,28,03,00,AAXX 28034 85586 NIL=
85586,2012,04,28,06,00,AAXX 28064 85586 NIL=
85586,2012,04,28,09,00,AAXX 28094 85586 NIL=
85586,2012,04,28,12,00,AAXX 28124 85586 12960 71006 10076 20058 40230 54001 60004 80001 333 20064 30/// 50180 55065 56006 87075=
85586,2012,04,28,15,00,AAXX 28154 85586 42960 70000 10156 20092 40232 53002 80001 333 56006 87075=
85586,2012,04,28,18,00,AAXX 28184 85586 12560 80204 10194 20085 40210 58011 60001 8113/ 333 56779 81820 88354=
85586,2012,04,28,21,00,AAXX 28214 85586 42560 82109 10152 20081 40214 53005 8213/ 333 56769 82820 883358=
85586,2012,04,29,00,00,AAXX 29004 85586 11956 70000 10124 20064 40220 53005 60001 70511 87030 333 10196 56060 87362=
85586,2012,04,29,03,00,AAXX 29034 85586 NIL=
85586,2012,04,29,06,00,AAXX 29064 85586 NIL=
85586,2012,04,29,09,00,AAXX 29094 85586 NIL=
85586,2012,04,29,12,00,AAXX 29124 85586 12960 01207 10070 20058 40207 53002 60004 333 20050 30/// 50120 55013=
85586,2012,04,29,15,00,AAXX 29154 85586 42960 00802 10194 20054 40218 54001=
85586,2012,04,29,18,00,AAXX 29184 85586 12960 02408 10194 20078 40197 52011 60001=
85586,2012,04,29,21,00,AAXX 29214 85586 42960 12306 10174 20082 40189 57009 80001 333 56006 81075=
85586,2012,04,30,00,00,AAXX 30004 85586 12960 00000 10100 20075 40194 53005 60001 333 10204=
85586,2012,04,30,03,00,AAXX 30034 85586 NIL=
85586,2012,04,30,06,00,AAXX 30064 85586 NIL=
85586,2012,04,30,09,00,AAXX 30094 85586 NIL=
85586,2012,04,30,12,00,AAXX 30124 85586 12960 31006 10080 20028 40188 52006 60004 80001 333 20040 30/// 50170 55098 56006 83075=
85586,2012,04,30,15,00,AAXX 30154 85586 42960 02604 10172 20060 40195 52007=
85586,2012,04,30,18,00,AAXX 30184 85586 12960 02307 10168 20116 40179 58016 60001=
85586,2012,04,30,21,00,AAXX 30214 85586 42960 12403 10158 20133 40167 57012 80002 333 56006 81075=
85586,2012,05,01,00,00,AAXX 01004 85586 12960 10202 10103 20096 40171 53004 60001 80002 333 10178 56006 81075=
85586,2012,05,01,03,00,AAXX 01034 85586 NIL=
85586,2012,05,01,06,00,AAXX 01064 85586 NIL=
85586,2012,05,01,09,00,AAXX 01094 85586 NIL=
85586,2012,05,01,12,00,AAXX 01124 85586 12960 62003 10068 20060 40153 56003 60004 80001 333 20044 30/// 50160 55096 56006 86075=
85586,2012,05,01,15,00,AAXX 01154 85586 42960 33602 10140 20088 40159 53006 80001 333 56006 86075=
85586,2012,05,01,18,00,AAXX 01184 85586 12260 82309 10150 20136 40143 58014 60001 83602 333 56606 83705 86075=
85586,2012,05,01,21,00,AAXX 01214 85586 41230 82405 10136 20124 40142 56002 71022 886// 333 56099 88705=
85586,2012,05,02,00,00,AAXX 02004 85586 11340 80000 10128 20119 40146 52004 60001 71022 886// 333 10170 56099 88707=
85586,2012,05,02,03,00,AAXX 02034 85586 NIL=
85586,2012,05,02,06,00,AAXX 02064 85586 NIL=
85586,2012,05,02,09,00,AAXX 02094 85586 NIL=
85586,2012,05,02,12,00,AAXX 02124 85586 11203 80000 10090 20086 40170 52021 69914 7462/ 886// 333 20083 31/// 50180 55026 56799 70001 88704=
85586,2012,05,02,15,00,AAXX 02154 85586 42960 42204 10144 20110 40171 52005 80001 333 56005 84073=
85586,2012,05,02,18,00,AAXX 02184 85586 12960 52508 10154 20104 40162 57019 60001 80001 333 56005 85070=
85586,2012,05,02,21,00,AAXX 02214 85586 42960 52007 10148 20113 40166 52012 80001 333 56005 85070=
85586,2012,05,03,00,00,AAXX 03004 85586 11958 70805 10124 20097 40165 50001 60001 70511 80001 333 10156 56006 87075=
85586,2012,05,03,03,00,AAXX 03034 85586 NIL=
85586,2012,05,03,06,00,AAXX 03064 85586 NIL=
85586,2012,05,03,09,00,AAXX 03094 85586 NIL=
85586,2012,05,03,12,00,AAXX 03124 85586 11958 70000 10071 20057 40165 53004 60004 7051/ 80001 333 20061 30/// 50180 55066 56006 87075=
85586,2012,05,03,15,00,AAXX 03154 85586 42958 50000 10160 20090 40170 52007 70522 80001 333 56005 85073=
85586,2012,05,03,18,00,AAXX 03184 85586 12960 52205 10160 20102 40152 57018 60001 80001 333 56005 85073=
85586,2012,05,03,21,00,AAXX 03214 85586 42960 43203 10150 20120 40150 54002 80001 333 56007 84073=
85586,2012,05,04,00,00,AAXX 04004 85586 11956 70204 10143 20122 40141 58008 60001 70522 80001 333 10179 56006 87075=
85586,2012,05,04,03,00,AAXX 04034 85586 NIL=
85586,2012,05,04,06,00,AAXX 04064 85586 NIL=
85586,2012,05,04,09,00,AAXX 04094 85586 NIL=
85586,2012,05,04,12,00,AAXX 04124 85586 11206 83304 10126 20113 40156 53014 60004 7464/ 886// 333 20063 30/// 50180 55077 56799 88704=
85586,2012,05,04,15,00,AAXX 04154 85586 42520 31904 10140 20120 40158 54002 71020 83500 333 56500 83612=
85586,2012,05,04,18,00,AAXX 04184 85586 12440 52505 10144 20122 40147 57010 60001 85600 333 56600 85708=
85586,2012,05,04,21,00,AAXX 04214 85586 42430 82206 10140 20120 40152 52005 71022 886// 333 56599 88704=
85586,2012,05,05,00,00,AAXX 05004 85586 11220 83304 10144 20121 40157 51004 60001 71022 886// 333 10158 56799 88707=
85586,2012,05,05,03,00,AAXX 05034 85586 NIL=
85586,2012,05,05,06,00,AAXX 05064 85586 NIL=
85586,2012,05,05,09,00,AAXX 05094 85586 NIL=
85586,2012,05,05,12,00,AAXX 05124 85586 11330 80402 10130 20118 40157 52004 60004 7102/ 886// 333 20130 30/// 30/// 50110 55020 56099 88709=
85586,2012,05,05,15,00,AAXX 05154 85586 41440 80702 10136 20109 40158 54001 70522 886// 333 56099 88712=
85586,2012,05,05,18,00,AAXX 05184 85586 11456 73005 10154 20102 40150 57008 60001 70522 87500 333 56600 87618=
85586,2012,05,05,21,00,AAXX 05214 85586 41457 73306 10158 20110 40166 53016 70522 84502 333 56606 84618 85073=
85586,2012,05,06,00,00,AAXX 06004 85586 11557 83004 10142 20112 40182 52016 60001 70522 85502 333 10168 56606 85630 83073=
85586,2012,05,06,03,00,AAXX 06034 85586 NIL=
85586,2012,05,06,06,00,AAXX 06064 85586 NIL=
85586,2012,05,06,09,00,AAXX 06094 85586 NIL=
85586,2012,05,06,12,00,AAXX 06124 85586 11558 70405 10148 20097 40179 52005 60004 7052/ 87500 333 20140 30/// 50110 55002 56600 87630=
85586,2012,05,06,15,00,AAXX 06154 85586 42560 80205 10176 20099 40185 52006 8353/ 333 56179 83630 85363=
85586,2012,05,06,18,00,AAXX 06184 85586 11440 83305 10163 20134 40191 52006 69901 75022 8463/ 333 56779 83713 88363=
85586,2012,05,06,21,00,AAXX 06214 85586 41440 80000 10148 20138 40197 52006 75052=
85586,2012,05,07,00,00,AAXX 07004 85586 11440 80000 10150 20140 40211 52014 60031 76055 8453/ 333 10180 56779 84613 88360=
85586,2012,05,07,03,00,AAXX 07034 85586 NIL=
85586,2012,05,07,06,00,AAXX 07064 85586 NIL=
85586,2012,05,07,09,00,AAXX 07094 85586 NIL=
85586,2012,05,07,12,00,AAXX 07124 85586 11460 21903 10136 20122 40191 57012 60054 7016/ 81501 333 20114 31/// 50080 55000 56606 70054 81613=
85586,2012,05,07,15,00,AAXX 07154 85586 42460 61908 10176 20141 40187 57004 83501 333 56606 83612 85075=
85586,2012,05,07,18,00,AAXX 07184 85586 12460 52306 10200 20140 40168 57018 60001 85501 333 56505 82715 85075=
85586,2012,05,07,21,00,AAXX 07214 85586 42960 02505 10160 20130 40160 57009 80001 333 56006 82070=
85586,2012,05,08,00,00,AAXX 08004 85586 12960 00802 10124 20114 40170 52010 60001 333 10200=
85586,2012,05,08,03,00,AAXX 08034 85586 NIL=
85586,2012,05,08,06,00,AAXX 08064 85586 NIL=
85586,2012,05,08,09,00,AAXX 08094 85586 NIL=
85586,2012,05,08,12,00,AAXX 08124 85586 11203 80404 10116 20107 40183 52017 60004 7464/ 886// 333 20089 31/// 50140 55073 56799 88704=
85586,2012,05,08,15,00,AAXX 08154 85586 41420 53203 10136 20127 40199 52017 71022 85500 333 56700 85610=
85586,2012,05,08,18,00,AAXX 08184 85586 11450 62308 10160 20110 40199 54000 60001 70522 86501 333 56505 84617 83073=
85586,2012,05,08,21,00,AAXX 08214 85586 42660 42405 10144 20114 40189 57010 70220 84500 333 56500 84630=
85586,2012,05,09,00,00,AAXX 09004 85586 12956 00000 10111 20088 40193 53002 60001 70511 333 10162=
85586,2012,05,09,03,00,AAXX 09034 85586 NIL=
85586,2012,05,09,06,00,AAXX 09064 85586 NIL=
85586,2012,05,09,09,00,AAXX 09094 85586 NIL=
85586,2012,05,09,12,00,AAXX 09124 85586 11456 80000 10101 20086 40186 53006 60004 7052/ 886// 333 20084 31/// 50140 55044 56799 88710=
85586,2012,05,09,15,00,AAXX 09154 85586 41458 50000 10144 20096 40197 51011 70522 85100 333 56700 85815=
85586,2012,05,09,18,00,AAXX 09184 85586 11558 12409 10152 20102 40196 54001 60001 70511 81100 333 56700 81820=
85586,2012,05,09,21,00,AAXX 09214 85586 42960 82310 10143 20109 40192 58004=
85586,2012,05,10,00,00,AAXX 10004 85586 12956 00000 10097 20076 40198 53005 60001 70500 333 10158=
85586,2012,05,10,03,00,AAXX 10034 85586 NIL=
85586,2012,05,10,06,00,AAXX 10064 85586 NIL=
85586,2012,05,10,09,00,AAXX 10094 85586 NIL=
85586,2012,05,10,12,00,AAXX 10124 85586 11906 61105 10062 20050 40164 56007 60004 7464/ 80001 333 20044 31/// 50160 55062 56006 86075=
85586,2012,05,10,15,00,AAXX 10154 85586 41956 42704 10134 20112 40199 52018 70522 80001 333 56006 84075=
85586,2012,05,10,18,00,AAXX 10184 85586 11958 52008 10162 20094 40164 57026 60001 70522 85031 333 56055 83358=
85586,2012,05,10,21,00,AAXX 10214 85586 42960 52404 10150 20082 40164 54001 80001 333 56005 85073=
85586,2012,05,11,00,00,AAXX 11004 85586 NIL=
85586,2012,05,11,03,00,AAXX 11034 85586 NIL=
85586,2012,05,11,06,00,AAXX 11064 85586 NIL=
85586,2012,05,11,09,00,AAXX 11094 85586 NIL=
85586,2012,05,11,12,00,AAXX 11124 85586 11957 60000 10106 20089 40166 52003 60004 7052/ 85031 333 20106 30/// 50140 55052 56066 85363=
85586,2012,05,11,15,00,AAXX 11154 85586 42960 32204 10144 20094 40178 52012 80001 333 56005 83073=
85586,2012,05,11,18,00,AAXX 11184 85586 12960 02508 10170 20090 40168 57010 60001=
85586,2012,05,11,21,00,AAXX 11214 85586 42960 02306 10154 20122 40155 57012=
85586,2012,05,12,00,00,AAXX 12004 85586 12960 00403 10112 20104 40159 52004 60001 333 10172=
85586,2012,05,12,03,00,AAXX 12034 85586 NIL=
85586,2012,05,12,06,00,AAXX 12064 85586 NIL=
85586,2012,05,12,09,00,AAXX 12094 85586 NIL=
85586,2012,05,12,12,00,AAXX 12124 85586 11203 80703 10098 20091 40153 54000 60004 7464/ 886// 333 20070 31/// 50130 55080 56099 88703=
85586,2012,05,12,15,00,AAXX 12154 85586 41330 83302 10124 20114 40157 52004 71044 886// 333 56099 88707=
85586,2012,05,12,18,00,AAXX 12184 85586 11450 83003 10146 20118 40148 58007 60001 70522 885// 333 56099 88612=
85586,2012,05,12,21,00,AAXX 12214 85586 41556 83304 10144 20111 40155 53006 70522 81532 333 56666 81630 83363 85073=
85586,2012,05,13,00,00,AAXX 13004 85586 11556 83402 10130 20117 40159 52005 60001 70522 8553/ 333 10150 56669 85630 85363=
85586,2012,05,13,03,00,AAXX 13034 85586 NIL=
85586,2012,05,13,06,00,AAXX 13064 85586 NIL=
85586,2012,05,13,09,00,AAXX 13094 85586 NIL=
85586,2012,05,13,12,00,AAXX 13124 85586 11550 80302 10130 20107 40184 52010 60004 70522 885// 333 20130 30/// 50110 55000 56099 88620=
85586,2012,05,13,15,00,AAXX 13154 85586 41556 83503 10144 20115 40201 52017 70522 885// 333 56099 88626=
85586,2012,05,13,18,00,AAXX 13184 85586 11558 62506 10154 20123 40197 58004 60001 70522 83530 333 56660 83620 86362=
85586,2012,05,13,21,00,AAXX 13214 85586 41558 22402 10160 20095 40195 56002 70522 82500 333 56600 82620=
85586,2012,05,14,00,00,AAXX 14004 85586 11958 00000 10092 20077 40196 53001 60001 70500 333 10170=
85586,2012,05,14,03,00,AAXX 14034 85586 NIL=
85586,2012,05,14,06,00,AAXX 14064 85586 NIL=
85586,2012,05,14,09,00,AAXX 14094 85586 NIL=
85586,2012,05,14,12,00,AAXX 14124 85586 11940 61004 10061 20051 40142 56007 60004 7101/ 80901 333 20049 31/// 50140 55036 56006 86075=
85586,2012,05,14,15,00,AAXX 14154 85586 41950 00000 10142 20106 40184 57007 70500=
85586,2012,05,14,18,00,AAXX 14184 85586 11958 22605 10156 20104 40167 58017 60001 70500 80001 333 56006 82075=
85586,2012,05,14,21,00,AAXX 14214 85586 41560 12407 10143 20109 40164 56003 81100 333 56700 81815=
85586,2012,05,15,00,00,AAXX 15004 85586 NIL=
85586,2012,05,15,03,00,AAXX 15034 85586 NIL=
85586,2012,05,15,06,00,AAXX 15064 85586 NIL=
85586,2012,05,15,09,00,AAXX 15094 85586 NIL=
85586,2012,05,15,12,00,AAXX 15124 85586 NIL=
85586,2012,05,15,15,00,AAXX 15154 85586 41658 83207 10152 20094 40182 53017 70522 885// 333 56799 88625=
85586,2012,05,15,18,00,AAXX 15184 85586 11560 83214 10156 20096 40189 51007 60001 8253/ 333 56769 82625 88362=
85586,2012,05,15,21,00,AAXX 15214 85586 42960 62904 10176 20089 40195 51005 80001 333 56006 86075=
85586,2012,05,16,00,00,AAXX 16004 85586 11956 40000 10119 20083 40200 53004 60001 70511 80001 333 10184 56006 84362=
85586,2012,05,16,03,00,AAXX 16034 85586 NIL=
85586,2012,05,16,06,00,AAXX 16064 85586 NIL=
85586,2012,05,16,09,00,AAXX 16094 85586 NIL=
85586,2012,05,16,12,00,AAXX 16124 85586 12960 01007 10101 20070 40207 53006 60004 333 20084 30/// 50150 55019=
85586,2012,05,16,15,00,AAXX 16154 85586 41960 22305 10184 20099 40208 51004 80001 333 56006 82075=
85586,2012,05,16,18,00,AAXX 16184 85586 11960 72409 10174 20135 40191 58017 60001 80001 333 56006 87075=
85586,2012,05,16,21,00,AAXX 16214 85586 41260 72311 10152 20128 40191 55001 70542 81601 333 56706 81704 87075=
85586,2012,05,17,00,00,AAXX 17004 85586 11256 40000 10121 20108 40195 53004 60001 70511 82601 333 10195 56706 82704 84075=
85586,2012,05,17,03,00,AAXX 17034 85586 NIL=
85586,2012,05,17,06,00,AAXX 17064 85586 NIL=
85586,2012,05,17,09,00,AAXX 17094 85586 NIL=
85586,2012,05,17,12,00,AAXX 17124 85586 11558 80000 10120 20113 40192 52005 60004 7052/ 885// 333 20120 30/// 50130 55065 56099 88630=
85586,2012,05,17,15,00,AAXX 17154 85586 41557 82205 10134 20094 40198 52007 70522 8853/ 333 56559 86630 88363=
85586,2012,05,17,18,00,AAXX 17184 85586 11958 71205 10150 20096 40205 52005 60001 70522 87030 333 56050 87363=
85586,2012,05,17,21,00,AAXX 17214 85586 41958 72005 10140 20095 40195 57009 70522 87030 333 56050 87362=
85586,2012,05,18,00,00,AAXX 18004 85586 12960 21602 10120 20087 40211 52016 60001 82030 333 10151 56960 82363=
85586,2012,05,18,03,00,AAXX 18034 85586 NIL=
85586,2012,05,18,06,00,AAXX 18064 85586 NIL=
85586,2012,05,18,09,00,AAXX 18094 85586 NIL=
85586,2012,05,18,12,00,AAXX 18124 85586 12960 01203 10080 20072 40184 57008 60004 333 20048 30/// 50100 55000=
85586,2012,05,18,15,00,AAXX 18154 85586 42960 00903 10162 20102 40199 52006=
85586,2012,05,18,18,00,AAXX 18184 85586 12960 02307 10172 20102 40199 54000 60001=
85586,2012,05,18,21,00,AAXX 18214 85586 42960 02703 10150 20078 40177 57022=
85586,2012,05,19,00,00,AAXX 19004 85586 12960 30904 10094 20082 40183 53005 60001 80001 333 10173 56006 83075=
85586,2012,05,19,03,00,AAXX 19034 85586 NIL=
85586,2012,05,19,06,00,AAXX 19064 85586 NIL=
85586,2012,05,19,09,00,AAXX 19094 85586 NIL=
85586,2012,05,19,12,00,AAXX 19124 85586 12960 51004 10052 20044 40174 57006 60004 80001 333 20026 30/// 50130 55076 56006 85075=
85586,2012,05,19,15,00,AAXX 19154 85586 42960 63003 10124 20078 40170 56004 80001 333 56007 86073=
85586,2012,05,19,18,00,AAXX 19184 85586 12960 52705 10178 20053 40154 57016 60001 80001 333 56006 85073=
85586,2012,05,19,21,00,AAXX 19214 85586 42960 42004 10144 20092 40148 57005 80001 333 56005 84073=
85586,2012,05,20,00,00,AAXX 20004 85586 12960 31802 10128 20114 40164 52016 60001 80001 333 10180 56005 83073=
85586,2012,05,20,03,00,AAXX 20034 85586 NIL=
85586,2012,05,20,06,00,AAXX 20064 85586 NIL=
85586,2012,05,20,09,00,AAXX 20094 85586 NIL=
85586,2012,05,20,12,00,AAXX 20124 85586 12960 40000 10061 20042 40199 56007 60004 80001 333 20063 30/// 50150 55085 56006 84075=
85586,2012,05,20,15,00,AAXX 20154 85586 42960 51505 10171 20072 40196 50000 80001 333 56006 85075=
85586,2012,05,20,18,00,AAXX 20184 85586 12960 72314 10164 20106 40180 57016 60001 80001 333 56006 87075=
85586,2012,05,20,21,00,AAXX 20214 85586 42960 72604 10149 20102 40179 56002 82031 333 56066 83362 87075=
85586,2012,05,21,00,00,AAXX 21004 85586 12960 30000 10103 20070 40185 53006 60001 70500 83030 333 10198 56060 83365=
85586,2012,05,21,03,00,AAXX 21034 85586 NIL=
85586,2012,05,21,06,00,AAXX 21064 85586 NIL=
85586,2012,05,21,09,00,AAXX 21094 85586 NIL=
85586,2012,05,21,12,00,AAXX 21124 85586 12960 50000 10067 20057 40184 53004 60004 80001 333 20044 30/// 50150 55070 56006 85075=
85586,2012,05,21,15,00,AAXX 21154 85586 42956 72404 10134 20075 40196 52014 70511 80001 333 56006 87075=
85586,2012,05,21,18,00,AAXX 21184 85586 12960 72406 10164 201094 40171 58025 60001 70511 80001 333 56006 87075=
85586,2012,05,21,21,00,AAXX 21214 85586 42960 72504 10147 20089 40167 56004 80001 333 56006 87075=
85586,2012,05,22,00,00,AAXX 22004 85586 12960 50605 10104 20079 40174 53006 60001 70511 80001 333 10166 56006 85075=
85586,2012,05,22,03,00,AAXX 22034 85586 NIL=
85586,2012,05,22,06,00,AAXX 22064 85586 NIL=
85586,2012,05,22,09,00,AAXX 22094 85586 NIL=
85586,2012,05,22,12,00,AAXX 22124 85586 11958 60000 10056 20046 40175 53014 60004 7051/ 86030 333 20054 30/// 50160 55050 56060 86362=
85586,2012,05,22,15,00,AAXX 22154 85586 42956 70000 10136 20090 40192 52019 70511 87030 333 56060 87365=
85586,2012,05,22,18,00,AAXX 22184 85586 12960 72406 10149 20077 40186 58006 60001 87030 333 56060 87365=
85586,2012,05,22,21,00,AAXX 22214 85586 42960 60000 10137 20088 40185 54001 86030 333 56060 86365=
85586,2012,05,23,00,00,AAXX 23004 85586 12956 40000 10094 20068 40194 53009 60001 70511 84030 333 10161 56060 84362=
85586,2012,05,23,03,00,AAXX 23034 85586 NIL=
85586,2012,05,23,06,00,AAXX 23064 85586 NIL=
85586,2012,05,23,09,00,AAXX 23094 85586 NIL=
85586,2012,05,23,12,00,AAXX 23124 85586 12960 11203 10076 20043 40185 57004 60004 80001 333 20036 30/// 50110 55023 56006 81075=
85586,2012,05,23,15,00,AAXX 23154 85586 42960 03004 10144 20062 40187 51003=
85586,2012,05,23,18,00,AAXX 23184 85586 12960 02705 10160 20052 40178 57010 60001=
85586,2012,05,23,21,00,AAXX 23214 85586 42960 02505 10162 20036 40151 57026=
85586,2012,05,24,00,00,AAXX 24004 85586 12960 00902 10096 20071 40156 53004 60001 333 10164=
85586,2012,05,24,03,00,AAXX 24034 85586 NIL=
85586,2012,05,24,06,00,AAXX 24064 85586 NIL=
85586,2012,05,24,09,00,AAXX 24094 85586 NIL=
85586,2012,05,24,12,00,AAXX 24124 85586 12560 70602 10056 20036 40134 56005 60004 81531 333 20040 30/// 50140 55093 56666 81530 83363 85075=
85586,2012,05,24,15,00,AAXX 24154 85586 42960 63503 10148 20090 40160 52026 86031 333 56066 84363 85073=
85586,2012,05,24,18,00,AAXX 24184 85586 12960 63007 10150 20085 40164 51004 60001 70522 86030 333 56070 86030=
85586,2012,05,24,21,00,AAXX 24214 85586 42960 62808 10148 20136 40164 54000 86030 333 56070 86030=
85586,2012,05,25,00,00,AAXX 25004 85586 12960 70602 10128 20115 40143 57021 60001 87030 333 10160 56060 87363=
85586,2012,05,25,03,00,AAXX 25034 85586 NIL=
85586,2012,05,25,09,00,AAXX 25094 85586 NIL=
85586,2012,05,25,12,00,AAXX 25124 85586 11960 81006 10146 20105 40082 55000 60064 8803/ 333 20129 31/// 50110 55000 56079 70063 88362=
85586,2012,05,25,15,00,AAXX 25154 85586 42560 73510 10162 20078 40161 52015 87530 333 56770 82630 86360=
85586,2012,05,25,18,00,AAXX 25184 85586 11557 72803 10154 20114 40170 52009 60001 75352 87530 333 56660 82630 86357=
85586,2012,05,25,21,00,AAXX 25214 85586 41558 71003 10136 20118 40147 57023 70522 87530 333 56220 83620 86350=
85586,2012,05,26,00,00,AAXX 26004 85586 11556 80904 10128 20119 40151 53003 60021 7606/ 8453/ 333 10172 56779 84630 88358=
85586,2012,05,26,03,00,AAXX 26034 85586 NIL=
85586,2012,05,26,06,00,AAXX 26064 85586 NIL=
85586,2012,05,26,09,00,AAXX 26094 85586 NIL=
85586,2012,05,26,12,00,AAXX 26124 85586 11960 81006 10146 20105 40082 55000 60064 8803/ 333 20129 31/// 50110 55000 56079 70063 88362=
85586,2012,05,26,15,00,AAXX 26154 85586 42658 83606 10148 20127 40106 52027 76366 8802/ 333 5607/ 88462=
85586,2012,05,26,18,00,AAXX 26184 85586 11557 80212 10140 20130 40112 52007 60121 76366 882// 333 56199 88820=
85586,2012,05,26,21,00,AAXX 26214 85586 41450 80117 10122 20112 40091 57023 76366 882// 333 56199 88815=
85586,2012,05,27,00,00,AAXX 27004 85586 11556 83416 10143 20129 40074 58016 60471 78166 882// 333 10151 56799 88825=
85586,2012,05,27,03,00,AAXX 27034 85586 NIL=
85586,2012,05,27,06,00,AAXX 27064 85586 NIL=
85586,2012,05,27,09,00,AAXX 27094 85586 NIL=
85586,2012,05,27,12,00,AAXX 27124 85586 11556 83410 10166 20158 40140 52018 61054 7806/ 333 20144 32/// 50110 55000 56799 88820=
85586,2012,05,27,15,00,AAXX 27154 85586 41658 83315 10176 20160 40158 51017 70588 882// 333 567// 82815 88825=
85586,2012,05,27,18,00,AAXX 27184 85586 11208 83310 10167 20159 40159 50001 60071 78158 882// 333 56799 84704 88820=
85586,2012,05,27,21,00,AAXX 27214 85586 41220 83507 10173 20163 40163 53004 75385 886// 333 56799 88704=
85586,2012,05,28,00,00,AAXX 28004 85586 11220 80304 10173 20163 40162 55001 60111 75055 886// 333 10180 56799 88704=
85586,2012,05,28,03,00,AAXX 28034 85586 NIL=
85586,2012,05,28,06,00,AAXX 28064 85586 NIL=
85586,2012,05,28,09,00,AAXX 28094 85586 NIL=
85586,2012,05,28,12,00,AAXX 28124 85586 11958 70707 10153 20144 40188 52022 60184 7052/ 87030 333 20143 32/// 50110 55000 56060 70175 87362=
85586,2012,05,28,15,00,AAXX 28154 85586 41206 83205 10157 20149 40193 58004 74622 886// 333 567// 88704=
85586,2012,05,28,18,00,AAXX 28184 85586 11458 50504 10172 20156 40193 54000 60001 70522 85500 333 56100 85615=
85586,2012,05,28,21,00,AAXX 28214 85586 41360 60000 10174 20142 40194 54001 85500 333 56550 82704 83630 85360=
85586,2012,05,29,00,00,AAXX 29004 85586 11556 81604 10174 20157 40211 53016 60001 70522 885// 333 10176 56799 88620=
85586,2012,05,29,03,00,AAXX 29034 85586 NIL=
85586,2012,05,29,06,00,AAXX 29064 85586 NIL=
85586,2012,05,29,09,00,AAXX 29094 85586 NIL=
85586,2012,05,29,12,00,AAXX 29124 85586 11457 71204 10146 20128 40209 52006 60004 7102/ 86601 333 20126 31/// 50110 55023 56606 86710=
85586,2012,05,29,15,00,AAXX 29154 85586 41357 30904 10170 20160 40214 52006 70522 83600 333 56500 83708=
85586,2012,05,29,18,00,AAXX 29184 85586 12560 32404 10184 20154 40154 54000 60001 83600 333 56500 83620=
85586,2012,05,29,21,00,AAXX 29214 85586 42960 43003 10180 20138 40192 57012 80001 333 56007 84070=
85586,2012,05,30,00,00,AAXX 30004 85586 12960 31703 10152 20126 40192 56001 60001 80001 333 10202 56006 83075=
85586,2012,05,30,03,00,AAXX 30034 85586 NIL=
85586,2012,05,30,06,00,AAXX 30064 85586 NIL=
85586,2012,05,30,09,00,AAXX 30094 85586 NIL=
85586,2012,05,30,12,00,AAXX 30124 85586 12960 31908 10110 20100 40172 57008 60004 80001 333 20102 32/// 50120 55053 56006 83075=
85586,2012,05,30,15,00,AAXX 30154 85586 42960 31508 10170 20071 40178 52006 80001 333 56006 83075=
85586,2012,05,30,18,00,AAXX 30184 85586 12960 11204 10202 20070 40158 58020 60001 80002 333 56006 81075=
85586,2012,05,30,21,00,AAXX 30214 85586 42960 52305 10170 20094 40158 54000 80002 333 56006 85075=
85586,2012,05,31,00,00,AAXX 31004 85586 12960 41705 10130 20063 40168 52010 60001 80002 333 10214 56006 84075=
85586,2012,05,31,03,00,AAXX 31034 85586 NIL=
85586,2012,05,31,06,00,AAXX 31064 85586 NIL=
85586,2012,05,31,09,00,AAXX 31094 85586 NIL=
85586,2012,05,31,12,00,AAXX 31124 85586 12560 71506 10114 20080 40176 52007 60004 81532 333 20090 32/// 50130 55078 56666 81530 83363 85075=
85586,2012,05,31,15,00,AAXX 31154 85586 NIL=
85586,2012,05,31,18,00,AAXX 31184 85586 12960 62305 10180 20097 40181 56003 60001 86031 333 56055 83360 86073=
85586,2012,05,31,21,00,AAXX 31214 85586 42960 41804 10194 20077 40192 52011 80001 333 56004 84073=
85586,2012,06,01,00,00,AAXX 01004 85586 12960 20902 10146 20100 40180 57013 60001 80001 333 10221 56006 82075=
85586,2012,06,01,03,00,AAXX 01034 85586 NIL=
85586,2012,06,01,06,00,AAXX 01064 85586 NIL=
85586,2012,06,01,09,00,AAXX 01094 85586 NIL=
85586,2012,06,01,12,00,AAXX 01124 85586 12960 41604 10112 20076 40198 53018 60004 81031 333 20094 31/// 50130 55075 56066 81365 84075=
85586,2012,06,01,15,00,AAXX 01154 85586 42960 52704 10154 20085 40204 52008 85030 333 56070 85365=
85586,2012,06,01,18,00,AAXX 01184 85586 12960 32306 10204 20105 40194 57010 60001 83030 333 56060 83365=
85586,2012,06,01,21,00,AAXX 01214 85586 42960 72307 10150 20132 40193 54001 87030 333 56050 87362=
85586,2012,06,02,00,00,AAXX 02004 85586 12956 70404 10146 20125 40210 53016 60001 70522 87030 333 10206 56060 87362=
85586,2012,06,02,03,00,AAXX 02034 85586 NIL=
85586,2012,06,02,06,00,AAXX 02064 85586 NIL=
85586,2012,06,02,09,00,AAXX 02094 85586 NIL=
85586,2012,06,02,12,00,AAXX 02124 85586 12960 21204 10114 20099 40196 53011 60004 80001 333 20111 31/// 50130 55053 56006 82075=
85586,2012,06,02,15,00,AAXX 02154 85586 42960 02405 10188 20148 40221 51007=
85586,2012,06,02,18,00,AAXX 02184 85586 12960 22307 10194 20143 40206 58015 60001 80001 333 56006 82075=
85586,2012,06,02,21,00,AAXX 02214 85586 42960 62308 10174 20135 40218 53012 80001 333 56006 86075=
85586,2012,06,03,00,00,AAXX 03004 85586 12958 41604 10134 20096 40227 51008 60001 70511 80001 333 10196 56006 84075=
85586,2012,06,03,03,00,AAXX 03034 85586 NIL=
85586,2012,06,03,06,00,AAXX 03064 85586 NIL=
85586,2012,06,03,09,00,AAXX 03094 85586 NIL=
85586,2012,06,03,12,00,AAXX 03124 85586 12960 01504 10099 20052 40224 55000 60004 333 20096 31/// 50140 55092=
85586,2012,06,03,15,00,AAXX 03154 85586 42960 01620 10151 20045 40232 52010=
85586,2012,06,03,18,00,AAXX 03184 85586 12960 01617 10174 20056 40222 58009 60001=
85586,2012,06,03,21,00,AAXX 03214 85586 42960 01912 10166 20049 40211 56011=
85586,2012,06,04,00,00,AAXX 04004 85586 12958 02004 10116 20051 40223 53011 60001 70500 333 10184=
85586,2012,06,04,03,00,AAXX 04034 85586 NIL=
85586,2012,06,04,06,00,AAXX 04064 85586 NIL=
85586,2012,06,04,09,00,AAXX 04094 85586 NIL=
85586,2012,06,04,12,00,AAXX 04124 85586 12960 01605 10540 20042 40218 52006 60004 333 20054 31/// 50130 55094=
85586,2012,06,04,15,00,AAXX 04154 85586 42960 01206 10112 20052 40232 52004=
85586,2012,06,04,18,00,AAXX 04184 85586 12960 01906 10154 20051 40207 58025 60001=
85586,2012,06,04,21,00,AAXX 04214 85586 42960 02310 10114 20076 40212 56005=
85586,2012,06,05,00,00,AAXX 05004 85586 12960 01602 10076 20060 40214 52012 60001 333 10162=
85586,2012,06,05,03,00,AAXX 05034 85586 NIL=
85586,2012,06,05,06,00,AAXX 05064 85586 NIL=
85586,2012,06,05,09,00,AAXX 05094 85586 NIL=
85586,2012,06,05,12,00,AAXX 05124 85586 12960 01703 10024 20014 40220 52012 60004 333 20010 31/// 50140 55087=
85586,2012,06,05,15,00,AAXX 05154 85586 NIL=
85586,2012,06,05,18,00,AAXX 05184 85586 12960 01808 10132 20042 40123 57015 60001=
85586,2012,06,05,21,00,AAXX 05214 85586 42960 01707 10130 20065 40203 57011=
85586,2012,06,06,00,00,AAXX 06004 85586 12960 01507 10090 20015 40233 52030 60001 333 10142=
85586,2012,06,06,03,00,AAXX 06034 85586 NIL=
85586,2012,06,06,06,00,AAXX 06064 85586 NIL=
85586,2012,06,06,09,00,AAXX 06094 85586 NIL=
85586,2012,06,06,12,00,AAXX 06124 85586 12960 00907 10050 20017 40227 57004 60004 333 20046 31/// 50140 55081=
85586,2012,06,06,15,00,AAXX 06154 85586 42960 01205 10106 20031 40213 58014=
85586,2012,06,06,18,00,AAXX 06184 85586 12960 01409 10156 20005 40190 57023 60001=
85586,2012,06,06,21,00,AAXX 06214 85586 42960 02007 10160 20025 40179 56011=
85586,2012,06,07,00,00,AAXX 07004 85586 NIL=
85586,2012,06,07,03,00,AAXX 07034 85586 NIL=
85586,2012,06,07,06,00,AAXX 07064 85586 NIL=
85586,2012,06,07,09,00,AAXX 07094 85586 NIL=
85586,2012,06,07,12,00,AAXX 07124 85586 12960 01104 10031 20001 40163 56006 60004 333 20007 34/// 50150 55090=
85586,2012,06,07,15,00,AAXX 07154 85586 42960 00903 10112 20032 40158 56002=
85586,2012,06,07,18,00,AAXX 07184 85586 12960 02805 10150 20074 40151 57006 60001=
85586,2012,06,07,21,00,AAXX 07214 85586 42960 02705 10140 20080 40140 57012=
85586,2012,06,08,00,00,AAXX 08004 85586 12956 00000 10046 20025 40147 53006 60001 70500 333 10154=
85586,2012,06,08,03,00,AAXX 08034 85586 NIL=
85586,2012,06,08,06,00,AAXX 08064 85586 NIL=
85586,2012,06,08,09,00,AAXX 08094 85586 NIL=
85586,2012,06,08,12,00,AAXX 08124 85586 12960 31204 10014 21003 40145 53014 60004 80001 333 20009 34/// 50150 55092 83075=
85586,2012,06,08,15,00,AAXX 08154 85586 42960 02806 10122 20082 40150 52007=
85586,2012,06,08,18,00,AAXX 08184 85586 12958 43005 10143 20075 40137 58012 60001 70500 80001 333 56006 84075=
85586,2012,06,08,21,00,AAXX 08214 85586 42960 03204 10120 20100 40136 54001=
85586,2012,06,09,00,00,AAXX 09004 85586 12956 60000 10106 20084 40154 53017 60001 70511 80001 333 10145 56006 80675=
85586,2012,06,09,03,00,AAXX 09034 85586 NIL=
85586,2012,06,09,06,00,AAXX 09064 85586 NIL=
85586,2012,06,09,09,00,AAXX 09094 85586 NIL=
85586,2012,06,09,12,00,AAXX 09124 85586 11440 80404 10107 20076 40145 53008 60004 7052/ 885// 333 20068 31/// 50130 55072 88615=
85586,2012,06,09,15,00,AAXX 09154 85586 41940 80206 10116 20080 40166 52020 70522 885// 333 56799 88620=
85586,2012,06,09,18,00,AAXX 09184 85586 12556 83404 10132 20081 40171 51005 60001 70522 885// 333 56799 88625=
85586,2012,06,09,21,00,AAXX 09214 85586 42558 83304 10133 20084 40175 53004 70522 885// 333 56799 88625=
85586,2012,06,10,00,00,AAXX 10004 85586 12556 80604 10126 20081 40189 52014 60001 70522 885// 333 10136 56799 88625=
85586,2012,06,10,03,00,AAXX 10034 85586 NIL=
85586,2012,06,10,06,00,AAXX 10064 85586 NIL=
85586,2012,06,10,09,00,AAXX 10094 85586 NIL=
85586,2012,06,10,12,00,AAXX 10124 85586 11930 71203 10070 20056 40156 56006 60004 7102/ 80932 333 20066 31/// 50110 55000 56066 85365=
85586,2012,06,10,15,00,AAXX 10154 85586 41940 81202 10110 20069 40165 52009 70522 85032 333 56066 85365 83075=
85586,2012,06,10,18,00,AAXX 10184 85586 11950 72505 10158 20078 40133 58031 60001 70522 85032 333 56066 85365 83075=
85586,2012,06,10,21,00,AAXX 10214 85586 41950 72403 10134 20083 40125 55008 70522 80002 333 56006 87075=
85586,2012,06,11,00,00,AAXX 11004 85586 11930 40000 10080 20068 40143 52018 60001 71022 80002 333 10169 56006 84075=
85586,2012,06,11,03,00,AAXX 11034 85586 NIL=
85586,2012,06,11,06,00,AAXX 11064 85586 NIL=
85586,2012,06,11,09,00,AAXX 11094 85586 NIL=
85586,2012,06,11,12,00,AAXX 11124 85586 11940 60902 10066 20052 40134 56006 60004 7102/ 80002 333 20066 31/// 50120 55015 56006 86075=
85586,2012,06,11,15,00,AAXX 11154 85586 41950 81004 10118 20092 40131 56003 70522 85032 333 56066 85365 85075=
85586,2012,06,11,18,00,AAXX 11184 85586 11958 82604 10154 20085 40119 57012 60001 70522 83032 333 56077 83365 87075=
85586,2012,06,11,21,00,AAXX 11214 85586 41958 80000 10142 20076 40097 57022 70522 85032 333 56077 85365 85075=
85586,2012,06,12,00,00,AAXX 12004 85586 11958 80000 10104 20087 40094 56003 60001 70522 85053 333 10156 56077 85363 85072=
85586,2012,06,12,03,00,AAXX 12034 85586 NIL=
85586,2012,06,12,06,00,AAXX 12064 85586 NIL=
85586,2012,06,12,09,00,AAXX 12094 85586 NIL=
85586,2012,06,12,12,00,AAXX 12124 85586 NIL=
85586,2012,06,12,15,00,AAXX 12154 85586 41658 83508 10140 20124 40127 52005 76362 8853/ 333 56779 84633 88358=
85586,2012,06,12,18,00,AAXX 12184 85586 11658 70207 10146 20140 40129 54001 60041 76362 87400 333 56100 87633=
85586,2012,06,12,21,00,AAXX 12214 85586 41420 80606 10134 20122 40177 57012 76362 884// 333 56199 88610=
85586,2012,06,13,00,00,AAXX 13004 85586 11440 80405 10140 20126 40132 53005 60121 76066 885// 333 10156 56799 88610=
85586,2012,06,13,03,00,AAXX 13034 85586 NIL=
85586,2012,06,13,06,00,AAXX 13064 85586 NIL=
85586,2012,06,13,09,00,AAXX 13094 85586 NIL=
85586,2012,06,13,12,00,AAXX 13124 85586 11440 83314 10151 20143 40144 53008 60344 7606/ 8322/ 333 20147 32/// 50100 55000 56779 70339 83815 88458=
85586,2012,06,13,15,00,AAXX 13154 85586 41340 83010 10150 20137 40167 52023 76062 885// 333 56799 88608=
85586,2012,06,13,18,00,AAXX 13184 85586 11340 83210 10150 20138 40173 52006 60131 75052 885// 333 56799 85708 88615=
85586,2012,06,13,21,00,AAXX 13214 85586 41320 83507 10132 20122 40179 52007 71022 886// 333 56799 88707=
85586,2012,06,14,00,00,AAXX 14004 85586 11540 80000 10154 20143 40190 51009 60021 78066 882// 333 10157 56799 88820=
85586,2012,06,14,03,00,AAXX 14034 85586 NIL=
85586,2012,06,14,06,00,AAXX 14064 85586 NIL=
85586,2012,06,14,09,00,AAXX 14094 85586 NIL=
85586,2012,06,14,12,00,AAXX 14124 85586 11960 71404 10134 20124 40162 56012 60154 87030 333 20123 32/// 50100 55000 56070 70149 87362=
85586,2012,06,14,15,00,AAXX 14154 85586 41958 82204 10144 20130 40164 51003 70522 88031 333 56059 88360=
85586,2012,06,14,18,00,AAXX 14184 85586 11958 82004 10158 20147 40146 57013 60001 70522 8803/ 333 56059 88360=
85586,2012,06,14,21,00,AAXX 14214 85586 41958 62303 10154 20143 40155 52008 70522 86030 333 56050 86362=
85586,2012,06,15,00,00,AAXX 15004 85586 11956 81106 10146 20132 40163 51007 60001 70522 8803/ 333 10166 56069 88362=
85586,2012,06,15,03,00,AAXX 15034 85586 NIL=
85586,2012,06,15,06,00,AAXX 15064 85586 NIL=
85586,2012,06,15,09,00,AAXX 15094 85586 NIL=
85586,2012,06,15,12,00,AAXX 15124 85586 11203 80905 10132 20124 40160 52017 69914 7462/ 886// 333 20118 31/// 50100 55000 56700 70001 88703=
85586,2012,06,15,15,00,AAXX 15154 85586 41330 82705 10144 20132 40162 51003 71022 8863/ 333 56699 82707 88357=
85586,2012,06,15,18,00,AAXX 15184 85586 11320 83503 10146 20135 40169 52007 60001 71022 886// 333 56799 88708=
85586,2012,06,15,21,00,AAXX 15214 85586 41410 81002 10140 20130 40182 52014 76062 885// 333 56299 88612=
85586,2012,06,16,00,00,AAXX 16004 85586 11558 73007 10146 20123 40175 56009 69981 72588 8123/ 333 10154 56760 81820 87358=
85586,2012,06,16,03,00,AAXX 16034 85586 NIL=
85586,2012,06,16,06,00,AAXX 16064 85586 NIL=
85586,2012,06,16,09,00,AAXX 16094 85586 NIL=
85586,2012,06,16,12,00,AAXX 16124 85586 11420 80702 10132 20125 40154 56007 60224 7606/ 8553/ 333 20124 32/// 50060 55000 56769 70222 85615 88358=
85586,2012,06,16,15,00,AAXX 16154 85586 41457 80702 10148 20139 40152 53002 70266=
85586,2012,06,16,18,00,AAXX 16184 85586 11460 73308 10180 20153 40136 58019 60011 70262 84830 333 56770 81810 84613 85359=
85586,2012,06,16,21,00,AAXX 16214 85586 42460 73205 10164 20141 40127 57009 83830 333 56779 81810 83620 86360=
85586,2012,06,17,00,00,AAXX 17004 85586 11550 83606 10150 20124 40125 56002 60011 76062 8353/ 333 10180 56709 83620 88359=
85586,2012,06,17,03,00,AAXX 17034 85586 NIL=
85586,2012,06,17,06,00,AAXX 17064 85586 NIL=
85586,2012,06,17,09,00,AAXX 17094 85586 NIL=
85586,2012,06,17,12,00,AAXX 17124 85586 11550 80807 10118 20111 40141 52010 60204 7606/ 8553/ 333 20118 32/// 50080 55003 56119 70197 85620 88357=
85586,2012,06,17,15,00,AAXX 17154 85586 41560 80609 10128 20115 40164 52022 76066=
85586,2012,06,17,18,00,AAXX 17184 85586 11560 80703 10138 20121 40161 58003 60091 76366 8553/ 333 56119 85630 86358=
85586,2012,06,17,21,00,AAXX 17214 85586 41560 80307 10138 20111 40161 54000 76066=
85586,2012,06,18,00,00,AAXX 18004 85586 11560 80206 10130 20091 40170 52009 60031 70266 8353/ 333 10152 56119 83630 88360=
85586,2012,06,18,03,00,AAXX 18034 85586 NIL=
85586,2012,06,18,06,00,AAXX 18064 85586 NIL=
85586,2012,06,18,09,00,AAXX 18094 85586 NIL=
85586,2012,06,18,12,00,AAXX 18124 85586 11560 60202 10140 20123 40170 52006 60134 7026/ 85530 333 20136 32/// 50090 55000 56660 70130 85525=
85586,2012,06,18,15,00,AAXX 18154 85586 42460 43206 10170 20126+ 40179 52009 84501 333 56606 84617=
85586,2012,06,18,18,00,AAXX 18184 85586 12460 52808 10164 20137 40171 58008 60001 85500 333 56600 83617 83625=
85586,2012,06,18,21,00,AAXX 18214 85586 42460 52303 10146 20129 40175 53004 85500 333 56600 83615 83625=
85586,2012,06,19,00,00,AAXX 19004 85586 12460 70000 10127 20118 40177 53002 60001 87500 333 10176 56600 88715=
85586,2012,06,19,03,00,AAXX 19034 85586 NIL=
85586,2012,06,19,06,00,AAXX 19064 85586 NIL=
85586,2012,06,19,09,00,AAXX 19094 85586 NIL=
85586,2012,06,19,12,00,AAXX 19124 85586 11460 70000 10121 20105 40222 52026 60004 81130 333 20102 31/// 50100 55050 56760 81815 87362=
85586,2012,06,19,15,00,AAXX 19154 85586 42460 72205 10134 20107 40242 52020 82530 333 56760 82615 85362=
85586,2012,06,19,18,00,AAXX 19184 85586 12460 72307 10144 20113 40239 58003 60001 82530 333 56760 82615 85362=
85586,2012,06,19,21,00,AAXX 19214 85586 42460 32206 10134 20103 40244 53005 81530 333 56670 82615 81362=
85586,2012,06,20,00,00,AAXX 20004 85586 12956 41204 10107 20082 40251 53006 60001 70511 80001 333 10153 56006 84075=
85586,2012,06,20,03,00,AAXX 20034 85586 NIL=
85586,2012,06,20,06,00,AAXX 20064 85586 NIL=
85586,2012,06,20,09,00,AAXX 20094 85586 NIL=
85586,2012,06,20,12,00,AAXX 20124 85586 11460 80604 10086 20076 40233 56006 60004 885// 333 20054 31/// 50100 55014 56799 88615=
85586,2012,06,20,15,00,AAXX 20154 85586 42558 80000 10114 20099 40247 53012 78022 882// 333 56799 88820=
85586,2012,06,20,18,00,AAXX 20184 85586 11458 83205 10140 20126 40236 57010 70522 885// 333 56799 83815 88630=
85586,2012,06,20,21,00,AAXX 20214 85586 41450 82707 10130 20120 40221 57010 76162 881// 333 56699 88817=
85586,2012,06,21,00,00,AAXX 21004 85586 12556 80000 10119 20104 40247 53020 60061 78088 882// 333 10142 56799 88820=
85586,2012,06,21,03,00,AAXX 21034 85586 NIL=
85586,2012,06,21,06,00,AAXX 21064 85586 NIL=
85586,2012,06,21,09,00,AAXX 21094 85586 NIL=
85586,2012,06,21,12,00,AAXX 21124 85586 11208 81108 10087 20075 40261 56006 60074 7460/ 886// 333 20073 32/// 50100 55000 56799 88704=
85586,2012,06,21,15,00,AAXX 21154 85586 42960 21207 10114 20094 40269 52009 80001 333 56003 82070=
85586,2012,06,21,18,00,AAXX 21184 85586 12960 01804 10154 20097 40245 57022 60001=
85586,2012,06,21,21,00,AAXX 21214 85586 42960 02404 10142 20095 40230 57016=
85586,2012,06,22,00,00,AAXX 22004 85586 12956 81704 10086 20064 40247 53017 60001 70500 333 10156=
85586,2012,06,22,03,00,AAXX 22034 85586 NIL=
85586,2012,06,22,06,00,AAXX 22064 85586 NIL=
85586,2012,06,22,09,00,AAXX 22094 85586 NIL=
85586,2012,06,22,12,00,AAXX 22124 85586 11950 31205 10054 20045 40231 56002 60004 71011 80001 333 20040 31/// 50120 55078 56006 83075=
85586,2012,06,22,15,00,AAXX 22154 85586 42960 41004 10112 20100 40231 51002 80001 333 56005 84070=
85586,2012,06,22,18,00,AAXX 22184 85586 12960 50903 10154 20088 40226 57006 60001 80001 333 56005 85070=
85586,2012,06,22,21,00,AAXX 22214 85586 42960 01804 10150 20080 40220 57005 80001 333 56005 85070=
85586,2012,06,23,00,00,AAXX 23004 85586 12960 41503 10090 20074 40232 52013 60001 80001 333 10168 56006 84075=
85586,2012,06,23,03,00,AAXX 23034 85586 NIL=
85586,2012,06,23,06,00,AAXX 23064 85586 NIL=
85586,2012,06,23,09,00,AAXX 23094 85586 NIL=
85586,2012,06,23,12,00,AAXX 23124 85586 12960 11202 10070 20060 40209 56004 60004 81075 333 20062 31/// 50110 55070 56006 81075=
85586,2012,06,23,15,00,AAXX 23154 85586 42960 11203 10168 20104 40218 52009 80001 333 56006 81075=
85586,2012,06,23,18,00,AAXX 23184 85586 12960 12307 10158 20082 40201 58017 60001 80002 333 56006 81075=
85586,2012,06,23,21,00,AAXX 23214 85586 42960 02304 10164 20121 40196 55005=
85586,2012,06,24,00,00,AAXX 24004 85586 12960 01503 10106 20085 40197 54001 60001 333 10182=
85586,2012,06,24,03,00,AAXX 24034 85586 NIL=
85586,2012,06,24,06,00,AAXX 24064 85586 NIL=
85586,2012,06,24,09,00,AAXX 24094 85586 NIL=
85586,2012,06,24,12,00,AAXX 24124 85586 NIL=
85586,2012,06,24,15,00,AAXX 24154 85586 42960 11507 10140 20069 40227 52009 80001 333 56006 81075=
85586,2012,06,24,18,00,AAXX 24184 85586 12960 11809 10184 20068 40213 57013 60001 80001 333 56006 81075=
85586,2012,06,24,21,00,AAXX 24214 85586 42960 01707 10182 20061 40210 56004=
85586,2012,06,25,00,00,AAXX 25004 85586 12960 01903 10125 20088 40216 53006 60001 333 10194=
85586,2012,06,25,03,00,AAXX 25034 85586 NIL=
85586,2012,06,25,06,00,AAXX 25064 85586 NIL=
85586,2012,06,25,09,00,AAXX 25094 85586 NIL=
85586,2012,06,25,12,00,AAXX 25124 85586 12960 01105 10069 20059 40187 57024 60004 333 20039 31/// 50110 55085=
85586,2012,06,25,15,00,AAXX 25154 85586 42960 01505 10142 20084 40176 56009=
85586,2012,06,25,18,00,AAXX 25184 85586 12960 02306 10146 20101 40166 58010 60001=
85586,2012,06,25,21,00,AAXX 25214 85586 42960 00204 10153 20086 40157 58009=
85586,2012,06,26,00,00,AAXX 26004 85586 12960 00000 10082 20066 40156 55001 60001 70500 333 10173=
85586,2012,06,26,03,00,AAXX 26034 85586 NIL=
85586,2012,06,26,06,00,AAXX 26064 85586 NIL=
85586,2012,06,26,09,00,AAXX 26094 85586 NIL=
85586,2012,06,26,12,00,AAXX 26124 85586 12208 83504 10103 20090 40171 53014 60004 7424/ 886// 333 20048 31/// 50130 55089 56799 88704=
85586,2012,06,26,15,00,AAXX 26154 85586 41215 80303 10102 20092 40184 52014 71022 886// 333 56199 88706=
85586,2012,06,26,18,00,AAXX 26184 85586 11420 83308 10114 20104 40194 52010 60001 71022 886// 333 56799 88710=
85586,2012,06,26,21,00,AAXX 26214 85586 41430 82804 10112 20093 40175 57019 71022 886// 333 56699 88710=
85586,2012,06,27,00,00,AAXX 27004 85586 12456 80204 10126 20084 40188 53012 60001 70522 333 10128 56799 88612=
85586,2012,06,27,03,00,AAXX 27034 85586 NIL=
85586,2012,06,27,06,00,AAXX 27064 85586 NIL=
85586,2012,06,27,09,00,AAXX 27094 85586 NIL=
85586,2012,06,27,12,00,AAXX 27124 85586 12760 80607 10126 20085 40192 53012 60004 8803/ 333 20123 31/// 50140 55002 56069 88358=
85586,2012,06,27,15,00,AAXX 27154 85586 42560 80206 10148 20078 40210 52017 8853/ 333 562// 84630 88358=
85586,2012,06,27,18,00,AAXX 27184 85586 12760 83204 10150 20075 40200 57010 60001 885// 333 56799 88650=
85586,2012,06,27,21,00,AAXX 27214 85586 42560 70903 10140 20090 40192 57007 87500 333 56400 87630=
85586,2012,06,28,00,00,AAXX 28004 85586 12556 82604 10133 20098 40209 53016 60001 70522 885// 333 10156 56799 88630=
85586,2012,06,28,03,00,AAXX 28034 85586 NIL=
85586,2012,06,28,06,00,AAXX 28064 85586 NIL=
85586,2012,06,28,09,00,AAXX 28094 85586 NIL=
85586,2012,06,28,12,00,AAXX 28124 85586 11550 80805 10106 20068 40199 52005 69904 7602/ 8153/ 333 20100 31/// 50120 55000 56779 70000 81630 88359=
85586,2012,06,28,15,00,AAXX 28154 85586 41550 70903 10122 20098 40205 52005 70522 87530 333 56220 83630 87358=
85586,2012,06,28,18,00,AAXX 28184 85586 11830 83504 10122 20114 40207 54002 60011 76162 8803/ 333 56079 88357=
85586,2012,06,28,21,00,AAXX 28214 85586 41830 81008 10118 20110 40191 57015 70562 8803/ 333 56049 88357=
85586,2012,06,29,00,00,AAXX 29004 85586 11920 82403 10118 20109 40198 52007 60031 76366 8803/ 333 10132 56009 88759=
85586,2012,06,29,03,00,AAXX 29034 85586 NIL=
85586,2012,06,29,06,00,AAXX 29064 85586 NIL=
85586,2012,06,29,09,00,AAXX 29094 85586 NIL=
85586,2012,06,29,12,00,AAXX 29124 85586 11660 70000 10106 20098 40196 56004 60154 7216/ 82530 333 20099 31/// 50090 55000 56660 70146 82633 87359=
85586,2012,06,29,15,00,AAXX 29154 85586 42660 62204 10142 20120 40197 54002 86430 333 56550 83640 85358=
85586,2012,06,29,18,00,AAXX 29184 85586 11858 63003 10142 20132 40187 57010 69941 76162 86030 333 56070 86357=
85586,2012,06,29,21,00,AAXX 29214 85586 41558 80000 10140 20130 40175 56002 70522 881// 333 56599 88830=
85586,2012,06,30,00,00,AAXX 30004 85586 11420 81202 10128 20119 40179 57006 60031 71062 885// 333 10170 56099 88610=
85586,2012,06,30,03,00,AAXX 30034 85586 NIL=
85586,2012,06,30,06,00,AAXX 30064 85586 NIL=
85586,2012,06,30,09,00,AAXX 30094 85586 NIL=
85586,2012,06,30,12,00,AAXX 30124 85586 11106 80000 10136 20127 40158 57007 60054 7466/ 886// 333 20126 31/// 50070 55000 56099 70046 88703=
85586,2012,06,30,15,00,AAXX 30154 85586 41209 80000 10138 20129 40158 54000 74644 886// 333 56099 88704=
85586,2012,06,30,18,00,AAXX 30184 85586 11430 80000 10136 20127 40157 54001 60021 76064 888// 333 56699 81810 83615 88630=
85586,2012,06,30,21,00,AAXX 30214 85586 41330 80000 10140 20132 40143 57013 71062 885// 333 56099 85708 88615=
85586,2012,07,01,00,00,AAXX 01004 85586 11520 83305 10136 20127 40155 53011 60011 76062 8553/ 333 10141 56609 85626 88358=
85586,2012,07,01,03,00,AAXX 01034 85586 NIL=
85586,2012,07,01,06,00,AAXX 01064 85586 NIL=
85586,2012,07,01,09,00,AAXX 01094 85586 NIL=
85586,2012,07,01,12,00,AAXX 01124 85586 11920 80000 10117 20107 40204 51014 60064 7102/ 8803/ 333 20113 32/// 50110 55000 56069 70060 88362=
85586,2012,07,01,15,00,AAXX 01154 85586 41460 80000 10142 20123 40214 51010 8213/ 333 56769 82815 88362=
85586,2012,07,01,18,00,AAXX 01184 85586 12460 82604 10153 20108 40209 58005 60001 8113/ 333 56769 81815 88662=
85586,2012,07,01,21,00,AAXX 01214 85586 41460 80000 10141 20115 40213 53004 8113/ 333 56769 81815 88362=
85586,2012,07,02,00,00,AAXX 02004 85586 11958 82010 10123 20092 40235 52022 60001 70522 8803/ 333 10149 56079 88362=
85586,2012,07,02,03,00,AAXX 02034 85586 NIL=
85586,2012,07,02,06,00,AAXX 02064 85586 NIL=
85586,2012,07,02,09,00,AAXX 02094 85586 NIL=
85586,2012,07,02,12,00,AAXX 02124 85586 12960 21709 10074 20030 40264 52027 60004 82030 333 20072 31/// 50140 55000 56060 82365=
85586,2012,07,02,15,00,AAXX 02154 85586 41960 01515 10101 20010 40264 51002 81030 333 56060 81365=
85586,2012,07,02,18,00,AAXX 02184 85586 12960 01614 10124 20004 40246 58019 60001=
85586,2012,07,02,21,00,AAXX 02214 85586 41960 01811 10113 20005 40241 56005=
85586,2012,07,03,00,00,AAXX 03004 85586 11960 01404 10073 21014 40253 53011 60001 333 10133=
85586,2012,07,03,03,00,AAXX 03034 85586 NIL=
85586,2012,07,03,06,00,AAXX 03064 85586 NIL=
85586,2012,07,03,09,00,AAXX 03094 85586 NIL=
85586,2012,07,03,12,00,AAXX 03124 85586 12960 01905 10024 21014 40220 57018 60004 333 20018 34/// 50140 55083=
85586,2012,07,03,15,00,AAXX 03154 85586 41960 01612 10077 20010 40222 53002=
85586,2012,07,03,18,00,AAXX 03184 85586 12960 01616 10116 21002 40198 58022 60001=
85586,2012,07,03,21,00,AAXX 03214 85586 41960 01708 10113 20014 40189 56009=
85586,2012,07,04,00,00,AAXX 04004 85586 11956 01404 10042 21003 40207 53015 60001 70500 333 10123=
85586,2012,07,04,03,00,AAXX 04034 85586 NIL=
85586,2012,07,04,06,00,AAXX 04064 85586 NIL=
85586,2012,07,04,09,00,AAXX 04094 85586 NIL=
85586,2012,07,04,12,00,AAXX 04124 85586 11940 21004 10012 21002 40230 52014 60004 7100/ 80002 333 20002 31/// 50130 55092 56006 82075=
85586,2012,07,04,15,00,AAXX 04154 85586 41556 80703 10084 20033 40241 52021 78022 8253/ 333 56609 82626 88360=
85586,2012,07,04,18,00,AAXX 04184 85586 12560 71206 10104 20084 40246 52004 60021 70222 87500 333 56300 87630=
85586,2012,07,04,21,00,AAXX 04214 85586 41558 81008 10110 20092 40246 54000 70522 885// 333 56599 88640=
85586,2012,07,05,00,00,AAXX 05004 85586 11556 81204 10080 20066 40256 52011 69911 71062 885// 333 10112 56099 88620=
85586,2012,07,05,03,00,AAXX 05034 85586 NIL=
85586,2012,07,05,06,00,AAXX 05064 85586 NIL=
85586,2012,07,05,09,00,AAXX 05094 85586 NIL=
85586,2012,07,05,12,00,AAXX 05124 85586 12560 81207 10050 20042 40216 56006 60024 8153/ 333 20050 31/// 50090 56009 56609 70017 81630 88360=
85586,2012,07,05,15,00,AAXX 05154 85586 42960 71603 10072 20054 40225 52009 87030 333 56060 87360=
85586,2012,07,05,18,00,AAXX 05184 85586 12960 31808 10092 20065 40225 54001 60001 83030 333 56040 83360=
85586,2012,07,05,21,00,AAXX 05214 85586 42960 20903 10110 20085 40216 57009 82030 333 56030 82360=
85586,2012,07,06,00,00,AAXX 06004 85586 12960 11402 10054 20030 40234 52019 60001 81030 333 10123 56060 81360=
85586,2012,07,06,03,00,AAXX 06034 85586 NIL=
85586,2012,07,06,06,00,AAXX 06064 85586 NIL=
85586,2012,07,06,09,00,AAXX 06094 85586 NIL=
85586,2012,07,06,12,00,AAXX 06124 85586 12660 71204 10032 20020 40234 52009 60004 81530 333 20032 31/// 50100 55043 56660 81640 87360=
85586,2012,07,06,15,00,AAXX 06154 85586 42960 40904 10072 20061 40255 52010 84030 333 56040 84360=
85586,2012,07,06,18,00,AAXX 06184 85586 12960 31503 10140 20080 40242 57013 60001 83030 333 56030 83360=
85586,2012,07,06,21,00,AAXX 06214 85586 42960 02005 10122 20058 40238 56003=
85586,2012,07,07,00,00,AAXX 07004 85586 12960 01804 10066 20029 40247 52008 60001 333 10142=
85586,2012,07,07,03,00,AAXX 07034 85586 NIL=
85586,2012,07,07,06,00,AAXX 07064 85586 NIL=
85586,2012,07,07,09,00,AAXX 07094 85586 NIL=
85586,2012,07,07,12,00,AAXX 07124 85586 12960 01105 10033 20004 40233 56012 60004 333 20023 34/// 50130 55072=
85586,2012,07,07,15,00,AAXX 07154 85586 42960 01605 10103 20037 40225 58007=
85586,2012,07,07,18,00,AAXX 07184 85586 12960 02409 10152 20059 40202 57023 60001=
85586,2012,07,07,21,00,AAXX 07214 85586 42960 22306 10134 20075 40187 56013 80001 333 56006 82075=
85586,2012,07,08,00,00,AAXX 08004 85586 12956 00000 10059 20046 40184 56005 60001 70500 333 10156=
85586,2012,07,08,03,00,AAXX 08034 85586 NIL=
85586,2012,07,08,06,00,AAXX 08064 85586 NIL=
85586,2012,07,08,09,00,AAXX 08094 85586 NIL=
85586,2012,07,08,12,00,AAXX 08124 85586 12960 01604 10021 21002 40173 56012 60004 333 20003 34/// 50140 55092=
85586,2012,07,08,15,00,AAXX 08154 85586 42956 01404 10103 20042 40162 56007 70500=
85586,2012,07,08,18,00,AAXX 08184 85586 12960 02407 10141 20079 40157 58011 60001=
85586,2012,07,08,21,00,AAXX 08214 85586 42960 02404 10138 20099 40151 55000=
85586,2012,07,09,00,00,AAXX 09004 85586 12940 00704 10084 20065 40158 53007 60001 70400 333 10156=
85586,2012,07,09,03,00,AAXX 09034 85586 NIL=
85586,2012,07,09,06,00,AAXX 09064 85586 NIL=
85586,2012,07,09,09,00,AAXX 09094 85586 NIL=
85586,2012,07,09,12,00,AAXX 09124 85586 12920 61104 10067 20059 40170 51000 7102/ 60004 86030 333 20049 31/// 50140 55093 56060 86362=
85586,2012,07,09,15,00,AAXX 09154 85586 42456 60000 10098 20081 40191 53012 70522 81530 333 56760 81615 86362=
85586,2012,07,09,18,00,AAXX 09184 85586 11757 72005 10124 20094 40195 52016 60001 70522 87030 333 56050 87356=
85586,2012,07,09,21,00,AAXX 09214 85586 41858 72003 10112 20089 40175 57020 70522 87030 333 56050 87358=
85586,2012,07,10,00,00,AAXX 10004 85586 12956 81504 10099 20073 40199 53023 60001 70522 8803/ 333 10144 56069 88362=
85586,2012,07,10,03,00,AAXX 10034 85586 NIL=
85586,2012,07,10,06,00,AAXX 10064 85586 NIL=
85586,2012,07,10,09,00,AAXX 10094 85586 NIL=
85586,2012,07,10,12,00,AAXX 10124 85586 12960 01403 10036 20022 40224 52009 60004 333 20036 31/// 50090 55015=
85586,2012,07,10,15,00,AAXX 10154 85586 42960 01506 10085 20052 40230 52006=
85586,2012,07,10,18,00,AAXX 10184 85586 12960 01807 10122 20072 40212 57018 60001=
85586,2012,07,10,21,00,AAXX 10214 85586 42960 02008 10135 20072 40202 57010=
85586,2012,07,11,00,00,AAXX 11004 85586 12960 01706 10080 20017 40204 53002 60001 333 10144=
85586,2012,07,11,03,00,AAXX 11034 85586 NIL=
85586,2012,07,11,06,00,AAXX 11064 85586 NIL=
85586,2012,07,11,09,00,AAXX 11094 85586 NIL=
85586,2012,07,11,12,00,AAXX 11124 85586 12960 10102 10030 20015 40206 52008 60004 80002 333 20004 31/// 50140 55088 56006 81075=
85586,2012,07,11,15,00,AAXX 11154 85586 42960 11805 10100 20033 40230 52024 80002 333 56006 81072=
85586,2012,07,11,18,00,AAXX 11184 85586 12960 12605 10136 20045 40225 58005 60001 80002 333 56006 81075=
85586,2012,07,11,21,00,AAXX 11214 85586 42960 32306 10136 20069 40225 54000 80001 333 56006 83075=
85586,2012,07,12,00,00,AAXX 12004 85586 12960 31904 10084 20030 40236 52011 60001 80001 333 10151 56006 83075=
85586,2012,07,12,03,00,AAXX 12034 85586 NIL=
85586,2012,07,12,06,00,AAXX 12064 85586 NIL=
85586,2012,07,12,09,00,AAXX 12094 85586 NIL=
85586,2012,07,12,12,00,AAXX 12124 85586 12960 01505 10060 20042 40220 57004 60004 333 20036 31/// 50120 55087=
85586,2012,07,12,15,00,AAXX 12154 85586 42960 01805 10110 20060 40212 57007=
85586,2012,07,12,18,00,AAXX 12184 85586 12960 01907 10168 20058 40196 57016 60001=
85586,2012,07,12,21,00,AAXX 12214 85586 42960 01707 10160 20082 40173 57024=
85586,2012,07,13,00,00,AAXX 13004 85586 12960 01804 10110 20023 40166 57007 60001 333 10190=
85586,2012,07,13,03,00,AAXX 13034 85586 NIL=
85586,2012,07,13,06,00,AAXX 13064 85586 NIL=
85586,2012,07,13,09,00,AAXX 13094 85586 NIL=
85586,2012,07,13,12,00,AAXX 13124 85586 12960 01404 10064 20043 40131 56012 60004 333 20042 31/// 50150 55091=
85586,2012,07,13,15,00,AAXX 13154 85586 42960 01805 10150 20050 40131 52003=
85586,2012,07,13,18,00,AAXX 13184 85586 12960 01507 10190 20042 40120 57013 60001=
85586,2012,07,13,21,00,AAXX 13214 85586 42960 02704 10170 20050 40100 57018=
85586,2012,07,14,00,00,AAXX 14004 85586 12958 00504 10104 20091 40139 53024 60001 70500 333 10192=
85586,2012,07,14,03,00,AAXX 14034 85586 NIL=
85586,2012,07,14,06,00,AAXX 14064 85586 NIL=
85586,2012,07,14,09,00,AAXX 14094 85586 NIL=
85586,2012,07,14,12,00,AAXX 14124 85586 12560 83507 10119 20087 40172 53018 60004 885// 333 20047 31/// 50150 55093 56899 88625=
85586,2012,07,14,15,00,AAXX 14154 85586 42560 83605 10138 20084 40195 52023 885// 333 56899 88625=
85586,2012,07,14,18,00,AAXX 14184 85586 12560 83310 10139 20090 40194 51001 60001 885// 333 56799 88620=
85586,2012,07,14,21,00,AAXX 14214 85586 42560 83412 10143 20084 40217 53023 885// 333 56799 82615 88625=
85586,2012,07,15,00,00,AAXX 15004 85586 12556 80105 10136 20081 40236 53019 60001 70522 885// 333 10192 56799 88625=
85586,2012,07,15,03,00,AAXX 15034 85586 NIL=
85586,2012,07,15,06,00,AAXX 15064 85586 NIL=
85586,2012,07,15,09,00,AAXX 15094 85586 NIL=
85586,2012,07,15,12,00,AAXX 15124 85586 12960 01104 10054 20042 40264 52024 60004 333 20051 31/// 50150 55000=
85586,2012,07,15,15,00,AAXX 15154 85586 42958 00000 10149 20097 40270 51008 70500=
85586,2012,07,15,18,00,AAXX 15184 85586 12958 02311 10144 20098 40254 58016 60001 70500=
85586,2012,07,15,21,00,AAXX 15214 85586 42960 02312 10132 20106 40244 56010=
85586,2012,07,16,00,00,AAXX 16004 85586 12956 00000 10103 20086 40255 53011 60001 70500 333 10165=
85586,2012,07,16,03,00,AAXX 16034 85586 NIL=
85586,2012,07,16,06,00,AAXX 16064 85586 NIL=
85586,2012,07,16,09,00,AAXX 16094 85586 NIL=
85586,2012,07,16,12,00,AAXX 16124 85586 11940 11004 10056 20047 40231 55006 60004 7100/ 80001 333 20046 31/// 50130 55085 56006 81075=
85586,2012,07,16,15,00,AAXX 16154 85586 42960 01204 10124 20078 40231 54000=
85586,2012,07,16,18,00,AAXX 16184 85586 12960 01204 10190 20077 40198 57033 60001=
85586,2012,07,16,21,00,AAXX 16214 85586 42960 02310 10152 20108 40192 55006=
85586,2012,07,17,00,00,AAXX 17004 85586 12960 00000 10092 20080 40186 57006 60001 333 10196=
85586,2012,07,17,03,00,AAXX 17034 85586 NIL=
85586,2012,07,17,06,00,AAXX 17064 85586 NIL=
85586,2012,07,17,09,00,AAXX 17094 85586 NIL=
85586,2012,07,17,12,00,AAXX 17124 85586 12960 01804 10076 20047 40148 57005 60004 80001 333 20044 31/// 50150 55090 56006 83075=
85586,2012,07,17,15,00,AAXX 17154 85586 42960 51005 10142 20122 40166 52019 80001 333 56005 85070=
85586,2012,07,17,18,00,AAXX 17184 85586 12960 02205 10174 20094 40149 57017 60001=
85586,2012,07,17,21,00,AAXX 17214 85586 42960 02503 10152 20104 40159 52010=
85586,2012,07,18,00,00,AAXX 18004 85586 NIL=
85586,2012,07,18,03,00,AAXX 18034 85586 NIL=
85586,2012,07,18,06,00,AAXX 18064 85586 NIL=
85586,2012,07,18,09,00,AAXX 18094 85586 NIL=
85586,2012,07,18,12,00,AAXX 18124 85586 12960 51802 10070 20062 40173 57006 60004 80001 333 20048 31/// 50160 55091 56006 85075=
85586,2012,07,18,15,00,AAXX 18154 85586 42960 02204 10172 20075 40175 51003=
85586,2012,07,18,18,00,AAXX 18184 85586 12960 01910 10214 20082 40177 54002 60001=
85586,2012,07,18,21,00,AAXX 18214 85586 42960 02803 10168 20119 40138 57029=
85586,2012,07,19,00,00,AAXX 19004 85586 12960 00000 10108 20100 40157 52017 60001 333 10223=
85586,2012,07,19,03,00,AAXX 19034 85586 NIL=
85586,2012,07,19,06,00,AAXX 19064 85586 NIL=
85586,2012,07,19,09,00,AAXX 19094 85586 NIL=
85586,2012,07,19,12,00,AAXX 19124 85586 12208 80000 10073 20061 40172 53011 60004 7462/ 886// 333 20068 31/// 50140 55076 56799 88704=
85586,2012,07,19,15,00,AAXX 19154 85586 42950 70804 10121 20112 40175 51003 70544 87030 333 56060 88365=
85586,2012,07,19,18,00,AAXX 19184 85586 12240 73104 10148 20099 40172 58002 60001 70544 82601 333 56706 82704 87075=
85586,2012,07,19,21,00,AAXX 19214 85586 42958 70000 10126 20091 40174 55001 70511 80001 333 56006 87075=
85586,2012,07,20,00,00,AAXX 20004 85586 12960 00000 10084 20060 40183 53007 60001 70511 80001 333 10150 56006 87075=
85586,2012,07,20,03,00,AAXX 20034 85586 NIL=
85586,2012,07,20,06,00,AAXX 20064 85586 NIL=
85586,2012,07,20,09,00,AAXX 20094 85586 NIL=
85586,2012,07,20,12,00,AAXX 20124 85586 12203 80904 10064 20055 40174 53008 60004 7464/ 886// 333 20034 31/// 50120 55038 56799 88704=
85586,2012,07,20,15,00,AAXX 20154 85586 41215 31206 10102 20088 40180 52010 71020 83600 333 56300 83706=
85586,2012,07,20,18,00,AAXX 20184 85586 12950 52204 10128 20107 40177 56004 60001 70522 80001 333 56006 85073=
85586,2012,07,20,21,00,AAXX 20214 85586 42958 02204 10130 20097 40166 57011 70522 80001 333 56005 85073=
85586,2012,07,21,00,00,AAXX 21004 85586 12256 40000 10083 20065 40188 53020 60001 70511 83600 333 10136 56700 84704=
85586,2012,07,21,03,00,AAXX 21034 85586 NIL=
85586,2012,07,21,06,00,AAXX 21064 85586 NIL=
85586,2012,07,21,09,00,AAXX 21094 85586 NIL=
85586,2012,07,21,12,00,AAXX 21124 85586 12960 40000 10051 20032 40193 50000 60004 82031 333 20048 31/// 50130 55056 56066 82365 82075=
85586,2012,07,21,15,00,AAXX 21154 85586 41860 80000 10109 20089 40201 53011 8803/ 333 56069 88358=
85586,2012,07,21,18,00,AAXX 21184 85586 12960 72704 10139 20092 40194 58007 60001 87030 333 56060 87362=
85586,2012,07,21,21,00,AAXX 21214 85586 42860 72404 10131 20104 40194 55000 87030 333 56060 87358=
85586,2012,07,22,00,00,AAXX 22004 85586 12956 40000 10114 20093 40203 53009 60001 70511 84030 333 10141 56060 84362=
85586,2012,07,22,03,00,AAXX 22034 85586 NIL=
85586,2012,07,22,06,00,AAXX 22064 85586 NIL=
85586,2012,07,22,09,00,AAXX 22094 85586 NIL=
85586,2012,07,22,12,00,AAXX 22124 85586 11908 31204 10051 20042 40196 55003 60004 7460/ 80001 333 20030 31/// 50130 55012 56006 83075=
85586,2012,07,22,15,00,AAXX 22154 85586 41950 50000 10108 20098 40203 52007 71022 80001 333 56006 85075=
85586,2012,07,22,18,00,AAXX 22184 85586 11256 62407 10120 20098 40194 58009 71022 84601 333 56606 84605 85075=
85586,2012,07,22,21,00,AAXX 22214 85586 41957 52704 10128 20098 40181 57013 70522 80001 333 56006 85075=
85586,2012,07,23,00,00,AAXX 23004 85586 11957 50000 10080 20070 40185 53004 60001 70522 80001 333 10140 56006 85075=
85586,2012,07,23,03,00,AAXX 23034 85586 NIL=
85586,2012,07,23,06,00,AAXX 23064 85586 NIL=
85586,2012,07,23,09,00,AAXX 23094 85586 NIL=
85586,2012,07,23,12,00,AAXX 23124 85586 11958 71004 10042 20033 40213 57003 60004 7052/ 84031 333 20020 31/// 50140 55073 56066 85065 83075=
85586,2012,07,23,15,00,AAXX 23154 85586 41958 60902 10110 20083 40234 52021 70522 86030 333 56060 86366=
85586,2012,07,23,18,00,AAXX 23184 85586 11958 62605 10150 20089 40230 58004 60001 70522 86030 333 56060 86366=
85586,2012,07,23,21,00,AAXX 23214 85586 41958 72306 10120 20076 40241 52011 70522 87030 333 56060 87366=
85586,2012,07,24,00,00,AAXX 24004 85586 11558 70000 10105 20094 40252 52011 60001 70522 82530 333 10154 56660 82630 87365=
85586,2012,07,24,03,00,AAXX 24034 85586 NIL=
85586,2012,07,24,06,00,AAXX 24064 85586 NIL=
85586,2012,07,24,09,00,AAXX 24094 85586 NIL=
85586,2012,07,24,12,00,AAXX 24124 85586 12960 11603 10030 20022 40237 56002 60004 81030 333 20030 31/// 50110 55026 56060 81365=
85586,2012,07,24,15,00,AAXX 24154 85586 42960 02005 10142 20097 40261 52025=
85586,2012,07,24,18,00,AAXX 24184 85586 12960 01807 10160 20075 40249 57012 60001=
85586,2012,07,24,21,00,AAXX 24214 85586 42960 02507 10130 20100 40231 57018=
85586,2012,07,25,00,00,AAXX 25004 85586 12960 01802 10066 20052 40233 53001 60001 333 10162=
85586,2012,07,25,03,00,AAXX 25034 85586 NIL=
85586,2012,07,25,06,00,AAXX 25064 85586 NIL=
85586,2012,07,25,09,00,AAXX 25094 85586 NIL=
85586,2012,07,25,12,00,AAXX 25124 85586 12958 00000 10103 21018 40210 56012 60004 7050/ 333 21009 34/// 50140 55073=
85586,2012,07,25,15,00,AAXX 25154 85586 42540 31804 10084 20058 40212 51005 70500 83600 333 56700 83704=
85586,2012,07,25,18,00,AAXX 25184 85586 12960 02308 10140 20104 56008 60001=
85586,2012,07,25,21,00,AAXX 25214 85586 42960 02208 10106 20056 40193 57008=
85586,2012,07,26,00,00,AAXX 26004 85586 11956 01804 10049 20031 40206 53009 60001 70500 333 10142=
85586,2012,07,26,03,00,AAXX 26034 85586 NIL=
85586,2012,07,26,06,00,AAXX 26064 85586 NIL=
85586,2012,07,26,09,00,AAXX 26094 85586 NIL=
85586,2012,07,26,12,00,AAXX 26124 85586 12960 01104 11003 21016 40216 53004 60004 333 21005 34/// 50140 55083=
85586,2012,07,26,15,00,AAXX 26154 85586 42960 01505 10108 20039 40234 52020=
85586,2012,07,26,18,00,AAXX 26184 85586 12960 02411 10129 20068 40209 58024 60001=
85586,2012,07,26,21,00,AAXX 26214 85586 42960 02508 10120 20078 40206 56003=
85586,2012,07,27,00,00,AAXX 27004 85586 11956 00000 10071 20052 40222 53014 60001 70500 333 10144=
85586,2012,07,27,03,00,AAXX 27034 85586 NIL=
85586,2012,07,27,06,00,AAXX 27064 85586 NIL=
85586,2012,07,27,09,00,AAXX 27094 85586 NIL=
85586,2012,07,27,12,00,AAXX 27124 85586 12960 00000 10016 20004 40201 55000 60004 333 20014 34/// 50140 55087=
85586,2012,07,27,15,00,AAXX 27154 85586 42960 02704 10104 20050 40193 56003=
85586,2012,07,27,18,00,AAXX 27184 85586 12960 02010 10154 20035 40174 57019 60001=
85586,2012,07,27,21,00,AAXX 27214 85586 42960 02406 10134 20091 40165 57009=
85586,2012,07,28,00,00,AAXX 28004 85586 11956 01807 10067 20040 40183 53016 60001 70500 333 10156=
85586,2012,07,28,03,00,AAXX 28034 85586 NIL=
85586,2012,07,28,06,00,AAXX 28064 85586 NIL=
85586,2012,07,28,09,00,AAXX 28094 85586 NIL=
85586,2012,07,28,12,00,AAXX 28124 85586 12960 00000 10106 21015 40197 52012 60004 333 21006 31/// 50130 55094=
85586,2012,07,28,15,00,AAXX 28154 85586 42960 01002 10096 20028 40218 52021=
85586,2012,07,28,18,00,AAXX 28184 85586 12960 02707 10121 20042 40214 58004 60001=
85586,2012,07,28,21,00,AAXX 28214 85586 42960 02404 10126 20074 40218 53004=
85586,2012,07,29,00,00,AAXX 29004 85586 12960 00000 10060 20046 40239 52011 60001 333 10132=
85586,2012,07,29,03,00,AAXX 29034 85586 NIL=
85586,2012,07,29,06,00,AAXX 29064 85586 NIL=
85586,2012,07,29,09,00,AAXX 29094 85586 NIL=
85586,2012,07,29,12,00,AAXX 29124 85586 12960 01605 10044 20028 40216 54000 60004 333 20034 31/// 50130 55094=
85586,2012,07,29,15,00,AAXX 29154 85586 42960 01405 10104 20041 40212 58004=
85586,2012,07,29,18,00,AAXX 29184 85586 12960 02009 10150 20039 40189 57023 60001=
85586,2012,07,29,21,00,AAXX 29214 85586 42960 02306 10114 20045 40186 56003=
85586,2012,07,30,00,00,AAXX 30004 85586 12960 00000 10040 20021 40190 52004 60001 333 10152=
85586,2012,07,30,03,00,AAXX 30034 85586 NIL=
85586,2012,07,30,06,00,AAXX 30064 85586 NIL=
85586,2012,07,30,09,00,AAXX 30094 85586 NIL=
85586,2012,07,30,12,00,AAXX 30124 85586 12960 01204 10002 21015 40154 56007 60004 333 21014 34/// 50160 55093=
85586,2012,07,30,15,00,AAXX 30154 85586 42960 02703 10098 20043 40164 57011=
85586,2012,07,30,18,00,AAXX 30184 85586 12960 43007 10122 20052 40174 52010 60001 80001 333 56006 84073=
85586,2012,07,30,21,00,AAXX 30214 85586 41957 63207 10106 20058 40175 54001 70522 86030 333 56070 86360=
85586,2012,07,31,00,00,AAXX 31004 85586 12960 73107 10094 20074 40191 52015 60001 87030 333 10124 56070 87360=
85586,2012,07,31,03,00,AAXX 31034 85586 NIL=
85586,2012,07,31,06,00,AAXX 31064 85586 NIL=
85586,2012,07,31,09,00,AAXX 31094 85586 NIL=
85586,2012,07,31,12,00,AAXX 31124 85586 12558 80104 10116 20058 40220 52022 60004 7052/ 886// 333 20066 31/// 50140 55064=
85586,2012,07,31,15,00,AAXX 31154 85586 42558 73510 10131 20057 40215 58004 70522 87500 333 56700 87630=
85586,2012,07,31,18,00,AAXX 31184 85586 12560 63307 10132 20081 40209 57007 60001 86500 333 56700 86625=
85586,2012,07,31,21,00,AAXX 31214 85586 42960 02707 10138 20073 40201 56008=
85586,2012,08,01,00,00,AAXX 01004 85586 12956 30000 10073 20049 40193 58011 60001 70511 80001 333 10146 56006 83075=
85586,2012,08,01,03,00,AAXX 01034 85586 NIL=
85586,2012,08,01,06,00,AAXX 01064 85586 NIL=
85586,2012,08,01,09,00,AAXX 01094 85586 NIL=
85586,2012,08,01,12,00,AAXX 01124 85586 12558 80104 10113 20073 40174 55000 60004 7052/ 885// 333 20073 31/// 50140 55046 56799 88625=
85586,2012,08,01,15,00,AAXX 01154 85586 41558 53408 10136 20072 40177 53003 70522 81530 333 56760 81625 85358=
85586,2012,08,01,18,00,AAXX 01184 85586 12560 63214 10154 20085 40159 58018 60001 86200 333 56700 86820=
85586,2012,08,01,21,00,AAXX 01214 85586 41540 83314 10124 20091 40154 56005 78122 882// 333 56799 88820=
85586,2012,08,02,00,00,AAXX 02004 85586 11556 83409 10113 20092 40169 53015 60021 78082 882// 333 10156 56799 88825=
85586,2012,08,02,03,00,AAXX 02034 85586 NIL=
85586,2012,08,02,06,00,AAXX 02064 85586 NIL=
85586,2012,08,02,09,00,AAXX 02094 85586 NIL=
85586,2012,08,02,12,00,AAXX 02124 85586 12560 80304 10111 20089 40172 53004 60074 885// 333 20104 32/// 50110 55028 56799 70070 88620=
85586,2012,08,02,15,00,AAXX 02154 85586 42460 43508 10140 20093 40180 52009 84400 333 56700 84617=
85586,2012,08,02,18,00,AAXX 02184 85586 12460 53010 10158 20073 40177 56003 60001 85530 333 56770 82617 85358=
85586,2012,08,02,21,00,AAXX 02214 85586 42560 73210 10138 20081 40173 56004 86230 333 56770 85820 85358=
85586,2012,08,03,00,00,AAXX 03004 85586 11558 20000 10104 20071 40183 53008 60001 70511 82500 333 10160 56700 82525=
85586,2012,08,03,03,00,AAXX 03034 85586 NIL=
85586,2012,08,03,06,00,AAXX 03064 85586 NIL=
85586,2012,08,03,09,00,AAXX 03094 85586 NIL=
85586,2012,08,03,12,00,AAXX 03124 85586 11530 80307 10092 20080 40192 52013 60104 7636/ 8253/ 333 20072 32/// 50120 55080 56779 70103 82620 88356=
85586,2012,08,03,15,00,AAXX 03154 85586 41540 80605 10084 20074 40219 52027 76366 8353/ 333 56779 83630 88357=
85586,2012,08,03,18,00,AAXX 03184 85586 11550 80605 10100 20090 40216 58003 60201 76066 8153/ 333 56179 81630 88358=
85586,2012,08,03,21,00,AAXX 03214 85586 NIL=
85586,2012,08,04,00,00,AAXX 04004 85586 11960 70902 10094 20078 40216 58003 60021 70266 87030 333 10112 56010 87359=
85586,2012,08,04,03,00,AAXX 04034 85586 NIL=
85586,2012,08,04,06,00,AAXX 04064 85586 NIL=
85586,2012,08,04,09,00,AAXX 04094 85586 NIL=
85586,2012,08,04,12,00,AAXX 04124 85586 NIL=
85586,2012,08,04,15,00,AAXX 04154 85586 42960 01003 10116 20088 40229 52004=
85586,2012,08,04,18,00,AAXX 04184 85586 12460 12404 10160 20103 40216 58013 60001 81100 333 56600 81817=
85586,2012,08,04,21,00,AAXX 04214 85586 41958 02405 10126 20087 40208 57008 70500=
85586,2012,08,05,00,00,AAXX 05004 85586 11958 00000 10082 20072 40210 53002 60001 70500 333 10162=
85586,2012,08,05,03,00,AAXX 05034 85586 NIL=
85586,2012,08,05,06,00,AAXX 05064 85586 NIL=
85586,2012,08,05,09,00,AAXX 05094 85586 NIL=
85586,2012,08,05,12,00,AAXX 05124 85586 11430 31002 10016 20008 40193 53004 60004 7100/ 82502 333 20016 31/// 50140 55088 56606 82613=
85586,2012,08,05,15,00,AAXX 05154 85586 41450 12802 10110 20088 40207 52014 70511 81500 333 56600 81617=
85586,2012,08,05,18,00,AAXX 05184 85586 11450 73005 10106 20085 40207 54001 60001 70522 87500 333 56600 87615=
85586,2012,08,05,21,00,AAXX 05214 85586 41556 80000 10108 20087 40206 54000 70522 885// 333 56099 88620=
85586,2012,08,06,00,00,AAXX 06004 85586 11556 80000 10102 20079 40207 54001 60001 70522 885// 333 10116 56099 88620=
85586,2012,08,06,03,00,AAXX 06034 85586 NIL=
85586,2012,08,06,06,00,AAXX 06064 85586 NIL=
85586,2012,08,06,09,00,AAXX 06094 85586 NIL=
85586,2012,08,06,12,00,AAXX 06124 85586 11558 71604 10083 20059 40202 53012 60004 7052/ 83501 333 20076 31/// 50130 55030 56706 83620 87075=
85586,2012,08,06,15,00,AAXX 06154 85586 42460 70000 10116 20067 40223 52023 81530 333 56760 81615 87362=
85586,2012,08,06,18,00,AAXX 06184 85586 11460 42308 10132 20070 40225 53002 60001 82101 333 56706 82815 82075=
85586,2012,08,06,21,00,AAXX 06214 85586 41460 62304 10124 20071 40230 51005 81101 333 56706 81815 86075=
85586,2012,08,07,00,00,AAXX 07004 85586 11956 01604 10083 20059 40241 51009 60001 70511 333 10143=
85586,2012,08,07,03,00,AAXX 07034 85586 NIL=
85586,2012,08,07,06,00,AAXX 07064 85586 NIL=
85586,2012,08,07,09,00,AAXX 07094 85586 NIL=
85586,2012,08,07,12,00,AAXX 07124 85586 11960 41205 10064 20053 40240 53008 60004 80001 333 20033 31/// 50130 55068 56006 84075=
85586,2012,08,07,15,00,AAXX 07154 85586 42956 01208 10118 20071 40241 51003 70500=
85586,2012,08,07,18,00,AAXX 07184 85586 12960 02211 10182 20074 40247 52006 60001=
85586,2012,08,07,21,00,AAXX 07214 85586 42960 02007 10141 20096 40222 57025=
85586,2012,08,08,00,00,AAXX 08004 85586 11956 00000 10086 20062 40226 53003 60001 70500 333 10186=
85586,2012,08,08,03,00,AAXX 08034 85586 NIL=
85586,2012,08,08,06,00,AAXX 08064 85586 NIL=
85586,2012,08,08,09,00,AAXX 08094 85586 NIL=
85586,2012,08,08,12,00,AAXX 08124 85586 11960 01104 10052 20034 40201 56012 60004 333 20048 31/// 50130 55089=
85586,2012,08,08,15,00,AAXX 08154 85586 42960 01710 10143 20077 40197 55001=
85586,2012,08,08,18,00,AAXX 08184 85586 12960 42309 10168 20099 40162 58034 60001 80001 333 56006 84075=
85586,2012,08,08,21,00,AAXX 08214 85586 42960 02305 10144 20105 40156 56007=
85586,2012,08,09,00,00,AAXX 09004 85586 11956 00000 10106 20093 40157 55001 60001 70500 333 10196=
85586,2012,08,09,03,00,AAXX 09034 85586 NIL=
85586,2012,08,09,06,00,AAXX 09064 85586 NIL=
85586,2012,08,09,09,00,AAXX 09094 85586 NIL=
85586,2012,08,09,12,00,AAXX 09124 85586 NIL=
85586,2012,08,09,15,00,AAXX 09154 85586 41440 82204 10106 20090 40189 52009 71022 885// 333 56599 88615=
85586,2012,08,09,18,00,AAXX 09184 85586 11550 62508 10134 20108 40184 56005 60001 70522 86500 333 56500 86620=
85586,2012,08,09,21,00,AAXX 09214 85586 42560 22106 10122 20088 40169 57015 82500 333 56500 82625=
85586,2012,08,10,00,00,AAXX 10004 85586 12560 10000 10070 20058 40190 52020 60001 81500 333 10133 56600 81620=
85586,2012,08,10,03,00,AAXX 10034 85586 NIL=
85586,2012,08,10,06,00,AAXX 10064 85586 NIL=
85586,2012,08,10,09,00,AAXX 10094 85586 NIL=
85586,2012,08,10,12,00,AAXX 10124 85586 11206 81204 10064 20055 40178 56006 60004 7464/ 886// 333 20022 31/// 50110 55035 56099 88704=
85586,2012,08,10,15,00,AAXX 10154 85586 41440 41205 10092 20072 40197 52020 71022 84600 333 56400 84710=
85586,2012,08,10,18,00,AAXX 10184 85586 11958 52207 10122 20076 40199 51002 60001 70522 80001 333 56005 85073=
85586,2012,08,10,21,00,AAXX 10214 85586 42960 41905 10114 20076 40175 57024 80001 333 56005 84073=
85586,2012,08,11,00,00,AAXX 11004 85586 12960 10000 10070 20058 40182 53006 60001 80001 333 10130 56006 81075=
85586,2012,08,11,03,00,AAXX 11034 85586 NIL=
85586,2012,08,11,06,00,AAXX 11064 85586 NIL=
85586,2012,08,11,09,00,AAXX 11094 85586 NIL=
85586,2012,08,11,12,00,AAXX 11124 85586 11950 70000 10044 20032 40208 52016 60004 7102/ 87030 333 20044 31/// 50130 55052 56060 87363=
85586,2012,08,11,15,00,AAXX 11154 85586 41950 41902 10090 20062 40240 52032 70522 83031 333 56066 83363=
85586,2012,08,11,18,00,AAXX 11184 85586 11557 52605 10110 20036 40244 51004 60001 70522 81530 333 56660 81630 85363=
85586,2012,08,11,21,00,AAXX 11214 85586 42960 12406 10112 20023 40251 53007 81030 333 56060 81363=
85586,2012,08,12,00,00,AAXX 12004 85586 12960 01903 10066 20027 40257 52006 60001 333 10126=
85586,2012,08,12,03,00,AAXX 12034 85586 NIL=
85586,2012,08,12,06,00,AAXX 12064 85586 NIL=
85586,2012,08,12,09,00,AAXX 12094 85586 NIL=
85586,2012,08,12,12,00,AAXX 12124 85586 11960 01107 10037 20010 40281 53008 60004 333 20011 34/// 50130 55051=
85586,2012,08,12,18,00,AAXX 12184 85586 11960 11514 10159 20022 40260 57014 60001 80001 333 56006 81075=
85586,2012,08,12,21,00,AAXX 12214 85586 42960 71508 10156 20037 40234 57026 80001 333 56006 87075=
85586,2012,08,13,00,00,AAXX 13004 85586 12956 01405 10111 20023 40233 56002 60001 70500 333 10168=
85586,2012,08,13,03,00,AAXX 13034 85586 NIL=
85586,2012,08,13,06,00,AAXX 13064 85586 NIL=
85586,2012,08,13,09,00,AAXX 13094 85586 NIL=
85586,2012,08,13,12,00,AAXX 13124 85586 11960 71104 10064 20026 40185 57021 60004 83031 333 20049 31/// 50130 55100 56066 83362 87075=
85586,2012,08,13,15,00,AAXX 13154 85586 42760 80505 10090 20037 40208 52021 885// 333 56299 88650=
85586,2012,08,13,18,00,AAXX 13184 85586 11858 81003 10110 20068 40195 57011 60001 70522 88031 333 56039 88357=
85586,2012,08,13,21,00,AAXX 13214 85586 NIL=
85586,2012,08,14,00,00,AAXX 14004 85586 12956 30000 10083 20053 40202 53007 60001 70511 333 10114=
85586,2012,08,14,03,00,AAXX 14034 85586 NIL=
85586,2012,08,14,06,00,AAXX 14064 85586 NIL=
85586,2012,08,14,09,00,AAXX 14094 85586 NIL=
85586,2012,08,14,12,00,AAXX 14124 85586 11860 81206 10082 20060 40205 50000 69934 76066 8802/ 333 20054 31/// 50130 55000 56069 70003 88458=
85586,2012,08,14,15,00,AAXX 14154 85586 41858 80907 10102 20077 40207 51003 70522 8802/ 333 56039 88458=
85586,2012,08,14,18,00,AAXX 14184 85586 11958 71703 10124 20061 40194 57011 69921 70522 87030 333 56040 87360=
85586,2012,08,14,21,00,AAXX 14214 85586 41958 50903 10122 20080 40187 57007 70522 85030 333 56030 85362=
85586,2012,08,15,00,00,AAXX 15004 85586 11956 60304 10104 20073 40190 53002 60001 70511 333 10126=
85586,2012,08,15,03,00,AAXX 15034 85586 NIL=
85586,2012,08,15,06,00,AAXX 15064 85586 NIL=
85586,2012,08,15,09,00,AAXX 15094 85586 NIL=
85586,2012,08,15,12,00,AAXX 15124 85586 11657 70000 10094 20064 40124 53006 69944 7026/ 8353/ 333 20062 31/// 50100 55003 56709 70004 83640 88357=
85586,2012,08,15,15,00,AAXX 15154 85586 41657 83303 10114 20080 40127 52003 76022 8353/ 333 56709 83633 88358=
85586,2012,08,15,18,00,AAXX 15184 85586 11557 83306 10124 20091 40131 52004 60011 70262 8323/ 333 56709 83820 88358=
85586,2012,08,15,21,00,AAXX 15214 85586 NIL=
85586,2012,08,16,00,00,AAXX 16004 85586 11950 83605 10104 20096 40146 52041 60051 76362 8803/ 333 10140 56009 88757=
85586,2012,08,16,03,00,AAXX 16034 85586 NIL=
85586,2012,08,16,06,00,AAXX 16064 85586 NIL=
85586,2012,08,16,09,00,AAXX 16094 85586 NIL=
85586,2012,08,16,12,00,AAXX 16124 85586 11560 30605 10102 20073 40170 52013 60124 7016/ 82530 333 20100 31/// 50110 55000 56660 70119 82626=
85586,2012,08,16,15,00,AAXX 16154 85586 42960 63206 10154 20085 40187 52018 86031 333 56077 83360 84073=
85586,2012,08,16,18,00,AAXX 16184 85586 12560 73311 10148 20094 40184 56003 60001 87501 333 56707 86625 83073=
85586,2012,08,16,21,00,AAXX 16214 85586 41558 62805 10132 20109 40183 54001 70522 86500 333 56600 86630=
85586,2012,08,17,00,00,AAXX 17004 85586 12560 60000 10154 20094 40200 52016 60001 81531 333 10154 56666 81620 84360=
85586,2012,08,17,03,00,AAXX 17034 85586 NIL=
85586,2012,08,17,06,00,AAXX 17064 85586 NIL=
85586,2012,08,17,09,00,AAXX 17094 85586 NIL=
85586,2012,08,17,12,00,AAXX 17124 85586 11560 71204 10100 20092 40231 52017 60054 7026/ 84530 333 20100 31/// 50120 55019 56660 70046 84620 87360=
85586,2012,08,17,15,00,AAXX 17154 85586 41560 61004 10144 20124 40240 52007 86530 333 56550 83620 85360=
85586,2012,08,17,18,00,AAXX 17184 85586 12460 63005 10150 20116 40249 52010 60001 86100 333 56700 86815=
85586,2012,08,17,21,00,AAXX 17214 85586 42460 32304 10134 20110 40261 52012 83100 333 56500 83815=
85586,2012,08,18,00,00,AAXX 18004 85586 12560 11202 10094 20084 40270 52010 60001 81100 333 10156 56600 81820=
85586,2012,08,18,03,00,AAXX 18034 85586 NIL=
85586,2012,08,18,06,00,AAXX 18064 85586 NIL=
85586,2012,08,18,09,00,AAXX 18094 85586 NIL=
85586,2012,08,18,12,00,AAXX 18124 85586 11960 01206 10073 20063 40266 53006 60004 333 20061 31/// 50130 55039=
85586,2012,08,18,15,00,AAXX 18154 85586 42960 01405 10134 20102 40249 58015=
85586,2012,08,18,18,00,AAXX 18184 85586 12960 02212 10153 20114 40226 57021 60001 80001 333 56006 86075=
85586,2012,08,18,21,00,AAXX 18214 85586 42960 82404 10132 20103 40215 57012 8803/ 333 56069 88362=
85586,2012,08,19,00,00,AAXX 19004 85586 12956 80000 10113 20096 40229 53013 60001 70522 8803/ 333 10186 56069 88362=
85586,2012,08,19,03,00,AAXX 19034 85586 NIL=
85586,2012,08,19,06,00,AAXX 19064 85586 NIL=
85586,2012,08,19,09,00,AAXX 19094 85586 NIL=
85586,2012,08,19,12,00,AAXX 19124 85586 11958 81000 10103 20086 40226 53017 60004 7052/ 8803/ 333 20093 31/// 50130 55075 56069 88362=
85586,2012,08,19,15,00,AAXX 19154 85586 42860 80507 10112 20093 40237 51011 72122 8807/ 333 56079 88358=
85586,2012,08,19,18,00,AAXX 19184 85586 12960 22510 10136 20102 40235 55000 69981 82100 333 56700 82815=
85586,2012,08,19,21,00,AAXX 19214 85586 42960 42707 10136 20094 40245 52010 84030 333 56060 84362=
85586,2012,08,20,00,00,AAXX 20004 85586 12958 01104 10094 20072 40268 52020 60001 70500 333 10158=
85586,2012,08,20,03,00,AAXX 20034 85586 NIL=
85586,2012,08,20,06,00,AAXX 20064 85586 NIL=
85586,2012,08,20,09,00,AAXX 20094 85586 NIL=
85586,2012,08,20,12,00,AAXX 20124 85586 11960 41105 10074 20063 40237 57031 60084 80001 333 20041 31/// 50130 55049 56006 84075=
85586,2012,08,20,15,00,AAXX 20154 85586 42960 01505 10152 20086 40213 57022=
85586,2012,08,20,18,00,AAXX 20184 85586 12960 02210 10202 20092 40203 57010 60001=
85586,2012,08,20,21,00,AAXX 20214 85586 42960 02006 10148 20108 40197 57016=
85586,2012,08,21,00,00,AAXX 21004 85586 12220 83304 10112 20099 40192 56005 60001 71000 886// 333 10205 56799 88704=
85586,2012,08,21,03,00,AAXX 21034 85586 NIL=
85586,2012,08,21,06,00,AAXX 21064 85586 NIL=
85586,2012,08,21,09,00,AAXX 21094 85586 NIL=
85586,2012,08,21,12,00,AAXX 21124 85586 11440 80000 10098 20091 40185 52012 60004 7102/ 8553/ 333 20074 31/// 50140 55091 56609 85610 88360=
85586,2012,08,21,15,00,AAXX 21154 85586 41550 70907 10116 20084 40187 51003 70522 87500 333 56300 87630=
85586,2012,08,21,18,00,AAXX 21184 85586 11850 83204 10144 20108 40192 52005 60001 70522 8803/ 333 56079 88357=
85586,2012,08,21,21,00,AAXX 21214 85586 42560 73003 10118 20093 40147 57046 87530 333 56770 82620 87358=
85586,2012,08,22,00,00,AAXX 22004 85586 12560 70702 10104 20088 40162 52017 60001 84530 333 10146 56660 84633 85362=
85586,2012,08,22,03,00,AAXX 22034 85586 NIL=
85586,2012,08,22,06,00,AAXX 22064 85586 NIL=
85586,2012,08,22,09,00,AAXX 22094 85586 NIL=
85586,2012,08,22,12,00,AAXX 22124 85586 11530 82108 10090 20080 40169 52015 60104 7606/ 885// 333 20090 32/// 50100 55000 56099 70096 88620=
85586,2012,08,22,15,00,AAXX 22154 85586 41540 80000 10094 20083 40201 52032 76366 8353/ 333 56609 83623 88357=
85586,2012,08,22,18,00,AAXX 22184 85586 11540 80102 10090 20077 40220 52019 60091 76366 8153/ 333 56709 81620 88357=
85586,2012,08,22,21,00,AAXX 22214 85586 41850 80610 10078 20061 40225 55005 76066 8803/ 333 56009 88357=
85586,2012,08,23,00,00,AAXX 23004 85586 11556 60703 10078 20056 40237 52012 60071 76066 82530 333 10101 56110 82626 86358=
85586,2012,08,23,03,00,AAXX 23034 85586 NIL=
85586,2012,08,23,06,00,AAXX 23064 85586 NIL=
85586,2012,08,23,09,00,AAXX 23094 85586 NIL=
85586,2012,08,23,12,00,AAXX 23124 85586 11560 51203 10070 20053 40263 52011 60164 7026/ 83530 333 20066 31/// 50100 55000 56660 70162 83626 84362=
85586,2012,08,23,15,00,AAXX 23154 85586 42560 51903 10114 20062 40277 52007 85100 333 56400 85820=
85586,2012,08,23,18,00,AAXX 23184 85586 12560 32410 10120 20052 40281 51004 60001 83100 333 56500 83820=
85586,2012,08,23,21,00,AAXX 23214 85586 42460 32508 10122 20053 40276 56005 83100 333 56500 83815=
85586,2012,08,24,00,00,AAXX 24004 85586 12458 32103 10100 20084 40297 52020 60001 83100 333 10141 56500 83820=
85586,2012,08,24,03,00,AAXX 24034 85586 NIL=
85586,2012,08,24,06,00,AAXX 24064 85586 NIL=
85586,2012,08,24,09,00,AAXX 24094 85586 NIL=
85586,2012,08,24,12,00,AAXX 24124 85586 11960 01307 10056 20039 40310 53006 60004 333 20024 31/// 50130 55082=
85586,2012,08,24,15,00,AAXX 24154 85586 42960 01207 10121 20053 40304 58004=
85586,2012,08,24,18,00,AAXX 24184 85586 12960 01808 10162 20031 40290 57012 60001=
85586,2012,08,24,21,00,AAXX 24214 85586 42960 01810 10154 20049 40281 57009=
85586,2012,08,25,00,00,AAXX 25004 85586 12958 01104 10108 20043 40262 57020 60001 70500 333 10166=
85586,2012,08,25,03,00,AAXX 25034 85586 NIL=
85586,2012,08,25,06,00,AAXX 25064 85586 NIL=
85586,2012,08,25,09,00,AAXX 25094 85586 NIL=
85586,2012,08,25,12,00,AAXX 25124 85586 11960 00904 10034 20005 40215 56015 60004 80001 333 20021 31/// 50130 55106 56006 85075=
85586,2012,08,25,15,00,AAXX 25154 85586 42960 41709 10121 20021 40213 50001 80001 333 56006 84075=
85586,2012,08,25,18,00,AAXX 25184 85586 12960 02312 10131 20042 40200 56012 60001=
85586,2012,08,25,21,00,AAXX 25214 85586 42960 02308 10131 20057 40205 53004=
85586,2012,08,26,00,00,AAXX 26004 85586 12956 00000 10068 20041 40214 51007 60001 70500 333 10138=
85586,2012,08,26,03,00,AAXX 26034 85586 NIL=
85586,2012,08,26,06,00,AAXX 26064 85586 NIL=
85586,2012,08,26,09,00,AAXX 26094 85586 NIL=
85586,2012,08,26,12,00,AAXX 26124 85586 11960 01104 10043 20025 40225 53012 60004 333 20012 31/// 50130 55096=
85586,2012,08,26,15,00,AAXX 26154 85586 42960 03304 10144 20065 40219 5003=
85586,2012,08,26,18,00,AAXX 26184 85586 12960 52409 10142 20075 40206 57013 60001 80001 333 56006 85075=
85586,2012,08,26,21,00,AAXX 26214 85586 NIL=
85586,2012,08,27,00,00,AAXX 27004 85586 12958 20504 10093 20065 40219 51006 60001 70500 82030 333 10156 56060 82365=
85586,2012,08,27,03,00,AAXX 27034 85586 NIL=
85586,2012,08,27,06,00,AAXX 27064 85586 NIL=
85586,2012,08,27,09,00,AAXX 27094 85586 NIL=
85586,2012,08,27,12,00,AAXX 27124 85586 12960 30000 10046 20036 40207 52006 60004 80001 333 20020 31/// 50160 55102 56006 83075=
85586,2012,08,27,15,00,AAXX 27154 85586 42960 52502 10134 20088 40213 52006 80002 333 56006 85075=
85586,2012,08,27,18,00,AAXX 27184 85586 12960 02806 10158 20085 40195 58018 60001=
85586,2012,08,27,21,00,AAXX 27214 85586 42960 12307 10142 20091 40191 57004 80001 333 56006 81075=
85586,2012,08,28,00,00,AAXX 28004 85586 12960 32403 10094 20080 40209 53008 60001 80001 333 10164 56006 83075=
85586,2012,08,28,03,00,AAXX 28034 85586 NIL=
85586,2012,08,28,06,00,AAXX 28064 85586 NIL=
85586,2012,08,28,09,00,AAXX 28094 85586 NIL=
85586,2012,08,28,12,00,AAXX 28124 85586 11202 80000 10050 20041 40176 56002 60004 7462/ 886// 333 20048 31/// 50150 55094 56099 88704=
85586,2012,08,28,15,00,AAXX 28154 85586 41540 50303 10134 20107 40183 52008 70522 85500 333 56100 85625=
85586,2012,08,28,18,00,AAXX 28184 85586 11550 72803 10140 20110 40174 57009 60001 70522 87501 333 56606 84620 85070=
85586,2012,08,28,21,00,AAXX 28214 85586 41558 43004 10134 20092 40157 57017 70520 84500 333 56700 84630=
85586,2012,08,29,00,00,AAXX 29004 85586 11557 80504 10106 20094 40175 52017 60001 70522 83502 333 10160 56606 83630 85075=
85586,2012,08,29,03,00,AAXX 29034 85586 NIL=
85586,2012,08,29,06,00,AAXX 29064 85586 NIL=
85586,2012,08,29,09,00,AAXX 29094 85586 NIL=
85586,2012,08,29,12,00,AAXX 29124 85586 11904 50902 10050 20041 40155 56007 60004 7424/ 80001 333 20050 31/// 50120 55050 56006 85075=
85586,2012,08,29,15,00,AAXX 29154 85586 41956 43004 10130 20094 40157 51003 70520 80001 333 56007 84073=
85586,2012,08,29,18,00,AAXX 29184 85586 11957 22308 10152 20086 40149 57008 60001 70500 80001 333 56005 82070=
85586,2012,08,29,21,00,AAXX 29214 85586 42960 02004 10142 20090 40151 54002=
85586,2012,08,30,00,00,AAXX 30004 85586 12960 30504 10102 20088 40171 52019 60001 80001 333 10156 56006 83075=
85586,2012,08,30,03,00,AAXX 30034 85586 NIL=
85586,2012,08,30,06,00,AAXX 30064 85586 NIL=
85586,2012,08,30,09,00,AAXX 30094 85586 NIL=
85586,2012,08,30,12,00,AAXX 30124 85586 11956 70000 10063 20053 40190 52017 60004 7101/ 87030 333 20056 31/// 50810 55060 56006 83062=
85586,2012,08,30,15,00,AAXX 30154 85586 41235 82806 10121 20102 40214 52025 71022 8263/ 333 56769 82704 88362=
85586,2012,08,30,18,00,AAXX 30184 85586 11240 52908 10151 20107 40214 51002 60001 70511 81601 333 56706 81708 85075=
85586,2012,08,30,21,00,AAXX 30214 85586 42960 02206 10142 20097 40197 57016=
85586,2012,08,31,00,00,AAXX 31004 85586 12960 30504 10102 20088 40171 53004 60001 70500 333 10153=
85586,2012,08,31,03,00,AAXX 31034 85586 NIL=
85586,2012,08,31,06,00,AAXX 31064 85586 NIL=
85586,2012,08,31,09,00,AAXX 31094 85586 NIL=
85586,2012,08,31,12,00,AAXX 31124 85586 11960 01705 10094 20060 40197 53018 60004 333 20043 31/// 50130 55062=
85586,2012,08,31,15,00,AAXX 31154 85586 42960 02306 10160 20072 40190 56004=
85586,2012,08,31,18,00,AAXX 31184 85586 12960 02408 10184 20076 40183 57007 60001=
85586,2012,08,31,21,00,AAXX 31214 85586 42960 02506 10174 20104 40164 57021=
85586,2012,09,01,00,00,AAXX 01004 85586 12960 01004 10118 20086 40181 53016 60001 70500 333 10195=
85586,2012,09,01,03,00,AAXX 01034 85586 NIL=
85586,2012,09,01,06,00,AAXX 01064 85586 NIL=
85586,2012,09,01,09,00,AAXX 01094 85586 NIL=
85586,2012,09,01,12,00,AAXX 01124 85586 11960 01607 10134 20075 40166 53008 60004 333 20081 31/// 50130 55102=
85586,2012,09,01,15,00,AAXX 01154 85586 42960 11512 10213 20089 40164 50001 80001 333 56006 81075=
85586,2012,09,01,18,00,AAXX 01184 85586 12960 01815 10273 20082 40144 57018 60001 80001 333 56006 84075=
85586,2012,09,01,21,00,AAXX 01214 85586 42960 01609 10261 20087 40140 56004 80001 333 56006 86075=
85586,2012,09,02,00,00,AAXX 02004 85586 12956 03305 10136 20102 40159 53014 60001 70500 333 10275=
85586,2012,09,02,03,00,AAXX 02034 85586 NIL=
85586,2012,09,02,06,00,AAXX 02064 85586 NIL=
85586,2012,09,02,09,00,AAXX 02094 85586 NIL=
85586,2012,09,02,12,00,AAXX 02124 85586 11307 80000 10100 20092 40173 52009 60004 7424/ 886// 333 20080 31/// 50160 55104 56099 88707=
85586,2012,09,02,15,00,AAXX 02154 85586 41440 83006 10136 20105 40193 52020 70522 885// 333 56099 88615=
85586,2012,09,02,18,00,AAXX 02184 85586 11556 83111 10148 20103 40186 58007 60001 70522 885// 333 56699 83620 88630=
85586,2012,09,02,21,00,AAXX 02214 85586 41557 82907 10136 20105 40184 56002 70522 885// 333 56099 88626=
85586,2012,09,03,00,00,AAXX 03004 85586 11557 70000 10124 20111 40188 52004 60001 70522 87500 333 10160 56600 87623=
85586,2012,09,03,03,00,AAXX 03034 85586 NIL=
85586,2012,09,03,06,00,AAXX 03064 85586 NIL=
85586,2012,09,03,09,00,AAXX 03094 85586 NIL=
85586,2012,09,03,12,00,AAXX 03124 85586 11556 71802 10116 20101 40192 52009 60004 70522 83530 333 20116 31/// 50110 55018 56660 83623 87360=
85586,2012,09,03,15,00,AAXX 03154 85586 41557 83304 10144 20104 40219 52017 70522 885// 333 56099 88626=
85586,2012,09,03,18,00,AAXX 03184 85586 11556 83505 10141 20116 40226 52006 60001 70522 885// 333 56799 88630=
85586,2012,09,03,21,00,AAXX 03214 85586 41550 72706 10136 20120 40229 51003 70522 87500 333 56600 87630=
85586,2012,09,04,00,00,AAXX 04004 85586 NIL=
85586,2012,09,04,03,00,AAXX 04034 85586 NIL=
85586,2012,09,04,06,00,AAXX 04064 85586 NIL=
85586,2012,09,04,09,00,AAXX 04094 85586 NIL=
85586,2012,09,04,12,00,AAXX 04124 85586 12960 70000 10114 20101 40227 52004 60004 86031 333 20108 31/// 50130 55000 56066 86362=
85586,2012,09,04,15,00,AAXX 04154 85586 42560 52206 10158 20108 40230 51002 85101 333 56505 83830=
85586,2012,09,04,18,00,AAXX 04184 85586 12560 61908 10154 20096 40237 52007 60001 86101 333 56404 83040=
85586,2012,09,04,21,00,AAXX 04214 85586 42960 22008 10150 20105 40221 57016 80001 333 56006 82070=
85586,2012,09,05,00,00,AAXX 05004 85586 12960 30000 10110 20098 40215 58005 60001 80001 333 10162 56006 83075=
85586,2012,09,05,03,00,AAXX 05034 85586 NIL=
85586,2012,09,05,06,00,AAXX 05064 85586 NIL=
85586,2012,09,05,09,00,AAXX 05094 85586 NIL=
85586,2012,09,05,12,00,AAXX 05124 85586 12103 80000 10081 20072 40187 53008 60004 7464/ 886// 333 20041 31/// 50130 55089 56766 88703=
85586,2012,09,05,15,00,AAXX 05154 85586 43320 80000 10105 20094 40182 58003 71044 886// 333 56799 88707=
85586,2012,09,05,18,00,AAXX 05184 85586 12340 82905 10123 20095 40178 56004 60001 70522 886// 333 56799 88709=
85586,2012,09,05,21,00,AAXX 05214 85586 42356 82605 10119 20089 40185 53007 70522 885// 333 56799 88612=
85586,2012,09,06,00,00,AAXX 06004 85586 12456 82405 10114 20090 40194 51008 60001 70522 885// 333 10126 56799 88615=
85586,2012,09,06,03,00,AAXX 06034 85586 NIL=
85586,2012,09,06,06,00,AAXX 06064 85586 NIL=
85586,2012,09,06,09,00,AAXX 06094 85586 NIL=
85586,2012,09,06,12,00,AAXX 06124 85586 12960 51404 10098 20081 40211 52022 60004 85030 333 20093 31/// 50140 55000 56060 85362=
85586,2012,09,06,15,00,AAXX 06154 85586 42460 52705 10138 20073 40214 51002 85530 333 56660 82615 84360=
85586,2012,09,06,18,00,AAXX 06184 85586 12560 42310 10154 20107 40217 51003 60001 84400 333 56500 84620=
85586,2012,09,06,21,00,AAXX 06214 85586 42960 02503 10148 20107 40195 57020=
85586,2012,09,07,00,00,AAXX 07004 85586 12956 02206 10116 20088 40180 57016 60001 70500 333 10162=
85586,2012,09,07,03,00,AAXX 07034 85586 NIL=
85586,2012,09,07,06,00,AAXX 07064 85586 NIL=
85586,2012,09,07,09,00,AAXX 07094 85586 NIL=
85586,2012,09,07,12,00,AAXX 07124 85586 12240 50000 10085 20075 40183 53008 60004 71044 82601 333 20057 31/// 50140 55077 56706 82704 83075=
85586,2012,09,07,15,00,AAXX 07154 85586 41458 73306 10122 20088 40202 52021 70522 87500 333 56700 87615=
85586,2012,09,07,18,00,AAXX 07184 85586 11458 72804 10132 20101 40209 52007 60001 70522 87530 333 56660 84612 87357=
85586,2012,09,07,21,00,AAXX 07214 85586 NIL=
85586,2012,09,08,00,00,AAXX 08004 85586 11650 80000 10116 20099 40223 52009 60001 70522 885// 333 10136 56099 88650=
85586,2012,09,08,03,00,AAXX 08034 85586 NIL=
85586,2012,09,08,06,00,AAXX 08064 85586 NIL=
85586,2012,09,08,09,00,AAXX 08094 85586 NIL=
85586,2012,09,08,12,00,AAXX 08124 85586 11958 21202 10096 20087 40237 54000 60004 7051/ 82030 333 20076 31/// 50110 55004 56060 82362=
85586,2012,09,08,15,00,AAXX 08154 85586 41557 11205 10172 20091 40229 57008 70500 81500 333 56600 81625=
85586,2012,09,08,18,00,AAXX 08184 85586 11957 12311 10162 20114 40198 57031 60001 70500 80001 333 56006 81075=
85586,2012,09,08,21,00,AAXX 08214 85586 41957 02309 10154 20115 40176 57022=
85586,2012,09,09,00,00,AAXX 09004 85586 11940 00000 10118 20105 40183 53007 60001 70500 333 10194=
85586,2012,09,09,03,00,AAXX 09034 85586 NIL=
85586,2012,09,09,06,00,AAXX 09064 85586 NIL=
85586,2012,09,09,09,00,AAXX 09094 85586 NIL=
85586,2012,09,09,12,00,AAXX 09124 85586 NIL=
85586,2012,09,09,15,00,AAXX 09154 85586 41450 82704 10126 20100 40212 52015 70522 885// 333 56699 83615 88620=
85586,2012,09,09,18,00,AAXX 09184 85586 11557 12705 10146 20092 40208 58004 60001 70511 81500 333 56600 81625=
85586,2012,09,09,21,00,AAXX 09214 85586 41657 32506 10134 20088 40204 56004 70500 83500 333 56600 83633=
85586,2012,09,10,00,00,AAXX 10004 85586 11950 00000 10096 20081 40206 53002 60001 70500 333 10148=
85586,2012,09,10,03,00,AAXX 10034 85586 NIL=
85586,2012,09,10,06,00,AAXX 10064 85586 NIL=
85586,2012,09,10,09,00,AAXX 10094 85586 NIL=
85586,2012,09,10,12,00,AAXX 10124 85586 11201 81002 10076 20068 40187 52011 60004 7464/ 886// 333 20066 31/// 50120 55061 56099 88703=
85586,2012,09,10,15,00,AAXX 10154 85586 41310 80304 10100 20090 40199 52013 71022 886// 333 56199 88708=
85586,2012,09,10,18,00,AAXX 10184 85586 11320 82004 10112 20102 40206 52005 60001 71022 886// 333 56599 88708=
85586,2012,09,10,21,00,AAXX 10214 85586 41215 82805 10105 20088 40191 57013 71022 886// 333 56699 88706=
85586,2012,09,11,00,00,AAXX 11004 85586 11220 80507 10116 20092 40182 58010 60001 70522 886// 333 10118 56799 88706=
85586,2012,09,11,03,00,AAXX 11034 85586 NIL=
85586,2012,09,11,06,00,AAXX 11064 85586 NIL=
85586,2012,09,11,09,00,AAXX 11094 85586 NIL=
85586,2012,09,11,12,00,AAXX 11124 85586 11206 80304 10107 20097 40197 53022 69904 7464/ 886// 333 20098 31/// 50130 55000 56799 70000 88704=
85586,2012,09,11,15,00,AAXX 11154 85586 41215 83005 10112 20100 40214 52016 71022 886// 333 56799 88706=
85586,2012,09,11,18,00,AAXX 11184 85586 11208 83004 10122 20110 40230 52016 60001 74622 886// 333 56799 88704=
85586,2012,09,11,21,00,AAXX 11214 85586 41415 82305 10116 20108 40217 57013 71022 886// 333 56599 88710=
85586,2012,09,12,00,00,AAXX 12004 85586 11120 82304 10112 20100 40223 53006 60001 71022 886// 333 10124 56799 88703=
85586,2012,09,12,03,00,AAXX 12034 85586 NIL=
85586,2012,09,12,06,00,AAXX 12064 85586 NIL=
85586,2012,09,12,09,00,AAXX 12094 85586 NIL=
85586,2012,09,12,12,00,AAXX 12124 85586 11920 02304 10091 20075 40194 55000 60004 7100/ 333 20051 31/// 50140 55000=
85586,2012,09,12,15,00,AAXX 12154 85586 42956 01510 10177 20077 40168 58023 70500=
85586,2012,09,12,18,00,AAXX 12184 85586 11960 02407 10172 20103 40153 57016 60001=
85586,2012,09,12,21,00,AAXX 12214 85586 42960 02309 10154 20108 40138 57014=
85586,2012,09,13,00,00,AAXX 13004 85586 11958 00504 10114 20092 40147 53009 60001 70500 333 10202=
85586,2012,09,13,03,00,AAXX 13034 85586 NIL=
85586,2012,09,13,06,00,AAXX 13064 85586 NIL=
85586,2012,09,13,09,00,AAXX 13094 85586 NIL=
85586,2012,09,13,12,00,AAXX 13124 85586 11103 80805 10078 20068 40156 52022 60004 74644 886// 333 20043 31/// 50140 55099 56799 88703=
85586,2012,09,13,15,00,AAXX 13154 85586 41208 83205 10118 20108 40164 52010 71022 886// 333 56799 88706=
85586,2012,09,13,18,00,AAXX 13184 85586 11315 82705 10134 20107 40184 52019 60001 71022 886// 333 56699 88708=
85586,2012,09,13,21,00,AAXX 13214 85586 41430 82807 10118 20108 40167 57016 71022 885// 333 56699 88610=
85586,2012,09,14,00,00,AAXX 14004 85586 11440 83304 10116 20095 40177 53009 60001 70500 885// 333 10136 56799 88612=
85586,2012,09,14,03,00,AAXX 14034 85586 NIL=
85586,2012,09,14,06,00,AAXX 14064 85586 NIL=
85586,2012,09,14,09,00,AAXX 14094 85586 NIL=
85586,2012,09,14,12,00,AAXX 14124 85586 11230 80000 10105 20101 40185 52024 69934 71052 886// 333 20104 31/// 50190 55000 56799 70003 88705=
85586,2012,09,14,15,00,AAXX 14154 85586 NIL=
85586,2012,09,14,18,00,AAXX 14184 85586 11458 82004 10127 20092 40191 56004 60001 70522 885// 333 56599 88610=
85586,2012,09,14,21,00,AAXX 14214 85586 41357 81805 10110 20090 40181 57009 70522 885// 333 56499 88607=
85586,2012,09,15,00,00,AAXX 15004 85586 11257 80000 10115 20096 40193 52010 60001 71022 886// 333 10127 56799 88706=
85586,2012,09,15,03,00,AAXX 15034 85586 NIL=
85586,2012,09,15,06,00,AAXX 15064 85586 NIL=
85586,2012,09,15,09,00,AAXX 15094 85586 NIL=
85586,2012,09,15,12,00,AAXX 15124 85586 12560 70000 10098 20089 40213 53015 60004 87500 333 20096 30/// 50220 55000 56600 70000 87627=
85586,2012,09,15,15,00,AAXX 15154 85586 42560 41808 10140 20100 40221 52009 84500 333 56400 84625=
85586,2012,09,15,18,00,AAXX 15184 85586 12960 02014 10160 20107 40211 57008 60001=
85586,2012,09,15,21,00,AAXX 15214 85586 42960 02110 10142 20123 40193 57018=
85586,2012,09,16,00,00,AAXX 16004 85586 12960 02703 10122 20113 40189 56004 60001 333 10174=
85586,2012,09,16,03,00,AAXX 16034 85586 NIL=
85586,2012,09,16,06,00,AAXX 16064 85586 NIL=
85586,2012,09,16,09,00,AAXX 16094 85586 NIL=
85586,2012,09,16,12,00,AAXX 16124 85586 12960 20000 10043 20034 40206 53003 60004 80001 333 20037 30/// 50280 55103 56006 70000 82073=
85586,2012,09,16,15,00,AAXX 16154 85586 42960 23206 10156 20102 40207 52005 80001 333 56006 82073=
85586,2012,09,16,18,00,AAXX 16184 85586 12960 52309 10153 20096 40213 52006 60001 80001 333 56006 85073=
85586,2012,09,16,21,00,AAXX 16214 85586 42960 72213 10138 20088 40214 52001 83031 333 56066 83365 84073=
85586,2012,09,17,00,00,AAXX 17004 85586 12960 70000 10118 20084 40225 52010 60004 84031 333 10158 56066 84365 83073=
85586,2012,09,17,03,00,AAXX 17034 85586 NIL=
85586,2012,09,17,06,00,AAXX 17064 85586 NIL=
85586,2012,09,17,09,00,AAXX 17094 85586 NIL=
85586,2012,09,17,12,00,AAXX 17124 85586 12960 71904 10073 20064 40213 56003 60004 80030 333 20043 31/// 50140 55077 56060 87365=
85586,2012,09,17,15,00,AAXX 17154 85586 42960 82004 10136 20070 40213 54001 80030 333 56060 88365=
85586,2012,09,17,18,00,AAXX 17184 85586 12460 62314 10143 20086 40202 58010 60001 81101 333 56706 81515 85075=
85586,2012,09,17,21,00,AAXX 17214 85586 42460 22314 10137 20072 40204 53002 82100 333 56700 82815=
85586,2012,09,18,00,00,AAXX 18004 85586 12458 20504 10093 20048 40208 51003 60004 70500 82100 333 10151 56700 82815=
85586,2012,09,18,03,00,AAXX 18034 85586 NIL=
85586,2012,09,18,06,00,AAXX 18064 85586 NIL=
85586,2012,09,18,09,00,AAXX 18094 85586 NIL=
85586,2012,09,18,12,00,AAXX 18124 85586 12960 60000 10077 20066 40250 52027 60004 86030 333 20057 31/// 50150 55067 56060 86365=
85586,2012,09,18,15,00,AAXX 18154 85586 42460 22807 10141 20066 40271 52023 82100 333 56700 82815=
85586,2012,09,18,18,00,AAXX 18184 85586 12460 12316 10141 20075 40275 51006 60001 81200 333 56700 81820=
85586,2012,09,18,21,00,AAXX 18214 85586 41960 02312 10132 20061 40285 51004=
85586,2012,09,19,00,00,AAXX 19004 85586 12958 00000 10083 20048 40303 53015 60001 333 10146=
85586,2012,09,19,03,00,AAXX 19034 85586 NIL=
85586,2012,09,19,06,00,AAXX 19064 85586 NIL=
85586,2012,09,19,09,00,AAXX 19094 85586 NIL=
85586,2012,09,19,12,00,AAXX 19124 85586 12960 01004 10072 20056 40257 57021 60004 333 20014 31/// 50150 55092=
85586,2012,09,19,15,00,AAXX 19154 85586 42960 21906 10164 20069 40245 56009 80001 333 56006 82075=
85586,2012,09,19,18,00,AAXX 19184 85586 12960 72314 10148 20079 40219 57026 60001 87030 333 56060 87365=
85586,2012,09,19,21,00,AAXX 19214 85586 41960 82307 10133 20072 40194 57025 8803/ 333 56069 88365=
85586,2012,09,20,00,00,AAXX 20004 85586 12958 41704 10101 20046 40200 53004 60001 70522 84030 333 10166 56060 84365=
85586,2012,09,20,03,00,AAXX 20034 85586 NIL=
85586,2012,09,20,06,00,AAXX 20064 85586 NIL=
85586,2012,09,20,09,00,AAXX 20094 85586 NIL=
85586,2012,09,20,12,00,AAXX 20124 85586 12560 52306 10088 20066 40222 53022 60004 85500 333 20044 30/// 50220 55070 56600 70000 85618=
85586,2012,09,20,15,00,AAXX 20154 85586 42960 02506 10138 20073 40228 52008=
85586,2012,09,20,18,00,AAXX 20184 85586 12960 02312 10147 20084 40210 58018 82200 333 56000 56000 82833=
85586,2012,09,20,21,00,AAXX 20214 85586 42960 02210 10147 20084 40213 53003=
85586,2012,09,21,00,00,AAXX 21004 85586 12960 00000 10107 20068 40216 52002 60001 333 10158=
85586,2012,09,21,03,00,AAXX 21034 85586 NIL=
85586,2012,09,21,06,00,AAXX 21064 85586 NIL=
85586,2012,09,21,09,00,AAXX 21094 85586 NIL=
85586,2012,09,21,12,00,AAXX 21124 85586 12960 01505 10088 20050 40211 54000 60004 333 20037 30/// 50260 55100 70000=
85586,2012,09,21,15,00,AAXX 21154 85586 42960 01906 10170 20050 40194 57014=
85586,2012,09,21,18,00,AAXX 21184 85586 12960 02010 10178 20073 40185 57009 60001=
85586,2012,09,21,21,00,AAXX 21214 85586 42960 02306 10192 20097 40162 57023=
85586,2012,09,22,00,00,AAXX 22004 85586 12960 03503 10148 20082 40153 57009 60001 333 10210=
85586,2012,09,22,03,00,AAXX 22034 85586 NIL=
85586,2012,09,22,06,00,AAXX 22064 85586 NIL=
85586,2012,09,22,09,00,AAXX 22094 85586 NIL=
85586,2012,09,22,12,00,AAXX 22124 85586 12960 10000 10102 20079 40133 55007 60004 80001 333 20034 30/// 50290 55107 56006 70000 81075=
85586,2012,09,22,15,00,AAXX 22154 85586 42960 12408 10185 20103 40130 57001 80001 333 56006 81075=
85586,2012,09,22,18,00,AAXX 22184 85586 12960 32310 10162 20107 40125 57005 60001 80001 333 56006 83075=
85586,2012,09,22,21,00,AAXX 22214 85586 42960 43106 10145 20086 40125 57001 80001 333 56006 84075=
85586,2012,09,23,00,00,AAXX 23004 85586 12960 43304 10092 20073 40144 53024 60001 80001 333 10202 56006 84075=
85586,2012,09,23,03,00,AAXX 23034 85586 NIL=
85586,2012,09,23,06,00,AAXX 23064 85586 NIL=
85586,2012,09,23,09,00,AAXX 23094 85586 NIL=
85586,2012,09,23,12,00,AAXX 23124 85586 12558 80104 10119 20080 40190 52024 60004 7052/ 885// 333 20114 30/// 50160 55105 56799 88620=
85586,2012,09,23,15,00,AAXX 23154 85586 42558 82908 10141 20069 40205 52016 70522 885// 333 56799 88620=
85586,2012,09,23,18,00,AAXX 23184 85586 12558 82608 10152 20076 40201 58004 60001 70522 885// 333 56799 88625=
85586,2012,09,23,21,00,AAXX 23214 85586 42960 72406 10133 20074 40195 56007 80001 333 56006 87075=
85586,2012,09,24,00,00,AAXX 24004 85586 12956 62104 10114 20091 40200 53005 60001 70511 80001 333 10157 56006 86075=
85586,2012,09,24,03,00,AAXX 24034 85586 NIL=
85586,2012,09,24,06,00,AAXX 24064 85586 NIL=
85586,2012,09,24,09,00,AAXX 24094 85586 NIL=
85586,2012,09,24,12,00,AAXX 24124 85586 12958 70000 10081 20069 40193 53012 60004 7052/ 87030 333 20054 30/// 50180 55021 56060 87365=
85586,2012,09,24,15,00,AAXX 24154 85586 41457 82703 10114 20094 40199 52007 70522 885// 333 56699 88610=
85586,2012,09,24,18,00,AAXX 24184 85586 12560 21907 10144 20102 40191 57008 60001 83500 333 56500 83625=
85586,2012,09,24,21,00,AAXX 24214 85586 42960 02008 10148 20090 40182 57010=
85586,2012,09,25,00,00,AAXX 25004 85586 12956 00000 10106 20084 40199 53016 60001 70500 333 10154=
85586,2012,09,25,03,00,AAXX 25034 85586 NIL=
85586,2012,09,25,06,00,AAXX 25064 85586 NIL=
85586,2012,09,25,09,00,AAXX 25094 85586 NIL=
85586,2012,09,25,12,00,AAXX 25124 85586 12101 80000 10082 20078 40180 55000 60004 7464/ 886// 333 20076 30/// 50170 55057 56799 88703=
85586,2012,09,25,15,00,AAXX 25154 85586 41308 62805 10116 20087 40182 51003 74622 86600 333 56600 86704=
85586,2012,09,25,18,00,AAXX 25184 85586 11103 82506 10134 20121 40171 57009 60001 74622 886// 333 56599 88703=
85586,2012,09,25,21,00,AAXX 25214 85586 41103 82006 10112 20103 40167 56004 74622 886// 333 56599 88702=
85586,2012,09,26,00,00,AAXX 26004 85586 12103 82605 10109 20099 40165 58003 69901 75044 886// 333 10126 56799 88704=
85586,2012,09,26,03,00,AAXX 26034 85586 NIL=
85586,2012,09,26,06,00,AAXX 26064 85586 NIL=
85586,2012,09,26,09,00,AAXX 26094 85586 NIL=
85586,2012,09,26,12,00,AAXX 26124 85586 11440 82703 10100 20081 40159 53005 69904 7022/ 885// 333 20099 30/// 50120 55014 56099 70000 88612=
85586,2012,09,26,15,00,AAXX 26154 85586 41440 82705 10110 20090 40166 52007 70522 885// 333 56099 88613=
85586,2012,09,26,18,00,AAXX 26184 85586 11440 82705 10116 20090 40163 58003 60001 70522 885// 333 56099 88612=
85586,2012,09,26,21,00,AAXX 26214 85586 41450 83005 10118 20088 40160 57003 70522 885// 333 56699 85613 88620=
85586,2012,09,27,00,00,AAXX 27004 85586 11450 82703 10109 20091 40162 53002 60001 70522 885// 333 10123 56099 88612=
85586,2012,09,27,03,00,AAXX 27034 85586 NIL=
85586,2012,09,27,06,00,AAXX 27064 85586 NIL=
85586,2012,09,27,09,00,AAXX 27094 85586 NIL=
85586,2012,09,27,12,00,AAXX 27124 85586 11330 80102 10104 20094 40185 52016 60014 7515/ 886// 333 20100 31/// 50100 55000 56099 70012 88709=
85586,2012,09,27,15,00,AAXX 27154 85586 41456 83105 10122 20093 40203 52018 70522 885// 333 56699 83615 87623=
85586,2012,09,27,18,00,AAXX 27184 85586 11458 73110 10130 20094 40210 52007 60001 70522 84530 333 56660 81617 83630 85360=
85586,2012,09,27,21,00,AAXX 27214 85586 41458 83106 10118 20093 40215 52005 70522=
85586,2012,09,28,00,00,AAXX 28004 85586 11558 80000 10110 20093 40234 52009 60001 70522 8753/ 333 10134 56669 87623=
85586,2012,09,28,03,00,AAXX 28034 85586 NIL=
85586,2012,09,28,06,00,AAXX 28064 85586 NIL=
85586,2012,09,28,09,00,AAXX 28094 85586 NIL=
85586,2012,09,28,12,00,AAXX 28124 85586 11958 70000 10108 20097 40244 52012 60004 70522 87030 333 20090 30/// 50110 55000 56060 87360=
85586,2012,09,28,15,00,AAXX 28154 85586 42560 32406 10142 20090 40243 58001 83500 333 56600 83630=
85586,2012,09,28,18,00,AAXX 28184 85586 12560 12308 10158 20112 40232 57011 60001 81500 333 56600 81620=
85586,2012,09,28,21,00,AAXX 28214 85586 42960 02310 10147 20094 40226 57006=
85586,2012,09,29,00,00,AAXX 29004 85586 12560 32202 10101 20078 40230 53004 60001 81501 333 10162 56606 81623 83075=
85586,2012,09,29,03,00,AAXX 29034 85586 NIL=
85586,2012,09,29,06,00,AAXX 29064 85586 NIL=
85586,2012,09,29,09,00,AAXX 29094 85586 NIL=
85586,2012,09,29,12,00,AAXX 29124 85586 11958 61204 10085 20072 40203 56008 60004 70522 86030 333 20042 30/// 50160 55095 56060 86362=
85586,2012,09,29,15,00,AAXX 29154 85586 42560 62411 10126 20091 40213 53011 81230 333 56760 81820 85362=
85586,2012,09,29,18,00,AAXX 29184 85586 12560 32409 10162 20111 40205 58008 60001 83100 333 56700 83820=
85586,2012,09,29,21,00,AAXX 29214 85586 42960 22310 10141 20096 40198 56007 80001 333 56006 82075=
85586,2012,09,30,00,00,AAXX 30004 85586 12960 01104 10103 20075 40201 53004 60001 333 166=
85586,2012,09,30,03,00,AAXX 30034 85586 NIL=
85586,2012,09,30,06,00,AAXX 30064 85586 NIL=
85586,2012,09,30,09,00,AAXX 30094 85586 NIL=
85586,2012,09,30,12,00,AAXX 30124 85586 11558 80704 10093 20084 40204 53008 60004 7052/ 885// 333 20029 30/// 50180 55065 56799 88620=
85586,2012,09,30,15,00,AAXX 30154 85586 42560 82706 10128 20091 40213 51010 885// 333 56799 88625=
85586,2012,09,30,18,00,AAXX 30184 85586 12560 62309 10154 20094 40207 58005 60001 86500 333 56700 82515 86525=
85586,2012,09,30,21,00,AAXX 30214 85586 42960 02311 10146 20085 40201 56006=
85586,2012,10,01,00,00,AAXX 01004 85586 12958 00000 10102 20073 40213 53011 60001 333 10156=
85586,2012,10,01,03,00,AAXX 01034 85586 NIL=
85586,2012,10,01,06,00,AAXX 01064 85586 NIL=
85586,2012,10,01,09,00,AAXX 01094 85586 NIL=
85586,2012,10,01,12,00,AAXX 01124 85586 12960 81004 10063 20053 40188 57026 60004 8803/ 333 20021 30/// 50180 55048 56069 88365=
85586,2012,10,01,15,00,AAXX 01154 85586 41957 82008 10114 20082 40185 54001 70522 8803/ 333 56059 88365=
85586,2012,10,01,18,00,AAXX 01184 85586 12956 82706 10124 20072 40185 58002 60001 70522 8803/ 333 56069 89362=
85586,2012,10,01,21,00,AAXX 01214 85586 41957 62505 10116 20070 40191 52008 70522 86030 333 56050 86362=
85586,2012,10,02,00,00,AAXX 02004 85586 12956 62304 10104 20063 40213 52020 60001 70522 86030 333 10134 56060 86362=
85586,2012,10,02,03,00,AAXX 02034 85586 NIL=
85586,2012,10,02,06,00,AAXX 02064 85586 NIL=
85586,2012,10,02,09,00,AAXX 02094 85586 NIL=
85586,2012,10,02,12,00,AAXX 02124 85586 12960 71802 10062 20048 40212 52007 60004 80001 333 20012 30/// 50110 55000 56006 87075=
85586,2012,10,02,15,00,AAXX 02154 85586 42960 52805 10144 20081 40220 52007 85031 333 56066 82365 84073=
85586,2012,10,02,18,00,AAXX 02184 85586 12960 32511 10160 20100 40221 54001 60001 80001 333 56005 83073=
85586,2012,10,02,21,00,AAXX 02214 85586 42960 02408 10154 20104 40202 57018=
85586,2012,10,03,00,00,AAXX 03004 85586 12960 10000 10090 20060 40222 52020 60001 80001 333 10162 56006 81075=
85586,2012,10,03,03,00,AAXX 03034 85586 NIL=
85586,2012,10,03,06,00,AAXX 03064 85586 NIL=
85586,2012,10,03,09,00,AAXX 03094 85586 NIL=
85586,2012,10,03,12,00,AAXX 03124 85586 12960 00000 10062 20052 40218 56004 60004 333 20010 30/// 55102=
85586,2012,10,03,15,00,AAXX 03154 85586 42960 02410 10140 20084 40215 58003=
85586,2012,10,03,18,00,AAXX 03184 85586 12960 02311 10150 20071 40197 57018 60001=
85586,2012,10,03,21,00,AAXX 03214 85586 42960 32409 10142 20070 40189 57008 80001 333 56006 83075=
85586,2012,10,04,00,00,AAXX 04004 85586 12560 42002 10099 20060 40194 53005 60001 82501 333 10168 56606 82630 83075=
85586,2012,10,04,03,00,AAXX 04034 85586 NIL=
85586,2012,10,04,06,00,AAXX 04064 85586 NIL=
85586,2012,10,04,09,00,AAXX 04094 85586 NIL=
85586,2012,10,04,12,00,AAXX 04124 85586 12960 60802 10068 20058 40123 52013 60004 80002 333 20026 30/// 50130 55101 86075=
85586,2012,10,04,15,00,AAXX 04154 85586 42960 62806 10124 20070 40221 56007 80001 333 56006 86073=
85586,2012,10,04,18,00,AAXX 04184 85586 12960 52806 10120 20077 40213 56008 60001 85030 333 56060 85365=
85586,2012,10,04,21,00,AAXX 04214 85586 42960 62503 10114 20077 40207 56006 86030 333 56050 86362=
85586,2012,10,05,00,00,AAXX 05004 85586 12960 70000 10104 20094 40216 52010 60001 87030 333 10130 56060 87362=
85586,2012,10,05,03,00,AAXX 05034 85586 NIL=
85586,2012,10,05,06,00,AAXX 05064 85586 NIL=
85586,2012,10,05,09,00,AAXX 05094 85586 NIL=
85586,2012,10,05,12,00,AAXX 05124 85586 12960 80000 10113 20091 40182 56008 69924 8803/ 333 20097 31/// 50140 55004 56069 70002 88362=
85586,2012,10,05,15,00,AAXX 05154 85586 41958 80504 10132 20110 40179 54000 70522 8803/ 333 56019 88360=
85586,2012,10,05,18,00,AAXX 05184 85586 12960 62806 10164 20094 40171 57008 60001 86030 333 56060 86362=
85586,2012,10,05,21,00,AAXX 05214 85586 42958 72408 10140 20096 40170 56002 70522 87030 333 56050 87360=
85586,2012,10,06,00,00,AAXX 06004 85586 12956 70000 10127 20107 40152 58018 60001 70522 80001 333 10166 56006 87075=
85586,2012,10,06,03,00,AAXX 06034 85586 NIL=
85586,2012,10,06,06,00,AAXX 06064 85586 NIL=
85586,2012,10,06,09,00,AAXX 06094 85586 NIL=
85586,2012,10,06,12,00,AAXX 06124 85586 12540 82308 10104 20094 40164 52024 60104 7604/ 333 20102 32/// 50120 55005 56799 70099 88825=
85586,2012,10,06,15,00,AAXX 06154 85586 41556 82405 10112 20096 40181 52018 72588 882// 333 56799 88820=
85586,2012,10,06,18,00,AAXX 06184 85586 12456 82307 10111 20087 40200 52018 60441 70588 882// 333 56799 82815 88825=
85586,2012,10,06,21,00,AAXX 06214 85586 42958 82104 10119 20095 40196 58004 70588 882// 333 56799 81815 88825=
85586,2012,10,07,00,00,AAXX 07004 85586 12958 61704 10108 20088 40188 56007 69911 70511 80001 333 10121 56006 86075=
85586,2012,10,07,03,00,AAXX 07034 85586 NIL=
85586,2012,10,07,06,00,AAXX 07064 85586 NIL=
85586,2012,10,07,09,00,AAXX 07094 85586 NIL=
85586,2012,10,07,12,00,AAXX 07124 85586 12520 83304 10104 20094 40192 52022 60064 7604/ 8802/ 333 20071 32/// 50110 55000 56079 70058 88540=
85586,2012,10,07,15,00,AAXX 07154 85586 41340 83004 10131 20115 40210 52020 71055 886// 333 56799 88707=
85586,2012,10,07,18,00,AAXX 07184 85586 12456 82304 10133 20107 40209 58002 60011 78088 882// 333 56799 82815 88825=
85586,2012,10,07,21,00,AAXX 07214 85586 42460 62607 10128 20101 40214 53005 70188 86200 333 56700 83815 86825=
85586,2012,10,08,00,00,AAXX 08004 85586 12558 80000 10116 20102 40236 52022 69971 78088 882// 333 10136 56799 88825=
85586,2012,10,08,03,00,AAXX 08034 85586 NIL=
85586,2012,10,08,06,00,AAXX 08064 85586 NIL=
85586,2012,10,08,09,00,AAXX 08094 85586 NIL=
85586,2012,10,08,12,00,AAXX 08124 85586 11460 40602 10104 20083 40242 52010 60034 7016/ 82530 333 20084 32/// 50090 55005 56660 70032 82615 83362=
85586,2012,10,08,15,00,AAXX 08154 85586 42560 62406 10124 20094 40247 52005 84530 333 56660 84623 85360=
85586,2012,10,08,18,00,AAXX 08184 85586 12460 62008 10144 20096 40258 52011 60001 86530 333 56550 83617 84360=
85586,2012,10,08,21,00,AAXX 08214 85586 42560 31911 10136 20091 40242 57017 83530 333 56440 82820=
85586,2012,10,09,00,00,AAXX 09004 85586 12560 11803 10104 20079 40245 52004 60001 81500 333 10151 56600 81620=
85586,2012,10,09,03,00,AAXX 09034 85586 NIL=
85586,2012,10,09,06,00,AAXX 09064 85586 NIL=
85586,2012,10,09,09,00,AAXX 09094 85586 NIL=
85586,2012,10,09,12,00,AAXX 09124 85586 12560 70000 10084 20073 40251 52011 60004 85530 333 20036 31/// 50120 55047 56660 85633=
85586,2012,10,09,15,00,AAXX 09154 85586 42560 62703 10134 20092 40255 51005 86500 333 56600 86620=
85586,2012,10,09,18,00,AAXX 09184 85586 12560 42310 10152 20112 40251 56004 60001 84500 333 56600 84625=
85586,2012,10,09,21,00,AAXX 09214 85586 42960 02208 10138 20102 40231 57020=
85586,2012,10,10,00,00,AAXX 10004 85586 12960 00404 10100 20085 40232 54000 60001 333 10154=
85586,2012,10,10,03,00,AAXX 10034 85586 NIL=
85586,2012,10,10,06,00,AAXX 10064 85586 NIL=
85586,2012,10,10,09,00,AAXX 10094 85586 NIL=
85586,2012,10,10,12,00,AAXX 10124 85586 12960 00000 10108 20095 40173 56002 60001 333 20050 31/// 50120 55076=
85586,2012,10,10,15,00,AAXX 10154 85586 42460 22407 10142 20108 40163 57010 82600 333 56600 82710=
85586,2012,10,10,18,00,AAXX 10184 85586 11457 32309 10136 20109 40153 57010 60001 83600 333 56600 83712=
85586,2012,10,10,21,00,AAXX 10214 85586 41457 12408 10140 20108 40145 56008 70511 81500 333 56600 81612=
85586,2012,10,11,00,00,AAXX 11004 85586 11456 80202 10107 20097 40154 53009 60001 70522 885// 333 10148 56099 88612=
85586,2012,10,11,03,00,AAXX 11034 85586 NIL=
85586,2012,10,11,06,00,AAXX 11064 85586 NIL=
85586,2012,10,11,09,00,AAXX 11094 85586 NIL=
85586,2012,10,11,12,00,AAXX 11124 85586 11110 83403 10114 20110 40177 52025 69924 75052 886// 333 20110 31/// 50280 55099 56799 70002 88703=
85586,2012,10,11,15,00,AAXX 11154 85586 41230 82807 10128 20107 40188 52012 71022 886// 333 56699 88706=
85586,2012,10,11,18,00,AAXX 11184 85586 12460 83010 10134 20108 40197 52016 60001 885// 333 56799 88610=
85586,2012,10,11,21,00,AAXX 11214 85586 41358 83005 10122 20112 40183 57014 70522 885// 333 56799 88608=
85586,2012,10,12,00,00,AAXX 12004 85586 12354 82803 10105 20097 40188 51004 60001 70522 885// 333 10135 56699 88603=
85586,2012,10,12,03,00,AAXX 12034 85586 NIL=
85586,2012,10,12,06,00,AAXX 12064 85586 NIL=
85586,2012,10,12,09,00,AAXX 12094 85586 NIL=
85586,2012,10,12,12,00,AAXX 12124 85586 11220 80000 10116 20112 40197 52012 60044 75052 886// 333 20111 31/// 50200 55000 56799 70004 88704=
85586,2012,10,12,15,00,AAXX 12154 85586 41340 83206 10134 20098 40209 52012 70522 885// 333 56799 88608=
85586,2012,10,12,18,00,AAXX 12184 85586 11458 82206 10140 20090 40205 56004 60001 70522 885// 333 56599 88612=
85586,2012,10,12,21,00,AAXX 12214 85586 42560 82705 10134 20098 40195 57008 885// 333 56599 88615=
85586,2012,10,13,00,00,AAXX 13004 85586 12458 81803 10122 20102 40186 56002 60001 70522 885// 333 10144 56599 88610=
85586,2012,10,13,03,00,AAXX 13034 85586 NIL=
85586,2012,10,13,06,00,AAXX 13064 85586 NIL=
85586,2012,10,13,09,00,AAXX 13094 85586 NIL=
85586,2012,10,13,12,00,AAXX 13124 85586 12560 70000 10124 20106 40194 52006 60004 87500 333 20116 30/// 50270 55000 56600 70000 87627=
85586,2012,10,13,15,00,AAXX 13154 85586 42560 83208 10144 20078 40199 52007 885// 333 56799 88630=
85586,2012,10,13,18,00,AAXX 13184 85586 12760 73010 10162 20082 40215 52012 60001 87500 333 56700 87650=
85586,2012,10,13,21,00,AAXX 13214 85586 42860 32206 10150 20082 40189 57022 83030 333 56050 83357=
85586,2012,10,14,00,00,AAXX 14004 85586 12857 30000 10124 20098 40189 56002 60001 83030 333 10164 56060 83356=
85586,2012,10,14,03,00,AAXX 14034 85586 NIL=
85586,2012,10,14,06,00,AAXX 14064 85586 NIL=
85586,2012,10,14,09,00,AAXX 14094 85586 NIL=
85586,2012,10,14,12,00,AAXX 14124 85586 12460 80803 10121 20104 40200 52009 60004 8153/ 333 20116 30/// 50120 55040 56609 81610 88360=
85586,2012,10,14,15,00,AAXX 14154 85586 42860 63010 10150 20083 40211 52010 86030 333 56070 86358=
85586,2012,10,14,18,00,AAXX 14184 85586 12860 63210 10154 20092 40221 52010 60001 86030 333 56070 86357=
85586,2012,10,14,21,00,AAXX 14214 85586 42560 22006 10150 20090 40221 54000 82500 333 56500 82625=
85586,2012,10,15,00,00,AAXX 15004 85586 12660 40000 10109 20092 40230 52010 60001 84500 333 10161 56600 84640=
85586,2012,10,15,03,00,AAXX 15034 85586 NIL=
85586,2012,10,15,06,00,AAXX 15064 85586 NIL=
85586,2012,10,15,09,00,AAXX 15094 85586 NIL=
85586,2012,10,15,12,00,AAXX 15124 85586 12960 00000 10104 20091 40231 57004 60004 333 20056 30/// 50140 55053=
85586,2012,10,15,15,00,AAXX 15154 85586 NIL=
85586,2012,10,15,18,00,AAXX 15184 85586 12560 12314 10158 20052 40224 57011 60001 81500 333 56600 81623=
85586,2012,10,15,21,00,AAXX 15214 85586 42960 02311 10154 20086 40209 57015=
85586,2012,10,16,00,00,AAXX 16004 85586 12960 00000 10121 20091 40205 57004 60001 333 10172=
85586,2012,10,16,03,00,AAXX 16034 85586 NIL=
85586,2012,10,16,06,00,AAXX 16064 85586 NIL=
85586,2012,10,16,09,00,AAXX 16094 85586 NIL=
85586,2012,10,16,12,00,AAXX 16124 85586 12960 00000 10110 20093 40171 57011 60004 333 20050 30/// 50190 55107=
85586,2012,10,16,15,00,AAXX 16154 85586 42960 02309 10182 20101 40163 57018=
85586,2012,10,16,18,00,AAXX 16184 85586 12960 12311 10170 20103 40148 57015 60001 80001 333 56006 81075=
85586,2012,10,16,21,00,AAXX 16214 85586 42960 22604 10172 20105 40115 57023 80001 333 56006 82075=
85586,2012,10,17,00,00,AAXX 17004 85586 12960 53302 10101 20088 40132 52007 60001 80001 333 10200 56006 85075=
85586,2012,10,17,03,00,AAXX 17034 85586 NIL=
85586,2012,10,17,06,00,AAXX 17064 85586 NIL=
85586,2012,10,17,09,00,AAXX 17094 85586 NIL=
85586,2012,10,17,12,00,AAXX 17124 85586 12320 82904 10124 20111 40174 52026 69904 7505/ 886// 333 20104 31/// 50210 55102 56799 88709=
85586,2012,10,17,15,00,AAXX 17154 85586 41450 82805 10134 20114 40177 52004 70522 885// 333 56699 88612=
85586,2012,10,17,18,00,AAXX 17184 85586 11458 83207 10148 20104 40191 52014 60001 70522 885// 333 56799 88617=
85586,2012,10,17,21,00,AAXX 17214 85586 41456 82805 10140 20100 40199 52008 70522 885// 333 56799 88615=
85586,2012,10,18,00,00,AAXX 18004 85586 11556 82105 10127 20100 40207 53006 60001 885// 333 10150 56799 88625=
85586,2012,10,18,03,00,AAXX 18034 85586 NIL=
85586,2012,10,18,06,00,AAXX 18064 85586 NIL=
85586,2012,10,18,09,00,AAXX 18094 85586 NIL=
85586,2012,10,18,12,00,AAXX 18124 85586 12558 80000 10122 20086 40188 53016 60004 7052/ 885// 333 20116 30/// 50190 55000 56799 88625=
85586,2012,10,18,15,00,AAXX 18154 85586 41557 82406 10144 20082 40192 52005 70522 885// 333 56599 88620=
85586,2012,10,18,18,00,AAXX 18184 85586 12660 32206 10160 20080 40190 56002 60001 83500 333 56500 83630=
85586,2012,10,18,21,00,AAXX 18214 85586 41660 62307 10138 20085 40187 56003 86500 333 56500 86630=
85586,2012,10,19,00,00,AAXX 19004 85586 11558 52404 10123 20076 40186 58002 60001 85500 333 10164 56700 85625=
85586,2012,10,19,03,00,AAXX 19034 85586 NIL=
85586,2012,10,19,06,00,AAXX 19064 85586 NIL=
85586,2012,10,19,09,00,AAXX 19094 85586 NIL=
85586,2012,10,19,12,00,AAXX 19124 85586 12558 80000 10117 20082 40177 53012 60004 7052/ 885// 333 20107 30/// 50210 55031 56799 88625=
85586,2012,10,19,15,00,AAXX 19154 85586 42460 52705 10142 20073 40181 52005=
85586,2012,10,19,18,00,AAXX 19184 85586 12560 33008 10164 20070 40180 54001 60001 83500 333 56500 83640=
85586,2012,10,19,21,00,AAXX 19214 85586 42960 23206 10154 20087 40182 54002 80001 333 56007 82073=
85586,2012,10,20,00,00,AAXX 20004 85586 11958 70000 10124 20071 40185 53002 60001 87030 333 10167 56060 87365=
85586,2012,10,20,03,00,AAXX 20034 85586 NIL=
85586,2012,10,20,06,00,AAXX 20064 85586 NIL=
85586,2012,10,20,09,00,AAXX 20094 85586 NIL=
85586,2012,10,20,12,00,AAXX 20124 85586 12960 70000 10124 20085 40174 53007 60004 87030 333 20089 30/// 50180 55067 56060 87362=
85586,2012,10,20,15,00,AAXX 20154 85586 42960 72705 10151 20087 40175 54001 87030 333 56060 87362=
85586,2012,10,20,18,00,AAXX 20184 85586 12960 72707 10161 20084 40174 54001 60001 87030 333 56060 87365=
85586,2012,10,20,21,00,AAXX 20214 85586 42960 72506 10151 20100 40169 58005 87030 333 56060 87362=
85586,2012,10,21,00,00,AAXX 21004 85586 12960 50000 10134 20100 40172 53003 60001 85030 333 10163 56060 87365=
85586,2012,10,21,03,00,AAXX 21034 85586 NIL=
85586,2012,10,21,06,00,AAXX 21064 85586 NIL=
85586,2012,10,21,09,00,AAXX 21094 85586 NIL=
85586,2012,10,21,12,00,AAXX 21124 85586 12460 80000 10121 20105 40147 55002 60004 8853/ 333 20093 30/// 50180 55037 56769 82615 88362=
85586,2012,10,21,15,00,AAXX 21154 85586 42960 83206 10153 20108 40160 51012 882// 333 56799 82815 88825=
85586,2012,10,21,18,00,AAXX 21184 85586 12460 73014 10151 20112 40160 50000 60001 87200 333 56700 81815 87825=
85586,2012,10,21,21,00,AAXX 21214 85586 41459 83110 10131 20104 40165 52005 76062 88200 333 56799 82815 88625=
85586,2012,10,22,00,00,AAXX 22004 85586 11460 70303 10110 20106 40171 52006 60061 70262 87500 333 10175 56700 87617=
85586,2012,10,22,03,00,AAXX 22034 85586 NIL=
85586,2012,10,22,06,00,AAXX 22064 85586 NIL=
85586,2012,10,22,09,00,AAXX 22094 85586 NIL=
85586,2012,10,22,12,00,AAXX 22124 85586 12560 70000 10118 20099 40207 52020 60074 87500 333 20104 31/// 50210 55015 56600 70067 87623=
85586,2012,10,22,15,00,AAXX 22154 85586 42660 42605 10166 20103 40210 51003 84100 333 56600 84830=
85586,2012,10,22,18,00,AAXX 22184 85586 12660 32507 10170 20096 40204 57005 60001 83100 333 56500 83830=
85586,2012,10,22,21,00,AAXX 22214 85586 42960 02007 10158 20100 40196 57007=
85586,2012,10,23,00,00,AAXX 23004 85586 12960 02304 10138 20103 40194 56002 60001 333 10174=
85586,2012,10,23,03,00,AAXX 23034 85586 NIL=
85586,2012,10,23,06,00,AAXX 23064 85586 NIL=
85586,2012,10,23,09,00,AAXX 23094 85586 NIL=
85586,2012,10,23,12,00,AAXX 23124 85586 12960 10000 10119 20079 40169 54000 60004 80001 333 20060 31/// 50300 55102 56006 70000 81073=
85586,2012,10,23,15,00,AAXX 23154 85586 42960 52210 10145 20080 40161 57008 80001 333 56005 85070=
85586,2012,10,23,18,00,AAXX 23184 85586 12960 52213 10170 20108 40155 57006 60001 85301 333 56055 82362 84073=
85586,2012,10,23,21,00,AAXX 23214 85586 42960 22012 10156 20106 40151 56004 80001 333 56005 82073=
85586,2012,10,24,00,00,AAXX 24004 85586 12960 42005 10136 20103 40161 52011 60001 84030 333 10174 56050 84365=
85586,2012,10,24,03,00,AAXX 24034 85586 NIL=
85586,2012,10,24,06,00,AAXX 24064 85586 NIL=
85586,2012,10,24,09,00,AAXX 24094 85586 NIL=
85586,2012,10,24,12,00,AAXX 24124 85586 12960 00000 10141 20103 40189 52018 60004 333 20091 30/// 5//// 55103=
85586,2012,10,24,15,00,AAXX 24154 85586 42960 22808 10162 20104 40192 52004 82030 333 56060 82365=
85586,2012,10,24,18,00,AAXX 24184 85586 12960 02510 10174 20082 40183 57012=
85586,2012,10,24,21,00,AAXX 24214 85586 42960 02412 10162 20082 40180 56003=
85586,2012,10,25,00,00,AAXX 25004 85586 12958 02004 10124 20085 40188 53007 60001 70500 333 10176=
85586,2012,10,25,03,00,AAXX 25034 85586 NIL=
85586,2012,10,25,06,00,AAXX 25064 85586 NIL=
85586,2012,10,25,09,00,AAXX 25094 85586 NIL=
85586,2012,10,25,12,00,AAXX 25124 85586 12960 00000 10124 20089 40184 53012 60004 81600 333 20071 30/// 5//// 55/// 86700 81604=
85586,2012,10,25,15,00,AAXX 25154 85586 42960 02707 10157 20102 40188 51004=
85586,2012,10,25,18,00,AAXX 25184 85586 12960 02311 10164 20102 40187 54000=
85586,2012,10,25,21,00,AAXX 25214 85586 42960 02312 10166 20092 40175 58011=
85586,2012,10,26,00,00,AAXX 26004 85586 12960 02404 10128 20086 40179 53004 60001 333 10182=
85586,2012,10,26,03,00,AAXX 26034 85586 NIL=
85586,2012,10,26,06,00,AAXX 26064 85586 NIL=
85586,2012,10,26,09,00,AAXX 26094 85586 NIL=
85586,2012,10,26,12,00,AAXX 26124 85586 11257 30904 10102 20087 40171 56006 60001 70500 83600 333 20058 30/// 55068 56200 70000 83704=
85586,2012,10,26,15,00,AAXX 26154 85586 42960 03008 10172 20086 40181 52009=
85586,2012,10,26,18,00,AAXX 26184 85586 12960 02408 10181 20072 40185 52005 60001=
85586,2012,10,26,21,00,AAXX 26214 85586 42960 02010 10160 20088 40171 57014=
85586,2012,10,27,00,00,AAXX 27004 85586 12960 02207 10136 20094 40164 56002 60001 333 10184=
85586,2012,10,27,03,00,AAXX 27034 85586 NIL=
85586,2012,10,27,06,00,AAXX 27064 85586 NIL=
85586,2012,10,27,09,00,AAXX 27094 85586 NIL=
85586,2012,10,27,12,00,AAXX 27124 85586 12960 70000 10108 20090 40160 55008 60004 86031 333 20077 30/// 55112 56066 70000 86365=
85586,2012,10,27,15,00,AAXX 27154 85586 42960 62308 10157 20105 40175 52017 82031 333 56066 82365 84073=
85586,2012,10,27,18,00,AAXX 27184 85586 12960 22308 10181 20111 40165 58011 60001 80001 333 56006 82073=
85586,2012,10,27,21,00,AAXX 27214 85586 42960 22308 10172 20118 40149 57016 80001 333 56006 82073=
85586,2012,10,28,00,00,AAXX 28004 85586 12960 30000 10128 20091 40152 52002 60001 80001 333 10186 56006 83070=
85586,2012,10,28,03,00,AAXX 28034 85586 NIL=
85586,2012,10,28,06,00,AAXX 28064 85586 NIL=
85586,2012,10,28,09,00,AAXX 28094 85586 NIL=
85586,2012,10,28,12,00,AAXX 28124 85586 12960 00000 10125 20107 40134 52017 60004 333 20060 30/// 55093 70000=
85586,2012,10,28,15,00,AAXX 28154 85586 42960 02606 10170 20109 40140 52007=
85586,2012,10,28,18,00,AAXX 28184 85586 12960 12907 10167 20101 40141 52001 60001 80001 333 56006 81073=
85586,2012,10,28,21,00,AAXX 28214 85586 42360 43007 10157 20114 40134 58007 83701 333 56706 83608=
85586,2012,10,29,00,00,AAXX 29004 85586 12460 20000 10124 20098 40142 52007 60001 82700 333 10176 56700 82610=
85586,2012,10,29,03,00,AAXX 29034 85586 NIL=
85586,2012,10,29,06,00,AAXX 29064 85586 NIL=
85586,2012,10,29,09,00,AAXX 29094 85586 NIL=
85586,2012,10,29,12,00,AAXX 29124 85586 12960 02306 10142 20088 40201 52024 60004 333 20102 30/// 50210 55118=
85586,2012,10,29,15,00,AAXX 29154 85586 42960 02410 10161 20092 40191 58010=
85586,2012,10,29,18,00,AAXX 29184 85586 12960 02710 10172 20094 40177 57012 60001=
85586,2012,10,29,21,00,AAXX 29214 85586 42960 01907 10180 20100 40157 57020=
85586,2012,10,30,00,00,AAXX 30004 85586 NIL=
85586,2012,10,30,03,00,AAXX 30034 85586 NIL=
85586,2012,10,30,06,00,AAXX 30064 85586 NIL=
85586,2012,10,30,09,00,AAXX 30094 85586 NIL=
85586,2012,10,30,12,00,AAXX 30124 85586 12320 80209 10121 20105 40160 52031 60004 7102/ 885// 333 20062 30/// 50210 55126 56799 88612=
85586,2012,10,30,15,00,AAXX 30154 85586 41450 62808 10154 20108 40189 52030 70522 86500 333 56600 86610=
85586,2012,10,30,18,00,AAXX 30184 85586 11458 62406 10152 20094 40213 52022 60001 70522 86500 333 56500 86615=
85586,2012,10,30,21,00,AAXX 30214 85586 42460 42007 10150 20095 40216 51003 84500 333 56500 86615=
85586,2012,10,31,00,00,AAXX 31004 85586 12458 82109 10127 20084 40224 53009 60001 70522 885// 333 10156 56799 88615=
85586,2012,10,31,03,00,AAXX 31034 85586 NIL=
85586,2012,10,31,06,00,AAXX 31064 85586 NIL=
85586,2012,10,31,09,00,AAXX 31094 85586 NIL=
85586,2012,10,31,12,00,AAXX 31124 85586 12258 10104 10113 20087 40211 53012 60004 7050/ 81600 333 20034 30/// 50180 55040 56700 81704=
85586,2012,10,31,15,00,AAXX 31154 85586 41960 02511 10154 20086 40209 58002=
85586,2012,10,31,18,00,AAXX 31184 85586 11960 02314 10166 20095 40211 53003 60001=
85586,2012,10,31,21,00,AAXX 31214 85586 42960 02310 10173 20109 40198 58003=
85586,2012,11,01,00,00,AAXX 01004 85586 12958 00000 10133 20095 40202 53002 60001 70500 333 10176=
85586,2012,11,01,03,00,AAXX 01034 85586 NIL=
85586,2012,11,01,06,00,AAXX 01064 85586 NIL=
85586,2012,11,01,09,00,AAXX 01094 85586 NIL=
85586,2012,11,01,12,00,AAXX 01124 85586 12960 00000 10124 20079 40188 53010 60004 333 20055 30/// 50220 55118 70000=
85586,2012,11,01,15,00,AAXX 01154 85586 42960 02408 10166 20110 40182 58005=
85586,2012,11,01,18,00,AAXX 01184 85586 12960 02410 10166 20110 40175 57007 60001=
85586,2012,11,01,21,00,AAXX 01214 85586 42960 02306 10170 20108 40161 57014=
85586,2012,11,02,00,00,AAXX 02004 85586 12960 00000 10124 20080 40166 52004 60001 333 10176=
85586,2012,11,02,03,00,AAXX 02034 85586 NIL=
85586,2012,11,02,06,00,AAXX 02064 85586 NIL=
85586,2012,11,02,09,00,AAXX 02094 85586 NIL=
85586,2012,11,02,12,00,AAXX 02124 85586 11256 10000 10113 20089 40173 52009 60004 70522 81600 333 20058 30/// 50240 55105 56000 70000 81705=
85586,2012,11,02,15,00,AAXX 02154 85586 41140 12506 10140 20104 40185 52012 81600 333 56000 81703=
85586,2012,11,02,18,00,AAXX 02184 85586 11960 02206 10184 20107 40175 58010 60001 70240=
85586,2012,11,02,21,00,AAXX 02214 85586 42960 02310 10178 20140 40169 57005=
85586,2012,11,03,00,00,AAXX 03004 85586 12960 00000 10128 20095 40177 53008 60001 333 10190=
85586,2012,11,03,03,00,AAXX 03034 85586 NIL=
85586,2012,11,03,06,00,AAXX 03064 85586 NIL=
85586,2012,11,03,09,00,AAXX 03094 85586 NIL=
85586,2012,11,03,12,00,AAXX 03124 85586 12960 00000 10112 20084 40171 53005 60004 333 20060 30/// 50260 55106 70000=
85586,2012,11,03,15,00,AAXX 03154 85586 42960 02406 10165 20112 40167 58003=
85586,2012,11,03,18,00,AAXX 03184 85586 12960 02312 10176 20113 40159 57008 60001=
85586,2012,11,03,21,00,AAXX 03214 85586 42960 02408 10168 20116 40154 57005=
85586,2012,11,04,00,00,AAXX 04004 85586 12960 00000 10128 20095 40164 53009 60001 333 10186=
85586,2012,11,04,03,00,AAXX 04034 85586 NIL=
85586,2012,11,04,06,00,AAXX 04064 85586 NIL=
85586,2012,11,04,09,00,AAXX 04094 85586 NIL=
85586,2012,11,04,12,00,AAXX 04124 85586 12103 80000 10106 20098 40166 53006 60004 74444 886// 333 20081 30/// 50180 55110 56799 88603=
85586,2012,11,04,15,00,AAXX 04154 85586 42320 82607 10141 20108 40171 53005 70544 886// 333 56799 88709=
85586,2012,11,04,18,00,AAXX 04184 85586 NIL=
85586,2012,11,04,21,00,AAXX 04214 85586 42960 13210 10161 20110 40157 56011 81500 333 56700 81615=
85586,2012,11,05,00,00,AAXX 05004 85586 12958 00000 10126 20101 40159 54001 60001 70500 333 10165=
85586,2012,11,05,03,00,AAXX 05034 85586 NIL=
85586,2012,11,05,06,00,AAXX 05064 85586 NIL=
85586,2012,11,05,09,00,AAXX 05094 85586 NIL=
85586,2012,11,05,12,00,AAXX 05124 85586 12208 70000 10109 20096 40165 53007 60004 7460/ 87600 333 20049 30/// 50180 55061 56700 87704=
85586,2012,11,05,15,00,AAXX 05154 85586 NIL=
85586,2012,11,05,18,00,AAXX 05184 85586 12960 03007 10172 20121 40152 57017 60001=
85586,2012,11,05,21,00,AAXX 05214 85586 42960 03505 10162 20120 40142 57010=
85586,2012,11,06,00,00,AAXX 06004 85586 12958 00107 10138 20092 40144 53002 60001 70500 333 10174=
85586,2012,11,06,03,00,AAXX 06034 85586 NIL=
85586,2012,11,06,06,00,AAXX 06064 85586 NIL=
85586,2012,11,06,09,00,AAXX 06094 85586 NIL=
85586,2012,11,06,12,00,AAXX 06124 85586 12203 83604 10115 20106 40140 53008 60004 7460/ 886// 333 20046 30/// 50180 55109 56799 88704=
85586,2012,11,06,15,00,AAXX 06154 85586 41215 83210 10142 20113 40145 52005 71022 886// 333 56799 88704=
85586,2012,11,06,18,00,AAXX 06184 85586 11320 83010 10152 20107 40151 52006 60001 71022 885// 333 56799 88608=
85586,2012,11,06,21,00,AAXX 06214 85586 41440 83210 10148 20120 40144 57008 70522 885// 333 56799 88610=
85586,2012,11,07,00,00,AAXX 07004 85586 12456 83005 10142 20113 40145 53002 60001 70522 885// 333 10156=
85586,2012,11,07,03,00,AAXX 07034 85586 NIL=
85586,2012,11,07,06,00,AAXX 07064 85586 NIL=
85586,2012,11,07,09,00,AAXX 07094 85586 NIL=
85586,2012,11,07,12,00,AAXX 07124 85586 12460 02404 10124 20106 40155 53006 60004 886// 333 20118 30/// 50200 55007 56699 70000 88710=
85586,2012,11,07,15,00,AAXX 07154 85586 42560 42806 10154 20096 40165 52014 84500 333 56600 84620=
85586,2012,11,07,18,00,AAXX 07184 85586 12560 72306 10168 20106 40163 56002 60001 87500 333 56500 87630=
85586,2012,11,08,00,00,AAXX 08004 85586 11560 41903 10134 20108 40147 57012 60001 84500 333 10170 56500 84625=
85586,2012,11,08,03,00,AAXX 08034 85586 NIL=
85586,2012,11,08,06,00,AAXX 08064 85586 NIL=
85586,2012,11,08,09,00,AAXX 08094 85586 NIL=
85586,2012,11,08,12,00,AAXX 08124 85586 11557 83602 10134 20110 40136 56003 60004 7052/ 8553/ 333 20129 30/// 50140 55052 56669 85630 88360=
85586,2012,11,08,15,00,AAXX 08154 85586 42960 83211 10144 20098 40147 52011 8803/ 333 56079 88360=
85586,2012,11,08,18,00,AAXX 08184 85586 12860 83510 10156 20110 40149 52005 60001 8803/ 333 56079 88357=
85586,2012,11,08,21,00,AAXX 08214 85586 42560 73308 10154 20112 40145 57008 87530 333 56770 82630 86358=
85586,2012,11,09,00,00,AAXX 09004 85586 12560 73105 10146 20100 40147 53002 60001 87500 333 10166 56600 87630=
85586,2012,11,09,03,00,AAXX 09034 85586 NIL=
85586,2012,11,09,06,00,AAXX 09064 85586 NIL=
85586,2012,11,09,09,00,AAXX 09094 85586 NIL=
85586,2012,11,09,12,00,AAXX 09124 85586 11420 83605 10130 20123 40167 52012 60024 7606/ 885// 333 20124 31/// 50100 55000 56099 70018 88618=
85586,2012,11,09,15,00,AAXX 09154 85586 41450 73307 10144 20130 40173 52006 71066 83530 333 56770 82610 83626 87360=
85586,2012,11,09,18,00,AAXX 09184 85586 11456 63211 10162 20133 40178 52005 60061 70566 84530 333 56770 84615 86362=
85586,2012,11,09,21,00,AAXX 09214 85586 42460 33210 10170 20114 40181 51003 83500 333 56600 81610 83617=
85586,2012,11,10,00,00,AAXX 10004 85586 12460 42706 10136 20114 40189 52005 60001 84500 333 10181 56700 84615=
85586,2012,11,10,03,00,AAXX 10034 85586 NIL=
85586,2012,11,10,06,00,AAXX 10064 85586 NIL=
85586,2012,11,10,09,00,AAXX 10094 85586 NIL=
85586,2012,11,10,12,00,AAXX 10124 85586 11558 81005 10133 20107 40199 53013 60004 7051/ 885// 333 20096 31/// 50180 55048 56799 88625=
85586,2012,11,10,15,00,AAXX 10154 85586 NIL=
85586,2012,11,10,18,00,AAXX 10184 85586 11960 02810 10183 20092 40190 58007 60001=
85586,2012,11,10,21,00,AAXX 10214 85586 42960 02409 10172 20108 40187 56003=
85586,2012,11,11,00,00,AAXX 11004 85586 12960 00000 10144 20103 40194 53006 60001 333 10186=
85586,2012,11,11,03,00,AAXX 11034 85586 NIL=
85586,2012,11,11,06,00,AAXX 11064 85586 NIL=
85586,2012,11,11,09,00,AAXX 11094 85586 NIL=
85586,2012,11,11,12,00,AAXX 11124 85586 11958 02204 10137 20111 40185 53012 60004 7050/ 333 20072 30/// 50180 55089=
85586,2012,11,11,15,00,AAXX 11154 85586 42960 02507 10201 20138 40170 58014=
85586,2012,11,11,18,00,AAXX 11184 85586 11960 02314 10186 20131 40153 57017 60001=
85586,2012,11,11,21,00,AAXX 11214 85586 42960 02606 10197 20137 40136 57017=
85586,2012,11,12,00,00,AAXX 12004 85586 12958 00207 10151 20130 40139 53003 60001 70500 333 10203=
85586,2012,11,12,03,00,AAXX 12034 85586 NIL=
85586,2012,11,12,06,00,AAXX 12064 85586 NIL=
85586,2012,11,12,09,00,AAXX 12094 85586 NIL=
85586,2012,11,12,12,00,AAXX 12124 85586 11208 83207 10141 20125 40155 52018 60004 74244 886// 333 20122 30/// 50180 55125 56799 88704=
85586,2012,11,12,15,00,AAXX 12154 85586 41210 82808 10142 20132 40169 52015 71022 886// 333 56699 88706=
85586,2012,11,12,18,00,AAXX 12184 85586 11430 82707 10152 20108 40163 56006 60001 71022 885// 333 56699 88610=
85586,2012,11,12,21,00,AAXX 12214 85586 41450 81907 10140 20111 40159 56004 70522 885// 333 56499 88610=
85586,2012,11,13,00,00,AAXX 13004 85586 11340 82405 10138 20111 40168 53008 60001 70522 886// 333 10154 56799 88708=
85586,2012,11,13,03,00,AAXX 13034 85586 NIL=
85586,2012,11,13,06,00,AAXX 13064 85586 NIL=
85586,2012,11,13,09,00,AAXX 13094 85586 NIL=
85586,2012,11,13,12,00,AAXX 13124 85586 11440 80000 10120 20108 40170 53002 60004 7102/ 886// 333 20118 30/// 50110 55000 56099 88712=
85586,2012,11,13,15,00,AAXX 13154 85586 41440 82504 10132 20116 40176 52006 71022 886// 333 56099 88710=
85586,2012,11,13,18,00,AAXX 13184 85586 11458 82707 10160 20113 40167 57008 60001 70522 885// 333 56699 88617=
85586,2012,11,13,21,00,AAXX 13214 85586 42560 72506 10150 20098 40159 57008 87500 333 56500 87620=
85586,2012,11,14,00,00,AAXX 14004 85586 11458 82703 10130 20105 40170 52010 60001 70522 885// 333 10168 56099 88612=
85586,2012,11,14,03,00,AAXX 14034 85586 NIL=
85586,2012,11,14,06,00,AAXX 14064 85586 NIL=
85586,2012,11,14,09,00,AAXX 14094 85586 NIL=
85586,2012,11,14,12,00,AAXX 14124 85586 11430 80000 10124 20111 40168 53003 60004 7102/ 886// 333 20122 30/// 50120 55017 56099 88710=
85586,2012,11,14,15,00,AAXX 14154 85586 41450 82804 10134 20110 40170 51003 70522 885// 333 56699 88610=
85586,2012,11,14,18,00,AAXX 14184 85586 11358 83006 10148 20102 40176 52006 60001 70522 885// 333 56799 88608=
85586,2012,11,14,21,00,AAXX 14214 85586 41350 82704 10140 20113 40168 57008 70522 885// 333 56799 88610=
85586,2012,11,15,00,00,AAXX 15004 85586 11457 82503 10134 20114 40173 52005 60001 70522 885// 333 10154 56099 88610=
85586,2012,11,15,03,00,AAXX 15034 85586 NIL=
85586,2012,11,15,06,00,AAXX 15064 85586 NIL=
85586,2012,11,15,09,00,AAXX 15094 85586 NIL=
85586,2012,11,15,12,00,AAXX 15124 85586 11220 82103 10130 20122 40139 56002 69914 7606/ 886// 333 20123 31/// 50090 55000 56099 70001 88704=
85586,2012,11,15,15,00,AAXX 15154 85586 41220 81904 10152 20131 40146 52008 71022 886// 333 56599 88704=
85586,2012,11,15,18,00,AAXX 15184 85586 11458 82808 10158 20122 40151 56003 60001 70522 885// 333 56699 88612=
85586,2012,11,15,21,00,AAXX 15214 85586 41320 82707 10144 20133 40154 51004 71022 885// 333 56699 88608=
85586,2012,11,16,00,00,AAXX 16004 85586 11320 83104 10134 20122 40160 52005 60001 71022 886// 333 10160 56099 88707=
85586,2012,11,16,03,00,AAXX 16034 85586 NIL=
85586,2012,11,16,06,00,AAXX 16064 85586 NIL=
85586,2012,11,16,09,00,AAXX 16094 85586 NIL=
85586,2012,11,16,12,00,AAXX 16124 85586 11208 82804 10134 20123 40170 52022 69964 7515/ 886// 333 20118 31/// 50160 55000 56799 70006 88704=
85586,2012,11,16,15,00,AAXX 16154 85586 41450 82805 10144 20124 40179 52015 70522 885// 333 56699 88610=
85586,2012,11,16,18,00,AAXX 16184 85586 11558 83207 10162 20118 40193 52014 60001 70522 885// 333 56799 88620=
85586,2012,11,16,21,00,AAXX 16214 85586 42560 72304 10160 20123 40205 52010 87500 333 56500 87620=
85586,2012,11,17,00,00,AAXX 17004 85586 11958 00000 10143 20117 40209 53005 60001 70511 333 10164=
85586,2012,11,17,03,00,AAXX 17034 85586 NIL=
85586,2012,11,17,06,00,AAXX 17064 85586 NIL=
85586,2012,11,17,09,00,AAXX 17094 85586 NIL=
85586,2012,11,17,12,00,AAXX 17124 85586 11460 12004 10161 20122 40210 53012 60004 81500 333 20093 30/// 50180 55015 56700 81615=
85586,2012,11,17,15,00,AAXX 17154 85586 41460 12412 10183 20116 40213 51004 81500 333 56700 81615=
85586,2012,11,17,18,00,AAXX 17184 85586 11960 02317 10178 20106 40209 58004 60001=
85586,2012,11,17,21,00,AAXX 17214 85586 42960 02412 10177 20102 40199 57000=
85586,2012,11,18,00,00,AAXX 18004 85586 11960 02305 10141 20097 40199 54001 60001 333 10185=
85586,2012,11,18,03,00,AAXX 18034 85586 NIL=
85586,2012,11,18,06,00,AAXX 18064 85586 NIL=
85586,2012,11,18,09,00,AAXX 18094 85586 NIL=
85586,2012,11,18,12,00,AAXX 18124 85586 11960 02804 10141 20105 40171 56006 60004 333 20061 30/// 50180 55118=
85586,2012,11,18,15,00,AAXX 18154 85586 41960 02408 10191 20122 40175 53005=
85586,2012,11,18,18,00,AAXX 18184 85586 11960 02313 10186 20106 40177 54001 60001=
85586,2012,11,18,21,00,AAXX 18214 85586 42960 02710 10182 20130 40168 58008=
85586,2012,11,19,00,00,AAXX 19004 85586 11358 30107 10148 20122 40167 58002 60001 70500 83600 333 10195 56700 83708=
85586,2012,11,19,03,00,AAXX 19034 85586 NIL=
85586,2012,11,19,06,00,AAXX 19064 85586 NIL=
85586,2012,11,19,09,00,AAXX 19094 85586 NIL=
85586,2012,11,19,12,00,AAXX 19124 85586 11430 80602 10128 20117 40162 52006 60004 7102/ 886// 333 20100 30/// 50220 55126 56099 88710=
85586,2012,11,19,15,00,AAXX 19154 85586 41557 72909 10162 20123 40172 52010 70522 87500 333 56600 87620=
85586,2012,11,19,18,00,AAXX 19184 85586 11456 83008 10156 20122 40172 54000 60001 70522 885// 333 56099 88615=
85586,2012,11,19,21,00,AAXX 19214 85586 41456 83006 10156 20120 40168 57005 70522 885// 333 56099 88617=
85586,2012,11,20,00,00,AAXX 20004 85586 11556 82602 10140 20117 40168 54000 60001 70522 885// 333 10170 56099 88620=
85586,2012,11,20,03,00,AAXX 20034 85586 NIL=
85586,2012,11,20,06,00,AAXX 20064 85586 NIL=
85586,2012,11,20,09,00,AAXX 20094 85586 NIL=
85586,2012,11,20,12,00,AAXX 20124 85586 11557 80505 10136 20109 40159 52007 60004 7052/ 885// 333 20130 30/// 50130 55015 56099 88620=
85586,2012,11,20,15,00,AAXX 20154 85586 41557 83007 10154 20110 40168 52009 70522 885// 333 56099 88623=
85586,2012,11,20,18,00,AAXX 20184 85586 11557 73109 10166 20113 40169 54001 60001 70522 87500 333 56600 87620=
85586,2012,11,20,21,00,AAXX 20214 85586 41557 72707 10164 20128 40161 57007 70522 87500 333 56600 87623=
85586,2012,11,21,00,00,AAXX 21004 85586 11457 82705 10144 20127 40161 54001 60001 70522 885// 333 10182 56699 83610 88623=
85586,2012,11,21,03,00,AAXX 21034 85586 NIL=
85586,2012,11,21,06,00,AAXX 21064 85586 NIL=
85586,2012,11,21,09,00,AAXX 21094 85586 NIL=
85586,2012,11,21,12,00,AAXX 21124 85586 11557 70504 10138 20098 40157 52007 60004 7052/ 87500 333 20114 30/// 50130 55023 56600 87623=
85586,2012,11,21,15,00,AAXX 21154 85586 42560 12909 10164 20104 40175 52018 81500 333 56600 81626=
85586,2012,11,21,18,00,AAXX 21184 85586 12560 12607 10170 20108 40183 52008 60001 81500 333 56600 81626=
85586,2012,11,21,21,00,AAXX 21214 85586 42960 22509 10166 20094 40181 58002 80002 333 56006 82075=
85586,2012,11,22,00,00,AAXX 22004 85586 12960 62306 10142 20108 40191 52010 60001 85032 333 10180 56066 85362=
85586,2012,11,22,03,00,AAXX 22034 85586 NIL=
85586,2012,11,22,06,00,AAXX 22064 85586 NIL=
85586,2012,11,22,09,00,AAXX 22094 85586 NIL=
85586,2012,11,22,12,00,AAXX 22124 85586 12460 70000 10142 20084 40196 53008 60004 85501 333 20123 30/// 50180 55106 56706 85615=
85586,2012,11,22,15,00,AAXX 22154 85586 41458 62311 10175 20100 40194 54001 70522 81530 333 56760 81615 86365=
85586,2012,11,22,18,00,AAXX 22184 85586 12960 22318 10173 20088 40189 58007 60001 82030 333 56060 82365=
85586,2012,11,22,21,00,AAXX 22214 85586 42960 02613 10164 20069 40181 56008=
85586,2012,11,23,00,00,AAXX 23004 85586 12960 02306 10134 20062 40194 53012 60001 333 10182=
85586,2012,11,23,03,00,AAXX 23034 85586 NIL=
85586,2012,11,23,06,00,AAXX 23064 85586 NIL=
85586,2012,11,23,09,00,AAXX 23094 85586 NIL=
85586,2012,11,23,12,00,AAXX 23124 85586 12460 02305 10143 20065 40219 53017 60004 333 20036 30/// 50180 55105=
85586,2012,11,23,15,00,AAXX 23154 85586 41960 02414 10168 20101 40216 58002=
85586,2012,11,23,18,00,AAXX 23184 85586 12960 02317 10181 20094 40206 56010 60001=
85586,2012,11,23,21,00,AAXX 23214 85586 42960 02317 10181 20084 40189 58017=
85586,2012,11,24,00,00,AAXX 24004 85586 12960 02404 10144 20082 40194 53004 60001 333 10187=
85586,2012,11,24,03,00,AAXX 24034 85586 NIL=
85586,2012,11,24,06,00,AAXX 24064 85586 NIL=
85586,2012,11,24,09,00,AAXX 24094 85586 NIL=
85586,2012,11,24,12,00,AAXX 24124 85586 12960 01607 10164 20073 40181 56007 60004 333 20061 30/// 50240 55125=
85586,2012,11,24,15,00,AAXX 24154 85586 41960 02412 10182 20091 40173 58008=
85586,2012,11,24,18,00,AAXX 24184 85586 12960 02417 10174 20081 40160 56013 60001=
85586,2012,11,24,21,00,AAXX 24214 85586 NIL=
85586,2012,11,25,00,00,AAXX 25004 85586 12960 03604 10144 20082 40153 53005 60001 333 10218=
85586,2012,11,25,03,00,AAXX 25034 85586 NIL=
85586,2012,11,25,06,00,AAXX 25064 85586 NIL=
85586,2012,11,25,09,00,AAXX 25094 85586 NIL=
85586,2012,11,25,12,00,AAXX 25124 85586 12960 00000 10130 20099 40159 52010 60004 333 20046 30/// 50230 55131=
85586,2012,11,25,15,00,AAXX 25154 85586 42960 02707 10170 20078 40158 52007=
85586,2012,11,25,18,00,AAXX 25184 85586 12960 12407 10176 20084 40156 58002 60001 80001 333 56006 81075=
85586,2012,11,25,21,00,AAXX 25214 85586 42960 12808 10160 20083 40154 56002 80001 333 56006 81075=
85586,2012,11,26,00,00,AAXX 26004 85586 12960 13305 10126 20087 40160 52006 60001 80001 333 10182 56006 81075=
85586,2012,11,26,03,00,AAXX 26034 85586 NIL=
85586,2012,11,26,06,00,AAXX 26064 85586 NIL=
85586,2012,11,26,09,00,AAXX 26094 85586 NIL=
85586,2012,11,26,12,00,AAXX 26124 85586 12460 53306 10136 20104 40179 52012 60004 84501 333 20086 30/// 50250 55102 56606 84612 85075=
85586,2012,11,26,15,00,AAXX 26154 85586 42560 32907 10160 20103 40180 54001 81501 333 56606 81620 83075=
85586,2012,11,26,18,00,AAXX 26184 85586 12460 32908 10158 20112 40179 54001 60001 83501 333 56606 83615=
85586,2012,11,26,21,00,AAXX 26214 85586 NIL=
85586,2012,11,27,00,00,AAXX 27004 85586 11457 53304 10130 20103 40174 53003 60001 70522 85500 333 10172 56600 85613=
85586,2012,11,27,03,00,AAXX 27034 85586 NIL=
85586,2012,11,27,06,00,AAXX 27064 85586 NIL=
85586,2012,11,27,09,00,AAXX 27094 85586 NIL=
85586,2012,11,27,12,00,AAXX 27124 85586 11306 80902 10106 20098 40139 56004 60004 7464/ 886// 333 20072 30/// 50210 55101 56099 88707=
85586,2012,11,27,15,00,AAXX 27154 85586 41458 52706 10142 20110 40132 57007 70542 85600 333 56600 85710=
85586,2012,11,27,18,00,AAXX 27184 85586 11458 53107 10144 20112 40119 57013 60001 70522 85600 333 56600 85713=
85586,2012,11,27,21,00,AAXX 27214 85586 41556 33013 10160 20118 40117 56002 70522 83500 333 56600 83613=
85586,2012,11,28,00,00,AAXX 28004 85586 12560 13307 10136 20118 40129 52012 60001 81500 333 10164 56600 81620=
85586,2012,11,28,03,00,AAXX 28034 85586 NIL=
85586,2012,11,28,06,00,AAXX 28064 85586 NIL=
85586,2012,11,28,09,00,AAXX 28094 85586 NIL=
85586,2012,11,28,12,00,AAXX 28124 85586 11558 80405 10156 20104 40153 52028 60004 7102/ 885// 333 20084 30/// 50230 55076 56799 88625=
85586,2012,11,28,15,00,AAXX 28154 85586 42560 73018 10179 20121 40168 53011 87500 333 56700 87625=
85586,2012,11,28,18,00,AAXX 28184 85586 11460 73016 10193 20113 40168 51005 60001 82501 333 56706 82615 87075=
85586,2012,11,28,21,00,AAXX 28214 85586 41460 73012 10167 20125 40169 54001 81501 333 56706 81615 87075=
85586,2012,11,29,00,00,AAXX 29004 85586 12258 82907 10151 20125 40173 53003 60001 70522 885// 333 10195 56799 81704 88625=
85586,2012,11,29,03,00,AAXX 29034 85586 NIL=
85586,2012,11,29,06,00,AAXX 29064 85586 NIL=
85586,2012,11,29,09,00,AAXX 29094 85586 NIL=
85586,2012,11,29,12,00,AAXX 29124 85586 11556 80204 10144 20128 40208 52033 69934 7055/ 885// 333 20137 31/// 50210 55048 56799 70003 88625=
85586,2012,11,29,15,00,AAXX 29154 85586 42560 73012 10171 20113 40224 53016 87500 333 56700 87625=
85586,2012,11,29,18,00,AAXX 29184 85586 11460 12914 10197 20119 40220 54000 60001 81100 333 56700 81815=
85586,2012,11,29,21,00,AAXX 29214 85586 41960 02912 10184 20125 40210 56010=
85586,2012,11,30,00,00,AAXX 30004 85586 12460 10000 10154 20113 40224 53013 60001 81100 333 10201 56700 81815=
85586,2012,11,30,03,00,AAXX 30034 85586 NIL=
85586,2012,11,30,06,00,AAXX 30064 85586 NIL=
85586,2012,11,30,09,00,AAXX 30094 85586 NIL=
85586,2012,11,30,12,00,AAXX 30124 85586 11860 81104 10133 20111 40203 56008 60004 8803/ 333 20084 30/// 50230 55095 56069 88358=
85586,2012,11,30,15,00,AAXX 30154 85586 42960 72605 10191 20128 40201 54001 87030 333 56060 87362=
85586,2012,11,30,18,00,AAXX 30184 85586 11960 72312 10194 20121 40204 53003 60001 87030 333 56060 87365=
85586,2012,11,30,21,00,AAXX 30214 85586 42960 72412 10171 20122 40194 58010 80001 333 56006 87075=
85586,2012,12,01,00,00,AAXX 01004 85586 12960 62604 10154 20125 40200 53005 60001 80001 333 10201 56006 86075=
85586,2012,12,01,03,00,AAXX 01034 85586 NIL=
85586,2012,12,01,06,00,AAXX 01064 85586 NIL=
85586,2012,12,01,09,00,AAXX 01094 85586 NIL=
85586,2012,12,01,12,00,AAXX 01124 85586 12960 32605 10152 20113 40182 54000 60004 80001 333 20098 30/// 50290 55077 56006 70000 83075=
85586,2012,12,01,15,00,AAXX 01154 85586 42960 22706 10183 20093 40183 54001 80001 333 56006 82075=
85586,2012,12,01,18,00,AAXX 01184 85586 12960 22411 10191 20102 40173 57010 60001 80001 333 56006 82075=
85586,2012,12,01,21,00,AAXX 01214 85586 42960 42409 10183 20127 40172 57001 80001 333 56006 84075=
85586,2012,12,02,00,00,AAXX 02004 85586 12960 20000 10152 20117 40172 54000 60001 80001 333 10202 56006 82075=
85586,2012,12,02,03,00,AAXX 02034 85586 NIL=
85586,2012,12,02,06,00,AAXX 02064 85586 NIL=
85586,2012,12,02,09,00,AAXX 02094 85586 NIL=
85586,2012,12,02,12,00,AAXX 02124 85586 12960 42203 10156 20123 40159 56005 60004 84030 333 20090 30/// 50250 55116 56060 84365=
85586,2012,12,02,15,00,AAXX 02154 85586 42560 22605 10201 20122 40167 52008 81502 333 56606 81620=
85586,2012,12,02,18,00,AAXX 02184 85586 12460 62508 10196 20156 40172 52005 60001 84602 333 56606 84713=
85586,2012,12,02,21,00,AAXX 02214 85586 41306 82608 10180 20156 40165 58003 74622 886// 333 56699 88706=
85586,2012,12,03,00,00,AAXX 03004 85586 11415 82203 10154 20146 40160 57005 60001 71022 886// 333 10204 56699 88710=
85586,2012,12,03,03,00,AAXX 03034 85586 NIL=
85586,2012,12,03,06,00,AAXX 03064 85586 NIL=
85586,2012,12,03,09,00,AAXX 03094 85586 NIL=
85586,2012,12,03,12,00,AAXX 03124 85586 11305 82803 10150 20142 40153 53005 60004 7464/ 886// 333 20142 30/// 50200 55086 56699 88707=
85586,2012,12,03,15,00,AAXX 03154 85586 42958 03206 10196 20124 40159 52007 70500=
85586,2012,12,03,18,00,AAXX 03184 85586 12960 22412 10180 20111 40174 52024 60001 80001 333 56006 82075=
85586,2012,12,03,21,00,AAXX 03214 85586 42660 32510 10162 20112 52015 83030 333 56050 83340=
85586,2012,12,04,00,00,AAXX 04004 85586 12960 42203 10150 20124 40188 58004 60001 82032 333 10201 56066 82365 83075=
85586,2012,12,04,03,00,AAXX 04034 85586 NIL=
85586,2012,12,04,06,00,AAXX 04064 85586 NIL=
85586,2012,12,04,09,00,AAXX 04094 85586 NIL=
85586,2012,12,04,12,00,AAXX 04124 85586 12960 03404 10165 20114 40174 53006 60004 333 20084 30/// 50230 55088=
85586,2012,12,04,15,00,AAXX 04154 85586 NIL=
85586,2012,12,04,18,00,AAXX 04184 85586 12960 02512 10212 20131 40179 52005 60001=
85586,2012,12,04,21,00,AAXX 04214 85586 42960 02210 10184 20122 40181 54002=
85586,2012,12,05,00,00,AAXX 05004 85586 12960 02806 10156 20131 40180 54001 60001 333 10214=
85586,2012,12,05,03,00,AAXX 05034 85586 NIL=
85586,2012,12,05,06,00,AAXX 05064 85586 NIL=
85586,2012,12,05,09,00,AAXX 05094 85586 NIL=
85586,2012,12,05,12,00,AAXX 05124 85586 12960 00000 10163 20107 40179 53007 60004 333 20078 30/// 50260 55123=
85586,2012,12,05,15,00,AAXX 05154 85586 42960 02310 10196 20108 40174 58006=
85586,2012,12,05,18,00,AAXX 05184 85586 12960 02611 10213 20121 40172 50001 60001=
85586,2012,12,05,21,00,AAXX 05214 85586 42960 12708 10202 20150 40165 56007 81100 333 56700 81815=
85586,2012,12,06,00,00,AAXX 06004 85586 12960 03004 10171 20134 40167 53002 60001 333 10215=
85586,2012,12,06,03,00,AAXX 06034 85586 NIL=
85586,2012,12,06,06,00,AAXX 06064 85586 NIL=
85586,2012,12,06,09,00,AAXX 06094 85586 NIL=
85586,2012,12,06,12,00,AAXX 06124 85586 12460 83409 10169 20126 40174 52026 60004 885// 333 20094 30/// 50260 55127 56799 82615 88620=
85586,2012,12,06,15,00,AAXX 06154 85586 42460 73115 10201 20128 40188 52014 87200 333 56700 82615 85825=
85586,2012,12,06,18,00,AAXX 06184 85586 12560 63207 10192 20147 40198 52010 60021 86500 333 56700 86625=
85586,2012,12,06,21,00,AAXX 06214 85586 42560 32707 10184 20130 40201 52011 83500 333 56000 83630=
85586,2012,12,07,00,00,AAXX 07004 85586 12960 02208 10161 20094 40206 53006 60001 333 10211=
85586,2012,12,07,03,00,AAXX 07034 85586 NIL=
85586,2012,12,07,06,00,AAXX 07064 85586 NIL=
85586,2012,12,07,09,00,AAXX 07094 85586 NIL=
85586,2012,12,07,12,00,AAXX 07124 85586 12960 01706 10160 20081 40179 53004 60024 333 20082 30/// 50220 55078 70020=
85586,2012,12,07,15,00,AAXX 07154 85586 42960 02005 10188 20106 40174 56004=
85586,2012,12,07,18,00,AAXX 07184 85586 12960 02014 10212 20102 40164 57010 60001=
85586,2012,12,07,21,00,AAXX 07214 85586 42960 01912 10184 20111 40144 57029=
85586,2012,12,08,00,00,AAXX 08004 85586 NIL=
85586,2012,12,08,03,00,AAXX 08034 85586 NIL=
85586,2012,12,08,06,00,AAXX 08064 85586 NIL=
85586,2012,12,08,09,00,AAXX 08094 85586 NIL=
85586,2012,12,08,12,00,AAXX 08124 85586 12960 02602 10156 20120 40165 52010 60004 333 20076 30/// 50290 55126=
85586,2012,12,08,15,00,AAXX 08154 85586 42960 02506 10182 20101 40163 58002=
85586,2012,12,08,18,00,AAXX 08184 85586 12960 02409 10196 20118 40158 57005 60001=
85586,2012,12,08,21,00,AAXX 08214 85586 42960 02407 10178 20109 40143 57014=
85586,2012,12,09,00,00,AAXX 09004 85586 12960 03403 10150 20105 40134 57009 60001 333 10204=
85586,2012,12,09,03,00,AAXX 09034 85586 NIL=
85586,2012,12,09,06,00,AAXX 09064 85586 NIL=
85586,2012,12,09,09,00,AAXX 09094 85586 NIL=
85586,2012,12,09,12,00,AAXX 09124 85586 11330 83605 10142 20130 40144 52014 60004 7102/ 886// 333 20101 30/// 50250 55121 56099 88708=
85586,2012,12,09,15,00,AAXX 09154 85586 41456 82807 10164 20132 40154 52009 70522 886// 333 56099 88712=
85586,2012,12,09,18,00,AAXX 09184 85586 11450 82908 10170 20144 40155 54001 60001 70522 86/// 333 56099 88712=
85586,2012,12,09,21,00,AAXX 09214 85586 41450 82604 10170 20134 40140 57014 70522 885// 333 56099 88613=
85586,2012,12,10,00,00,AAXX 10004 85586 11440 82603 10139 20125 40144 52004 60001 71022 886// 333 10178 56099 88710=
85586,2012,12,10,03,00,AAXX 10034 85586 NIL=
85586,2012,12,10,06,00,AAXX 10064 85586 NIL=
85586,2012,12,10,09,00,AAXX 10094 85586 NIL=
85586,2012,12,10,12,00,AAXX 10124 85586 12558 82105 10151 20102 40186 52026 60004 885// 333 20131 30/// 50260 55000 56799 88625=
85586,2012,12,10,15,00,AAXX 10154 85586 42560 41908 10182 20110 40171 57014 84500 333 56400 84625=
85586,2012,12,10,18,00,AAXX 10184 85586 12960 02516 10172 20088 40158 57014 60001=
85586,2012,12,10,21,00,AAXX 10214 85586 42960 02015 10182 20090 40152 57007=
85586,2012,12,11,00,00,AAXX 11004 85586 11960 00000 10154 20113 40125 57026 60001 333 10194=
85586,2012,12,11,03,00,AAXX 11034 85586 NIL=
85586,2012,12,11,06,00,AAXX 11064 85586 NIL=
85586,2012,12,11,09,00,AAXX 11094 85586 NIL=
85586,2012,12,11,12,00,AAXX 11124 85586 12960 03104 10156 20112 40137 52022 60004 333 20091 30/// 50280 55090=
85586,2012,12,11,15,00,AAXX 11154 85586 41330 82706 10154 20131 40151 52015 70522 886// 333 56699 88708=
85586,2012,12,11,18,00,AAXX 11184 85586 12460 83014 10162 20121 40156 51004 60001 885// 333 56799 88615=
85586,2012,12,11,21,00,AAXX 11214 85586 42960 03012 10170 20113 40144 57012=
85586,2012,12,12,00,00,AAXX 12004 85586 11960 02807 10149 20148 40148 55001 60001 333 10176=
85586,2012,12,12,03,00,AAXX 12034 85586 NIL=
85586,2012,12,12,06,00,AAXX 12064 85586 NIL=
85586,2012,12,12,09,00,AAXX 12094 85586 NIL=
85586,2012,12,12,12,00,AAXX 12124 85586 12960 00000 10156 20112 40196 52028 60004 333 20063 30/// 50280 55101=
85586,2012,12,12,15,00,AAXX 12154 85586 42960 02411 10192 20107 40190 53002=
85586,2012,12,12,18,00,AAXX 12184 85586 12960 02417 10193 20122 40183 58009 60001=
85586,2012,12,12,21,00,AAXX 12214 85586 42960 02317 10196 20119 40163 57020=
85586,2012,12,13,00,00,AAXX 13004 85586 11960 02208 10164 20113 40159 56004 60001 333 10203=
85586,2012,12,13,03,00,AAXX 13034 85586 NIL=
85586,2012,12,13,06,00,AAXX 13064 85586 NIL=
85586,2012,12,13,09,00,AAXX 13094 85586 NIL=
85586,2012,12,13,12,00,AAXX 13124 85586 12960 02803 10154 20119 40141 53008 60004 333 20084 30/// 50260 55126=
85586,2012,12,13,15,00,AAXX 13154 85586 42960 02407 10182 20092 40158 52017=
85586,2012,12,13,18,00,AAXX 13184 85586 12960 02012 10202 20102 40174 52025 60001=
85586,2012,12,13,21,00,AAXX 13214 85586 NIL=
85586,2012,12,14,00,00,AAXX 14004 85586 12960 22606 10140 20113 40170 52005 60001 80001 333 10203 56006 82075=
85586,2012,12,14,03,00,AAXX 14034 85586 NIL=
85586,2012,12,14,06,00,AAXX 14064 85586 NIL=
85586,2012,12,14,09,00,AAXX 14094 85586 NIL=
85586,2012,12,14,12,00,AAXX 14124 85586 12960 10602 10146 20111 40184 52014 60004 80002 333 20060 30/// 50310 55124 56006 81075=
85586,2012,12,14,15,00,AAXX 14154 85586 42960 02306 10182 20092 40191 52008=
85586,2012,12,14,18,00,AAXX 14184 85586 12960 02410 10190 20126 40192 54001 60001=
85586,2012,12,14,21,00,AAXX 14214 85586 42960 02707 10180 20140 40179 57016=
85586,2012,12,15,00,00,AAXX 15004 85586 12960 10503 10154 20110 40172 57008 60001 80001 333 10196 56006 81075=
85586,2012,12,15,03,00,AAXX 15034 85586 NIL=
85586,2012,12,15,06,00,AAXX 15064 85586 NIL=
85586,2012,12,15,09,00,AAXX 15094 85586 NIL=
85586,2012,12,15,12,00,AAXX 15124 85586 12960 70000 10150 20115 40154 53003 60004 80001 333 20076 30/// 50270 55121 56006 87075=
85586,2012,12,15,15,00,AAXX 15154 85586 42960 52406 10178 20108 40167 52013 80001 333 56006 85075=
85586,2012,12,15,18,00,AAXX 15184 85586 12960 72408 10184 20111 40158 58009 60001 80002 333 56006 87075=
85586,2012,12,15,21,00,AAXX 15214 85586 42960 72408 10166 20123 40159 54001 84032 333 56066 84368 85075=
85586,2012,12,16,00,00,AAXX 16004 85586 12560 52407 10146 20125 40158 56001 60001 81532 333 10204 56666 81620 83365=
85586,2012,12,16,03,00,AAXX 16034 85586 NIL=
85586,2012,12,16,06,00,AAXX 16064 85586 NIL=
85586,2012,12,16,09,00,AAXX 16094 85586 NIL=
85586,2012,12,16,12,00,AAXX 16124 85586 12960 02305 10164 20100 40180 52021 60004 333 20073 30/// 50310 55067=
85586,2012,12,16,15,00,AAXX 16154 85586 42960 02608 10192 20118 40166 58013=
85586,2012,12,16,18,00,AAXX 16184 85586 NIL=
85586,2012,12,16,21,00,AAXX 16214 85586 42960 22317 10196 20133 40133 57018 80001 333 56006 82075=
85586,2012,12,17,00,00,AAXX 17004 85586 12960 02208 10181 20125 40128 56004 60001 333 10213=
85586,2012,12,17,03,00,AAXX 17034 85586 NIL=
85586,2012,12,17,06,00,AAXX 17064 85586 NIL=
85586,2012,12,17,09,00,AAXX 17094 85586 NIL=
85586,2012,12,17,12,00,AAXX 17124 85586 12960 23110 10157 20125 40132 52024 60004 81630 333 20096 30/// 50330 55114 56760 81704 81365=
85586,2012,12,17,15,00,AAXX 17154 85586 42358 73010 10182 20133 40147 52014 70522 87600 333 56700 87609=
85586,2012,12,17,18,00,AAXX 17184 85586 12560 52707 10190 20150 40144 56004 60001 85500 333 56600 85620=
85586,2012,12,17,21,00,AAXX 17214 85586 42560 33208 10182 20133 40136 57008 83500 333 56700 83620=
85586,2012,12,18,00,00,AAXX 18004 85586 12960 32904 10166 20123 40132 56004 60001 83030 333 10192=
85586,2012,12,18,03,00,AAXX 18034 85586 NIL=
85586,2012,12,18,06,00,AAXX 18064 85586 NIL=
85586,2012,12,18,09,00,AAXX 18094 85586 NIL=
85586,2012,12,18,12,00,AAXX 18124 85586 12960 73407 10191 20119 40134 53016 60004 81501 333 20113 30/// 50310 55092 56706 81615 87375=
85586,2012,12,18,15,00,AAXX 18154 85586 42460 73010 10204 20132 40141 52007 87530 333 56770 82615 87362=
85586,2012,12,18,18,00,AAXX 18184 85586 12460 63313 10200 20140 40145 51004 60001 86530 333 56770 82620 86360=
85586,2012,12,18,21,00,AAXX 18214 85586 42560 73211 10182 20152 40144 54001 87530 333 56770 83620 86358=
85586,2012,12,19,00,00,AAXX 19004 85586 12560 52707 10162 20141 40136 57007 60001 85500 333 10196 56600 85630=
85586,2012,12,19,03,00,AAXX 19034 85586 NIL=
85586,2012,12,19,06,00,AAXX 19064 85586 NIL=
85586,2012,12,19,09,00,AAXX 19094 85586 NIL=
85586,2012,12,19,12,00,AAXX 19124 85586 11340 80202 10134 20127 40158 52014 60354 7636/ 8553/ 333 20134 32/// 50280 55092 56719 70350 81707 85517 88358=
85586,2012,12,19,15,00,AAXX 19154 85586 41440 80405 10142 20133 40162 52004 76366=
85586,2012,12,19,18,00,AAXX 19184 85586 11456 70305 10150 20124 40170 52008 60061 71066 85530 333 56110 81710 85623 87360=
85586,2012,12,19,21,00,AAXX 19214 85586 42460 60204 10160 20124 40169 56001 84430 333 56110 81810 84623 86360=
85586,2012,12,20,00,00,AAXX 20004 85586 12560 43004 10144 20127 40175 52006 60001 82130 333 10178 56660 82820 83362=
85586,2012,12,20,03,00,AAXX 20034 85586 NIL=
85586,2012,12,20,06,00,AAXX 20064 85586 NIL=
85586,2012,12,20,09,00,AAXX 20094 85586 NIL=
85586,2012,12,20,12,00,AAXX 20124 85586 12560 80902 10140 20123 40187 52006 60064 81532 333 20121 31/// 50110 55000 56666 70058 81630 83365 87075=
85586,2012,12,20,15,00,AAXX 20154 85586 42460 72705 10170 20122 40199 52012 83132 333 56666 83815 85365 85075=
85586,2012,12,20,18,00,AAXX 20184 85586 12560 52808 10192 20110 40207 52007 60001 85130 333 56660 83825 84358=
85586,2012,12,20,21,00,AAXX 20214 85586 42960 32212 10185 20105 40209 54002 83100 333 56500 83820=
85586,2012,12,21,00,00,AAXX 21004 85586 12960 02305 10158 20096 40200 57008 60001 333 10194=
85586,2012,12,21,03,00,AAXX 21034 85586 NIL=
85586,2012,12,21,06,00,AAXX 21064 85586 NIL=
85586,2012,12,21,09,00,AAXX 21094 85586 NIL=
85586,2012,12,21,12,00,AAXX 21124 85586 12960 12803 10142 20106 40178 52005 60004 80001 333 20072 31/// 50210 55064 56006 81075=
85586,2012,12,21,15,00,AAXX 21154 85586 42960 02310 10182 20112 40162 57015=
85586,2012,12,21,18,00,AAXX 21184 85586 12960 01812 10202 20110 40156 57006 60001=
85586,2012,12,21,21,00,AAXX 21214 85586 42960 02314 10182 20116 40144 57012=
85586,2012,12,22,00,00,AAXX 22004 85586 12960 02205 10164 20123 40137 57007 60001 333 10204=
85586,2012,12,22,03,00,AAXX 22034 85586 NIL=
85586,2012,12,22,06,00,AAXX 22064 85586 NIL=
85586,2012,12,22,09,00,AAXX 22094 85586 NIL=
85586,2012,12,22,12,00,AAXX 22124 85586 12960 00000 10158 20103 40137 53016 60004 333 20085 30/// 50330 55125=
85586,2012,12,22,15,00,AAXX 22154 85586 42960 02707 10194 20091 40134 58004=
85586,2012,12,22,18,00,AAXX 22184 85586 12960 02412 10196 20127 40127 57006 60001=
85586,2012,12,22,21,00,AAXX 22214 85586 42960 02512 10188 20131 40121 57006=
85586,2012,12,23,00,00,AAXX 23004 85586 12960 12810 10162 20133 40119 56002 60001 81600 333 10204 56700 81704=
85586,2012,12,23,03,00,AAXX 23034 85586 NIL=
85586,2012,12,23,06,00,AAXX 23064 85586 NIL=
85586,2012,12,23,09,00,AAXX 23094 85586 NIL=
85586,2012,12,23,12,00,AAXX 23124 85586 12560 83104 10175 20114 40155 52026 60004 885// 333 20151 30/// 50330 55125 56799 8865=
85586,2012,12,23,15,00,AAXX 23154 85586 42960 02610 10203 20113 40154 54001=
85586,2012,12,23,18,00,AAXX 23184 85586 12960 02909 10209 20125 40145 58008 60001=
85586,2012,12,23,21,00,AAXX 23214 85586 42960 12910 10198 20130 40131 57014 81100 333 56700 81815=
85586,2012,12,24,00,00,AAXX 24004 85586 12960 03304 10174 20136 40135 53004 60001 333 10211=
85586,2012,12,24,03,00,AAXX 24034 85586 NIL=
85586,2012,12,24,06,00,AAXX 24064 85586 NIL=
85586,2012,12,24,09,00,AAXX 24094 85586 NIL=
85586,2012,12,24,12,00,AAXX 24124 85586 12960 00208 10186 20127 40142 53006 60004 333 20125 30/// 50330 55116=
85586,2012,12,24,15,00,AAXX 24154 85586 42560 22813 10214 20124 40139 56003 82500 333 56600 82620=
85586,2012,12,24,18,00,AAXX 24184 85586 12560 63511 10192 20135 40160 52021 60001 86530 333 56770 83620 84358=
85586,2012,12,24,21,00,AAXX 24214 85586 42310 82005 10154 20137 40182 52021 76022 885// 333 56599 88608=
85586,2012,12,25,00,00,AAXX 25004 85586 11458 71203 10142 20130 40183 54002 60031 70522 87530 333 10214 56220 83620 85370=
85586,2012,12,25,03,00,AAXX 25034 85586 NIL=
85586,2012,12,25,06,00,AAXX 25064 85586 NIL=
85586,2012,12,25,09,00,AAXX 25094 85586 NIL=
85586,2012,12,25,12,00,AAXX 25124 85586 11560 11407 10152 20113 40194 53004 60054 70206 81500 333 20106 31/// 50190 55058 56600 70051 81623=
85586,2012,12,25,15,00,AAXX 25154 85586 42960 11809 10210 20087 40192 58002 81500 333 56600 81623=
85586,2012,12,25,18,00,AAXX 25184 85586 12560 12314 10200 20113 40183 57009 60004 81500 333 56600 81620=
85586,2012,12,25,21,00,AAXX 25214 85586 42960 02318 10202 20102 40173 57010=
85586,2012,12,26,00,00,AAXX 26004 85586 12960 02110 10184 20077 40178 53005 60001 333 10220=
85586,2012,12,26,03,00,AAXX 26034 85586 NIL=
85586,2012,12,26,06,00,AAXX 26064 85586 NIL=
85586,2012,12,26,09,00,AAXX 26094 85586 NIL=
85586,2012,12,26,12,00,AAXX 26124 85586 12960 01610 10164 20074 40160 51004 60004 333 20120 31/// 50290 55117=
85586,2012,12,26,15,00,AAXX 26154 85586 42960 02313 10186 20092 40154 57006=
85586,2012,12,26,18,00,AAXX 26184 85586 12960 02314 10180 20105 40153 56001 60001=
85586,2012,12,26,21,00,AAXX 26214 85586 42960 02412 10180 20098 40141 57012=
85586,2012,12,27,00,00,AAXX 27004 85586 12960 02308 10150 20109 40143 53002 60001 333 10229=
85586,2012,12,27,03,00,AAXX 27034 85586 NIL=
85586,2012,12,27,06,00,AAXX 27064 85586 NIL=
85586,2012,12,27,09,00,AAXX 27094 85586 NIL=
85586,2012,12,27,12,00,AAXX 27124 85586 12960 02405 10140 20117 40161 52007 60004 333 20080 30/// 50370 55134=
85586,2012,12,27,15,00,AAXX 27154 85586 42960 02207 10186 20090 40166 52006=
85586,2012,12,27,18,00,AAXX 27184 85586 12960 02013 10212 20112 40168 54002 60001=
85586,2012,12,27,21,00,AAXX 27214 85586 42960 02308 10194 20124 40141 57027=
85586,2012,12,28,00,00,AAXX 28004 85586 12960 02803 10172 20110 40129 57011 60001 333 10215=
85586,2012,12,28,03,00,AAXX 28034 85586 NIL=
85586,2012,12,28,06,00,AAXX 28064 85586 NIL=
85586,2012,12,28,09,00,AAXX 28094 85586 NIL=
85586,2012,12,28,12,00,AAXX 28124 85586 12960 02903 10150 20124 40127 53003 60004 333 20076 30/// 50270 55123=
85586,2012,12,28,15,00,AAXX 28154 85586 42960 02210 10192 20104 40123 56003=
85586,2012,12,28,18,00,AAXX 28184 85586 12960 02212 10210 20102 40121 54002 60001=
85586,2012,12,28,21,00,AAXX 28214 85586 42960 02510 10200 20120 40114 57007=
85586,2012,12,29,00,00,AAXX 29004 85586 12960 01905 10164 20127 40121 52006 60001 333 10216=
85586,2012,12,29,03,00,AAXX 29034 85586 NIL=
85586,2012,12,29,06,00,AAXX 29064 85586 NIL=
85586,2012,12,29,09,00,AAXX 29094 85586 NIL=
85586,2012,12,29,12,00,AAXX 29124 85586 11102 80000 10124 20120 40122 53006 60004 74444 886// 333 20090 30/// 50300 55133 56000 70000 88702=
85586,2012,12,29,15,00,AAXX 29154 85586 41450 32807 10150 20130 40124 51004 70520 83500 333 56600 83617=
85586,2012,12,29,18,00,AAXX 29184 85586 11558 33210 10170 20122 40129 52005 60001 70520 83500 333 56700 83620=
85586,2012,12,29,21,00,AAXX 29214 85586 42960 02808 10182 20124 40128 54001=
85586,2012,12,30,00,00,AAXX 30004 85586 12960 33503 10164 20118 40133 52005 60001 80001 333 10182 56007 83073=
85586,2012,12,30,03,00,AAXX 30034 85586 NIL=
85586,2012,12,30,06,00,AAXX 30064 85586 NIL=
85586,2012,12,30,09,00,AAXX 30094 85586 NIL=
85586,2012,12,30,12,00,AAXX 30124 85586 11356 80000 10151 20135 40137 52013 60004 70522 886// 333 20126 30/// 50290 55086 56099 70000 88708=
85586,2012,12,30,15,00,AAXX 30154 85586 41460 52907 10174 20123 40142 52006 85500 333 56600 85617=
85586,2012,12,30,18,00,AAXX 30184 85586 12460 72909 10170 20137 40154 52012 60001 87500 333 56600 87612=
85586,2012,12,30,21,00,AAXX 30214 85586 41350 82907 10164 20141 40154 54000 70522 886// 333 56699 88708=
85586,2012,12,31,00,00,AAXX 31004 85586 NIL=
85586,2012,12,31,03,00,AAXX 31034 85586 NIL=
85586,2012,12,31,06,00,AAXX 31064 85586 NIL=
85586,2012,12,31,09,00,AAXX 31094 85586 NIL=
85586,2012,12,31,12,00,AAXX 31124 85586 NIL=
85586,2012,12,31,15,00,AAXX 31154 85586 42558 52308 10172 20132 40170 52008 70520 85600 333 56500 85615=
85586,2012,12,31,18,00,AAXX 31184 85586 12960 33010 10194 20112 40176 51004 60001 80001 333 56006 83073=
85586,2012,12,31,21,00,AAXX 31214 85586 42960 22506 10182 20122 40168 57007 80001 333 56005 82070=
