85586,2015,01,01,00,00,AAXX 01004 85586 12960 62310 10158 20112 40159 53004 60001 86030 333 10212 56060 86365=
85586,2015,01,01,03,00,AAXX 01034 85586 NIL=
85586,2015,01,01,06,00,AAXX 01064 85586 NIL=
85586,2015,01,01,09,00,AAXX 01094 85586 NIL=
85586,2015,01,01,12,00,AAXX 01124 85586 12960 09902 10154 20087 40147 53003 60004 333 20071 30/// 55122 70000=
85586,2015,01,01,15,00,AAXX 01154 85586 42960 02511 10183 20100 40140 57004=
85586,2015,01,01,18,00,AAXX 01184 85586 12960 02516 10177 20102 40138 57005 60001=
85586,2015,01,01,21,00,AAXX 01214 85586 42960 02512 10181 20101 40123 58012=
85586,2015,01,02,00,00,AAXX 02004 85586 12960 00106 10141 20104 40133 53007 60001 333 10195=
85586,2015,01,02,03,00,AAXX 02034 85586 NIL=
85586,2015,01,02,06,00,AAXX 02064 85586 NIL=
85586,2015,01,02,09,00,AAXX 02094 85586 NIL=
85586,2015,01,02,12,00,AAXX 02124 85586 12960 12804 10149 20115 40127 52010 60004 80001 333 20065 30/// 55129 56006 70000 81075=
85586,2015,01,02,15,00,AAXX 02154 85586 42960 12808 10166 20120 40130 52003 80001 333 56006 81075=
85586,2015,01,02,18,00,AAXX 02184 85586 12960 12609 10179 20126 40134 50003 60001 80001 333 56006 81071=
85586,2015,01,02,21,00,AAXX 02214 85586 42960 12909 10174 20126 40128 58004 80001 333 56006 81075=
85586,2015,01,03,00,00,AAXX 03004 85586 12460 33206 10144 20121 40130 53004 60001 83500 333 10191 56600 83610=
85586,2015,01,03,03,00,AAXX 03034 85586 NIL=
85586,2015,01,03,06,00,AAXX 03064 85586 NIL=
85586,2015,01,03,09,00,AAXX 03094 85586 NIL=
85586,2015,01,03,12,00,AAXX 03124 85586 11350 80103 10138 20115 40147 53020 60004 71022 886// 333 20127 30/// 55128 56099 70000 88707=
85586,2015,01,03,15,00,AAXX 03154 85586 42460 53007 10174 20128 40154 51008 85500 333 56600 85610=
85586,2015,01,03,18,00,AAXX 03184 85586 12460 33010 10180 20132 40155 53001 60001 83500 333 56600 83612=
85586,2015,01,03,21,00,AAXX 03214 85586 42460 33109 10184 20137 40140 58013 83500 333 56600 83611=
85586,2015,01,04,00,00,AAXX 04004 85586 12360 82804 10156 20135 40137 55003 60001 886// 333 10192 56099 88708=
85586,2015,01,04,03,00,AAXX 04034 85586 NIL=
85586,2015,01,04,06,00,AAXX 04064 85586 NIL=
85586,2015,01,04,09,00,AAXX 04094 85586 NIL=
85586,2015,01,04,12,00,AAXX 04124 85586 11240 83104 10141 20127 40139 53014 60004 70522 886// 333 20136 30/// 55081 56799 70000 88706=
85586,2015,01,04,15,00,AAXX 04154 85586 41356 83107 10160 20130 40145 52006 70522 886// 333 56799 88708=
85586,2015,01,04,18,00,AAXX 04184 85586 11458 72909 10179 20131 40144 54000 60001 70522 87600 333 56700 87711=
85586,2015,01,04,21,00,AAXX 04214 85586 41458 83007 10176 20138 40132 58011 70522 885// 333 56799 88611=
85586,2015,01,05,00,00,AAXX 05004 85586 11358 82906 10158 20135 40135 53001 60001 70522 886// 333 10187 56799 88709=
85586,2015,01,05,03,00,AAXX 05034 85586 NIL=
85586,2015,01,05,06,00,AAXX 05064 85586 NIL=
85586,2015,01,05,09,00,AAXX 05094 85586 NIL=
85586,2015,01,05,12,00,AAXX 05124 85586 11340 83404 10150 20129 40142 53010 60004 70522 886// 333 20143 30/// 55027 56799 70000 88708=
85586,2015,01,05,15,00,AAXX 05154 85586 41340 83006 10159 20131 40153 52012 70522 886// 333 56699 88708=
85586,2015,01,05,18,00,AAXX 05184 85586 12460 72808 10183 20130 40142 58010 60001 87500 333 56600 87614=
85586,2015,01,05,21,00,AAXX 05214 85586 42460 82908 10170 20134 40138 58005 885// 333 56699 88613=
85586,2015,01,06,00,00,AAXX 06004 85586 11458 82705 10158 20128 40143 53004 6///1 70522 885// 333 10187 56699 88613=
85586,2015,01,06,03,00,AAXX 06034 85586 NIL=
85586,2015,01,06,06,00,AAXX 06064 85586 NIL=
85586,2015,01,06,09,00,AAXX 06094 85586 NIL=
85586,2015,01,06,12,00,AAXX 06124 85586 11456 80703 10147 20121 40133 53007 60003 70522 886// 333 20140 30/// 55000 56099 70000 88710=
85586,2015,01,06,15,00,AAXX 06154 85586 42460 33009 10172 20128 40135 53003 83100 333 56600 83813=
85586,2015,01,06,18,00,AAXX 06184 85586 12460 82810 10167 20125 40143 52080 60001 886// 333 56699 88711=
85586,2015,01,06,21,00,AAXX 06214 85586 42460 82806 10166 20134 40135 55005 885// 333 56699 88613=
85586,2015,01,07,00,00,AAXX 07004 85586 12460 82905 10157 20129 40134 53001 60001 885// 333 10183 56699 88612=
85586,2015,01,07,03,00,AAXX 07034 85586 NIL=
85586,2015,01,07,06,00,AAXX 07064 85586 NIL=
85586,2015,01,07,09,00,AAXX 07094 85586 NIL=
85586,2015,01,07,12,00,AAXX 07124 85586 11558 83505 10173 20133 40137 51013 60004 70522 885// 333 20150 30/// 55022 56099 70000 88625=
85586,2015,01,07,15,00,AAXX 07154 85586 42460 73112 10177 20139 40149 51012 87800 333 56700 82812 87627=
85586,2015,01,07,18,00,AAXX 07184 85586 12460 43008 10193 20129 40149 50001 60001 82101 333 56600 82815 83073=
85586,2015,01,07,21,00,AAXX 07214 85586 42960 02507 10189 20125 40138 58010=
85586,2015,01,08,00,00,AAXX 08004 85586 12960 02504 10158 20122 40142 53001 60001 333 10201=
85586,2015,01,08,03,00,AAXX 08034 85586 NIL=
85586,2015,01,08,06,00,AAXX 08064 85586 NIL=
85586,2015,01,08,09,00,AAXX 08094 85586 NIL=
85586,2015,01,08,12,00,AAXX 08124 85586 12960 09903 10168 20126 40129 51013 60004 333 20100 30/// 55060 70000=
85586,2015,01,08,15,00,AAXX 08154 85586 42960 02509 10194 20136 40129 52001=
85586,2015,01,08,18,00,AAXX 08184 85586 12960 02414 10215 20150 40123 58003 60001=
85586,2015,01,08,21,00,AAXX 08214 85586 42960 02414 10200 20142 40105 57016=
85586,2015,01,09,00,00,AAXX 09004 85586 12960 00208 10170 20138 40113 53007 60001 333 10216=
85586,2015,01,09,03,00,AAXX 09034 85586 NIL=
85586,2015,01,09,06,00,AAXX 09064 85586 NIL=
85586,2015,01,09,09,00,AAXX 09094 85586 NIL=
85586,2015,01,09,12,00,AAXX 09124 85586 12960 09903 10163 20131 40123 52011 60004 333 20090 30/// 55127 70000=
85586,2015,01,09,15,00,AAXX 09154 85586 42960 03006 10196 20145 40126 53005=
85586,2015,01,09,18,00,AAXX 09184 85586 12960 02908 10201 20141 40131 52005 60001=
85586,2015,01,09,21,00,AAXX 09214 85586 42960 03209 10195 20142 40133 51004=
85586,2015,01,10,00,00,AAXX 10004 85586 12460 23106 10170 20141 40143 53007 60001 82100 333 10209 56700 82814=
85586,2015,01,10,03,00,AAXX 10034 85586 NIL=
85586,2015,01,10,06,00,AAXX 10064 85586 NIL=
85586,2015,01,10,09,00,AAXX 10094 85586 NIL=
85586,2015,01,10,12,00,AAXX 10124 85586 11358 83403 10145 20127 40152 52018 60004 70522 886// 333 20136 30/// 55128 56099 70000 88707=
85586,2015,01,10,15,00,AAXX 10154 85586 41358 73105 10162 20130 40158 51008 70522 87600 333 56600 87709=
85586,2015,01,10,18,00,AAXX 10184 85586 12460 52609 10179 20135 40159 52001 60001 85500 333 56600 85610=
85586,2015,01,10,21,00,AAXX 10214 85586 42460 82907 10165 20133 40155 57002 886// 333 56099 88710=
85586,2015,01,11,00,00,AAXX 11004 85586 12460 73005 10158 20137 40150 55006 60001 87500 333 10191 56600 87610=
85586,2015,01,11,03,00,AAXX 11034 85586 NIL=
85586,2015,01,11,06,00,AAXX 11064 85586 NIL=
85586,2015,01,11,09,00,AAXX 11094 85586 NIL=
85586,2015,01,11,12,00,AAXX 11124 85586 11112 80903 10130 20124 40141 51013 60004 71022 886// 333 20109 30/// 55028 56099 70000 88702=
85586,2015,01,11,15,00,AAXX 11154 85586 42960 02907 10178 20132 40136 55003=
85586,2015,01,11,18,00,AAXX 11184 85586 12460 13009 10191 20140 40133 58003 60001 81500 333 56600 81613=
85586,2015,01,11,21,00,AAXX 11214 85586 42460 23110 10188 20135 40120 58014 82500 333 56600 82612=
85586,2015,01,12,00,00,AAXX 12004 85586 12460 13106 10164 20128 40118 55003 60001 81500 333 10200 56600 81616=
85586,2015,01,12,03,00,AAXX 12034 85586 NIL=
85586,2015,01,12,06,00,AAXX 12064 85586 NIL=
85586,2015,01,12,09,00,AAXX 12094 85586 NIL=
85586,2015,01,12,12,00,AAXX 12124 85586 11356 80306 10142 20121 40131 52017 60004 70500 886// 333 20089 30/// 55111 56099 70000 88709=
85586,2015,01,12,15,00,AAXX 12154 85586 42460 33110 10184 20140 40138 51008 83100 333 56700 83815=
85586,2015,01,12,18,00,AAXX 12184 85586 12560 22910 10180 20132 40144 51006 69901 82100 333 56600 82820=
85586,2015,01,12,21,00,AAXX 12214 85586 42460 22709 10177 20127 40142 57001 82100 333 56600 82814=
85586,2015,01,13,00,00,AAXX 13004 85586 12460 72705 10158 20124 40147 53003 60001 87500 333 10192 56600 87614=
85586,2015,01,13,03,00,AAXX 13034 85586 NIL=
85586,2015,01,13,06,00,AAXX 13064 85586 NIL=
85586,2015,01,13,09,00,AAXX 13094 85586 NIL=
85586,2015,01,13,12,00,AAXX 13124 85586 12460 70605 10150 20118 40146 51012 69904 87600 333 20144 30/// 55099 56600 70000 87712=
85586,2015,01,13,15,00,AAXX 13154 85586 41958 02807 10181 20127 40148 52002 70511=
85586,2015,01,13,18,00,AAXX 13184 85586 12460 42709 10184 20137 40149 50000 60001 84100 333 56600 84815=
85586,2015,01,13,21,00,AAXX 13214 85586 42960 02810 10181 20130 40143 58005=
85586,2015,01,14,00,00,AAXX 14004 85586 12460 33207 10159 20131 40143 54000 60001 83600 333 10194 56600 83712=
85586,2015,01,14,03,00,AAXX 14034 85586 NIL=
85586,2015,01,14,06,00,AAXX 14064 85586 NIL=
85586,2015,01,14,09,00,AAXX 14094 85586 NIL=
85586,2015,01,14,12,00,AAXX 14124 85586 12260 70504 10145 20126 40149 51012 60004 87600 333 20126 30/// 55110 56600 70000 87706=
85586,2015,01,14,15,00,AAXX 14154 85586 42260 22808 10178 20136 40152 53004 82600 333 56600 82705=
85586,2015,01,14,18,00,AAXX 14184 85586 12360 42708 10184 20144 40149 55002 60001 84600 333 56600 84708=
85586,2015,01,14,21,00,AAXX 14214 85586 42460 62808 10176 20142 40149 50001 86600 333 56600 86710=
85586,2015,01,15,00,00,AAXX 15004 85586 12460 73005 10161 20134 40157 53007 60001 87600 333 10195 56600 87710=
85586,2015,01,15,03,00,AAXX 15034 85586 NIL=
85586,2015,01,15,06,00,AAXX 15064 85586 NIL=
85586,2015,01,15,09,00,AAXX 15094 85586 NIL=
85586,2015,01,15,12,00,AAXX 15124 85586 12460 83005 10154 20131 40152 53012 60004 886// 333 20149 30/// 55089 56699 70000 88710=
85586,2015,01,15,15,00,AAXX 15154 85586 42460 82906 10165 20133 40162 51010 885// 333 56699 88613=
85586,2015,01,15,18,00,AAXX 15184 85586 12460 72709 10181 20137 40157 57006 60001 87600 333 56600 87715=
85586,2015,01,15,21,00,AAXX 15214 85586 42460 82708 10171 20133 40149 58007 886// 333 56699 88712=
85586,2015,01,16,00,00,AAXX 16004 85586 12460 83204 10156 20131 40148 55003 60001 886// 333 10196 56699 88710=
85586,2015,01,16,03,00,AAXX 16034 85586 NIL=
85586,2015,01,16,06,00,AAXX 16064 85586 NIL=
85586,2015,01,16,09,00,AAXX 16094 85586 NIL=
85586,2015,01,16,12,00,AAXX 16124 85586 11450 83504 10154 20131 40166 51015 60004 70522 886// 333 20145 30/// 55017 56099 70000 88710=
85586,2015,01,16,15,00,AAXX 16154 85586 41350 83006 10160 20135 40180 51014 70522 886// 333 56799 88709=
85586,2015,01,16,18,00,AAXX 16184 85586 11458 82509 10188 20135 40171 58007 60001 70522 886// 333 56699 88713=
85586,2015,01,16,21,00,AAXX 16214 85586 42460 82808 10173 20133 40162 58009 885// 333 56699 88613=
85586,2015,01,17,00,00,AAXX 17004 85586 12460 82904 10155 20130 40165 53002 60001 885// 333 10194 56099 88610=
85586,2015,01,17,03,00,AAXX 17034 85586 NIL=
85586,2015,01,17,06,00,AAXX 17064 85586 NIL=
85586,2015,01,17,09,00,AAXX 17094 85586 NIL=
85586,2015,01,17,12,00,AAXX 17124 85586 11357 80204 10157 20134 40165 53015 60004 70522 886// 333 20148 30/// 55000 56099 70000 88709=
85586,2015,01,17,15,00,AAXX 17154 85586 41458 83108 10172 20143 40166 53002 70522 886// 333 56099 88710=
85586,2015,01,17,18,00,AAXX 17184 85586 12460 83010 10192 20149 40162 58003 60001 885// 333 56699 82710 88620=
85586,2015,01,17,21,00,AAXX 17214 85586 42460 72808 10181 20146 40152 58012 87500 333 56600 87610=
85586,2015,01,18,00,00,AAXX 18004 85586 12460 22604 10167 20138 40150 55004 60001 82500 333 10193 56600 82612=
85586,2015,01,18,03,00,AAXX 18034 85586 NIL=
85586,2015,01,18,06,00,AAXX 18064 85586 NIL=
85586,2015,01,18,09,00,AAXX 18094 85586 NIL=
85586,2015,01,18,12,00,AAXX 18124 85586 11350 83305 10164 20144 40147 53017 60004 71022 886// 333 20161 30/// 55025 56099 70000 88708=
85586,2015,01,18,15,00,AAXX 18154 85586 41358 83409 10175 20144 40171 53024 70522 885// 333 56699 82709 83612 88615=
85586,2015,01,18,18,00,AAXX 18184 85586 12460 83112 10187 20154 40175 52004 60001 885// 333 56699 81610 88624=
85586,2015,01,18,21,00,AAXX 18214 85586 42360 82808 10187 20156 40164 57011 885// 333 56699 83708 88632=
85586,2015,01,19,00,00,AAXX 19004 85586 12360 82404 10171 20153 40165 53001 60001 885// 333 10200 56699 81708 85610 88630=
85586,2015,01,19,03,00,AAXX 19034 85586 NIL=
85586,2015,01,19,06,00,AAXX 19064 85586 NIL=
85586,2015,01,19,09,00,AAXX 19094 85586 NIL=
85586,2015,01,19,12,00,AAXX 19124 85586 12360 89902 10172 20156 40180 51019 60004 886// 333 20168 30/// 55000 56099 70000 88708=
85586,2015,01,19,15,00,AAXX 19154 85586 41458 83109 10173 20157 40198 52019 70522 886// 333 56699 88710=
85586,2015,01,19,18,00,AAXX 19184 85586 12460 72907 10202 20153 40195 58002 60001 87800 333 56600 84810 87618=
85586,2015,01,19,21,00,AAXX 19214 85586 42460 63007 10192 20153 40187 58008 86800 333 56600 82810 86640=
85586,2015,01,20,00,00,AAXX 20004 85586 12360 62604 10175 20155 40179 55010 60001 85601 333 10210 56606 85709=
85586,2015,01,20,03,00,AAXX 20034 85586 NIL=
85586,2015,01,20,06,00,AAXX 20064 85586 NIL=
85586,2015,01,20,09,00,AAXX 20094 85586 NIL=
85586,2015,01,20,12,00,AAXX 20124 85586 12460 82104 10173 20144 40168 52011 60004 885// 333 20163 30/// 55038 56699 70000 88613=
85586,2015,01,20,15,00,AAXX 20154 85586 42460 82507 10190 20147 40171 52007 888// 333 56699 83812 88618=
85586,2015,01,20,18,00,AAXX 20184 85586 12460 82608 10197 20152 40168 58004 60001 888// 333 56699 83812 88625=
85586,2015,01,20,21,00,AAXX 20214 85586 42960 02412 10205 20151 40148 58020=
85586,2015,01,21,00,00,AAXX 21004 85586 12960 02406 10172 20149 40148 54000 60001 333 10207=
85586,2015,01,21,03,00,AAXX 21034 85586 NIL=
85586,2015,01,21,06,00,AAXX 21064 85586 NIL=
85586,2015,01,21,09,00,AAXX 21094 85586 NIL=
85586,2015,01,21,12,00,AAXX 21124 85586 12360 82703 10155 20135 40173 52018 60004 886// 333 20153 30/// 55045 56699 70000 88709=
85586,2015,01,21,15,00,AAXX 21154 85586 42460 82806 10172 20140 40185 51013 886// 333 56699 88712=
85586,2015,01,21,18,00,AAXX 21184 85586 12560 82508 10185 20144 40182 57002 60001 885// 333 56699 88621=
85586,2015,01,21,21,00,AAXX 21214 85586 42460 62409 10191 20144 40170 57012 86800 333 56600 83810 86622=
85586,2015,01,22,00,00,AAXX 22004 85586 12460 72309 10166 20134 40168 55001 60001 87500 333 10195 56600 87616=
85586,2015,01,22,03,00,AAXX 22034 85586 NIL=
85586,2015,01,22,06,00,AAXX 22064 85586 NIL=
85586,2015,01,22,09,00,AAXX 22094 85586 NIL=
85586,2015,01,22,12,00,AAXX 22124 85586 12360 80904 10147 20126 40179 53018 60004 886// 333 20117 30/// 55004 56099 70000 88709=
85586,2015,01,22,15,00,AAXX 22154 85586 42460 52906 10182 20133 40185 52007 85600 333 56600 85713=
85586,2015,01,22,18,00,AAXX 22184 85586 12460 42411 10204 20144 40176 58007 60001 84500 333 56600 84613=
85586,2015,01,22,21,00,AAXX 22214 85586 42460 22516 10187 20138 40160 58016 82100 333 56600 82811=
85586,2015,01,23,00,00,AAXX 23004 85586 12360 10505 10175 20137 40149 55014 60001 81600 333 10205 56600 81708=
85586,2015,01,23,03,00,AAXX 23034 85586 NIL=
85586,2015,01,23,06,00,AAXX 23064 85586 NIL=
85586,2015,01,23,09,00,AAXX 23094 85586 NIL=
85586,2015,01,23,12,00,AAXX 23124 85586 11108 82804 10139 20136 40148 53017 60003 74600 886// 333 20095 30/// 55084 56699 70000 85702 88704=
85586,2015,01,23,15,00,AAXX 23154 85586 42960 03013 10193 20146 40156 51010=
85586,2015,01,23,18,00,AAXX 23184 85586 12460 62809 10188 20142 40167 51012 60001 86600 333 56600 86710=
85586,2015,01,23,21,00,AAXX 23214 85586 42460 32809 10189 20142 40157 58008 83100 333 56600 83812=
85586,2015,01,24,00,00,AAXX 24004 85586 12460 53606 10169 20142 40149 55010 60001 83601 333 10204 56606 83710 83075=
85586,2015,01,24,03,00,AAXX 24034 85586 NIL=
85586,2015,01,24,06,00,AAXX 24064 85586 NIL=
85586,2015,01,24,09,00,AAXX 24094 85586 NIL=
85586,2015,01,24,12,00,AAXX 24124 85586 11257 80504 10149 20136 40153 53018 60004 70522 886// 333 20106 30/// 55095 56099 70000 88704=
85586,2015,01,24,15,00,AAXX 24154 85586 42360 83309 10170 20141 40157 53005 886// 333 56099 88707=
85586,2015,01,24,18,00,AAXX 24184 85586 12260 82608 10166 20141 40161 50005 60001 886// 333 56099 88705=
85586,2015,01,24,21,00,AAXX 24214 85586 42260 62807 10180 20144 40149 58004 86500 333 56600 82705 86609=
85586,2015,01,25,00,00,AAXX 25004 85586 12360 40105 10166 20143 40142 56008 60001 82601 333 10185 56606 82708 83075=
85586,2015,01,25,03,00,AAXX 25034 85586 NIL=
85586,2015,01,25,06,00,AAXX 25064 85586 NIL=
85586,2015,01,25,09,00,AAXX 25094 85586 NIL=
85586,2015,01,25,12,00,AAXX 25124 85586 11106 89901 10140 20137 40143 53022 60003 74444 886// 333 20104 30/// 55034 56799 70000 85701 88705=
85586,2015,01,25,15,00,AAXX 25154 85586 41256 83508 10166 20139 40150 52008 70522 886// 333 56799 88703=
85586,2015,01,25,18,00,AAXX 25184 85586 11258 82810 10174 20149 40145 58003 60001 70522 886// 333 56799 88704=
85586,2015,01,25,21,00,AAXX 25214 85586 41240 82709 10169 20151 40142 58006 71022 886// 333 56799 88704=
85586,2015,01,26,00,00,AAXX 26004 85586 11256 82512 10155 20142 40133 56008 60001 70522 886// 333 10193 56799 88705=
85586,2015,01,26,03,00,AAXX 26034 85586 NIL=
85586,2015,01,26,06,00,AAXX 26064 85586 NIL=
85586,2015,01,26,09,00,AAXX 26094 85586 NIL=
85586,2015,01,26,12,00,AAXX 26124 85586 11220 82302 10140 20132 40134 53016 60003 71022 886// 333 20136 30/// 55005 56799 70000 88703=
85586,2015,01,26,15,00,AAXX 26154 85586 42360 22707 10179 20139 40137 51005 82600 333 56600 82707=
85586,2015,01,26,18,00,AAXX 26184 85586 12260 52608 10176 20140 40128 58009 60001 85600 333 56600 85704=
85586,2015,01,26,21,00,AAXX 26214 85586 42960 02512 10206 20152 40113 58013=
85586,2015,01,27,00,00,AAXX 27004 85586 12960 02304 10176 20151 40114 55000 60001 333 10211=
85586,2015,01,27,03,00,AAXX 27034 85586 NIL=
85586,2015,01,27,06,00,AAXX 27064 85586 NIL=
85586,2015,01,27,09,00,AAXX 27094 85586 NIL=
85586,2015,01,27,12,00,AAXX 27124 85586 11108 81403 10143 20140 40128 52012 60004 74244 886// 333 20138 30/// 55098 56799 70000 88702=
85586,2015,01,27,15,00,AAXX 27154 85586 41230 62808 10160 20135 40136 53008 71042 86600 333 56600 86705=
85586,2015,01,27,18,00,AAXX 27184 85586 12960 02910 10189 20120 40141 51007 60001=
85586,2015,01,27,21,00,AAXX 27214 85586 42960 03010 10193 20129 40143 52002=
85586,2015,01,28,00,00,AAXX 28004 85586 12960 00508 10167 20133 40137 56008 60001 333 10204=
85586,2015,01,28,03,00,AAXX 28034 85586 NIL=
85586,2015,01,28,06,00,AAXX 28064 85586 NIL=
85586,2015,01,28,09,00,AAXX 28094 85586 NIL=
85586,2015,01,28,12,00,AAXX 28124 85586 12360 20603 10149 20119 40146 53013 60004 82600 333 20102 30/// 55109 56600 70000 82708=
85586,2015,01,28,15,00,AAXX 28154 85586 12460 12808 10181 20132 40148 51001 60001 81100 333 56600 81815=
85586,2015,01,28,18,00,AAXX 28184 85586 12460 12808 10181 20132 40148 51001 60001 81100 333 56600 81815=
85586,2015,01,28,21,00,AAXX 28214 85586 42960 02709 10182 20127 40150 52003=
85586,2015,01,29,00,00,AAXX 29004 85586 12960 02905 10154 20114 40148 53002 60001 333 10199=
85586,2015,01,29,03,00,AAXX 29034 85586 NIL=
85586,2015,01,29,06,00,AAXX 29064 85586 NIL=
85586,2015,01,29,09,00,AAXX 29094 85586 NIL=
85586,2015,01,29,12,00,AAXX 29124 85586 11257 80206 10141 20122 40140 53017 60004 70522 886// 333 20108 30/// 55125 56099 70000 88706=
85586,2015,01,29,15,00,AAXX 29154 85586 41258 83008 10147 20124 40151 51011 70522 886// 333 56799 88706=
85586,2015,01,29,18,00,AAXX 29184 85586 12460 82709 10166 20128 40156 53007 60001 886// 333 56699 88710=
85586,2015,01,29,21,00,AAXX 29214 85586 42460 82509 10167 20127 40154 58003 886// 333 56699 88710=
85586,2015,01,30,00,00,AAXX 30004 85586 12460 82506 10149 20124 40148 55007 60001 886// 333 10181 56099 88710=
85586,2015,01,30,03,00,AAXX 30034 85586 NIL=
85586,2015,01,30,06,00,AAXX 30064 85586 NIL=
85586,2015,01,30,09,00,AAXX 30094 85586 NIL=
85586,2015,01,30,12,00,AAXX 30124 85586 11250 80403 10137 20121 40155 53017 60004 71022 886// 333 20130 30/// 55000 56099 70000 88706=
85586,2015,01,30,15,00,AAXX 30154 85586 42460 33209 10173 20121 40162 51009 83500 333 56700 83615=
85586,2015,01,30,18,00,AAXX 30184 85586 12460 32610 10183 20126 40157 58005 60001 83100 333 56600 83811=
85586,2015,01,30,21,00,AAXX 30214 85586 42460 42609 10161 20124 40144 58012 84600 333 56600 84712=
85586,2015,01,31,00,00,AAXX 31004 85586 12460 52707 10144 20119 40138 55008 60001 85500 333 10184 56600 85610=
85586,2015,01,31,03,00,AAXX 31034 85586 NIL=
85586,2015,01,31,06,00,AAXX 31064 85586 NIL=
85586,2015,01,31,09,00,AAXX 31094 85586 NIL=
85586,2015,01,31,12,00,AAXX 31124 85586 12960 09901 10145 20115 40138 53014 69904 333 20104 30/// 55063 70000=
85586,2015,01,31,15,00,AAXX 31154 85586 42360 22507 10167 20125 40142 53003 82600 333 56700 82708=
85586,2015,01,31,18,00,AAXX 31184 85586 12360 12808 10169 20121 40135 58004 60001 81600 333 56700 81707=
85586,2015,01,31,21,00,AAXX 31214 85586 42260 72809 10153 20123 40126 56011 87600 333 56700 87705=
85586,2015,02,01,00,00,AAXX 01004 85586 11258 83107 10141 20130 40126 55001 60001 70522 886// 333 10175 56799 88703=
85586,2015,02,01,03,00,AAXX 01034 85586 NIL=
85586,2015,02,01,06,00,AAXX 01064 85586 NIL=
85586,2015,02,01,09,00,AAXX 01094 85586 NIL=
85586,2015,02,01,12,00,AAXX 01124 85586 11356 80205 10149 20130 40146 53020 60003 70522 886// 333 20123 30/// 55098 56799 70000 88707=
85586,2015,02,01,15,00,AAXX 01154 85586 412// 83307 10159 20134 40158 51014 70522 886// 333 56799 88705=
85586,2015,02,01,18,00,AAXX 01184 85586 12360 82808 10171 20140 40152 57006 60001 886// 333 56799 88707=
85586,2015,02,01,21,00,AAXX 01214 85586 41358 72706 10162 20135 40137 58015 70522 87600 333 56700 87707=
85586,2015,02,02,00,00,AAXX 02004 85586 11358 83504 10156 20136 40128 56008 60001 70522 886// 333 10182 56799 88708=
85586,2015,02,02,03,00,AAXX 02034 85586 NIL=
85586,2015,02,02,06,00,AAXX 02064 85586 NIL=
85586,2015,02,02,09,00,AAXX 02094 85586 NIL=
85586,2015,02,02,12,00,AAXX 02124 85586 11340 80105 10147 20134 40138 53024 60004 70522 886// 333 20115 30/// 55004 56799 70000 88706=
85586,2015,02,02,15,00,AAXX 02154 85586 41356 83110 10167 20142 40154 51016 70822 886// 333 56799 88707=
85586,2015,02,02,18,00,AAXX 02184 85586 12460 33010 10181 20135 40153 50001 60001 83100 333 56600 83810=
85586,2015,02,02,21,00,AAXX 02214 85586 42360 72807 10165 20136 40148 58003 87600 333 56700 87708=
85586,2015,02,03,00,00,AAXX 03004 85586 11458 72906 10154 20131 40147 55004 60001 70522 87600 333 10193 56700 87710=
85586,2015,02,03,06,00,AAXX 03064 85586 NIL=
85586,2015,02,03,09,00,AAXX 03094 85586 NIL=
85586,2015,02,03,12,00,AAXX 03124 85586 12360 80205 10141 20118 40145 52014 60004 886// 333 20133 30/// 55043 56799 70000 88708=
85586,2015,02,03,15,00,AAXX 03154 85586 42460 73005 10156 20116 40149 50004 87600 333 56700 87710=
85586,2015,02,03,18,00,AAXX 03184 85586 12460 32611 10170 20126 40148 58001 60001 83600 333 56600 83710=
85586,2015,02,03,21,00,AAXX 03214 85586 42360 62807 10157 20127 40138 58010 86600 333 56600 86709=
85586,2015,02,04,00,00,AAXX 04004 85586 12360 73107 10150 20129 40130 55007 60001 87600 333 10184 56700 87708=
85586,2015,02,04,03,00,AAXX 04034 85586 NIL=
85586,2015,02,04,06,00,AAXX 04064 85586 NIL=
85586,2015,02,04,09,00,AAXX 04094 85586 NIL=
85586,2015,02,04,12,00,AAXX 04124 85586 12260 89902 10136 20118 40128 53017 60004 886// 333 20120 30/// 55026 56699 70000 88706=
85586,2015,02,04,15,00,AAXX 04154 85586 42360 83107 10165 20127 40134 50008 886// 333 56799 88708=
85586,2015,02,04,18,00,AAXX 04184 85586 12360 72707 10157 20123 40132 55002 60001 87600 333 56600 87708=
85586,2015,02,04,21,00,AAXX 04214 85586 42460 52708 10171 20133 40123 57008 85600 333 56600 85710=
85586,2015,02,05,00,00,AAXX 05004 85586 12360 73105 10151 20128 40115 56008 60001 87600 333 10179 56600 87709=
85586,2015,02,05,03,00,AAXX 05034 85586 NIL=
85586,2015,02,05,06,00,AAXX 05064 85586 NIL=
85586,2015,02,05,09,00,AAXX 05094 85586 NIL=
85586,2015,02,05,12,00,AAXX 05124 85586 12360 53207 10154 20124 40137 53024 60004 85600 333 20138 30/// 55044 56600 70000 85709=
85586,2015,02,05,15,00,AAXX 05154 85586 42460 83011 10166 20132 40157 51023 886// 333 56699 88710=
85586,2015,02,05,18,00,AAXX 05184 85586 12460 83109 10178 20136 40155 58001 60001 885// 333 56699 88615=
85586,2015,02,05,21,00,AAXX 05214 85586 42460 82407 10169 20135 40136 56020 886// 333 56699 88710=
85586,2015,02,06,00,00,AAXX 06004 85586 12360 82407 10146 20127 40134 55003 60001 886// 333 10187 56799 88707=
85586,2015,02,06,03,00,AAXX 06034 85586 NIL=
85586,2015,02,06,06,00,AAXX 06064 85586 NIL=
85586,2015,02,06,09,00,AAXX 06094 85586 NIL=
85586,2015,02,06,12,00,AAXX 06124 85586 11240 89902 10124 20119 40151 52032 60004 71022 886// 333 20076 30/// 55007 56799 70000 88704=
85586,2015,02,06,15,00,AAXX 06154 85586 41356 82908 10158 20126 40168 52017 70522 886// 333 56799 88708=
85586,2015,02,06,18,00,AAXX 06184 85586 12360 22810 10182 20133 40162 58007 60001 82600 333 56700 82708=
85586,2015,02,06,21,00,AAXX 06214 85586 42360 62607 10170 20132 40143 57021 81601 333 56706 81706 86075=
85586,2015,02,07,00,00,AAXX 07004 85586 11108 80508 10151 20143 40130 58011 60001 74622 886// 333 10191 56799 88701=
85586,2015,02,07,03,00,AAXX 07034 85586 NIL=
85586,2015,02,07,06,00,AAXX 07064 85586 NIL=
85586,2015,02,07,09,00,AAXX 07094 85586 NIL=
85586,2015,02,07,12,00,AAXX 07124 85586 111// 83506 10137 20134 40154 51024 69904 71055 886// 333 20116 30/// 55040 56799 79999 88703=
85586,2015,02,07,15,00,AAXX 07154 85586 41258 83106 10173 20148 40170 51018 70522 886// 333 56799 88705=
85586,2015,02,07,18,00,AAXX 07184 85586 11258 82809 10172 20147 40169 53001 60001 70522 886// 333 56799 88704=
85586,2015,02,07,21,00,AAXX 07214 85586 41356 82805 10164 20146 40159 56011 70522 886// 333 56799 88706=
85586,2015,02,08,00,00,AAXX 08004 85586 11256 82705 10157 20144 40158 55002 60001 70522 886// 333 10185 56799 88705=
85586,2015,02,08,03,00,AAXX 08034 85586 NIL=
85586,2015,02,08,06,00,AAXX 08064 85586 NIL=
85586,2015,02,08,09,00,AAXX 08094 85586 NIL=
85586,2015,02,08,12,00,AAXX 08124 85586 11456 82806 10144 20126 40182 51021 60003 70522 885// 333 20138 30/// 55000 56799 70000 88615=
85586,2015,02,08,15,00,AAXX 08154 85586 41458 82707 10167 20121 40183 52003 70522 885// 333 56799 88717=
85586,2015,02,08,18,00,AAXX 08184 85586 12960 02710 10174 20119 40174 56009 60001=
85586,2015,02,08,21,00,AAXX 08214 85586 42460 22607 10174 20130 40156 57017 82100 333 56600 82811=
85586,2015,02,09,00,00,AAXX 09004 85586 11958 00306 10154 20124 40145 57012 60001 70500 333 10188=
85586,2015,02,09,03,00,AAXX 09034 85586 NIL=
85586,2015,02,09,06,00,AAXX 09064 85586 NIL=
85586,2015,02,09,09,00,AAXX 09094 85586 NIL=
85586,2015,02,09,12,00,AAXX 09124 85586 12260 89902 10129 20115 40151 53020 60004 886// 333 20098 30/// 55079 56699 70000 88706=
85586,2015,02,09,15,00,AAXX 09154 85586 42960 73005 10180 20129 40161 51012 87051 333 56066 85367=
85586,2015,02,09,18,00,AAXX 09184 85586 12960 72706 10181 20130 40165 50003 60001 84031 333 56066 84367 83072=
85586,2015,02,09,21,00,AAXX 09214 85586 42960 62410 10213 20115 40152 58010 86030 333 56060 86367=
85586,2015,02,10,00,00,AAXX 10004 85586 12960 62311 10172 20095 40155 53002 60001 83031 333 10217 56066 83367 83075=
85586,2015,02,10,03,00,AAXX 10034 85586 NIL=
85586,2015,02,10,06,00,AAXX 10064 85586 NIL=
85586,2015,02,10,09,00,AAXX 10094 85586 NIL=
85586,2015,02,10,12,00,AAXX 10124 85586 12960 00000 10154 20089 40166 51013 60004 333 20082 30/// 55026 70000=
85586,2015,02,10,15,00,AAXX 10154 85586 42960 02806 10189 20108 40173 51010=
85586,2015,02,10,18,00,AAXX 10184 85586 12960 02707 10202 20115 40171 58001 60001=
85586,2015,02,10,21,00,AAXX 10214 85586 42960 02607 10186 20117 40161 56011=
85586,2015,02,11,00,00,AAXX 11004 85586 12960 03605 10157 20111 40158 55003 60001 333 10209=
85586,2015,02,11,03,00,AAXX 11034 85586 NIL=
85586,2015,02,11,06,00,AAXX 11064 85586 NIL=
85586,2015,02,11,09,00,AAXX 11094 85586 NIL=
85586,2015,02,11,12,00,AAXX 11124 85586 12960 00504 10154 20112 40163 51018 60004 333 20098 30/// 55125 70000=
85586,2015,02,11,15,00,AAXX 11154 85586 42960 02706 10190 20133 40170 52010=
85586,2015,02,11,18,00,AAXX 11184 85586 12960 02707 10201 20148 40167 58002 60001=
85586,2015,02,11,21,00,AAXX 11214 85586 42960 02907 10195 20148 40155 56013=
85586,2015,02,12,00,00,AAXX 12004 85586 12960 03103 10158 20130 40153 55003 60001 333 10212=
85586,2015,02,12,03,00,AAXX 12034 85586 NIL=
85586,2015,02,12,06,00,AAXX 12064 85586 NIL=
85586,2015,02,12,09,00,AAXX 12094 85586 NIL=
85586,2015,02,12,12,00,AAXX 12124 85586 12960 09902 10144 20116 40162 53007 60003 333 20094 30/// 55125 70000=
85586,2015,02,12,15,00,AAXX 12154 85586 42260 12609 10180 20136 40156 58004 81600 333 56700 81704=
85586,2015,02,12,18,00,AAXX 12184 85586 12960 02707 10213 20128 40142 57013 60001=
85586,2015,02,12,21,00,AAXX 12214 85586 42960 03105 10229 20135 40119 56023=
85586,2015,02,13,00,00,AAXX 13004 85586 11958 00206 10179 20128 40117 55002 60001 70500 333 10249=
85586,2015,02,13,03,00,AAXX 13034 85586 NIL=
85586,2015,02,13,06,00,AAXX 13064 85586 NIL=
85586,2015,02,13,09,00,AAXX 13094 85586 NIL=
85586,2015,02,13,12,00,AAXX 13124 85586 11958 09902 10160 20122 40112 52011 60003 70400 333 20089 30/// 55119 70000=
85586,2015,02,13,15,00,AAXX 13154 85586 43960 03107 10186 20137 40122 52010=
85586,2015,02,13,18,00,AAXX 13184 85586 12960 02809 10189 20132 40129 51007 60001=
85586,2015,02,13,21,00,AAXX 13214 85586 42960 02607 10183 20126 40123 57006=
85586,2015,02,14,00,00,AAXX 14004 85586 11958 02703 10151 20121 40123 56002 60001 70500 333 10200=
85586,2015,02,14,03,00,AAXX 14034 85586 NIL=
85586,2015,02,14,06,00,AAXX 14064 85586 NIL=
85586,2015,02,14,09,00,AAXX 14094 85586 NIL=
85586,2015,02,14,12,00,AAXX 14124 85586 11356 83505 10148 20127 40141 53029 60004 70522 886// 333 20107 30/// 55118 56799 70000 88708=
85586,2015,02,14,15,00,AAXX 14154 85586 12560 33213 10194 20138 40164 52008 60001 83400 333 56700 83623=
85586,2015,02,14,18,00,AAXX 14184 85586 NIL=
85586,2015,02,14,21,00,AAXX 14214 85586 42460 73109 10188 20145 40162 58002 87500 333 56700 87616=
85586,2015,02,15,00,00,AAXX 15004 85586 11456 22805 10164 20135 40157 55006 60001 70511 82500 333 10200 56700 82615=
85586,2015,02,15,03,00,AAXX 15034 85586 NIL=
85586,2015,02,15,06,00,AAXX 15064 85586 NIL=
85586,2015,02,15,09,00,AAXX 15094 85586 NIL=
85586,2015,02,15,12,00,AAXX 15124 85586 11105 71004 10124 20118 40135 53014 60004 74442 87600 333 20087 30/// 55079 56600 70000 87702=
85586,2015,02,15,15,00,AAXX 15154 85586 41110 83206 10154 20136 40152 53017 71022 886// 333 56799 88703=
85586,2015,02,15,18,00,AAXX 15184 85586 11358 83210 10182 20144 40161 53010 60001 70522 886// 333 56799 88708=
85586,2015,02,15,21,00,AAXX 15214 85586 41458 82808 10179 20141 40159 57002 70522 886// 333 56699 88713=
85586,2015,02,16,00,00,AAXX 16004 85586 12460 82804 10161 20136 40157 55002 60001 886// 333 10193 56699 88710=
85586,2015,02,16,03,00,AAXX 16034 85586 NIL=
85586,2015,02,16,06,00,AAXX 16064 85586 NIL=
85586,2015,02,16,09,00,AAXX 16094 85586 NIL=
85586,2015,02,16,12,00,AAXX 16124 85586 12260 83603 10140 20124 40149 53013 60004 886// 333 20136 30/// 55006 56699 70000 88706=
85586,2015,02,16,15,00,AAXX 16154 85586 42260 83306 10149 20133 40161 51013 886// 333 56799 88705=
85586,2015,02,16,18,00,AAXX 16184 85586 12460 82708 10170 20139 40157 57003 60001 886// 333 56699 88711=
85586,2015,02,16,21,00,AAXX 16214 85586 42460 82707 10169 20138 40149 56008 886// 333 56699 88710=
85586,2015,02,17,00,00,AAXX 17004 85586 12460 82904 10152 20129 40146 55003 60001 886// 333 10190 56699 88710=
85586,2015,02,17,03,00,AAXX 17034 85586 NIL=
85586,2015,02,17,06,00,AAXX 17064 85586 NIL=
85586,2015,02,17,09,00,AAXX 17094 85586 NIL=
85586,2015,02,17,12,00,AAXX 17124 85586 11102 82903 10120 20117 40131 53007 60004 74444 886// 333 20112 30/// 55015 56699 70000 88702=
85586,2015,02,17,15,00,AAXX 17154 85586 41230 82806 10151 20126 40135 51005 71042 886// 333 56699 88705=
85586,2015,02,17,18,00,AAXX 17184 85586 11340 82906 10175 20139 40143 51009 60001 70522 886// 333 56699 88708=
85586,2015,02,17,21,00,AAXX 17214 85586 42460 22709 10179 20126 40146 53003 82100 333 56600 82812=
85586,2015,02,18,00,00,AAXX 18004 85586 12460 72806 10147 20119 40149 53002 60001 87500 333 10186 56600 87614=
85586,2015,02,18,03,00,AAXX 18034 85586 NIL=
85586,2015,02,18,06,00,AAXX 18064 85586 NIL=
85586,2015,02,18,09,00,AAXX 18094 85586 NIL=
85586,2015,02,18,12,00,AAXX 18124 85586 11956 09901 10126 20110 40151 51011 60003 70500 333 20085 30/// 55038 70000=
85586,2015,02,18,15,00,AAXX 18154 85586 42960 02608 10178 20103 40151 50004=
85586,2015,02,18,18,00,AAXX 18184 85586 12960 02416 10197 20102 40138 57012 60001=
85586,2015,02,18,21,00,AAXX 18214 85586 42960 02312 10192 20098 40127 56010=
85586,2015,02,19,00,00,AAXX 19004 85586 11956 02003 10145 20100 40137 53007 60001 70500 333 10202=
85586,2015,02,19,03,00,AAXX 19034 85586 NIL=
85586,2015,02,19,06,00,AAXX 19064 85586 NIL=
85586,2015,02,19,09,00,AAXX 19094 85586 NIL=
85586,2015,02,19,12,00,AAXX 19124 85586 11958 00000 10108 20082 40147 53011 60004 70500 333 20053 30/// 55117 70000=
85586,2015,02,19,15,00,AAXX 19154 85586 41958 23409 10173 20112 40155 52010 70500 80001 333 56006 82075=
85586,2015,02,19,18,00,AAXX 19184 85586 11956 02911 10176 20119 40163 51009 60001 70411=
85586,2015,02,19,21,00,AAXX 19214 85586 41958 02809 10179 20111 40158 56004 70411=
85586,2015,02,20,00,00,AAXX 20004 85586 11956 79901 10144 20108 40160 55001 60001 70511 80001 333 10187 56006 87075=
85586,2015,02,20,03,00,AAXX 20034 85586 NIL=
85586,2015,02,20,06,00,AAXX 20064 85586 NIL=
85586,2015,02,20,09,00,AAXX 20094 85586 NIL=
85586,2015,02,20,12,00,AAXX 20124 85586 11958 80000 10128 20105 40148 53007 60004 70522 8803/ 333 20109 30/// 55111 56069 79999 88365=
85586,2015,02,20,15,00,AAXX 20154 85586 41956 72505 10168 20103 40153 51005 70522 87030 333 56060 87365=
85586,2015,02,20,18,00,AAXX 20184 85586 11956 82906 10175 20097 40154 52002 60001 70522 8801/ 333 56069 88458=
85586,2015,02,20,21,00,AAXX 20214 85586 41956 79903 10181 20126 40146 58008 70522 85031 333 56066 85358 85075=
85586,2015,02,21,00,00,AAXX 21004 85586 11856 62903 10158 20128 40145 55002 69901 70522 86030 333 10190 56060 86357=
85586,2015,02,21,03,00,AAXX 21034 85586 NIL=
85586,2015,02,21,06,00,AAXX 21064 85586 NIL=
85586,2015,02,21,09,00,AAXX 21094 85586 NIL=
85586,2015,02,21,12,00,AAXX 21124 85586 12460 81103 10139 20128 40174 53014 69904 885// 333 20109 30/// 55037 56699 79999 85615 85618=
85586,2015,02,21,15,00,AAXX 21154 85586 42460 72805 10178 20124 40182 52010 87500 333 56600 87619=
85586,2015,02,21,18,00,AAXX 21184 85586 12960 02809 10202 20123 40172 56008 60001=
85586,2015,02,21,21,00,AAXX 21214 85586 42960 02507 10196 20132 40165 58008=
85586,2015,02,22,00,00,AAXX 22004 85586 12960 02504 10160 20133 40164 55002 60001 333 10210=
85586,2015,02,22,03,00,AAXX 22034 85586 NIL=
85586,2015,02,22,06,00,AAXX 22064 85586 NIL=
85586,2015,02,22,09,00,AAXX 22094 85586 NIL=
85586,2015,02,22,12,00,AAXX 22124 85586 12960 00703 10137 20124 40174 53018 60004 333 20088 30/// 55082 70000=
85586,2015,02,22,15,00,AAXX 22154 85586 42460 62906 10163 20121 40186 51017 86500 333 56600 84614 85617=
85586,2015,02,22,18,00,AAXX 22184 85586 12960 02511 10187 20128 40182 58004 60001=
85586,2015,02,22,21,00,AAXX 22214 85586 42460 12509 10177 20129 40173 57007 81100 333 56600 81813=
85586,2015,02,23,00,00,AAXX 23004 85586 12560 12604 10150 20123 40167 56009 60001 81500 333 10196 56600 81620=
85586,2015,02,23,03,00,AAXX 23034 85586 NIL=
85586,2015,02,23,06,00,AAXX 23064 85586 NIL=
85586,2015,02,23,09,00,AAXX 23094 85586 NIL=
85586,2015,02,23,12,00,AAXX 23124 85586 11240 83003 10138 20124 40157 53013 60004 71022 886// 333 20123 30/// 55101 56099 70000 88706=
85586,2015,02,23,15,00,AAXX 23154 85586 42360 82805 10150 20125 40160 51004 886// 333 56999 88708=
85586,2015,02,23,18,00,AAXX 23184 85586 12460 82807 10166 20126 40154 57005 60001 886// 333 56699 88711=
85586,2015,02,23,21,00,AAXX 23214 85586 42460 72907 10163 20119 40150 58004 87600 333 56700 87712=
85586,2015,02,24,00,00,AAXX 24004 85586 12460 82503 10157 20129 40147 57002 60001 885// 333 10174 56099 88613=
85586,2015,02,24,03,00,AAXX 24034 85586 NIL=
85586,2015,02,24,06,00,AAXX 24064 85586 NIL=
85586,2015,02,24,09,00,AAXX 24094 85586 NIL=
85586,2015,02,24,12,00,AAXX 24124 85586 11450 80000 10141 20136 40160 53013 69904 71062 885// 333 20136 31/// 55000 56699 79999 85616 88621=
85586,2015,02,24,15,00,AAXX 24154 85586 41340 83004 10155 20142 40172 53012 75122 886// 333 56699 86707 88617=
85586,2015,02,24,18,00,AAXX 24184 85586 NIL=
85586,2015,02,24,21,00,AAXX 24214 85586 42560 22708 10184 20131 40157 57013 82100 333 56600 82820=
85586,2015,02,25,00,00,AAXX 25004 85586 12560 72205 10157 20136 40155 55002 60001 87500 333 10194 56600 87630=
85586,2015,02,25,03,00,AAXX 25034 85586 NIL=
85586,2015,02,25,06,00,AAXX 25064 85586 NIL=
85586,2015,02,25,09,00,AAXX 25094 85586 NIL=
85586,2015,02,25,12,00,AAXX 25124 85586 12560 80000 10159 20129 40132 53003 60004 885// 333 20150 30/// 55012 56699 79999 88625=
85586,2015,02,25,15,00,AAXX 25154 85586 42560 72707 10182 20136 40132 50002 87500 333 56600 87630=
85586,2015,02,25,18,00,AAXX 25184 85586 12960 02412 10213 20133 40122 55009 60001=
85586,2015,02,25,21,00,AAXX 25214 85586 42360 32509 10181 20145 40122 54000 83600 333 56600 83708=
85586,2015,02,26,00,00,AAXX 26004 85586 12460 82804 10162 20135 40125 53001 60001 886// 333 10216 56699 88712=
85586,2015,02,26,03,00,AAXX 26034 85586 NIL=
85586,2015,02,26,06,00,AAXX 26064 85586 NIL=
85586,2015,02,26,09,00,AAXX 26094 85586 NIL=
85586,2015,02,26,12,00,AAXX 26124 85586 12460 83305 10161 20123 40122 53013 60004 885// 333 20157 30/// 55075 56699 70000 88616=
85586,2015,02,26,15,00,AAXX 26154 85586 42560 83008 10175 20133 40137 53015 885// 333 56799 88620=
85586,2015,02,26,18,00,AAXX 26184 85586 12460 13115 10194 20136 40141 50007 60001 81100 333 56700 81815=
85586,2015,02,26,21,00,AAXX 26214 85586 42460 22912 10192 20137 40138 55003 82100 333 56700 82815=
85586,2015,02,27,00,00,AAXX 27004 85586 12960 22603 10164 20141 40143 53002 60001 80001 333 10207 56006 82073=
85586,2015,02,27,03,00,AAXX 27034 85586 NIL=
85586,2015,02,27,06,00,AAXX 27064 85586 NIL=
85586,2015,02,27,09,00,AAXX 27094 85586 NIL=
85586,2015,02,27,12,00,AAXX 27124 85586 12960 00000 10160 20124 40150 53012 60004 333 20122 30/// 55058 70000=
85586,2015,02,27,15,00,AAXX 27154 85586 42960 02509 10210 20128 40147 57002=
85586,2015,02,27,18,00,AAXX 27184 85586 12960 02612 10213 20133 40141 56007 60001=
85586,2015,02,27,21,00,AAXX 27214 85586 42960 02707 10201 20141 40142 52001=
85586,2015,02,28,00,00,AAXX 28004 85586 12960 02503 10169 20148 40152 53009 60001 333 10224=
85586,2015,02,28,03,00,AAXX 28034 85586 NIL=
85586,2015,02,28,06,00,AAXX 28064 85586 NIL=
85586,2015,02,28,09,00,AAXX 28094 85586 NIL=
85586,2015,02,28,12,00,AAXX 28124 85586 12460 11103 10154 20149 40173 52012 60004 81100 333 20113 30/// 55116 56600 70000 81815=
85586,2015,02,28,15,00,AAXX 28154 85586 42460 72705 10207 20142 40176 51005 87800 333 56600 83815 86550=
85586,2015,02,28,18,00,AAXX 28184 85586 12460 72808 10205 20147 40169 55006 60001 87800 333 56600 82815 86650=
85586,2015,02,28,21,00,AAXX 28214 85586 42960 02609 10207 20160 40161 55008=
85586,2015,03,01,00,00,AAXX 01004 85586 12860 52605 10175 20159 40173 53011 60001 85030 333 10226 56060 85357=
85586,2015,03,01,03,00,AAXX 01034 85586 NIL=
85586,2015,03,01,06,00,AAXX 01064 85586 NIL=
85586,2015,03,01,09,00,AAXX 01094 85586 NIL=
85586,2015,03,01,12,00,AAXX 01124 85586 12960 01303 10148 20142 40175 51004 60004 333 20112 30/// 55062 70000=
85586,2015,03,01,15,00,AAXX 01154 85586 42960 02707 10202 20142 40174 53001=
85586,2015,03,01,18,00,AAXX 01184 85586 12960 02514 10215 20138 40165 58009 60001=
85586,2015,03,01,21,00,AAXX 01214 85586 42960 02515 10204 20150 40150 56015=
85586,2015,03,02,00,00,AAXX 02004 85586 129// 02806 10170 20152 40148 58004 60001 333 10226=
85586,2015,03,02,03,00,AAXX 02034 85586 NIL=
85586,2015,03,02,06,00,AAXX 02064 85586 NIL=
85586,2015,03,02,09,00,AAXX 02094 85586 NIL=
85586,2015,03,02,12,00,AAXX 02124 85586 12360 70804 10154 20138 40143 51017 60004 87600 333 20130 30/// 55111 56600 70000 87709=
85586,2015,03,02,15,00,AAXX 02154 85586 42560 49905 10191 20138 40162 52019 84500 333 56600 84620=
85586,2015,03,02,18,00,AAXX 02184 85586 12460 22611 10200 20138 40157 56003 60001 82100 333 56600 82816=
85586,2015,03,02,21,00,AAXX 02214 85586 42460 22512 10196 20147 40151 56008 82100 333 56600 82813=
85586,2015,03,03,00,00,AAXX 03004 85586 12460 12604 10168 20147 40155 52004 60001 81600 333 10211 56600 81711=
85586,2015,03,03,03,00,AAXX 03034 85586 NIL=
85586,2015,03,03,06,00,AAXX 03064 85586 NIL=
85586,2015,03,03,09,00,AAXX 03094 85586 NIL=
85586,2015,03,03,12,00,AAXX 03124 85586 12960 09902 10136 20125 40145 53005 60004 333 20089 30/// 55088 70000=
85586,2015,03,03,15,00,AAXX 03154 85586 42960 02508 10192 20139 40145 53002=
85586,2015,03,03,18,00,AAXX 03184 85586 12360 22513 10195 20154 40143 57002 60001 82100 333 56600 82809=
85586,2015,03,03,21,00,AAXX 03214 85586 42960 02512 10198 20159 40137 56006=
85586,2015,03,04,00,00,AAXX 04004 85586 12360 52806 10169 20154 40141 53002 60001 85600 333 10210 56600 85708=
85586,2015,03,04,03,00,AAXX 04034 85586 NIL=
85586,2015,03,04,06,00,AAXX 04064 85586 NIL=
85586,2015,03,04,09,00,AAXX 04094 85586 NIL=
85586,2015,03,04,12,00,AAXX 04124 85586 12360 10704 10150 20132 40127 53008 60004 81600 333 20136 30/// 55113 56600 70000 81709=
85586,2015,03,04,15,00,AAXX 04154 85586 42960 02507 10190 20143 40139 53012=
85586,2015,03,04,18,00,AAXX 04184 85586 12960 02512 10189 20140 40142 52004 60001=
85586,2015,03,04,21,00,AAXX 04214 85586 42960 02513 10180 20134 40144 54000=
85586,2015,03,05,00,00,AAXX 05004 85586 12960 02710 10154 20131 40147 51005 60001 333 10202=
85586,2015,03,05,03,00,AAXX 05034 85586 NIL=
85586,2015,03,05,06,00,AAXX 05064 85586 NIL=
85586,2015,03,05,09,00,AAXX 05094 85586 NIL=
85586,2015,03,05,12,00,AAXX 05124 85586 12960 09902 10129 20099 40139 52004 60004 333 20073 30/// 55109 70000=
85586,2015,03,05,15,00,AAXX 05154 85586 42960 02706 10185 20114 40141 52005=
85586,2015,03,05,18,00,AAXX 05184 85586 12960 02515 10189 20134 40132 56008 60001=
85586,2015,03,05,21,00,AAXX 05214 85586 42960 02611 10183 20121 40122 57009=
85586,2015,03,06,00,00,AAXX 06004 85586 12960 00607 10154 20126 40122 55001 60001 333 10199=
85586,2015,03,06,03,00,AAXX 06034 85586 NIL=
85586,2015,03,06,06,00,AAXX 06064 85586 NIL=
85586,2015,03,06,09,00,AAXX 06094 85586 NIL=
85586,2015,03,06,12,00,AAXX 06124 85586 12260 61004 10126 20103 40129 52014 60004 86600 333 20086 30/// 55110 56600 70000 86706=
85586,2015,03,06,15,00,AAXX 06154 85586 42360 83011 10172 20132 40145 53017 886// 333 56799 88708=
85586,2015,03,06,18,00,AAXX 06184 85586 12460 72708 10180 20138 40156 50010 60001 87800 333 56600 82810 87615=
85586,2015,03,06,21,00,AAXX 06214 85586 42460 72707 10175 20137 40152 56005 87500 333 56600 87615=
85586,2015,03,07,00,00,AAXX 07004 85586 12460 62503 10154 20133 40158 53006 60001 86600 333 10192 56600 86712=
85586,2015,03,07,03,00,AAXX 07034 85586 NIL=
85586,2015,03,07,06,00,AAXX 07064 85586 NIL=
85586,2015,03,07,09,00,AAXX 07094 85586 NIL=
85586,2015,03,07,12,00,AAXX 07124 85586 12460 81503 10158 20128 40163 52017 60004 885// 333 20149 30/// 55026 56099 70000 88614=
85586,2015,03,07,15,00,AAXX 07154 85586 42960 02708 10183 20136 40165 53002=
85586,2015,03,07,18,00,AAXX 07184 85586 12360 42416 10179 20139 40167 51003 60001 84600 333 56600 84707=
85586,2015,03,07,21,00,AAXX 07214 85586 42360 42808 10179 20150 40148 57018 84500 333 56600 84608=
85586,2015,03,08,00,00,AAXX 08004 85586 12960 00703 10159 20146 40140 56008 60001 333 10200=
85586,2015,03,08,03,00,AAXX 08034 85586 NIL=
85586,2015,03,08,06,00,AAXX 08064 85586 NIL=
85586,2015,03,08,09,00,AAXX 08094 85586 NIL=
85586,2015,03,08,12,00,AAXX 08124 85586 11902 09902 10126 20124 40126 52010 60004 74244 333 20107 30/// 55072 70000=
85586,2015,03,08,15,00,AAXX 08154 85586 42960 13006 10200 20155 40126 50003 80001 333 56006 81075=
85586,2015,03,08,18,00,AAXX 08184 85586 11004 82512 10172 20150 40122 55004 60001 74911 886// 333 56999 88701=
85586,2015,03,08,21,00,AAXX 08214 85586 42260 32611 10181 20148 40110 56012 83600 333 56600 83705=
85586,2015,03,09,00,00,AAXX 09004 85586 12960 00306 10161 20138 40104 57008 60001 333 10204=
85586,2015,03,09,03,00,AAXX 09034 85586 NIL=
85586,2015,03,09,06,00,AAXX 09064 85586 NIL=
85586,2015,03,09,09,00,AAXX 09094 85586 NIL=
85586,2015,03,09,12,00,AAXX 09124 85586 12960 09901 10138 20132 40101 52014 60004 333 20095 30/// 55074 70000=
85586,2015,03,09,15,00,AAXX 09154 85586 41408 42907 10175 20146 40114 53014 74000 84600 333 56600 84710=
85586,2015,03,09,18,00,AAXX 09184 85586 12260 52908 10172 20140 40119 50004 60001 85600 333 56600 85704=
85586,2015,03,09,21,00,AAXX 09214 85586 42360 22608 10179 20146 40109 55007 82600 333 56600 82707=
85586,2015,03,10,00,00,AAXX 10004 85586 12360 13303 10152 20134 40108 58003 60001 81600 333 10193 56600 81708=
85586,2015,03,10,03,00,AAXX 10034 85586 NIL=
85586,2015,03,10,06,00,AAXX 10064 85586 NIL=
85586,2015,03,10,09,00,AAXX 10094 85586 NIL=
85586,2015,03,10,12,00,AAXX 10124 85586 12960 00000 10125 20120 40094 53008 60004 333 20087 30/// 55081 70000=
85586,2015,03,10,15,00,AAXX 10154 85586 42960 02807 10184 20137 40099 51006=
85586,2015,03,10,18,00,AAXX 10184 85586 12960 02907 10194 20136 40101 50004 60001=
85586,2015,03,10,21,00,AAXX 10214 85586 42960 02908 10191 20140 40096 57005=
85586,2015,03,11,00,00,AAXX 11004 85586 12960 03404 10164 20144 40097 54000 60001 333 10207=
85586,2015,03,11,03,00,AAXX 11034 85586 NIL=
85586,2015,03,11,06,00,AAXX 11064 85586 NIL=
85586,2015,03,11,09,00,AAXX 11094 85586 NIL=
85586,2015,03,11,12,00,AAXX 11124 85586 12160 89902 10127 20122 40092 53013 60004 886// 333 20086 30/// 55109 56699 70000 88703=
85586,2015,03,11,15,00,AAXX 11154 85586 42960 03308 10195 20148 40101 51010=
85586,2015,03,11,18,00,AAXX 11184 85586 12360 83010 10188 20149 40110 52010 60001 886// 333 56799 88708=
85586,2015,03,11,21,00,AAXX 11214 85586 42460 22910 10192 20155 40108 57002 82100 333 56600 82812=
85586,2015,03,12,00,00,AAXX 12004 85586 12960 03203 10160 20144 40115 53005 60001 333 10200=
85586,2015,03,12,03,00,AAXX 12034 85586 NIL=
85586,2015,03,12,06,00,AAXX 12064 85586 NIL=
85586,2015,03,12,09,00,AAXX 12094 85586 NIL=
85586,2015,03,12,12,00,AAXX 12124 85586 11120 80504 10143 20135 40115 53013 60004 71022 886// 333 20125 30/// 55067 56099 70000 88703=
85586,2015,03,12,15,00,AAXX 12154 85586 41258 63105 10167 20138 40132 51016 70522 86600 333 56700 86706=
85586,2015,03,12,18,00,AAXX 12184 85586 12460 32908 10182 20145 40133 52002 60001 83100 333 56700 83810=
85586,2015,03,12,21,00,AAXX 12214 85586 42960 12908 10181 20135 40124 57008 80001 333 56000 81073=
85586,2015,03,13,00,00,AAXX 13004 85586 12960 10204 10159 20131 40114 57010 60001 80001 333 10195 56006 81075=
85586,2015,03,13,03,00,AAXX 13034 85586 NIL=
85586,2015,03,13,06,00,AAXX 13064 85586 NIL=
85586,2015,03,13,09,00,AAXX 13094 85586 NIL=
85586,2015,03,13,12,00,AAXX 13124 85586 12960 31203 10127 20121 40123 53018 60004 80001 333 20085 30/// 55073 56006 70000 83075=
85586,2015,03,13,15,00,AAXX 13154 85586 42960 32806 10191 20136 40132 51012 80001 333 56006 83075=
85586,2015,03,13,18,00,AAXX 13184 85586 13960 22412 10217 20127 40130 57001 60001 80001 333 56006 82075=
85586,2015,03,13,21,00,AAXX 13214 85586 43960 02414 10223 20121 40119 57011=
85586,2015,03,14,00,00,AAXX 14004 85586 12960 02703 10173 20105 40127 53006 60001 333 10229=
85586,2015,03,14,03,00,AAXX 14034 85586 NIL=
85586,2015,03,14,06,00,AAXX 14064 85586 NIL=
85586,2015,03,14,09,00,AAXX 14094 85586 NIL=
85586,2015,03,14,12,00,AAXX 14124 85586 11956 00000 10108 20099 40139 53013 60003 70500 333 20077 30/// 55108 70000=
85586,2015,03,14,15,00,AAXX 14154 85586 41958 02508 10194 20111 40141 51007 70500=
85586,2015,03,14,18,00,AAXX 14184 85586 12960 02510 10195 20109 40137 58004 60001=
85586,2015,03,14,21,00,AAXX 14214 85586 42960 02508 10193 20107 40128 57010=
85586,2015,03,15,00,00,AAXX 15004 85586 11958 00505 10140 20095 40128 55003 60001 70500 333 10205=
85586,2015,03,15,03,00,AAXX 15034 85586 NIL=
85586,2015,03,15,06,00,AAXX 15064 85586 NIL=
85586,2015,03,15,09,00,AAXX 15094 85586 NIL=
85586,2015,03,15,12,00,AAXX 15124 85586 12960 00000 10100 20088 40119 53006 60004 333 20053 30/// 55107 70000=
85586,2015,03,15,15,00,AAXX 15154 85586 41958 03106 10176 20098 40124 52009 70500=
85586,2015,03,15,21,00,AAXX 15214 85586 42960 02607 10174 20113 40113 58007=
85586,2015,03,16,00,00,AAXX 16004 85586 11958 00105 10143 20107 40112 55001 60001 70500 333 10200=
85586,2015,03,16,03,00,AAXX 16034 85586 NIL=
85586,2015,03,16,06,00,AAXX 16064 85586 NIL=
85586,2015,03,16,09,00,AAXX 16094 85586 NIL=
85586,2015,03,16,12,00,AAXX 16124 85586 12960 01002 10095 20081 40132 53020 60004 333 20057 30/// 55110 79999=
85586,2015,03,16,15,00,AAXX 16154 85586 42960 03007 10187 20123 40148 52020=
85586,2015,03,16,18,00,AAXX 16184 85586 12360 53008 10166 20126 40160 53011 60001 85600 333 56700 85708=
85586,2015,03,16,21,00,AAXX 16214 85586 42360 62506 10152 20125 40155 56006 86600 333 56600 86708=
85586,2015,03,17,00,00,AAXX 17004 85586 11108 82904 10143 20138 40158 53003 69901 75022 886// 333 10195 56799 88702=
85586,2015,03,17,03,00,AAXX 17034 85586 NIL=
85586,2015,03,17,06,00,AAXX 17064 85586 NIL=
85586,2015,03,17,09,00,AAXX 17094 85586 NIL=
85586,2015,03,17,12,00,AAXX 17124 85586 11105 41403 10099 20098 40161 53009 69904 74244 84600 333 20092 30/// 55084 56600 70000 84703=
85586,2015,03,17,15,00,AAXX 17154 85586 41240 62707 10150 20118 40168 53008 71022 86600 333 56600 86704=
85586,2015,03,17,18,00,AAXX 17184 85586 12260 32809 10163 20127 40159 58007 60001 83600 333 56600 83706=
85586,2015,03,17,21,00,AAXX 17214 85586 41158 82507 10155 20137 40143 56016 70522 886// 333 56699 88703=
85586,2015,03,18,00,00,AAXX 18004 85586 11250 80103 10146 20132 40130 56014 60001 71022 886// 333 10181 56099 88705=
85586,2015,03,18,03,00,AAXX 18034 85586 NIL=
85586,2015,03,18,06,00,AAXX 18064 85586 NIL=
85586,2015,03,18,09,00,AAXX 18094 85586 NIL=
85586,2015,03,18,15,00,AAXX 18154 85586 41240 89902 10153 20144 40160 50005 71022 886// 333 56899 88706=
85586,2015,03,18,18,00,AAXX 18184 85586 11358 72609 10183 20146 40148 57011 60001 70522 87600 333 56600 87708=
85586,2015,03,18,21,00,AAXX 18214 85586 41156 82705 10151 20138 40139 56009 70522 886// 333 56699 88703=
85586,2015,03,19,00,00,AAXX 19004 85586 11140 82903 10144 20138 40138 55002 60001 71022 886// 333 10195 56099 88703=
85586,2015,03,19,03,00,AAXX 19034 85586 NIL=
85586,2015,03,19,06,00,AAXX 19064 85586 NIL=
85586,2015,03,19,09,00,AAXX 19094 85586 NIL=
85586,2015,03,19,12,00,AAXX 19124 85586 11256 80703 10136 20123 40151 53001 60004 70522 886// 333 20136 30/// 55019 56099 70000 88706=
85586,2015,03,19,15,00,AAXX 19154 85586 42960 02807 10179 20137 40159 51010=
85586,2015,03,19,18,00,AAXX 19184 85586 12960 02608 10186 20137 40163 50005 60001=
85586,2015,03,19,21,00,AAXX 19214 85586 42960 02408 10181 20143 40155 55009=
85586,2015,03,20,00,00,AAXX 20004 85586 12960 00205 10157 20136 40159 52003 60001 333 10205=
85586,2015,03,20,03,00,AAXX 20034 85586 NIL=
85586,2015,03,20,06,00,AAXX 20064 85586 NIL=
85586,2015,03,20,09,00,AAXX 20094 85586 NIL=
85586,2015,03,20,12,00,AAXX 20124 85586 12960 19901 10152 20124 40146 53005 60004 80001 333 20097 30/// 55083 56006 70000 81075=
85586,2015,03,20,15,00,AAXX 20154 85586 42960 03209 10201 20132 40157 53012=
85586,2015,03,20,18,00,AAXX 20184 85586 12360 13012 10207 20153 40154 58002 60001 81600 333 56700 81709=
85586,2015,03,20,21,00,AAXX 20214 85586 42960 13109 10204 20150 40140 56015 80001 333 56006 81070=
85586,2015,03,21,00,00,AAXX 21004 85586 11958 40204 10173 20160 40145 53004 60001 70500 80001 333 10216 56006 84075=
85586,2015,03,21,03,00,AAXX 21034 85586 NIL=
85586,2015,03,21,06,00,AAXX 21064 85586 NIL=
85586,2015,03,21,09,00,AAXX 21094 85586 NIL=
85586,2015,03,21,12,00,AAXX 21124 85586 11206 83203 10150 20148 40134 53009 60004 74244 886// 333 20107 30/// 55105 56799 70000 88704=
85586,2015,03,21,15,00,AAXX 21154 85586 41956 63009 10200 20157 40147 51015 70522 80001 333 56006 86075=
85586,2015,03,21,18,00,AAXX 21184 85586 12960 63216 10209 20162 40150 50003 69901 80001 333 56006 86075=
85586,2015,03,21,21,00,AAXX 21214 85586 42460 33215 10207 20160 40157 53006 81101 333 56606 81815 83075=
85586,2015,03,22,00,00,AAXX 22004 85586 11558 73208 10191 20158 40165 51009 60001 70522 87200 333 10217 56700 87828=
85586,2015,03,22,03,00,AAXX 22034 85586 NIL=
85586,2015,03,22,06,00,AAXX 22064 85586 NIL=
85586,2015,03,22,09,00,AAXX 22094 85586 NIL=
85586,2015,03,22,12,00,AAXX 22124 85586 11958 11103 10145 20140 40149 53010 69904 70500 80001 333 20118 30/// 55087 56006 70000 81075=
85586,2015,03,22,15,00,AAXX 22154 85586 41458 43007 10200 20156 40162 52015 70511 84500 333 56700 82610=
85586,2015,03,22,18,00,AAXX 22184 85586 12360 82808 10196 20161 40163 52003 60001 888// 333 56699 83808 88625=
85586,2015,03,22,21,00,AAXX 22214 85586 42560 63108 10196 20153 40152 58011 86600 333 56700 86623=
85586,2015,03,23,00,00,AAXX 23004 85586 11958 01202 10169 20153 40146 57008 60001 70500 333 10209=
85586,2015,03,23,03,00,AAXX 23034 85586 NIL=
85586,2015,03,23,06,00,AAXX 23064 85586 NIL=
85586,2015,03,23,09,00,AAXX 23094 85586 NIL=
85586,2015,03,23,12,00,AAXX 23124 85586 11440 80903 10160 20144 40152 53015 60004 70422 885// 333 20124 30/// 55064 56099 70000 88619=
85586,2015,03,23,15,00,AAXX 23154 85586 42560 83204 10197 20154 40163 51011 885// 333 56799 88623=
85586,2015,03,23,18,00,AAXX 23184 85586 12560 82305 10207 20155 40155 58007 60001 8453/ 333 56559 84630 88360=
85586,2015,03,23,21,00,AAXX 23214 85586 42560 82703 10202 20146 40149 56006 82507 333 56707 82630 88270=
85586,2015,03,24,00,00,AAXX 24004 85586 12660 82303 10179 20157 40154 53004 60001 8253/ 333 10219 56609 82641 88365=
85586,2015,03,24,03,00,AAXX 24034 85586 NIL=
85586,2015,03,24,06,00,AAXX 24064 85586 NIL=
85586,2015,03,24,09,00,AAXX 24094 85586 NIL=
85586,2015,03,24,12,00,AAXX 24124 85586 11660 79902 10180 20151 40157 53008 69904 70282 83570 333 20173 30/// 55000 56770 79999 83640 85364=
85586,2015,03,24,15,00,AAXX 24154 85586 42560 62608 10216 20153 40152 58005 82130 333 56660 82830 86365=
85586,2015,03,24,18,00,AAXX 24184 85586 12560 82805 10199 20154 40164 53010 60001 84539 333 56669 84630 88360=
85586,2015,03,24,21,00,AAXX 24214 85586 42560 42510 10212 20153 40139 56024 82101 333 56600 82630 84070=
85586,2015,03,25,00,00,AAXX 25004 85586 12960 22103 10181 20158 40145 53005 60001 82030 333 10236 56070 82361=
85586,2015,03,25,03,00,AAXX 25034 85586 NIL=
85586,2015,03,25,06,00,AAXX 25064 85586 NIL=
85586,2015,03,25,09,00,AAXX 25094 85586 NIL=
85586,2015,03,25,12,00,AAXX 25124 85586 11950 81004 10159 20153 40123 50009 69904 71083 83032 333 20147 30/// 55021 56070 79999 83363 87075=
85586,2015,03,25,15,00,AAXX 25154 85586 42960 63507 10211 20161 40142 53020 80008 333 56008 86278=
85586,2015,03,25,18,00,AAXX 25184 85586 12460 52606 10205 20164 40140 51000 60001 85500 333 56600 85615=
85586,2015,03,25,21,00,AAXX 25214 85586 42960 52504 10193 20162 40135 55006 83031 333 56066 83360 85076=
85586,2015,03,26,00,00,AAXX 26004 85586 12960 21603 10174 20161 40145 50009 60001 80001 333 10214 56006 82075=
85586,2015,03,26,15,00,AAXX 26154 85586 42960 89903 10218 20116 40182 50002 8803/ 333 56069 88362=
85586,2015,03,26,18,00,AAXX 26184 85586 12960 42607 10241 20135 40171 58010 60001 84030 333 56060 84363=
85586,2015,03,26,21,00,AAXX 26214 85586 42960 22513 10210 20158 40161 57011 80009 333 56006 82175=
85586,2015,03,27,00,00,AAXX 27004 85586 11958 00504 10177 20153 40159 57003 60001 70500 333 10257=
85586,2015,03,27,03,00,AAXX 27034 85586 NIL=
85586,2015,03,27,06,00,AAXX 27064 85586 NIL=
85586,2015,03,27,09,00,AAXX 27094 85586 NIL=
85586,2015,03,27,12,00,AAXX 27124 85586 12960 09901 10149 20135 40173 53010 60004 333 20117 30/// 55043 70000=
85586,2015,03,27,15,00,AAXX 27154 85586 42960 02806 10223 20153 40171 51001=
85586,2015,03,27,18,00,AAXX 27184 85586 12960 02607 10232 20143 40169 58002 60001=
85586,2015,03,27,21,00,AAXX 27214 85586 42960 02709 10204 20150 40170 57002=
85586,2015,03,28,00,00,AAXX 28004 85586 11958 00204 10174 20152 40180 52008 60001 70500 333 10250=
85586,2015,03,28,03,00,AAXX 28034 85586 NIL=
85586,2015,03,28,06,00,AAXX 28064 85586 NIL=
85586,2015,03,28,09,00,AAXX 28094 85586 NIL=
85586,2015,03,28,12,00,AAXX 28124 85586 12960 09902 10129 20110 40190 53014 60004 333 20099 30/// 55106 70000=
85586,2015,03,28,15,00,AAXX 28154 85586 42960 02905 10206 20124 40195 52008=
85586,2015,03,28,18,00,AAXX 28184 85586 12960 02415 10208 20150 40188 58005 60001=
85586,2015,03,28,21,00,AAXX 28214 85586 42960 02414 10199 20143 40184 55006=
85586,2015,03,29,00,00,AAXX 29004 85586 11958 00904 10163 20138 40192 53006 60001 70500 333 10223=
85586,2015,03,29,03,00,AAXX 29034 85586 NIL=
85586,2015,03,29,06,00,AAXX 29064 85586 NIL=
85586,2015,03,29,09,00,AAXX 29094 85586 NIL=
85586,2015,03,29,12,00,AAXX 29124 85586 12960 01003 10109 20104 40189 54000 60004 333 20085 30/// 55106 70000=
85586,2015,03,29,15,00,AAXX 29154 85586 42960 02805 10192 20132 40182 58005=
85586,2015,03,29,18,00,AAXX 29184 85586 12960 02416 10212 20152 40168 58012 60001=
85586,2015,03,29,21,00,AAXX 29214 85586 42960 02413 10199 20154 40151 57016=
85586,2015,03,30,00,00,AAXX 30004 85586 12960 01303 10162 20141 40161 53008 60001 333 10218=
85586,2015,03,30,03,00,AAXX 30034 85586 NIL=
85586,2015,03,30,06,00,AAXX 30064 85586 NIL=
85586,2015,03,30,09,00,AAXX 30094 85586 NIL=
85586,2015,03,30,12,00,AAXX 30124 85586 11958 70000 10124 20118 40173 52011 60004 70522 80002 333 20113 30/// 55099 56006 70000 87072=
85586,2015,03,30,15,00,AAXX 30154 85586 42960 32507 10194 20113 40180 51011 80001 333 56000 83073=
85586,2015,03,30,18,00,AAXX 30184 85586 12960 22414 10191 20110 40183 51002 60001 80001 333 56000 82073=
85586,2015,03,30,21,00,AAXX 30214 85586 42960 02513 10176 20121 40183 54000=
85586,2015,03,31,00,00,AAXX 31004 85586 12960 01303 10142 20103 40201 53016 60001 333 10202=
85586,2015,03,31,03,00,AAXX 31034 85586 NIL=
85586,2015,03,31,06,00,AAXX 31064 85586 NIL=
85586,2015,03,31,09,00,AAXX 31094 85586 NIL=
85586,2015,03,31,12,00,AAXX 31124 85586 12960 00000 10116 20092 40181 53002 60004 333 20087 30/// 55094 70000=
85586,2015,03,31,15,00,AAXX 31154 85586 NIL=
85586,2015,03,31,18,00,AAXX 31184 85586 12960 02416 10200 20119 40157 56014 60001=
85586,2015,03,31,21,00,AAXX 31214 85586 42960 02409 10193 20122 40142 56016=
85586,2015,04,01,00,00,AAXX 01004 85586 NIL=
85586,2015,04,01,03,00,AAXX 01034 85586 NIL=
85586,2015,04,01,06,00,AAXX 01064 85586 NIL=
85586,2015,04,01,09,00,AAXX 01094 85586 NIL=
85586,2015,04,01,12,00,AAXX 01124 85586 12260 41002 10086 20082 40168 53012 60004 84600 333 20063 30/// 55106 56700 70000 84704=
85586,2015,04,01,15,00,AAXX 01154 85586 42960 02508 10169 20117 40174 52009=
85586,2015,04,01,18,00,AAXX 01184 85586 12960 02412 10199 20120 40156 58016 60001=
85586,2015,04,01,21,00,AAXX 01214 85586 42960 02409 10194 20118 40143 56013=
85586,2015,04,02,00,00,AAXX 02004 85586 11958 00604 10145 20111 40153 53006 60001 70500 333 10209=
85586,2015,04,02,03,00,AAXX 02034 85586 NIL=
85586,2015,04,02,06,00,AAXX 02064 85586 NIL=
85586,2015,04,02,09,00,AAXX 02094 85586 NIL=
85586,2015,04,02,12,00,AAXX 02124 85586 12960 09902 10079 20073 40151 53006 60004 333 20053 30/// 55097 70000=
85586,2015,04,02,15,00,AAXX 02154 85586 42960 03007 10171 20123 40168 51019=
85586,2015,04,02,18,00,AAXX 02184 85586 12960 02709 10182 20131 40163 58004 60001=
85586,2015,04,02,21,00,AAXX 02214 85586 42260 72510 10167 20144 40158 56006 87500 333 56600 87606=
85586,2015,04,03,00,00,AAXX 03004 85586 11220 83406 10151 20148 40161 51002 69901 75022 886// 333 10193 56799 88704=
85586,2015,04,03,03,00,AAXX 03034 85586 NIL=
85586,2015,04,03,06,00,AAXX 03064 85586 NIL=
85586,2015,04,03,09,00,AAXX 03094 85586 NIL=
85586,2015,04,03,12,00,AAXX 03124 85586 11102 89902 10120 20118 40159 52010 69904 74444 886// 333 20107 30/// 55073 56799 70000 88702=
85586,2015,04,03,15,00,AAXX 03154 85586 41258 13303 10176 20136 40167 51011 70522 81600 333 56700 81704=
85586,2015,04,03,18,00,AAXX 03184 85586 11258 72411 10189 20158 40159 58006 60001 70522 87600 333 56600 87704=
85586,2015,04,03,21,00,AAXX 03214 85586 42960 02414 10181 20141 40152 56009=
85586,2015,04,04,00,00,AAXX 04004 85586 129// 00303 10151 20133 40156 53002 60001 333 10198=
85586,2015,04,04,03,00,AAXX 04034 85586 NIL=
85586,2015,04,04,06,00,AAXX 04064 85586 NIL=
85586,2015,04,04,09,00,AAXX 04094 85586 NIL=
85586,2015,04,04,12,00,AAXX 04124 85586 11130 80903 10110 20105 40140 53001 60004 71022 886// 333 20095 30/// 55067 56099 70000 88702=
85586,2015,04,04,15,00,AAXX 04154 85586 42960 02905 10172 20130 40138 54000=
85586,2015,04,04,18,00,AAXX 04184 85586 12260 22510 10183 20141 40127 5600 01810 10164 20115 40141 57004 60001=
85586,2015,04,04,21,00,AAXX 04214 85586 42960 02609 10178 20136 40118 56009=
85586,2015,04,05,00,00,AAXX 05004 85586 12960 00905 10154 20133 40133 53017 60001 333 10195=
85586,2015,04,05,03,00,AAXX 05034 85586 NIL=
85586,2015,04,05,06,00,AAXX 05064 85586 NIL=
85586,2015,04,05,09,00,AAXX 05094 85586 NIL=
85586,2015,04,05,12,00,AAXX 05124 85586 11102 53503 10112 20110 40138 53007 60004 74642 85600 333 20092 30/// 55090 56600 70000 85702=
85586,2015,04,05,15,00,AAXX 05154 85586 41156 63005 10151 20137 40140 52004 70522 86600 333 56700 86703=
85586,2015,04,05,18,00,AAXX 05184 85586 11156 82707 10151 20135 40139 57001 60001 70522 886// 333 56699 88703=
85586,2015,04,05,21,00,AAXX 05214 85586 41156 82905 10154 20143 40136 55002 70522 886// 333 56699 88703=
85586,2015,04,06,00,00,AAXX 06004 85586 12260 82904 10159 20145 40138 53002 60001 886// 333 10169 56099 88706=
85586,2015,04,06,03,00,AAXX 06034 85586 NIL=
85586,2015,04,06,06,00,AAXX 06064 85586 NIL=
85586,2015,04,06,09,00,AAXX 06094 85586 NIL=
85586,2015,04,06,12,00,AAXX 06124 85586 11230 80000 10137 20132 40133 52009 60004 71022 886// 333 20134 30/// 55017 56099 70000 88704=
85586,2015,04,06,15,00,AAXX 06154 85586 41340 82803 10151 20135 40136 53004 71022 886// 333 56699 88707=
85586,2015,04,06,18,00,AAXX 06184 85586 12460 52708 10175 20135 40120 57015 60001 85503 333 56606 85615 83075=
85586,2015,04,06,21,00,AAXX 06214 85586 42460 83004 10164 20139 40128 52004 886// 333 56699 88711=
85586,2015,04,07,00,00,AAXX 07004 85586 12460 82704 10161 20141 40142 50015 60001 885// 333 10183 56099 88616=
85586,2015,04,07,03,00,AAXX 07034 85586 NIL=
85586,2015,04,07,06,00,AAXX 07064 85586 NIL=
85586,2015,04,07,09,00,AAXX 07094 85586 NIL=
85586,2015,04,07,12,00,AAXX 07124 85586 12560 79901 10147 20142 40164 51026 69904 87500 333 20140 31/// 55013 56600 79999 87632=
85586,2015,04,07,15,00,AAXX 07154 85586 42560 79902 10185 20148 40178 52014 87500 333 56800 87633=
85586,2015,04,07,18,00,AAXX 07184 85586 12560 49907 10210 20140 40156 58019 60001 84500 333 56600 84632=
85586,2015,04,07,21,00,AAXX 07214 85586 42960 02414 10188 20153 40144 56013=
85586,2015,04,08,00,00,AAXX 08004 85586 11958 02304 10159 20138 40144 55001 60001 70500 333 10213=
85586,2015,04,08,03,00,AAXX 08034 85586 NIL=
85586,2015,04,08,06,00,AAXX 08064 85586 NIL=
85586,2015,04,08,09,00,AAXX 08094 85586 NIL=
85586,2015,04,08,12,00,AAXX 08124 85586 11058 11005 10114 20111 40140 52009 60003 70500 81600 333 20081 30/// 55060 56700 70000 81701=
85586,2015,04,08,15,00,AAXX 08154 85586 42960 02508 10185 20134 40147 50011=
85586,2015,04,08,18,00,AAXX 08184 85586 12960 02411 10199 20143 40139 58009 60001=
85586,2015,04,08,21,00,AAXX 08214 85586 42460 22412 10174 20143 40142 53002 82100 333 56600 82815=
85586,2015,04,09,00,00,AAXX 09004 85586 11958 00403 10151 20128 40154 53010 60001 70500 333 10209=
85586,2015,04,09,03,00,AAXX 09034 85586 NIL=
85586,2015,04,09,06,00,AAXX 09064 85586 NIL=
85586,2015,04,09,09,00,AAXX 09094 85586 NIL=
85586,2015,04,09,12,00,AAXX 09124 85586 12960 09902 10107 20102 40144 53002 60004 333 20082 30/// 55103 70000=
85586,2015,04,09,15,00,AAXX 09154 85586 42960 01807 10234 20116 40145 50004=
85586,2015,04,09,18,00,AAXX 09184 85586 12960 02418 10192 20139 40137 58008 60001=
85586,2015,04,09,21,00,AAXX 09214 85586 42960 02410 10196 20136 40133 56003=
85586,2015,04,10,00,00,AAXX 10004 85586 11958 09902 10157 20129 40143 53008 60001 70500 333 10243=
85586,2015,04,10,03,00,AAXX 10034 85586 NIL=
85586,2015,04,10,06,00,AAXX 10064 85586 NIL=
85586,2015,04,10,09,00,AAXX 10094 85586 NIL=
85586,2015,04,10,12,00,AAXX 10124 85586 12960 11203 10140 20095 40142 53010 60004 80001 333 20093 30/// 55102 56006 70000 81075=
85586,2015,04,10,15,00,AAXX 10154 85586 42960 01807 10259 20095 40136 58002=
85586,2015,04,10,18,00,AAXX 10184 85586 12960 02412 10231 20113 40117 58020 60001=
85586,2015,04,10,21,00,AAXX 10214 85586 42960 03205 10222 20114 40103 56015=
85586,2015,04,11,00,00,AAXX 11004 85586 12960 33603 10159 20113 40110 53003 60001 80001 333 10279 56006 83075=
85586,2015,04,11,03,00,AAXX 11034 85586 NIL=
85586,2015,04,11,06,00,AAXX 11064 85586 NIL=
85586,2015,04,11,09,00,AAXX 11094 85586 NIL=
85586,2015,04,11,12,00,AAXX 11124 85586 12260 50204 10131 20092 40123 53017 60004 85600 333 20084 30/// 55101 56600 70000 85704=
85586,2015,04,11,15,00,AAXX 11154 85586 42960 02906 10192 20106 40137 51017=
85586,2015,04,11,18,00,AAXX 11184 85586 12960 03115 10194 20145 40131 58006 60001=
85586,2015,04,11,21,00,AAXX 11214 85586 42960 03008 10185 20146 40126 55005=
85586,2015,04,12,00,00,AAXX 12004 85586 12360 41503 10145 20132 40133 52005 60001 84600 333 10204 56600 84709=
85586,2015,04,12,03,00,AAXX 12034 85586 NIL=
85586,2015,04,12,06,00,AAXX 12064 85586 NIL=
85586,2015,04,12,09,00,AAXX 12094 85586 NIL=
85586,2015,04,12,12,00,AAXX 12124 85586 11102 80000 10115 20113 40124 53012 60004 74644 886// 333 20096 30/// 55080 56099 70000 88702=
85586,2015,04,12,15,00,AAXX 12154 85586 41112 80104 10139 20137 40146 51022 71044 886// 333 56899 88702=
85586,2015,04,12,18,00,AAXX 12184 85586 12360 83405 10167 20137 40147 50002 60001 886// 333 56799 88708=
85586,2015,04,12,21,00,AAXX 12214 85586 42360 82905 10158 20135 40142 55004 886// 333 56699 88708=
85586,2015,04,13,00,00,AAXX 13004 85586 12360 83003 10155 20139 40152 53010 60001 886// 333 10168 56099 88707=
85586,2015,04,13,03,00,AAXX 13034 85586 NIL=
85586,2015,04,13,06,00,AAXX 13064 85586 NIL=
85586,2015,04,13,09,00,AAXX 13094 85586 NIL=
85586,2015,04,13,12,00,AAXX 13124 85586 12360 89902 10141 20123 40173 52012 60004 886// 333 20140 30/// 55000 56699 70000 88708=
85586,2015,04,13,15,00,AAXX 13154 85586 41357 89902 10152 20127 40183 51010 70522 886// 333 56299 88708=
85586,2015,04,13,18,00,AAXX 13184 85586 11458 82806 10157 20123 40179 58004 60001 70522 886// 333 56699 88710=
85586,2015,04,13,21,00,AAXX 13214 85586 41358 82606 10147 20126 40180 53001 70522 886// 333 56699 88707=
85586,2015,04,14,00,00,AAXX 14004 85586 11356 80203 10150 20137 40185 53005 60001 70522 886// 333 10165 56799 88708=
85586,2015,04,14,03,00,AAXX 14034 85586 NIL=
85586,2015,04,14,06,00,AAXX 14064 85586 NIL=
85586,2015,04,14,09,00,AAXX 14094 85586 NIL=
85586,2015,04,14,12,00,AAXX 14124 85586 11356 80903 10142 20128 40161 52005 60004 70522 886// 333 20141 30/// 55000 56799 70000 88706=
85586,2015,04,14,15,00,AAXX 14154 85586 41458 19905 10180 20132 40165 51006 70511 81600 333 56700 81717=
85586,2015,04,14,18,00,AAXX 14184 85586 12260 32806 10167 20138 40158 58007 60001 83600 333 56600 83705=
85586,2015,04,14,21,00,AAXX 14214 85586 42960 72410 10182 20125 40154 56005 80001 333 56006 87075=
85586,2015,04,15,00,00,AAXX 15004 85586 11958 02203 10142 20093 40161 53006 60001 70500 333 10190=
85586,2015,04,15,03,00,AAXX 15034 85586 NIL=
85586,2015,04,15,06,00,AAXX 15064 85586 NIL=
85586,2015,04,15,09,00,AAXX 15094 85586 NIL=
85586,2015,04,15,12,00,AAXX 15124 85586 12960 60000 10070 20053 40169 53009 60004 80001 333 20056 30/// 55054 56006 70000 86075=
85586,2015,04,15,15,00,AAXX 15154 85586 42960 72606 10159 20098 40174 51007 80001 333 56006 87075=
85586,2015,04,15,18,00,AAXX 15184 85586 12960 72610 10166 20120 40173 52001 60001 80008 333 56000 87273=
85586,2015,04,15,21,00,AAXX 15214 85586 42960 72508 10159 20123 40175 54001 80004 333 56000 87070=
85586,2015,04,16,00,00,AAXX 16004 85586 11956 72604 10135 20116 40184 53009 60001 70511 80001 333 10178 56006 87075=
85586,2015,04,16,03,00,AAXX 16034 85586 NIL=
85586,2015,04,16,06,00,AAXX 16064 85586 NIL=
85586,2015,04,16,09,00,AAXX 16094 85586 NIL=
85586,2015,04,16,12,00,AAXX 16124 85586 12960 60000 10108 20082 40213 51017 69903 86030 333 20073 30/// 55046 56060 79999 86360=
85586,2015,04,16,15,00,AAXX 16154 85586 42960 39903 10184 20082 40220 51010 80001 333 56006 83075=
85586,2015,04,16,18,00,AAXX 16184 85586 12960 02415 10183 20084 40214 58005 60001=
85586,2015,04,16,21,00,AAXX 16214 85586 42960 02313 10176 20093 40209 57004=
85586,2015,04,17,00,00,AAXX 17004 85586 12960 09901 10130 20073 40219 53006 60001 333 10191=
85586,2015,04,17,03,00,AAXX 17034 85586 NIL=
85586,2015,04,17,06,00,AAXX 17064 85586 NIL=
85586,2015,04,17,09,00,AAXX 17094 85586 NIL=
85586,2015,04,17,12,00,AAXX 17124 85586 12960 11403 10110 20056 40204 53005 60004 80001 333 20058 30/// 55082 56006 70000 81075=
85586,2015,04,17,15,00,AAXX 17154 85586 42960 01405 10200 20065 40197 58004=
85586,2015,04,17,18,00,AAXX 17184 85586 12960 32414 10180 20105 40181 57017 60001 80001 333 56006 83073=
85586,2015,04,17,21,00,AAXX 17214 85586 42960 22410 10177 20102 40163 56019 80001 333 56006 82073=
85586,2015,04,18,00,00,AAXX 18004 85586 NIL=
85586,2015,04,18,03,00,AAXX 18034 85586 NIL=
85586,2015,04,18,06,00,AAXX 18064 85586 NIL=
85586,2015,04,18,09,00,AAXX 18094 85586 NIL=
85586,2015,04,18,12,00,AAXX 18124 85586 12960 30903 10069 20063 40141 53001 60004 80001 333 20040 30/// 55103 56006 70000 83075=
85586,2015,04,18,15,00,AAXX 18154 85586 42960 12708 10155 20099 40140 50001 80001 333 56006 81075=
85586,2015,04,18,18,00,AAXX 18184 85586 12960 22410 10173 20116 40130 58008 60001 80001 333 56006 82075=
85586,2015,04,18,21,00,AAXX 18214 85586 42460 22608 10162 20129 40135 53003 82101 333 56606 81810=
85586,2015,04,19,00,00,AAXX 19004 85586 12460 32903 10123 20114 40143 53008 60001 83500 333 10176 56600 83617=
85586,2015,04,19,03,00,AAXX 19034 85586 NIL=
85586,2015,04,19,06,00,AAXX 19064 85586 NIL=
85586,2015,04,19,09,00,AAXX 19094 85586 NIL=
85586,2015,04,19,12,00,AAXX 19124 85586 12960 82204 10123 20102 40159 51003 69904 8802/ 333 20108 30/// 55091 56069 70000 88458=
85586,2015,04,19,15,00,AAXX 19154 85586 42960 82103 10156 20114 40167 52010 8803/ 333 56069 88365=
85586,2015,04,19,18,00,AAXX 19184 85586 12460 82805 10160 20114 40164 58004 60001 885// 333 56699 88618=
85586,2015,04,19,21,00,AAXX 19214 85586 42960 82606 10151 20126 40167 53001 8801/ 333 56069 88465=
85586,2015,04,20,00,00,AAXX 20004 85586 11956 82004 10140 20127 40165 56002 60001 70522 8803/ 333 10170 56069 88365=
85586,2015,04,20,03,00,AAXX 20034 85586 NIL=
85586,2015,04,20,06,00,AAXX 20064 85586 NIL=
85586,2015,04,20,09,00,AAXX 20094 85586 NIL=
85586,2015,04,20,12,00,AAXX 20124 85586 12960 89903 10128 20110 40160 50001 60004 8803/ 333 20115 30/// 55000 56069 79999 88365=
85586,2015,04,20,15,00,AAXX 20154 85586 42960 89903 10166 20110 40161 50006 8803/ 333 56069 88365=
85586,2015,04,20,18,00,AAXX 20184 85586 12960 72412 10173 20112 40156 56007 60001 87030 333 56060 87365=
85586,2015,04,20,21,00,AAXX 20214 85586 42960 79902 10155 20111 40163 53007 87030 333 56060 87366=
85586,2015,04,21,00,00,AAXX 21004 85586 11956 50405 10133 20107 40178 53016 60001 70522 80001 333 10202 56006 85075=
85586,2015,04,21,03,00,AAXX 21034 85586 NIL=
85586,2015,04,21,06,00,AAXX 21064 85586 NIL=
85586,2015,04,21,09,00,AAXX 21094 85586 NIL=
85586,2015,04,21,12,00,AAXX 21124 85586 11356 11103 10066 20062 40198 53012 60004 70500 81600 333 20054 30/// 55010 56700 70000 81709=
85586,2015,04,21,15,00,AAXX 21154 85586 42460 12506 10166 20120 40196 50002 81100 333 56600 81815=
85586,2015,04,21,18,00,AAXX 21184 85586 12960 02509 10169 20117 40184 58011 60001=
85586,2015,04,21,21,00,AAXX 21214 85586 42960 02409 10161 20115 40177 56008=
85586,2015,04,22,00,00,AAXX 22004 85586 11956 03603 10127 20113 40178 57002 60001 70500 333 10176=
85586,2015,04,22,03,00,AAXX 22034 85586 NIL=
85586,2015,04,22,06,00,AAXX 22064 85586 NIL=
85586,2015,04,22,09,00,AAXX 22094 85586 NIL=
85586,2015,04,22,12,00,AAXX 22124 85586 12960 01203 10083 20080 40164 52007 60004 333 20055 30/// 55093 70000=
85586,2015,04,22,15,00,AAXX 22154 85586 42960 02705 10166 20110 40159 58002=
85586,2015,04,22,18,00,AAXX 22184 85586 12960 02409 10177 20109 40148 58011 60001=
85586,2015,04,22,21,00,AAXX 22214 85586 42960 02506 10162 20110 40142 55006=
85586,2015,04,23,00,00,AAXX 23004 85586 12960 00603 10105 20089 40143 50001 60001 333 10185=
85586,2015,04,23,03,00,AAXX 23034 85586 NIL=
85586,2015,04,23,06,00,AAXX 23064 85586 NIL=
85586,2015,04,23,09,00,AAXX 23094 85586 NIL=
85586,2015,04,23,12,00,AAXX 23124 85586 11956 01203 10050 20047 40137 52010 60004 71000 333 20043 30/// 55091 70000=
85586,2015,04,23,15,00,AAXX 23154 85586 42960 09902 10183 20105 40140 50008=
85586,2015,04,23,18,00,AAXX 23184 85586 12960 02806 10177 20113 40139 58002 60001=
85586,2015,04,23,21,00,AAXX 23214 85586 42960 02805 10168 20124 40143 53003=
85586,2015,04,24,00,00,AAXX 24004 85586 12960 00203 10112 20100 40155 52010 60001 333 10188=
85586,2015,04,24,03,00,AAXX 24034 85586 NIL=
85586,2015,04,24,06,00,AAXX 24064 85586 NIL=
85586,2015,04,24,09,00,AAXX 24094 85586 NIL=
85586,2015,04,24,12,00,AAXX 24124 85586 11930 31203 10081 20078 40153 53012 60004 71000 80001 333 20068 30/// 55092 56006 70000 83075=
85586,2015,04,24,15,00,AAXX 24154 85586 41457 23205 10152 20118 40163 51014 70500 82100 333 56600 82819=
85586,2015,04,24,18,00,AAXX 24184 85586 12460 23108 10173 20133 40161 57001 60001 82100 333 56700 82810=
85586,2015,04,24,21,00,AAXX 24214 85586 41458 73007 10163 20134 40159 55002 70511 87600 333 56700 87710=
85586,2015,04,25,00,00,AAXX 25004 85586 12460 80000 10154 20127 40157 58003 60001 885// 333 10179 56099 88612=
85586,2015,04,25,03,00,AAXX 25034 85586 NIL=
85586,2015,04,25,06,00,AAXX 25064 85586 NIL=
85586,2015,04,25,09,00,AAXX 25094 85586 NIL=
85586,2015,04,25,12,00,AAXX 25124 85586 11206 89902 10108 20105 40136 53009 60004 74444 886// 333 20095 30/// 55073 56799 70000 88704=
85586,2015,04,25,15,00,AAXX 25154 85586 41420 83407 10150 20114 40155 51022 71044 886// 333 56799 88713=
85586,2015,04,25,18,00,AAXX 25184 85586 11558 12912 10174 20130 40148 57007 60001 70511 81100 333 56600 81828=
85586,2015,04,25,21,00,AAXX 25214 85586 42560 63108 10164 20130 40145 55003 86100 333 56700 86828=
85586,2015,04,26,00,00,AAXX 26004 85586 11556 83404 10156 20129 40156 51010 60001 70522 885// 333 10183 56799 88632=
85586,2015,04,26,03,00,AAXX 26034 85586 NIL=
85586,2015,04,26,06,00,AAXX 26064 85586 NIL=
85586,2015,04,26,09,00,AAXX 26094 85586 NIL=
85586,2015,04,26,12,00,AAXX 26124 85586 11556 80903 10150 20123 40167 51011 60004 70522 885// 333 20147 30/// 55044 56799 70000 88630=
85586,2015,04,26,15,00,AAXX 26154 85586 41558 79902 10187 20109 40174 52007 70522 87500 333 56700 87629=
85586,2015,04,26,18,00,AAXX 26184 85586 11958 02510 10189 20106 40155 58016 60001 70500=
85586,2015,04,26,21,00,AAXX 26214 85586 42960 02409 10177 20111 40144 56014=
85586,2015,04,27,00,00,AAXX 27004 85586 11956 00903 10125 20108 40145 50002 60001 70500 333 10201=
85586,2015,04,27,03,00,AAXX 27034 85586 NIL=
85586,2015,04,27,06,00,AAXX 27064 85586 NIL=
85586,2015,04,27,09,00,AAXX 27094 85586 NIL=
85586,2015,04,27,12,00,AAXX 27124 85586 11120 51103 10075 20072 40153 53007 60004 71044 85600 333 20060 30/// 55062 56700 70000 85703=
85586,2015,04,27,15,00,AAXX 27154 85586 41220 72903 10139 20120 40151 50001 71022 87600 333 56700 87704=
85586,2015,04,27,18,00,AAXX 27184 85586 11120 82607 10140 20122 40142 58009 60001 71022 886// 333 56699 88702=
85586,2015,04,27,21,00,AAXX 27214 85586 41256 82508 10137 20121 40145 53002 70522 886// 333 56699 88705=
85586,2015,04,28,00,00,AAXX 28004 85586 11256 80606 10122 20110 40146 50001 60001 70522 886// 333 10149 56799 88705=
85586,2015,04,28,03,00,AAXX 28034 85586 NIL=
85586,2015,04,28,06,00,AAXX 28064 85586 NIL=
85586,2015,04,28,09,00,AAXX 28094 85586 NIL=
85586,2015,04,28,12,00,AAXX 28124 85586 11940 11203 10065 20064 40140 52008 60004 71000 80002 333 20042 30/// 55013 56006 70000 81075=
85586,2015,04,28,15,00,AAXX 28154 85586 42960 03103 10188 20115 40136 52001=
85586,2015,04,28,18,00,AAXX 28184 85586 12960 02409 10179 20131 40127 57009 60001=
85586,2015,04,28,21,00,AAXX 28214 85586 42960 03005 10169 20124 40128 53002=
85586,2015,04,29,00,00,AAXX 29004 85586 12960 00903 10125 20105 40137 53010 60001 333 10211=
85586,2015,04,29,03,00,AAXX 29034 85586 NIL=
85586,2015,04,29,06,00,AAXX 29064 85586 NIL=
85586,2015,04,29,09,00,AAXX 29094 85586 NIL=
85586,2015,04,29,12,00,AAXX 29124 85586 11103 81003 10093 20092 40163 51018 60004 74644 886// 333 20072 30/// 55084 56099 70000 88702=
85586,2015,04,29,15,00,AAXX 29154 85586 42960 02605 10143 20115 40165 50004=
85586,2015,04,29,18,00,AAXX 29184 85586 12360 22411 10168 20126 40152 58012 60001 82600 333 56600 82707=
85586,2015,04,29,21,00,AAXX 29214 85586 42260 22605 10159 20123 40148 56005 82600 333 56500 82704=
85586,2015,04,30,00,00,AAXX 30004 85586 12260 80305 10127 20116 40159 53010 60001 886// 333 10183 56099 88705=
85586,2015,04,30,03,00,AAXX 30034 85586 NIL=
85586,2015,04,30,06,00,AAXX 30064 85586 NIL=
85586,2015,04,30,09,00,AAXX 30094 85586 NIL=
85586,2015,04,30,12,00,AAXX 30124 85586 11950 00000 10068 20067 40146 51008 60004 71044 333 20066 30/// 55085 70000=
85586,2015,04,30,15,00,AAXX 30154 85586 41956 02603 10169 20121 40143 50000 70500=
85586,2015,04,30,18,00,AAXX 30184 85586 12960 22411 10177 20116 40128 56015 60001 80001 333 56005 82075=
85586,2015,04,30,21,00,AAXX 30214 85586 42960 29903 10175 20109 40129 55001 80001 333 56006 82076=
85586,2015,05,01,00,00,AAXX 01004 85586 12960 40504 10126 20102 40140 53012 60001 80001 333 10187 56006 84075=
85586,2015,05,01,03,00,AAXX 01034 85586 NIL=
85586,2015,05,01,06,00,AAXX 01064 85586 NIL=
85586,2015,05,01,12,00,AAXX 01124 85586 11958 61403 10077 20073 40159 53010 60003 70511 86030 333 20065 30/// 55077 56060 70000 86365=
85586,2015,05,01,15,00,AAXX 01154 85586 41958 70104 10154 20110 40167 51011 70522 87030 333 56060 87365=
85586,2015,05,01,18,00,AAXX 01184 85586 11956 83107 10157 20117 40162 57004 60001 70522 8303/ 333 56070 88368=
85586,2015,05,01,21,00,AAXX 01214 85586 41958 73503 10149 20109 40162 55002 70522 87030 333 56070 87366=
85586,2015,05,02,00,00,AAXX 02004 85586 11240 80702 10124 20113 40170 53007 60001 71022 8163/ 333 10167 56769 81705 88365=
85586,2015,05,02,03,00,AAXX 02034 85586 NIL=
85586,2015,05,02,06,00,AAXX 02064 85586 NIL=
85586,2015,05,02,09,00,AAXX 02094 85586 NIL=
85586,2015,05,02,15,00,AAXX 02154 85586 42460 21806 10156 20116 40177 50005 82100 333 56500 82816=
85586,2015,05,02,18,00,AAXX 02184 85586 12560 22415 10161 20113 40163 58012 60001 82100 333 56600 82822=
85586,2015,05,02,21,00,AAXX 02214 85586 42560 12312 10152 20096 40160 55006 81100 333 56500 81822=
85586,2015,05,03,00,00,AAXX 03004 85586 11958 02304 10116 20072 40172 53011 60001 70500 333 10196=
85586,2015,05,03,03,00,AAXX 03034 85586 NIL=
85586,2015,05,03,06,00,AAXX 03064 85586 NIL=
85586,2015,05,03,09,00,AAXX 03094 85586 NIL=
85586,2015,05,03,12,00,AAXX 03124 85586 12960 09902 10027 20017 40202 52008 60004 333 20024 30/// 55097 70000=
85586,2015,05,03,15,00,AAXX 03154 85586 42960 09902 10154 20067 40205 50007=
85586,2015,05,03,18,00,AAXX 03184 85586 12960 02413 10154 20061812 10158 20029 40220 57016 60001=
85586,2015,05,03,21,00,AAXX 03214 85586 42960 02309 10162 20087 40170 56016=
85586,2015,05,04,00,00,AAXX 04004 85586 11958 00000 10092 20073 40175 53002 60001 70500 333 10173=
85586,2015,05,04,03,00,AAXX 04034 85586 NIL=
85586,2015,05,04,06,00,AAXX 04064 85586 NIL=
85586,2015,05,04,09,00,AAXX 04094 85586 NIL=
85586,2015,05,04,12,00,AAXX 04124 85586 12960 09902 10066 20046 40167 52001 60004 333 20031 30/// 55090 70000=
85586,2015,05,04,15,00,AAXX 04154 85586 42960 02506 10151 20077 40168 50003=
85586,2015,05,04,18,00,AAXX 04184 85586 12960 22409 10165 20088 40151 56015 60001 80001 333 56006 82075=
85586,2015,05,04,21,00,AAXX 04214 85586 42960 62604 10146 20103 40152 55001 80004 333 56006 86073=
85586,2015,05,05,00,00,AAXX 05004 85586 12960 40903 10101 20084 40167 53014 60001 80001 333 10175 56006 84075=
85586,2015,05,05,03,00,AAXX 05034 85586 NIL=
85586,2015,05,05,06,00,AAXX 05064 85586 NIL=
85586,2015,05,05,09,00,AAXX 05094 85586 NIL=
85586,2015,05,05,12,00,AAXX 05124 85586 12960 01303 10046 20040 40189 50004 60004 333 20022 30/// 55077 70000=
85586,2015,05,05,15,00,AAXX 05154 85586 42960 02705 10147 20093 40187 50001=
85586,2015,05,05,18,00,AAXX 05184 85586 12960 02407 10160 20090 40170 58016 60001=
85586,2015,05,05,21,00,AAXX 05214 85586 42960 02605 10152 20096 40166 56005=
85586,2015,05,06,00,00,AAXX 06004 85586 12960 00703 10093 20071 40166 55002 60001 333 10165=
85586,2015,05,06,03,00,AAXX 06034 85586 NIL=
85586,2015,05,06,06,00,AAXX 06064 85586 NIL=
85586,2015,05,06,09,00,AAXX 06094 85586 NIL=
85586,2015,05,06,12,00,AAXX 06124 85586 12960 01103 10037 20031 40155 50000 60004 333 20024 30/// 55092 70000=
85586,2015,05,06,15,00,AAXX 06154 85586 42960 02504 10157 20078 40145 58006=
85586,2015,05,06,18,00,AAXX 06184 85586 12960 02607 10162 20085 40128 58018 60001=
85586,2015,05,06,21,00,AAXX 06214 85586 NIL=
85586,2015,05,07,00,00,AAXX 07004 85586 12960 00000 10090 20082 40121 55001 60001 333 10177=
85586,2015,05,07,03,00,AAXX 07034 85586 NIL=
85586,2015,05,07,06,00,AAXX 07064 85586 NIL=
85586,2015,05,07,09,00,AAXX 07094 85586 NIL=
85586,2015,05,07,12,00,AAXX 07124 85586 11958 81304 10081 20072 40111 53017 60004 70522 8803/ 333 20060 30/// 55088 56069 70000 88365=
85586,2015,05,07,15,00,AAXX 07154 85586 41958 63504 10148 20105 40140 50028 70522 86030 333 56060 86365=
85586,2015,05,07,18,00,AAXX 07184 85586 12960 43309 10188 20117 40144 51007 60001 84030 333 56070 84365=
85586,2015,05,07,21,00,AAXX 07214 85586 42960 33212 10167 20119 40147 53003 83030 333 56070 83365=
85586,2015,05,08,00,00,AAXX 08004 85586 11956 09902 10130 20116 40157 50008 60001 70500 333 10192=
85586,2015,05,08,03,00,AAXX 08034 85586 NIL=
85586,2015,05,08,06,00,AAXX 08064 85586 NIL=
85586,2015,05,08,09,00,AAXX 08094 85586 NIL=
85586,2015,05,08,12,00,AAXX 08124 85586 12960 71204 10102 20096 40146 50005 60004 80001 333 20085 30/// 55050 56000 70000 87075=
85586,2015,05,08,15,00,AAXX 08154 85586 41558 89902 10163 20123 40161 51017 70522 885// 333 56799 88624=
85586,2015,05,08,18,00,AAXX 08184 85586 12560 73308 10163 20121 40163 50003 60001 87500 333 56700 87626=
85586,2015,05,08,21,00,AAXX 08214 85586 42660 43308 10164 20128 40170 53006 84500 333 56700 84645=
85586,2015,05,09,00,00,AAXX 09004 85586 11656 82202 10147 20122 40181 53011 60001 70522 885// 333 10179 56799 88637=
85586,2015,05,09,03,00,AAXX 09034 85586 NIL=
85586,2015,05,09,09,00,AAXX 09094 85586 NIL=
85586,2015,05,09,12,00,AAXX 09124 85586 12560 51004 10100 20089 40198 53012 60004 85500 333 20097 30/// 55018 56700 70000 85623=
85586,2015,05,09,15,00,AAXX 09154 85586 42960 01304 10186 20115 40204 50009=
85586,2015,05,09,18,00,AAXX 09184 85586 12960 02412 10190 20126 40188 58016 60001=
85586,2015,05,09,21,00,AAXX 09214 85586 42960 02411 10161 20126 40184 55005=
85586,2015,05,10,00,00,AAXX 10004 85586 11956 09902 10119 20108 40192 53007 60001 70500 333 10201=
85586,2015,05,10,03,00,AAXX 10034 85586 NIL=
85586,2015,05,10,06,00,AAXX 10064 85586 NIL=
85586,2015,05,10,09,00,AAXX 10094 85586 NIL=
85586,2015,05,10,12,00,AAXX 10124 85586 12960 11203 10111 20095 40169 55002 60004 80001 333 20074 55073 56006 70000 81075=
85586,2015,05,10,15,00,AAXX 10154 85586 42960 01504 10193 20101 40162 58001=
85586,2015,05,10,18,00,AAXX 10184 85586 12960 22413 10192 20106 40143 57019 69901 80001 333 56000 82075=
85586,2015,05,10,21,00,AAXX 10214 85586 42960 02407 10167 20113 40138 55006=
85586,2015,05,11,00,00,AAXX 11004 85586 12960 32403 10112 20095 40147 53007 60001 80001 333 10237 56006 83075=
85586,2015,05,11,03,00,AAXX 11034 85586 NIL=
85586,2015,05,11,06,00,AAXX 11064 85586 NIL=
85586,2015,05,11,09,00,AAXX 11094 85586 NIL=
85586,2015,05,11,12,00,AAXX 11124 85586 12960 61203 10070 20058 40143 52001 69904 80001 333 20048 30/// 55088 56006 70000 86075=
85586,2015,05,11,15,00,AAXX 11154 85586 41958 69903 10175 20092 40136 58003 70522 80004 333 56006 86073=
85586,2015,05,11,18,00,AAXX 11184 85586 12960 42606 10179 20108 40109 57026 60001 80004 333 56006 84073=
85586,2015,05,11,21,00,AAXX 11214 85586 42960 32509 10147 20115 40115 53006 80001 333 56000 83073=
85586,2015,05,12,00,00,AAXX 12004 85586 12960 30904 10118 20104 40136 53019 60001 80002 333 10194 56006 83075=
85586,2015,05,12,03,00,AAXX 12034 85586 NIL=
85586,2015,05,12,06,00,AAXX 12064 85586 NIL=
85586,2015,05,12,09,00,AAXX 12094 85586 NIL=
85586,2015,05,12,12,00,AAXX 12124 85586 12960 62303 10067 20063 40158 53007 60004 80001 333 20065 30/// 55066 56006 70000 86073=
85586,2015,05,12,15,00,AAXX 12154 85586 42560 70703 10129 20106 40169 50014 87500 333 56200 87623=
85586,2015,05,12,18,00,AAXX 12184 85586 12960 62406 10154 20108 40149 58019 60001 80002 333 56006 86071=
85586,2015,05,12,21,00,AAXX 12214 85586 42960 22606 10145 20119 40153 53003 80001 333 56006 82071=
85586,2015,05,13,00,00,AAXX 13004 85586 11140 60603 10109 20104 40163 52008 60001 71011 83602 333 10169 56606 83702 83075=
85586,2015,05,13,03,00,AAXX 13034 85586 NIL=
85586,2015,05,13,06,00,AAXX 13064 85586 NIL=
85586,2015,05,13,09,00,AAXX 13094 85586 NIL=
85586,2015,05,13,12,00,AAXX 13124 85586 11950 10000 10050 20049 40170 51004 60004 71040 80001 333 20049 30/// 55033 56006 70000 81075=
85586,2015,05,13,15,00,AAXX 13154 85586 41958 12803 10160 20124 40173 51007 70511 80001 333 56006 81075=
85586,2015,05,13,18,00,AAXX 13184 85586 12960 22414 10176 20126 40149 57024 60001 80001 333 56006 82075=
85586,2015,05,13,21,00,AAXX 13214 85586 42960 12407 10167 20117 40138 56011 80001 333 56006 81075=
85586,2015,05,14,00,00,AAXX 14004 85586 11958 09901 10107 20096 40145 53004 60001 70500 333 10190=
85586,2015,05,14,03,00,AAXX 14034 85586 NIL=
85586,2015,05,14,06,00,AAXX 14064 85586 NIL=
85586,2015,05,14,09,00,AAXX 14094 85586 NIL=
85586,2015,05,14,12,00,AAXX 14124 85586 11925 01103 10038 20035 40141 52009 60003 71000 333 20038 30/// 55089 70000=
85586,2015,05,14,15,00,AAXX 14154 85586 41958 01304 10153 20101 40147 50011 70500=
85586,2015,05,14,18,00,AAXX 14184 85586 12960 02607 10155 20098 40139 56008 60001=
85586,2015,05,14,21,00,AAXX 14214 85586 42960 52804 10151 20109 40146 53006 80004 333 56006 85075=
85586,2015,05,15,00,00,AAXX 15004 85586 11958 50706 10124 20110 40158 51012 60001 70511 85030 333 10169 56000 85365=
85586,2015,05,15,03,00,AAXX 15034 85586 NIL=
85586,2015,05,15,06,00,AAXX 15064 85586 NIL=
85586,2015,05,15,09,00,AAXX 15094 85586 NIL=
85586,2015,05,15,12,00,AAXX 15124 85586 11958 50903 10061 20058 40182 53013 60004 70511 80001 333 20056 30/// 55089 56006 70000 85075=
85586,2015,05,15,15,00,AAXX 15154 85586 42960 09902 10163 20104 40183 50004=
85586,2015,05,15,18,00,AAXX 15184 85586 12960 02508 10152 20112 40168 58014 60001=
85586,2015,05,15,21,00,AAXX 15214 85586 42160 32508 10134 20115 40172 53002 83600 333 56600 83703=
85586,2015,05,16,00,00,AAXX 16004 85586 11156 70204 10119 20110 40176 51007 60001 70522 87600 333 10173 56700 87703=
85586,2015,05,16,03,00,AAXX 16034 85586 NIL=
85586,2015,05,16,06,00,AAXX 16064 85586 NIL=
85586,2015,05,16,09,00,AAXX 16094 85586 NIL=
85586,2015,05,16,12,00,AAXX 16124 85586 11203 52603 10036 20035 40177 53011 60004 74644 85600 333 20036 30/// 55081 56600 70000 85705=
85586,2015,05,16,15,00,AAXX 16154 85586 41102 89902 10099 20098 40176 50003 74442 886// 333 56699 88702=
85586,2015,05,16,18,00,AAXX 16184 85586 11106 82407 10106 20098 40173 57003 60001 74442 886// 333 56699 88703=
85586,2015,05,16,21,00,AAXX 16214 85586 41102 89902 10110 20107 40164 55010 74442 886// 333 56699 88702=
85586,2015,05,17,00,00,AAXX 17004 85586 11109 80203 10118 20116 40172 53007 69901 75144 886// 333 10122 56099 88702=
85586,2015,05,17,03,00,AAXX 17034 85586 NIL=
85586,2015,05,17,06,00,AAXX 17064 85586 NIL=
85586,2015,05,17,09,00,AAXX 17094 85586 NIL=
85586,2015,05,17,12,00,AAXX 17124 85586 11110 80903 10099 20098 40193 52016 69944 71055 886// 333 20098 31/// 55000 56099 70004 88702=
85586,2015,05,17,15,00,AAXX 17154 85586 41108 80904 10107 20106 40212 51020 74644 886// 333 56099 88702=
85586,2015,05,17,18,00,AAXX 17184 85586 11140 82604 10124 20121 40204 57006 60001 71042 886// 333 56699 88703=
85586,2015,05,17,21,00,AAXX 17214 85586 41258 22504 10126 20115 40188 56017 70522 82600 333 56600 82706=
85586,2015,05,18,00,00,AAXX 18004 85586 11103 80000 10113 20111 40195 51006 60001 74644 886// 333 10153 56099 88702=
85586,2015,05,18,03,00,AAXX 18034 85586 NIL=
85586,2015,05,18,06,00,AAXX 18064 85586 NIL=
85586,2015,05,18,09,00,AAXX 18094 85586 NIL=
85586,2015,05,18,12,00,AAXX 18124 85586 11103 80703 10085 20084 40196 53008 60004 74644 886// 333 20082 31/// 55007 56099 70000 88702=
85586,2015,05,18,15,00,AAXX 18154 85586 41210 80604 10103 20102 40205 50011 71022 886// 333 56199 88704=
85586,2015,05,18,18,00,AAXX 18184 85586 12960 12704 10154 20118 40187 57017 60001 80001 333 56006 81075=
85586,2015,05,18,21,00,AAXX 18214 85586 41103 89902 10111 20108 40188 52001 72822 886// 333 56699 88702=
85586,2015,05,19,00,00,AAXX 19004 85586 11105 80403 10107 20106 40196 50007 60001 74444 886// 333 10156 56699 88702=
85586,2015,05,19,03,00,AAXX 19034 85586 NIL=
85586,2015,05,19,06,00,AAXX 19064 85586 NIL=
85586,2015,05,19,09,00,AAXX 19094 85586 NIL=
85586,2015,05,19,12,00,AAXX 19124 85586 11/02 90903 10072 20071 40157 56007 60004 74544 333 20056 30/// 55031 70000 89/00=
85586,2015,05,19,15,00,AAXX 19154 85586 41102 83603 10108 20107 40156 50001 74444 886// 333 56799 88702=
85586,2015,05,19,18,00,AAXX 19184 85586 11006 82807 10120 20118 40159 53002 60001 72822 886// 333 56699 88701=
85586,2015,05,19,21,00,AAXX 19214 85586 41104 83403 10128 20126 40156 56002 72822 886// 333 56699 88702=
85586,2015,05,20,00,00,AAXX 20004 85586 11106 83503 10129 20127 40163 53007 69941 75355 886// 333 10129 56799 88702=
85586,2015,05,20,03,00,AAXX 20034 85586 NIL=
85586,2015,05,20,06,00,AAXX 20064 85586 NIL=
85586,2015,05,20,09,00,AAXX 20094 85586 NIL=
85586,2015,05,20,12,00,AAXX 20124 85586 11558 89902 10133 20112 40183 52016 69964 70522 885// 333 20125 31/// 55000 56799 70006 88632=
85586,2015,05,20,15,00,AAXX 20154 85586 41658 80706 10169 20117 40187 51006 70522 885// 333 56799 88639=
85586,2015,05,20,18,00,AAXX 20184 85586 12660 42807 10194 20100 40171 57016 60001 84500 333 56600 84636=
85586,2015,05,20,21,00,AAXX 20214 85586 42960 53105 10163 20115 40175 53002 80001 333 56007 85075=
85586,2015,05,21,00,00,AAXX 21004 85586 11956 39902 10107 20096 40188 51012 60001 70511 80001 333 10199 56006 83075=
85586,2015,05,21,03,00,AAXX 21034 85586 NIL=
85586,2015,05,21,06,00,AAXX 21064 85586 NIL=
85586,2015,05,21,09,00,AAXX 21094 85586 NIL=
85586,2015,05,21,12,00,AAXX 21124 85586 12960 61103 10096 20084 40193 56002 60004 86030 333 20083 31/// 55038 56070 70000 86365=
85586,2015,05,21,15,00,AAXX 21154 85586 42760 89902 10163 20104 40207 53012 885// 333 56799 88650=
85586,2015,05,21,18,00,AAXX 21184 85586 12560 72411 10171 20119 40199 56007 60001 82130 333 56660 82825 86365=
85586,2015,05,21,21,00,AAXX 21214 85586 42560 72309 10156 20128 40197 55001 83130 333 56660 83825 87365=
85586,2015,05,22,00,00,AAXX 22004 85586 11640 59902 10133 20119 40204 52004 60001 70522 85500 333 10183 56700 85635=
85586,2015,05,22,03,00,AAXX 22034 85586 NIL=
85586,2015,05,22,06,00,AAXX 22064 85586 NIL=
85586,2015,05,22,09,00,AAXX 22094 85586 NIL=
85586,2015,05,22,12,00,AAXX 22124 85586 12960 52203 10085 20081 40194 53008 60004 80001 333 20079 30/// 55018 56006 70000 85075=
85586,2015,05,22,15,00,AAXX 22154 85586 42460 72004 10150 20112 40199 53007 82130 333 56660 82814 87365=
85586,2015,05,22,18,00,AAXX 22184 85586 12960 72410 10156 20104 40191 58008 60001 80009 333 56006 87170=
85586,2015,05,22,21,00,AAXX 22214 85586 42960 72308 10148 20103 40186 57004 87030 333 56060 87365=
85586,2015,05,23,00,00,AAXX 23004 85586 12960 12003 10101 20081 40194 52005 60001 80001 333 10166 56006 81075=
85586,2015,05,23,03,00,AAXX 23034 85586 NIL=
85586,2015,05,23,06,00,AAXX 23064 85586 NIL=
85586,2015,05,23,09,00,AAXX 23094 85586 NIL=
85586,2015,05,23,12,00,AAXX 23124 85586 12960 51203 10043 20040 40206 53008 60004 80001 333 20033 30/// 55014 56006 70000 85075=
85586,2015,05,23,15,00,AAXX 23154 85586 42960 03503 10146 20079 40207 50005=
85586,2015,05,23,18,00,AAXX 23184 85586 12960 02413 10156 20064 40191 56015 60001=
85586,2015,05,23,21,00,AAXX 23214 85586 42960 02310 10145 20081 40195 53003=
85586,2015,05,24,00,00,AAXX 24004 85586 12960 01003 10072 20061 40206 53008 60001 333 10161=
85586,2015,05,24,03,00,AAXX 24034 85586 NIL=
85586,2015,05,24,06,00,AAXX 24064 85586 NIL=
85586,2015,05,24,09,00,AAXX 24094 85586 NIL=
85586,2015,05,24,12,00,AAXX 24124 85586 12960 01403 10065 20050 40197 53003 60004 333 20030 30/// 55082 70000=
85586,2015,05,24,15,00,AAXX 24154 85586 42960 01404 10138 20057 40198 51004=
85586,2015,05,24,18,00,AAXX 24184 85586 12960 02513 10137 20075 40190 58007 60001=
85586,2015,05,24,21,00,AAXX 24214 85586 42960 02411 10130 20075 40187 55006=
85586,2015,05,25,00,00,AAXX 25004 85586 12960 00904 10076 20060 40199 51012 60001 333 10167=
85586,2015,05,25,03,00,AAXX 25034 85586 NIL=
85586,2015,05,25,06,00,AAXX 25064 85586 NIL=
85586,2015,05,25,09,00,AAXX 25094 85586 NIL=
85586,2015,05,25,12,00,AAXX 25124 85586 11958 41203 10029 20019 40169 57004 60004 70500 80001 333 20007 30/// 55096 56006 70000 84075=
85586,2015,05,25,15,00,AAXX 25154 85586 42960 69901 10121 20046 40170 52005 80001 333 56006 86075=
85586,2015,05,25,18,00,AAXX 25184 85586 12960 63304 10126 20051 40170 50001 60001 80001 333 56007 86076=
85586,2015,05,25,21,00,AAXX 25214 85586 42460 62504 10112 20053 40165 55006 83501 333 56606 83617 86075=
85586,2015,05,26,00,00,AAXX 26004 85586 11956 51302 10059 20044 40179 53011 60001 70511 80001 333 10136 56006 85075=
85586,2015,05,26,03,00,AAXX 26034 85586 NIL=
85586,2015,05,26,06,00,AAXX 26064 85586 NIL=
85586,2015,05,26,09,00,AAXX 26094 85586 NIL=
85586,2015,05,26,12,00,AAXX 26124 85586 11558 31104 10052 20045 40235 51011 60004 70511 83500 333 20020 30/// 55054 56700 70000 83626=
85586,2015,05,26,15,00,AAXX 26154 85586 42960 09903 10127 20061 40229 58002=
85586,2015,05,26,18,00,AAXX 26184 85586 12960 02410 10136 20063 40206 56024 60001=
85586,2015,05,26,21,00,AAXX 26214 85586 42960 02411 10129 20070 40200 55006=
85586,2015,05,27,00,00,AAXX 27004 85586 11958 00000 10063 20051 40207 52005 60001 70500 333 10146=
85586,2015,05,27,03,00,AAXX 27034 85586 NIL=
85586,2015,05,27,06,00,AAXX 27064 85586 NIL=
85586,2015,05,27,09,00,AAXX 27094 85586 NIL=
85586,2015,05,27,15,00,AAXX 27154 85586 41956 00503 10126 20053 40196 50006 70500=
85586,2015,05,27,18,00,AAXX 27184 85586 12960 02507 10145 20078 40168 58026 60001=
85586,2015,05,27,21,00,AAXX 27214 85586 42960 29902 10137 20084 40161 55006 80001 333 56000 82073=
85586,2015,05,28,00,00,AAXX 28004 85586 11956 59901 10078 20069 40179 52014 60001 70511 80001 333 10154 56006 85075=
85586,2015,05,28,03,00,AAXX 28034 85586 NIL=
85586,2015,05,28,06,00,AAXX 28064 85586 NIL=
85586,2015,05,28,09,00,AAXX 28094 85586 NIL=
85586,2015,05,28,12,00,AAXX 28124 85586 11450 81203 10075 20069 40183 53014 60004 71022 83632 333 20037 30/// 55087 56666 70000 83610 84365=
85586,2015,05,28,15,00,AAXX 28154 85586 41958 70000 10128 20095 40180 57001 70522 80002 333 56006 87072=
85586,2015,05,28,18,00,AAXX 28184 85586 11958 72803 10137 20100 40157 58021 60001 70522 80009 333 56006 87170=
85586,2015,05,28,21,00,AAXX 28214 85586 41958 72604 10120 20101 40166 53006 70522 87030 333 56060 87365=
85586,2015,05,29,00,00,AAXX 29004 85586 12960 70903 10110 20096 40177 51011 60001 87030 333 10146 56060 87366=
85586,2015,05,29,03,00,AAXX 29034 85586 NIL=
85586,2015,05,29,06,00,AAXX 29064 85586 NIL=
85586,2015,05,29,09,00,AAXX 29094 85586 NIL=
85586,2015,05,29,12,00,AAXX 29124 85586 11850 21203 10095 20089 40194 53004 60044 71066 82030 333 20094 32/// 55000 56060 70044 82357=
85586,2015,05,29,15,00,AAXX 29154 85586 42960 09902 10170 20122 40202 51011=
85586,2015,05,29,18,00,AAXX 29184 85586 12460 32413 10150 20129 40192 56010 60001 83100 333 56600 83810=
85586,2015,05,29,21,00,AAXX 29214 85586 42460 22407 10153 20130 40189 56004 82100 333 56600 82815=
85586,2015,05,30,00,00,AAXX 30004 85586 11950 00803 10104 20099 40192 51002 60001 71000 333 10178=
85586,2015,05,30,03,00,AAXX 30034 85586 NIL=
85586,2015,05,30,06,00,AAXX 30064 85586 NIL=
85586,2015,05,30,09,00,AAXX 30094 85586 NIL=
85586,2015,05,30,12,00,AAXX 30124 85586 11103 81003 10085 20084 40193 51012 69924 74654 886// 333 20049 31/// 55081 56099 70002 88702=
85586,2015,05,30,15,00,AAXX 30154 85586 41112 89902 10107 20106 40217 51026 71022 886// 333 56299 88703=
85586,2015,05,30,18,00,AAXX 30184 85586 11250 89902 10115 20112 40211 55006 69921 71022 886// 333 56899 88704=
85586,2015,05,30,21,00,AAXX 30214 85586 41106 82407 10114 20106 40205 55006 72822 886// 333 56699 88702=
85586,2015,05,31,00,00,AAXX 31004 85586 11104 80000 10099 20098 40216 52010 60001 74644 886// 333 10148 56099 88702=
85586,2015,05,31,03,00,AAXX 31034 85586 NIL=
85586,2015,05,31,06,00,AAXX 31064 85586 NIL=
85586,2015,05,31,09,00,AAXX 31094 85586 NIL=
85586,2015,05,31,12,00,AAXX 31124 85586 11949 79902 10068 20067 40209 53005 69924 70522 87030 333 20045 30/// 55017 56060 70002 87365=
85586,2015,05,31,15,00,AAXX 31154 85586 41957 61203 10103 20094 40212 50003 70522 86030 333 56060 86365=
85586,2015,05,31,18,00,AAXX 31184 85586 11958 42305 10176 20103 40194 58013 60001 70511 80008 333 56005 84275=
85586,2015,05,31,21,00,AAXX 31214 85586 42960 02305 10163 20098 40204 53007=
85586,2015,06,01,00,00,AAXX 01004 85586 11956 69902 10104 20087 40213 53005 60001 70511 80001 333 10181 56006 86075=
85586,2015,06,01,03,00,AAXX 01034 85586 NIL=
85586,2015,06,01,06,00,AAXX 01064 85586 NIL=
85586,2015,06,01,09,00,AAXX 01094 85586 NIL=
85586,2015,06,01,12,00,AAXX 01124 85586 11956 81103 10086 20071 40223 53010 60003 70522 8803/ 333 20061 33/// 55050 56069 70000 88365=
85586,2015,06,01,15,00,AAXX 01154 85586 41958 89902 10136 20087 40230 53008 70522 8803/ 333 56069 88365=
85586,2015,06,01,18,00,AAXX 01184 85586 11958 81803 10157 20099 40212 58017 60001 70522 8803/ 333 56069 88366=
85586,2015,06,01,21,00,AAXX 01214 85586 41958 41803 10165 20080 40212 55000 70511 84030 333 56060 84366=
85586,2015,06,02,00,00,AAXX 02004 85586 11956 29901 10112 20072 40207 55006 60001 70511 82030 333 10167 56060 82365=
85586,2015,06,02,03,00,AAXX 02034 85586 NIL=
85586,2015,06,02,06,00,AAXX 02064 85586 NIL=
85586,2015,06,02,09,00,AAXX 02094 85586 NIL=
85586,2015,06,02,12,00,AAXX 02124 85586 11958 79902 10082 20060 40189 55002 60003 70522 80001 333 20061 33/// 55000 56006 70000 87075=
85586,2015,06,02,15,00,AAXX 02154 85586 41958 79901 10135 20080 40187 54000 70522 80001 333 56006 87075=
85586,2015,06,02,21,00,AAXX 02214 85586 42960 42507 10146 20123 40164 51003 80001 333 56006 84070=
85586,2015,06,03,00,00,AAXX 03004 85586 11956 71102 10115 20109 40187 51019 60001 70522 80001 333 10186 56006 87075=
85586,2015,06,03,03,00,AAXX 03034 85586 NIL=
85586,2015,06,03,12,00,AAXX 03124 85586 12960 31104 10104 20098 40173 54000 60004 80001 333 20098 30/// 55045 56006 70000 83070=
85586,2015,06,03,15,00,AAXX 03154 85586 42960 32505 10172 20117 40177 51006 80001 333 56006 83075=
85586,2015,06,03,18,00,AAXX 03184 85586 12960 52410 10164 20130 40171 58007 60001 80001 333 56006 85070=
85586,2015,06,03,21,00,AAXX 03214 85586 42960 29902 10161 20131 40174 53004 80001 333 56006 82073=
85586,2015,06,04,00,00,AAXX 04004 85586 11209 80902 10101 20100 40189 53011 60001 74442 886// 333 10197 56699 88703=
85586,2015,06,04,03,00,AAXX 04034 85586 NIL=
85586,2015,06,04,06,00,AAXX 04064 85586 NIL=
85586,2015,06,04,09,00,AAXX 04094 85586 NIL=
85586,2015,06,04,12,00,AAXX 04124 85586 12960 79902 10117 20091 40163 54000 60004 82031 333 20082 30/// 55073 56066 70000 82365 85073=
85586,2015,06,04,15,00,AAXX 04154 85586 41950 79901 10156 20108 40167 53006 70522 80004 333 56006 87070=
85586,2015,06,04,18,00,AAXX 04184 85586 11450 79902 10162 20120 40161 55002 60001 70522 82504 333 56606 82615 87070=
85586,2015,06,04,21,00,AAXX 04214 85586 41958 70000 10151 20109 40157 56004 70522 87030 333 56060 87365=
85586,2015,06,05,00,00,AAXX 05004 85586 12960 79902 10126 20110 40162 50001 60001 80001 333 10187 56006 87070=
85586,2015,06,05,03,00,AAXX 05034 85586 NIL=
85586,2015,06,05,06,00,AAXX 05064 85586 NIL=
85586,2015,06,05,09,00,AAXX 05094 85586 NIL=
85586,2015,06,05,12,00,AAXX 05124 85586 12960 51104 10078 20075 40176 53007 60004 80001 333 20063 30/// 55000 56006 70000 85073=
85586,2015,06,05,15,00,AAXX 05154 85586 42960 19903 10167 20115 40183 50010 80001 333 56002 81075=
85586,2015,06,05,18,00,AAXX 05184 85586 12960 12607 10188 20122 40165 56018 60001 80001 333 56006 81075=
85586,2015,06,05,21,00,AAXX 05214 85586 42660 22407 10165 20127 40169 53005 82500 333 56600 82643=
85586,2015,06,06,00,00,AAXX 06004 85586 12360 69902 10138 20127 40180 52008 69901 86600 333 10203 56600 86708=
85586,2015,06,06,03,00,AAXX 06034 85586 NIL=
85586,2015,06,06,06,00,AAXX 06064 85586 NIL=
85586,2015,06,06,09,00,AAXX 06094 85586 NIL=
85586,2015,06,06,12,00,AAXX 06124 85586 11108 80603 10140 20138 40182 53009 60023 75044 886// 333 20132 32/// 55071 56799 70020 88702=
85586,2015,06,06,15,00,AAXX 06154 85586 41106 89902 10150 20148 40194 52012 75344 886// 333 56799 88702=
85586,2015,06,06,18,00,AAXX 06184 85586 11107 82604 10153 20150 40192 58003 60011 72855 886// 333 56699 88702=
85586,2015,06,06,21,00,AAXX 06214 85586 41356 82504 10153 20144 40193 53002 71022 886// 333 56699 88709=
85586,2015,06,07,00,00,AAXX 07004 85586 11208 49901 10135 20132 40203 52009 60001 74244 84600 333 10158 56700 84703=
85586,2015,06,07,03,00,AAXX 07034 85586 NIL=
85586,2015,06,07,12,00,AAXX 07124 85586 12960 01104 10107 20106 40172 56008 60013 333 20068 31/// 55000 70012=
85586,2015,06,07,15,00,AAXX 07154 85586 41158 12205 10145 20127 40175 53006 70544 81600 333 56300 81702=
85586,2015,06,07,18,00,AAXX 07184 85586 12960 02411 10163 20127 40161 57015 60001=
85586,2015,06,07,21,00,AAXX 07214 85586 42960 02408 10149 20117 40167 53006=
85586,2015,06,08,00,00,AAXX 08004 85586 11956 00805 10111 20102 40181 51014 60001 70500 333 10177=
85586,2015,06,08,03,00,AAXX 08034 85586 NIL=
85586,2015,06,08,06,00,AAXX 08064 85586 NIL=
85586,2015,06,08,09,00,AAXX 08094 85586 NIL=
85586,2015,06,08,12,00,AAXX 08124 85586 11911 09902 10050 20049 40191 53000 69924 71000 333 20050 31/// 55078 70002=
85586,2015,06,08,15,00,AAXX 08154 85586 42960 03103 10137 20098 40204 52018=
85586,2015,06,08,18,00,AAXX 08184 85586 12960 22606 10146 20108 40187 57017 60001 80001 333 56006 82073=
85586,2015,06,08,21,00,AAXX 08214 85586 42960 62704 10146 20108 40192 53005 86030 333 56060 86360=
85586,2015,06,09,00,00,AAXX 09004 85586 11956 79901 10119 20108 40199 51006 60001 70511 87030 333 10168 56060 87362=
85586,2015,06,09,03,00,AAXX 09034 85586 NIL=
85586,2015,06,09,06,00,AAXX 09064 85586 NIL=
85586,2015,06,09,09,00,AAXX 09094 85586 NIL=
85586,2015,06,09,12,00,AAXX 09124 85586 12960 51303 10097 20085 40200 53005 60004 85030 333 20088 30/// 55069 56060 70000 85363=
85586,2015,06,09,15,00,AAXX 09154 85586 42560 61704 10151 20105 40207 50010 86500 333 56500 86630=
85586,2015,06,09,18,00,AAXX 09184 85586 12560 61706 10186 20098 40185 57020 60001 83109 333 56606 83830 86170=
85586,2015,06,09,21,00,AAXX 09214 85586 42960 51910 10171 20086 40190 53003 80001 333 56000 85073=
85586,2015,06,10,00,00,AAXX 10004 85586 12960 52003 10129 20090 40204 51012 60001 85030 333 10192 56060 85366=
85586,2015,06,10,03,00,AAXX 10034 85586 NIL=
85586,2015,06,10,06,00,AAXX 10064 85586 NIL=
85586,2015,06,10,09,00,AAXX 10094 85586 NIL=
85586,2015,06,10,12,00,AAXX 10124 85586 12960 11503 10078 20049 40217 53009 60004 80001 333 20070 30/// 55059 56006 70000 81075=
85586,2015,06,10,15,00,AAXX 10154 85586 42960 01706 10126 20060 40227 53013=
85586,2015,06,10,18,00,AAXX 10184 85586 12960 02109 10165 20007 40213 58013 60001=
85586,2015,06,10,21,00,AAXX 10214 85586 42960 62310 10139 20063 40220 53005 80009 333 56005 86170=
85586,2015,06,11,00,00,AAXX 11004 85586 12960 01503 10104 20023 40239 53017 60001 333 10176=
85586,2015,06,11,03,00,AAXX 11034 85586 NIL=
85586,2015,06,11,12,00,AAXX 11124 85586 12960 01103 10033 20018 40243 55002 60004 333 20028 30/// 55068 70000=
85586,2015,06,11,15,00,AAXX 11154 85586 42960 09906 10116 20034 40240 58001=
85586,2015,06,11,18,00,AAXX 11184 85586 12960 01707 10168 20010 40215 58022 60001=
85586,2015,06,11,21,00,AAXX 11214 85586 42960 01808 10170 21020 40199 55016=
85586,2015,06,12,00,00,AAXX 12004 85586 12960 01903 10086 20031 40204 52001 60001 333 10182=
85586,2015,06,12,03,00,AAXX 12034 85586 NIL=
85586,2015,06,12,06,00,AAXX 12064 85586 NIL=
85586,2015,06,12,09,00,AAXX 12094 85586 NIL=
85586,2015,06,12,12,00,AAXX 12124 85586 12960 09901 10003 21001 40211 51008 60004 333 21006 31/// 55068 70000=
85586,2015,06,12,15,00,AAXX 12154 85586 42960 00703 10111 20044 40214 52008=
85586,2015,06,12,18,00,AAXX 12184 85586 12960 12610 10129 20061 40198 58017 60001 80001 333 56006 81075=
85586,2015,06,12,21,00,AAXX 12214 85586 42960 32309 10118 20043 40201 53003 80009 333 56006 83175=
85586,2015,06,13,00,00,AAXX 13004 85586 11956 59902 10066 20038 40208 52005 60001 70511 85030 333 10139 56060 85365=
85586,2015,06,13,03,00,AAXX 13034 85586 NIL=
85586,2015,06,13,09,00,AAXX 13094 85586 NIL=
85586,2015,06,13,12,00,AAXX 13124 85586 12960 11303 10049 20029 40231 53006 60004 81030 333 20034 31/// 55080 56060 70000 81365=
85586,2015,06,13,15,00,AAXX 13154 85586 42960 00605 10126 20044 40246 51019=
85586,2015,06,13,18,00,AAXX 13184 85586 12460 32706 10145 20056 40244 58002 60001 83100 333 56600 83814=
85586,2015,06,13,21,00,AAXX 13214 85586 42960 02410 10127 20074 40240 55004=
85586,2015,06,14,00,00,AAXX 14004 85586 11956 01102 10084 20055 40244 52003 70500 80000 333 10156=
85586,2015,06,14,06,00,AAXX 14064 85586 NIL=
85586,2015,06,14,09,00,AAXX 14094 85586 NIL=
85586,2015,06,14,12,00,AAXX 14124 85586 12960 09902 10037 20025 40263 53008 60004 333 20023 31/// 55092 70000=
85586,2015,06,14,15,00,AAXX 14154 85586 42960 01404 10131 20048 40272 50008=
85586,2015,06,14,18,00,AAXX 14184 85586 12960 01508 10164 20039 40249 58019 60001=
85586,2015,06,14,21,00,AAXX 14214 85586 42960 01808 10165 20043 40235 56017=
85586,2015,06,15,00,00,AAXX 15004 85586 13956 01503 10104 20048 40241 52005 60001 333 10176=
85586,2015,06,15,03,00,AAXX 15034 85586 NIL=
85586,2015,06,15,06,00,AAXX 15064 85586 NIL=
85586,2015,06,15,09,00,AAXX 15094 85586 NIL=
85586,2015,06,15,12,00,AAXX 15124 85586 12960 21204 10046 20023 40214 56003 60003 80001 333 20032 30/// 55092 56006 70000 82075=
85586,2015,06,15,15,00,AAXX 15154 85586 42960 01506 10122 20027 40199 58012=
85586,2015,06,15,18,00,AAXX 15184 85586 12960 01707 10187 20009 40159 58034 60001=
85586,2015,06,15,21,00,AAXX 15214 85586 42960 01907 10180 21028 40140 56022=
85586,2015,06,16,00,00,AAXX 16004 85586 12960 01603 10112 20009 40140 55002 60001 333 10202=
85586,2015,06,16,03,00,AAXX 16034 85586 NIL=
85586,2015,06,16,06,00,AAXX 16064 85586 NIL=
85586,2015,06,16,09,00,AAXX 16094 85586 NIL=
85586,2015,06,16,12,00,AAXX 16124 85586 12960 11703 10025 20019 40175 53014 60004 80001 333 20022 30/// 55090 56006 70000 81075=
85586,2015,06,16,15,00,AAXX 16154 85586 42960 03203 10111 20046 40181 52010=
85586,2015,06,16,18,00,AAXX 16184 85586 12960 02411 10135 20073 40169 58012 60001=
85586,2015,06,16,21,00,AAXX 16214 85586 42960 02408 10136 20087 40172 52003=
85586,2015,06,17,00,00,AAXX 17004 85586 12960 01803 10082 20057 40190 53016 60001 333 10158=
85586,2015,06,17,03,00,AAXX 17034 85586 NIL=
85586,2015,06,17,06,00,AAXX 17064 85586 NIL=
85586,2015,06,17,09,00,AAXX 17094 85586 NIL=
85586,2015,06,17,12,00,AAXX 17124 85586 11950 01003 10026 20020 40223 53015 60004 71000 333 20019 34/// 55086 70000=
85586,2015,06,17,15,00,AAXX 17154 85586 42960 01105 10117 20049 40233 51013=
85586,2015,06,17,18,00,AAXX 17184 85586 12960 02508 10142 20084 40212 58019 60001=
85586,2015,06,17,21,00,AAXX 17214 85586 42960 01806 10171 20035 40210 55002=
85586,2015,06,18,00,00,AAXX 18004 85586 12960 01803 10110 20056 40223 52011 60001 333 10178=
85586,2015,06,18,03,00,AAXX 18034 85586 NIL=
85586,2015,06,18,06,00,AAXX 18064 85586 NIL=
85586,2015,06,18,09,00,AAXX 18094 85586 NIL=
85586,2015,06,18,12,00,AAXX 18124 85586 12960 01205 10049 20007 40180 57011 60004 333 20040 30/// 55081 70000=
85586,2015,06,18,15,00,AAXX 18154 85586 42960 01404 10139 20009 40167 58009=
85586,2015,06,18,18,00,AAXX 18184 85586 12960 21004 10215 21009 40136 57030 60001 80002 333 56002 82075=
85586,2015,06,18,21,00,AAXX 18214 85586 42960 49903 10186 20062 40126 58010 80001 333 56008 84075=
85586,2015,06,19,00,00,AAXX 19004 85586 11956 39901 10094 20013 40140 53010 60001 70511 80001 333 10234 56006 83075=
85586,2015,06,19,03,00,AAXX 19034 85586 NIL=
85586,2015,06,19,06,00,AAXX 19064 85586 NIL=
85586,2015,06,19,09,00,AAXX 19094 85586 NIL=
85586,2015,06,19,12,00,AAXX 19124 85586 12960 41205 10069 20004 40147 50008 60004 84030 333 20031 30/// 55083 56060 70000 84365=
85586,2015,06,19,15,00,AAXX 19154 85586 42960 20903 10133 20010 40157 51015 80001 333 56006 82075=
85586,2015,06,19,18,00,AAXX 19184 85586 12960 42707 10144 20050 40153 58006 60001 80001 333 56006 84076=
85586,2015,06,19,21,00,AAXX 19214 85586 42960 69901 10152 20080 40153 53001 80001 333 56006 86076=
85586,2015,06,20,00,00,AAXX 20004 85586 11956 49902 10092 20075 40176 53019 60001 70500 80001 333 10172 56006 84075=
85586,2015,06,20,03,00,AAXX 20034 85586 NIL=
85586,2015,06,20,06,00,AAXX 20064 85586 NIL=
85586,2015,06,20,09,00,AAXX 20094 85586 NIL=
85586,2015,06,20,12,00,AAXX 20124 85586 12960 01804 10068 20003 40185 50002 60004 333 20034 30/// 55084 70000=
85586,2015,06,20,15,00,AAXX 20154 85586 42960 41403 10164 20002 40178 57003 80001 333 56006 84075=
85586,2015,06,20,18,00,AAXX 20184 85586 12960 29905 10227 20007 40155 58020 60001 80001 333 56006 82070=
85586,2015,06,20,21,00,AAXX 20214 85586 42960 02407 10159 20107 40152 55006=
85586,2015,06,21,00,00,AAXX 21004 85586 11958 42004 10107 20072 40166 51011 60001 70500 80001 333 10236 56006 84075=
85586,2015,06,21,03,00,AAXX 21034 85586 NIL=
85586,2015,06,21,06,00,AAXX 21064 85586 NIL=
85586,2015,06,21,09,00,AAXX 21094 85586 NIL=
85586,2015,06,21,12,00,AAXX 21124 85586 12960 61703 10074 20047 40151 53007 60004 80002 333 20061 30/// 55090 56006 70000 86075=
85586,2015,06,21,15,00,AAXX 21154 85586 42960 71404 10141 20063 40156 50006 80004 333 56006 87070=
85586,2015,06,21,18,00,AAXX 21184 85586 12960 71604 10196 20054 40140 57015 60001 80004 333 56006 87070=
85586,2015,06,21,21,00,AAXX 21214 85586 42960 71805 10166 20008 40147 52006 80004 333 56005 87070=
85586,2015,06,22,00,00,AAXX 22004 85586 12960 63603 10114 20083 40163 52015 60001 80002 333 10200 56006 86073=
85586,2015,06,22,03,00,AAXX 22034 85586 NIL=
85586,2015,06,22,06,00,AAXX 22064 85586 NIL=
85586,2015,06,22,09,00,AAXX 22094 85586 NIL=
85586,2015,06,22,12,00,AAXX 22124 85586 12960 10904 10033 20020 40158 53002 60004 80001 333 20020 30/// 55000 56006 70000 81075=
85586,2015,06,22,15,00,AAXX 22154 85586 42960 10000 10124 20067 40162 53008 80002 333 56006 81075=
85586,2015,06,22,18,00,AAXX 22184 85586 12225 73205 10104 20093 40159 55002 60001 87600 333 56006 87703=
85586,2015,06,22,21,00,AAXX 22214 85586 42960 02903 10119 20090 40149 57011=
85586,2015,06,23,00,00,AAXX 23004 85586 11940 00000 10066 20062 40148 58003 60001 71000 333 10134=
85586,2015,06,23,03,00,AAXX 23034 85586 NIL=
85586,2015,06,23,12,00,AAXX 23124 85586 11440 80904 10078 20077 40150 53009 60004 71022 886// 333 20030 30/// 55068 56099 70000 88713=
85586,2015,06,23,15,00,AAXX 23154 85586 41458 80104 10122 20091 40178 51030 71022 885// 333 56899 88617=
85586,2015,06,23,18,00,AAXX 23184 85586 12560 53307 10151 20095 40151 58024 60001 85500 333 56700 85623=
85586,2015,06,23,21,00,AAXX 23214 85586 42560 23106 10130 20093 40148 55004 81100 333 56600 82820=
85586,2015,06,24,00,00,AAXX 24004 85586 12560 83404 10132 20085 40148 58001 60001 885// 333 10155 56099 88627=
85586,2015,06,24,03,00,AAXX 24034 85586 NIL=
85586,2015,06,24,06,00,AAXX 24064 85586 NIL=
85586,2015,06,24,09,00,AAXX 24094 85586 NIL=
85586,2015,06,24,12,00,AAXX 24124 85586 12660 50905 10116 20077 40150 53007 60004 83501 333 20103 30/// 55027 56506 70000 83640=
85586,2015,06,24,15,00,AAXX 24154 85586 42460 20704 10165 20085 40173 51017 82500 333 56100 82615=
85586,2015,06,24,18,00,AAXX 24184 85586 12660 23209 10184 20096 40160 58014 60001 82400 333 56600 82644=
85586,2015,06,24,21,00,AAXX 24214 85586 42960 03308 10154 20096 40162 53001=
85586,2015,06,25,00,00,AAXX 25004 85586 11958 40305 10127 20092 40178 51015 60001 70500 80001 333 10189 56006 84075=
85586,2015,06,25,03,00,AAXX 25034 85586 NIL=
85586,2015,06,25,06,00,AAXX 25064 85586 NIL=
85586,2015,06,25,09,00,AAXX 25094 85586 NIL=
85586,2015,06,25,12,00,AAXX 25124 85586 12960 09902 10075 20064 40199 53013 60004 333 20064 30/// 55079 70000=
85586,2015,06,25,15,00,AAXX 25154 85586 42960 00803 10160 20090 40208 50010=
85586,2015,06,25,18,00,AAXX 25184 85586 12960 02906 10177 20094 40191 56015 60001=
85586,2015,06,25,21,00,AAXX 25214 85586 42960 02505 10163 20093 40199 52007=
85586,2015,06,26,00,00,AAXX 26004 85586 11958 09902 10094 20077 40196 55005 60001 70500 333 10182=
85586,2015,06,26,03,00,AAXX 26034 85586 NIL=
85586,2015,06,26,06,00,AAXX 26064 85586 NIL=
85586,2015,06,26,09,00,AAXX 26094 85586 NIL=
85586,2015,06,26,12,00,AAXX 26124 85586 11940 09901 10048 20044 40174 53003 60004 71000 333 20043 30/// 55090 70000=
85586,2015,06,26,15,00,AAXX 26154 85586 41958 09902 10146 20091 40172 52001 70500=
85586,2015,06,26,18,00,AAXX 26184 85586 12960 02410 10164 20108 40152 58018 60001=
85586,2015,06,26,21,00,AAXX 26214 85586 42960 02504 10153 20115 40146 56007=
85586,2015,06,27,00,00,AAXX 27004 85586 11950 09902 10092 20086 40155 53007 60001 70500 333 10195=
85586,2015,06,27,12,00,AAXX 27124 85586 12960 19902 10035 20028 40160 51008 60004 80001 333 20025 30/// 55087 56006 70000 81073=
85586,2015,06,27,15,00,AAXX 27154 85586 42960 39902 10135 20064 40163 52007 80001 333 56000 83073=
85586,2015,06,27,18,00,AAXX 27184 85586 12960 22707 10139 20094 40157 57006 60001 80001 333 56000 82073=
85586,2015,06,27,21,00,AAXX 27214 85586 42960 33004 10139 20102 40158 53001 80001 333 56006 83073=
85586,2015,06,28,00,00,AAXX 28004 85586 11958 51003 10084 20077 40172 52010 60001 71022 80001 333 10157 56006 85073=
85586,2015,06,28,03,00,AAXX 28034 85586 NIL=
85586,2015,06,28,06,00,AAXX 28064 85586 NIL=
85586,2015,06,28,09,00,AAXX 28094 85586 NIL=
85586,2015,06,28,12,00,AAXX 28124 85586 11920 00000 10026 20025 40185 53008 60004 71000 333 20016 30/// 55085 70000=
85586,2015,06,28,15,00,AAXX 28154 85586 41960 09902 10112 20077 40184 50003 70500=
85586,2015,06,28,18,00,AAXX 28184 85586 12960 03605 10176 20074 40161 58020 60001=
85586,2015,06,28,21,00,AAXX 28214 85586 42960 02409 10134 20081 40167 53004=
85586,2015,06,29,00,00,AAXX 29004 85586 12960 01003 10065 20051 40181 51010 60001 333 10184=
85586,2015,06,29,03,00,AAXX 29034 85586 NIL=
85586,2015,06,29,06,00,AAXX 29064 85586 NIL=
85586,2015,06,29,09,00,AAXX 29094 85586 NIL=
85586,2015,06,29,12,00,AAXX 29124 85586 12960 01103 10008 21001 40197 51010 60004 333 21025 34/// 55080 70000=
85586,2015,06,29,15,00,AAXX 29154 85586 42960 09903 10103 20031 40206 51011=
85586,2015,06,29,18,00,AAXX 29184 85586 12960 02508 10118 20039 40193 58010 60001=
85586,2015,06,29,21,00,AAXX 29214 85586 42960 22604 10123 20074 40196 53003 82010 333 56060 82461=
85586,2015,06,30,00,00,AAXX 30004 85586 12960 30000 10079 20065 40199 53003 60001 83030 333 10133 56060 83366=
85586,2015,06,30,03,00,AAXX 30034 85586 NIL=
85586,2015,06,30,06,00,AAXX 30064 85586 NIL=
85586,2015,06,30,09,00,AAXX 30094 85586 NIL=
85586,2015,06,30,12,00,AAXX 30124 85586 12960 41103 10047 20024 40183 54000 60004 84030 333 20011 30/// 55085 56060 70000 84366=
85586,2015,06,30,15,00,AAXX 30154 85586 42960 29903 10126 20046 40192 51009 82030 333 56080 82363=
85586,2015,06,30,18,00,AAXX 30184 85586 12960 22707 10117 20060 40178 58012 60001 82030 333 56060 82364=
85586,2015,06,30,21,00,AAXX 30214 85586 42960 23003 10126 20095 40168 56010 82030 333 56060 82365=
85586,2015,07,01,00,00,AAXX 01004 85586 11956 00905 10083 20072 40174 52004 60001 70500 333 10151=
85586,2015,07,01,03,00,AAXX 01034 85586 NIL=
85586,2015,07,01,06,00,AAXX 01064 85586 NIL=
85586,2015,07,01,09,00,AAXX 01094 85586 NIL=
85586,2015,07,01,12,00,AAXX 01124 85586 11958 61302 10048 20039 40177 53011 60004 70522 86030 333 20039 30/// 55066 56060 70000 81361 86364=
85586,2015,07,01,15,00,AAXX 01154 85586 41958 89901 10111 20082 40190 53015 70522 8803/ 333 56069 88365=
85586,2015,07,01,18,00,AAXX 01184 85586 12360 52806 10130 20091 40175 58014 60001 82530 333 56660 82609 85365=
85586,2015,07,01,21,00,AAXX 01214 85586 41958 42504 10121 20097 40167 55009 70510 84030 333 56060 84365=
85586,2015,07,02,00,00,AAXX 02004 85586 11956 79902 10087 20073 40174 51007 60001 70511 87030 333 10148 56060 87365=
85586,2015,07,02,03,00,AAXX 02034 85586 NIL=
85586,2015,07,02,06,00,AAXX 02064 85586 NIL=
85586,2015,07,02,09,00,AAXX 02094 85586 NIL=
85586,2015,07,02,12,00,AAXX 02124 85586 11108 79901 10029 20026 40199 53013 60004 74611 81630 333 20029 30/// 55024 56760 70000 81702 87365=
85586,2015,07,02,15,00,AAXX 02154 85586 42960 29902 10127 20070 40210 51013 80001 333 56006 82075=
85586,2015,07,02,18,00,AAXX 02184 85586 12960 02409 10154 20074 40197 57011 60001=
85586,2015,07,02,21,00,AAXX 02214 85586 42960 02406 10134 20089 40194 56006=
85586,2015,07,03,00,00,AAXX 03004 85586 11956 01903 10072 20057 40207 52012 60001 70500 333 10154=
85586,2015,07,03,03,00,AAXX 03034 85586 NIL=
85586,2015,07,03,06,00,AAXX 03064 85586 NIL=
85586,2015,07,03,09,00,AAXX 03094 85586 NIL=
85586,2015,07,03,12,00,AAXX 03124 85586 12960 01404 10062 20039 40189 57006 60004 333 20051 30/// 55074 70000=
85586,2015,07,03,15,00,AAXX 03154 85586 42960 09903 10146 20047 40173 56013=
85586,2015,07,03,18,00,AAXX 03184 85586 12960 02512 10152 20068 40150 58022 60001=
85586,2015,07,03,21,00,AAXX 03214 85586 42960 02605 10136 20081 40143 55010=
85586,2015,07,04,00,00,AAXX 04004 85586 12960 00000 10059 20049 40140 57005 60001 333 10195=
85586,2015,07,04,03,00,AAXX 04034 85586 NIL=
85586,2015,07,04,06,00,AAXX 04064 85586 NIL=
85586,2015,07,04,09,00,AAXX 04094 85586 NIL=
85586,2015,07,04,12,00,AAXX 04124 85586 12960 61005 10025 20002 40143 51021 60004 80002 333 20003 30/// 55091 56006 70000 86072=
85586,2015,07,04,15,00,AAXX 04154 85586 42960 03405 10123 20064 40159 51019=
85586,2015,07,04,18,00,AAXX 04184 85586 12960 02808 10130 20077 40152 58006 60001=
85586,2015,07,04,21,00,AAXX 04214 85586 42460 22605 10121 20088 40153 54000 82100 333 56600 82813=
85586,2015,07,05,00,00,AAXX 05004 85586 12460 50703 10076 20059 40158 52005 60001 82502 333 10139 56606 82611 85071=
85586,2015,07,05,03,00,AAXX 05034 85586 NIL=
85586,2015,07,05,06,00,AAXX 05064 85586 NIL=
85586,2015,07,05,09,00,AAXX 05094 85586 NIL=
85586,2015,07,05,12,00,AAXX 05124 85586 11950 80903 10085 20078 40161 51014 69904 76022 8803/ 333 20062 31/// 55077 56009 79999 88359=
85586,2015,07,05,15,00,AAXX 05154 85586 41630 89902 10094 20090 40176 53013 76566 8353/ 333 56200 83636 88646=
85586,2015,07,05,18,00,AAXX 05184 85586 11256 80905 10094 20090 40180 50005 60171 76366 8263/ 333 56200 82703 88357=
85586,2015,07,05,21,00,AAXX 05214 85586 41556 70804 10107 20102 40188 52010 71066 87500 333 56200 85622 87644=
85586,2015,07,06,00,00,AAXX 06004 85586 11660 82403 10103 20097 40202 53013 60011 70266 885// 333 10109 56099 88635=
85586,2015,07,06,03,00,AAXX 06034 85586 NIL=
85586,2015,07,06,06,00,AAXX 06064 85586 NIL=
85586,2015,07,06,09,00,AAXX 06094 85586 NIL=
85586,2015,07,06,12,00,AAXX 06124 85586 11958 81503 10077 20073 40215 53002 60184 70522 80007 333 20064 32/// 55000 56006 70184 88271=
85586,2015,07,06,15,00,AAXX 06154 85586 41958 79902 10099 20088 40218 51005 70522 80001 333 56006 87075=
85586,2015,07,06,18,00,AAXX 06184 85586 12460 69904 10127 20104 40204 58013 60001 81101 333 56606 81814 86075=
85586,2015,07,06,21,00,AAXX 06214 85586 42960 50303 10136 20093 40197 56007 85030 333 56080 85365=
85586,2015,07,07,00,00,AAXX 07004 85586 11956 39901 10083 20077 40219 52020 60001 70511 80001 333 10142 56006 83075=
85586,2015,07,07,03,00,AAXX 07034 85586 NIL=
85586,2015,07,07,06,00,AAXX 07064 85586 NIL=
85586,2015,07,07,09,00,AAXX 07094 85586 NIL=
85586,2015,07,07,12,00,AAXX 07124 85586 11958 51104 10053 20052 40228 55001 60004 70544 80001 333 20032 31/// 55018 56006 70000 85075=
85586,2015,07,07,15,00,AAXX 07154 85586 42960 09901 10118 20085 40230 52005=
85586,2015,07,07,18,00,AAXX 07184 85586 12960 22410 10143 20092 40209 58021 60001 82031 333 56060 82365=
85586,2015,07,07,21,00,AAXX 07214 85586 42960 52503 10127 20097 40211 50000 85030 333 56060 85363=
85586,2015,07,08,00,00,AAXX 08004 85586 11956 30000 10082 20078 40214 53003 69901 70511 80001 333 10183 56006 83075=
85586,2015,07,08,03,00,AAXX 08034 85586 NIL=
85586,2015,07,08,06,00,AAXX 08064 85586 NIL=
85586,2015,07,08,09,00,AAXX 08094 85586 NIL=
85586,2015,07,08,12,00,AAXX 08124 85586 12960 89902 10069 20063 40211 50000 69904 8807/ 333 20049 31/// 55068 56069 70000 88364=
85586,2015,07,08,15,00,AAXX 08154 85586 41958 79902 10111 20080 40212 53005 70522 87030 333 56060 87361=
85586,2015,07,08,18,00,AAXX 08184 85586 12960 62604 10154 20102 40197 57014 60001 86030 333 56060 86362=
85586,2015,07,08,21,00,AAXX 08214 85586 42960 79902 10141 20100 40186 58011 87030 333 56060 87362=
85586,2015,07,09,00,00,AAXX 09004 85586 11456 79901 10116 20102 40190 53002 60001 70522 82530 333 10162 56760 82618 87362=
85586,2015,07,09,03,00,AAXX 09034 85586 NIL=
85586,2015,07,09,06,00,AAXX 09064 85586 NIL=
85586,2015,07,09,09,00,AAXX 09094 85586 NIL=
85586,2015,07,09,12,00,AAXX 09124 85586 11230 81004 10126 20123 40189 53006 60014 76066 885// 333 20112 31/// 55028 56799 70012 85604 88610=
85586,2015,07,09,15,00,AAXX 09154 85586 41420 81003 10137 20134 40200 51011 72022 886// 333 56699 88710=
85586,2015,07,09,18,00,AAXX 09184 85586 11104 82604 10139 20136 40191 58008 69961 74142 886// 333 56699 88702=
85586,2015,07,09,21,00,AAXX 09214 85586 41104 82404 10130 20128 40186 55007 74142 886// 333 56699 88702=
85586,2015,07,10,00,00,AAXX 10004 85586 NIL=
85586,2015,07,10,03,00,AAXX 10034 85586 NIL=
85586,2015,07,10,06,00,AAXX 10064 85586 NIL=
85586,2015,07,10,09,00,AAXX 10094 85586 NIL=
85586,2015,07,10,12,00,AAXX 10124 85586 11230 70304 10098 20097 40191 53002 69964 74642 85630 333 20094 31/// 55000 56770 70006 85608 85363=
85586,2015,07,10,15,00,AAXX 10154 85586 41350 52603 10130 20122 40202 51011 71042 81630 333 56660 81707 85366=
85586,2015,07,10,18,00,AAXX 10184 85586 11958 82506 10139 20115 40183 53018 60001 70522 8807/ 333 56009 88364=
85586,2015,07,10,21,00,AAXX 10214 85586 41957 72407 10127 20110 40183 55002 70522 87030 333 56070 87362=
85586,2015,07,11,00,00,AAXX 11004 85586 11950 80000 10113 20107 40191 52009 60001 71022 8803/ 333 10144 56009 88363=
85586,2015,07,11,03,00,AAXX 11034 85586 NIL=
85586,2015,07,11,06,00,AAXX 11064 85586 NIL=
85586,2015,07,11,09,00,AAXX 11094 85586 NIL=
85586,2015,07,11,12,00,AAXX 11124 85586 11803 50403 10098 20097 40169 55002 60004 74622 85030 333 20097 31/// 55000 56070 70000 83358 85365=
85586,2015,07,11,15,00,AAXX 11154 85586 41958 89902 10125 20117 40175 52005 70511 8803/ 333 56029 88364=
85586,2015,07,11,18,00,AAXX 11184 85586 12560 73204 10136 20102 40161 57013 60001 87530 333 56660 82626 87633=
85586,2015,07,11,21,00,AAXX 11214 85586 42560 80104 10134 20090 40155 57005 885// 333 56899 82630 88643=
85586,2015,07,12,00,00,AAXX 12004 85586 11550 83403 10127 20099 40133 58023 69941 76062 8253/ 333 10142 56709 82633 88359=
85586,2015,07,12,03,00,AAXX 12034 85586 NIL=
85586,2015,07,12,06,00,AAXX 12064 85586 NIL=
85586,2015,07,12,12,00,AAXX 12124 85586 11456 83412 10142 20123 40106 52005 60204 78188 882// 333 20117 32/// 55000 56799 70196 82814 88820=
85586,2015,07,12,15,00,AAXX 12154 85586 41520 83413 10129 20124 40116 51010 78188 882// 333 56799 88825=
85586,2015,07,12,18,00,AAXX 12184 85586 12460 82513 10122 20108 40130 51013 60061 888// 333 56699 85811 88618=
85586,2015,07,12,21,00,AAXX 12214 85586 42560 82406 10120 20094 40152 53021 885// 333 56699 88623=
85586,2015,07,13,00,00,AAXX 13004 85586 11656 82203 10111 20085 40178 51026 69901 70522 885// 333 10142 56799 88646=
85586,2015,07,13,03,00,AAXX 13034 85586 NIL=
85586,2015,07,13,06,00,AAXX 13064 85586 NIL=
85586,2015,07,13,09,00,AAXX 13094 85586 NIL=
85586,2015,07,13,12,00,AAXX 13124 85586 12660 89902 10085 20060 40213 53012 60064 885// 333 20067 32/// 55000 56799 70064 88640=
85586,2015,07,13,15,00,AAXX 13154 85586 42660 52804 10111 20063 40231 53018 85500 333 56600 85647=
85586,2015,07,13,18,00,AAXX 13184 85586 12760 42505 10132 20022 40227 58002 60001 84500 333 56600 84650=
85586,2015,07,13,21,00,AAXX 13214 85586 42960 62307 10109 20051 40233 52005 86030 333 56060 86365=
85586,2015,07,14,00,00,AAXX 14004 85586 11956 80901 10084 20065 40243 52009 60001 70522 8803/ 333 10139 56069 88364=
85586,2015,07,14,03,00,AAXX 14034 85586 NIL=
85586,2015,07,14,06,00,AAXX 14064 85586 NIL=
85586,2015,07,14,09,00,AAXX 14094 85586 NIL=
85586,2015,07,14,12,00,AAXX 14124 85586 12960 01103 10034 20028 40246 53006 60004 333 20031 33/// 55036 70000=
85586,2015,07,14,15,00,AAXX 14154 85586 42960 39903 10108 20060 40251 52006 80001 333 56000 83075=
85586,2015,07,14,18,00,AAXX 14184 85586 12960 01908 10150 20053 40234 58014 60001=
85586,2015,07,14,21,00,AAXX 14214 85586 42960 02412 10122 20075 40235 53000=
85586,2015,07,15,00,00,AAXX 15004 85586 11956 01103 10070 20060 40251 52014 60001 70500 333 10152=
85586,2015,07,15,03,00,AAXX 15034 85586 NIL=
85586,2015,07,15,06,00,AAXX 15064 85586 NIL=
85586,2015,07,15,09,00,AAXX 15094 85586 NIL=
85586,2015,07,15,12,00,AAXX 15124 85586 12560 82104 10060 20053 40259 53003 60003 8353/ 333 20031 31/// 55090 56609 70000 83630 88363=
85586,2015,07,15,15,00,AAXX 15154 85586 42960 79901 10093 20069 40264 51007 87030 333 56060 87362=
85586,2015,07,15,18,00,AAXX 15184 85586 12960 79903 10125 20076 40243 56019 60001 87030 333 56060 87362=
85586,2015,07,15,21,00,AAXX 15214 85586 42960 72504 10107 20070 40242 55003 87030 333 56060 87362=
85586,2015,07,16,00,00,AAXX 16004 85586 12960 60000 10062 20056 40247 53004 60001 86030 333 10129 56060 86366=
85586,2015,07,16,03,00,AAXX 16034 85586 NIL=
85586,2015,07,16,06,00,AAXX 16064 85586 NIL=
85586,2015,07,16,09,00,AAXX 16094 85586 NIL=
85586,2015,07,16,12,00,AAXX 16124 85586 12860 51003 10061 20049 40254 53016 60004 85030 333 20052 31/// 55003 56060 70000 85358=
85586,2015,07,16,15,00,AAXX 16154 85586 42960 00904 10131 20069 40264 51012=
85586,2015,07,16,18,00,AAXX 16184 85586 12960 02608 10149 20068 40253 58009 60001=
85586,2015,07,16,21,00,AAXX 16214 85586 42960 02408 10135 20073 40229 57025=
85586,2015,07,17,00,00,AAXX 17004 85586 12960 32303 10097 20073 40241 52010 60001 80001 333 10158 56006 83075=
85586,2015,07,17,03,00,AAXX 17034 85586 NIL=
85586,2015,07,17,06,00,AAXX 17064 85586 NIL=
85586,2015,07,17,09,00,AAXX 17094 85586 NIL=
85586,2015,07,17,12,00,AAXX 17124 85586 11950 51005 10038 20029 40189 56008 60004 71022 80002 333 20037 31/// 55090 56006 70000 85072=
85586,2015,07,17,15,00,AAXX 17154 85586 41950 72903 10106 20077 40197 53011 70522 80002 333 56006 87071=
85586,2015,07,17,18,00,AAXX 17184 85586 12960 62610 10138 20093 40193 58002 60001 80001 333 56006 86075=
85586,2015,07,17,21,00,AAXX 17214 85586 42960 52506 10126 20096 40198 53002 80001 333 56006 85075=
85586,2015,07,18,00,00,AAXX 18004 85586 11940 30000 10075 20069 40206 53007 60001 71011 80001 333 10152 56006 83075=
85586,2015,07,18,03,00,AAXX 18034 85586 NIL=
85586,2015,07,18,06,00,AAXX 18064 85586 NIL=
85586,2015,07,18,09,00,AAXX 18094 85586 NIL=
85586,2015,07,18,12,00,AAXX 18124 85586 12960 01004 10047 20043 40200 53006 60004 333 20034 31/// 55055 70000=
85586,2015,07,18,15,00,AAXX 18154 85586 42960 09902 10139 20082 40206 53007=
85586,2015,07,18,18,00,AAXX 18184 85586 12260 72509 10126 20110 40203 58003 60001 87500 333 56600 82804 85619 85623=
85586,2015,07,18,21,00,AAXX 18214 85586 42660 72410 10126 20105 40201 55002 87500 333 56600 87636=
85586,2015,07,19,00,00,AAXX 19004 85586 11356 82104 10116 20102 40210 53009 60001 70522 885// 333 10150 56799 82707 88614=
85586,2015,07,19,03,00,AAXX 19034 85586 NIL=
85586,2015,07,19,06,00,AAXX 19064 85586 NIL=
85586,2015,07,19,09,00,AAXX 19094 85586 NIL=
85586,2015,07,19,12,00,AAXX 19124 85586 11658 79902 10060 20045 40232 53014 69904 70500 82530 333 20053 31/// 55046 56760 79999 82648 87365=
85586,2015,07,19,15,00,AAXX 19154 85586 41958 20303 10111 20061 40242 52012 70500 80001 333 56006 82075=
85586,2015,07,19,18,00,AAXX 19184 85586 12560 12808 10125 20061 40233 58008 60001 81100 333 56600 81820=
85586,2015,07,19,21,00,AAXX 19214 85586 42560 72405 10116 20066 40246 53012 87500 333 56700 87632=
85586,2015,07,20,00,00,AAXX 20004 85586 11956 69902 10091 20067 40266 51019 60001 70522 86030 333 10132 56070 86362=
85586,2015,07,20,03,00,AAXX 20034 85586 NIL=
85586,2015,07,20,06,00,AAXX 20064 85586 NIL=
85586,2015,07,20,09,00,AAXX 20094 85586 NIL=
85586,2015,07,20,12,00,AAXX 20124 85586 12960 01204 10038 20029 40281 52003 60004 333 20033 33/// 55063 70000=
85586,2015,07,20,15,00,AAXX 20154 85586 42960 01505 10100 20050 40282 50003=
85586,2015,07,20,18,00,AAXX 20184 85586 12960 02506 10145 20069 40263 58017 60001=
85586,2015,07,20,21,00,AAXX 20214 85586 42960 02408 10134 20077 40250 56013=
85586,2015,07,21,00,00,AAXX 21004 85586 11956 01807 10097 20039 40237 57014 60001 70500 333 10161=
85586,2015,07,21,03,00,AAXX 21034 85586 NIL=
85586,2015,07,21,06,00,AAXX 21064 85586 NIL=
85586,2015,07,21,09,00,AAXX 21094 85586 NIL=
85586,2015,07,21,12,00,AAXX 21124 85586 12960 21406 10053 20018 40192 54000 60004 80001 333 20033 31/// 55092 56006 70000 82075=
85586,2015,07,21,15,00,AAXX 21154 85586 42960 31806 10125 20029 40208 51017 80001 333 56005 83073=
85586,2015,07,21,18,00,AAXX 21184 85586 12960 22607 10148 20046 40191 58015 60001 80001 333 56006 82073=
85586,2015,07,21,21,00,AAXX 21214 85586 42960 02307 10143 20062 40184 55007=
85586,2015,07,22,00,00,AAXX 22004 85586 11960 02205 10093 20041 40191 52007 60001 333 10177=
85586,2015,07,22,03,00,AAXX 22034 85586 NIL=
85586,2015,07,22,06,00,AAXX 22064 85586 NIL=
85586,2015,07,22,09,00,AAXX 22094 85586 NIL=
85586,2015,07,22,12,00,AAXX 22124 85586 12960 61303 10040 20025 40202 53010 60004 80002 333 10026 31/// 55081 70000 86070=
85586,2015,07,22,15,00,AAXX 22154 85586 42960 39902 10115 20043 40225 51024 80001 333 56006 83070=
85586,2015,07,22,18,00,AAXX 22184 85586 12960 02607 10126 20081 40219 57006 60001=
85586,2015,07,22,21,00,AAXX 22214 85586 42960 02705 10119 20090 40226 53007=
85586,2015,07,23,00,00,AAXX 23004 85586 12260 80903 10100 20092 40240 52014 60001 886// 333 10136 56099 88705=
85586,2015,07,23,03,00,AAXX 23034 85586 NIL=
85586,2015,07,23,06,00,AAXX 23064 85586 NIL=
85586,2015,07,23,09,00,AAXX 23094 85586 NIL=
85586,2015,07,23,12,00,AAXX 23124 85586 12960 01003 10045 20039 40230 54000 60004 333 20035 31/// 55076 70000=
85586,2015,07,23,15,00,AAXX 23154 85586 41958 12504 10127 20086 40227 54000 70500 80001 333 56006 81075=
85586,2015,07,23,18,00,AAXX 23184 85586 12960 01404 10201 20086 40197 58026 60001=
85586,2015,07,23,21,00,AAXX 23214 85586 42960 02704 10147 20109 40185 57015=
85586,2015,07,24,00,00,AAXX 24004 85586 11940 00203 10096 20094 40189 53003 60001 71000 333 10205=
85586,2015,07,24,03,00,AAXX 24034 85586 NIL=
85586,2015,07,24,06,00,AAXX 24064 85586 NIL=
85586,2015,07,24,09,00,AAXX 24094 85586 NIL=
85586,2015,07,24,12,00,AAXX 24124 85586 11950 29901 10032 20031 40180 52002 60004 71000 80001 333 20031 31/// 55087 56006 70000 82073=
85586,2015,07,24,15,00,AAXX 24154 85586 41457 61004 10097 20096 40167 58008 70522 86500 333 56200 86610=
85586,2015,07,24,18,00,AAXX 24184 85586 11157 82405 10109 20093 40170 50002 69921 70522 886// 333 56699 88703=
85586,2015,07,24,21,00,AAXX 24214 85586 41140 83303 10104 20098 40171 53001 71022 886// 333 56899 88702=
85586,2015,07,25,00,00,AAXX 25004 85586 11156 82504 10099 20094 40178 53008 60001 70522 886// 333 10119 56799 88702=
85586,2015,07,25,03,00,AAXX 25034 85586 NIL=
85586,2015,07,25,06,00,AAXX 25064 85586 NIL=
85586,2015,07,25,09,00,AAXX 25094 85586 NIL=
85586,2015,07,25,12,00,AAXX 25124 85586 11106 80704 10087 20086 40181 53005 69944 74444 886// 333 20083 31/// 55011 56799 70004 88702=
85586,2015,07,25,15,00,AAXX 25154 85586 41106 82803 10095 20094 40185 50006 74644 886// 333 56799 88702=
85586,2015,07,25,18,00,AAXX 25184 85586 11340 72505 10122 20099 40152 57032 60001 71022 87600 333 56600 87708=
85586,2015,07,25,21,00,AAXX 25214 85586 41112 82803 10102 20094 40136 58017 71022 886// 333 56699 88702=
85586,2015,07,26,00,00,AAXX 26004 85586 11106 82603 10095 20087 40148 53012 60001 74244 886// 333 10124 56799 88703=
85586,2015,07,26,03,00,AAXX 26034 85586 NIL=
85586,2015,07,26,06,00,AAXX 26064 85586 12960 50000 10079 20047 39535 40157 54001 60001 80001 333 56000 85075=
85586,2015,07,26,09,00,AAXX 26094 85586 NIL=
85586,2015,07,26,12,00,AAXX 26124 85586 11008 80803 10077 20076 40137 53003 69904 74444 886// 333 20076 33/// 55000 56799 79999 83701 88705=
85586,2015,07,26,15,00,AAXX 26154 85586 41220 80403 10098 20097 40147 52011 75044 886// 333 56799 83704 88706=
85586,2015,07,26,18,00,AAXX 26184 85586 12560 83606 10140 20101 40135 58011 60001 885// 333 56799 88623=
85586,2015,07,26,21,00,AAXX 26214 85586 42560 73506 10152 20094 40135 55000 84501 333 56706 84627 87075=
85586,2015,07,27,00,00,AAXX 27004 85586 11556 83604 10137 20090 40151 53015 69901 70522 885// 333 10156 56799 88628=
85586,2015,07,27,03,00,AAXX 27034 85586 NIL=
85586,2015,07,27,06,00,AAXX 27064 85586 NIL=
85586,2015,07,27,09,00,AAXX 27094 85586 NIL=
85586,2015,07,27,12,00,AAXX 27124 85586 12560 80405 10130 20081 40160 53010 69904 885// 333 20118 31/// 55011 56699 70000 88630=
85586,2015,07,27,15,00,AAXX 27154 85586 41458 82606 10132 20109 40169 53009 75022 888// 333 56699 83812 886306=
85586,2015,07,27,18,00,AAXX 27184 85586 11440 83308 10127 20110 40163 58006 69921 75262 885// 333 56799 88612=
85586,2015,07,27,21,00,AAXX 27214 85586 41457 83306 10139 20118 40169 53006 70522 886// 333 56799 88715=
85586,2015,07,28,00,00,AAXX 28004 85586 11660 32303 10112 20104 40177 53008 69921 70162 83500 333 10152 56600 83640=
85586,2015,07,28,03,00,AAXX 28034 85586 NIL=
85586,2015,07,28,06,00,AAXX 28064 85586 NIL=
85586,2015,07,28,09,00,AAXX 28094 85586 NIL=
85586,2015,07,28,12,00,AAXX 28124 85586 11106 80704 10111 20110 40178 53004 69944 74622 886// 333 20087 31/// 55000 56099 70004 88703=
85586,2015,07,28,15,00,AAXX 28154 85586 41130 89902 10118 20116 40185 52008 71042 886// 333 56699 88702=
85586,2015,07,28,18,00,AAXX 28184 85586 11430 82408 10122 20114 40183 55003 60001 71022 886// 333 56699 88710=
85586,2015,07,28,21,00,AAXX 28214 85586 41240 70504 10124 20116 40184 52001 71022 87600 333 56600 87606=
85586,2015,07,29,00,00,AAXX 29004 85586 11910 59902 10098 20095 40191 53004 60001 71022 80001 333 10132 56006 85073=
85586,2015,07,29,03,00,AAXX 29034 85586 NIL=
85586,2015,07,29,06,00,AAXX 29064 85586 NIL=
85586,2015,07,29,09,00,AAXX 29094 85586 NIL=
85586,2015,07,29,12,00,AAXX 29124 85586 11950 51204 10078 20077 40163 53006 60004 71000 80001 333 20070 31/// 55000 56006 70000 85075=
85586,2015,07,29,15,00,AAXX 29154 85586 41958 39902 10129 20106 40155 55006 70511 80001 333 56003 83072=
85586,2015,07,29,18,00,AAXX 29184 85586 12960 22606 10158 20097 40140 56014 69921 80001 333 56006 82073=
85586,2015,07,29,21,00,AAXX 29214 85586 42960 22505 10139 20104 40147 53006 80001 333 56006 82075=
85586,2015,07,30,00,00,AAXX 30004 85586 12960 20000 10090 20084 40150 52002 60001 80001 333 10173 56006 82075=
85586,2015,07,30,03,00,AAXX 30034 85586 NIL=
85586,2015,07,30,06,00,AAXX 30064 85586 NIL=
85586,2015,07,30,09,00,AAXX 30094 85586 NIL=
85586,2015,07,30,12,00,AAXX 30124 85586 11131 80703 10067 20066 40169 53024 69924 71022 886// 333 20047 31/// 55075 56699 70002 88702=
85586,2015,07,30,15,00,AAXX 30154 85586 41440 80705 10103 20100 40178 51012 71022 886// 333 56299 88711=
85586,2015,07,30,18,00,AAXX 30184 85586 12960 73105 10142 20091 40167 55011 60001 87070 333 56060 87365=
85586,2015,07,30,21,00,AAXX 30214 85586 41123 83607 10109 20106 40188 53021 76311 888// 333 56899 85803 88609=
85586,2015,07,31,00,00,AAXX 31004 85586 11756 80705 10108 20103 40219 52027 60181 76266 8802/ 333 10150 56069 88450=
85586,2015,07,31,03,00,AAXX 31034 85586 NIL=
85586,2015,07,31,06,00,AAXX 31064 85586 NIL=
85586,2015,07,31,09,00,AAXX 31094 85586 NIL=
85586,2015,07,31,12,00,AAXX 31124 85586 12960 09902 10065 20062 40236 53004 60184 333 20052 32/// 55000 70184=
85586,2015,07,31,15,00,AAXX 31154 85586 42960 11104 10123 20097 40220 58013 80001 333 56003 81073=
85586,2015,07,31,18,00,AAXX 31184 85586 12960 32409 10145 20106 40204 58015 60001 80001 333 56006 83071=
85586,2015,07,31,21,00,AAXX 31214 85586 42960 79902 10126 20100 40201 55004 80008 333 56006 87271=
85586,2015,08,01,00,00,AAXX 01004 85586 11956 81201 10107 20101 40199 55002 60001 70522 8803/ 333 10151 56069 88365=
85586,2015,08,01,03,00,AAXX 01034 85586 NIL=
85586,2015,08,01,06,00,AAXX 01064 85586 NIL=
85586,2015,08,01,09,00,AAXX 01094 85586 NIL=
85586,2015,08,01,12,00,AAXX 01124 85586 12960 89902 10067 20057 40183 53008 60004 8803/ 333 20060 31/// 55054 56069 70000 88365=
85586,2015,08,01,15,00,AAXX 01154 85586 42960 53605 10147 20066 40186 50006 80001 333 56006 85075=
85586,2015,08,01,18,00,AAXX 01184 85586 12960 63109 10147 20102 40179 58006 60001 80004 333 56006 86073=
85586,2015,08,01,21,00,AAXX 01214 85586 42560 73406 10137 20114 40180 55001 82130 333 56660 82820 86365=
85586,2015,08,02,00,00,AAXX 02004 85586 11556 83604 10141 20113 40184 52005 69901 70522 885// 333 10162 56799 88627=
85586,2015,08,02,03,00,AAXX 02034 85586 NIL=
85586,2015,08,02,06,00,AAXX 02064 85586 NIL=
85586,2015,08,02,09,00,AAXX 02094 85586 NIL=
85586,2015,08,02,12,00,AAXX 02124 85586 11230 80804 10117 20114 40206 58001 60044 75266 886// 333 20116 32/// 55044 56099 70038 88706=
85586,2015,08,02,15,00,AAXX 02154 85586 41160 80903 10127 20122 40216 51012 70522 885// 333 56699 82803 88615=
85586,2015,08,02,18,00,AAXX 02184 85586 12460 81904 10142 20114 40203 58012 60001 888// 333 56699 83812 88620=
85586,2015,08,02,21,00,AAXX 02214 85586 41540 82404 10132 20123 40204 55001 71022 8453/ 333 56699 84625 88365=
85586,2015,08,03,00,00,AAXX 03004 85586 12960 81303 10119 20113 40212 52011 60001 8803/ 333 10149 56009 88366=
85586,2015,08,03,03,00,AAXX 03034 85586 NIL=
85586,2015,08,03,06,00,AAXX 03064 85586 NIL=
85586,2015,08,03,09,00,AAXX 03094 85586 NIL=
85586,2015,08,03,12,00,AAXX 03124 85586 11260 51803 10089 20085 40176 55007 69924 70352 83601 333 20081 31/// 55000 56506 70002 83704 85075=
85586,2015,08,03,15,00,AAXX 03154 85586 42960 71405 10122 20101 40158 58016 80002 333 56006 87070=
85586,2015,08,03,18,00,AAXX 03184 85586 12960 52205 10135 20102 40161 51006 60001 80002 333 56006 85070=
85586,2015,08,03,21,00,AAXX 03214 85586 42960 61603 10160 20110 40144 55019 86030 333 56060 86367=
85586,2015,08,04,00,00,AAXX 04004 85586 12960 71303 10129 20101 40133 58011 60001 87030 333 10179 56060 87367=
85586,2015,08,04,03,00,AAXX 04034 85586 NIL=
85586,2015,08,04,06,00,AAXX 04064 85586 NIL=
85586,2015,08,04,09,00,AAXX 04094 85586 NIL=
85586,2015,08,04,12,00,AAXX 04124 85586 12960 51304 10103 20082 40110 55003 60004 80002 333 20088 31/// 55007 56006 70000 85070=
85586,2015,08,04,15,00,AAXX 04154 85586 42960 60304 10123 20102 40130 51023 80009 333 56008 86172=
85586,2015,08,04,18,00,AAXX 04184 85586 12960 50103 10197 20128 40100 58028 60001 80002 333 56008 85072=
85586,2015,08,04,21,00,AAXX 04214 85586 42360 72405 10129 20113 40129 51026 87530 333 56660 82608 87366=
85586,2015,08,05,00,00,AAXX 05004 85586 12960 83403 10127 20086 40117 58016 60001 8803/ 333 10198 56009 88365=
85586,2015,08,05,03,00,AAXX 05034 85586 NIL=
85586,2015,08,05,06,00,AAXX 05064 85586 NIL=
85586,2015,08,05,09,00,AAXX 05094 85586 NIL=
85586,2015,08,05,12,00,AAXX 05124 85586 11958 89903 10129 20099 40103 53009 60004 70522 8807/ 333 20118 31/// 55024 5606/ 70000 88362=
85586,2015,08,05,15,00,AAXX 05154 85586 42960 80208 10139 20111 40115 53008 8807/ 333 56069 85359 88361=
85586,2015,08,05,18,00,AAXX 05184 85586 12860 80515 10168 20083 40099 58016 69921 8807/ 333 56019 88358=
85586,2015,08,05,21,00,AAXX 05214 85586 41450 83407 10131 20120 40101 51001 76366 8757/ 333 56889 82611 88357=
85586,2015,08,06,00,00,AAXX 06004 85586 11656 80308 10127 20101 40099 55002 60051 76366 8802/ 333 10178 56069 82634 88457=
85586,2015,08,06,03,00,AAXX 06034 85586 NIL=
85586,2015,08,06,06,00,AAXX 06064 85586 NIL=
85586,2015,08,06,09,00,AAXX 06094 85586 NIL=
85586,2015,08,06,12,00,AAXX 06124 85586 11456 80115 10123 20107 40051 53010 60224 78188 882// 333 20114 32/// 55000 56799 70224 85816 88826=
85586,2015,08,06,15,00,AAXX 06154 85586 41456 83515 10131 20117 40063 53014 76566 882// 333 56799 88818=
85586,2015,08,06,18,00,AAXX 06184 85586 11257 83510 10124 20119 40079 51015 60251 76166 888// 333 56799 82704 88806=
85586,2015,08,06,21,00,AAXX 06214 85586 41456 79902 10127 20122 40098 51018 70555 82800 333 56700 82613 86843=
85586,2015,08,07,00,00,AAXX 07004 85586 11256 80302 10128 20125 40119 51021 60061 70566 886// 333 10135 56799 82704 88707=
85586,2015,08,07,03,00,AAXX 07034 85586 NIL=
85586,2015,08,07,06,00,AAXX 07064 85586 NIL=
85586,2015,08,07,09,00,AAXX 07094 85586 NIL=
85586,2015,08,07,12,00,AAXX 07124 85586 11458 81103 10110 20104 40089 51002 60314 70522 885// 333 20108 32/// 55000 56799 70310 88615=
85586,2015,08,07,15,00,AAXX 07154 85586 42460 81103 10129 20115 40080 57007 888// 333 56699 83815 88630=
85586,2015,08,07,18,00,AAXX 07184 85586 11456 80705 10130 20116 40053 58031 60021 78082 888// 333 56699 84815 88630=
85586,2015,08,07,21,00,AAXX 07214 85586 41215 80703 10134 20129 40024 56026 76462 886// 333 56699 88706=
85586,2015,08,08,00,00,AAXX 08004 85586 11456 80310 10150 20134 40019 56003 60121 70566 887// 333 10151 56799 82713 88622=
85586,2015,08,08,03,00,AAXX 08034 85586 NIL=
85586,2015,08,08,06,00,AAXX 08064 85586 NIL=
85586,2015,08,08,09,00,AAXX 08094 85586 NIL=
85586,2015,08,08,12,00,AAXX 08124 85586 11660 70316 10126 20083 40037 53017 60314 70266 85530 333 20110 32/// 55000 56110 70314 85640 85368=
85586,2015,08,08,15,00,AAXX 08154 85586 41460 70320 10162 20067 40057 51019 78022 87800 333 56100 84818 86640=
85586,2015,08,08,18,00,AAXX 08184 85586 11560 70220 10155 20083 40070 50013 60001 78022 87500 333 56100 87620=
85586,2015,08,08,21,00,AAXX 08214 85586 42560 50224 10151 20079 40091 51023 85530 333 56110 82620 85358=
85586,2015,08,09,00,00,AAXX 09004 85586 11560 83615 10129 20086 40131 52038 69961 70262 885// 333 10165 56099 88630=
85586,2015,08,09,03,00,AAXX 09034 85586 NIL=
85586,2015,08,09,06,00,AAXX 09064 85586 NIL=
85586,2015,08,09,09,00,AAXX 09094 85586 NIL=
85586,2015,08,09,12,00,AAXX 09124 85586 11460 70206 10112 20101 40201 51016 60034 70262 83230 333 20111 32/// 55023 56660 70034 83815 87361=
85586,2015,08,09,15,00,AAXX 09154 85586 42460 73406 10131 20101 40206 50005 87800 333 56700 85814 86640=
85586,2015,08,09,18,00,AAXX 09184 85586 11340 82408 10107 20104 40204 58002 60021 78182 886// 333 56599 88707=
85586,2015,08,09,21,00,AAXX 09214 85586 41356 89901 10108 20100 40212 53007 70562 886// 333 56599 88708=
85586,2015,08,10,00,00,AAXX 10004 85586 11560 80803 10100 20094 40222 51011 60031 70266 885// 333 10133 56699 83630 88640=
85586,2015,08,10,03,00,AAXX 10034 85586 NIL=
85586,2015,08,10,06,00,AAXX 10064 85586 NIL=
85586,2015,08,10,09,00,AAXX 10094 85586 NIL=
85586,2015,08,10,12,00,AAXX 10124 85586 11560 81403 10091 20082 40213 53014 60064 70262 885// 333 20086 32/// 55001 56099 70056 88625=
85586,2015,08,10,15,00,AAXX 10154 85586 42460 29904 10124 20089 40208 58004 82500 333 56300 82619=
85586,2015,08,10,18,00,AAXX 10184 85586 12560 42510 10135 20082 40187 58019 60001 84800 333 56600 82829 84639=
85586,2015,08,10,21,00,AAXX 10214 85586 42560 22312 10132 20089 40191 53002 82100 333 56600 82831=
85586,2015,08,11,00,00,AAXX 11004 85586 12960 02206 10100 20076 40210 53018 60001 333 10143=
85586,2015,08,11,03,00,AAXX 11034 85586 NIL=
85586,2015,08,11,06,00,AAXX 11064 85586 NIL=
85586,2015,08,11,09,00,AAXX 11094 85586 NIL=
85586,2015,08,11,12,00,AAXX 11124 85586 12960 01703 10050 20046 40218 53004 60004 333 20031 31/// 55054 70000=
85586,2015,08,11,15,00,AAXX 11154 85586 42960 01605 10121 20066 40224 52008=
85586,2015,08,11,18,00,AAXX 11184 85586 12960 09905 10160 20068 40205 58018 60001=
85586,2015,08,11,21,00,AAXX 11214 85586 42960 02310 10136 20085 40196 56009=
85586,2015,08,12,00,00,AAXX 12004 85586 11958 01905 10095 20068 40207 53009 60001 70500 333 10160=
85586,2015,08,12,03,00,AAXX 12034 85586 NIL=
85586,2015,08,12,06,00,AAXX 12064 85586 NIL=
85586,2015,08,12,09,00,AAXX 12094 85586 NIL=
85586,2015,08,12,12,00,AAXX 12124 85586 11930 11103 10023 20020 40214 53024 60004 71000 81030 333 20017 31/// 55096 56060 70000 81365=
85586,2015,08,12,15,00,AAXX 12154 85586 41658 53505 10100 20056 40231 51020 70511 85500 333 56700 85642=
85586,2015,08,12,18,00,AAXX 12184 85586 12660 43006 10118 20072 40229 57001 60001 84400 333 56600 84647=
85586,2015,08,12,21,00,AAXX 12214 85586 42560 52404 10120 20052 40234 53005 85800 333 56600 81833 85643=
85586,2015,08,13,00,00,AAXX 13004 85586 11656 22202 10076 20058 40237 52001 60001 70511 82500 333 10125 56700 82634=
85586,2015,08,13,03,00,AAXX 13034 85586 NIL=
85586,2015,08,13,06,00,AAXX 13064 85586 NIL=
85586,2015,08,13,09,00,AAXX 13094 85586 NIL=
85586,2015,08,13,12,00,AAXX 13124 85586 11950 51104 10058 20054 40205 55001 60003 70511 80001 333 20054 31/// 55066 56006 70000 85075=
85586,2015,08,13,15,00,AAXX 13154 85586 41958 50803 10119 20082 40204 50000 70511 80001 333 56006 85075=
85586,2015,08,13,18,00,AAXX 13184 85586 12960 32409 10133 20088 40187 57016 60001 80001 333 56006 83070=
85586,2015,08,13,21,00,AAXX 13214 85586 42960 42408 10133 20094 40181 55007 80001 333 56006 84070=
85586,2015,08,14,00,00,AAXX 14004 85586 11956 52204 10101 20079 40190 53008 60001 70500 80001 333 10143 56006 85075=
85586,2015,08,14,03,00,AAXX 14034 85586 NIL=
85586,2015,08,14,06,00,AAXX 14064 85586 NIL=
85586,2015,08,14,09,00,AAXX 14094 85586 NIL=
85586,2015,08,14,12,00,AAXX 14124 85586 12660 71302 10080 20076 40231 52018 60004 87500 333 20070 31/// 55083 56600 70000 87633=
85586,2015,08,14,15,00,AAXX 14154 85586 42560 52206 10129 20084 40251 51022 85500 333 56500 85620=
85586,2015,08,14,18,00,AAXX 14184 85586 12560 52508 10139 20075 40257 50006 60001 85500 333 56600 85625=
85586,2015,08,14,21,00,AAXX 14214 85586 42960 72405 10124 20073 40256 55001 80004 333 56006 87070=
85586,2015,08,15,00,00,AAXX 15004 85586 12960 70000 10099 20082 40251 58003 60001 87030 333 10144 56060 87366=
85586,2015,08,15,03,00,AAXX 15034 85586 NIL=
85586,2015,08,15,06,00,AAXX 15064 85586 NIL=
85586,2015,08,15,09,00,AAXX 15094 85586 NIL=
85586,2015,08,15,12,00,AAXX 15124 85586 12960 71203 10063 20049 40223 58001 60004 83031 333 20055 31/// 55054 56066 70000 83365 85070=
85586,2015,08,15,15,00,AAXX 15154 85586 42960 79902 10123 20068 40225 50002 80004 333 56006 87070=
85586,2015,08,15,18,00,AAXX 15184 85586 12960 72409 10130 20068 40217 57005 60001 87030 333 56060 87362=
85586,2015,08,15,21,00,AAXX 15214 85586 42960 72205 10127 20063 40210 56009 87030 333 56060 87360=
85586,2015,08,16,00,00,AAXX 16004 85586 12960 32004 10096 20067 40203 57008 60001 83030 333 10143 56060 83365=
85586,2015,08,16,03,00,AAXX 16034 85586 NIL=
85586,2015,08,16,06,00,AAXX 16064 85586 NIL=
85586,2015,08,16,09,00,AAXX 16094 85586 NIL=
85586,2015,08,16,12,00,AAXX 16124 85586 12960 01203 10036 20029 40168 54000 60004 333 20034 31/// 55000 70000=
85586,2015,08,16,15,00,AAXX 16154 85586 42960 02404 10114 20060 40170 50004=
85586,2015,08,16,18,00,AAXX 16184 85586 12960 02511 10131 20053 40161 58008 60001=
85586,2015,08,16,21,00,AAXX 16214 85586 42960 02806 10128 20062 40180 53018=
85586,2015,08,17,00,00,AAXX 17004 85586 12960 00303 10091 20060 40208 53026 60001 333 10141=
85586,2015,08,17,03,00,AAXX 17034 85586 NIL=
85586,2015,08,17,06,00,AAXX 17064 85586 NIL=
85586,2015,08,17,09,00,AAXX 17094 85586 NIL=
85586,2015,08,17,12,00,AAXX 17124 85586 12660 21103 10057 20047 40228 53014 60004 82600 333 20042 31/// 55097 56600 70000 82733=
85586,2015,08,17,15,00,AAXX 17154 85586 42560 12405 10134 20085 40242 51016 81100 333 56600 81824=
85586,2015,08,17,18,00,AAXX 17184 85586 12660 22609 10137 20082 40241 57001 60001 82600 333 56600 82734=
85586,2015,08,17,21,00,AAXX 17214 85586 42960 02408 10133 20071 40239 57002=
85586,2015,08,18,00,00,AAXX 18004 85586 NIL=
85586,2015,08,18,03,00,AAXX 18034 85586 NIL=
85586,2015,08,18,06,00,AAXX 18064 85586 NIL=
85586,2015,08,18,09,00,AAXX 18094 85586 NIL=
85586,2015,08,18,12,00,AAXX 18124 85586 12960 01203 10061 20051 40226 55004 60003 333 20037 31/// 55072 70000=
85586,2015,08,18,15,00,AAXX 18154 85586 42960 01405 10149 20078 40213 58011=
85586,2015,08,18,18,00,AAXX 18184 85586 12960 01807 10195 20064 40185 58027 60001=
85586,2015,08,18,21,00,AAXX 18214 85586 42960 01808 10202 20074 40164 56021=
85586,2015,08,19,00,00,AAXX 19004 85586 11958 31905 10146 20086 40158 56007 60001 70500 80001 333 10209 56006 83075=
85586,2015,08,19,03,00,AAXX 19034 85586 NIL=
85586,2015,08,19,06,00,AAXX 19064 85586 NIL=
85586,2015,08,19,09,00,AAXX 19094 85586 NIL=
85586,2015,08,19,12,00,AAXX 19124 85586 12960 01103 10071 20064 40135 53003 60004 333 20045 31/// 55101 70000=
85586,2015,08,19,15,00,AAXX 19154 85586 41258 22907 10134 20108 40142 53009 70500 82600 333 56600 82704=
85586,2015,08,19,18,00,AAXX 19184 85586 11257 83009 10133 20115 40148 51006 60001 70522 886// 333 56799 88706=
85586,2015,08,19,21,00,AAXX 19214 85586 42460 73210 10142 20110 40161 53012 87500 333 56600 87618=
85586,2015,08,20,00,00,AAXX 20004 85586 11556 53104 10121 20110 40171 51010 60001 70522 82501 333 10162 56706 82623 85075=
85586,2015,08,20,03,00,AAXX 20034 85586 NIL=
85586,2015,08,20,06,00,AAXX 20064 85586 NIL=
85586,2015,08,20,09,00,AAXX 20094 85586 NIL=
85586,2015,08,20,12,00,AAXX 20124 85586 11220 43603 10096 20093 40154 53017 60004 71022 81630 333 20084 31/// 55054 56660 70000 81705 83361=
85586,2015,08,20,15,00,AAXX 20154 85586 41456 83204 10129 20110 40171 51018 70522 885// 333 56799 88612=
85586,2015,08,20,18,00,AAXX 20184 85586 12360 82909 10136 20117 40156 56015 60001 888// 333 56699 82808 88621=
85586,2015,08,20,21,00,AAXX 20214 85586 42360 83105 10133 20114 40148 56008 888// 333 56799 82809 88625=
85586,2015,08,21,00,00,AAXX 21004 85586 12560 83204 10128 20109 40149 54000 60001 885// 333 10141 56099 88623=
85586,2015,08,21,03,00,AAXX 21034 85586 NIL=
85586,2015,08,21,06,00,AAXX 21064 85586 NIL=
85586,2015,08,21,09,00,AAXX 21094 85586 NIL=
85586,2015,08,21,12,00,AAXX 21124 85586 12560 73305 10123 20100 40148 53008 60004 87500 333 20105 31/// 55000 56600 70000 82620 87630=
85586,2015,08,21,15,00,AAXX 21154 85586 42460 83409 10137 20098 40164 51016 888// 333 56899 82818 88638=
85586,2015,08,21,18,00,AAXX 21184 85586 12660 83309 10133 20107 40161 58002 60001 888// 333 56899 85838 88645=
85586,2015,08,21,21,00,AAXX 21214 85586 42560 73410 10140 20108 40166 53004 87800 333 56800 82823 87638=
85586,2015,08,22,00,00,AAXX 22004 85586 11150 80104 10102 20097 40196 53027 60051 76322 885// 333 10150 56799 82703 88635=
85586,2015,08,22,03,00,AAXX 22034 85586 NIL=
85586,2015,08,22,06,00,AAXX 22064 85586 NIL=
85586,2015,08,22,09,00,AAXX 22094 85586 NIL=
85586,2015,08,22,12,00,AAXX 22124 85586 11660 51804 10070 20067 40216 53011 60084 70266 85500 333 20058 32/// 55007 56600 70080 85640=
85586,2015,08,22,15,00,AAXX 22154 85586 42460 52003 10137 20086 40231 51016 81131 333 56666 81815 85075=
85586,2015,08,22,18,00,AAXX 22184 85586 12460 52607 10156 20100 40218 58010 60001 81502 333 56606 81613 85075=
85586,2015,08,22,21,00,AAXX 22214 85586 42460 52209 10137 20087 40214 55007 81602 333 56606 81710 85075=
85586,2015,08,23,00,00,AAXX 23004 85586 NIL=
85586,2015,08,23,03,00,AAXX 23034 85586 NIL=
85586,2015,08,23,06,00,AAXX 23064 85586 NIL=
85586,2015,08,23,09,00,AAXX 23094 85586 NIL=
85586,2015,08,23,12,00,AAXX 23124 85586 12960 61003 10075 20063 40189 52013 60004 80001 333 20068 32/// 55062 56006 70000 86075=
85586,2015,08,23,15,00,AAXX 23154 85586 42960 82406 10131 20092 40185 58002 8803/ 333 56069 88365=
85586,2015,08,23,18,00,AAXX 23184 85586 12960 81803 10162 20095 40169 58015 60001 8803/ 333 56069 88365=
85586,2015,08,23,21,00,AAXX 23214 85586 42960 82106 10141 20096 40162 55009 8803/ 333 56069 88365=
85586,2015,08,24,00,00,AAXX 24004 85586 11358 82509 10128 20110 40164 53003 60001 70522 8263/ 333 10171 56769 82706 88365=
85586,2015,08,24,03,00,AAXX 24034 85586 NIL=
85586,2015,08,24,06,00,AAXX 24064 85586 NIL=
85586,2015,08,24,09,00,AAXX 24094 85586 NIL=
85586,2015,08,24,12,00,AAXX 24124 85586 12960 79902 10075 20071 40140 50002 60004 80001 333 20056 31/// 55002 56006 70000 87075=
85586,2015,08,24,15,00,AAXX 24154 85586 41958 70303 10145 20104 40146 50008 70511 80001 333 56006 87075=
85586,2015,08,24,18,00,AAXX 24184 85586 12960 52607 10151 20111 40131 56014 60001 80001 333 56006 85073=
85586,2015,08,24,21,00,AAXX 24214 85586 42960 42509 10136 20094 40132 53001 80001 333 56006 84075=
85586,2015,08,25,00,00,AAXX 25004 85586 11456 82803 10123 20107 40144 53012 60001 70522 886// 333 10185 56799 88710=
85586,2015,08,25,03,00,AAXX 25034 85586 NIL=
85586,2015,08,25,06,00,AAXX 25064 85586 NIL=
85586,2015,08,25,09,00,AAXX 25094 85586 NIL=
85586,2015,08,25,12,00,AAXX 25124 85586 11558 80406 10119 20088 40164 53016 60004 70522 886// 333 20095 31/// 55071 56799 70000 88624=
85586,2015,08,25,15,00,AAXX 25154 85586 42960 83611 10142 20095 40174 53011 8803/ 333 56069 88362=
85586,2015,08,25,18,00,AAXX 25184 85586 12660 83312 10149 20097 40179 53005 60001 885// 333 56799 88644=
85586,2015,08,25,21,00,AAXX 25214 85586 41460 83310 10132 20108 40185 53006 75055 888// 333 56799 82815 88634=
85586,2015,08,26,00,00,AAXX 26004 85586 11458 80105 10121 20110 40205 51019 60031 70566 885// 333 10159 56799 88619=
85586,2015,08,26,03,00,AAXX 26034 85586 NIL=
85586,2015,08,26,06,00,AAXX 26064 85586 NIL=
85586,2015,08,26,09,00,AAXX 26094 85586 NIL=
85586,2015,08,26,12,00,AAXX 26124 85586 11960 41203 10091 20087 40232 53004 60033 70366 80002 333 20078 32/// 55003 56006 70026 84075=
85586,2015,08,26,15,00,AAXX 26154 85586 42460 12508 10154 20112 40231 50001 81500 333 56600 81615=
85586,2015,08,26,18,00,AAXX 26184 85586 12560 52411 10160 20124 40224 58007 60001 81502 333 56606 81620 85075=
85586,2015,08,26,21,00,AAXX 26214 85586 42960 62506 10160 20124 40206 56018 80002 333 56006 86071=
85586,2015,08,27,00,00,AAXX 27004 85586 12960 20000 10109 20097 40211 52005 60001 80001 333 10167 56006 82073=
85586,2015,08,27,03,00,AAXX 27034 85586 NIL=
85586,2015,08,27,06,00,AAXX 27064 85586 NIL=
85586,2015,08,27,09,00,AAXX 27094 85586 NIL=
85586,2015,08,27,12,00,AAXX 27124 85586 12960 82408 10100 20088 40182 53009 60004 85032 333 20070 31/// 55071 56066 70000 85367 83075=
85586,2015,08,27,15,00,AAXX 27154 85586 42960 61704 10138 20101 40187 53008 86030 333 56040 86365=
85586,2015,08,27,18,00,AAXX 27184 85586 12960 80804 10158 20102 40168 58024 60001 8803/ 333 56029 88363=
85586,2015,08,27,21,00,AAXX 27214 85586 42960 80705 10154 20108 40164 55005 8803/ 333 56029 88365=
85586,2015,08,28,00,00,AAXX 28004 85586 12960 82304 10125 20112 40173 51011 60001 8803/ 333 10161 56009 88367=
85586,2015,08,28,03,00,AAXX 28034 85586 NIL=
85586,2015,08,28,06,00,AAXX 28064 85586 NIL=
85586,2015,08,28,09,00,AAXX 28094 85586 NIL=
85586,2015,08,28,12,00,AAXX 28124 85586 12960 70904 10081 20075 40176 53010 60004 80002 333 20075 31/// 55000 56006 70000 87073=
85586,2015,08,28,15,00,AAXX 28154 85586 42960 32505 10153 20074 40179 52005 80002 333 56006 83073=
85586,2015,08,28,18,00,AAXX 28184 85586 12960 32607 10158 20100 40172 58008 60001 80001 333 56006 83075=
85586,2015,08,28,21,00,AAXX 28214 85586 42260 62806 10126 20115 40168 55005 86500 333 56600 86606=
85586,2015,08,29,00,00,AAXX 29004 85586 11250 81003 10119 20107 40174 51007 60001 71022 886// 333 10171 56099 88706=
85586,2015,08,29,03,00,AAXX 29034 85586 NIL=
85586,2015,08,29,06,00,AAXX 29064 85586 NIL=
85586,2015,08,29,09,00,AAXX 29094 85586 NIL=
85586,2015,08,29,12,00,AAXX 29124 85586 12960 61103 10081 20080 40177 51008 60004 80001 333 20075 31/// 55052 56006 70000 86075=
85586,2015,08,29,15,00,AAXX 29154 85586 12960 52412 10167 20138 40158 58010 60001 80001 333 56006 85075=
85586,2015,08,29,18,00,AAXX 29184 85586 12960 52412 10167 20138 40158 58010 60001 80001 333 56006 85075=
85586,2015,08,29,21,00,AAXX 29214 85586 42960 32407 10185 20146 40144 56016 80001 333 56006 83075=
85586,2015,08,30,00,00,AAXX 30004 85586 11956 00403 10142 20133 40151 52005 60001 70500 333 10195=
85586,2015,08,30,03,00,AAXX 30034 85586 NIL=
85586,2015,08,30,06,00,AAXX 30064 85586 NIL=
85586,2015,08,30,09,00,AAXX 30094 85586 NIL=
85586,2015,08,30,12,00,AAXX 30124 85586 12960 49901 10094 20093 40150 53015 69924 80001 333 20081 31/// 55101 56006 70002 84075=
85586,2015,08,30,15,00,AAXX 30154 85586 42960 52107 10197 20150 40151 53005 80001 333 56006 85075=
85586,2015,08,30,18,00,AAXX 30184 85586 12960 32508 10215 20133 40150 58001 60001 80001 333 56006 83075=
85586,2015,08,30,21,00,AAXX 30214 85586 42960 22704 10222 20139 40144 57006 80001 333 56006 82075=
85586,2015,08,31,00,00,AAXX 31004 85586 11956 00302 10141 20123 40167 53020 60001 70500 333 10228=
85586,2015,08,31,03,00,AAXX 31034 85586 NIL=
85586,2015,08,31,06,00,AAXX 31064 85586 NIL=
85586,2015,08,31,09,00,AAXX 31094 85586 NIL=
85586,2015,08,31,12,00,AAXX 31124 85586 12960 01605 10136 20097 40169 54000 60004 333 20086 31/// 55104 70000=
85586,2015,08,31,15,00,AAXX 31154 85586 42960 01405 10207 20115 40171 50003=
85586,2015,08,31,18,00,AAXX 31184 85586 12960 02510 10204 20137 40153 58016 60001=
85586,2015,08,31,21,00,AAXX 31214 85586 42960 02409 10203 20138 40153 55001=
85586,2015,09,01,00,00,AAXX 01004 85586 11958 09902 10144 20126 40167 53012 60001 70500 333 10251=
85586,2015,09,01,03,00,AAXX 01034 85586 NIL=
85586,2015,09,01,06,00,AAXX 01064 85586 NIL=
85586,2015,09,01,09,00,AAXX 01094 85586 NIL=
85586,2015,09,01,12,00,AAXX 01124 85586 12960 01403 10144 20112 40160 53002 60004 333 20109 30/// 55109 70000=
85586,2015,09,01,15,00,AAXX 01154 85586 42960 01405 10213 20117 40170 52013=
85586,2015,09,01,18,00,AAXX 01184 85586 12960 02508 10193 20129 40161 58009 60001=
85586,2015,09,01,21,00,AAXX 01214 85586 42960 02407 10171 20127 40168 53006=
85586,2015,09,02,00,00,AAXX 02004 85586 12960 00000 10124 20108 40186 53015 60001 333 10221=
85586,2015,09,02,03,00,AAXX 02034 85586 NIL=
85586,2015,09,02,06,00,AAXX 02064 85586 NIL=
85586,2015,09,02,09,00,AAXX 02094 85586 NIL=
85586,2015,09,02,12,00,AAXX 02124 85586 12960 00803 10094 20083 40202 53006 60004 333 20066 30/// 55103 70000=
85586,2015,09,02,15,00,AAXX 02154 85586 42960 03404 10208 20126 40204 50006=
85586,2015,09,02,18,00,AAXX 02184 85586 12960 02506 10216 20120 40192 58012 60001=
85586,2015,09,02,21,00,AAXX 02214 85586 42960 03006 10172 20110 40183 56010=
85586,2015,09,03,00,00,AAXX 03004 85586 12960 00000 10122 20103 40190 50004 60001 333 10249=
85586,2015,09,03,03,00,AAXX 03034 85586 NIL=
85586,2015,09,03,06,00,AAXX 03064 85586 NIL=
85586,2015,09,03,09,00,AAXX 03094 85586 NIL=
85586,2015,09,03,12,00,AAXX 03124 85586 12960 00803 10087 20070 40174 53003 60004 333 20054 30/// 55103 70000=
85586,2015,09,03,15,00,AAXX 03154 85586 42960 02504 10184 20101 40172 50001=
85586,2015,09,03,18,00,AAXX 03184 85586 12960 02413 10165 20102 40157 58014 60001=
85586,2015,09,03,21,00,AAXX 03214 85586 42960 02506 10166 20107 40155 55003=
85586,2015,09,04,00,00,AAXX 04004 85586 12960 02303 10113 20096 40162 53005 60001 333 10189=
85586,2015,09,04,03,00,AAXX 04034 85586 NIL=
85586,2015,09,04,06,00,AAXX 04064 85586 NIL=
85586,2015,09,04,09,00,AAXX 04094 85586 NIL=
85586,2015,09,04,12,00,AAXX 04124 85586 12960 00000 10070 20067 40151 53006 60004 333 20050 31/// 55104 70000=
85586,2015,09,04,15,00,AAXX 04154 85586 42260 13005 10130 20100 40158 51009 81600 333 56000 81704=
85586,2015,09,06,00,00,AAXX 06004 85586 11556 80000 10127 20118 40145 52006 60001 70522 885// 333 10129 56799 88625=
85586,2015,09,06,03,00,AAXX 06034 85586 NIL=
85586,2015,09,06,06,00,AAXX 06064 85586 NIL=
85586,2015,09,06,09,00,AAXX 06094 85586 NIL=
85586,2015,09,06,12,00,AAXX 06124 85586 12560 80306 10138 20104 40159 51017 69944 885// 333 20123 31/// 55000 56799 70004 88630=
85586,2015,09,06,15,00,AAXX 06154 85586 42560 80108 10154 20106 40159 53001 885// 333 56799 88628=
85586,2015,09,06,18,00,AAXX 06184 85586 12660 83210 10167 20117 40141 58017 60001 885// 333 56799 88636=
85586,2015,09,06,21,00,AAXX 06214 85586 42660 53209 10158 20118 40135 55006 85200 333 56700 85840=
85586,2015,09,07,00,00,AAXX 07004 85586 11558 80105 10152 20112 40144 52009 60001 70522 885// 333 10177 56799 88625=
85586,2015,09,07,03,00,AAXX 07034 85586 NIL=
85586,2015,09,07,06,00,AAXX 07064 85586 NIL=
85586,2015,09,07,09,00,AAXX 07094 85586 NIL=
85586,2015,09,07,12,00,AAXX 07124 85586 11460 83604 10135 20122 40163 51019 60124 70266 885// 333 20123 32/// 55034 56099 70123 88611=
85586,2015,09,07,15,00,AAXX 07154 85586 41150 83507 10131 20126 40175 51013 72566 888// 333 56899 85802 88634=
85586,2015,09,07,18,00,AAXX 07184 85586 11460 83310 10135 20129 40186 51011 60081 70366 885// 333 56799 88611=
85586,2015,09,07,21,00,AAXX 07214 85586 41250 83108 10134 20126 40200 53013 78022 888// 333 56799 82806 88634=
85586,2015,09,08,00,00,AAXX 08004 85586 11830 30000 10126 20121 40220 51019 69921 71062 83030 333 10146 56060 83357=
85586,2015,09,08,03,00,AAXX 08034 85586 NIL=
85586,2015,09,08,06,00,AAXX 08064 85586 NIL=
85586,2015,09,08,09,00,AAXX 08094 85586 NIL=
85586,2015,09,08,12,00,AAXX 08124 85586 12360 80000 10109 20106 40206 52007 60084 885// 333 20081 32/// 55000 56699 70078 85707 88622=
85586,2015,09,08,15,00,AAXX 08154 85586 42360 82007 10119 20095 40217 53010 885// 333 56499 88607=
85586,2015,09,08,18,00,AAXX 08184 85586 12460 89904 10140 20099 40204 57012 60001 888// 333 56499 84818 88626=
85586,2015,09,08,21,00,AAXX 08214 85586 42560 72206 10122 20098 40191 56014 87800 333 56600 83828 87656=
85586,2015,09,09,00,00,AAXX 09004 85586 12560 82106 10114 20093 40198 53007 60001 885// 333 10147 56099 88628=
85586,2015,09,09,03,00,AAXX 09034 85586 NIL=
85586,2015,09,09,06,00,AAXX 09064 85586 NIL=
85586,2015,09,09,09,00,AAXX 09094 85586 NIL=
85586,2015,09,09,12,00,AAXX 09124 85586 12960 72403 10091 20082 40189 51011 60004 86093 333 20089 31/// 55000 56066 70000 86362=
85586,2015,09,09,15,00,AAXX 09154 85586 42460 82306 10123 20092 40199 51012 8213/ 333 56559 82615 88359=
85586,2015,09,09,18,00,AAXX 09184 85586 12560 72406 10132 20099 40196 58004 60001 82530 333 56550 82625 86362=
85586,2015,09,09,21,00,AAXX 09214 85586 42560 82308 10117 20088 40200 53003 8213/ 333 56550 82820 87360=
85586,2015,09,10,00,00,AAXX 10004 85586 12960 70000 10109 20095 40211 52012 60001 87030 333 10144 56060 87361=
85586,2015,09,10,03,00,AAXX 10034 85586 NIL=
85586,2015,09,10,06,00,AAXX 10064 85586 NIL=
85586,2015,09,10,09,00,AAXX 10094 85586 NIL=
85586,2015,09,10,12,00,AAXX 10124 85586 12960 81603 10078 20035 40230 51018 60003 8803/ 333 20064 31/// 55000 56069 70000 88365=
85586,2015,09,10,15,00,AAXX 10154 85586 42960 31605 10133 20062 40238 50010 83030 333 56060 83365=
85586,2015,09,10,18,00,AAXX 10184 85586 12960 01807 10173 20037 40232 58005 60001=
85586,2015,09,10,21,00,AAXX 10214 85586 42960 02312 10148 20072 40232 53000=
85586,2015,09,11,00,00,AAXX 11004 85586 12960 09901 10094 20063 40251 53017 60001 333 10180=
85586,2015,09,11,03,00,AAXX 11034 85586 NIL=
85586,2015,09,11,06,00,AAXX 11064 85586 NIL=
85586,2015,09,11,09,00,AAXX 11094 85586 NIL=
85586,2015,09,11,12,00,AAXX 11124 85586 12960 01905 10073 20020 40244 53006 60004 333 20050 31/// 55088 70000=
85586,2015,09,11,15,00,AAXX 11154 85586 42960 01506 10151 20037 40240 58001=
85586,2015,09,11,18,00,AAXX 11184 85586 12960 01809 10195 20025 40224 58014 60001=
85586,2015,09,11,21,00,AAXX 11214 85586 42960 02307 10167 20097 40216 55010=
85586,2015,09,12,00,00,AAXX 12004 85586 11958 02405 10104 20082 40226 53007 60001 70500 333 10202=
85586,2015,09,12,03,00,AAXX 12034 85586 NIL=
85586,2015,09,12,06,00,AAXX 12064 85586 NIL=
85586,2015,09,12,09,00,AAXX 12094 85586 NIL=
85586,2015,09,12,12,00,AAXX 12124 85586 12960 01304 10082 20048 40221 51009 60004 333 20029 31/// 55110 70000=
85586,2015,09,12,15,00,AAXX 12154 85586 42960 01304 10169 20068 40214 58005=
85586,2015,09,12,18,00,AAXX 12184 85586 12960 02413 10167 20102 40194 58019 60001=
85586,2015,09,12,21,00,AAXX 12214 85586 42960 02413 10146 20103 40188 55007=
85586,2015,09,13,00,00,AAXX 13004 85586 11958 00505 10105 20091 40198 53009 60001 70500 333 10200=
85586,2015,09,13,03,00,AAXX 13034 85586 NIL=
85586,2015,09,13,06,00,AAXX 13064 85586 NIL=
85586,2015,09,13,09,00,AAXX 13094 85586 NIL=
85586,2015,09,13,12,00,AAXX 13124 85586 12960 01203 10072 20066 40185 53004 60004 333 20045 31/// 55108 70000=
85586,2015,09,13,15,00,AAXX 13154 85586 42960 12704 10158 20102 40178 58005 80001 333 56006 81075=
85586,2015,09,13,18,00,AAXX 13184 85586 12960 32508 10152 20106 40160 58018 60001 80001 333 56006 83075=
85586,2015,09,13,21,00,AAXX 13214 85586 42960 43205 10148 20110 40148 56012 80001 333 56006 84075=
85586,2015,09,14,00,00,AAXX 14004 85586 12960 60403 10114 20098 40150 54000 60001 80002 333 10177 56006 86074=
85586,2015,09,14,03,00,AAXX 14034 85586 NIL=
85586,2015,09,14,06,00,AAXX 14064 85586 NIL=
85586,2015,09,14,09,00,AAXX 14094 85586 NIL=
85586,2015,09,14,12,00,AAXX 14124 85586 12960 81003 10098 20090 40113 52012 60004 8803/ 333 20091 30/// 55096 56009 70000 88367=
85586,2015,09,14,15,00,AAXX 14154 85586 42160 53108 10135 20121 40122 53009 85600 333 56700 85703=
85586,2015,09,14,18,00,AAXX 14184 85586 12360 63307 10150 20123 40138 50014 60001 86600 333 56700 86708=
85586,2015,09,14,21,00,AAXX 14214 85586 42360 63107 10136 20120 40140 53005 86800 333 56700 85807 86611=
85586,2015,09,15,00,00,AAXX 15004 85586 12960 53503 10123 20106 40155 53011 60001 80002 333 10154 56006 85070=
85586,2015,09,15,03,00,AAXX 15034 85586 NIL=
85586,2015,09,15,06,00,AAXX 15064 85586 NIL=
85586,2015,09,15,09,00,AAXX 15094 85586 NIL=
85586,2015,09,15,12,00,AAXX 15124 85586 NIL=
85586,2015,09,15,15,00,AAXX 15154 85586 NIL=
85586,2015,09,15,21,00,AAXX 15214 85586 NIL=
85586,2015,09,16,00,00,AAXX 16004 85586 NIL=
85586,2015,09,16,03,00,AAXX 16034 85586 NIL=
85586,2015,09,16,06,00,AAXX 16064 85586 NIL=
85586,2015,09,16,09,00,AAXX 16094 85586 NIL=
85586,2015,09,16,12,00,AAXX 16124 85586 11958 80703 10093 20087 40167 52012 60004 70522 8803/ 333 20084 31/// 55000 56069 70000 88363=
85586,2015,09,16,15,00,AAXX 16154 85586 42960 83303 10134 20099 40180 51015 8803/ 333 56069 88360=
85586,2015,09,16,18,00,AAXX 16184 85586 12960 82908 10144 20093 40180 50000 60001 8803/ 333 56069 88362=
85586,2015,09,16,21,00,AAXX 16214 85586 42960 82507 10132 20099 40182 53002 8803/ 333 56069 88362=
85586,2015,09,17,00,00,AAXX 17004 85586 11558 82405 10117 20093 40196 51013 60001 70522 885// 333 10163 56799 88623=
85586,2015,09,17,03,00,AAXX 17034 85586 NIL=
85586,2015,09,17,06,00,AAXX 17064 85586 NIL=
85586,2015,09,17,09,00,AAXX 17094 85586 NIL=
85586,2015,09,17,12,00,AAXX 17124 85586 12960 09901 10109 20088 40198 53008 60004 333 20085 31/// 55021 70000=
85586,2015,09,17,15,00,AAXX 17154 85586 42960 02508 10149 20102 40199 50002=
85586,2015,09,17,18,00,AAXX 17184 85586 12460 22315 10155 20092 40189 58009 60001 82100 333 56600 82815=
85586,2015,09,17,21,00,AAXX 17214 85586 42960 02314 10138 20080 40193 53003=
85586,2015,09,18,00,00,AAXX 18004 85586 11958 09901 10104 20069 40208 53013 60001 70500 333 10163=
85586,2015,09,18,03,00,AAXX 18034 85586 NIL=
85586,2015,09,18,06,00,AAXX 18064 85586 NIL=
85586,2015,09,18,09,00,AAXX 18094 85586 NIL=
85586,2015,09,18,12,00,AAXX 18124 85586 12960 09901 10078 20074 40207 53011 60004 333 20037 30/// 55103 70000=
85586,2015,09,18,15,00,AAXX 18154 85586 42960 02507 10128 20089 40202 58003=
85586,2015,09,18,18,00,AAXX 18184 85586 12560 12415 10145 20089 40192 58010 60001 81100 333 56600 81820=
85586,2015,09,18,21,00,AAXX 18214 85586 42960 42413 10144 20084 40189 56003 80001 333 56006 84073=
85586,2015,09,19,00,00,AAXX 19004 85586 11958 00000 10099 20077 40200 53009 60001 70500 333 10153=
85586,2015,09,19,03,00,AAXX 19034 85586 NIL=
85586,2015,09,19,06,00,AAXX 19064 85586 NIL=
85586,2015,09,19,09,00,AAXX 19094 85586 NIL=
85586,2015,09,19,12,00,AAXX 19124 85586 12960 19902 10077 20073 40172 56004 60004 80001 333 20034 30/// 55112 56006 70000 81075=
85586,2015,09,19,15,00,AAXX 19154 85586 42960 52607 10155 20092 40168 58001 80001 333 56006 85075=
85586,2015,09,19,18,00,AAXX 19184 85586 12960 52512 10154 20080 40156 58011 60001 80002 333 56006 85073=
85586,2015,09,19,21,00,AAXX 19214 85586 42960 62306 10143 20091 40146 56012 80002 333 56006 86070=
85586,2015,09,20,00,00,AAXX 20004 85586 12960 80405 10120 20085 40137 58009 60001 8803/ 333 10165 56009 88365=
85586,2015,09,20,03,00,AAXX 20034 85586 NIL=
85586,2015,09,20,06,00,AAXX 20064 85586 NIL=
85586,2015,09,20,09,00,AAXX 20094 85586 NIL=
85586,2015,09,20,12,00,AAXX 20124 85586 12960 71003 10102 20090 40100 51013 60004 87030 333 20095 30/// 55080 56070 70000 87365=
85586,2015,09,20,15,00,AAXX 20154 85586 42960 72804 10144 20105 40110 50008 83031 333 56066 83365 85075=
85586,2015,09,20,18,00,AAXX 20184 85586 12960 73106 10140 20082 40115 50007 60001 83032 333 56066 83365 85070=
85586,2015,09,20,21,00,AAXX 20214 85586 42960 73105 10137 20105 40117 53002 83032 333 56066 83363 85070=
85586,2015,09,21,00,00,AAXX 21004 85586 12260 53403 10120 20111 40131 52014 60001 83630 333 10162 56660 83706 85365=
85586,2015,09,21,03,00,AAXX 21034 85586 NIL=
85586,2015,09,21,06,00,AAXX 21064 85586 NIL=
85586,2015,09,21,09,00,AAXX 21094 85586 NIL=
85586,2015,09,21,12,00,AAXX 21124 85586 12860 70603 10125 20098 40162 52014 60004 87030 333 20106 30/// 55013 56060 70000 87357=
85586,2015,09,21,18,00,AAXX 21184 85586 12660 82706 10149 20109 40170 58001 60001 8853/ 333 566// 82643 88357=
85586,2015,09,21,21,00,AAXX 21214 85586 42660 12607 10149 20095 40158 55012 81100 333 56600 81840=
85586,2015,09,22,00,00,AAXX 22004 85586 12660 40000 10107 20086 40162 52003 60001 84500 333 10157 56600 84640=
85586,2015,09,22,03,00,AAXX 22034 85586 NIL=
85586,2015,09,22,06,00,AAXX 22064 85586 NIL=
85586,2015,09,22,09,00,AAXX 22094 85586 NIL=
85586,2015,09,22,12,00,AAXX 22124 85586 12660 59902 10128 20093 40168 51023 60004 85500 333 20073 30/// 55036 56700 70000 85638=
85586,2015,09,22,15,00,AAXX 22154 85586 42560 42707 10150 20088 40172 52004 84500 333 56600 84631=
85586,2015,09,22,18,00,AAXX 22184 85586 12960 22508 10168 20093 40161 58009 60001 80001 333 56006 82075=
85586,2015,09,22,21,00,AAXX 22214 85586 42960 02308 10147 20085 40152 56011=
85586,2015,09,23,00,00,AAXX 23004 85586 11958 09901 10109 20093 40161 53008 60001 70500 333 10171=
85586,2015,09,23,03,00,AAXX 23034 85586 NIL=
85586,2015,09,23,06,00,AAXX 23064 85586 NIL=
85586,2015,09,23,09,00,AAXX 23094 85586 NIL=
85586,2015,09,23,12,00,AAXX 23124 85586 12960 21203 10095 20073 40156 51015 60004 82030 333 20049 30/// 55106 56060 70000 82365=
85586,2015,09,23,15,00,AAXX 23154 85586 42960 02907 10148 20071 40161 50005=
85586,2015,09,23,18,00,AAXX 23184 85586 12460 22909 10151 20113 40157 58004 60001 82500 333 56700 82610=
85586,2015,09,23,21,00,AAXX 23214 85586 42960 03011 10147 20113 40150 56005=
85586,2015,09,24,00,00,AAXX 24004 85586 11658 53206 10131 20113 40163 53012 60001 70511 85500 333 10161 56700 85648=
85586,2015,09,24,03,00,AAXX 24034 85586 NIL=
85586,2015,09,24,06,00,AAXX 24064 85586 NIL=
85586,2015,09,24,09,00,AAXX 24094 85586 NIL=
85586,2015,09,24,12,00,AAXX 24124 85586 11340 82606 10089 20081 40205 53036 60194 76388 882// 333 20089 32/// 55110 56799 70186 84707 88837=
85586,2015,09,24,15,00,AAXX 24154 85586 41460 83603 10114 20102 40232 51028 78088 882// 333 56799 88815=
85586,2015,09,24,18,00,AAXX 24184 85586 11560 33107 10141 20086 40243 51012 60021 70188 83200 333 56700 83823=
85586,2015,09,24,21,00,AAXX 24214 85586 42560 12707 10138 20091 40253 53010 81200 333 56600 81825=
85586,2015,09,25,00,00,AAXX 25004 85586 12960 01402 10098 20084 40273 53019 60001 333 10148=
85586,2015,09,25,03,00,AAXX 25034 85586 NIL=
85586,2015,09,25,06,00,AAXX 25064 85586 NIL=
85586,2015,09,25,09,00,AAXX 25094 85586 NIL=
85586,2015,09,25,12,00,AAXX 25124 85586 12960 61203 10071 20051 40217 56018 60024 80002 333 20055 31/// 55055 56006 70022 86075=
85586,2015,09,25,15,00,AAXX 25154 85586 42960 61508 10140 20049 40199 58015 80001 333 56003 86075=
85586,2015,09,25,18,00,AAXX 25184 85586 12960 72410 10171 20091 40175 57023 60001 80002 333 56006 87073=
85586,2015,09,25,21,00,AAXX 25214 85586 42960 62309 10163 20109 40164 56011 86030 333 56060 86365=
85586,2015,09,26,00,00,AAXX 26004 85586 12960 70000 10124 20100 40189 51023 60001 87030 333 10192 56060 87367=
85586,2015,09,26,03,00,AAXX 26034 85586 NIL=
85586,2015,09,26,06,00,AAXX 26064 85586 NIL=
85586,2015,09,26,09,00,AAXX 26094 85586 NIL=
85586,2015,09,26,12,00,AAXX 26124 85586 12460 80000 10100 20095 40224 53022 60004 8263/ 333 20085 31/// 55047 56669 70000 82710 87364=
85586,2015,09,26,15,00,AAXX 26154 85586 42460 52705 10147 20109 40236 51013 82502 333 56606 82613 85073=
85586,2015,09,26,18,00,AAXX 26184 85586 12460 42512 10153 20115 40235 54000 60001 82531 333 56666 82615 83362=
85586,2015,09,26,21,00,AAXX 26214 85586 42460 12513 10146 20108 40235 54000 81100 333 56600 81810=
85586,2015,09,27,00,00,AAXX 27004 85586 12960 10000 10110 20094 40246 51009 60001 80001 333 10166 56006 81075=
85586,2015,09,27,03,00,AAXX 27034 85586 NIL=
85586,2015,09,27,06,00,AAXX 27064 85586 NIL=
85586,2015,09,27,09,00,AAXX 27094 85586 NIL=
85586,2015,09,27,12,00,AAXX 27124 85586 12960 80000 10093 20089 40237 53007 60004 8803/ 333 20071 31/// 55079 56009 70000 88365=
85586,2015,09,27,15,00,AAXX 27154 85586 42960 82404 10134 20106 40229 55007 8803/ 333 56069 88365=
85586,2015,09,27,18,00,AAXX 27184 85586 12960 72407 10145 20096 40216 58011 60001 87030 333 56060 87361=
85586,2015,09,27,21,00,AAXX 27214 85586 NIL=
85586,2015,09,28,00,00,AAXX 28004 85586 12960 69901 10128 20112 40214 50004 60001 86030 333 10166 56060 86365=
85586,2015,09,28,03,00,AAXX 28034 85586 NIL=
85586,2015,09,28,06,00,AAXX 28064 85586 NIL=
85586,2015,09,28,09,00,AAXX 28094 85586 NIL=
85586,2015,09,28,12,00,AAXX 28124 85586 12960 29902 10124 20110 40205 53007 60004 80001 333 20089 31/// 55001 56006 70000 82075=
85586,2015,09,28,15,00,AAXX 28154 85586 42960 02410 10163 20133 40193 58010=
85586,2015,09,28,18,00,AAXX 28184 85586 12560 12413 10168 20137 40179 57013 60001 81100 333 56600 81822=
85586,2015,09,28,21,00,AAXX 28214 85586 42960 22414 10158 20130 40163 56016 80001 333 56006 82075=
85586,2015,09,29,00,00,AAXX 29004 85586 11958 00404 10136 20123 40164 55001 60001 70500 333 10185=
85586,2015,09,29,03,00,AAXX 29034 85586 NIL=
85586,2015,09,29,06,00,AAXX 29064 85586 NIL=
85586,2015,09,29,09,00,AAXX 29094 85586 NIL=
85586,2015,09,29,12,00,AAXX 29124 85586 11960 62303 10115 20113 40161 53014 60004 70244 80001 333 20081 31/// 55115 56006 70000 86075=
85586,2015,09,29,15,00,AAXX 29154 85586 42960 29905 10185 20138 40154 58001 80001 333 56006 82075=
85586,2015,09,29,16,00,AAXX 29161 85586 429// 02506 10164 20128 30065 40155==
85586,2015,09,29,17,00,AAXX 29171 85586 429// 02407 10176 20134 30064 40154==
85586,2015,09,29,18,00,AAXX 29184 85586 12960 02414 10178 20134 40147 58007 60001=
85586,2015,09,29,19,00,AAXX 29191 85586 429// 02309 10158 20124 30055 40145==
85586,2015,09,29,20,00,AAXX 29201 85586 429// 02405 10176 20132 30053 40143==
85586,2015,09,29,21,00,AAXX 29214 85586 42960 32404 10183 20130 40136 58010 80001 333 56006 83075=
85586,2015,09,29,22,00,AAXX 29221 85586 429// 43103 10164 20120 30048 40138=
85586,2015,09,29,23,00,AAXX 29231 85586 429// 40402 10148 20120 30047 40138=
85586,2015,09,30,00,00,AAXX 30004 85586 12960 80303 10148 20123 40136 58002 60001 8803/ 333 10194 56069 88365=
85586,2015,09,30,03,00,AAXX 30034 85586 NIL=
85586,2015,09,30,06,00,AAXX 30064 85586 NIL=
85586,2015,09,30,09,00,AAXX 30094 85586 NIL=
85586,2015,09,30,11,00,AAXX 3011/ 85586 429// 6//// 10089 20086 30032 40124 876//==
85586,2015,09,30,12,00,AAXX 30124 85586 11206 89902 10113 20110 40127 51012 60004 74444 886// 333 20084 31/// 55078 56799 70000 88704=
85586,2015,09,30,13,00,AAXX 30131 85586 422// 80303 10118 20115 30036 40127 886//==
85586,2015,09,30,14,00,AAXX 30141 85586 422// 83503 10121 20118 30039 40130 886//==
85586,2015,09,30,15,00,AAXX 30154 85586 41104 83007 10124 20121 40129 52003 74542 886// 333 56799 88702=
85586,2015,09,30,16,00,AAXX 30161 85586 421// 82904 10127 20121 30037 40128 886//==
85586,2015,09,30,18,00,AAXX 30184 85586 11257 83206 10142 20123 40126 56004 60001 70522 886// 333 56799 88705=
85586,2015,09,30,21,00,AAXX 30214 85586 41358 83306 10132 20121 40132 53006 70522 886// 333 56799 88708=
85586,2015,10,01,00,00,AAXX 01004 85586 11556 89902 10131 20122 40137 50008 60001 70522 885// 333 10143 56799 88620=
85586,2015,10,01,03,00,AAXX 01034 85586 NIL=
85586,2015,10,01,06,00,AAXX 01064 85586 NIL=
85586,2015,10,01,09,00,AAXX 01094 85586 NIL=
85586,2015,10,01,12,00,AAXX 01124 85586 11250 83204 10115 20110 40152 53025 60114 76362 885// 333 20110 32/// 55000 56799 70114 83704 85626 88636=
85586,2015,10,01,15,00,AAXX 01154 85586 42560 50211 10155 20111 40173 51022 85100 333 56800 85820=
85586,2015,10,01,18,00,AAXX 01184 85586 11560 70506 10142 20121 40175 50002 60031 78022 87500 333 56100 87620=
85586,2015,10,01,21,00,AAXX 01214 85586 41458 72908 10129 20116 40180 53007 78082 87800 333 56600 84812 87620=
85586,2015,10,02,00,00,AAXX 02004 85586 11960 30000 10120 20114 40190 53009 60021 70166 83030 333 10157 56060 83362=
85586,2015,10,02,03,00,AAXX 02034 85586 NIL=
85586,2015,10,02,06,00,AAXX 02064 85586 NIL=
85586,2015,10,02,09,00,AAXX 02094 85586 NIL=
85586,2015,10,02,12,00,AAXX 02124 85586 11130 31205 10099 20098 40189 50002 60054 71062 83600 333 20075 31/// 55014 56600 70046 83702=
85586,2015,10,02,15,00,AAXX 02154 85586 42960 29905 10162 20116 40173 58015 80001 333 56006 82075=
85586,2015,10,02,18,00,AAXX 02184 85586 12960 62511 10174 20134 40147 56028 60001 80004 333 56006 86073=
85586,2015,10,02,21,00,AAXX 02214 85586 42960 52409 10158 20128 40135 56012 80001 333 56005 85073=
85586,2015,10,03,00,00,AAXX 03004 85586 12960 12303 10117 20108 40145 52007 60001 80001 333 10202 56006 81075=
85586,2015,10,03,03,00,AAXX 03034 85586 NIL=
85586,2015,10,03,06,00,AAXX 03064 85586 NIL=
85586,2015,10,03,09,00,AAXX 03094 85586 NIL=
85586,2015,10,03,12,00,AAXX 03124 85586 12460 83105 10127 20113 40137 53011 60004 885// 333 20107 31/// 55069 56099 70000 88610=
85586,2015,10,03,15,00,AAXX 03154 85586 42460 82906 10142 20116 40140 50004 885// 333 56799 88612=
85586,2015,10,03,18,00,AAXX 03184 85586 12460 83503 10155 20115 40136 58003 60001 885// 333 56799 88615=
85586,2015,10,03,21,00,AAXX 03214 85586 42360 83007 10139 20120 40133 57004 885// 333 56799 83607 88616=
85586,2015,10,04,00,00,AAXX 04004 85586 12560 83603 10134 20113 40137 50003 60001 885// 333 10159 56099 88625=
85586,2015,10,04,03,00,AAXX 04034 85586 NIL=
85586,2015,10,04,06,00,AAXX 04064 85586 NIL=
85586,2015,10,04,09,00,AAXX 04094 85586 NIL=
85586,2015,10,04,12,00,AAXX 04124 85586 12960 60403 10130 20100 40166 53014 60004 80001 333 20113 31/// 55000 56006 70000 86075=
85586,2015,10,04,15,00,AAXX 04154 85586 42960 73208 10152 20100 40173 50006 82031 333 56066 82359 87075=
85586,2015,10,04,18,00,AAXX 04184 85586 12860 83308 10149 20106 40185 51014 60001 8803/ 333 56079 88357=
85586,2015,10,04,21,00,AAXX 04214 85586 42660 83605 10154 20094 40192 51005 885// 333 56799 88644=
85586,2015,10,05,00,00,AAXX 05004 85586 12560 82903 10141 20107 40196 53005 60001 885// 333 10158 56799 88632=
85586,2015,10,05,03,00,AAXX 05034 85586 NIL=
85586,2015,10,05,06,00,AAXX 05064 85586 NIL=
85586,2015,10,05,09,00,AAXX 05094 85586 NIL=
85586,2015,10,05,12,00,AAXX 05124 85586 12860 82203 10119 20113 40193 55000 69904 8803/ 333 20105 31/// 55000 56069 79999 88357=
85586,2015,10,05,15,00,AAXX 05154 85586 42460 89903 10146 20120 40203 50011 8253/ 333 56769 82612 88362=
85586,2015,10,05,18,00,AAXX 05184 85586 12960 82410 10151 20103 40201 56002 60001 8803/ 333 56069 88360=
85586,2015,10,05,21,00,AAXX 05214 85586 42960 82309 10143 20094 40196 55005 8803/ 333 56069 88360=
85586,2015,10,06,00,00,AAXX 06004 85586 11958 79902 10117 20091 40208 53011 60001 70522 80001 333 10164 56006 87075=
85586,2015,10,06,03,00,AAXX 06034 85586 NIL=
85586,2015,10,06,06,00,AAXX 06064 85586 NIL=
85586,2015,10,06,09,00,AAXX 06094 85586 NIL=
85586,2015,10,06,12,00,AAXX 06124 85586 12960 89902 10100 20078 40203 51020 60004 8803/ 333 20076 31/// 55000 56069 70000 88365=
85586,2015,10,06,15,00,AAXX 06154 85586 42560 62005 10147 20102 40205 50004 82530 333 56760 82625 85365=
85586,2015,10,06,18,00,AAXX 06184 85586 12560 62414 10159 20096 40200 58005 60001 86130 333 56550 83820 86366=
85586,2015,10,06,21,00,AAXX 06214 85586 12560 62414 10159 20096 40200 58005 60001 86130 333 56550 83820 86366=
85586,2015,10,07,00,00,AAXX 07004 85586 12960 32208 10116 20081 40218 51015 60001 80001 333 10163 56006 83075=
85586,2015,10,07,03,00,AAXX 07034 85586 NIL=
85586,2015,10,07,06,00,AAXX 07064 85586 NIL=
85586,2015,10,07,09,00,AAXX 07094 85586 NIL=
85586,2015,10,07,12,00,AAXX 07124 85586 12960 21704 10095 20057 40222 53005 60004 81031 333 20029 31/// 55082 56066 70000 81365=
85586,2015,10,07,15,00,AAXX 07154 85586 42560 22006 10148 20069 40219 54000 82100 333 56500 82825=
85586,2015,10,07,18,00,AAXX 07184 85586 12560 22516 10154 20048 40212 57007 60001 82100 333 56600 82825=
85586,2015,10,07,21,00,AAXX 07214 85586 42960 02316 10136 20053 40217 53004=
85586,2015,10,08,00,00,AAXX 08004 85586 12960 01403 10096 20060 40228 53009 60001 333 10160=
85586,2015,10,08,03,00,AAXX 08034 85586 NIL=
85586,2015,10,08,06,00,AAXX 08064 85586 NIL=
85586,2015,10,08,09,00,AAXX 08094 85586 NIL=
85586,2015,10,08,12,00,AAXX 08124 85586 12960 72303 10081 20066 40235 53016 60004 87030 333 20029 31/// 55114 56060 70000 87367=
85586,2015,10,08,15,00,AAXX 08154 85586 42960 71707 10152 20072 40228 58003 80004 333 56004 87070=
85586,2015,10,08,18,00,AAXX 08184 85586 12560 22318 10148 20059 40213 58015 69901 82100 333 56600 82830=
85586,2015,10,08,21,00,AAXX 08214 85586 NIL=
85586,2015,10,09,00,00,AAXX 09004 85586 12960 02204 10101 20045 40210 53010 60001 333 10161=
85586,2015,10,09,03,00,AAXX 09034 85586 NIL=
85586,2015,10,09,06,00,AAXX 09064 85586 NIL=
85586,2015,10,09,09,00,AAXX 09094 85586 NIL=
85586,2015,10,09,12,00,AAXX 09124 85586 12960 00903 10091 20060 40224 51010 69903 333 20025 31/// 55090 70000=
85586,2015,10,09,15,00,AAXX 09154 85586 42960 02510 10139 20070 40223 50001=
85586,2015,10,09,18,00,AAXX 09184 85586 12960 02315 10149 20084 40212 58011 60001=
85586,2015,10,09,21,00,AAXX 09214 85586 42960 02412 10147 20087 40202 57010=
85586,2015,10,10,00,00,AAXX 10004 85586 12960 01003 10101 20077 40205 52002 60001 333 10157=
85586,2015,10,10,03,00,AAXX 10034 85586 NIL=
85586,2015,10,10,06,00,AAXX 10064 85586 NIL=
85586,2015,10,10,09,00,AAXX 10094 85586 NIL=
85586,2015,10,10,12,00,AAXX 10124 85586 12960 01203 10103 20072 40209 51012 60004 333 20036 30/// 55113 70000=
85586,2015,10,10,15,00,AAXX 10154 85586 42960 02605 10148 20083 40209 50002=
85586,2015,10,10,18,00,AAXX 10184 85586 12960 02509 10163 20109 40204 58005 60001=
85586,2015,10,10,21,00,AAXX 10214 85586 42960 02608 10157 20105 40195 57009=
85586,2015,10,11,00,00,AAXX 11004 85586 11958 09902 10119 20090 40203 53007 60001 70500 333 10166=
85586,2015,10,11,03,00,AAXX 11034 85586 NIL=
85586,2015,10,11,06,00,AAXX 11064 85586 NIL=
85586,2015,10,11,09,00,AAXX 11094 85586 NIL=
85586,2015,10,11,12,00,AAXX 11124 85586 12960 09902 10116 20070 40201 51007 60004 333 20035 31/// 55117 70000=
85586,2015,10,11,15,00,AAXX 11154 85586 42960 02506 10190 20096 40195 58004=
85586,2015,10,11,18,00,AAXX 11184 85586 12960 02513 10163 20107 40190 56006 60001=
85586,2015,10,11,21,00,AAXX 11214 85586 42960 02411 10165 20115 40179 55010=
85586,2015,10,12,00,00,AAXX 12004 85586 11958 02404 10118 20104 40188 53007 60001 70500 333 10199=
85586,2015,10,12,03,00,AAXX 12034 85586 NIL=
85586,2015,10,12,06,00,AAXX 12064 85586 NIL=
85586,2015,10,12,09,00,AAXX 12094 85586 NIL=
85586,2015,10,12,12,00,AAXX 12124 85586 12960 89901 10100 20078 40158 53005 60004 8803/ 333 20059 31/// 55115 56069 70000 88365=
85586,2015,10,12,15,00,AAXX 12154 85586 42460 72605 10142 20106 40157 55000 82530 333 56660 82611 87365=
85586,2015,10,12,18,00,AAXX 12184 85586 12360 72706 10143 20118 40161 53004 60001 82630 333 56660 82709 87365=
85586,2015,10,12,21,00,AAXX 12214 85586 42360 82804 10134 20113 40158 55003 8263/ 333 56669 82709 88362=
85586,2015,10,13,00,00,AAXX 13004 85586 11958 89902 10127 20114 40159 53001 60001 70522 8803/ 333 10157 56069 88362=
85586,2015,10,13,03,00,AAXX 13034 85586 NIL=
85586,2015,10,13,06,00,AAXX 13064 85586 NIL=
85586,2015,10,13,09,00,AAXX 13094 85586 NIL=
85586,2015,10,13,12,00,AAXX 13124 85586 12560 40805 10119 20098 40156 50006 60004 81530 333 20070 31/// 55035 56770 70000 81633 83363=
85586,2015,10,13,15,00,AAXX 13154 85586 42560 63106 10143 20096 40153 58002 86320 333 56770 82630 86458=
85586,2015,10,13,18,00,AAXX 13184 85586 NIL=
85586,2015,10,13,21,00,AAXX 13214 85586 NIL=
85586,2015,10,14,00,00,AAXX 14004 85586 NIL=
85586,2015,10,14,03,00,AAXX 14034 85586 NIL=
85586,2015,10,14,06,00,AAXX 14064 85586 NIL=
85586,2015,10,14,09,00,AAXX 14094 85586 NIL=
85586,2015,10,14,12,00,AAXX 14124 85586 NIL=
85586,2015,10,14,15,00,AAXX 14154 85586 41330 83312 10114 20103 40141 53034 76262 888// 333 56799 83808 88613=
85586,2015,10,14,18,00,AAXX 14184 85586 11330 83604 10103 20092 40183 51043 60091 76562 888// 333 56899 85808 88625=
85586,2015,10,14,21,00,AAXX 14214 85586 41458 80503 10099 20084 40213 51029 70562 888// 333 56899 82812 88640=
85586,2015,10,15,00,00,AAXX 15004 85586 11760 80405 10093 20081 40235 51023 60131 70066 885// 333 10126 56099 88650=
85586,2015,10,15,03,00,AAXX 15034 85586 NIL=
85586,2015,10,15,06,00,AAXX 15064 85586 NIL=
85586,2015,10,15,09,00,AAXX 15094 85586 NIL=
85586,2015,10,15,12,00,AAXX 15124 85586 11960 01304 10106 20079 40224 52002 60284 70262 333 20061 32/// 55000 70276=
85586,2015,10,15,15,00,AAXX 15154 85586 42560 52105 10138 20074 40214 55008 85500 333 56600 85620=
85586,2015,10,15,18,00,AAXX 15184 85586 12560 22514 10141 20094 40205 57010 69921 82500 333 56600 82621=
85586,2015,10,15,21,00,AAXX 15214 85586 42960 02314 10141 20092 40199 55005=
85586,2015,10,16,00,00,AAXX 16004 85586 12960 30000 10104 20077 40201 54000 60001 80001 333 10156 56006 83075=
85586,2015,10,16,03,00,AAXX 16034 85586 NIL=
85586,2015,10,16,06,00,AAXX 16064 85586 NIL=
85586,2015,10,16,09,00,AAXX 16094 85586 NIL=
85586,2015,10,16,12,00,AAXX 16124 85586 12960 89901 10085 20079 40193 53014 69944 8801/ 333 20063 31/// 55108 56069 70004 88465=
85586,2015,10,16,15,00,AAXX 16154 85586 42960 82104 10129 20096 40200 53007 8801/ 333 56069 88465=
85586,2015,10,16,18,00,AAXX 16184 85586 12960 82509 10135 20090 40200 52001 60001 8803/ 333 56069 88363=
85586,2015,10,16,21,00,AAXX 16214 85586 42960 82307 10137 20086 40197 58002 8803/ 333 56069 88363=
85586,2015,10,17,00,00,AAXX 17004 85586 11958 09901 10109 20092 40204 53006 60001 70511 333 10152=
85586,2015,10,17,03,00,AAXX 17034 85586 NIL=
85586,2015,10,17,06,00,AAXX 17064 85586 NIL=
85586,2015,10,17,09,00,AAXX 17094 85586 NIL=
85586,2015,10,17,12,00,AAXX 17124 85586 12960 29901 10100 20092 40183 52005 60004 80001 333 20054 31/// 55009 56006 70000 82075=
85586,2015,10,17,15,00,AAXX 17154 85586 42960 19903 10179 20111 40176 57003 80001 333 56006 81075=
85586,2015,10,17,18,00,AAXX 17184 85586 12960 22412 10168 20103 40170 58007 60001 80001 333 56006 82073=
85586,2015,10,17,21,00,AAXX 17214 85586 42960 32411 10167 20119 40159 57011 80009 333 56006 83175=
85586,2015,10,18,00,00,AAXX 18004 85586 11958 60504 10133 20114 40158 56002 60001 70500 80001 333 10180 56006 86075=
85586,2015,10,18,03,00,AAXX 18034 85586 NIL=
85586,2015,10,18,06,00,AAXX 18064 85586 NIL=
85586,2015,10,18,09,00,AAXX 18094 85586 NIL=
85586,2015,10,18,12,00,AAXX 18124 85586 12960 79901 10120 20111 40128 53010 60004 80001 333 20077 31/// 55110 56006 79999 87075=
85586,2015,10,18,15,00,AAXX 18154 85586 42960 72805 10141 20118 40145 52017 80001 333 56006 87075=
85586,2015,10,18,18,00,AAXX 18184 85586 12960 42806 10169 20129 40142 58001 60001 80001 333 56006 84073=
85586,2015,10,18,21,00,AAXX 18214 85586 42960 52707 10150 20122 40121 56023 80001 333 56006 85070=
85586,2015,10,19,00,00,AAXX 19004 85586 11358 82905 10131 20117 40131 52009 60001 70522 886// 333 10173 56799 88707=
85586,2015,10,19,03,00,AAXX 19034 85586 NIL=
85586,2015,10,19,06,00,AAXX 19064 85586 NIL=
85586,2015,10,19,09,00,AAXX 19094 85586 NIL=
85586,2015,10,19,12,00,AAXX 19124 85586 11250 81003 10130 20119 40144 54000 60004 71022 886// 333 20114 31/// 55072 56099 70000 88706=
85586,2015,10,19,15,00,AAXX 19154 85586 41358 73307 10149 20138 40177 51030 70582 87800 333 56700 84807 87620=
85586,2015,10,19,18,00,AAXX 19184 85586 12460 73113 10151 20115 40198 51020 69941 87800 333 56700 82810 86613=
85586,2015,10,19,21,00,AAXX 19214 85586 42460 73108 10145 20114 40213 51015 87800 333 56700 83815 86630=
85586,2015,10,20,00,00,AAXX 20004 85586 12960 00603 10115 20103 40230 51020 60001 333 10164=
85586,2015,10,20,03,00,AAXX 20034 85586 NIL=
85586,2015,10,20,06,00,AAXX 20064 85586 NIL=
85586,2015,10,20,09,00,AAXX 20094 85586 NIL=
85586,2015,10,20,12,00,AAXX 20124 85586 12960 71403 10095 20089 40177 56005 69944 87030 333 20064 31/// 55014 56060 70004 87365=
85586,2015,10,20,15,00,AAXX 20151 85586 42960 62804 10137 20095 30085 40176 52001 861//==
85586,2015,10,20,18,00,AAXX 20184 85586 12560 62708 10158 20091 40179 50003 60001 81102 333 56606 81820 86070=
85586,2015,10,20,21,00,AAXX 20214 85586 42960 32411 10151 20101 40179 54000 80002 333 56006 83075=
85586,2015,10,21,00,00,AAXX 21004 85586 12960 00000 10114 20093 40185 51005 60001 333 10171=
85586,2015,10,21,03,00,AAXX 21034 85586 NIL=
85586,2015,10,21,06,00,AAXX 21064 85586 NIL=
85586,2015,10,21,09,00,AAXX 21094 85586 NIL=
85586,2015,10,21,12,00,AAXX 21124 85586 12960 20703 10121 20081 40177 53006 60004 80002 333 20057 31/// 55089 56006 70000 82075=
85586,2015,10,21,15,00,AAXX 21154 85586 42960 32707 10155 20083 40182 52007 83030 333 56060 83365=
85586,2015,10,21,18,00,AAXX 21184 85586 12960 22513 10155 20086 40183 54001 60001 80001 333 56006 82075=
85586,2015,10,21,21,00,AAXX 21214 85586 42960 12511 10154 20096 40181 57002 80001 333 56006 81075=
85586,2015,10,22,00,00,AAXX 22004 85586 12960 02303 10122 20094 40186 53004 60001 333 10171=
85586,2015,10,22,03,00,AAXX 22034 85586 NIL=
85586,2015,10,22,06,00,AAXX 22064 85586 NIL=
85586,2015,10,22,09,00,AAXX 22094 85586 NIL=
85586,2015,10,22,12,00,AAXX 22124 85586 12960 01103 10120 20090 40160 53003 60004 333 20060 30/// 55112 70000=
85586,2015,10,22,15,00,AAXX 22154 85586 429// 02806 10166 20110 40159 52001=
85586,2015,10,22,18,00,AAXX 22184 85586 12960 02509 10168 20116 40160 51001 60001=
85586,2015,10,22,21,00,AAXX 22214 85586 42960 02609 10157 20113 40163 51004=
85586,2015,10,23,00,00,AAXX 23004 85586 11958 02803 10124 20108 40171 53006 60001 70500 333 10175=
85586,2015,10,23,03,00,AAXX 23034 85586 NIL=
85586,2015,10,23,06,00,AAXX 23064 85586 NIL=
85586,2015,10,23,09,00,AAXX 23094 85586 NIL=
85586,2015,10,23,12,00,AAXX 23124 85586 11104 89902 10102 20099 40143 53004 60004 74644 886// 333 20057 30/// 55121 56799 70000 88702=
85586,2015,10,23,15,00,AAXX 23154 85586 41458 52807 10146 20116 40154 53011 70522 82601 333 56706 82710 85075=
85586,2015,10,23,18,00,AAXX 23184 85586 12960 72706 10166 20118 40160 50008 60001 80001 333 56006 87075=
85586,2015,10,23,21,00,AAXX 23214 85586 42960 32807 10157 20115 40161 52001 80001 333 56006 83075=
85586,2015,10,24,00,00,AAXX 24004 85586 NIL=
85586,2015,10,24,03,00,AAXX 24034 85586 NIL=
85586,2015,10,24,06,00,AAXX 24064 85586 NIL=
85586,2015,10,24,09,00,AAXX 24094 85586 NIL=
85586,2015,10,24,12,00,AAXX 24124 85586 12960 79902 10116 20082 40169 51019 60004 87030 333 20072 30/// 55006 56060 70000 87365=
85586,2015,10,24,15,00,AAXX 24154 85586 42960 62606 10148 20112 40174 52010 86030 333 56060 86360=
85586,2015,10,24,18,00,AAXX 24184 85586 12860 12811 10177 20111 40166 55011 60001 81030 333 56030 81358=
85586,2015,10,24,21,00,AAXX 24214 85586 42460 53010 10173 20137 40173 51006 82501 333 56706 82612 85075=
85586,2015,10,25,00,00,AAXX 25004 85586 11958 50403 10154 20120 40181 52007 60001 70511 80001 333 10190 56006 85075=
85586,2015,10,25,03,00,AAXX 25034 85586 NIL=
85586,2015,10,25,06,00,AAXX 25064 85586 NIL=
85586,2015,10,25,09,00,AAXX 25094 85586 NIL=
85586,2015,10,25,12,00,AAXX 25124 85586 12960 31103 10151 20107 40186 53010 60004 80001 333 20083 30/// 55088 56006 70000 83075=
85586,2015,10,25,15,00,AAXX 25154 85586 42560 32607 10175 20131 40193 50007 81501 333 56606 81620 83075=
85586,2015,10,25,18,00,AAXX 25184 85586 12460 42609 10186 20122 40189 58003 60001 81501 333 56606 81615 84075=
85586,2015,10,25,21,00,AAXX 25214 85586 42560 12511 10180 20125 40179 56009 81500 333 56600 81625=
85586,2015,10,26,00,00,AAXX 26004 85586 12360 22103 10145 20134 40182 54000 60001 82600 333 10196 56600 82707=
85586,2015,10,26,03,00,AAXX 26034 85586 NIL=
85586,2015,10,26,06,00,AAXX 26064 85586 NIL=
85586,2015,10,26,09,00,AAXX 26094 85586 NIL=
85586,2015,10,26,12,00,AAXX 26124 85586 12160 20000 10129 20127 40190 53019 60004 82600 333 20104 30/// 55120 56600 70000 82702=
85586,2015,10,26,15,00,AAXX 26154 85586 42560 11204 10191 20134 40186 58005 81100 333 56600 81823=
85586,2015,10,26,18,00,AAXX 26184 85586 12960 02316 10182 20129 40179 58003 60001=
85586,2015,10,26,21,00,AAXX 26214 85586 42960 02316 10177 20122 40174 56008=
85586,2015,10,27,00,00,AAXX 27004 85586 12960 50000 10145 20127 40177 51001 60001 80001 333 10195 56006 85075=
85586,2015,10,27,03,00,AAXX 27034 85586 NIL=
85586,2015,10,27,06,00,AAXX 27064 85586 NIL=
85586,2015,10,27,09,00,AAXX 27094 85586 NIL=
85586,2015,10,27,12,00,AAXX 27124 85586 12460 80304 10134 20116 40166 52014 60004 83602 333 20113 30/// 55106 56606 70000 83710 87070=
85586,2015,10,27,15,00,AAXX 27154 85586 42460 83106 10157 20129 40172 50005 885// 333 56699 84611 88633=
85586,2015,10,27,18,00,AAXX 27184 85586 12460 82706 10160 20130 40183 51011 60001 8453/ 333 56669 84610 88363=
85586,2015,10,27,21,00,AAXX 27214 85586 42460 82507 10154 20127 40183 50001 885// 333 56699 88612=
85586,2015,10,28,00,00,AAXX 28004 85586 12460 82605 10147 20124 40190 52007 60001 885// 333 10168 56099 88612=
85586,2015,10,28,03,00,AAXX 28034 85586 NIL=
85586,2015,10,28,06,00,AAXX 28064 85586 NIL=
85586,2015,10,28,09,00,AAXX 28094 85586 NIL=
85586,2015,10,28,12,00,AAXX 28124 85586 12560 82103 10143 20118 40193 53011 60004 885// 333 20136 30/// 55011 56799 70000 88626=
85586,2015,10,28,15,00,AAXX 28154 85586 41558 82509 10157 20117 40196 50003 70522 885// 333 56799 88622=
85586,2015,10,28,18,00,AAXX 28184 85586 11558 82415 10160 20116 40201 53005 60001 70522 885// 333 56799 83627 88635=
85586,2015,10,28,21,00,AAXX 28214 85586 42960 72313 10161 20119 40198 55003 80001 333 56006 87075=
85586,2015,10,29,00,00,AAXX 29004 85586 11958 59901 10132 20116 40198 55001 60001 70511 80001 333 10176 56006 85075=
85586,2015,10,29,03,00,AAXX 29034 85586 NIL=
85586,2015,10,29,06,00,AAXX 29064 85586 NIL=
85586,2015,10,29,09,00,AAXX 29094 85586 NIL=
85586,2015,10,29,12,00,AAXX 29124 85586 12960 32204 10138 20117 40203 53017 60004 80001 333 20081 30/// 55041 56006 70000 83075=
85586,2015,10,29,15,00,AAXX 29151 85586 42960 22407 10175 20116 30119 40209 52007 820//==
85586,2015,10,29,18,00,AAXX 29184 85586 12960 32514 10169 20121 40214 50004 60001 80001 333 56006 83073=
85586,2015,10,29,21,00,AAXX 29214 85586 42960 02512 10164 20110 40218 51002=
85586,2015,10,30,00,00,AAXX 30004 85586 11958 02305 10125 20095 40228 53009 60001 70500 333 10189=
85586,2015,10,30,03,00,AAXX 30034 85586 NIL=
85586,2015,10,30,06,00,AAXX 30064 85586 NIL=
85586,2015,10,30,09,00,AAXX 30094 85586 NIL=
85586,2015,10,30,12,00,AAXX 30124 85586 12960 41203 10131 20096 40221 50002 60004 80001 333 20069 30/// 55122 56006 70000 84075=
85586,2015,10,30,15,00,AAXX 30154 85586 42960 12413 10171 20110 40205 57013 80001 333 56006 81075=
85586,2015,10,30,18,00,AAXX 30184 85586 12960 02415 10186 20117 40186 58019 60001=
85586,2015,10,30,21,00,AAXX 30214 85586 42960 02316 10167 20097 40172 56014=
85586,2015,10,31,00,00,AAXX 31004 85586 11958 00000 10126 20091 40180 53006 60001 70500 333 10190=
85586,2015,10,31,03,00,AAXX 31034 85586 NIL=
85586,2015,10,31,06,00,AAXX 31064 85586 NIL=
85586,2015,10,31,09,00,AAXX 31094 85586 NIL=
85586,2015,10,31,12,00,AAXX 31124 85586 12960 30403 10105 20061 40167 53011 60004 80002 333 20045 30/// 55116 56006 70000 83073=
85586,2015,10,31,15,00,AAXX 31154 85586 42960 52507 10140 20069 40167 52001 80002 333 56006 85075=
85586,2015,10,31,18,00,AAXX 31184 85586 12960 32513 10152 20078 40166 55001 60001 80002 333 56006 83075=
85586,2015,10,31,21,00,AAXX 31214 85586 42960 22908 10141 20079 40166 50001 80001 333 56006 82075=
85586,2015,11,01,00,00,AAXX 01004 85586 12960 13503 10117 20083 40173 52007 60001 80001 333 10160 56006 81075=
85586,2015,11,01,03,00,AAXX 01034 85586 NIL=
85586,2015,11,01,06,00,AAXX 01064 85586 NIL=
85586,2015,11,01,09,00,AAXX 01094 85586 NIL=
85586,2015,11,01,12,00,AAXX 01124 85586 12460 80403 10123 20090 40183 52010 60004 885// 333 20080 30/// 55111 56099 70000 88617=
85586,2015,11,01,15,00,AAXX 01154 85586 42560 32908 10150 20100 40183 52001 83500 333 56600 83620=
85586,2015,11,01,18,00,AAXX 01184 85586 12460 23110 10158 20104 40173 58009 60001 82500 333 56600 82616=
85586,2015,11,01,21,00,AAXX 01214 85586 42460 82909 10144 20108 40167 57007 885// 333 56699 82613 87618=
85586,2015,11,02,00,00,AAXX 02004 85586 12460 83103 10137 20103 40165 55002 60001 885// 333 10168 56099 88615=
85586,2015,11,02,03,00,AAXX 02034 85586 NIL=
85586,2015,11,02,06,00,AAXX 02064 85586 NIL=
85586,2015,11,02,09,00,AAXX 02094 85586 NIL=
85586,2015,11,02,12,00,AAXX 02124 85586 12460 83004 10128 20095 40178 53019 60004 885// 333 20120 30/// 55065 56099 70000 88616=
85586,2015,11,02,15,00,AAXX 02154 85586 41458 83304 10136 20104 40191 52014 70522 885// 333 56699=
85586,2015,11,02,18,00,AAXX 02184 85586 12560 82703 10143 20101 40185 56006 60001 885// 333 56799 83620 88631=
85586,2015,11,02,21,00,AAXX 02214 85586 42960 72403 10151 20101 40171 56014 87030 333 56060 87361=
85586,2015,11,03,00,00,AAXX 03004 85586 12960 52305 10122 20105 40175 53001 60001 80002 333 10160 56006 85073=
85586,2015,11,03,03,00,AAXX 03034 85586 NIL=
85586,2015,11,03,06,00,AAXX 03064 85586 NIL=
85586,2015,11,03,09,00,AAXX 03094 85586 NIL=
85586,2015,11,03,12,00,AAXX 03124 85586 12660 83505 10138 20115 40189 53020 60004 885// 333 20109 30/// 55002 56799 70000 88646=
85586,2015,11,03,15,00,AAXX 03154 85586 42660 89901 10165 20102 40201 51013 885// 333 56799 88648=
85586,2015,11,03,18,00,AAXX 03184 85586 12760 52508 10180 20114 40192 56008 60001 85500 333 56600 85650=
85586,2015,11,03,21,00,AAXX 03214 85586 42960 22410 10169 20112 40188 58004 80001 333 56006 82075=
85586,2015,11,04,00,00,AAXX 04004 85586 11958 82303 10154 20106 40205 53016 60001 70522 8803/ 333 10203 56069 88365=
85586,2015,11,04,03,00,AAXX 04034 85586 NIL=
85586,2015,11,04,06,00,AAXX 04064 85586 NIL=
85586,2015,11,04,09,00,AAXX 04094 85586 NIL=
85586,2015,11,04,12,00,AAXX 04124 85586 12860 89901 10142 20121 40236 51009 60004 8803/ 333 20133 30/// 55037 56069 70000 88356=
85586,2015,11,04,15,00,AAXX 04154 85586 42960 62507 10168 20122 40226 58008 80001 333 56006 86075=
85586,2015,11,04,18,00,AAXX 04184 85586 12960 42512 10199 20120 40212 57014 60001 80001 333 56006 84075=
85586,2015,11,04,21,00,AAXX 04214 85586 42960 52515 10165 20113 40203 58009 80001 333 56006 85075=
85586,2015,11,05,00,00,AAXX 05004 85586 11958 50503 10148 20112 40205 53001 60001 70511 80001 333 10200 56006 85075=
85586,2015,11,05,03,00,AAXX 05034 85586 NIL=
85586,2015,11,05,06,00,AAXX 05064 85586 NIL=
85586,2015,11,05,09,00,AAXX 05094 85586 NIL=
85586,2015,11,05,12,00,AAXX 05124 85586 12960 03303 10147 20104 40182 53013 60004 333 20086 30/// 55092 70000=
85586,2015,11,05,15,00,AAXX 05154 85586 42960 03010 10167 20129 40182 50001=
85586,2015,11,05,18,00,AAXX 05184 85586 12960 02510 10170 20128 40177 57004 60001=
85586,2015,11,05,21,00,AAXX 05214 85586 41256 82607 10135 20119 40182 53004 71022 885// 333 56699 88605=
85586,2015,11,06,00,00,AAXX 06004 85586 11340 82605 10131 20118 40191 51008 60001 71022 886// 333 10182 56799 88706=
85586,2015,11,06,03,00,AAXX 06034 85586 NIL=
85586,2015,11,06,06,00,AAXX 06064 85586 NIL=
85586,2015,11,06,09,00,AAXX 06094 85586 NIL=
85586,2015,11,06,12,00,AAXX 06124 85586 12460 81203 10131 20112 40185 52007 60004 886// 333 20126 30/// 55086 56099 70000 88710=
85586,2015,11,06,15,00,AAXX 06154 85586 42460 82707 10136 20112 40190 53006 886// 333 56099 88710=
85586,2015,11,06,18,00,AAXX 06184 85586 12460 82408 10157 20117 40185 58005 60001 885// 333 56699 88612=
85586,2015,11,06,21,00,AAXX 06214 85586 42460 82807 10143 20115 40177 57009 885// 333 56799 88616=
85586,2015,11,07,00,00,AAXX 07004 85586 12260 82603 10131 20118 40179 51002 60001 888// 333 10157 56699 82706 88610=
85586,2015,11,07,03,00,AAXX 07034 85586 NIL=
85586,2015,11,07,06,00,AAXX 07064 85586 NIL=
85586,2015,11,07,09,00,AAXX 07094 85586 NIL=
85586,2015,11,07,12,00,AAXX 07124 85586 12260 82204 10128 20123 40178 53008 60004 885// 333 20120 30/// 55000 56699 70000 85704 88610=
85586,2015,11,07,15,00,AAXX 07154 85586 42360 82506 10147 20129 40183 51006 885// 333 56699 85708 88630=
85586,2015,11,07,18,00,AAXX 07184 85586 12560 82511 10155 20119 40185 53002 60001 885// 333 56099 88628=
85586,2015,11,07,21,00,AAXX 07214 85586 42360 82412 10136 20110 40188 52003 885// 333 56699 82709 88626=
85586,2015,11,08,00,00,AAXX 08004 85586 12260 82306 10126 20112 40193 52003 60001 885// 333 10166 56699 82706 83617 88627=
85586,2015,11,08,03,00,AAXX 08034 85586 NIL=
85586,2015,11,08,06,00,AAXX 08064 85586 NIL=
85586,2015,11,08,09,00,AAXX 08094 85586 NIL=
85586,2015,11,08,12,00,AAXX 08124 85586 11450 82304 10125 20111 40162 53011 60004 70522 885// 333 20116 30/// 55002 56699 70000 85610 88617=
85586,2015,11,08,15,00,AAXX 08154 85586 42460 82309 10147 20109 40166 51004 885// 333 56699 85614 88625=
85586,2015,11,08,18,00,AAXX 08184 85586 12560 82410 10155 20101 40166 54000 60001 885// 333 56699 83621 88628=
85586,2015,11,08,21,00,AAXX 08214 85586 42560 52510 10149 20091 40171 51005 81501 333 56606 81630 85075=
85586,2015,11,09,00,00,AAXX 09004 85586 12960 72503 10121 20090 40180 53009 60001 80002 333 10167 56006 87070=
85586,2015,11,09,03,00,AAXX 09034 85586 NIL=
85586,2015,11,09,06,00,AAXX 09064 85586 NIL=
85586,2015,11,09,09,00,AAXX 09094 85586 NIL=
85586,2015,11,09,12,00,AAXX 09124 85586 12960 00703 10131 20090 40177 51012 60004 333 20054 30/// 55012 70000=
85586,2015,11,09,15,00,AAXX 09154 85586 42560 22511 10166 20105 40183 53008 82500 333 56700 82628=
85586,2015,11,09,18,00,AAXX 09184 85586 12460 52610 10161 20117 40193 51009 60001 81501 333 56706 81612 85075=
85586,2015,11,09,21,00,AAXX 09214 85586 42960 52411 10152 20116 40188 57004 80001 333 56006 85075=
85586,2015,11,10,00,00,AAXX 10004 85586 12960 52504 10135 20112 40198 53008 60001 80001 333 10182 56006 85075=
85586,2015,11,10,03,00,AAXX 10034 85586 NIL=
85586,2015,11,10,06,00,AAXX 10064 85586 NIL=
85586,2015,11,10,09,00,AAXX 10094 85586 NIL=
85586,2015,11,10,12,00,AAXX 10124 85586 12960 30503 10132 20095 40178 51010 60004 80001 333 20082 30/// 55122 56006 70000 83075=
85586,2015,11,10,15,00,AAXX 10154 85586 42560 22511 10166 20105 40183 53008 82500 333 56700 82628=
85586,2015,11,10,18,00,AAXX 10184 85586 12960 02409 10180 20114 40170 58010 60001=
85586,2015,11,10,21,00,AAXX 10214 85586 42960 02509 10165 20127 40163 55005=
85586,2015,11,11,00,00,AAXX 11004 85586 12460 13103 10145 20119 40181 52015 60001 81500 333 10184 56700 81615=
85586,2015,11,11,03,00,AAXX 11034 85586 NIL=
85586,2015,11,11,06,00,AAXX 11064 85586 NIL=
85586,2015,11,11,09,00,AAXX 11094 85586 NIL=
85586,2015,11,11,12,00,AAXX 11124 85586 12760 80803 10147 20109 40177 53008 69904 885// 333 20103 30/// 55106 56799 79999 88650=
85586,2015,11,11,15,00,AAXX 11154 85586 42660 82906 10178 20107 40177 50001 885// 333 56799 88634=
85586,2015,11,11,18,00,AAXX 11184 85586 12460 22509 10179 20115 40167 58010 60001 82100 333 56600 82812=
85586,2015,11,11,21,00,AAXX 11214 85586 42460 22808 10166 20114 40163 58002 82100 333 56600 82812=
85586,2015,11,12,00,00,AAXX 12004 85586 12960 52704 10145 20113 40172 53008 60001 85030 333 10185 56060 85362=
85586,2015,11,12,03,00,AAXX 12034 85586 NIL=
85586,2015,11,12,06,00,AAXX 12064 85586 NIL=
85586,2015,11,12,09,00,AAXX 12094 85586 NIL=
85586,2015,11,12,12,00,AAXX 12124 85586 11960 12903 10153 20119 40205 51019 60024 70162 80001 333 20112 31/// 55078 56006 70016 81075=
85586,2015,11,12,15,00,AAXX 12154 85586 42960 02508 10177 20116 40207 53003=
85586,2015,11,12,18,00,AAXX 12184 85586 12960 02515 10185 20123 40203 58003 60001=
85586,2015,11,12,21,00,AAXX 12214 85586 42960 02312 10187 20134 40184 57020=
85586,2015,11,13,00,00,AAXX 13004 85586 12960 02403 10152 20125 40174 56011 60001 333 10190=
85586,2015,11,13,03,00,AAXX 13034 85586 NIL=
85586,2015,11,13,06,00,AAXX 13064 85586 NIL=
85586,2015,11,13,09,00,AAXX 13094 85586 NIL=
85586,2015,11,13,12,00,AAXX 13124 85586 12960 03603 10152 20125 40142 57001 60004 333 20073 30/// 55121 70000=
85586,2015,11,13,15,00,AAXX 13154 85586 42960 02415 10176 20123 40136 56006=
85586,2015,11,13,18,00,AAXX 13184 85586 12960 02512 10184 20129 40134 57001 60001=
85586,2015,11,13,21,00,AAXX 13214 85586 42960 02607 10180 20123 40127 56007=
85586,2015,11,14,00,00,AAXX 14004 85586 12960 00306 10141 20116 40129 55001 60001 333 10197=
85586,2015,11,14,03,00,AAXX 14034 85586 NIL=
85586,2015,11,14,06,00,AAXX 14064 85586 NIL=
85586,2015,11,14,09,00,AAXX 14094 85586 NIL=
85586,2015,11,14,12,00,AAXX 14124 85586 11110 82504 10117 20114 40134 53016 60004 71022 886// 333 20075 30/// 55120 56099 70000 88702=
85586,2015,11,14,15,00,AAXX 14154 85586 42260 32908 10143 20120 40140 50006 83600 333 56600 83705=
85586,2015,11,14,18,00,AAXX 14184 85586 12960 22516 10168 20126 40134 56005 60001 80001 333 56006 82075=
85586,2015,11,14,21,00,AAXX 14214 85586 42960 52512 10155 20119 40128 56006 80001 333 56006 85075=
85586,2015,11,15,00,00,AAXX 15004 85586 12960 10000 10127 20109 40128 54000 60001 80001 333 10177 56006 81075=
85586,2015,11,15,03,00,AAXX 15034 85586 NIL=
85586,2015,11,15,06,00,AAXX 15064 85586 NIL=
85586,2015,11,15,09,00,AAXX 15094 85586 NIL=
85586,2015,11,15,12,00,AAXX 15124 85586 NIL=
85586,2015,11,15,15,00,AAXX 15154 85586 42960 02607 10159 20109 40156 58001=
85586,2015,11,15,18,00,AAXX 15184 85586 12960 42515 10171 20121 40151 58005 60001 80001 333 56006 84075=
85586,2015,11,15,21,00,AAXX 15214 85586 42960 22416 10156 20110 40142 56009 80001 333 56006 82075=
85586,2015,11,16,00,00,AAXX 16004 85586 12960 69902 10132 20108 40141 55002 60001 80001 333 10179 56006 86075=
85586,2015,11,16,03,00,AAXX 16034 85586 NIL=
85586,2015,11,16,06,00,AAXX 16064 85586 NIL=
85586,2015,11,16,09,00,AAXX 16094 85586 NIL=
85586,2015,11,16,12,00,AAXX 16124 85586 11358 82104 10126 20107 40152 52009 60004 70522 885// 333 20108 30/// 55101 56799 70000 88609=
85586,2015,11,16,15,00,AAXX 16154 85586 42460 82806 10143 20104 40160 52009 885// 333 56799 88616=
85586,2015,11,16,18,00,AAXX 16184 85586 12560 72410 10160 20114 40165 51006 60001 87500 333 56600 87628=
85586,2015,11,16,21,00,AAXX 16214 85586 42460 62508 10159 20119 40168 53007 82101 333 56606 82812 86070=
85586,2015,11,17,00,00,AAXX 17004 85586 12960 02505 10131 20117 40172 53002 60001 333 10171=
85586,2015,11,17,03,00,AAXX 17034 85586 NIL=
85586,2015,11,17,06,00,AAXX 17064 85586 NIL=
85586,2015,11,17,09,00,AAXX 17094 85586 NIL=
85586,2015,11,17,12,00,AAXX 17124 85586 12960 02505 10144 20105 40154 55000 60003 333 20078 30/// 55057 70000=
85586,2015,11,17,15,00,AAXX 17154 85586 42960 02414 10175 20118 40151 56003=
85586,2015,11,17,18,00,AAXX 17184 85586 12960 02418 10175 20112 40147 57004 60001=
85586,2015,11,17,21,00,AAXX 17214 85586 42960 02318 10161 20074 40143 56005=
85586,2015,11,18,00,00,AAXX 18004 85586 12960 02306 10120 20075 40157 53011 60001 333 10184=
85586,2015,11,18,03,00,AAXX 18034 85586 NIL=
85586,2015,11,18,06,00,AAXX 18064 85586 NIL=
85586,2015,11,18,09,00,AAXX 18094 85586 NIL=
85586,2015,11,18,12,00,AAXX 18124 85586 12960 60903 10111 20073 40168 52010 60004 80002 333 20059 30/// 55124 56006 70000 86074=
85586,2015,11,18,15,00,AAXX 18154 85586 42560 62507 10150 20078 40172 52005 83504 333 56606 83620 86073=
85586,2015,11,18,18,00,AAXX 18184 85586 12960 42418 10165 20067 40169 57002 60001 80001 333 56005 84073=
85586,2015,11,18,21,00,AAXX 18214 85586 42960 02416 10151 20077 40173 53003=
85586,2015,11,19,00,00,AAXX 19004 85586 12960 02704 10117 20086 40195 53021 60001 333 10168=
85586,2015,11,19,03,00,AAXX 19034 85586 NIL=
85586,2015,11,19,06,00,AAXX 19064 85586 NIL=
85586,2015,11,19,09,00,AAXX 19094 85586 NIL=
85586,2015,11,19,12,00,AAXX 19124 85586 12560 11404 10113 20073 40233 51004 60004 81500 333 20045 30/// 55113 56600 70000 81625=
85586,2015,11,19,15,00,AAXX 19154 85586 42560 12413 10141 20081 40231 57002 81100 333 56600 81829=
85586,2015,11,19,18,00,AAXX 19184 85586 12560 12317 10152 20078 40217 58013 60001 81100 333 56600 81826=
85586,2015,11,19,21,00,AAXX 19214 85586 42960 02316 10155 20085 40200 56014=
85586,2015,11,20,00,00,AAXX 20004 85586 12960 02105 10132 20066 40206 53002 60001 333 10170=
85586,2015,11,20,03,00,AAXX 20034 85586 NIL=
85586,2015,11,20,06,00,AAXX 20064 85586 NIL=
85586,2015,11,20,09,00,AAXX 20094 85586 NIL=
85586,2015,11,20,12,00,AAXX 20124 85586 12960 01805 10139 20053 40162 58005 60004 333 20063 30/// 55121 70000=
85586,2015,11,20,15,00,AAXX 20154 85586 42960 02415 10162 20075 40148 57013=
85586,2015,11,20,18,00,AAXX 20184 85586 12960 02514 10175 20095 40135 58012 60001=
85586,2015,11,20,21,00,AAXX 20214 85586 42960 02414 10169 20099 40120 56015=
85586,2015,11,21,00,00,AAXX 21004 85586 12960 11803 10126 20102 40126 53004 60001 80001 333 10182 56006 81075=
85586,2015,11,21,03,00,AAXX 21034 85586 NIL=
85586,2015,11,21,06,00,AAXX 21064 85586 NIL=
85586,2015,11,21,09,00,AAXX 21094 85586 NIL=
85586,2015,11,21,12,00,AAXX 21124 85586 11458 80304 10135 20105 40156 51018 60004 70522 885// 333 20106 30/// 55131 56799 70000 88611=
85586,2015,11,21,15,00,AAXX 21154 85586 42460 52709 10147 20104 40163 51007 85500 333 56700 85617=
85586,2015,11,21,18,00,AAXX 21184 85586 12960 02511 10156 20116 40162 55001 60001=
85586,2015,11,21,21,00,AAXX 21214 85586 42360 22610 10154 20116 40156 58006 82600 333 56700 82709=
85586,2015,11,22,00,00,AAXX 22004 85586 11458 72805 10132 20113 40158 53002 60001 70511 87500 333 10172 56700 87610=
85586,2015,11,22,03,00,AAXX 22034 85586 NIL=
85586,2015,11,22,06,00,AAXX 22064 85586 NIL=
85586,2015,11,22,09,00,AAXX 22094 85586 NIL=
85586,2015,11,22,12,00,AAXX 22124 85586 11358 80306 10135 20109 40155 51014 60004 70522 886// 333 20095 30/// 55084 56799 70000 88709=
85586,2015,11,22,15,00,AAXX 22154 85586 42460 42908 10156 20116 40161 50007 84500 333 56700 84616=
85586,2015,11,22,18,00,AAXX 22184 85586 12960 02807 10159 20111 40161 50000 60001=
85586,2015,11,22,21,00,AAXX 22214 85586 42960 02709 10162 20118 40156 57005=
85586,2015,11,23,00,00,AAXX 23004 85586 12960 00604 10135 20107 40148 55009 60001 333 10176=
85586,2015,11,23,03,00,AAXX 23034 85586 NIL=
85586,2015,11,23,06,00,AAXX 23064 85586 NIL=
85586,2015,11,23,09,00,AAXX 23094 85586 NIL=
85586,2015,11,23,12,00,AAXX 23124 85586 NIL=
85586,2015,11,23,15,00,AAXX 23154 85586 42960 02806 10169 20104 40147 50002=
85586,2015,11,23,18,00,AAXX 23184 85586 12960 02513 10170 20120 40148 54001 60001=
85586,2015,11,23,21,00,AAXX 23214 85586 42960 02514 10166 20124 40135 58013=
85586,2015,11,24,00,00,AAXX 24004 85586 12960 02906 10136 20118 40133 57003 60001 333 10181=
85586,2015,11,24,03,00,AAXX 24034 85586 NIL=
85586,2015,11,24,06,00,AAXX 24064 85586 NIL=
85586,2015,11,24,09,00,AAXX 24094 85586 NIL=
85586,2015,11,24,12,00,AAXX 24124 85586 12560 10503 10145 20106 40139 51013 60004 81500 333 20069 30/// 55128 56600 70000 81620=
85586,2015,11,24,15,00,AAXX 24154 85586 42560 13006 10173 20107 40145 53006 81500 333 56600 81625=
85586,2015,11,24,18,00,AAXX 24184 85586 12960 02709 10180 20121 40153 51009 60001=
85586,2015,11,24,21,00,AAXX 24214 85586 42960 02708 10181 20128 40149 57003=
85586,2015,11,25,00,00,AAXX 25004 85586 12960 62305 10146 20123 40146 56003 60001 80001 333 10192 56006 86075=
85586,2015,11,25,03,00,AAXX 25034 85586 NIL=
85586,2015,11,25,06,00,AAXX 25064 85586 NIL=
85586,2015,11,25,09,00,AAXX 25094 85586 NIL=
85586,2015,11,25,12,00,AAXX 25124 85586 12960 00203 10157 20103 40152 53020 60004 333 20076 30/// 55126 70000=
85586,2015,11,25,15,00,AAXX 25154 85586 42560 12610 10177 20129 40171 51019 81100 333 56000 81825=
85586,2015,11,25,18,00,AAXX 25184 85586 12560 12412 10192 20111 40174 50003 60001 81500 333 56600 81620=
85586,2015,11,25,21,00,AAXX 25214 85586 42960 02411 10181 20113 40163 56011=
85586,2015,11,26,00,00,AAXX 26004 85586 12960 02605 10145 20115 40163 54000 60001 333 10198=
85586,2015,11,26,03,00,AAXX 26034 85586 NIL=
85586,2015,11,26,06,00,AAXX 26064 85586 NIL=
85586,2015,11,26,09,00,AAXX 26094 85586 NIL=
85586,2015,11,26,12,00,AAXX 26124 85586 12960 00303 10148 20079 40172 52017 60004 333 20059 30/// 55123 70000=
85586,2015,11,26,15,00,AAXX 26154 85586 42560 12709 10169 20089 40184 53013 81500 333 56600 81630=
85586,2015,11,26,18,00,AAXX 26184 85586 12560 12414 10177 20099 40188 51004 60001 81500 333 56600 81630=
85586,2015,11,26,21,00,AAXX 26214 85586 42560 12512 10174 20117 40186 55002 81500 333 56600 81630=
85586,2015,11,27,00,00,AAXX 27004 85586 12560 12706 10140 20119 40200 53013 60001 81500 333 10192 56600 81630=
85586,2015,11,27,03,00,AAXX 27034 85586 NIL=
85586,2015,11,27,06,00,AAXX 27064 85586 NIL=
85586,2015,11,27,09,00,AAXX 27094 85586 NIL=
85586,2015,11,27,12,00,AAXX 27124 85586 12960 01505 10153 20105 40208 50000 60004 333 20069 30/// 55131 70000=
85586,2015,11,27,15,00,AAXX 27154 85586 42960 02415 10177 20113 40199 56009=
85586,2015,11,27,18,00,AAXX 27184 85586 12960 02318 10190 20114 40183 58014 60001=
85586,2015,11,27,21,00,AAXX 27214 85586 42960 02420 10184 20098 40168 56016=
85586,2015,11,28,00,00,AAXX 28004 85586 12960 02407 10141 20094 40171 53002 60001 333 10201=
85586,2015,11,28,03,00,AAXX 28034 85586 NIL=
85586,2015,11,28,06,00,AAXX 28064 85586 NIL=
85586,2015,11,28,09,00,AAXX 28094 85586 NIL=
85586,2015,11,28,12,00,AAXX 28124 85586 12960 01805 10162 20083 40154 50000 60004 333 20064 30/// 55132 70000=
85586,2015,11,28,15,00,AAXX 28154 85586 42960 02416 10174 20101 40147 57008=
85586,2015,11,28,18,00,AAXX 28184 85586 12960 02418 10180 20102 40137 56010 60001=
85586,2015,11,28,21,00,AAXX 28214 85586 42960 02512 10187 20106 40126 57009=
85586,2015,11,29,00,00,AAXX 29004 85586 NIL=
85586,2015,11,29,03,00,AAXX 29034 85586 NIL=
85586,2015,11,29,06,00,AAXX 29064 85586 NIL=
85586,2015,11,29,09,00,AAXX 29094 85586 NIL=
85586,2015,11,29,12,00,AAXX 29124 85586 12960 02503 10146 20108 40122 52006 60004 333 20069 30/// 55132 70000=
85586,2015,11,29,15,00,AAXX 29154 85586 42960 02707 10171 20114 40124 52002=
85586,2015,11,29,18,00,AAXX 29184 85586 12960 02708 10182 20127 40119 57004 60001=
85586,2015,11,29,21,00,AAXX 29214 85586 42960 02807 10169 20127 40116 55004=
85586,2015,11,30,00,00,AAXX 30004 85586 12960 02907 10145 20127 40127 53008 60001 333 10190=
85586,2015,11,30,03,00,AAXX 30034 85586 NIL=
85586,2015,11,30,06,00,AAXX 30064 85586 NIL=
85586,2015,11,30,09,00,AAXX 30094 85586 NIL=
85586,2015,11,30,12,00,AAXX 30124 85586 NIL=
85586,2015,11,30,15,00,AAXX 30154 85586 42460 83108 10171 20125 40150 53013 885// 333 56799 88616=
85586,2015,11,30,18,00,AAXX 30184 85586 12560 12912 10189 20134 40148 54001 6///1 81100 333 56700 81830=
85586,2015,11,30,21,00,AAXX 30214 85586 41257 82608 10160 20137 40148 55003 71000 885// 333 56699 88606=
85586,2015,12,01,00,00,AAXX 01004 85586 11230 82704 10142 20129 40147 55002 60001 71022 885// 333 10200 56699 83706 88610=
85586,2015,12,01,03,00,AAXX 01034 85586 NIL=
85586,2015,12,01,06,00,AAXX 01064 85586 NIL=
85586,2015,12,01,09,00,AAXX 01094 85586 NIL=
85586,2015,12,01,12,00,AAXX 01124 85586 11350 83104 10129 20118 40139 57001 69923 75062 885// 333 20122 31/// 55035 56699 70002 83707 88610=
85586,2015,12,01,15,00,AAXX 01154 85586 42460 82706 10154 20112 40137 58001 885// 333 56799 85613 88616=
85586,2015,12,01,18,00,AAXX 01184 85586 12560 32508 10172 20111 40128 57009 6///1 83100 333 56600 83822=
85586,2015,12,01,21,00,AAXX 01214 85586 42960 22411 10170 20122 40124 55004 80001 333 56006 82073=
85586,2015,12,02,00,00,AAXX 02004 85586 12460 52708 10134 20115 40135 53010 60001 85500 333 10180 56600 85610=
85586,2015,12,02,03,00,AAXX 02034 85586 NIL=
85586,2015,12,02,06,00,AAXX 02064 85586 NIL=
85586,2015,12,02,09,00,AAXX 02094 85586 NIL=
85586,2015,12,02,12,00,AAXX 02124 85586 11460 81003 10129 20106 40165 51014 69903 70252 885// 333 20099 30/// 55049 56099 79999 88615=
85586,2015,12,02,15,00,AAXX 02154 85586 42560 82607 10163 20098 40175 51012 885// 333 56099 88629=
85586,2015,12,02,18,00,AAXX 02184 85586 12560 12710 10182 20094 40175 54000 60001 81500 333 56600 81630=
85586,2015,12,02,21,00,AAXX 02214 85586 42960 02609 10177 20107 40176 54000=
85586,2015,12,03,00,00,AAXX 03004 85586 12960 12604 10144 20112 40187 53011 60001 80001 333 10193 56006 81075=
85586,2015,12,03,03,00,AAXX 03034 85586 NIL=
85586,2015,12,03,06,00,AAXX 03064 85586 NIL=
85586,2015,12,03,09,00,AAXX 03094 85586 NIL=
85586,2015,12,03,12,00,AAXX 03124 85586 12960 70903 10134 20108 40169 52002 60004 87030 333 20091 30/// 55080 56060 70000 87367=
85586,2015,12,03,15,00,AAXX 03154 85586 42960 52608 10175 20112 40168 58005 85030 333 56060 85367=
85586,2015,12,03,18,00,AAXX 03184 85586 12960 22413 10185 20125 40158 58010 6///1 80001 333 56006 82073=
85586,2015,12,03,21,00,AAXX 03214 85586 42960 02415 10184 20129 40155 57003=
85586,2015,12,04,00,00,AAXX 04004 85586 12960 00203 10151 20117 40160 52004 60001 333 10200=
85586,2015,12,04,03,00,AAXX 04034 85586 NIL=
85586,2015,12,04,06,00,AAXX 04064 85586 NIL=
85586,2015,12,04,09,00,AAXX 04094 85586 NIL=
85586,2015,12,04,12,00,AAXX 04124 85586 12960 62403 10137 20118 40163 51011 60003 80001 333 20085 30/// 55096 56000 70000 86075=
85586,2015,12,04,15,00,AAXX 04154 85586 42260 32806 10164 20126 40158 58003 81601 333 56706 81705=
85586,2015,12,04,18,00,AAXX 04184 85586 12960 22510 10182 20133 40154 55004 6///1 80001 333 56006 82071=
85586,2015,12,04,21,00,AAXX 04214 85586 42960 12613 10170 20129 40151 56003 80001 333 56007 81075=
85586,2015,12,05,00,00,AAXX 05004 85586 12260 63605 10145 20127 40156 53004 60001 81601 333 10190 56806 81706 85075=
85586,2015,12,05,03,00,AAXX 05034 85586 NIL=
85586,2015,12,05,06,00,AAXX 05064 85586 NIL=
85586,2015,12,05,09,00,AAXX 05094 85586 NIL=
85586,2015,12,05,12,00,AAXX 05124 85586 11140 80206 10134 20123 40161 50014 60003 71022 886// 333 20130 30/// 55101 56799 70000 88703=
85586,2015,12,05,15,00,AAXX 05154 85586 42960 03605 10185 20136 40158 50000=
85586,2015,12,05,18,00,AAXX 05184 85586 11258 82907 10157 20130 40160 52001 60001 70522 886// 333 56799 88704=
85586,2015,12,05,21,00,AAXX 05214 85586 41240 82607 10145 20131 40162 50001 71022 886// 333 56799 88704=
85586,2015,12,06,00,00,AAXX 06004 85586 11120 82705 10138 20132 40173 53011 60001 75022 886// 333 10188 56799 88703=
85586,2015,12,06,03,00,AAXX 06034 85586 NIL=
85586,2015,12,06,06,00,AAXX 06064 85586 NIL=
85586,2015,12,06,09,00,AAXX 06094 85586 NIL=
85586,2015,12,06,12,00,AAXX 06124 85586 12360 82303 10135 20122 40183 51014 60004 886// 333 20128 30/// 55021 56099 70000 88707=
85586,2015,12,06,15,00,AAXX 06154 85586 42460 82705 10153 20119 40183 50001 886// 333 56099 88712=
85586,2015,12,06,18,00,AAXX 06184 85586 12960 12410 10180 20127 40163 57020 60001 80001 333 56006 81073=
85586,2015,12,06,21,00,AAXX 06214 85586 42960 02413 10169 20129 40144 57017=
85586,2015,12,07,00,00,AAXX 07004 85586 12960 10605 10155 20125 40138 55007 60001 80002 333 10197 56006 81075=
85586,2015,12,07,03,00,AAXX 07034 85586 NIL=
85586,2015,12,07,06,00,AAXX 07064 85586 NIL=
85586,2015,12,07,09,00,AAXX 07094 85586 NIL=
85586,2015,12,07,12,00,AAXX 07124 85586 11207 80703 10125 20122 40138 51013 60004 74642 886// 333 20094 30/// 55080 56099 70000 88704=
85586,2015,12,07,15,00,AAXX 07154 85586 42260 22608 10160 20125 40139 52002 82600 333 56600 82704=
85586,2015,12,07,18,00,AAXX 07184 85586 12960 32417 10197 20130 40126 58012 6///1 80001 333 56006 83071=
85586,2015,12,07,21,00,AAXX 07214 85586 42960 42416 10181 20117 40116 56010 84031 333 56066 82365=
85586,2015,12,08,00,00,AAXX 08004 85586 NIL=
85586,2015,12,08,03,00,AAXX 08034 85586 NIL=
85586,2015,12,08,06,00,AAXX 08064 85586 NIL=
85586,2015,12,08,09,00,AAXX 08094 85586 NIL=
85586,2015,12,08,12,00,AAXX 08124 85586 12460 83304 10134 20102 40142 51014 60003 885// 333 20110 30/// 55085 56099 70000 88611=
85586,2015,12,08,15,00,AAXX 08154 85586 42360 23011 10157 20123 40086 52006 82600 333 56700 82705=
85586,2015,12,08,21,00,AAXX 08214 85586 42960 02608 10166 20112 40145 58005=
85586,2015,12,09,00,00,AAXX 09004 85586 12960 03405 10143 20111 40153 53006 60001 333 10180=
85586,2015,12,09,03,00,AAXX 09034 85586 NIL=
85586,2015,12,09,06,00,AAXX 09064 85586 NIL=
85586,2015,12,09,09,00,AAXX 09094 85586 NIL=
85586,2015,12,09,12,00,AAXX 09124 85586 12960 03504 10153 20117 40170 53018 60003 333 20085 30/// 55095 70000=
85586,2015,12,09,15,00,AAXX 09154 85586 42360 23011 10157 20123 40086 52006 82600 333 56700 82705=
85586,2015,12,09,18,00,AAXX 09184 85586 12960 02808 10173 20123 40173 58004 6///1=
85586,2015,12,09,21,00,AAXX 09214 85586 42960 02808 10167 20111 40173 52001=
85586,2015,12,10,00,00,AAXX 10004 85586 12960 32703 10141 20111 40182 53007 60001 80001 333 10180 56000 83075=
85586,2015,12,10,03,00,AAXX 10034 85586 NIL=
85586,2015,12,10,06,00,AAXX 10064 85586 NIL=
85586,2015,12,10,09,00,AAXX 10094 85586 NIL=
85586,2015,12,10,12,00,AAXX 10124 85586 11256 83303 10134 20115 40165 52012 60003 70522 886// 333 20088 30/// 55127 56799 70000 88704=
85586,2015,12,10,15,00,AAXX 10154 85586 42360 23108 10165 20123 40166 52002 82600 333 56700 82709=
85586,2015,12,10,18,00,AAXX 10184 85586 12460 72708 10166 20126 40164 58002 60001 87600 333 56700 87710=
85586,2015,12,10,21,00,AAXX 10214 85586 42460 52807 10165 20121 40157 58007 85600 333 56700 85710=
85586,2015,12,11,00,00,AAXX 11004 85586 12460 72704 10145 20120 40159 53001 60001 87600 333 10179 56700 87710=
85586,2015,12,11,03,00,AAXX 11034 85586 NIL=
85586,2015,12,11,06,00,AAXX 11064 85586 NIL=
85586,2015,12,11,09,00,AAXX 11094 85586 NIL=
85586,2015,12,11,12,00,AAXX 11124 85586 11356 80503 10132 20113 40142 52011 60004 70522 886// 333 20127 30/// 55087 56799 70000 88707=
85586,2015,12,11,15,00,AAXX 11154 85586 41458 83605 10163 20125 40140 58001 70522 886// 333 56799 88711=
85586,2015,12,11,18,00,AAXX 11184 85586 11458 82807 10169 20133 40140 55000 60001 70522 886// 333 56799 88710=
85586,2015,12,11,21,00,AAXX 11214 85586 41458 82909 10161 20131 40133 56007 70522 886// 333 56799 88710=
85586,2015,12,12,00,00,AAXX 12004 85586 11456 82905 10148 20122 40129 55003 60001 70522 886// 333 10183 56799 88711=
85586,2015,12,12,03,00,AAXX 12034 85586 NIL=
85586,2015,12,12,06,00,AAXX 12064 85586 NIL=
85586,2015,12,12,09,00,AAXX 12094 85586 NIL=
85586,2015,12,12,12,00,AAXX 12124 85586 12460 52404 10145 20104 40135 51017 60004 83502 333 20122 30/// 55014 56606 70000 83612 83070=
85586,2015,12,12,15,00,AAXX 12154 85586 42960 72806 10151 20103 40133 54000 87030 333 56060 87367=
85586,2015,12,12,18,00,AAXX 12184 85586 12460 72810 10166 20110 40149 53016 60001 85530 333 56660 85615 85366=
85586,2015,12,12,21,00,AAXX 12214 85586 42460 52510 10155 20107 40152 51002 85500 333 56600 85617=
85586,2015,12,13,00,00,AAXX 13004 85586 12460 62306 10139 20102 40154 53002 60001 86500 333 10175 56600 86617=
85586,2015,12,13,03,00,AAXX 13034 85586 NIL=
85586,2015,12,13,06,00,AAXX 13064 85586 NIL=
85586,2015,12,13,09,00,AAXX 13094 85586 NIL=
85586,2015,12,13,12,00,AAXX 13124 85586 12560 51905 10145 20087 40165 51015 60004 85500 333 20117 30/// 55065 56600 70000 85625=
85586,2015,12,13,15,00,AAXX 13154 85586 42560 32609 10175 20085 40164 54000 83500 333 56600 83632=
85586,2015,12,13,18,00,AAXX 13184 85586 12960 12611 10186 20089 40168 52006 60001 80001 333 56006 81075=
85586,2015,12,13,21,00,AAXX 13214 85586 42660 72610 10170 20097 40167 50001 85502 333 56606 85640 85070=
85586,2015,12,14,00,00,AAXX 14004 85586 12660 82406 10159 20105 40170 52003 60001 885// 333 10190 56099 88636=
85586,2015,12,14,06,00,AAXX 14064 85586 NIL=
85586,2015,12,14,09,00,AAXX 14094 85586 NIL=
85586,2015,12,14,12,00,AAXX 14124 85586 12960 01403 10162 20101 40154 52002 60004 333 20073 30/// 55083 70000=
85586,2015,12,14,15,00,AAXX 14154 85586 42960 02413 10192 20111 40156 50002=
85586,2015,12,14,18,00,AAXX 14184 85586 12960 02416 10203 20116 40155 58002 60001=
85586,2015,12,14,21,00,AAXX 14214 85586 42960 02414 10196 20136 40144 58009=
85586,2015,12,15,00,00,AAXX 15004 85586 12960 02405 10162 20133 40144 55001 60001 333 10208=
85586,2015,12,15,03,00,AAXX 15034 85586 NIL=
85586,2015,12,15,06,00,AAXX 15064 85586 NIL=
85586,2015,12,15,09,00,AAXX 15094 85586 NIL=
85586,2015,12,15,12,00,AAXX 15124 85586 12960 09902 10168 20126 40134 53005 60004 333 20088 30/// 55127 70000=
85586,2015,12,15,15,00,AAXX 15154 85586 42960 22807 10187 20123 40131 57002 80001 333 56007 82075=
85586,2015,12,15,18,00,AAXX 15184 85586 12960 42511 10185 20121 40122 56009 6///1 80002 333 56007 84071=
85586,2015,12,15,21,00,AAXX 15214 85586 42960 42709 10165 20119 40131 51009 80002 333 56007 84073=
85586,2015,12,16,00,00,AAXX 16004 85586 12960 73104 10149 20102 40141 50005 60001 80001 333 10206 56006 87075=
85586,2015,12,16,03,00,AAXX 16034 85586 NIL=
85586,2015,12,16,06,00,AAXX 16064 85586 NIL=
85586,2015,12,16,09,00,AAXX 16094 85586 NIL=
85586,2015,12,16,12,00,AAXX 16124 85586 12560 89903 10154 20104 40152 51013 60003 885// 333 20076 30/// 55102 56799 70000 88620=
85586,2015,12,16,15,00,AAXX 16154 85586 42560 22707 10173 20103 40157 53004 82500 333 56600 82623=
85586,2015,12,16,18,00,AAXX 16184 85586 12960 22608 10181 20110 40159 50001 60001 80001 333 56006 82073=
85586,2015,12,16,21,00,AAXX 16214 85586 42460 22709 10174 20117 40154 58005 82100 333 56600 82815=
85586,2015,12,17,00,00,AAXX 17004 85586 12460 52505 10146 20110 40155 53000 60001 85500 333 10190 56700 85615=
85586,2015,12,17,03,00,AAXX 17034 85586 NIL=
85586,2015,12,17,06,00,AAXX 17064 85586 NIL=
85586,2015,12,17,09,00,AAXX 17094 85586 NIL=
85586,2015,12,17,12,00,AAXX 17124 85586 NIL=
85586,2015,12,17,15,00,AAXX 17154 85586 NIL=
85586,2015,12,17,18,00,AAXX 17184 85586 NIL=
85586,2015,12,17,21,00,AAXX 17214 85586 NIL=
85586,2015,12,18,00,00,AAXX 18004 85586 NIL=
85586,2015,12,18,03,00,AAXX 18034 85586 NIL=
85586,2015,12,18,06,00,AAXX 18064 85586 NIL=
85586,2015,12,18,09,00,AAXX 18094 85586 NIL=
85586,2015,12,18,15,00,AAXX 18154 85586 NIL=
85586,2015,12,18,18,00,AAXX 18184 85586 NIL=
85586,2015,12,19,00,00,AAXX 19004 85586 NIL=
85586,2015,12,19,15,00,AAXX 19154 85586 NIL=
85586,2015,12,19,18,00,AAXX 19184 85586 NIL=
85586,2015,12,19,21,00,AAXX 19214 85586 NIL=
85586,2015,12,20,00,00,AAXX 20004 85586 NIL=
85586,2015,12,20,03,00,AAXX 20034 85586 NIL=
85586,2015,12,20,06,00,AAXX 20064 85586 NIL=
85586,2015,12,20,09,00,AAXX 20094 85586 NIL=
85586,2015,12,20,12,00,AAXX 20124 85586 NIL=
85586,2015,12,20,15,00,AAXX 20154 85586 NIL=
85586,2015,12,20,21,00,AAXX 20214 85586 NIL=
85586,2015,12,21,00,00,AAXX 21004 85586 12560 52408 10143 20098 40167 54000 60001 85500 333 10187 56600 85620=
85586,2015,12,21,03,00,AAXX 21034 85586 NIL=
85586,2015,12,21,06,00,AAXX 21064 85586 NIL=
85586,2015,12,21,09,00,AAXX 21094 85586 NIL=
85586,2015,12,21,12,00,AAXX 21124 85586 12960 29903 10158 20095 40160 51008 60004 80001 333 20106 30/// 55089 56006 70000 82075=
85586,2015,12,21,15,00,AAXX 21154 85586 42960 02612 10174 20101 40151 56010=
85586,2015,12,21,18,00,AAXX 21184 85586 12960 02416 10185 20116 40146 58005 60001=
85586,2015,12,21,21,00,AAXX 21214 85586 42960 22415 10184 20116 40136 57008 80001 333 56006 82075=
85586,2015,12,22,00,00,AAXX 22004 85586 12960 22410 10153 20123 40145 53007 60001 80001 333 10193 56006 82075=
85586,2015,12,22,03,00,AAXX 22034 85586 NIL=
85586,2015,12,22,06,00,AAXX 22064 85586 NIL=
85586,2015,12,22,09,00,AAXX 22094 85586 NIL=
85586,2015,12,22,12,00,AAXX 22124 85586 12960 09902 10148 20107 40141 52001 60004 333 20077 30/// 55142 70000=
85586,2015,12,22,15,00,AAXX 22154 85586 42960 02512 10184 20113 40141 52002=
85586,2015,12,22,18,00,AAXX 22184 85586 12960 02511 10193 20128 40135 58005 6///1=
85586,2015,12,22,21,00,AAXX 22214 85586 42960 22413 10188 20131 40139 53002 80001 333 56006 8207=
85586,2015,12,23,00,00,AAXX 23004 85586 12960 02609 10150 20125 40152 53012 60001 333 10205=
85586,2015,12,23,03,00,AAXX 23034 85586 NIL=
85586,2015,12,23,09,00,AAXX 23094 85586 NIL=
85586,2015,12,23,12,00,AAXX 23124 85586 12960 29901 10169 20099 40161 51011 60003 80001 333 20095 30/// 55116 56006 70000 82075=
85586,2015,12,23,15,00,AAXX 23154 85586 42960 02414 10198 20095 40159 50001=
85586,2015,12,23,18,00,AAXX 23184 85586 12960 02418 10198 20119 40152 58007 6///1=
85586,2015,12,23,21,00,AAXX 23214 85586 42960 02417 10197 20116 40137 56015=
85586,2015,12,24,00,00,AAXX 24004 85586 12960 02306 10161 20094 40133 55005 60001 333 10212=
85586,2015,12,24,03,00,AAXX 24034 85586 NIL=
85586,2015,12,24,06,00,AAXX 24064 85586 NIL=
85586,2015,12,24,09,00,AAXX 24094 85586 NIL=
85586,2015,12,24,12,00,AAXX 24124 85586 12960 02505 10151 20109 40126 51008 60003 333 20071 30/// 55123 70000=
85586,2015,12,24,15,00,AAXX 24154 85586 42960 02510 10189 20110 40125 57001=
85586,2015,12,24,18,00,AAXX 24184 85586 12960 02515 10190 20121 40122 57002 60001=
85586,2015,12,24,21,00,AAXX 24214 85586 42960 02708 10186 20108 40117 57005=
85586,2015,12,25,00,00,AAXX 25004 85586 12960 03206 10147 20113 40128 53010 60001 333 10212=
85586,2015,12,25,03,00,AAXX 25034 85586 NIL=
85586,2015,12,25,06,00,AAXX 25064 85586 NIL=
85586,2015,12,25,09,00,AAXX 25094 85586 NIL=
85586,2015,12,25,12,00,AAXX 25124 85586 12260 83404 10132 20116 40146 51019 60004 886// 333 20086 30/// 55126 56099 70000 88705=
85586,2015,12,25,15,00,AAXX 25154 85586 42360 82806 10149 20119 40152 52006 886// 333 56699 88707=
85586,2015,12,25,18,00,AAXX 25184 85586 12460 62609 10171 20123 40147 57004 60001 86600 333 56600 86710=
85586,2015,12,25,21,00,AAXX 25214 85586 42460 82608 10162 20126 40139 58008 886// 333 56699 88710=
85586,2015,12,26,00,00,AAXX 26004 85586 12360 72804 10147 20122 40135 55006 60001 87600 333 10180 56600 87709=
85586,2015,12,26,03,00,AAXX 26034 85586 NIL=
85586,2015,12,26,06,00,AAXX 26064 85586 NIL=
85586,2015,12,26,09,00,AAXX 26094 85586 NIL=
85586,2015,12,26,12,00,AAXX 26124 85586 12260 89902 10132 20114 40127 52009 60004 886// 333 20120 30/// 55021 56099 70000 88706=
85586,2015,12,26,15,00,AAXX 26154 85586 42360 62708 10157 20119 40126 54000 86600 333 56000 86707=
85586,2015,12,26,18,00,AAXX 26184 85586 12360 22511 10171 20127 40118 56008 60001 81601 333 56006 81708=
85586,2015,12,26,21,00,AAXX 26214 85586 42360 42711 10166 20128 40111 58007 84600 333 56600 84709=
85586,2015,12,27,00,00,AAXX 27004 85586 12960 00107 10150 20125 40106 55005 60001 333 10181=
85586,2015,12,27,03,00,AAXX 27034 85586 NIL=
85586,2015,12,27,06,00,AAXX 27064 85586 NIL=
85586,2015,12,27,09,00,AAXX 27094 85586 NIL=
85586,2015,12,27,12,00,AAXX 27124 85586 12960 02904 10147 20115 40098 51006 60004 333 20080 30/// 55104 70000=
85586,2015,12,27,15,00,AAXX 27154 85586 42460 12608 10168 20126 40103 52005 81600 333 56700 81710=
85586,2015,12,27,18,00,AAXX 27184 85586 12260 52609 10177 20139 40103 52001 60001 85600 333 56700 85706=
85586,2015,12,27,21,00,AAXX 27214 85586 42960 02809 10180 20134 40090 58011=
85586,2015,12,28,00,00,AAXX 28004 85586 12960 00208 10159 20131 40094 53001 60001 333 10190=
85586,2015,12,28,03,00,AAXX 28034 85586 NIL=
85586,2015,12,28,06,00,AAXX 28064 85586 NIL=
85586,2015,12,28,09,00,AAXX 28094 85586 NIL=
85586,2015,12,28,12,00,AAXX 28124 85586 11358 83505 10145 20122 40100 51011 60004 70522 886// 333 20115 30/// 55132 56799 70000 88708=
85586,2015,12,28,15,00,AAXX 28154 85586 42360 32809 10167 20127 40112 53012 83100 333 56700 83808=
85586,2015,12,28,18,00,AAXX 28184 85586 NIL=
85586,2015,12,28,21,00,AAXX 28214 85586 42360 83106 10167 20144 40125 50003 886// 333 56799 8870=
85586,2015,12,29,00,00,AAXX 29004 85586 11106 82604 10157 20152 40129 53005 69921 75344 886// 333 10182 56799 88702=
85586,2015,12,29,03,00,AAXX 29034 85586 NIL=
85586,2015,12,29,06,00,AAXX 29064 85586 NIL=
85586,2015,12,29,09,00,AAXX 29094 85586 NIL=
85586,2015,12,29,12,00,AAXX 29124 85586 11256 82205 10150 20144 40156 52005 60013 70522 886// 333 20145 31/// 55132 56799 70014 88704=
85586,2015,12,29,15,00,AAXX 29154 85586 NIL=
85586,2015,12,29,18,00,AAXX 29184 85586 12460 82909 10185 20147 40167 51004 60001 8750/ 333 56700 85710 87613=
85586,2015,12,29,21,00,AAXX 29214 85586 NIL=
85586,2015,12,30,00,00,AAXX 30004 85586 11458 82704 10171 20153 40171 53007 60001 70522 886// 333 10199 56799 88713=
85586,2015,12,30,03,00,AAXX 30034 85586 NIL=
85586,2015,12,30,06,00,AAXX 30064 85586 NIL=
85586,2015,12,30,09,00,AAXX 30094 85586 NIL=
85586,2015,12,30,12,00,AAXX 30124 85586 12460 60804 10171 20135 40159 51005 60004 84501 333 20130 30/// 55056 56606 70000 84610 83075=
85586,2015,12,30,15,00,AAXX 30154 85586 42960 02511 10199 20148 40152 55006=
85586,2015,12,30,18,00,AAXX 30184 85586 12960 22413 10205 20145 40144 56008 60001 80001 333 56006 82075=
85586,2015,12,30,21,00,AAXX 30214 85586 42960 02415 10202 20142 40137 58007=
85586,2015,12,31,00,00,AAXX 31004 85586 12960 52407 10171 20131 40138 54000 60001 80001 333 10219 56006 85075=
85586,2015,12,31,03,00,AAXX 31034 85586 NIL=
85586,2015,12,31,06,00,AAXX 31064 85586 NIL=
85586,2015,12,31,09,00,AAXX 31094 85586 NIL=
85586,2015,12,31,12,00,AAXX 31124 85586 11250 83303 10143 20129 40117 51007 60004 71022 886// 333 20115 30/// 55115 56099 70000 88705=
85586,2015,12,31,15,00,AAXX 31154 85586 42360 83305 10171 20134 40124 51008 886// 333 56799 88709=
85586,2015,12,31,18,00,AAXX 31184 85586 12360 43010 10192 20141 40120 55003 60001 84600 333 56700 84709=
85586,2015,12,31,21,00,AAXX 31214 85586 42360 83305 10171 20134 40124 51008 886// 333 56799 8870=
