85586,2002,01,01,00,00,AAXX 01004 85586 32460 52506 10162 20137 40146 57016 82501 333 10192 56506 82615 83075=
85586,2002,01,01,06,00,AAXX 01064 85586 NIL=
85586,2002,01,01,09,00,AAXX 01094 85586 NIL=
85586,2002,01,01,12,00,AAXX 01124 85586 32460 73603 10168 20140 40170 52/// 87500 333 20122 30/// 50300 55028 58600 87615=
85586,2002,01,01,15,00,AAXX 01154 85586 42960 23012 10204 20148 40173 51003 80001 333 56006 82075=
85586,2002,01,01,18,00,AAXX 01184 85586 32460 82803 10172 20146 40181 52008 885// 333 56099 88613=
85586,2002,01,01,21,00,AAXX 01214 85586 41430 82808 10168 20152 40175 58006 71022 885// 333 56099 88610=
85586,2002,01,02,00,00,AAXX 02004 85586 32460 83006 10164 20148 40177 54002 885// 333 10204 56099 88610=
85586,2002,01,02,03,00,AAXX 02034 85586 NIL=
85586,2002,01,02,06,00,AAXX 02064 85586 NIL=
85586,2002,01,02,09,00,AAXX 02094 85586 NIL=
85586,2002,01,02,12,00,AAXX 02124 85586 32460 80402 10152 20136 40194 52/// 885// 333 20146 30/// 50240 55041 56099 88610=
85586,2002,01,02,15,00,AAXX 02154 85586 42460 23103 10190 20141 40190 58003 82500 333 56700 82613=
85586,2002,01,02,18,00,AAXX 02184 85586 32460 52608 10192 20143 40183 57007 85500 333 56600 85615=
85586,2002,01,02,21,00,AAXX 02214 85586 42460 22807 10194 20146 40176 56007 82500 333 56600 82615=
85586,2002,01,03,00,00,AAXX 03004 85586 32960 00206 10170 20129 40171 56005 333 10200=
85586,2002,01,03,03,00,AAXX 03034 85586 NIL=
85586,2002,01,03,06,00,AAXX 03064 85586 NIL=
85586,2002,01,03,09,00,AAXX 03094 85586 NIL=
85586,2002,01,03,12,00,AAXX 03124 85586 32960 00000 10176 20122 40161 55/// 333 20104 30/// 50290 55088=
85586,2002,01,03,15,00,AAXX 03154 85586 42960 02806 10214 20132 40160 54001=
85586,2002,01,03,18,00,AAXX 03184 85586 32960 02710 10210 20111 40162 54001=
85586,2002,01,03,21,00,AAXX 03214 85586 42960 02811 10192 20131 40162 54001=
85586,2002,01,04,00,00,AAXX 04004 85586 32960 02706 1015 20133 40167 52005 333 10216=
85586,2002,01,04,03,00,AAXX 04034 85586 NIL=
85586,2002,01,04,06,00,AAXX 04064 85586 NIL=
85586,2002,01,04,09,00,AAXX 04094 85586 NIL=
85586,2002,01,04,12,00,AAXX 04124 85586 32560 60502 10152 20125 40183 52/// 84501 333 20119 30/// 50360 55126 56605 84620=
85586,2002,01,04,15,00,AAXX 04154 85586 42560 42508 10186 20140 40190 52008 83501 333 56605 83620=
85586,2002,01,04,18,00,AAXX 04184 85586 32597 71714 10234 20180 40158 54000 85406=
85586,2002,01,04,21,00,AAXX 04214 85586 42460 12506 10196 20148 40187 54001 81500 333 56600 81617=
85586,2002,01,05,00,00,AAXX 05004 85586 32460 53302 10164 20141 40188 54001 85500 333 10216 56600 85617=
85586,2002,01,05,03,00,AAXX 05034 85586 NIL=
85586,2002,01,05,06,00,AAXX 05064 85586 NIL=
85586,2002,01,05,09,00,AAXX 05094 85586 NIL=
85586,2002,01,05,12,00,AAXX 05124 85586 32960 00000 10173 20140 40178 52/// 333 20100 30/// 50400 55113=
85586,2002,01,05,15,00,AAXX 05154 85586 42960 02610 10202 20143 40178 54001=
85586,2002,01,05,18,00,AAXX 05184 85586 32960 02612 10210 20150 40164 57005=
85586,2002,01,05,21,00,AAXX 05214 85586 42960 03111 10212 20118 40150 57014=
85586,2002,01,06,00,00,AAXX 06004 85586 32960 00404 10170 20133 40158 53006 333 10214=
85586,2002,01,06,03,00,AAXX 06034 85586 NIL=
85586,2002,01,06,06,00,AAXX 06064 85586 NIL=
85586,2002,01,06,09,00,AAXX 06094 85586 NIL=
85586,2002,01,06,12,00,AAXX 06124 85586 32460 83204 10156 20131 40168 53/// 885// 333 20134 30/// 50420 55123 56799 88610=
85586,2002,01,06,15,00,AAXX 06154 85586 42460 22806 10188 20135 40166 54001 82500 333 56600 82613=
85586,2002,01,06,18,00,AAXX 06184 85586 32460 22706 10194 20137 40164 56003 82500 333 56600 82613=
85586,2002,01,06,21,00,AAXX 06214 85586 42460 53106 10182 20139 40152 57011=
85586,2002,01,07,00,00,AAXX 07004 85586 32460 63004 10164 20139 40159 57009 86500 333 10195 56600 86615=
85586,2002,01,07,03,00,AAXX 07034 85586 NIL=
85586,2002,01,07,06,00,AAXX 07064 85586 NIL=
85586,2002,01,07,09,00,AAXX 07094 85586 NIL=
85586,2002,01,07,12,00,AAXX 07124 85586 32460 82804 10156 20127 40185 52/// 885// 333 20148 30/// 50400 55095 56099 88615=
85586,2002,01,07,15,00,AAXX 07154 85586 42460 82806 10176 20112 40201 52016 885// 333 56699 88613=
85586,2002,01,07,18,00,AAXX 07184 85586 32960 02407 10203 20109 40194 58006=
85586,2002,01,07,21,00,AAXX 07214 85586 42960 02609 10202 20112 40182 57012=
85586,2002,01,08,00,00,AAXX 08004 85586 32960 02804 10170 20135 40187 53004 333 10208=
85586,2002,01,08,03,00,AAXX 08034 85586 NIL=
85586,2002,01,08,06,00,AAXX 08064 85586 NIL=
85586,2002,01,08,09,00,AAXX 08094 85586 NIL=
85586,2002,01,08,12,00,AAXX 08124 85586 32960 20903 10176 20132 40201 50/// 80001 333 20104 30/// 50430 55079 56006 82075=
85586,2002,01,08,15,00,AAXX 08154 85586 42960 22712 10202 20146 40203 54002 80001 333 56006 82075=
85586,2002,01,08,18,00,AAXX 08184 85586 35960 02413 10217 20142 40200 54002=
85586,2002,01,08,21,00,AAXX 08214 85586 NIL=
85586,2002,01,09,00,00,AAXX 09004 85586 32960 02707 10178 20149 40200 53006 333 10222=
85586,2002,01,09,03,00,AAXX 09034 85586 NIL=
85586,2002,01,09,06,00,AAXX 09064 85586 NIL=
85586,2002,01,09,09,00,AAXX 09094 85586 NIL=
85586,2002,01,09,12,00,AAXX 09124 85586 32960 02804 10177 20150 40198 52/// 333 20101 30/// 50410 55127=
85586,2002,01,09,15,00,AAXX 09154 85586 42960 02710 10190 20165 40195 58003=
85586,2002,01,09,18,00,AAXX 09184 85586 31250 52411 10190 20165 40192 53003 70511 85600 333 56600 85704=
85586,2002,01,09,21,00,AAXX 09214 85586 42260 13007 10206 20157 40175 57015 81600 333 56600 81705=
85586,2002,01,10,00,00,AAXX 10004 85586 32960 00304 10187 20139 40166 57011 333 10226=
85586,2002,01,10,03,00,AAXX 10034 85586 NIL=
85586,2002,01,10,06,00,AAXX 10064 85586 NIL=
85586,2002,01,10,09,00,AAXX 10094 85586 NIL=
85586,2002,01,10,12,00,AAXX 10124 85586 32960 00000 10176 20133 40179 52/// 333 20126 30/// 50440 55119=
85586,2002,01,10,15,00,AAXX 10154 85586 42960 03007 10213 20140 40185 52008=
85586,2002,01,10,18,00,AAXX 10184 85586 32960 02506 10216 20135 40182 58003=
85586,2002,01,10,21,00,AAXX 10214 85586 NIL=
85586,2002,01,11,00,00,AAXX 11004 85586 32960 00505 10188 20135 40162 57007 333 10225=
85586,2002,01,11,03,00,AAXX 11034 85586 NIL=
85586,2002,01,11,06,00,AAXX 11064 85586 NIL=
85586,2002,01,11,09,00,AAXX 11094 85586 NIL=
85586,2002,01,11,12,00,AAXX 11124 85586 32960 00000 10176 20143 40146 53/// 333 20094 30/// 50460 55128=
85586,2002,01,11,15,00,AAXX 11154 85586 42960 03004 10215 20143 40149 52005=
85586,2002,01,11,18,00,AAXX 11184 85586 32960 02708 10204 20143 40149 54001=
85586,2002,01,11,21,00,AAXX 11214 85586 NIL=
85586,2002,01,12,00,00,AAXX 12004 85586 32960 00000 10192 20134 40129 54003 333 10217=
85586,2002,01,12,03,00,AAXX 12034 85586 NIL=
85586,2002,01,12,06,00,AAXX 12064 85586 NIL=
85586,2002,01,12,09,00,AAXX 12094 85586 NIL=
85586,2002,01,12,12,00,AAXX 12124 85586 32960 00000 10174 20130 40145 52/// 333 20110 30/// 50430 55126=
85586,2002,01,12,15,00,AAXX 12154 85586 42460 23110 10184 20143 40161 52016 82500 333 56700 82613=
85586,2002,01,12,18,00,AAXX 12184 85586 32960 02708 10202 20131 40159 54001=
85586,2002,01,12,21,00,AAXX 12214 85586 42460 22915 10198 20147 40158 54001 82500 333 56600 82613=
85586,2002,01,13,00,00,AAXX 13004 85586 32960 02403 10180 20144 40163 53004 333 10206=
85586,2002,01,13,03,00,AAXX 13034 85586 NIL=
85586,2002,01,13,06,00,AAXX 13064 85586 NIL=
85586,2002,01,13,09,00,AAXX 13094 85586 NIL=
85586,2002,01,13,12,00,AAXX 13124 85586 32960 03004 10166 20139 40185 52/// 333 20110 30/// 50480 55127=
85586,2002,01,13,15,00,AAXX 13154 85586 42960 02612 10202 20127 40185 54001=
85586,2002,01,13,18,00,AAXX 13184 85586 32960 02620 10210 20094 40171 57013=
85586,2002,01,13,21,00,AAXX 13214 85586 42960 02517 10214 20089 40158 57013=
85586,2002,01,14,00,00,AAXX 14004 85586 32960 02404 10176 20093 40159 54001 333 10216=
85586,2002,01,14,03,00,AAXX 14034 85586 NIL=
85586,2002,01,14,06,00,AAXX 14064 85586 NIL=
85586,2002,01,14,09,00,AAXX 14094 85586 NIL=
85586,2002,01,14,12,00,AAXX 14124 85586 32960 00000 10164 20055 40146 56/// 333 20090 30/// 50420 55125=
85586,2002,01,14,15,00,AAXX 14154 85586 42960 02607 10190 20082 40150 53004=
85586,2002,01,14,18,00,AAXX 14184 85586 32960 02609 10193 20100 40148 54002=
85586,2002,01,14,21,00,AAXX 14214 85586 42960 02705 10174 20115 40142 57006=
85586,2002,01,15,00,00,AAXX 15004 85586 32960 03104 10145 20126 40147 53004 333 10193=
85586,2002,01,15,03,00,AAXX 15034 85586 NIL=
85586,2002,01,15,06,00,AAXX 15064 85586 NIL=
85586,2002,01,15,09,00,AAXX 15094 85586 NIL=
85586,2002,01,15,12,00,AAXX 15124 85586 32460 83605 10133 20106 40141 53/// 886// 333 20117 30/// 50370 55128 56799 88610=
85586,2002,01,15,15,00,AAXX 15154 85586 42460 13208 10172 20126 40143 52003 81600 333 56700 81710=
85586,2002,01,15,18,00,AAXX 15184 85586 32460 13310 10183 20118 40147 52004 81600 333 56700 81710=
85586,2002,01,15,21,00,AAXX 15214 85586 42960 03010 10189 20122 40142 58005=
85586,2002,01,16,00,00,AAXX 16004 85586 32960 03102 10164 20130 40139 57003 333 10196=
85586,2002,01,16,03,00,AAXX 16034 85586 NIL=
85586,2002,01,16,06,00,AAXX 16064 85586 NIL=
85586,2002,01,16,09,00,AAXX 16094 85586 NIL=
85586,2002,01,16,12,00,AAXX 16124 85586 32460 83603 10143 20124 40140 53/// 886// 333 20095 30/// 50330 55094 56799 88710=
85586,2002,01,16,15,00,AAXX 16154 85586 42460 83006 10171 20132 40155 52016 885// 333 56799 88617=
85586,2002,01,16,18,00,AAXX 16184 85586 32560 83210 10189 20127 40157 54002 885// 333 56799 88620=
85586,2002,01,16,21,00,AAXX 16214 85586 42560 13007 10197 20137 40151 57005 81500 333 56700 81620=
85586,2002,01,17,00,00,AAXX 17004 85586 32560 10000 10167 20133 40152 54000 81500 333 10202 56700 81620=
85586,2002,01,17,03,00,AAXX 17034 85586 NIL=
85586,2002,01,17,06,00,AAXX 17064 85586 NIL=
85586,2002,01,17,09,00,AAXX 17094 85586 NIL=
85586,2002,01,17,12,00,AAXX 17124 85586 31357 80000 10151 20126 40156 53/// 7052/ 886// 333 20121 30/// 50300 55045 56799 88708=
85586,2002,01,17,15,00,AAXX 17154 85586 42460 83105 10164 20130 40163 52008 885// 333 56799 88615=
85586,2002,01,17,18,00,AAXX 17184 85586 NIL=
85586,2002,01,17,21,00,AAXX 17214 85586 42460 82906 10174 20145 40156 56004 885// 333 56699 88616=
85586,2002,01,18,00,00,AAXX 18004 85586 32460 82404 10170 20139 40149 57007 885// 333 10203 56599 88613=
85586,2002,01,18,03,00,AAXX 18034 85586 NIL=
85586,2002,01,18,06,00,AAXX 18064 85586 NIL=
85586,2002,01,18,09,00,AAXX 18094 85586 NIL=
85586,2002,01,18,12,00,AAXX 18124 85586 31312 82504 10146 20132 40156 52/// 71022 886// 333 20140 30/// 50210 55005 56599 88706=
85586,2002,01,18,15,00,AAXX 18154 85586 NIL=
85586,2002,01,18,18,00,AAXX 18184 85586 32460 83106 10190 20137 40159 54000 885// 333 56799 82615 88630=
85586,2002,01,18,21,00,AAXX 18214 85586 42560 32506 10204 20124 40145 57013 81501 333 56606 81630 83075=
85586,2002,01,19,00,00,AAXX 19004 85586 32960 22802 10170 20144 40145 54001 80001 333 10212 56006 80275=
85586,2002,01,19,03,00,AAXX 19034 85586 NIL=
85586,2002,01,19,06,00,AAXX 19064 85586 NIL=
85586,2002,01,19,09,00,AAXX 19094 85586 NIL=
85586,2002,01,19,12,00,AAXX 19124 85586 32460 80000 10150 20133 40163 52/// 885// 333 20104 30/// 50230 55038 56099 88615=
85586,2002,01,19,15,00,AAXX 19154 85586 42460 82606 10180 20128 40166 51004 885// 333 56699 88618=
85586,2002,01,19,18,00,AAXX 19184 85586 32460 12608 10204 20118 40170 51005 81500 333 56600 81615=
85586,2002,01,20,00,00,AAXX 20004 85586 32460 12404 10168 20143 40163 56003 81500 333 10210 56600 81615=
85586,2002,01,20,03,00,AAXX 20034 85586 NIL=
85586,2002,01,20,06,00,AAXX 20064 85586 NIL=
85586,2002,01,20,09,00,AAXX 20094 85586 NIL=
85586,2002,01,20,12,00,AAXX 20124 85586 32560 82405 10150 20133 40161 52/// 885// 333 20114 30/// 50300 55075 56099 88620=
85586,2002,01,20,15,00,AAXX 20154 85586 42460 82606 10160 20131 40166 52006 885// 333 56699 88617=
85586,2002,01,20,18,00,AAXX 20184 85586 32460 72603 10185 20144 40162 58004 87500 333 56600 87617=
85586,2002,01,20,21,00,AAXX 20214 85586 42460 72505 10177 20139 40159 57003 87500 333 56600 87617=
85586,2002,01,21,00,00,AAXX 21004 85586 32460 82605 10161 20139 40161 54002 885// 333 10188 56699 88615=
85586,2002,01,21,03,00,AAXX 21034 85586 NIL=
85586,2002,01,21,06,00,AAXX 21064 85586 NIL=
85586,2002,01,21,09,00,AAXX 21094 85586 NIL=
85586,2002,01,21,12,00,AAXX 21124 85586 31356 81001 10140 20131 40160 53/// 7102/ 886// 333 20138 30/// 50280 55000 56799 88708=
85586,2002,01,21,15,00,AAXX 21154 85586 41357 82903 10154 20140 40166 52006 71022 886// 333 56799 88708=
85586,2002,01,21,18,00,AAXX 21184 85586 32460 82407 10167 20137 40165 54000 886// 333 56799 88712=
85586,2002,01,21,21,00,AAXX 21214 85586 42460 82705 10162 20139 40163 57002 885// 333 56799 88613=
85586,2002,01,22,00,00,AAXX 22004 85586 32460 82705 10148 20129 40163 54001 886// 333 10172 56799 88610=
85586,2002,01,22,03,00,AAXX 22034 85586 NIL=
85586,2002,01,22,06,00,AAXX 22064 85586 NIL=
85586,2002,01,22,09,00,AAXX 22094 85586 NIL=
85586,2002,01,22,12,00,AAXX 22124 85586 31358 80000 10133 20119 40167 53/// 7052/ 886// 333 20130 30/// 50180 55000 56799 88708=
85586,2002,01,22,15,00,AAXX 22154 85586 41358 83105 10152 20126 40185 52018 70522 886// 333 56799 88708=
85586,2002,01,22,18,00,AAXX 22184 85586 32560 62710 10178 20123 40184 54000 86500 333 56600 86620=
85586,2002,01,22,21,00,AAXX 22214 85586 42560 42608 10181 20129 40174 57010 84500 333 56600 84620=
85586,2002,01,23,00,00,AAXX 23004 85586 32460 82306 10156 20123 40175 54001 885// 333 10188 56799 88617=
85586,2002,01,23,03,00,AAXX 23034 85586 NIL=
85586,2002,01,23,06,00,AAXX 23064 85586 NIL=
85586,2002,01,23,09,00,AAXX 23094 85586 NIL=
85586,2002,01,23,12,00,AAXX 23124 85586 32460 80000 10133 20115 40161 54/// 886// 333 20130 30/// 50240 55028 56699 88710=
85586,2002,01,23,15,00,AAXX 23154 85586 42460 43010 10167 20124 40161 54001 84500 333 56600 84618=
85586,2002,01,23,18,00,AAXX 23184 85586 32460 12510 10184 20129 40159 54002 81500 333 56600 81618=
85586,2002,01,23,21,00,AAXX 23214 85586 42560 73006 10180 20130 40152 57007 87500 333 56600 87618=
85586,2002,01,24,00,00,AAXX 24004 85586 32460 82806 10154 20133 40155 54002 885// 333 10192 56699 88615=
85586,2002,01,24,03,00,AAXX 24034 85586 NIL=
85586,2002,01,24,06,00,AAXX 24064 85586 NIL=
85586,2002,01,24,09,00,AAXX 24094 85586 NIL=
85586,2002,01,24,12,00,AAXX 24124 85586 32460 80000 10146 20126 40146 53/// 885// 333 20134 30/// 50220 55052 56099 88615=
85586,2002,01,24,15,00,AAXX 24154 85586 42460 13008 10180 20128 40144 54001 81500 333 56600 81615=
85586,2002,01,24,18,00,AAXX 24184 85586 NIL=
85586,2002,01,24,21,00,AAXX 24214 85586 42460 63110 10192 20142 40135 57009 86500 333 56700 86615=
85586,2002,01,25,00,00,AAXX 25004 85586 32460 10000 10170 20144 40128 57007 81500 333 10196 56500 81615=
85586,2002,01,25,03,00,AAXX 25034 85586 NIL=
85586,2002,01,25,06,00,AAXX 25064 85586 NIL=
85586,2002,01,25,09,00,AAXX 25094 85586 NIL=
85586,2002,01,25,12,00,AAXX 25124 85586 32960 03102 10164 20132 40144 53/// 333 20114 30/// 50280 55076=
85586,2002,01,25,15,00,AAXX 25154 85586 42460 32907 10180 20144 40153 52008 83500 333 56600 83613=
85586,2002,01,25,18,00,AAXX 25184 85586 31312 53108 10180 20150 40155 54003 71011 886// 333 56799 88705=
85586,2002,01,25,21,00,AAXX 25214 85586 NIL=
85586,2002,01,26,00,00,AAXX 26004 85586 32960 62805 10170 20125 40146 57008 80002 333 10193 56006 86075=
85586,2002,01,26,03,00,AAXX 26034 85586 NIL=
85586,2002,01,26,06,00,AAXX 26064 85586 NIL=
85586,2002,01,26,09,00,AAXX 26094 85586 NIL=
85586,2002,01,26,12,00,AAXX 26124 85586 32360 52804 10142 20124 40152 52/// 82630 333 20100 30/// 50300 55075 56660 82708 84365=
85586,2002,01,26,15,00,AAXX 26154 85586 42960 13004 10190 20121 40158 52007 80002 333 56006 81075=
85586,2002,01,26,18,00,AAXX 26184 85586 32460 32610 10192 20145 40162 52004 83500 333 56600 83615=
85586,2002,01,26,21,00,AAXX 26214 85586 42960 02710 10188 20133 40150 57008=
85586,2002,01,27,00,00,AAXX 27004 85586 32960 03202 10166 20143 40153 57003 333 10199=
85586,2002,01,27,03,00,AAXX 27034 85586 NIL=
85586,2002,01,27,06,00,AAXX 27064 85586 NIL=
85586,2002,01,27,09,00,AAXX 27094 85586 NIL=
85586,2002,01,27,12,00,AAXX 27124 85586 32960 00000 10154 20128 40131 57/// 333 20103 30/// 50320 55115=
85586,2002,01,27,15,00,AAXX 27154 85586 42960 02510 10190 20125 40133 52003=
85586,2002,01,27,18,00,AAXX 27184 85586 32960 02410 10200 20131 40126 57006=
85586,2002,01,27,21,00,AAXX 27214 85586 NIL=
85586,2002,01,28,00,00,AAXX 28004 85586 32960 00503 10173 20126 40109 57001 333 10205=
85586,2002,01,28,03,00,AAXX 28034 85586 NIL=
85586,2002,01,28,06,00,AAXX 28064 85586 NIL=
85586,2002,01,28,09,00,AAXX 28094 85586 NIL=
85586,2002,01,28,12,00,AAXX 28124 85586 31256 40000 10146 20131 40112 53/// 7102/ 84600 333 20105 30/// 50350 55125 56600 84704=
85586,2002,01,28,15,00,AAXX 28154 85586 42260 12606 10174 20130 40119 52008 81600 333 56600 81704=
85586,2002,01,28,18,00,AAXX 28184 85586 32960 02511 10184 20115 40122 51003=
85586,2002,01,28,21,00,AAXX 28214 85586 NIL=
85586,2002,01,29,00,00,AAXX 29004 85586 32460 13207 10142 20115 40126 53006 81600 333 10191 56600 81710=
85586,2002,01,29,03,00,AAXX 29034 85586 NIL=
85586,2002,01,29,06,00,AAXX 29064 85586 NIL=
85586,2002,01,29,09,00,AAXX 29094 85586 NIL=
85586,2002,01,29,12,00,AAXX 29124 85586 32460 63303 10126 20110 40110 57/// 86600 333 20086 30/// 50300 55118 56600 86710=
85586,2002,01,29,15,00,AAXX 29154 85586 42460 23207 10172 20117 40117 52008 82600 333 56600 82710=
85586,2002,01,29,18,00,AAXX 29184 85586 32460 13208 10180 20124 40112 57004 81600 333 56700 81710=
85586,2002,01,29,21,00,AAXX 29214 85586 NIL=
85586,2002,01,30,00,00,AAXX 30004 85586 32460 23403 10156 20132 40118 53006 82500 333 10185 56700 82613=
85586,2002,01,30,03,00,AAXX 30034 85586 NIL=
85586,2002,01,30,06,00,AAXX 30064 85586 NIL=
85586,2002,01,30,09,00,AAXX 30094 85586 NIL=
85586,2002,01,30,12,00,AAXX 30124 85586 32460 82704 10128 20107 40137 52/// 885// 333 20102 30/// 50320 50930 56599 88613=
85586,2002,01,30,15,00,AAXX 30154 85586 42460 33006 10156 20108 40155 52019 83500 333 56700 83613=
85586,2002,01,30,18,00,AAXX 30184 85586 32960 02610 10180 20109 40152 58003=
85586,2002,01,30,21,00,AAXX 30214 85586 42960 02712 10182 20101 40153 54001=
85586,2002,01,31,00,00,AAXX 31004 85586 32960 02507 10158 20105 40148 57005 333 10188=
85586,2002,01,31,03,00,AAXX 31034 85586 NIL=
85586,2002,01,31,06,00,AAXX 31064 85586 NIL=
85586,2002,01,31,09,00,AAXX 31094 85586 NIL=
85586,2002,01,31,12,00,AAXX 31124 85586 32960 01604 10150 20097 40155 52/// 333 20068 30/// 50390 55102=
85586,2002,01,31,15,00,AAXX 31154 85586 42960 02512 10204 20095 40147 58007=
85586,2002,01,31,18,00,AAXX 31184 85586 32960 02308 10218 20123 40139 57019=
85586,2002,01,31,21,00,AAXX 31214 85586 42960 02610 10216 20125 40120 57019=
85586,2002,02,01,00,00,AAXX 01004 85586 32960 02406 10180 20137 40124 56002 333 10226=
85586,2002,02,01,03,00,AAXX 01034 85586 NIL=
85586,2002,02,01,06,00,AAXX 01064 85586 NIL=
85586,2002,02,01,09,00,AAXX 01094 85586 NIL=
85586,2002,02,01,12,00,AAXX 01124 85586 32960 53103 10148 20122 40122 53/// 80001 333 20100 30/// 50430 55125 56006 85075=
85586,2002,02,01,15,00,AAXX 01154 85586 42360 53108 10176 20128 40133 52011 83601 333 56706 83708 83075=
85586,2002,02,01,18,00,AAXX 01184 85586 32360 42706 10197 20134 40137 52005 81601 333 56606 81708 83075=
85586,2002,02,01,21,00,AAXX 01214 85586 42460 22609 10192 20141 40130 58008 81601 333 56706 81710 81075=
85586,2002,02,02,00,00,AAXX 02004 85586 32230 83002 10142 20127 40132 54001 71021 886// 333 10199 56799 88705=
85586,2002,02,02,03,00,AAXX 02034 85586 NIL=
85586,2002,02,02,06,00,AAXX 02064 85586 NIL=
85586,2002,02,02,09,00,AAXX 02094 85586 NIL=
85586,2002,02,02,12,00,AAXX 02124 85586 31230 80000 10135 20119 40158 52/// 7102/ 886// 333 20128 30/// 50400 55104 56099 88705=
85586,2002,02,02,15,00,AAXX 02154 85586 41240 83007 10151 20129 40166 52008 70522 886// 333 56799 88705=
85586,2002,02,02,18,00,AAXX 02184 85586 32460 53203 10192 20129 40166 54001 83530 333 56770 83615 82360=
85586,2002,02,02,21,00,AAXX 02214 85586 42960 52706 10189 20129 40147 57019 80001 333 56006=
85586,2002,02,03,00,00,AAXX 03004 85586 32960 00000 10162 20137 40142 57005 333 10198=
85586,2002,02,03,03,00,AAXX 03034 85586 NIL=
85586,2002,02,03,06,00,AAXX 03064 85586 NIL=
85586,2002,02,03,09,00,AAXX 03094 85586 NIL=
85586,2002,02,03,12,00,AAXX 03124 85586 31440 83002 10146 20129 40164 53/// 7102/ 886// 333 20145 30/// 50400 55060 56099 88710=
85586,2002,02,03,15,00,AAXX 03154 85586 41458 82703 10163 20134 40168 52005 70522 885// 333 56699 88615=
85586,2002,02,03,18,00,AAXX 03184 85586 31456 83004 10176 20138 40171 52003 70522 885// 333 56699 88615=
85586,2002,02,03,21,00,AAXX 03214 85586 41458 62706 10160 20124 40152 57019 70522 86500 333 56600 86615=
85586,2002,02,04,00,00,AAXX 04004 85586 31458 63603 10151 20131 40137 57016 70522 86500 333 10180 56600 86615=
85586,2002,02,04,03,00,AAXX 04034 85586 NIL=
85586,2002,02,04,06,00,AAXX 04064 85586 NIL=
85586,2002,02,04,09,00,AAXX 04094 85586 NIL=
85586,2002,02,04,12,00,AAXX 04124 85586 31220 62703 10134 20122 40122 55/// 7102/ 86600 333 20077 30/// 50360 55009 56600 86704=
85586,2002,02,04,15,00,AAXX 04154 85586 NIL=
85586,2002,02,04,18,00,AAXX 04184 85586 32460 12816 10188 20128 40133 52006 81600 333 56600 81710=
85586,2002,02,04,21,00,AAXX 04214 85586 42460 12810 10186 20132 40131 54001 81600 333 56600 81710=
85586,2002,02,05,00,00,AAXX 05004 85586 32460 32606 10158 20122 40129 54002 83500 333 10192 56600 83613=
85586,2002,02,05,03,00,AAXX 05034 85586 NIL=
85586,2002,02,05,06,00,AAXX 05064 85586 NIL=
85586,2002,02,05,09,00,AAXX 05094 85586 NIL=
85586,2002,02,05,12,00,AAXX 05124 85586 31456 83406 10144 20111 40169 52/// 7052/ 885// 333 20110 30/// 50360 55103 56799 88613=
85586,2002,02,05,15,00,AAXX 05154 85586 41458 83308 10156 20116 40170 54001 70522 885// 333 56799 88615=
85586,2002,02,05,18,00,AAXX 05184 85586 32560 22912 10202 20093 40177 52007 82500 333 56600 82630=
85586,2002,02,05,21,00,AAXX 05214 85586 42960 02812 10204 20110 40166 57012=
85586,2002,02,06,00,00,AAXX 06004 85586 32960 00000 10178 20109 40165 54002 333 10210=
85586,2002,02,06,03,00,AAXX 06034 85586 NIL=
85586,2002,02,06,06,00,AAXX 06064 85586 NIL=
85586,2002,02,06,09,00,AAXX 06094 85586 NIL=
85586,2002,02,06,12,00,AAXX 06124 85586 32960 01202 10152 20117 40194 52/// 333 2010=
85586,2002,02,06,15,00,AAXX 06154 85586 42960 02608 10200 20113 40199 51006=
85586,2002,02,06,18,00,AAXX 06184 85586 32960 02706 10206 20128 40196 54002=
85586,2002,02,06,21,00,AAXX 06214 85586 42960 02704 10204 20118 40176 57020=
85586,2002,02,07,00,00,AAXX 07004 85586 32960 02403 10186 20116 40163 57014 333 10212=
85586,2002,02,07,03,00,AAXX 07034 85586 NIL=
85586,2002,02,07,06,00,AAXX 07064 85586 NIL=
85586,2002,02,07,09,00,AAXX 07094 85586 NIL=
85586,2002,02,07,12,00,AAXX 07124 85586 32960 30000 10154 20123 40163 52/// 80001 333 20098 30/// 50400 55117 56006 83075=
85586,2002,02,07,15,00,AAXX 07154 85586 42960 32810 10196 20128 40166 52005 80001 333 56006 83075=
85586,2002,02,07,18,00,AAXX 07184 85586 32960 02709 10204 20135 40167 58001=
85586,2002,02,07,21,00,AAXX 07214 85586 42460 12511 10194 20133 40163 57005 81500 333 56600 81610=
85586,2002,02,08,00,00,AAXX 08004 85586 32460 12704 10166 20140 40169 51006 81500 333 10209 56600 81615=
85586,2002,02,08,03,00,AAXX 08034 85586 NIL=
85586,2002,02,08,06,00,AAXX 08064 85586 NIL=
85586,2002,02,08,09,00,AAXX 08094 85586 NIL=
85586,2002,02,08,12,00,AAXX 08124 85586 32560 41302 10164 20132 40185 53/// 83530 333 20120 30/// 50390 55108 56660 83620 81360=
85586,2002,02,08,15,00,AAXX 08154 85586 42460 32705 10219 20123 40185 51002 83500 333 56600 83617=
85586,2002,02,08,18,00,AAXX 08184 85586 32460 12807 10222 20134 40181 58004 81500 333 56600 81617=
85586,2002,02,08,21,00,AAXX 08214 85586 42960 02709 10204 20147 40172 57010=
85586,2002,02,09,00,00,AAXX 09004 85586 32960 02305 10170 20144 40173 54000 333 10230=
85586,2002,02,09,03,00,AAXX 09034 85586 NIL=
85586,2002,02,09,06,00,AAXX 09064 85586 NIL=
85586,2002,02,09,09,00,AAXX 09094 85586 NIL=
85586,2002,02,09,12,00,AAXX 09124 85586 NIL=
85586,2002,02,09,15,00,AAXX 09154 85586 NIL=
85586,2002,02,09,18,00,AAXX 09184 85586 NIL=
85586,2002,02,09,21,00,AAXX 09214 85586 NIL=
85586,2002,02,10,00,00,AAXX 10004 85586 NIL=
85586,2002,02,10,03,00,AAXX 10034 85586 NIL=
85586,2002,02,10,06,00,AAXX 10064 85586 NIL=
85586,2002,02,10,09,00,AAXX 10094 85586 NIL=
85586,2002,02,10,12,00,AAXX 10124 85586 32460 80000 10148 20131 40163 52/// 885// 333 20116 30/// 50290 55065 56099 88618=
85586,2002,02,10,15,00,AAXX 10154 85586 42460 12704 10178 20122 40172 52010 81500 333 56600 81618=
85586,2002,02,10,18,00,AAXX 10184 85586 32960 22710 10198 20128 40170 54001 82500 333 56600 82618=
85586,2002,02,10,21,00,AAXX 10214 85586 42460 33106 10194 20133 40161 57010 81502 333 56606 81615=
85586,2002,02,11,00,00,AAXX 11004 85586 32960 32605 10166 20132 40143 57008 80002 333 10214 56006 83075=
85586,2002,02,11,03,00,AAXX 11034 85586 NIL=
85586,2002,02,11,06,00,AAXX 11064 85586 NIL=
85586,2002,02,11,09,00,AAXX 11094 85586 NIL=
85586,2002,02,11,12,00,AAXX 11124 85586 32460 80000 10148 20131 40154 52/// 885// 333 20112 30/// 50320 55093 56099 88615=
85586,2002,02,11,15,00,AAXX 11154 85586 42960 03006 10188 20128 40155 54002=
85586,2002,02,11,18,00,AAXX 11184 85586 32460 32405 10186 20133 40147 57008 83500 333 56600 83615=
85586,2002,02,11,21,00,AAXX 11214 85586 42460 13106 10194 20133 40141 57006 81500 333 56567 81615=
85586,2002,02,12,00,00,AAXX 12004 85586 32960 00204 10164 20132 40138 56003 333 10201=
85586,2002,02,12,03,00,AAXX 12034 85586 NIL=
85586,2002,02,12,06,00,AAXX 12064 85586 NIL=
85586,2002,02,12,09,00,AAXX 12094 85586 NIL=
85586,2002,02,12,12,00,AAXX 12124 85586 32460 73608 10152 20126 40150 52/// 87500 333 20116 30/// 50310 55098 56800 87615=
85586,2002,02,12,15,00,AAXX 12154 85586 42460 31010 10182 20124 40164 52015 83500 333 56700 83615=
85586,2002,02,12,18,00,AAXX 12184 85586 32597 71806 10260 20205 40188 55011 81876=
85586,2002,02,12,21,00,AAXX 12214 85586 42460 33106 10190 20127 40163 58007 83500 333 56700 83618=
85586,2002,02,13,00,00,AAXX 13004 85586 32560 62504 10166 20134 40160 56004 86500 333 10196 56000 86620=
85586,2002,02,13,03,00,AAXX 13034 85586 NIL=
85586,2002,02,13,06,00,AAXX 13064 85586 NIL=
85586,2002,02,13,09,00,AAXX 13094 85586 NIL=
85586,2002,02,13,12,00,AAXX 13124 85586 32460 80206 10146 20122 40159 52/// 886// 333 20124 30/// 50330 55098 56099 88710=
85586,2002,02,13,15,00,AAXX 13154 85586 42460 73010 10174 20128 40164 52006 87500 333 56700 87612=
85586,2002,02,13,18,00,AAXX 13184 85586 42460 12907 10195 20136 40153 57003 81500 333 56700 81615=
85586,2002,02,13,21,00,AAXX 13214 85586 42460 12907 10195 20136 40153 57003 81500 333 56700 81615=
85586,2002,02,14,00,00,AAXX 14004 85586 32460 72607 10158 20134 40152 54002 87500 333 10200 56700 87613=
85586,2002,02,14,03,00,AAXX 14034 85586 NIL=
85586,2002,02,14,06,00,AAXX 14064 85586 NIL=
85586,2002,02,14,09,00,AAXX 14094 85586 NIL=
85586,2002,02,14,12,00,AAXX 14124 85586 32460 80306 10146 20122 40154 53/// 885// 333 20143 30/// 50300 55092 56799 88613=
85586,2002,02,14,15,00,AAXX 14154 85586 NIL=
85586,2002,02,14,18,00,AAXX 14184 85586 32460 43005 10177 20132 40160 54000 84500 333 56700 84615=
85586,2002,02,14,21,00,AAXX 14214 85586 42460 73007 10164 20134 40158 54002 87500 333 56700 87615=
85586,2002,02,15,00,00,AAXX 15004 85586 32460 22903 10143 20119 40158 54001 82500 333 10182 56700 82615=
85586,2002,02,15,03,00,AAXX 15034 85586 NIL=
85586,2002,02,15,06,00,AAXX 15064 85586 NIL=
85586,2002,02,15,09,00,AAXX 15094 85586 NIL=
85586,2002,02,15,12,00,AAXX 15124 85586 32460 60000 10133 20123 40154 52/// 86500 333 20102 30/// 50300 55062 56600 86615=
85586,2002,02,15,15,00,AAXX 15154 85586 42560 53102 10179 20126 40175 52012=
85586,2002,02,15,18,00,AAXX 15184 85586 32560 12909 10202 20137 40169 58005 81500 333 56600 81620=
85586,2002,02,15,21,00,AAXX 15214 85586 42960 02708 10197 20133 40163 57006=
85586,2002,02,16,00,00,AAXX 16004 85586 32560 82805 10171 20138 40170 53006 885// 333 10205 56799 88620=
85586,2002,02,16,03,00,AAXX 16034 85586 NIL=
85586,2002,02,16,06,00,AAXX 16064 85586 NIL=
85586,2002,02,16,09,00,AAXX 16094 85586 NIL=
85586,2002,02,16,12,00,AAXX 16124 85586 31457 83302 10138 20121 40175 53/// 7052/ 886// 333 20137 30/// 50250 55079 56799 88710=
85586,2002,02,16,15,00,AAXX 16154 85586 41459 82906 10146 20129 40185 52010 70522 886// 333 56799 88710=
85586,2002,02,16,18,00,AAXX 16184 85586 32460 42806 10172 20108 40180 56004 84500 333 56600 84618=
85586,2002,02,16,21,00,AAXX 16214 85586 42460 72610 10162 20117 40168 57012 87500 333 56600 87615=
85586,2002,02,17,00,00,AAXX 17004 85586 32460 82606 10140 20117 40166 56003 885// 333 10180 56699 88613=
85586,2002,02,17,03,00,AAXX 17034 85586 NIL=
85586,2002,02,17,06,00,AAXX 17064 85586 NIL=
85586,2002,02,17,09,00,AAXX 17094 85586 NIL=
85586,2002,02,17,12,00,AAXX 17124 85586 32460 82404 10128 20103 40184 52/// 885// 333 20096 30/// 50230 55027 56599 88612=
85586,2002,02,17,15,00,AAXX 17154 85586 42460 82606 10152 20102 40194 52010 885// 333 56699 88615=
85586,2002,02,17,18,00,AAXX 17184 85586 32460 22416 10176 20114 40189 58005 82500 333 56500 82615=
85586,2002,02,17,21,00,AAXX 17214 85586 42960 02606 10180 20111 40177 57011=
85586,2002,02,18,00,00,AAXX 18004 85586 32960 00000 10154 20110 40171 56007 333 10184=
85586,2002,02,18,03,00,AAXX 18034 85586 NIL=
85586,2002,02,18,06,00,AAXX 18064 85586 NIL=
85586,2002,02,18,09,00,AAXX 18094 85586 NIL=
85586,2002,02,18,12,00,AAXX 18124 85586 32960 00000 10124 20111 40167 52/// 333 20070 30/// 50330 55070=
85586,2002,02,18,15,00,AAXX 18154 85586 42960 02606 10174 20121 40164 54002=
85586,2002,02,18,18,00,AAXX 18184 85586 32960 02610 10184 20129 40157 57007=
85586,2002,02,18,21,00,AAXX 18214 85586 42460 43106 10176 20127 40152 56006 84500 333 56600 84618=
85586,2002,02,19,00,00,AAXX 19004 85586 32460 82607 10145 20124 40156 53004 88500 333 10189 56699 88613=
85586,2002,02,19,03,00,AAXX 19034 85586 NIL=
85586,2002,02,19,06,00,AAXX 19064 85586 NIL=
85586,2002,02,19,09,00,AAXX 19094 85586 NIL=
85586,2002,02,19,12,00,AAXX 19124 85586 32460 80402 10130 20110 40138 52/// 885// 333 20126 30/// 50380 55106 56099 88610=
85586,2002,02,19,15,00,AAXX 19154 85586 42460 83306 10146 20116 40141 51004 885// 333 56099 88612=
85586,2002,02,19,18,00,AAXX 19184 85586 32460 73110 10178 20125 40133 57008 87500 333 56600 87612=
85586,2002,02,19,21,00,AAXX 19214 85586 42460 83107 10176 20140 40121 57012 885// 333 56699 88613=
85586,2002,02,20,00,00,AAXX 20004 85586 32360 83304 10154 20137 40126 53004 885// 333 10182 56699 88608=
85586,2002,02,20,03,00,AAXX 20034 85586 NIL=
85586,2002,02,20,06,00,AAXX 20064 85586 NIL=
85586,2002,02,20,09,00,AAXX 20094 85586 NIL=
85586,2002,02,20,12,00,AAXX 20124 85586 31320 83302 10156 20136 40125 52/// 7102/ 886// 333 20150 30/// 50200 55010 56099 88710=
85586,2002,02,20,15,00,AAXX 20154 85586 41340 80405 10187 20128 40133 52008 70542 886// 333 56099 88708=
85586,2002,02,20,18,00,AAXX 20184 85586 32560 33110 10204 20135 40127 58004 83500 333 56600 83620=
85586,2002,02,20,21,00,AAXX 20214 85586 42560 22810 10204 20148 56004 82500 333 56600 82620=
85586,2002,02,21,00,00,AAXX 21004 85586 32560 28003 10178 20146 40124 54000 82500 333 10214 56600 82620=
85586,2002,02,21,03,00,AAXX 21034 85586 NIL=
85586,2002,02,21,06,00,AAXX 21064 85586 NIL=
85586,2002,02,21,09,00,AAXX 21094 85586 NIL=
85586,2002,02,21,12,00,AAXX 21124 85586 32560 80000 10178 20143 40156 52/// 885// 333 20150 30/// 50290 55054 56099 88620=
85586,2002,02,21,15,00,AAXX 21154 85586 42560 22504 10208 20132 40155 54001 82500 333 56600 82623=
85586,2002,02,21,18,00,AAXX 21184 85586 32460 02506 10224 20133 40155 54000=
85586,2002,02,21,21,00,AAXX 21214 85586 42560 12604 10208 20154 40152 57003 81500 333 56600 81623=
85586,2002,02,22,00,00,AAXX 22004 85586 32560 22503 10178 20152 40161 53007 82500 333 10227 56600 82623=
85586,2002,02,22,03,00,AAXX 22034 85586 NIL=
85586,2002,02,22,06,00,AAXX 22064 85586 NIL=
85586,2002,02,22,09,00,AAXX 22094 85586 NIL=
85586,2002,02,22,12,00,AAXX 22124 85586 31320 80000 10150 20133 40155 52/// 71022 886// 333 20110 30/// 50290 55079 56099 88708=
85586,2002,02,22,15,00,AAXX 22154 85586 41458 82604 10173 20147 40175 54001 70522 885// 333 56699 88610=
85586,2002,02,22,18,00,AAXX 22184 85586 32460 22508 10202 20151 40144 57010 82500 333 56600 82617=
85586,2002,02,22,21,00,AAXX 22214 85586 42460 72704 10181 20147 40143 54002 87500 333 56600 87618=
85586,2002,02,23,00,00,AAXX 23004 85586 31358 82703 10166 20149 40141 54002 70522 886// 333 10209 56699 88707=
85586,2002,02,23,03,00,AAXX 23034 85586 NIL=
85586,2002,02,23,06,00,AAXX 23064 85586 NIL=
85586,2002,02,23,09,00,AAXX 23094 85586 NIL=
85586,2002,02,23,12,00,AAXX 23124 85586 31357 80802 10159 20148 40144 53/// 7102/ 886// 333 20156 30/// 50260 55023 56099 88708=
85586,2002,02,23,15,00,AAXX 23154 85586 42460 72704 10186 20147 40147 52003 87500 333 56600 87615=
85586,2002,02,23,18,00,AAXX 23184 85586 32460 22608 10203 20150 40143 58003 82500 333 56600 82618=
85586,2002,02,23,21,00,AAXX 23214 85586 42560 12708 10198 20153 40132 57011 81500 333 56600 81620=
85586,2002,02,24,00,00,AAXX 24004 85586 32460 20000 10171 20150 40134 54001 82500 333 10211 56600 82615=
85586,2002,02,24,03,00,AAXX 24034 85586 NIL=
85586,2002,02,24,06,00,AAXX 24064 85586 NIL=
85586,2002,02,24,09,00,AAXX 24094 85586 NIL=
85586,2002,02,24,12,00,AAXX 24124 85586 32560 60803 10161 20143 40148 52/// 86500 333 20116 30/// 50260 55073 56600 86620=
85586,2002,02,24,15,00,AAXX 24154 85586 NIL=
85586,2002,02,24,18,00,AAXX 24184 85586 32560 22907 10216 20149 40158 52006 81501 333 56606 81620=
85586,2002,02,24,21,00,AAXX 24214 85586 42560 43310 10205 20158 40160 54001 84500 333 56600 84620=
85586,2002,02,25,00,00,AAXX 25004 85586 32560 63603 10182 20146 40160 54001 86500 333 10218 56700 86620=
85586,2002,02,25,03,00,AAXX 25034 85586 NIL=
85586,2002,02,25,06,00,AAXX 25064 85586 NIL=
85586,2002,02,25,09,00,AAXX 25094 85586 NIL=
85586,2002,02,25,12,00,AAXX 25124 85586 31357 81401 10159 20143 40169 52/// 7052/ 886// 333 20157 30/// 50290 55089 56699 88708=
85586,2002,02,25,15,00,AAXX 25154 85586 41459 83604 10181 20149 40168 54001 70522 886// 333 56699 88710=
85586,2002,02,25,18,00,AAXX 25184 85586 32460 83111 10194 20156 40168 54000 885// 333 56699 88617=
85586,2002,02,25,21,00,AAXX 25214 85586 42560 52808 10203 20151 40154 57013=
85586,2002,02,26,00,00,AAXX 26004 85586 32560 12402 10174 20152 40147 57008 81500 333 10208 56600 81620=
85586,2002,02,26,03,00,AAXX 26034 85586 NIL=
85586,2002,02,26,06,00,AAXX 26064 85586 NIL=
85586,2002,02,26,09,00,AAXX 26094 85586 NIL=
85586,2002,02,26,12,00,AAXX 26124 85586 32460 50505 10145 20128 40136 54/// 83501 333 20109 30/// 50270 55018 56605 83615=
85586,2002,02,26,15,00,AAXX 26154 85586 42460 22808 10198 20143 40145 52011 81501 333 56605 81615=
85586,2002,02,26,18,00,AAXX 26184 85586 32560 33009 10213 20146 40141 58003 82501 333 56605 82620=
85586,2002,02,26,21,00,AAXX 26214 85586 42560 23108 10202 20151 40131 57011 82501 333 56605 82620=
85586,2002,02,27,00,00,AAXX 27004 85586 32560 10000 10171 20130 40129 57003 81500 333 10217 56600 81620=
85586,2002,02,27,03,00,AAXX 27034 85586 NIL=
85586,2002,02,27,06,00,AAXX 27064 85586 NIL=
85586,2002,02,27,09,00,AAXX 27094 85586 NIL=
85586,2002,02,27,12,00,AAXX 27124 85586 31459 70205 10152 20133 40121 53/// 7052/ 87500 333 20112 30/// 50250 55101 56700 87612=
85586,2002,02,27,15,00,AAXX 27154 85586 42460 33110 10196 20148 40123 52004 83500 333 56700 83617=
85586,2002,02,27,18,00,AAXX 27184 85586 32460 43013 10215 20143 40136 52014 82501 333 56605 82617=
85586,2002,02,27,21,00,AAXX 27214 85586 42560 73507 10199 20149 40145 52008=
85586,2002,02,28,00,00,AAXX 28004 85586 32560 83010 10185 20151 40155 52009 885// 333 10218 56699 88623=
85586,2002,02,28,03,00,AAXX 28034 85586 NIL=
85586,2002,02,28,06,00,AAXX 28064 85586 NIL=
85586,2002,02,28,09,00,AAXX 28094 85586 NIL=
85586,2002,02,28,12,00,AAXX 28124 85586 12560 71508 10167 20147 40172 53/// 69934 82571 333 20152 31/// 50220 55074 56666 70003 82623 84363=
85586,2002,02,28,15,00,AAXX 28154 85586 42560 21712 10232 20147 40170 54000 81501 333 56606 81625=
85586,2002,02,28,18,00,AAXX 28184 85586 32560 22418 10224 20178 40157 57013 81201 333 56606 81825=
85586,2002,02,28,21,00,AAXX 28214 85586 42960 02416 10220 20143 40140 57017=
85586,2002,03,01,00,00,AAXX 01004 85586 32960 02409 10188 20135 40144 53002 333 10232=
85586,2002,03,01,03,00,AAXX 01034 85586 NIL=
85586,2002,03,01,06,00,AAXX 01064 85586 NIL=
85586,2002,03,01,09,00,AAXX 01094 85586 NIL=
85586,2002,03,01,12,00,AAXX 01124 85586 32960 00000 10140 20117 40154 52/// 333 20096 30/// 50330 55103=
85586,2002,03,01,15,00,AAXX 01154 85586 42960 02606 10200 20096 40160 52008=
85586,2002,03,01,18,00,AAXX 01184 85586 32960 02716 10200 20096 40154 57006=
85586,2002,03,01,21,00,AAXX 01214 85586 42960 02504 10188 20114 40147 57007=
85586,2002,03,02,00,00,AAXX 02004 85586 32960 02802 10150 20119 40157 56002 333 10214=
85586,2002,03,02,06,00,AAXX 02064 85586 NIL=
85586,2002,03,02,12,00,AAXX 02124 85586 32460 83005 10140 20115 40157 52/// 885// 333 20117 30/// 50400 55108 56699 88612=
85586,2002,03,02,18,00,AAXX 02184 85586 32960 02616 10186 20112 40150 57011=
85586,2002,03,02,21,00,AAXX 02214 85586 42960 12512 10184 20115 40139 57011 80001 333 56006 81075=
85586,2002,03,03,00,00,AAXX 03004 85586 32960 02708 10150 20127 40151 52011 333 10194=
85586,2002,03,03,06,00,AAXX 03064 85586 NIL=
85586,2002,03,03,12,00,AAXX 03124 85586 32960 00903 10(? 333 20070 30/// 50380 55096=
85586,2002,03,03,18,00,AAXX 03184 85586 32960 02309 10210 20112 40155 57007=
85586,2002,03,03,21,00,AAXX 03214 85586 42960 02610 10200 20134 40150 57006=
85586,2002,03,04,00,00,AAXX 04004 85586 32960 02405 10177 20126 40148 57003 333 10211=
85586,2002,03,04,06,00,AAXX 04064 85586 NIL=
85586,2002,03,04,09,00,AAXX 04094 85586 NIL=
85586,2002,03,04,12,00,AAXX 04124 85586 32960 00000 10145 20124 40163 52/// 333 20090 30/// 50330 55110=
85586,2002,03,04,15,00,AAXX 04154 85586 42960 02710 10202 20148 40157 58005=
85586,2002,03,04,18,00,AAXX 04184 85586 32960 02511 10207 20129 40155 54001=
85586,2002,03,04,21,00,AAXX 04214 85586 42960 02411 10200 20115 40142 57014=
85586,2002,03,05,00,00,AAXX 05004 85586 32960 00302 10168 20120 40148 52005 333 10208=
85586,2002,03,05,03,00,AAXX 05034 85586 NIL=
85586,2002,03,05,06,00,AAXX 05064 85586 NIL=
85586,2002,03,05,09,00,AAXX 05094 85586 NIL=
85586,2002,03,05,12,00,AAXX 05124 85586 32960 02402 10141 20122 40184 52/// 333 20082 30/// 50290 55111=
85586,2002,03,05,15,00,AAXX 05154 85586 42960 02407 10165 20140 40192 52008=
85586,2002,03,05,18,00,AAXX 05184 85586 32960 02609 10199 20122 40177 58013=
85586,2002,03,05,21,00,AAXX 05214 85586 42960 02609 10201 20134 40153 57024=
85586,2002,03,06,00,00,AAXX 06004 85586 32960 00106 10157 20121 40157 53003 333 10208=
85586,2002,03,06,03,00,AAXX 06034 85586 NIL=
85586,2002,03,06,06,00,AAXX 06064 85586 NIL=
85586,2002,03,06,09,00,AAXX 06094 85586 NIL=
85586,2002,03,06,12,00,AAXX 06124 85586 32960 00000 10115 20106 40154 53/// 333 20063 30/// 50300 55111=
85586,2002,03,06,15,00,AAXX 06154 85586 NIL=
85586,2002,03,06,18,00,AAXX 06184 85586 32460 23006 10176 20116 40150 57014 82500 333 56600 82613=
85586,2002,03,06,21,00,AAXX 06214 85586 41215 42406 10180 20158 40138 57012 84600 333 56600 84704=
85586,2002,03,07,00,00,AAXX 07004 85586 31230 42506 10158 20143 40138 54000 71011 84600 333 10182 56600 84704=
85586,2002,03,07,03,00,AAXX 07034 85586 NIL=
85586,2002,03,07,06,00,AAXX 07064 85586 NIL=
85586,2002,03,07,09,00,AAXX 07094 85586 NIL=
85586,2002,03,07,12,00,AAXX 07124 85586 31103 80000 10136 20118 40145 52/// 7464/ 886// 333 20120 30/// 50330 55084 56099 88702=
85586,2002,03,07,15,00,AAXX 07154 85586 41260 12407 10184 20145 40150 51005 70141 81600 333 56600 81705=
85586,2002,03,07,18,00,AAXX 07184 85586 32960 02610 10202 20137 40143 52004 333=
85586,2002,03,07,21,00,AAXX 07214 85586 42960 02616 10200 20123 40129 57013=
85586,2002,03,08,00,00,AAXX 08004 85586 32960 02605 10160 20130 40141 52011 333 10214=
85586,2002,03,08,03,00,AAXX 08034 85586 NIL=
85586,2002,03,08,06,00,AAXX 08064 85586 NIL=
85586,2002,03,08,09,00,AAXX 08094 85586 NIL=
85586,2002,03,08,12,00,AAXX 08124 85586 32960 00000 10120 20106 40147 52/// 333 20080 30/// 50350 55090=
85586,2002,03,08,15,00,AAXX 08154 85586 42960 02706 10200 20105 40156 52009=
85586,2002,03,08,18,00,AAXX 08184 85586 32960 02412 10198 20108 40153 54001=
85586,2002,03,08,21,00,AAXX 08214 85586 42960 02516 10190 20109 40147 57007=
85586,2002,03,09,00,00,AAXX 09004 85586 32960 02704 10154 20128 40154 52006 333 10204=
85586,2002,03,09,03,00,AAXX 09034 85586 NIL=
85586,2002,03,09,06,00,AAXX 09064 85586 NIL=
85586,2002,03,09,09,00,AAXX 09094 85586 NIL=
85586,2002,03,09,12,00,AAXX 09124 85586 32960 00000 10126 20097 40145 52/// 333 20076 30/// 50400 55106=
85586,2002,03,09,15,00,AAXX 09154 85586 42960 02706 10194 20099 40158 52013=
85586,2002,03,09,18,00,AAXX 09184 85586 32960 02710 10205 20149 40161 52004=
85586,2002,03,09,21,00,AAXX 09214 85586 42960 02711 10194 20156 40160 54002=
85586,2002,03,10,00,00,AAXX 10004 85586 31130 83102 10157 20150 40164 52004 71022 886// 333 10208 56799 88703=
85586,2002,03,10,03,00,AAXX 10034 85586 NIL=
85586,2002,03,10,06,00,AAXX 10064 85586 NIL=
85586,2002,03,10,09,00,AAXX 10094 85586 NIL=
85586,2002,03,10,12,00,AAXX 10124 85586 31910 01002 10130 20123 40176 53/// 7100/ 333 20120 30/// 50280 55106=
85586,2002,03,10,15,00,AAXX 10154 85586 42960 02604 10179 20137 40186 52011=
85586,2002,03,10,18,00,AAXX 10184 85586 32960 02317 10196 20126 40177 58008=
85586,2002,03,10,21,00,AAXX 10214 85586 42960 02410 10186 20132 40161 57017=
85586,2002,03,11,00,00,AAXX 11004 85586 32960 00202 10149 20106 40167 53005 333 10197=
85586,2002,03,11,03,00,AAXX 11034 85586 NIL=
85586,2002,03,11,06,00,AAXX 11064 85586 NIL=
85586,2002,03,11,09,00,AAXX 11094 85586 NIL=
85586,2002,03,11,12,00,AAXX 11124 85586 32960 01302 10123 20087 40153 53/// 333 20082 30/// 50260 55104=
85586,2002,03,11,15,00,AAXX 11154 85586 42960 02707 10183 20126 40157 52005=
85586,2002,03,11,18,00,AAXX 11184 85586 32960 02411 10190 20119 40150 58007=
85586,2002,03,11,21,00,AAXX 11214 85586 42960 02809 10177 20115 40147 57003=
85586,2002,03,12,00,00,AAXX 12004 85586 32960 03604 10139 20114 40147 54001 333 10196=
85586,2002,03,12,03,00,AAXX 12034 85586 NIL=
85586,2002,03,12,06,00,AAXX 12064 85586 NIL=
85586,2002,03,12,09,00,AAXX 12094 85586 NIL=
85586,2002,03,12,12,00,AAXX 12124 85586 32960 00603 10108 20100 40150 53/// 333 20070 30/// 50290 55112=
85586,2002,03,12,15,00,AAXX 12154 85586 42460 83306 10162 20135 40165 52016 886// 333 56799 88710=
85586,2002,03,12,18,00,AAXX 12184 85586 32460 32808 10186 20122 40163 54002 83500 333 56600 83615=
85586,2002,03,12,21,00,AAXX 12214 85586 42460 42506 10184 20131 40158 57005 74500 333 56600 84617=
85586,2002,03,13,00,00,AAXX 13004 85586 32460 70000 10156 20112 40159 54001 87500 333 10201 56600 87617=
85586,2002,03,13,03,00,AAXX 13034 85586 NIL=
85586,2002,03,13,06,00,AAXX 13064 85586 NIL=
85586,2002,03,13,09,00,AAXX 13094 85586 NIL=
85586,2002,03,13,12,00,AAXX 13124 85586 32460 81202 10130 20108 40152 54/// 8453/ 333 20082 30/// 50260 55065 56069 84617 85362=
85586,2002,03,13,15,00,AAXX 13154 85586 42560 73106 10160 20107 40160 52009 81530 333 56660 81620 87362=
85586,2002,03,13,18,00,AAXX 13184 85586 32560 73106 10190 20101 40159 54001 81530 333 56760 81620 87363=
85586,2002,03,13,21,00,AAXX 13214 85586 42560 73304 10180 20130 40156 54003 83530 333 56660 83620 87363=
85586,2002,03,14,00,00,AAXX 14004 85586 32560 80000 10152 20126 40144 57013 8353/ 333 10198 56669 83620 87363=
85586,2002,03,14,03,00,AAXX 14034 85586 NIL=
85586,2002,03,14,06,00,AAXX 14064 85586 NIL=
85586,2002,03,14,09,00,AAXX 14094 85586 NIL=
85586,2002,03,14,12,00,AAXX 14124 85586 32560 80000 10168 20123 40116 57/// 885// 333 20138 30/// 50220 55016 56099 88623=
85586,2002,03,14,15,00,AAXX 14154 85586 42560 83614 10190 20116 40135 53019 8653/ 333 56879 86623=
85586,2002,03,14,18,00,AAXX 14184 85586 32560 83314 10198 20121 40131 54003 8453/ 333 56769 74623 87362=
85586,2002,03,14,21,00,AAXX 14214 85586 42560 63112 10206 20118 40131 54001 82532 333 56776 82623=
85586,2002,03,15,00,00,AAXX 15004 85586 32560 83308 10176 20112 40136 53005 8253/ 333 10211 56779 82623 87362=
85586,2002,03,15,03,00,AAXX 15034 85586 NIL=
85586,2002,03,15,06,00,AAXX 15064 85586 NIL=
85586,2002,03,15,09,00,AAXX 15094 85586 NIL=
85586,2002,03,15,12,00,AAXX 15124 85586 31959 90902 10184 20132 40127 54/// 7052/ 86032 333 20166 30/// 50200 55042 56077 86364 83075=
85586,2002,03,15,15,00,AAXX 15154 85586 42660 73010 10230 20139 40131 53006 82532 333 56776 82640 85075=
85586,2002,03,15,18,00,AAXX 15184 85586 32660 73212 10209 20154 40135 52004 83530 333 56770 83640 84364=
85586,2002,03,15,21,00,AAXX 15214 85586 41320 83209 10177 20169 40138 54001 75322 886// 333 56799 88707=
85586,2002,03,16,00,00,AAXX 16004 85586 11560 83203 10177 20169 40142 51004 60021 70252 8357/ 333 10231 56779 83620 85363=
85586,2002,03,16,03,00,AAXX 16034 85586 NIL=
85586,2002,03,16,06,00,AAXX 16064 85586 NIL=
85586,2002,03,16,09,00,AAXX 16094 85586 NIL=
85586,2002,03,16,15,00,AAXX 16154 85586 42560 62309 10200 20165 40161 52010=
85586,2002,03,16,18,00,AAXX 16184 85586 32560 52412 10210 20158 40163 58007 83201 333 56606 83823=
85586,2002,03,16,21,00,AAXX 16214 85586 42560 22311 10215 20133 40142 57011 81201 333 56606 81825=
85586,2002,03,17,00,00,AAXX 17004 85586 32960 30000 10171 20143 40140 57004 82031 333 10220 56066 82365=
85586,2002,03,17,03,00,AAXX 17034 85586 NIL=
85586,2002,03,17,06,00,AAXX 17064 85586 NIL=
85586,2002,03,17,09,00,AAXX 17094 85586 NIL=
85586,2002,03,17,12,00,AAXX 17124 85586 32960 70000 10137 20130 40135 54/// 85031 333 20124 30/// 50150 55065 56066 85365=
85586,2002,03,17,15,00,AAXX 17154 85586 42960 73110 10196 20158 40139 52006 84031 333 56066 84365 83072=
85586,2002,03,17,18,00,AAXX 17184 85586 32960 22516 10217 20126 40135 58003 80001 333 56006 82073=
85586,2002,03,17,21,00,AAXX 17214 85586 42960 42610 10208 20144 40121 57014 80001 333 56006 84073=
85586,2002,03,18,00,00,AAXX 18004 85586 32960 40000 10159 20135 40119 57004 80001 333 10218 56006 84073=
85586,2002,03,18,03,00,AAXX 18034 85586 NIL=
85586,2002,03,18,06,00,AAXX 18064 85586 NIL=
85586,2002,03,18,09,00,AAXX 18094 85586 NIL=
85586,2002,03,18,12,00,AAXX 18124 85586 32960 40000 10139 20129 40118 54/// 80001 333 20093 30/// 50190 55075 56005 84073=
85586,2002,03,18,15,00,AAXX 18154 85586 42960 52904 10185 20138 40136 52019 80001 333 56005=
85586,2002,03,18,18,00,AAXX 18184 85586 32960 72508 10192 20123 40148 52012 80002 333 56006 87073=
85586,2002,03,18,21,00,AAXX 18214 85586 42960 72904 10198 20109 40147 54000 84032 333 56066 84366 83075=
85586,2002,03,19,00,00,AAXX 19004 85586 32560 80000 10160 20103 40148 54000 83532 333 10214 56066 83623 85365=
85586,2002,03,19,03,00,AAXX 19034 85586 NIL=
85586,2002,03,19,06,00,AAXX 19064 85586 NIL=
85586,2002,03,19,09,00,AAXX 19094 85586 NIL=
85586,2002,03,19,12,00,AAXX 19124 85586 32960 00000 10126 20110 40166 52/// 333 20100 30/// 50210 55079=
85586,2002,03,19,15,00,AAXX 19154 85586 42960 02606 10237 20118 40155 58007=
85586,2002,03,19,18,00,AAXX 19184 85586 32960 02512 10226 20097 40154 54002=
85586,2002,03,19,21,00,AAXX 19214 85586 42960 02606 10200 20136 40151 57004=
85586,2002,03,20,00,00,AAXX 20004 85586 32960 02903 10164 20134 40160 52008 333 10242=
85586,2002,03,20,03,00,AAXX 20034 85586 NIL=
85586,2002,03,20,06,00,AAXX 20064 85586 NIL=
85586,2002,03,20,09,00,AAXX 20094 85586 NIL=
85586,2002,03,20,12,00,AAXX 20124 85586 32960 00000 10134 20118 40127 57/// 333 20104 30/// 50400 55104=
85586,2002,03,20,15,00,AAXX 20154 85586 42960 02806 10226 20141 40126 54002=
85586,2002,03,20,18,00,AAXX 20184 85586 32960 02610 10212 20122 40126 54000=
85586,2002,03,20,21,00,AAXX 20214 85586 42960 02515 10206 20102 40121 57005=
85586,2002,03,21,00,00,AAXX 21004 85586 32960 00000 10176 20104 40132 52010 333 10234=
85586,2002,03,21,03,00,AAXX 21034 85586 NIL=
85586,2002,03,21,06,00,AAXX 21064 85586 NIL=
85586,2002,03,21,09,00,AAXX 21094 85586 NIL=
85586,2002,03,21,12,00,AAXX 21124 85586 32960 00000 10150 20124 40155 52/// 333 20116 30/// 50370 55107=
85586,2002,03,21,15,00,AAXX 21154 85586 42960 03106 10196 20131 40163 52010=
85586,2002,03,21,18,00,AAXX 21184 85586 32160 23108 10187 20150 40160 58004 82600 333 56600 82705=
85586,2002,03,21,21,00,AAXX 21214 85586 42260 23207 10179 20145 40156 57004 82600 333 56600 82706=
85586,2002,03,22,00,00,AAXX 22004 85586 32360 10305 10163 20147 40154 54002 81600 333 10202 56700 81708=
85586,2002,03,22,03,00,AAXX 22034 85586 NIL=
85586,2002,03,22,06,00,AAXX 22064 85586 NIL=
85586,2002,03,22,09,00,AAXX 22094 85586 NIL=
85586,2002,03,22,12,00,AAXX 22124 85586 31102 80000 10135 20129 40160 54/// 7444/ 886// 333 20112 30/// 50220 55090 56099 88702=
85586,2002,03,22,15,00,AAXX 22154 85586 41260 12504 10176 20150 40167 52008 70241 81600 333 56000 81704=
85586,2002,03,22,18,00,AAXX 22184 85586 32960 22515 10203 20140 40153 58013 80001 333 56005 82073=
85586,2002,03,22,21,00,AAXX 22214 85586 42960 12308 10200 20132 40146 57007 80001 333 56005 81073=
85586,2002,03,23,00,00,AAXX 23004 85586 32960 00805 10159 20127 40151 53004 333 10210=
85586,2002,03,23,03,00,AAXX 23034 85586 NIL=
85586,2002,03,23,06,00,AAXX 23064 85586 NIL=
85586,2002,03,23,09,00,AAXX 23094 85586 NIL=
85586,2002,03,23,12,00,AAXX 23124 85586 32960 00000 10113 20100 40160 53/// 333 20077 30/// 50200 55081=
85586,2002,03,23,15,00,AAXX 23154 85586 42960 22310 10186 20134 40155 58004 80001 333 56005 82073=
85586,2002,03,23,18,00,AAXX 23184 85586 32960 52517 10203 20123 40143 57011 80001 333 56005 85073=
85586,2002,03,23,21,00,AAXX 23214 85586 42960 32311 10208 20119 40135 57007 80001 333 56005 83073=
85586,2002,03,24,00,00,AAXX 24004 85586 32960 40000 10156 20114 40153 57016 80001 333 10211 56005 84073=
85586,2002,03,24,03,00,AAXX 24034 85586 NIL=
85586,2002,03,24,06,00,AAXX 24064 85586 NIL=
85586,2002,03,24,09,00,AAXX 24094 85586 NIL=
85586,2002,03,24,12,00,AAXX 24124 85586 32960 01802 10124 20105 40164 53/// 80001 333 20078 30/// 50190 55103 56005 81073=
85586,2002,03,24,15,00,AAXX 24154 85586 42960 11307 10227 20125 40157 58004 80001 333 56005 81073=
85586,2002,03,24,18,00,AAXX 24184 85586 32960 02416 10213 20150 40136 57011=
85586,2002,03,24,21,00,AAXX 24214 85586 42960 02518 10217 20128 40143 57003=
85586,2002,03,25,00,00,AAXX 25004 85586 32960 02306 10181 20134 40165 53020 333 10242=
85586,2002,03,25,03,00,AAXX 25034 85586 NIL=
85586,2002,03,25,06,00,AAXX 25064 85586 NIL=
85586,2002,03,25,09,00,AAXX 25094 85586 NIL=
85586,2002,03,25,12,00,AAXX 25124 85586 32960 01603 10142 20086 40161 57/// 333 20074 30/// 50310 55109=
85586,2002,03,25,15,00,AAXX 25154 85586 42960 02412 10215 20104 40153 57005=
85586,2002,03,25,18,00,AAXX 25184 85586 32960 02412 10196 20120 40147 57007=
85586,2002,03,25,21,00,AAXX 25214 85586 42960 02414 10205 20117 40138 57009=
85586,2002,03,26,00,00,AAXX 26004 85586 32960 00000 10147 20097 40152 53012 333 10237=
85586,2002,03,26,03,00,AAXX 26034 85586 NIL=
85586,2002,03,26,06,00,AAXX 26064 85586 NIL=
85586,2002,03,26,09,00,AAXX 26094 85586 NIL=
85586,2002,03,26,12,00,AAXX 26124 85586 32960 00000 10100 20081 40154 53/// 333 20062 30/// 50310 55111=
85586,2002,03,26,15,00,AAXX 26154 85586 42960 02606 10184 20104 40160 52008=
85586,2002,03,26,18,00,AAXX 26184 85586 32960 02507 10193 20112 40149 57011=
85586,2002,03,26,21,00,AAXX 26214 85586 42960 02606 10198 20082 40136 57012=
85586,2002,03,27,00,00,AAXX 27004 85586 32960 00000 10164 20108 40145 53007 333 10205=
85586,2002,03,27,03,00,AAXX 27034 85586 NIL=
85586,2002,03,27,09,00,AAXX 27094 85586 NIL=
85586,2002,03,27,12,00,AAXX 27124 85586 32960 00000 10119 20102 40127 56/// 333 20072 30/// 50310 55108=
85586,2002,03,27,15,00,AAXX 27154 85586 42960 02708 10212 20079 40124 54000=
85586,2002,03,27,18,00,AAXX 27184 85586 32960 02412 10206 20092 40119 57005=
85586,2002,03,27,21,00,AAXX 27214 85586 42960 22708 10180 20124 40121 54000 80001 333 56006 82075=
85586,2002,03,28,00,00,AAXX 28004 85586 32960 22702 10140 20123 40135 52013 80001 333 10212 56006 82075=
85586,2002,03,28,03,00,AAXX 28034 85586 NIL=
85586,2002,03,28,06,00,AAXX 28064 85586 NIL=
85586,2002,03,28,09,00,AAXX 28094 85586 NIL=
85586,2002,03,28,12,00,AAXX 28124 85586 32960 00000 10106 20092 40119 57/// 333 20078 30/// 50280 55107=
85586,2002,03,28,15,00,AAXX 28154 85586 42460 73110 10166 20131 40127 53009 87500 333 56700 87613=
85586,2002,03,28,18,00,AAXX 28184 85586 32560 33308 10210 20137 40129 51004 81130 333 56770 81820 83363=
85586,2002,03,28,21,00,AAXX 28214 85586 42560 63604 10174 20148 40136 52005 83530 333 56770 83623 86360=
85586,2002,03,29,00,00,AAXX 29004 85586 11460 73204 10164 20134 40143 52007 69901 70362 83230 333 10216 56770 83815 86360=
85586,2002,03,29,03,00,AAXX 29034 85586 NIL=
85586,2002,03,29,06,00,AAXX 29064 85586 NIL=
85586,2002,03,29,09,00,AAXX 29094 85586 NIL=
85586,2002,03,29,12,00,AAXX 29124 85586 11460 40803 10140 20123 40157 52/// 60154 70162 84800 333 20136 32/// 50200 55063 56600 70148 81915 83620=
85586,2002,03,29,15,00,AAXX 29154 85586 42460 43108 10195 20124 40171 52015 84230 333 56760 84815=
85586,2002,03,29,18,00,AAXX 29184 85586 32460 53408 10206 20122 40164 54000 83231 333 56766 83815 83075=
85586,2002,03,29,21,00,AAXX 29214 85586 42460 53110 10188 20135 40168 56003 82231 333 56766 82815 83075=
85586,2002,03,30,00,00,AAXX 30004 85586 32460 80000 10164 20128 40179 52011 8423/ 333 10216 56769 84815 86360=
85586,2002,03,30,03,00,AAXX 30034 85586 NIL=
85586,2002,03,30,06,00,AAXX 30064 85586 NIL=
85586,2002,03,30,09,00,AAXX 30094 85586 NIL=
85586,2002,03,30,12,00,AAXX 30124 85586 32960 01802 10142 20110 40191 52/// 333 20122 31/// 50200 55078=
85586,2002,03,30,15,00,AAXX 30154 85586 42960 21404 10212 20079 40189 58003 80001 333 56006 82075=
85586,2002,03,30,18,00,AAXX 30184 85586 32960 02612 10212 20118 40165 57020=
85586,2002,03,30,21,00,AAXX 30214 85586 42960 02412 10210 20125 40156 57008=
85586,2002,03,31,00,00,AAXX 31004 85586 32960 00000 10168 20131 40163 53004 333 10228=
85586,2002,03,31,03,00,AAXX 31034 85586 NIL=
85586,2002,03,31,06,00,AAXX 31064 85586 NIL=
85586,2002,03,31,09,00,AAXX 31094 85586 NIL=
85586,2002,03,31,12,00,AAXX 31124 85586 32960 00000 10136 20103 40119 57/// 333 20094 31/// 50230 55110=
85586,2002,03,31,15,00,AAXX 31154 85586 42960 02506 10214 20095 40114 54002=
85586,2002,03,31,18,00,AAXX 31184 85586 32960 02909 10197 20120 40112 57003=
85586,2002,03,31,21,00,AAXX 31214 85586 42960 03006 10187 20143 40108 57005=
85586,2002,04,01,00,00,AAXX 01004 85586 32360 83203 10163 20147 40116 53008 886// 333 10216 56799 88708=
85586,2002,04,01,03,00,AAXX 01034 85586 NIL=
85586,2002,04,01,06,00,AAXX 01064 85586 NIL=
85586,2002,04,01,09,00,AAXX 01094 85586 NIL=
85586,2002,04,01,12,00,AAXX 01124 85586 32460 83505 10146 20118 40138 52/// 885// 333 20145 30/// 50250 55102 56799 88615=
85586,2002,04,01,15,00,AAXX 01154 85586 42460 83204 10164 20128 40152 52015 885// 333 56799 88618=
85586,2002,04,01,18,00,AAXX 01184 85586 32560 82907 10176 20176 30125 40157 52005 885// 333 56799 88620=
85586,2002,04,01,21,00,AAXX 01214 85586 42560 62806 10171 20114 40147 58010 86500 333 56700 86623=
85586,2002,04,02,00,00,AAXX 02004 85586 32560 72203 10161 20118 40148 54001 87500 333 10179 56700 87623=
85586,2002,04,02,03,00,AAXX 02034 85586 NIL=
85586,2002,04,02,06,00,AAXX 02064 85586 NIL=
85586,2002,04,02,09,00,AAXX 02094 85586 NIL=
85586,2002,04,02,12,00,AAXX 02124 85586 32560 70000 10153 20131 40158 54/// 87500 333 20150 30/// 50180 55005 56700 87630=
85586,2002,04,02,18,00,AAXX 02184 85586 32560 12409 10197 20138 40154 58008 81500 333 56700 81630=
85586,2002,04,02,21,00,AAXX 02214 85586 42960 02412 10195 20119 40154 54000=
85586,2002,04,03,00,00,AAXX 03004 85586 32960 00000 10140 20119 40158 54002 333 10204=
85586,2002,04,03,03,00,AAXX 03034 85586 NIL=
85586,2002,04,03,06,00,AAXX 03064 85586 NIL=
85586,2002,04,03,09,00,AAXX 03094 85586 NIL=
85586,2002,04,03,12,00,AAXX 03124 85586 32960 10000 10117 20100 40154 52/// 80001 333 20082 30/// 50190 55072 56005 81075=
85586,2002,04,03,15,00,AAXX 03154 85586 42960 02706 10176 20132 40166 52013=
85586,2002,04,03,18,00,AAXX 03184 85586 32960 02610 10185 20135 40161 58005=
85586,2002,04,03,21,00,AAXX 03214 85586 42960 02405 10175 20131 40159 54002=
85586,2002,04,04,00,00,AAXX 04004 85586 32960 00503 10145 20128 40171 52011 333 10189=
85586,2002,04,04,03,00,AAXX 04034 85586 NIL=
85586,2002,04,04,06,00,AAXX 04064 85586 NIL=
85586,2002,04,04,09,00,AAXX 04094 85586 NIL=
85586,2002,04,04,12,00,AAXX 04124 85586 32960 01302 10116 20095 40175 54/// 333 20075 30/// 50230 55106=
85586,2002,04,04,15,00,AAXX 04154 85586 42960 02506 10186 20140 40169 57005=
85586,2002,04,04,18,00,AAXX 04184 85586 32960 02410 10193 20139 40156 57013=
85586,2002,04,04,21,00,AAXX 04214 85586 42960 02508 10190 20141 40142 57014=
85586,2002,04,05,00,00,AAXX 05004 85586 32960 00303 10147 20130 40146 53003 333 10203=
85586,2002,04,05,03,00,AAXX 05034 85586 NIL=
85586,2002,04,05,06,00,AAXX 05064 85586 NIL=
85586,2002,04,05,09,00,AAXX 05094 85586 NIL=
85586,2002,04,05,12,00,AAXX 05124 85586 32960 00000 10115 20102 40115 57/// 333 20075 30/// 50230 55105=
85586,2002,04,05,15,00,AAXX 05154 85586 41108 83305 10141 20136 40126 53011 74441 886// 333 56799 88702=
85586,2002,04,05,18,00,AAXX 05184 85586 32460 83108 10170 20140 40135 52010 885// 333 56799 88613=
85586,2002,04,05,21,00,AAXX 05214 85586 42560 63307 10177 20144 40139 52004 86500 333 56700 86622=
85586,2002,04,06,00,00,AAXX 06004 85586 32560 33406 10171 20121 40137 54002 83500 333 10180 56700 83633=
85586,2002,04,06,03,00,AAXX 06034 85586 NIL=
85586,2002,04,06,06,00,AAXX 06064 85586 NIL=
85586,2002,04,06,09,00,AAXX 06094 85586 NIL=
85586,2002,04,06,12,00,AAXX 06124 85586 32660 83303 10163 20129 40147 53/// 8557/ 333 20150 30/// 50200 55024 56769 85640 83360=
85586,2002,04,06,15,00,AAXX 06154 85586 41358 83308 10156 20144 40174 52037 71052 886// 333 56799=
85586,2002,04,06,18,00,AAXX 06184 85586 11560 72910 10187 20152 40168 58006 69971 70252 84530 333 56770 84627 83360=
85586,2002,04,06,21,00,AAXX 06214 85586 42560 22404 10194 20156 40152 57016 82500 333 56600 82627=
85586,2002,04,07,00,00,AAXX 07004 85586 32560 10000 10135 20117 40148 53005 81600 333 10198 56600 81630=
85586,2002,04,07,03,00,AAXX 07034 85586 NIL=
85586,2002,04,07,06,00,AAXX 07064 85586 NIL=
85586,2002,04,07,09,00,AAXX 07094 85586 NIL=
85586,2002,04,07,12,00,AAXX 07124 85586 12960 11005 10121 20112 40158 53/// 69974 80001 333 20082 30/// 50110 55014 56005 70007 81075=
85586,2002,04,07,15,00,AAXX 07154 85586 42560 22407 10193 20141 40162 52005 81101 333 56005 81825=
85586,2002,04,07,18,00,AAXX 07184 85586 32960 12414 10191 20140 40154 58008 80001 333 56005 81075=
85586,2002,04,07,21,00,AAXX 07214 85586 42960 22410 10184 20134 40154 54000 80001 333 56005 82075=
85586,2002,04,08,00,00,AAXX 08004 85586 32960 20000 10145 20128 40161 52006 80001 333 10202 56005 82075=
85586,2002,04,08,03,00,AAXX 08034 85586 NIL=
85586,2002,04,08,06,00,AAXX 08064 85586 NIL=
85586,2002,04,08,09,00,AAXX 08094 85586 NIL=
85586,2002,04,08,12,00,AAXX 08124 85586 32960 11201 10095 20089 40170 53/// 80001 333 20070 30/// 50180 55107 56005 81075=
85586,2002,04,08,15,00,AAXX 08154 85586 42960 32509 10177 20132 40175 52007 80001 333 56005 83075=
85586,2002,04,08,18,00,AAXX 08184 85586 32960 52416 10172 20108 40171 58004 82031 333 56055 82365 83073=
85586,2002,04,08,21,00,AAXX 08214 85586 42960 72412 10166 20102 40166 57005 87030 333 56060 87363=
85586,2002,04,09,00,00,AAXX 09004 85586 32960 70000 10130 20103 40166 54001 87030 333 10188 56060 87363=
85586,2002,04,09,03,00,AAXX 09034 85586 NIL=
85586,2002,04,09,06,00,AAXX 09064 85586 NIL=
85586,2002,04,09,09,00,AAXX 09094 85586 NIL=
85586,2002,04,09,12,00,AAXX 09124 85586 32960 60000 10100 20084 40177 52/// 86030 333 20092 30/// 50250 55070 56060 86363=
85586,2002,04,09,15,00,AAXX 09154 85586 41458 70000 10146 20100 40190 52014 70522 82530 333 56660 82613 87363=
85586,2002,04,09,18,00,AAXX 09184 85586 31958 62607 10166 20092 40180 58010 70522 86030 333 56060 86361=
85586,2002,04,09,21,00,AAXX 09214 85586 41958 62604 10160 20091 40173 57007 70522 86030 333 56060 86360=
85586,2002,04,10,00,00,AAXX 10004 85586 31958 60000 10128 20099 40173 54001 70522 86030 333 10168 56060 86360=
85586,2002,04,10,03,00,AAXX 10034 85586 NIL=
85586,2002,04,10,06,00,AAXX 10064 85586 NIL=
85586,2002,04,10,09,00,AAXX 10094 85586 NIL=
85586,2002,04,10,12,00,AAXX 10124 85586 NIL=
85586,2002,04,10,15,00,AAXX 10154 85586 42560 82806 10160 20103 40194 52015 8653/ 333 56669 86620=
85586,2002,04,10,18,00,AAXX 10184 85586 32560 73010 10180 20109 40197 51004 84131 333 56666 84820 85360=
85586,2002,04,10,21,00,AAXX 10214 85586 42560 73103 10150 20109 40198 54000 81630 333 56760 81620 86360=
85586,2002,04,11,00,00,AAXX 11004 85586 32560 70000 10128 20108 40214 52015 82530 333 10183 56770 82620 85360=
85586,2002,04,11,03,00,AAXX 11034 85586 NIL=
85586,2002,04,11,06,00,AAXX 11064 85586 NIL=
85586,2002,04,11,09,00,AAXX 11094 85586 NIL=
85586,2002,04,11,12,00,AAXX 11124 85586 32960 11103 10100 20084 40222 54/// 80001 333 20072 30/// 50190 55036 56006 81075=
85586,2002,04,11,15,00,AAXX 11154 85586 42560 72404 10150 20093 40226 82530 333 56560 82620 87362=
85586,2002,04,11,18,00,AAXX 11184 85586 32560 82506 10162 20101 40214 57012 8353/ 333 56669 83625 87362=
85586,2002,04,11,21,00,AAXX 11214 85586 42560 82204 10158 20074 40201 57012 8253/ 333 56669 82626 87361=
85586,2002,04,12,00,00,AAXX 12004 85586 32560 80000 10130 20075 40179 57027 8253/ 333 10164 56669 82626 87360=
85586,2002,04,12,03,00,AAXX 12034 85586 NIL=
85586,2002,04,12,06,00,AAXX 12064 85586 NIL=
85586,2002,04,12,09,00,AAXX 12094 85586 NIL=
85586,2002,04,12,12,00,AAXX 12124 85586 32560 71103 10120 20086 40176 57/// 84530 333 20086 30/// 50190 55018 56660 84630 87360=
85586,2002,04,12,15,00,AAXX 12154 85586 NIL=
85586,2002,04,12,18,00,AAXX 12184 85586 11660 83106 10172 20117 40182 54002 69901 78022 8453/ 333 56769 84640 86360=
85586,2002,04,12,21,00,AAXX 12214 85586 44160 80000 10140 20123 40186 54001 76086 8783/ 333 56779 84813=
85586,2002,04,13,00,00,AAXX 13004 85586 11560 81002 10128 20112 40194 52007 60081 70262 8453/ 333 10186 56169 84620 86359=
85586,2002,04,13,03,00,AAXX 13034 85586 NIL=
85586,2002,04,13,06,00,AAXX 13064 85586 NIL=
85586,2002,04,13,09,00,AAXX 13094 85586 NIL=
85586,2002,04,13,12,00,AAXX 13124 85586 11904 50000 10094 20077 40175 56/// 60084 7466/ 80001 333 20090 32/// 50150 55028 56006 70079 85075=
85586,2002,04,13,15,00,AAXX 13154 85586 42960 32702 10160 20114 40179 53005 80001 333 56006 83075=
85586,2002,04,13,18,00,AAXX 13184 85586 32560 32406 10184 20112 40166 58012 81502 333 56506 81620=
85586,2002,04,13,21,00,AAXX 13214 85586 42960 22612 10166 20121 40160 57006 80002 333 56006 82075=
85586,2002,04,14,00,00,AAXX 14004 85586 32960 00000 10130 20115 40165 53004 333 10185=
85586,2002,04,14,03,00,AAXX 14034 85586 NIL=
85586,2002,04,14,06,00,AAXX 14064 85586 NIL=
85586,2002,04,14,09,00,AAXX 14094 85586 NIL=
85586,2002,04,14,12,00,AAXX 14124 85586 32560 51202 10108 20093 40171 53/// 82530 333 20092 31/// 50180 55093 56060 82620 85360=
85586,2002,04,14,15,00,AAXX 14154 85586 42460 52604 10168 20112 40184 52012 83530 333 56660 83613 83360=
85586,2002,04,14,18,00,AAXX 14184 85586 32460 42707 10179 20132 40180 54002 82530 333 56660 82617=
85586,2002,04,14,21,00,AAXX 14214 85586 42560 12604 10177 20132 40175 57005 81500 333 56600 81620=
85586,2002,04,15,00,00,AAXX 15004 85586 32960 00000 10135 20117 40169 57007 333 10190=
85586,2002,04,15,03,00,AAXX 15034 85586 NIL=
85586,2002,04,15,06,00,AAXX 15064 85586 NIL=
85586,2002,04,15,09,00,AAXX 15094 85586 NIL=
85586,2002,04,15,12,00,AAXX 15124 85586 32960 70000 10104 20098 40165 53/// 87030 333 20082 31/// 50160 55088 56060 87363=
85586,2002,04,15,15,00,AAXX 15154 85586 42460 83603 10167 20122 40183 52010 8357/ 333 56769 83618=
85586,2002,04,15,18,00,AAXX 15184 85586 32460 72707 10168 20138 40178 58005 83531 333 56766 83618 83362=
85586,2002,04,15,21,00,AAXX 15214 85586 42560 52606 10179 20134 40179 54001 82531 333 56666 82620=
85586,2002,04,16,00,00,AAXX 16004 85586 32560 20000 10125 20112 40187 52007 81530 333 10182 56660 81620=
85586,2002,04,16,03,00,AAXX 16034 85586 NIL=
85586,2002,04,16,06,00,AAXX 16064 85586 NIL=
85586,2002,04,16,09,00,AAXX 16094 85586 NIL=
85586,2002,04,16,12,00,AAXX 16124 85586 12960 00000 10124 20115 40218 52/// 60024 333 20092 32/// 50170 55052 70017=
85586,2002,04,16,15,00,AAXX 16154 85586 42960 02408 10177 20139 40219 52003=
85586,2002,04,16,18,00,AAXX 16184 85586 32960 12511 10180 20130 40214 58005 81100 333 56000 81825=
85586,2002,04,16,21,00,AAXX 16214 85586 42960 02509 10189 20140 40208 57006=
85586,2002,04,17,00,00,AAXX 17004 85586 32960 00000 10131 20117 40206 57004 333 10198=
85586,2002,04,17,03,00,AAXX 17034 85586 NIL=
85586,2002,04,17,06,00,AAXX 17064 85586 NIL=
85586,2002,04,17,09,00,AAXX 17094 85586 NIL=
85586,2002,04,17,12,00,AAXX 17124 85586 32960 12103 10110 20100 40194 53/// 81030 333 20093 31/// 50190 55104 56050 81365=
85586,2002,04,17,15,00,AAXX 17154 85586 42960 01405 10213 20125 40196 52005=
85586,2002,04,17,18,00,AAXX 17184 85586 32960 02614 10200 20144 40178 58019=
85586,2002,04,17,21,00,AAXX 17214 85586 42960 22418 10184 20129 40177 54001 80001 333 56006 82075=
85586,2002,04,18,00,00,AAXX 18004 85586 32960 02416 10140 20119 40192 52014 333 10216=
85586,2002,04,18,03,00,AAXX 18034 85586 NIL=
85586,2002,04,18,06,00,AAXX 18064 85586 NIL=
85586,2002,04,18,09,00,AAXX 18094 85586 NIL=
85586,2002,04,18,12,00,AAXX 18124 85586 32960 01503 10112 20083 40157 52/// 333 20076 31/// 50200 55097=
85586,2002,04,18,15,00,AAXX 18154 85586 42960 01904 10192 20088 40156 54000=
85586,2002,04,18,18,00,AAXX 18184 85586 32960 02608 10172 20088 40148 57008=
85586,2002,04,18,21,00,AAXX 18214 85586 42960 02410 10172 20098 40134 56014=
85586,2002,04,19,00,00,AAXX 19004 85586 32960 20000 10138 20102 40146 52011 80001 333 10206 56006 82075=
85586,2002,04,19,03,00,AAXX 19034 85586 NIL=
85586,2002,04,19,09,00,AAXX 19094 85586 NIL=
85586,2002,04,19,12,00,AAXX 19124 85586 32960 01602 10056 20043 40195 52/// 333 20028 31/// 50220 55102=
85586,2002,04,19,15,00,AAXX 19154 85586 42960 21906 10160 20045 40199 51007 80001 333 56006 82075=
85586,2002,04,19,18,00,AAXX 19184 85586 32960 62516 10164 20078 40190 57009 80002 333 56006 86075=
85586,2002,04,19,21,00,AAXX 19214 85586 NIL=
85586,2002,04,20,00,00,AAXX 20004 85586 32986 01804 10146 20015 40200 52012 333 10202=
85586,2002,04,20,03,00,AAXX 20034 85586 NIL=
85586,2002,04,20,06,00,AAXX 20064 85586 NIL=
85586,2002,04,20,09,00,AAXX 20094 85586 NIL=
85586,2002,04,20,12,00,AAXX 20124 85586 32960 51403 10100 20042 40155 57/// 80001 333 20072 30/// 50220 55104 56006 85075=
85586,2002,04,20,15,00,AAXX 20154 85586 NIL=
85586,2002,04,20,18,00,AAXX 20184 85586 42960 11807 10252 20008 40113 57026 80001 333 56005 81075=
85586,2002,04,20,21,00,AAXX 20214 85586 42960 22509 10183 20110 40104 57012 80001 333 56005 82075=
85586,2002,04,21,00,00,AAXX 21004 85586 32960 30000 10111 20098 40121 53/// 80001 333 10257 56005 83073=
85586,2002,04,21,03,00,AAXX 21034 85586 NIL=
85586,2002,04,21,06,00,AAXX 21064 85586 NIL=
85586,2002,04,21,09,00,AAXX 21094 85586 NIL=
85586,2002,04,21,12,00,AAXX 21124 85586 32960 70000 10059 20050 40136 53/// 87030 333 20052 30/// 50250 55103 56060 87365=
85586,2002,04,21,15,00,AAXX 21154 85586 42960 53003 10135 20099 40147 52013 80001 333 56005=
85586,2002,04,21,18,00,AAXX 21184 85586 32960 22905 10149 20102 40147 54000 80001 333 56005 82073=
85586,2002,04,21,21,00,AAXX 21214 85586 NIL=
85586,2002,04,22,00,00,AAXX 22004 85586 32960 03003 10108 20095 40151 53003 333 10156=
85586,2002,04,22,03,00,AAXX 22034 85586 NIL=
85586,2002,04,22,06,00,AAXX 22064 85586 NIL=
85586,2002,04,22,09,00,AAXX 22094 85586 NIL=
85586,2002,04,22,12,00,AAXX 22124 85586 32560 51505 10081 20073 40180 52/// 82501 333 20054 30/// 50200 55078 56605 82620 83073=
85586,2002,04,22,15,00,AAXX 22154 85586 42660 81603 10145 20079 40187 52008 885// 333 56699 88635=
85586,2002,04,22,18,00,AAXX 22184 85586 32660 62503 10166 20094 40167 58019 83501 333 56605 83640 83073=
85586,2002,04,22,21,00,AAXX 22214 85586 42660 52408 10145 20099 40171 53003 81501 333 56605 81640 84073=
85586,2002,04,23,00,00,AAXX 23004 85586 32660 50000 10101 20088 40174 54002 81531 333 10170 56655 81640=
85586,2002,04,23,03,00,AAXX 23034 85586 NIL=
85586,2002,04,23,06,00,AAXX 23064 85586 NIL=
85586,2002,04,23,09,00,AAXX 23094 85586 NIL=
85586,2002,04,23,12,00,AAXX 23124 85586 32960 01104 10082 20074 40173 53/// 333 20047 30/// 50160 55029=
85586,2002,04,23,15,00,AAXX 23154 85586 42960 03008 10177 20103 40170 54001=
85586,2002,04,23,18,00,AAXX 23184 85586 32960 02616 10162 20099 40158 57012=
85586,2002,04,23,21,00,AAXX 23214 85586 42960 02410 10146 20100 40157 54002=
85586,2002,04,24,00,00,AAXX 24004 85586 32960 30000 10110 20092 40158 54001 80001 333 10180 56006 83075=
85586,2002,04,24,03,00,AAXX 24034 85586 NIL=
85586,2002,04,24,06,00,AAXX 24064 85586 NIL=
85586,2002,04,24,09,00,AAXX 24094 85586 NIL=
85586,2002,04,24,12,00,AAXX 24124 85586 11560 81803 10109 20093 40215 52/// 69904 7602/ 8483/ 333 20080 31/// 50190 55099 56069 82820 83630 86360=
85586,2002,04,24,15,00,AAXX 24154 85586 41560 70914 10142 20097 40217 54002 70162 87500 333 56100 87630=
85586,2002,04,24,18,00,AAXX 24184 85586 32560 12412 10176 20094 40200 57016 81500 333 56600 81630=
85586,2002,04,24,21,00,AAXX 24214 85586 42960 02414 10154 20098 40204 53003=
85586,2002,04,25,00,00,AAXX 25004 85586 32960 00000 10112 20095 40211 52006 333 10184=
85586,2002,04,25,03,00,AAXX 25034 85586 NIL=
85586,2002,04,25,06,00,AAXX 25064 85586 NIL=
85586,2002,04,25,09,00,AAXX 25094 85586 NIL=
85586,2002,04,25,12,00,AAXX 25124 85586 12560 71506 10112 20098 40197 53/// 69904 87500 333 20056 31/// 50200 55064 56300 70000 87620=
85586,2002,04,25,15,00,AAXX 25154 85586 42560 11506 10168 20086 40208 52013 81500 333 56300 81620=
85586,2002,04,25,18,00,AAXX 25184 85586 32960 02412 10172 20091 40200 57008=
85586,2002,04,25,21,00,AAXX 25214 85586 42960 02407 10186 20067 40196 56004=
85586,2002,04,26,00,00,AAXX 26004 85586 32960 01803 10140 20038 40205 52008 333 10191=
85586,2002,04,26,03,00,AAXX 26034 85586 NIL=
85586,2002,04,26,06,00,AAXX 26064 85586 NIL=
85586,2002,04,26,09,00,AAXX 26094 85586 NIL=
85586,2002,04,26,12,00,AAXX 26124 85586 32960 01610 10114 20072 40186 57/// 333 20090 30/// 50250 55103=
85586,2002,04,26,15,00,AAXX 26154 85586 42960 01206 10190 20039 40183 54002=
85586,2002,04,26,18,00,AAXX 26184 85586 32960 01706 10261 21004 40146 57034=
85586,2002,04,26,21,00,AAXX 26214 85586 42960 01710 10257 20026 40129 57017=
85586,2002,04,27,00,00,AAXX 27004 85586 32960 00000 10149 20057 40133 54000 333 10268=
85586,2002,04,27,03,00,AAXX 27034 85586 NIL=
85586,2002,04,27,06,00,AAXX 27064 85586 NIL=
85586,2002,04,27,09,00,AAXX 27094 85586 NIL=
85586,2002,04,27,12,00,AAXX 27124 85586 32960 01203 10042 20033 40141 53/// 333 20024 30/// 50310 55104=
85586,2002,04,27,15,00,AAXX 27154 85586 41256 23110 10139 20105 40156 52018 70511 82600 333 56700 82704=
85586,2002,04,27,18,00,AAXX 27184 85586 31258 72710 10141 20113 40159 52003 70522 87600 333 56700 87706=
85586,2002,04,27,21,00,AAXX 27214 85586 41358 52906 10140 20113 40157 58002 70522=
85586,2002,04,28,00,00,AAXX 28004 85586 31357 30000 10092 20076 40160 52002 70511 83600 333 10157 56700 83708=
85586,2002,04,28,03,00,AAXX 28034 85586 NIL=
85586,2002,04,28,06,00,AAXX 28064 85586 NIL=
85586,2002,04,28,09,00,AAXX 28094 85586 NIL=
85586,2002,04,28,12,00,AAXX 28124 85586 32560 80000 10117 20096 40198 52/// 885// 333 20068 30/// 50220 55076 56699 88627=
85586,2002,04,28,15,00,AAXX 28154 85586 42560 81202 10137 20096 40217 52020 885// 333 56699 88627=
85586,2002,04,28,18,00,AAXX 28184 85586 32560 80805 10159 20108 40213 58004 8457/ 333 56669 84630 85362=
85586,2002,04,28,21,00,AAXX 28214 85586 42560 70905 10179 20119 40211 54001 83570 333 56660 83630 84362=
85586,2002,04,29,00,00,AAXX 29004 85586 32560 60000 10142 20106 40213 54001 83530 333 10182 56660 83630 83363=
85586,2002,04,29,03,00,AAXX 29034 85586 NIL=
85586,2002,04,29,06,00,AAXX 29064 85586 NIL=
85586,2002,04,29,09,00,AAXX 29094 85586 NIL=
85586,2002,04,29,12,00,AAXX 29124 85586 32660 72407 10123 20105 40218 54/// 83530 333 20107 30/// 50200 55007 56660 83640 84363=
85586,2002,04,29,15,00,AAXX 29154 85586 42660 42305 10170 20118 40212 57004 81530 333 56660 81640 83365=
85586,2002,04,29,18,00,AAXX 29184 85586 32560 22616 10176 20106 40198 57014 81130 333 56660 81820=
85586,2002,04,29,21,00,AAXX 29214 85586 42560 22412 10166 20102 40187 57010 81130 333 56565 81820=
85586,2002,04,30,00,00,AAXX 30004 85586 32960 20000 10130 20095 40196 53006 82030 333 10184 56060 82363=
85586,2002,04,30,03,00,AAXX 30034 85586 NIL=
85586,2002,04,30,06,00,AAXX 30064 85586 NIL=
85586,2002,04,30,12,00,AAXX 30124 85586 32960 01204 10100 20077 40205 53/// 333 20062 30/// 50220 55079=
85586,2002,04,30,15,00,AAXX 30154 85586 42960 01704 10182 20076 40203 52016=
85586,2002,04,30,18,00,AAXX 30184 85586 32960 02410 10150 20071 40189 57015=
85586,2002,04,30,21,00,AAXX 30214 85586 42960 02408 10186 20067 40182 57006=
85586,2002,05,01,00,00,AAXX 01004 85586 32960 00000 10120 20076 40188 53005 333 10206=
85586,2002,05,01,03,00,AAXX 01034 85586 NIL=
85586,2002,05,01,06,00,AAXX 01064 85586 NIL=
85586,2002,05,01,09,00,AAXX 01094 85586 NIL=
85586,2002,05,01,12,00,AAXX 01124 85586 32960 00000 10040 20020 40195 52/// 333 20028 30/// 50250 55098=
85586,2002,05,01,15,00,AAXX 01154 85586 42960 02604 10142 20074 40201 52010=
85586,2002,05,01,18,00,AAXX 01184 85586 32960 02416 10148 20069 40198 58003=
85586,2002,05,01,21,00,AAXX 01214 85586 42960 12603 10152 20078 40192 57006 80001 333 56006 81075=
85586,2002,05,02,00,00,AAXX 02004 85586 32960 00000 10100 20081 40201 52007 333 10160=
85586,2002,05,02,03,00,AAXX 02034 85586 NIL=
85586,2002,05,02,06,00,AAXX 02064 85586 NIL=
85586,2002,05,02,09,00,AAXX 02094 85586 NIL=
85586,2002,05,02,12,00,AAXX 02124 85586 32960 00000 10050 20035 40193 56/// 333 20040 30/// 50210 55096=
85586,2002,05,02,15,00,AAXX 02154 85586 42960 01702 10173 20027 40190 54001=
85586,2002,05,02,18,00,AAXX 02184 85586 32960 02609 10167 20111 40172 57018=
85586,2002,05,02,21,00,AAXX 02214 85586 42960 02410 10160 20109 40158 57014=
85586,2002,05,03,00,00,AAXX 03004 85586 32960 00000 10093 20077 40169 53009 333 10182=
85586,2002,05,03,03,00,AAXX 03034 85586 NIL=
85586,2002,05,03,06,00,AAXX 03064 85586 NIL=
85586,2002,05,03,09,00,AAXX 03094 85586 NIL=
85586,2002,05,03,12,00,AAXX 03124 85586 32960 00904 10048 20041 40160 54/// 333 20025 30/// 50190 55101=
85586,2002,05,03,15,00,AAXX 03154 85586 42960 02104 10147 20097 40161 52003=
85586,2002,05,03,18,00,AAXX 03184 85586 32960 02510 10157 20099 40143 58017=
85586,2002,05,03,21,00,AAXX 03214 85586 42960 22607 10164 20123 40145 54002 80001 333 56005 82075=
85586,2002,05,04,00,00,AAXX 04004 85586 32960 00000 10111 20098 40156 52010 333 10194=
85586,2002,05,04,03,00,AAXX 04034 85586 NIL=
85586,2002,05,04,06,00,AAXX 04064 85586 NIL=
85586,2002,05,04,09,00,AAXX 04094 85586 NIL=
85586,2002,05,04,12,00,AAXX 04124 85586 31202 82602 10073 20066 40150 52/// 7464/ 886// 333 20035 30/// 50220 55096 56699 88704=
85586,2002,05,04,15,00,AAXX 04154 85586 41960 23007 10149 20116 40168 52004 70141 81031 333 56066 81364=
85586,2002,05,04,18,00,AAXX 04184 85586 31960 22409 10155 20111 40165 58002 70240 80001 333 56006 82073=
85586,2002,05,04,21,00,AAXX 04214 85586 42960 12407 10147 20110 40175 53009 80001 333 56006 81073=
85586,2002,05,05,00,00,AAXX 05004 85586 32960 01203 10093 20084 40182 52006 333 10177=
85586,2002,05,05,03,00,AAXX 05034 85586 NIL=
85586,2002,05,05,06,00,AAXX 05064 85586 NIL=
85586,2002,05,05,09,00,AAXX 05094 85586 NIL=
85586,2002,05,05,12,00,AAXX 05124 85586 32960 01505 10093 20079 40182 53/// 333 20038 30/// 50240 55083=
85586,2002,05,05,15,00,AAXX 05154 85586 42960 02608 10168 20111 40174 58006=
85586,2002,05,05,18,00,AAXX 05184 85586 32960 02510 10180 20088 40155 57019=
85586,2002,05,05,21,00,AAXX 05214 85586 42960 03104 10164 20104 40155 54000=
85586,2002,05,06,00,00,AAXX 06004 85586 32960 00000 10106 20093 40165 52009 333 10194=
85586,2002,05,06,03,00,AAXX 06034 85586 NIL=
85586,2002,05,06,06,00,AAXX 06064 85586 NIL=
85586,2002,05,06,09,00,AAXX 06094 85586 NIL=
85586,2002,05,06,12,00,AAXX 06124 85586 32960 01402 10080 20046 40126 57/// 333 20042 30/// 50260 55097=
85586,2002,05,06,15,00,AAXX 06154 85586 42960 03002 10184 20078 40129 53005=
85586,2002,05,06,18,00,AAXX 06184 85586 32960 02504 10178 20098 40116 58013=
85586,2002,05,06,21,00,AAXX 06214 85586 NIL=
85586,2002,05,07,00,00,AAXX 07004 85586 32960 00000 10108 20083 40152 52026 70142 333 10192=
85586,2002,05,07,03,00,AAXX 07034 85586 NIL=
85586,2002,05,07,06,00,AAXX 07064 85586 NIL=
85586,2002,05,07,09,00,AAXX 07094 85586 NIL=
85586,2002,05,07,12,00,AAXX 07124 85586 31308 80703 10104 20089 40178 52/// 7462/ 886// 333 20100 30/// 50200 55080 56099 88707=
85586,2002,05,07,15,00,AAXX 07154 85586 41308 80000 10118 20102 40196 52019 74644 886// 333 56099 88707=
85586,2002,05,07,18,00,AAXX 07184 85586 31320 82804 10134 20096 40188 58008 70544 886// 333 56099 88707=
85586,2002,05,07,21,00,AAXX 07214 85586 41458 82803 10136 20089 40191 53003 70522 886// 333 56099 88710=
85586,2002,05,08,00,00,AAXX 08004 85586 31458 80000 10124 20097 40201 52010 70522 886// 333 10140 56099 88710=
85586,2002,05,08,03,00,AAXX 08034 85586 NIL=
85586,2002,05,08,06,00,AAXX 08064 85586 NIL=
85586,2002,05,08,09,00,AAXX 08094 85586 NIL=
85586,2002,05,08,12,00,AAXX 08124 85586 NIL=
85586,2002,05,08,15,00,AAXX 08154 85586 41312 81805 10109 20089 40181 53009 70544 886// 333 56499 88705=
85586,2002,05,08,18,00,AAXX 08184 85586 31450 42706 10138 20090 40166 58015 70521 83601 333 56506 83710=
85586,2002,05,08,21,00,AAXX 08214 85586 41450 82506 10116 20080 40164 54002 70522 886// 333 56599 88710=
85586,2002,05,09,00,00,AAXX 09004 85586 31330 21202 10094 20080 40141 57021 71111 80001 333 10143 56006 82075=
85586,2002,05,09,03,00,AAXX 09034 85586 NIL=
85586,2002,05,09,06,00,AAXX 09064 85586 NIL=
85586,2002,05,09,09,00,AAXX 09094 85586 NIL=
85586,2002,05,09,12,00,AAXX 09124 85586 31002 82603 10066 20056 40136 54/// 7464/ 886// 333 20060 30/// 50160 55021 56599 88701=
85586,2002,05,09,15,00,AAXX 09154 85586 41210 80000 10096 20083 40144 51010 71144 886// 333 56099 88705=
85586,2002,05,09,18,00,AAXX 09184 85586 31950 52604 10140 20094 40130 57013 70522 80001 333 56006 85075=
85586,2002,05,09,21,00,AAXX 09214 85586 NIL=
85586,2002,05,10,00,00,AAXX 10004 85586 31956 62303 10091 20080 40129 54001 80001 333 10157 56006 85073=
85586,2002,05,10,03,00,AAXX 10034 85586 NIL=
85586,2002,05,10,06,00,AAXX 10064 85586 NIL=
85586,2002,05,10,09,00,AAXX 10094 85586 NIL=
85586,2002,05,10,12,00,AAXX 10124 85586 31959 51202 10077 20073 40132 54/// 7102/ 85030 333 20076 30/// 50160 55050 56060 85363=
85586,2002,05,10,15,00,AAXX 10154 85586 41959 52907 10147 20123 40139 52008 70522 85030 333 56060 85363=
85586,2002,05,10,18,00,AAXX 10184 85586 32960 12906 10161 20108 40132 58006 81030 333 56060 81365=
85586,2002,05,10,21,00,AAXX 10214 85586 42960 22506 10158 20123 40123 57009 80001 333 56006 82073=
85586,2002,05,11,00,00,AAXX 11004 85586 32960 63502 10117 20110 40143 52019 80001 333 10188 56006 86073=
85586,2002,05,11,03,00,AAXX 11034 85586 NIL=
85586,2002,05,11,06,00,AAXX 11064 85586 NIL=
85586,2002,05,11,09,00,AAXX 11094 85586 NIL=
85586,2002,05,11,12,00,AAXX 11124 85586 31208 83504 10104 20100 40164 52/// 7444/ 886// 333 20104 30/// 50170 55071 56799 88704=
85586,2002,05,11,15,00,AAXX 11154 85586 41330 80702 10119 20112 40173 52010 71042 886// 333 56799 88708=
85586,2002,05,11,18,00,AAXX 11184 85586 31457 73207 10155 20109 40151 58021 70542 87600 333 56700 87712=
85586,2002,05,11,21,00,AAXX 11214 85586 42460 80000 10146 20118 40140 57012 885// 333 56799 88617=
85586,2002,05,12,00,00,AAXX 12004 85586 32460 80000 10138 20111 40143 53003 885// 333 10174 56799 88617=
85586,2002,05,12,03,00,AAXX 12034 85586 NIL=
85586,2002,05,12,06,00,AAXX 12064 85586 NIL=
85586,2002,05,12,09,00,AAXX 12094 85586 NIL=
85586,2002,05,12,12,00,AAXX 12124 85586 31450 80502 10133 20110 40127 57/// 7052/ 885// 333 20133 30/// 50130 55008 56799 88618=
85586,2002,05,12,15,00,AAXX 12154 85586 41559 83607 10154 20113 40135 53007 70522 885// 333 56799 88620=
85586,2002,05,12,18,00,AAXX 12184 85586 32560 83210 10166 20102 40134 54000 885// 333 56799 88623=
85586,2002,05,12,21,00,AAXX 12214 85586 42560 83410 10153 20112 40130 57005 885// 333 56799 88625=
85586,2002,05,13,00,00,AAXX 13004 85586 32560 80303 10150 20115 40112 57018 885// 333 10170 56799 88625=
85586,2002,05,13,03,00,AAXX 13034 85586 NIL=
85586,2002,05,13,06,00,AAXX 13064 85586 NIL=
85586,2002,05,13,09,00,AAXX 13094 85586 NIL=
85586,2002,05,13,12,00,AAXX 13124 85586 32660 81407 10113 20092 40085 57/// 8157/ 333 20101 30/// 50090 55000 56779 81640 88363=
85586,2002,05,13,15,00,AAXX 13154 85586 42559 83605 10138 20112 40082 55002 70562 8257/ 333 56779 82620 88359=
85586,2002,05,13,18,00,AAXX 13184 85586 11560 83508 10142 20106 40074 57008 69941 70262 8257/ 333 56779 82620 88359=
85586,2002,05,13,21,00,AAXX 13214 85586 41560 83608 10150 20115 40084 53011 76062 8257/ 333 56779 83620 86359=
85586,2002,05,14,00,00,AAXX 14004 85586 11559 83507 10137 20125 40090 52004 69951 76062 8257/ 333 10156 56779 82622 88358=
85586,2002,05,14,03,00,AAXX 14034 85586 NIL=
85586,2002,05,14,06,00,AAXX 14064 85586 NIL=
85586,2002,05,14,09,00,AAXX 14094 85586 NIL=
85586,2002,05,14,12,00,AAXX 14124 85586 12660 70607 10141 20127 40076 57/// 60014 85531 333 20129 31/// 50070 55000 56777 70014 85535=
85586,2002,05,14,15,00,AAXX 14154 85586 42560 83617 10184 20127 40078 53004 885// 333 56799 88630=
85586,2002,05,14,18,00,AAXX 14184 85586 11558 83519 10168 20100 40075 58004 60014 76082 882// 333 56799 88822=
85586,2002,05,14,21,00,AAXX 14214 85586 41559 83612 10166 20149 40085 53010 78082 882// 333 56799 88822=
85586,2002,05,15,00,00,AAXX 15004 85586 11560 83414 10161 20140 40109 52023 60071 70286 882// 333 10201 56899 88820=
85586,2002,05,15,03,00,AAXX 15034 85586 NIL=
85586,2002,05,15,06,00,AAXX 15064 85586 NIL=
85586,2002,05,15,09,00,AAXX 15094 85586 42998 41120 10080 20012 40148 52008 84500 333 56300 84523 85931 42997 03610 10030 20020 40250 57004=
85586,2002,05,15,12,00,AAXX 15124 85586 11560 83410 10154 20146 40133 53/// 60264 70262 885// 333 20143 32/// 50050 55018 56799 70259 88620=
85586,2002,05,15,15,00,AAXX 15154 85586 41558 83318 10154 20144 40141 52008 78162 882// 333 56799 88820=
85586,2002,05,15,18,00,AAXX 15184 85586 11565 73614 10184 20135 40127 58014 60171 70262 87500 333 56800 87625=
85586,2002,05,15,21,00,AAXX 15214 85586 41456 83205 10133 20121 40142 51015 78166 882// 333 56899 88815=
85586,2002,05,16,00,00,AAXX 16004 85586 11420 82102 10109 20097 40175 52023 60191 76062 884// 333 10193 26899 88515=
85586,2002,05,16,03,00,AAXX 16034 85586 NIL=
85586,2002,05,16,06,00,AAXX 16064 85586 NIL=
85586,2002,05,16,09,00,AAXX 16094 85586 NIL=
85586,2002,05,16,12,00,AAXX 16124 85586 12975 11203 10087 20074 40165 56009 60414 81030 333 20076 31/// 50080 55027 56080 70409 81362=
85586,2002,05,16,15,00,AAXX 16154 85586 NIL=
85586,2002,05,16,18,00,AAXX 16184 85586 32970 62510 10143 20087 40162 58019 86030 333 56060 86360=
85586,2002,05,16,21,00,AAXX 16214 85586 42970 62905 10138 20090 40172 57002 86010 333 56060 86460=
85586,2002,05,17,00,00,AAXX 17004 85586 32560 81702 10117 20098 40186 8851/ 333 10147 56779 84620 84460=
85586,2002,05,17,03,00,AAXX 17034 85586 NIL=
85586,2002,05,17,06,00,AAXX 17064 85586 NIL=
85586,2002,05,17,09,00,AAXX 17094 85586 NIL=
85586,2002,05,17,12,00,AAXX 17124 85586 32975 60905 10077 20065 40187 55001 86010 333 20074 31/// 50180 55058 56060 86462=
85586,2002,05,17,15,00,AAXX 17154 85586 42975 61103 10141 20093 40163 50004 86010 333 56060 86462=
85586,2002,05,17,18,00,AAXX 17184 85586 32975 52404 10159 20060 40153 57010 80004 333 56007 85070=
85586,2002,05,17,21,00,AAXX 17214 85586 42470 62704 10149 20094 40152 50001 82504 333 56707 82620 84060=
85586,2002,05,18,00,00,AAXX 18004 85586 31920 50000 10104 20088 40152 54001 71022 80002 333 10165 56006 85075=
85586,2002,05,18,03,00,AAXX 18034 85586 NIL=
85586,2002,05,18,06,00,AAXX 18064 85586 NIL=
85586,2002,05,18,09,00,AAXX 18094 85586 NIL=
85586,2002,05,18,12,00,AAXX 18124 85586 32560 70000 10100 20081 40173 52/// 87500 333 20066 31/// 50130 55039 56000 87625=
85586,2002,05,18,15,00,AAXX 18154 85586 42560 73104 10156 20088 40175 51004 83502 333 56706 83625 84075=
85586,2002,05,18,18,00,AAXX 18184 85586 32560 73110 10164 20113 40167 57008 83502 333 56706 83625 84075=
85586,2002,05,18,21,00,AAXX 18214 85586 42560 33112 10154 20110 40168 54000 83500 333 56700 83625=
85586,2002,05,19,00,00,AAXX 19004 85586 32560 73104 10124 20108 40175 53007 82502 333 10168 56706 82625 85075=
85586,2002,05,19,03,00,AAXX 19034 85586 NIL=
85586,2002,05,19,06,00,AAXX 19064 85586 NIL=
85586,2002,05,19,09,00,AAXX 19094 85586 NIL=
85586,2002,05,19,12,00,AAXX 19124 85586 NIL=
85586,2002,05,19,15,00,AAXX 19154 85586 42560 72506 10136 20104 40190 52013 82131 333 56566 82820=
85586,2002,05,19,18,00,AAXX 19184 85586 32560 72608 10156 20098 40183 58007 83131 333 56566 83820 85363=
85586,2002,05,19,21,00,AAXX 19214 85586 42560 52610 10148 20097 40191 53008 82131 333 56566 82820 83363=
85586,2002,05,20,00,00,AAXX 20004 85586 32560 40000 10114 20090 40210 52019 83130 333 10160 56560 83820=
85586,2002,05,20,03,00,AAXX 20034 85586 NIL=
85586,2002,05,20,06,00,AAXX 20064 85586 NIL=
85586,2002,05,20,09,00,AAXX 20094 85586 NIL=
85586,2002,05,20,12,00,AAXX 20124 85586 32960 01105 10074 20062 40241 52/// 333 20042 31/// 50140 55040=
85586,2002,05,20,15,00,AAXX 20154 85586 42965 00000 10160 20107 40227 58011=
85586,2002,05,20,18,00,AAXX 20184 85586 32965 02309 10176 20114 40213 57013=
85586,2002,05,20,21,00,AAXX 20214 85586 42965 02307 10161 20127 40198 57016=
85586,2002,05,21,00,00,AAXX 21004 85586 32965 00000 10087 20078 40201 54001 333 10188=
85586,2002,05,21,03,00,AAXX 21034 85586 NIL=
85586,2002,05,21,06,00,AAXX 21064 85586 NIL=
85586,2002,05,21,12,00,AAXX 21124 85586 32960 70000 10058 20049 40163 57/// 82011 333 20046 31/// 50130 55085 56066 82465 85070=
85586,2002,05,21,15,00,AAXX 21154 85586 42960 80000 10111 20090 40165 53004 83031 333 56066 83365=
85586,2002,05,21,18,00,AAXX 21184 85586 32960 70302 10145 20100 40143 58022 82031 333 56066 82366 85070=
85586,2002,05,21,21,00,AAXX 21214 85586 42960 82406 10126 20097 40149 53006=
85586,2002,05,22,00,00,AAXX 22004 85586 32960 80802 10101 20088 40148 54002 83038 333 10152 56077 83363 85270=
85586,2002,05,22,06,00,AAXX 22064 85586 NIL=
85586,2002,05,22,09,00,AAXX 22094 85586 NIL=
85586,2002,05,22,12,00,AAXX 22124 85586 32560 71003 10090 20082 40173 53/// 87500 333 20075 31/// 50130 55010 56700 87625=
85586,2002,05,22,15,00,AAXX 22154 85586 42560 70402 10143 20088 40182 52010 86501 333 56706 86625=
85586,2002,05,22,18,00,AAXX 22184 85586 32965 72706 10143 20084 40166 58016 87070 333 56070 83360 84462=
85586,2002,05,22,21,00,AAXX 22214 85586 42965 82702 10132 20087 40158 57008 84032 333 56076 84360=
85586,2002,05,23,00,00,AAXX 23004 85586 32960 70000 10102 20086 40156 57003 87070 333 10151 56070 83360 84462=
85586,2002,05,23,06,00,AAXX 23064 85586 NIL=
85586,2002,05,23,09,00,AAXX 23094 85586 NIL=
85586,2002,05,23,12,00,AAXX 23124 85586 32960 61403 10056 20045 40163 53/// 80001 333 20054 31/// 50120 55025 56007 86072=
85586,2002,05,23,15,00,AAXX 23154 85586 41550 80000 10117 20104 40172 52011 71022 885// 333 56600 88625=
85586,2002,05,23,18,00,AAXX 23184 85586 32560 83102 10144 20094 40165 58007 885// 333 56699 88625=
85586,2002,05,23,21,00,AAXX 23214 85586 42560 83004 10140 20106 40164 54001 885// 333 56699 88630=
85586,2002,05,24,00,00,AAXX 24004 85586 32560 80000 10130 20110 40169 53004 885// 333 10146 56699 88630=
85586,2002,05,24,03,00,AAXX 24034 85586 NIL=
85586,2002,05,24,06,00,AAXX 24064 85586 NIL=
85586,2002,05,24,12,00,AAXX 24124 85586 32960 71203 10108 20086 40139 56/// 84012 333 20108 31/// 50150 55000 56066 84462 85075=
85586,2002,05,24,15,00,AAXX 24154 85586 42960 62005 10163 20098 40149 51011 82012 333 56066 82462 84075=
85586,2002,05,24,18,00,AAXX 24184 85586 32965 82706 10156 20098 40127 57022 8807/ 333 56069 84360 85462=
85586,2002,05,24,21,00,AAXX 24214 85586 NIL=
85586,2002,05,25,00,00,AAXX 25004 85586 11956 80707 10142 20120 40121 58006 69901 72522 8802/ 333 10168 56089 88458=
85586,2002,05,25,03,00,AAXX 25034 85586 NIL=
85586,2002,05,25,06,00,AAXX 25064 85586 NIL=
85586,2002,05,25,09,00,AAXX 25094 85586 NIL=
85586,2002,05,25,12,00,AAXX 25124 85586 11640 80204 10154 20137 40112 56/// 60054 7616/ 8802/ 333 10142 32/// 50100 55020 58089 70050 88440=
85586,2002,05,25,15,00,AAXX 25154 85586 41520 83110 10146 20132 40132 52021 76166 8802/ 333 56079 88426=
85586,2002,05,25,18,00,AAXX 25184 85586 11560 83204 10142 20138 40123 58010 60641 76366 8802/ 333 56079 88525=
85586,2002,05,25,21,00,AAXX 25214 85586 NIL=
85586,2002,05,26,00,00,AAXX 26004 85586 11557 80203 10141 20131 40112 58003 60241 76166 8802/ 333 10159 56079 88525=
85586,2002,05,26,03,00,AAXX 26034 85586 NIL=
85586,2002,05,26,06,00,AAXX 26064 85586 NIL=
85586,2002,05,26,09,00,AAXX 26094 85586 NIL=
85586,2002,05,26,12,00,AAXX 26124 85586 11460 83409 10141 20132 40123 53/// 61504 7298/ 882// 333 20118 32/// 40030 55000 56899 71499 88818=
85586,2002,05,26,15,00,AAXX 26154 85586 41440 80905 10136 20132 40156 52033 76062 885// 333 56799 88617=
85586,2002,05,26,18,00,AAXX 26184 85586 11460 82407 10134 20124 40153 58003 60121 70262 885// 333 56799 88614=
85586,2002,05,26,21,00,AAXX 26214 85586 42460 70000 10133 20121 40161 53008 83530 333 56779 83616 84362=
85586,2002,05,27,00,00,AAXX 27004 85586 32560 60102 10122 20113 40182 52021 82530 333 10142 56660 82620 84362=
85586,2002,05,27,03,00,AAXX 27034 85586 NIL=
85586,2002,05,27,06,00,AAXX 27064 85586 NIL=
85586,2002,05,27,09,00,AAXX 27094 85586 NIL=
85586,2002,05,27,12,00,AAXX 27124 85586 11440 83605 10116 20099 40192 53/// 60124 7602/ 885// 333 20112 32/// 50020 55001 56799 70118 88614=
85586,2002,05,27,15,00,AAXX 27154 85586 41458 81805 10121 20098 40207 52015 70562 885// 333 56799 88615=
85586,2002,05,27,18,00,AAXX 27184 85586 11460 70904 10123 20103 40200 58007 60041 70262 87500 333 56700 87617=
85586,2002,05,27,21,00,AAXX 27214 85586 41460 60703 10110 20100 40205 53005 70262 86500 333 56700 86618=
85586,2002,05,28,00,00,AAXX 28004 85586 11560 51202 10095 20089 40211 52005 69941 70262 82501 333 10140 56606 82623 83072=
85586,2002,05,28,03,00,AAXX 28034 85586 NIL=
85586,2002,05,28,06,00,AAXX 28064 85586 NIL=
85586,2002,05,28,09,00,AAXX 28094 85586 NIL=
85586,2002,05,28,12,00,AAXX 28124 85586 12960 61305 10061 20053 40209 53/// 60054 80006 333 20061 31/// 50030 55001 56005 70049 86272=
85586,2002,05,28,15,00,AAXX 28154 85586 42970 61503 10083 20065 40210 54002 80001 333 56006 86075=
85586,2002,05,28,18,00,AAXX 28184 85586 NIL=
85586,2002,05,28,21,00,AAXX 28214 85586 42970 61404 10132 20079 40186 57011 80001 333 56006 86075=
85586,2002,05,29,00,00,AAXX 29004 85586 32960 60000 10083 20063 40196 52010 80001 333 10143 56006 86075=
85586,2002,05,29,03,00,AAXX 29034 85586 NIL=
85586,2002,05,29,06,00,AAXX 29064 85586 NIL=
85586,2002,05,29,09,00,AAXX 29094 85586 NIL=
85586,2002,05,29,12,00,AAXX 29124 85586 32965 11403 10043 20029 40222 52/// 702// 81010 333 20024 31/// 50080 55030 56060 81462=
85586,2002,05,29,15,00,AAXX 29154 85586 42970 10303 10113 20045 40229 52010 80001 333 56006 81073=
85586,2002,05,29,18,00,AAXX 29184 85586 32470 42804 10130 20070 40224 58005 81502 333 56606 81613 84073=
85586,2002,05,29,21,00,AAXX 29214 85586 42970 52703 10125 20067 40225 54001=
85586,2002,05,30,00,00,AAXX 30004 85586 32960 00000 10058 20041 40238 51011 333 10136=
85586,2002,05,30,03,00,AAXX 30034 85586 NIL=
85586,2002,05,30,06,00,AAXX 30064 85586 NIL=
85586,2002,05,30,12,00,AAXX 30124 85586 32965 12004 10054 20042 40226 57/// 81030 333 20037 31/// 50120 55070 56070=
85586,2002,05,30,15,00,AAXX 30154 85586 42960 02704 10133 20091 40228 52004=
85586,2002,05,30,18,00,AAXX 30184 85586 32975 02604 10149 20077 40199 58028=
85586,2002,05,30,21,00,AAXX 30214 85586 42970 42604 10131 20078 40188 57011=
85586,2002,05,31,00,00,AAXX 31004 85586 32960 70000 10083 20070 40197 53009 84031 333 10158 56077 84360 83075=
85586,2002,05,31,12,00,AAXX 31124 85586 32960 83605 10114 20082 40162 57/// 8807/ 333 20081 31/// 50130 55074 56089 88358=
85586,2002,05,31,15,00,AAXX 31154 85586 42460 80405 10133 20091 40176 51014 8822/ 333 56889 81815 87458=
85586,2002,05,31,18,00,AAXX 31184 85586 32960 80314 10151 20062 40164 57012 8802/ 333 56089 88458=
85586,2002,05,31,21,00,AAXX 31214 85586 41556 83610 10119 20099 40165 55001 76082 8802/ 333 56089 88527=
85586,2002,06,01,00,00,AAXX 01004 85586 11440 83605 10119 20106 40191 52025 60141 76086 8822/ 333 10156 56889 81814 88527=
85586,2002,06,01,12,00,AAXX 01124 85586 12660 80906 10117 20102 40203 53/// 60174 8552/ 333 20106 32/// 50070 55000 56779 70172 85633 84463=
85586,2002,06,01,18,00,AAXX 01184 85586 32560 80706 10143 20111 40196 58009 8652/ 333 56779 86630 86630 83463=
85586,2002,06,01,21,00,AAXX 01214 85586 42560 81701 10135 20108 40187 57009 8353/ 333 56779 83630=
85586,2002,06,02,00,00,AAXX 02004 85586 32560 61502 10119 20103 40184 57003 81531 333 10146 56666 81630 84363=
85586,2002,06,02,12,00,AAXX 02124 85586 32660 70904 10105 20097 40148 57/// 8157/ 333 20100 31/// 50080 55000 56660 81633 86362=
85586,2002,06,02,15,00,AAXX 02154 85586 42660 70201 10134 20114 40145 56002 81570 333 56660 81633 86363=
85586,2002,06,02,18,00,AAXX 02184 85586 32660 83208 10143 20121 40129 57016 8157/ 333 56669 81633 87363=
85586,2002,06,02,21,00,AAXX 02214 85586 42560 83609 10146 20093 40128 54001 8427/ 333 56779 84825=
85586,2002,06,03,00,00,AAXX 03004 85586 11559 80215 10133 20106 40118 57010 60011 76162 8457/ 333 10149 56779 84623 85359=
85586,2002,06,03,06,00,AAXX 03064 85586 NIL=
85586,2002,06,03,09,00,AAXX 03094 85586 NIL=
85586,2002,06,03,12,00,AAXX 03124 85586 11460 80204 10139 20129 40114 54/// 60254 7216/ 8552/ 333 20131 32/// 50070 55000 56779 70254 85615 84460=
85586,2002,06,03,15,00,AAXX 03154 85586 41460 80404 10137 20122 40128 52014 76066 8452/ 333 56779 84620 86458=
85586,2002,06,03,18,00,AAXX 03184 85586 11460 80203 10132 20120 40127 54001 60031 76066 8452/ 333 56779 84620 86458=
85586,2002,06,03,21,00,AAXX 03214 85586 NIL=
85586,2002,06,04,00,00,AAXX 04004 85586 11540 80305 10114 20099 40143 52018 60291 76366 8452/ 333 10136 56779 84620 88457=
85586,2002,06,04,03,00,AAXX 04034 85586 NIL=
85586,2002,06,04,06,00,AAXX 04064 85586 NIL=
85586,2002,06,04,09,00,AAXX 04094 85586 NIL=
85586,2002,06,04,12,00,AAXX 04124 85586 11550 83408 10123 20108 40135 54/// 60914 7606/ 8452/ 333 20101 32/// 50070 55000 56779 70909 84620 88457=
85586,2002,06,04,15,00,AAXX 04154 85586 41556 80206 10126 20113 40140 51005 72366 8352/ 333 56779 83625 88457=
85586,2002,06,04,18,00,AAXX 04184 85586 11460 83606 10125 20109 40143 51003 60031 72366 8582/ 333 56779 81814 84420 88458=
85586,2002,06,04,21,00,AAXX 04214 85586 41460 73608 10122 20091 40151 51008 70266 878// 333 56799 82814 86425=
85586,2002,06,05,00,00,AAXX 05004 85586 11460 50205 10115 20096 40161 52013 60021 72566 85800 333 10134 56700 81815 84425=
85586,2002,06,05,03,00,AAXX 05034 85586 NIL=
85586,2002,06,05,06,00,AAXX 05064 85586 NIL=
85586,2002,06,05,09,00,AAXX 05094 85586 NIL=
85586,2002,06,05,12,00,AAXX 05124 85586 11560 50605 10097 20081 40218 52/// 60144 7806/ 85200 333 20096 32/// 50070 55002 56700 70140 85820=
85586,2002,06,05,15,00,AAXX 05154 85586 41460 73206 10114 20093 40244 52027 72566 87800 333 56700 83815 84620=
85586,2002,06,05,18,00,AAXX 05184 85586 11560 60604 10119 20103 40243 54001 78188 86200 333 56700 86820=
85586,2002,06,05,21,00,AAXX 05214 85586 NIL=
85586,2002,06,06,00,00,AAXX 06004 85586 32970 00905 10082 20064 40246 58002 333 10146=
85586,2002,06,06,03,00,AAXX 06034 85586 NIL=
85586,2002,06,06,06,00,AAXX 06064 85586 NIL=
85586,2002,06,06,09,00,AAXX 06094 85586 NIL=
85586,2002,06,06,12,00,AAXX 06124 85586 31903 00000 10039 20028 40212 57/// 60084 7460/ 333 20037 32/// 50090 55027=
85586,2002,06,06,15,00,AAXX 06154 85586 42960 30909 10104 20074 40212 51002 80001 333 56007 83074=
85586,2002,06,06,18,00,AAXX 06184 85586 32460 62405 10138 20074 40200 57010 81111 333 56777 81815 83460 84073=
85586,2002,06,06,21,00,AAXX 06214 85586 42470 53503 10133 20067 40210 53009 81101 333 56707 81815 84073=
85586,2002,06,07,00,00,AAXX 07004 85586 32960 60000 10084 20070 40228 52017 86070 333 10146 56070 83358 83460=
85586,2002,06,07,03,00,AAXX 07034 85586 NIL=
85586,2002,06,07,06,00,AAXX 07064 85586 NIL=
85586,2002,06,07,09,00,AAXX 07094 85586 NIL=
85586,2002,06,07,12,00,AAXX 07124 85586 32570 11207 10053 20036 40245 52/// 81100 333 20043 31/// 50120 55066 56800 81820=
85586,2002,06,07,15,00,AAXX 07154 85586 42970 00904 10122 20068 40249 52006=
85586,2002,06,07,18,00,AAXX 07184 85586 32570 12509 10153 20082 40238 58010 81100 333 56700 81820=
85586,2002,06,07,21,00,AAXX 07214 85586 42570 32307 10142 20092 40238 55000 81130 333 56770 81820 82358=
85586,2002,06,08,00,00,AAXX 08004 85586 32960 10000 10096 20075 40245 52005 81030 333 10156 56070 81358=
85586,2002,06,08,03,00,AAXX 08034 85586 NIL=
85586,2002,06,08,06,00,AAXX 08064 85586 NIL=
85586,2002,06,08,09,00,AAXX 08094 85586 NIL=
85586,2002,06,08,12,00,AAXX 08124 85586 32970 01207 10039 20025 40243 57/// 333 20037 31/// 50140 55076=
85586,2002,06,08,15,00,AAXX 08154 85586 42965 00903 10113 20089 40252 53012=
85586,2002,06,08,18,00,AAXX 08184 85586 32965 02410 10141 20085 40232 58019=
85586,2002,06,08,21,00,AAXX 08214 85586 42965 32307 10125 20078 40229 57003 80001 333 56005 83073=
85586,2002,06,09,00,00,AAXX 09004 85586 32960 21503 10087 20073 40248 53017 80001 333 10152 56005 82073=
85586,2002,06,09,03,00,AAXX 09034 85586 NIL=
85586,2002,06,09,06,00,AAXX 09064 85586 NIL=
85586,2002,06,09,09,00,AAXX 09094 85586 NIL=
85586,2002,06,09,12,00,AAXX 09124 85586 32960 01203 10065 20056 40259 54/// 333 20051 31/// 50100 55073=
85586,2002,06,09,15,00,AAXX 09154 85586 42960 11305 10133 20080 40253 57004 80001 333 56005 81073=
85586,2002,06,09,18,00,AAXX 09184 85586 32960 31808 10153 20091 40222 57030 80001 333 56005 83073=
85586,2002,06,09,21,00,AAXX 09214 85586 42960 11808 10146 20079 40207 57015 80001 333 56005 81073=
85586,2002,06,10,00,00,AAXX 10004 85586 32960 01805 10100 20081 40213 53004 333 10162=
85586,2002,06,10,03,00,AAXX 10034 85586 NIL=
85586,2002,06,10,06,00,AAXX 10064 85586 NIL=
85586,2002,06,10,09,00,AAXX 10094 85586 NIL=
85586,2002,06,10,12,00,AAXX 10124 85586 32960 10000 10027 20017 40173 57/// 80001 333 20024 31/// 50110 55074 56005 81073=
85586,2002,06,10,15,00,AAXX 10154 85586 NIL=
85586,2002,06,10,18,00,AAXX 10184 85586 32960 62110 10136 20016 40168 58010 80001 333 56006 86073=
85586,2002,06,10,21,00,AAXX 10214 85586 42960 61906 10120 21012 40165 54003 80001 333 56006 86073=
85586,2002,06,11,00,00,AAXX 11004 85586 32960 71804 10078 20014 40177 52011 80002 333 10142 56006 87075=
85586,2002,06,11,03,00,AAXX 11034 85586 NIL=
85586,2002,06,11,06,00,AAXX 11064 85586 NIL=
85586,2002,06,11,09,00,AAXX 11094 85586 NIL=
85586,2002,06,11,12,00,AAXX 11124 85586 32960 51002 11006 21017 40172 54/// 80002 333 21006 32/// 50150 55071 56006 85075=
85586,2002,06,11,15,00,AAXX 11154 85586 42960 61204 10064 20041 40173 53003 80002 333 56006 86070=
85586,2002,06,11,18,00,AAXX 11184 85586 32960 62705 10106 20041 40160 58011 80001 333 56006 86073=
85586,2002,06,11,21,00,AAXX 11214 85586 NIL=
85586,2002,06,12,00,00,AAXX 12004 85586 32960 30000 10040 20025 40166 53007 80001 333 10118 56006 83073=
85586,2002,06,12,03,00,AAXX 12034 85586 NIL=
85586,2002,06,12,06,00,AAXX 12064 85586 NIL=
85586,2002,06,12,09,00,AAXX 12094 85586 NIL=
85586,2002,06,12,12,00,AAXX 12124 85586 31908 71204 10026 20011 40191 52/// 7462/ 83031 333 20004 32/// 50120 55061 56066 83360 85073=
85586,2002,06,12,15,00,AAXX 12154 85586 41930 70104 10108 20073 40204 52015 70544=
85586,2002,06,12,18,00,AAXX 12184 85586 32660 53112 10138 20051 40198 58005 83530 333 56760 83633=
85586,2002,06,12,21,00,AAXX 12214 85586 42660 70000 10124 20056 40205 53007 87500 333 56700 87633=
85586,2002,06,13,00,00,AAXX 13004 85586 32560 80000 10096 20068 40215 2008 885// 333 10140 56799 88626=
85586,2002,06,13,03,00,AAXX 13034 85586 NIL=
85586,2002,06,13,06,00,AAXX 13064 85586 NIL=
85586,2002,06,13,09,00,AAXX 13094 85586 NIL=
85586,2002,06,13,12,00,AAXX 13124 85586 31556 71304 10096 20050 40238 52/// 7052/ 87500 333 20063 31/// 50140 55038 56700 87625=
85586,2002,06,13,15,00,AAXX 13154 85586 42460 12105 10121 20048 40249 51012 81100 333 56700 81815=
85586,2002,06,13,18,00,AAXX 13184 85586 32970 02509 10132 20056 40249 50000=
85586,2002,06,13,21,00,AAXX 13214 85586 42970 02412 10119 20064 40239 57010=
85586,2002,06,14,00,00,AAXX 14004 85586 31956 00000 10052 20040 40242 54001 70500 333 10136=
85586,2002,06,14,03,00,AAXX 14034 85586 NIL=
85586,2002,06,14,06,00,AAXX 14064 85586 NIL=
85586,2002,06,14,09,00,AAXX 14094 85586 NIL=
85586,2002,06,14,12,00,AAXX 14124 85586 31/01 91304 10031 20029 40229 54/// 7454/ 333 20020 31/// 50150 55074 89/00=
85586,2002,06,14,15,00,AAXX 14154 85586 41308 11005 10074 20060 40238 52010 74344 81500 333 56700 81610=
85586,2002,06,14,18,00,AAXX 14184 85586 31930 03603 10121 20062 40229 58007 71044=
85586,2002,06,14,21,00,AAXX 14214 85586 41956 32704 10115 20057 40224 57005 70511 80001 333 56007 81073=
85586,2002,06,15,00,00,AAXX 15004 85586 31956 12204 10039 20025 40238 53011 70510 80001 333 10126 56007 81073=
85586,2002,06,15,03,00,AAXX 15034 85586 NIL=
85586,2002,06,15,06,00,AAXX 15064 85586 NIL=
85586,2002,06,15,09,00,AAXX 15094 85586 NIL=
85586,2002,06,15,12,00,AAXX 15124 85586 NIL=
85586,2002,06,15,15,00,AAXX 15154 85586 41940 41204 10081 20059 40225 54001 70540 80001 333 56006 84070=
85586,2002,06,15,18,00,AAXX 15184 85586 31950 52605 10129 20059 40201 57023 70511 80001 333 56007 85072=
85586,2002,06,15,21,00,AAXX 15214 85586 42962 61809 10137 20015 40190 57010 80001 333 56007 86073=
85586,2002,06,16,00,00,AAXX 16004 85586 32960 31806 10082 20038 40196 55004 83030 333 10146 56070 83358=
85586,2002,06,16,03,00,AAXX 16034 85586 NIL=
85586,2002,06,16,06,00,AAXX 16064 85586 NIL=
85586,2002,06,16,09,00,AAXX 16094 85586 NIL=
85586,2002,06,16,12,00,AAXX 16124 85586 32965 62003 10012 21002 40186 55/// 80001 333 20011 34/// 50110 55069 56007 86073=
85586,2002,06,16,15,00,AAXX 16154 85586 42960 61104 10086 20066 40187 52004 81011 333 56077 81460=
85586,2002,06,16,18,00,AAXX 16184 85586 32560 80000 10108 20068 40180 58006 81522 333 56076 81625 84460 85073=
85586,2002,06,16,21,00,AAXX 16214 85586 42960 70000 10104 20046 40186 53005 82042 333 56076 82460 85073=
85586,2002,06,17,00,00,AAXX 17004 85586 32960 30000 10058 20046 40198 52010 80002 333 56006 83073=
85586,2002,06,17,03,00,AAXX 17034 85586 NIL=
85586,2002,06,17,06,00,AAXX 17064 85586 NIL=
85586,2002,06,17,09,00,AAXX 17094 85586 NIL=
85586,2002,06,17,12,00,AAXX 17124 85586 32965 11304 10018 20007 30135 40229 52/// 80001 333 20003 34/// 50090 55010 50090 56007=
85586,2002,06,17,15,00,AAXX 17154 85586 41958 00207 10087 20051 40235 52008 70500=
85586,2002,06,17,18,00,AAXX 17184 85586 32960 12609 10117 20062 40230 50004 80001 333 56007 81073=
85586,2002,06,17,21,00,AAXX 17214 85586 42960 42409 10117 20064 40236 53006 80001 333 56001 84073=
85586,2002,06,18,00,00,AAXX 18004 85586 32960 01507 10047 20034 40239 52004 333 10131=
85586,2002,06,18,03,00,AAXX 18034 85586 NIL=
85586,2002,06,18,06,00,AAXX 18064 85586 NIL=
85586,2002,06,18,09,00,AAXX 18094 85586 NIL=
85586,2002,06,18,12,00,AAXX 18124 85586 32956 32105 10037 20024 40242 52/// 7050/ 80001 333 20012 34/// 50130 55006 56006 83074=
85586,2002,06,18,15,00,AAXX 18154 85586 41956 42505 10121 20061 40246 52007 70510 80001 333 56006 84073=
85586,2002,06,18,18,00,AAXX 18184 85586 32970 11608 10178 20030 40225 57019 80001 333 56006 81075=
85586,2002,06,18,21,00,AAXX 18214 85586 42970 01809 10167 20042 40217 57008=
85586,2002,06,19,00,00,AAXX 19004 85586 32960 01806 10100 20040 40226 52006 333 10180=
85586,2002,06,19,03,00,AAXX 19034 85586 NIL=
85586,2002,06,19,06,00,AAXX 19064 85586 NIL=
85586,2002,06,19,09,00,AAXX 19094 85586 NIL=
85586,2002,06,19,12,00,AAXX 19124 85586 32965 31310 10059 20031 40198 57/// 7021/ 80001 333 20047 31/// 50180 55076=
85586,2002,06,19,15,00,AAXX 19154 85586 42965 41609 10126 20040 40201 53004 80001 333 56006 84073=
85586,2002,06,19,18,00,AAXX 19184 85586 32970 51708 10186 20040 40181 58018 80001 333 56006 85073=
85586,2002,06,19,21,00,AAXX 19214 85586 42965 51506 10165 20073 40178 57003 80001 333 56006=
85586,2002,06,20,00,00,AAXX 20004 85586 32960 62005 10098 20062 40183 53004 80006 333 10190 56006 86273=
85586,2002,06,20,03,00,AAXX 20034 85586 NIL=
85586,2002,06,20,06,00,AAXX 20064 85586 NIL=
85586,2002,06,20,09,00,AAXX 20094 85586 NIL=
85586,2002,06,20,12,00,AAXX 20124 85586 32960 31302 10042 20033 40183 54/// 80001 333 20028 31/// 50160 55059 56006 83073=
85586,2002,06,20,15,00,AAXX 20154 85586 42960 42601 10126 20071 40187 52004 80001 333 56006 84073=
85586,2002,06,20,18,00,AAXX 20184 85586 32960 31909 10175 20074 40169 57017 80001 333 56006 83073=
85586,2002,06,20,21,00,AAXX 20214 85586 42960 31907 10167 20081 40163 57006 80001 333 56006 83073=
85586,2002,06,21,00,00,AAXX 21004 85586 32960 21504 10097 20053 40172 53007 80001 333 10185 56006 82073=
85586,2002,06,21,03,00,AAXX 21034 85586 NIL=
85586,2002,06,21,06,00,AAXX 21064 85586 NIL=
85586,2002,06,21,09,00,AAXX 21094 85586 NIL=
85586,2002,06,21,12,00,AAXX 21124 85586 32960 51203 10043 20030 40156 54/// 80006 333 20041 31/// 50170 55072 56006 85273=
85586,2002,06,21,15,00,AAXX 21154 85586 42960 51505 10124 20080 40155 53002 80006 333 56006=
85586,2002,06,21,18,00,AAXX 21184 85586 32960 53104 10177 20087 40149 58015 80006 333 56006 85273=
85586,2002,06,21,21,00,AAXX 21214 85586 42960 60503 10136 20096 40142 53002 84011 333 56066 84465=
85586,2002,06,22,00,00,AAXX 22004 85586 32960 20000 10061 20051 40148 52004 80001 333 10177 56006 82072=
85586,2002,06,22,03,00,AAXX 22034 85586 NIL=
85586,2002,06,22,06,00,AAXX 22064 85586 NIL=
85586,2002,06,22,09,00,AAXX 22094 85586 NIL=
85586,2002,06,22,12,00,AAXX 22124 85586 31907 01304 10019 20015 40152 54/// 7424/ 333 20012 31/// 50160 55042=
85586,2002,06,22,15,00,AAXX 22154 85586 41956 00000 10084 20076 40151 54001 71040=
85586,2002,06,22,18,00,AAXX 22184 85586 31957 02806 10126 20076 40140 57010 70500=
85586,2002,06,22,21,00,AAXX 22214 85586 41957 23304 10114 20088 40156 53016 70511 80001 333 56006 82073=
85586,2002,06,23,00,00,AAXX 23004 85586 31920 30000 10060 20048 40167 52009 71011 80001 333 10132 56006 83073=
85586,2002,06,23,03,00,AAXX 23034 85586 NIL=
85586,2002,06,23,06,00,AAXX 23064 85586 NIL=
85586,2002,06,23,09,00,AAXX 23094 85586 NIL=
85586,2002,06,23,12,00,AAXX 23124 85586 31006 80000 10064 20052 40161 54/// 7464/ 886// 333 20058 31/// 50130 55070 56099 88701=
85586,2002,06,23,15,00,AAXX 23154 85586 41106 80802 10078 20065 40174 52014 74644 886// 333 56099 88702=
85586,2002,06,23,18,00,AAXX 23184 85586 31320 83304 10102 22078 40158 58016 70544 886// 333 56799 88708=
85586,2002,06,23,21,00,AAXX 23214 85586 NIL=
85586,2002,06,24,00,00,AAXX 24004 85586 31440 80804 10096 20071 40163 54002 70522 886// 333 10104 56099 88710=
85586,2002,06,24,03,00,AAXX 24034 85586 NIL=
85586,2002,06,24,06,00,AAXX 24064 85586 NIL=
85586,2002,06,24,12,00,AAXX 24124 85586 31440 81208 10096 20076 40171 52/// 70522 885// 333 20084 31/// 50100 55000 56799 88620=
85586,2002,06,24,15,00,AAXX 24154 85586 41540 80906 10103 20074 40197 52025 70522 885// 333 56799 88625=
85586,2002,06,24,18,00,AAXX 24184 85586 32560 53603 10151 20074 40164 57031 85500 333 56700 85630=
85586,2002,06,24,21,00,AAXX 24214 85586 42560 43307 10137 20075 40155 56009 84500 333 56800 84625=
85586,2002,06,25,00,00,AAXX 25004 85586 32557 80000 10114 20082 40175 52020 885// 333 10153 56899 88620=
85586,2002,06,25,03,00,AAXX 25034 85586 NIL=
85586,2002,06,25,06,00,AAXX 25064 85586 NIL=
85586,2002,06,25,09,00,AAXX 25094 85586 NIL=
85586,2002,06,25,12,00,AAXX 25124 85586 31540 81007 10089 20073 40173 52/// 7102/ 885// 333 20074 31/// 50130 55038 56899 88625=
85586,2002,06,25,15,00,AAXX 25154 85586 41557 80907 10114 20084 40199 52026 70522 8157/ 333 56879 81625 82358 86460=
85586,2002,06,25,18,00,AAXX 25184 85586 32560 32704 10158 20082 40174 57023 81530 333 56770 81625 83358=
85586,2002,06,25,21,00,AAXX 25214 85586 42570 12303 10147 20076 40176 54001 81500 333 56700 81625=
85586,2002,06,26,00,00,AAXX 26004 85586 32965 00903 10077 20062 40176 54001 333 10163=
85586,2002,06,26,03,00,AAXX 26034 85586 NIL=
85586,2002,06,26,06,00,AAXX 26064 85586 NIL=
85586,2002,06,26,09,00,AAXX 26094 85586 NIL=
85586,2002,06,26,12,00,AAXX 26124 85586 31956 61205 10063 20059 40158 53/// 7102/ 82031 333 20053 31/// 50100 55045 56066 82365 84070=
85586,2002,06,26,15,00,AAXX 26154 85586 41957 43603 10123 20092 40168 52012 70511 82031 333 56077 82360 82070=
85586,2002,06,26,18,00,AAXX 26184 85586 32565 73210 10153 20111 40160 58008 82130 333 56880 82820 86360=
85586,2002,06,27,00,00,AAXX 27004 85586 21656 83605 10125 20111 0180 52023 69991 76022 8802/ 333 10157 56089 88550=
85586,2002,06,27,03,00,AAXX 27034 85586 NIL=
85586,2002,06,27,06,00,AAXX 27064 85586 NIL=
85586,2002,06,27,12,00,AAXX 27124 85586 12560 41003 10102 20094 40205 52/// 60074 81130 333 20102 32/// 50030 55040 56660 71820 83362=
85586,2002,06,27,15,00,AAXX 27154 85586 42570 30307 10153 20114 40209 51006 82130 333 56870 82820 81460=
85586,2002,06,27,18,00,AAXX 27184 85586 32565 82209 10138 20117 40191 57018 882// 333 56899 88825=
85586,2002,06,27,21,00,AAXX 27214 85586 NIL=
85586,2002,06,28,00,00,AAXX 28004 85586 32557 82104 10122 20102 40202 52013 882// 333 10159 56799 88820=
85586,2002,06,28,03,00,AAXX 28034 85586 NIL=
85586,2002,06,28,06,00,AAXX 28064 85586 NIL=
85586,2002,06,28,09,00,AAXX 28094 85586 NIL=
85586,2002,06,28,12,00,AAXX 28124 85586 NIL=
85586,2002,06,28,15,00,AAXX 28154 85586 42570 11903 10133 20062 40226 51016 81100 333 56700 81822=
85586,2002,06,28,18,00,AAXX 28184 85586 32570 22410 10132 20091 40218 58008 82200 333 56700 82820=
85586,2002,06,28,21,00,AAXX 28214 85586 42570 41906 10126 20060 40227 53009 84200 333 56400 84820=
85586,2002,06,29,00,00,AAXX 29004 85586 32570 32106 10090 20042 40246 52018 83280 333 10142 56500 83820=
85586,2002,06,29,03,00,AAXX 29034 85586 NIL=
85586,2002,06,29,06,00,AAXX 29064 85586 NIL=
85586,2002,06,29,09,00,AAXX 29094 85586 NIL=
85586,2002,06,29,12,00,AAXX 29124 85586 32560 10000 10014 20004 40256 53/// 81500 333 20004 31/// 50100 55070 56000 81620=
85586,2002,06,29,15,00,AAXX 29154 85586 42560 10000 10086 20028 40262 52009 81500 333 56000 81630=
85586,2002,06,29,18,00,AAXX 29184 85586 32560 21808 10124 20010 40246 58015 81201 333 56406 81820=
85586,2002,06,29,21,00,AAXX 29214 85586 42560 31907 10118 21016 40235 57011 81201 333 56406 81820 83075=
85586,2002,06,30,00,00,AAXX 30004 85586 32960 40000 10064 20005 40243 53006 80001 333 10126 56006 84075=
85586,2002,06,30,03,00,AAXX 30034 85586 NIL=
85586,2002,06,30,06,00,AAXX 30064 85586 NIL=
85586,2002,06,30,09,00,AAXX 30094 85586 NIL=
85586,2002,06,30,12,00,AAXX 30124 85586 32960 21204 11016 21024 40229 53/// 80002 333 21016 31/// 50120 55074 56006 82075=
85586,2002,06,30,15,00,AAXX 30154 85586 42960 11104 10074 20018 40231 52005 80001 333 56006 81075=
85586,2002,06,30,18,00,AAXX 30184 85586 32960 22804 10110 20024 40217 58012 80001 333 56006 82075=
85586,2002,06,30,21,00,AAXX 30214 85586 42960 32606 10096 20026 40225 53007 80001 333 56006 83075=
85586,2002,07,01,00,00,AAXX 01004 85586 32960 20000 10030 20011 40236 52009 80001 333 10113 56006 82075=
85586,2002,07,01,03,00,AAXX 01034 85586 NIL=
85586,2002,07,01,06,00,AAXX 01064 85586 NIL=
85586,2002,07,01,09,00,AAXX 01094 85586 NIL=
85586,2002,07,01,12,00,AAXX 01124 85586 32960 11206 10010 21006 40241 52/// 80001 333 20010 31/// 50110 55074 56006 82075=
85586,2002,07,01,15,00,AAXX 01154 85586 42960 11006 10076 20018 40244 52006 80001 333 56006 81075=
85586,2002,07,01,18,00,AAXX 01184 85586 32960 01707 10121 20127 40218 57025=
85586,2002,07,01,21,00,AAXX 01214 85586 42960 11808 10112 20010 40201 57017 80001 333 56006 81075=
85586,2002,07,02,00,00,AAXX 02004 85586 32960 21303 10026 20009 40205 54001 80001 333 10128 56006 82075=
85586,2002,07,02,03,00,AAXX 02034 85586 NIL=
85586,2002,07,02,06,00,AAXX 02064 85586 NIL=
85586,2002,07,02,09,00,AAXX 02094 85586 NIL=
85586,2002,07,02,12,00,AAXX 02124 85586 32960 11203 11016 21024 40210 53/// 80001 333 11018 34/// 50040 55075 56006 81073=
85586,2002,07,02,15,00,AAXX 02154 85586 42960 02502 10076 20031 40227 52021=
85586,2002,07,02,18,00,AAXX 02184 85586 32960 13205 10105 20020 40220 58006 80001 333 56006 81075=
85586,2002,07,02,21,00,AAXX 02214 85586 42960 12507 10105 20062 40221 54000 80001 333 56006 81075=
85586,2002,07,03,00,00,AAXX 03004 85586 32960 11203 10027 20017 40237 52014 80001 333 10116 56006 81075=
85586,2002,07,03,03,00,AAXX 03034 85586 NIL=
85586,2002,07,03,06,00,AAXX 03064 85586 NIL=
85586,2002,07,03,09,00,AAXX 03094 85586 NIL=
85586,2002,07,03,12,00,AAXX 03124 85586 32960 11402 10010 20000 40267 52/// 80001 333 21002 34/// 50050 55074 56006 81075=
85586,2002,07,03,15,00,AAXX 03154 85586 42960 10904 10087 20016 40257 58007 80001 333 56006 81075=
85586,2002,07,03,18,00,AAXX 03184 85586 32960 61905 10119 20006 40222 57035 83031 333 56077 83360 83075=
85586,2002,07,03,21,00,AAXX 03214 85586 42970 22204 10109 20013 40199 57023 81030 333 56077 81360 81075=
85586,2002,07,04,00,00,AAXX 04004 85586 32960 00000 10038 20019 40196 56006 333 10125=
85586,2002,07,04,03,00,AAXX 04034 85586 NIL=
85586,2002,07,04,06,00,AAXX 04064 85586 NIL=
85586,2002,07,04,09,00,AAXX 04094 85586 NIL=
85586,2002,07,04,12,00,AAXX 04124 85586 32965 11703 10006 21009 40197 52/// 80001 333 20002 34/// 50160 55043 56006 81075=
85586,2002,07,04,15,00,AAXX 04154 85586 41958 00103 10097 20030 40210 51006 70500=
85586,2002,07,04,18,00,AAXX 04184 85586 31450 53306 10117 20061 40221 52012 70500 85500 333 56700 85615=
85586,2002,07,04,21,00,AAXX 04214 85586 42565 73214 10118 20083 40232 53011 87100 333 56800 87820=
85586,2002,07,05,00,00,AAXX 05004 85586 32660 70000 10107 20076 40237 53005 875// 333 10129 56899 87630=
85586,2002,07,05,03,00,AAXX 05034 85586 NIL=
85586,2002,07,05,06,00,AAXX 05064 85586 NIL=
85586,2002,07,05,12,00,AAXX 05124 85586 31950 01208 10039 20028 40208 53/// 7100/ 333 20038 31/// 50140 55069=
85586,2002,07,05,15,00,AAXX 05154 85586 41956 00403 10112 20062 40223 52018 70500=
85586,2002,07,05,18,00,AAXX 05184 85586 31559 12806 10126 20049 40229 52006 70500 81100 333 56600 81820=
85586,2002,07,05,21,00,AAXX 05214 85586 42960 33104 10114 20060 40258 52019 83031 333 56066 83363=
85586,2002,07,06,00,00,AAXX 06004 85586 32159 80000 10108 20048 40268 52010 70522 8803/ 333 10128 56060 88363=
85586,2002,07,06,03,00,AAXX 06034 85586 NIL=
85586,2002,07,06,06,00,AAXX 06064 85586 NIL=
85586,2002,07,06,09,00,AAXX 06094 85586 NIL=
85586,2002,07,06,12,00,AAXX 06124 85586 31959 31206 10070 20047 40270 53/// 7051/ 83030 333 20068 31/// 50130 55065 56060 83363=
85586,2002,07,06,15,00,AAXX 06154 85586 42960 01104 10134 20063 40271 52012=
85586,2002,07,06,18,00,AAXX 06184 85586 32960 02706 10154 20055 40257 57013=
85586,2002,07,06,21,00,AAXX 06214 85586 42960 02403 10138 20073 40258 54001=
85586,2002,07,07,00,00,AAXX 07004 85586 32960 00000 10066 20050 40262 54001 333 10162=
85586,2002,07,07,03,00,AAXX 07034 85586 NIL=
85586,2002,07,07,06,00,AAXX 07064 85586 NIL=
85586,2002,07,07,09,00,AAXX 07094 85586 NIL=
85586,2002,07,07,12,00,AAXX 07124 85586 32960 01306 10055 20022 40239 57/// 333 20040 31/// 50120 55064=
85586,2002,07,07,15,00,AAXX 07154 85586 42960 01204 10124 20054 40220 56017=
85586,2002,07,07,18,00,AAXX 07184 85586 32960 02007 10158 20052 40200 57019=
85586,2002,07,07,21,00,AAXX 07214 85586 42960 02403 10143 20092 40186 57014=
85586,2002,07,08,00,00,AAXX 08004 85586 NIL=
85586,2002,07,08,03,00,AAXX 08034 85586 NIL=
85586,2002,07,08,06,00,AAXX 08064 85586 NIL=
85586,2002,07,08,09,00,AAXX 08094 85586 NIL=
85586,2002,07,08,12,00,AAXX 08124 85586 32960 12405 10053 20034 40186 54/// 80001 333 20028 31/// 50080 55075 56006 81073=
85586,2002,07,08,15,00,AAXX 08154 85586 42960 10000 10119 20077 40203 52018 80001 333 56006 81073=
85586,2002,07,08,18,00,AAXX 08184 85586 32960 51009 10190 20059 40191 58010 82031 333 56066 82367 83073=
85586,2002,07,08,21,00,AAXX 08214 85586 42960 32405 10169 20057 40191 54000 80001 333 56006 83073=
85586,2002,07,09,00,00,AAXX 09004 85586 32960 32002 10087 20052 40208 52014 80001 333 56006 83073=
85586,2002,07,09,03,00,AAXX 09034 85586 NIL=
85586,2002,07,09,06,00,AAXX 09064 85586 NIL=
85586,2002,07,09,09,00,AAXX 09094 85586 NIL=
85586,2002,07,09,12,00,AAXX 09124 85586 32960 51404 10049 20029 40214 53/// 80001 333 20027 31/// 50070 55058 56006 85073=
85586,2002,07,09,15,00,AAXX 09154 85586 42960 72403 10115 20066 40219 52007 83011 333 56066 83466 84073=
85586,2002,07,09,18,00,AAXX 09184 85586 32960 52206 10138 20058 40200 57018 81011 333 56066 81462 84073=
85586,2002,07,09,21,00,AAXX 09214 85586 42970 12408 10129 20078 40193 56008 80001 333 56006 81073=
85586,2002,07,10,00,00,AAXX 10004 85586 3296? 00000 10054 20039 40213 52018 333 10152=
85586,2002,07,10,03,00,AAXX 10034 85586 NIL=
85586,2002,07,10,06,00,AAXX 10064 85586 NIL=
85586,2002,07,10,09,00,AAXX 10094 85586 NIL=
85586,2002,07,10,12,00,AAXX 10124 85586 32965 11206 10047 20034 40207 55/// 80001 333 20019 34/// 50080 55047 56006 81073=
85586,2002,07,10,15,00,AAXX 10154 85586 42965 01205 10103 20053 40211 50005=
85586,2002,07,10,18,00,AAXX 10184 85586 32970 42512 10146 20059 40193 57016 80001 333 56006 84073=
85586,2002,07,10,21,00,AAXX 10214 85586 42970 32605 10133 20076 40201 50007 80001 333 56006 83073=
85586,2002,07,11,00,00,AAXX 11004 85586 32960 31703 10063 20046 40213 52010 80001 333 10151 56006 83073=
85586,2002,07,11,03,00,AAXX 11034 85586 NIL=
85586,2002,07,11,06,00,AAXX 11064 85586 NIL=
85586,2002,07,11,09,00,AAXX 11094 85586 NIL=
85586,2002,07,11,12,00,AAXX 11124 85586 31950 61304 10042 20024 40244 52/// 7051/ 8131/ 333 20022 34/// 50090 55072 56066 81360 85073=
85586,2002,07,11,15,00,AAXX 11154 85586 41950 31203 10110 20050 40253 52012 70511 83030 333 56060 83360=
85586,2002,07,11,18,00,AAXX 11184 85586 32960 62610 10147 20061 40246 57006 84032 333 56066 84362 83073=
85586,2002,07,11,21,00,AAXX 11214 85586 42960 52402 10144 20078 40236 57010=
85586,2002,07,12,00,00,AAXX 12004 85586 32960 31804 10090 20038 40241 53003 80001 333 10174 56006 83073=
85586,2002,07,12,03,00,AAXX 12034 85586 NIL=
85586,2002,07,12,06,00,AAXX 12064 85586 NIL=
85586,2002,07,12,09,00,AAXX 12094 85586 NIL=
85586,2002,07,12,12,00,AAXX 12124 85586 32960 21805 10076 20050 40221 57/// 80001 333 20062 31/// 50130 55053 56006 82075=
85586,2002,07,12,15,00,AAXX 12154 85586 42960 21806 10158 20059 40220 54001 80001 333 56006 82075=
85586,2002,07,12,18,00,AAXX 12184 85586 32960 22406 10202 20076 40198 57021 80001 333 56006 82075=
85586,2002,07,12,21,00,AAXX 12214 85586 42960 21804 10200 20072 40179 57018 80001 333 56006 82075=
85586,2002,07,13,00,00,AAXX 13004 85586 32960 21802 10120 20046 40174 56007 80001 333 10207 56006 82075=
85586,2002,07,13,03,00,AAXX 13034 85586 NIL=
85586,2002,07,13,06,00,AAXX 13064 85586 NIL=
85586,2002,07,13,09,00,AAXX 13094 85586 NIL=
85586,2002,07,13,12,00,AAXX 13124 85586 32960 51204 10070 20054 40151 57/// 80001 333 20060 31/// 50130 55074 56006 85075=
85586,2002,07,13,15,00,AAXX 13154 85586 42960 42602 10142 20069 40160 53011 80001 333 56006 84075=
85586,2002,07,13,18,00,AAXX 13184 85586 32960 63004 10187 20096 40140 58019 80001 333 56006 86075=
85586,2002,07,13,21,00,AAXX 13214 85586 42960 43201 10167 20121 40133 57007 80001 333 56006 84075=
85586,2002,07,14,00,00,AAXX 14004 85586 32960 30000 10077 20067 40143 53008 80001 333 10198 56006 83075=
85586,2002,07,14,03,00,AAXX 14034 85586 NIL=
85586,2002,07,14,06,00,AAXX 14064 85586 NIL=
85586,2002,07,14,09,00,AAXX 14094 85586 NIL=
85586,2002,07,14,12,00,AAXX 14124 85586 32960 01404 10063 20053 40165 53/// 333 20028 31/// 50110 55078=
85586,2002,07,14,15,00,AAXX 14154 85586 42960 00302 10132 20091 40176 52013=
85586,2002,07,14,18,00,AAXX 14184 85586 32960 03308 10139 20101 40170 58006=
85586,2002,07,14,21,00,AAXX 14214 85586 41240 83403 10115 20102 40185 53015 70522 886// 333 56799 88606=
85586,2002,07,15,00,00,AAXX 15004 85586 31357 80000 10111 20094 40193 52007 70522 886// 333 10144 56799 88708=
85586,2002,07,15,03,00,AAXX 15034 85586 NIL=
85586,2002,07,15,06,00,AAXX 15064 85586 NIL=
85586,2002,07,15,09,00,AAXX 15094 85586 NIL=
85586,2002,07,15,12,00,AAXX 15124 85586 31001 80000 10068 20064 40198 53/// 7444/ 886// 333 20064 31/// 56799 88701=
85586,2002,07,15,18,00,AAXX 15184 85586 32960 22405 10159 20102 40183 57018 80001 333 56006 82074=
85586,2002,07,16,00,00,AAXX 16004 85586 32960 00000 10081 20062 40177 53003 333 10163=
85586,2002,07,16,06,00,AAXX 16064 85586 NIL=
85586,2002,07,16,12,00,AAXX 16124 85586 32960 61704 10067 20049 40165 55/// 80001 333 20028 31/// 50120 55066 56006 86074. 85629=
85586,2002,07,16,18,00,AAXX 16184 85586 31950 72907 10157 20076 40142 57022 70522 85011 333 56066 85462 82074=
85586,2002,07,16,21,00,AAXX 16214 85586 41950 83504 10122 20093 40143 54000 70522 8805/ 333 56069 84360 84462=
85586,2002,07,17,00,00,AAXX 17004 85586 31930 60705 10097 20081 40165 51021 70522 86030 333 10163 56060 86360=
85586,2002,07,17,03,00,AAXX 17034 85586 NIL=
85586,2002,07,17,06,00,AAXX 17064 85586 NIL=
85586,2002,07,17,09,00,AAXX 17094 85586 NIL=
85586,2002,07,17,12,00,AAXX 17124 85586 31104 81305 10094 20084 40188 52/// 7462/ 886// 333 20082 31/// 50080 55031 56099 88703=
85586,2002,07,17,15,00,AAXX 17154 85586 41320 82404 10107 20084 40182 50005 71022 885// 333 56799 88610=
85586,2002,07,17,18,00,AAXX 17184 85586 31320 82706 10106 20074 40175 57007 70522 885// 333 56799 88610=
85586,2002,07,17,21,00,AAXX 17214 85586 41320 83104 10104 20083 40183 53007 70522 885// 333 56799 88610=
85586,2002,07,18,00,00,AAXX 18004 85586 31220 80000 10103 20087 40194 51010 71022 333 10113 56099 88607=
85586,2002,07,18,03,00,AAXX 18034 85586 NIL=
85586,2002,07,18,06,00,AAXX 18064 85586 NIL=
85586,2002,07,18,09,00,AAXX 18094 85586 NIL=
85586,2002,07,18,12,00,AAXX 18124 85586 31215 80707 10093 20082 40188 51/// 7102/ 886// 333 20089 31/// 50070 55001 56099 88706=
85586,2002,07,18,15,00,AAXX 18154 85586 41220 80204 10102 20081 40199 53010 70522 886// 333 56099 88707=
85586,2002,07,18,18,00,AAXX 18184 85586 31320 82706 10116 20076 40178 58019 70522 886// 333 56099 88709=
85586,2002,07,18,21,00,AAXX 18214 85586 41320 80000 10108 20077 40193 53014 70522 886// 333 56099 88709=
85586,2002,07,19,00,00,AAXX 19004 85586 31320 80000 10102 20075 40196 55002 70522 886// 333 10122 56099 88708=
85586,2002,07,19,03,00,AAXX 19034 85586 NIL=
85586,2002,07,19,06,00,AAXX 19064 85586 NIL=
85586,2002,07,19,09,00,AAXX 19094 85586 NIL=
85586,2002,07,19,12,00,AAXX 19124 85586 11420 80608 10100 20085 40182 54/// 60044 7106/ 885// 333 20096 32/// 50100 55000 56899 70038 88610=
85586,2002,07,19,15,00,AAXX 19154 85586 41840 81604 10126 20094 40177 56004 76066 88079 333 56079 88357=
85586,2002,07,19,18,00,AAXX 19184 85586 11850 80000 10124 20104 40177 54000 60041 76066 8803/ 333 56079 88657=
85586,2002,07,19,21,00,AAXX 19214 85586 41520 80000 10118 20099 40168 57009 76066 8223/ 333 56079 82820 87357=
85586,2002,07,20,00,00,AAXX 20004 85586 11850 80000 10114 20099 40173 56005 60031 76066 8803/ 333 10142 56079 88357=
85586,2002,07,20,03,00,AAXX 20034 85586 NIL=
85586,2002,07,20,06,00,AAXX 20064 85586 NIL=
85586,2002,07,20,09,00,AAXX 20094 85586 NIL=
85586,2002,07,20,12,00,AAXX 20124 85586 11550 83606 10112 20095 40147 57/// 60164 7606/ 8352/ 333 20108 32/// 50008 55000 56779 70161 83630 88456=
85586,2002,07,20,15,00,AAXX 20154 85586 41560 83408 10126 20103 40142 56004 70166=
85586,2002,07,20,18,00,AAXX 20184 85586 11530 83604 10110 20095 40122 57020 60101 76066 8223/ 333 56779 83826 88358=
85586,2002,07,20,21,00,AAXX 20214 85586 NIL=
85586,2002,07,21,00,00,AAXX 21004 85586 11550 83418 10115 20098 40130 52012 60241 76066 8323/ 333 10130 56779 83820 88359=
85586,2002,07,21,03,00,AAXX 21034 85586 NIL=
85586,2002,07,21,06,00,AAXX 21064 85586 NIL=
85586,2002,07,21,09,00,AAXX 21094 85586 NIL=
85586,2002,07,21,12,00,AAXX 21124 85586 11560 73604 10110 20093 40212 52/// 60384 7016/ 84230 333 10110 32/// 50003 55000 56870 70378 84820 85360=
85586,2002,07,21,15,00,AAXX 21154 85586 42560 63304 10130 20102 40231 52019 86200 333 56700 88620=
85586,2002,07,21,18,00,AAXX 21184 85586 32970 53207 10149 20094 40208 58022 81230 333 56770 81820 85362=
85586,2002,07,21,21,00,AAXX 21214 85586 42965 83206 10129 20106 40204 57005 8801/ 333 56079 88460=
85586,2002,07,22,00,00,AAXX 22004 85586 31956 60000 10113 20094 40193 57011 70522 86010 333 10153 56070 86460=
85586,2002,07,22,06,00,AAXX 22064 85586 NIL=
85586,2002,07,22,12,00,AAXX 22124 85586 32465 80204 10089 20071 40126 57/// 8113/ 333 20083 32/// 50090 55042 56779 81820 88362=
85586,2002,07,22,18,00,AAXX 22184 85586 11465 80910 10129 20080 40112 57034 60011 72166 8212/ 333 56779 82820 88457=
85586,2002,07,23,00,00,AAXX 23004 85586 11440 83618 10102 20086 40130 52008 60051 76166 8312/ 333 10131 56779 83815 88450=
85586,2002,07,23,03,00,AAXX 23034 85586 NIL=
85586,2002,07,23,06,00,AAXX 23064 85586 NIL=
85586,2002,07,23,09,00,AAXX 23094 85586 NIL=
85586,2002,07,23,12,00,AAXX 23124 85586 21440 83605 10103 20090 40133 52/// 60254 7816/ 882// 333 20091 33/// 50040 55000 56799 70256 88820=
85586,2002,07,23,15,00,AAXX 23154 85586 41430 83218 10115 20100 40153 52021 78188 882// 333 56799 88820=
85586,2002,07,23,18,00,AAXX 23184 85586 11440 83004 10107 20101 40168 52016 60141 76186 885// 333 56799 88615=
85586,2002,07,23,21,00,AAXX 23214 85586 41560 53104 10118 20099 40189 52020 70162 83231 333 56766 83820=
85586,2002,07,24,00,00,AAXX 24004 85586 11560 30000 10084 20078 40227 52036 69961 70261 83200 333 10126 56600 83820=
85586,2002,07,24,03,00,AAXX 24034 85586 NIL=
85586,2002,07,24,06,00,AAXX 24064 85586 NIL=
85586,2002,07,24,09,00,AAXX 24094 85586 NIL=
85586,2002,07,24,12,00,AAXX 24124 85586 11902 01403 10040 20036 40289 52/// 60154 7444/ 333 20038 31/// 50030 55008 70147=
85586,2002,07,24,15,00,AAXX 24154 85586 41960 01103 10106 20077 40302 52015 70240=
85586,2002,07,24,18,00,AAXX 24184 85586 31565 32705 10132 20087 40294 58088 70240 83200 333 56000 83827=
85586,2002,07,24,21,00,AAXX 24214 85586 42565 12404 10124 20075 40290 57003 81200 333 56000 81827=
85586,2002,07,25,00,00,AAXX 25004 85586 32960 01405 10082 20066 40295 53004 333 10138=
85586,2002,07,25,03,00,AAXX 25034 85586 NIL=
85586,2002,07,25,06,00,AAXX 25064 85586 NIL=
85586,2002,07,25,09,00,AAXX 25094 85586 NIL=
85586,2002,07,25,12,00,AAXX 25124 85586 32960 01704 10032 20025 40244 57/// 333 20021 31/// 50050 55082=
85586,2002,07,25,15,00,AAXX 25154 85586 42960 01504 10109 20060 40238 57003=
85586,2002,07,25,18,00,AAXX 25184 85586 32960 02411 10129 20084 40220 57018=
85586,2002,07,25,21,00,AAXX 25214 85586 42960 22702 10142 20097 40218 54001 80001 333 56006 82075=
85586,2002,07,26,00,00,AAXX 26004 85586 32960 22405 10088 20060 40213 52018 80001 333 10151 56006 82075=
85586,2002,07,26,03,00,AAXX 26034 85586 NIL=
85586,2002,07,26,06,00,AAXX 26064 85586 NIL=
85586,2002,07,26,09,00,AAXX 26094 85586 NIL=
85586,2002,07,26,12,00,AAXX 26124 85586 32560 50906 10059 20053 40294 52/// 85500 333 20022 31/// 50080 55084 56600 85620=
85586,2002,07,26,15,00,AAXX 26154 85586 42960 00000 10125 20078 40307 52015=
85586,2002,07,26,18,00,AAXX 26184 85586 32560 32508 10147 20085 40301 58005 83100 333 56000 83827=
85586,2002,07,26,21,00,AAXX 26214 85586 42560 12405 10131 20106 40308 53006 81100 333 56000 81827=
85586,2002,07,27,00,00,AAXX 27004 85586 32960 01403 10089 20077 40313 52004 333 10152=
85586,2002,07,27,03,00,AAXX 27034 85586 NIL=
85586,2002,07,27,06,00,AAXX 27064 85586 NIL=
85586,2002,07,27,09,00,AAXX 27094 85586 NIL=
85586,2002,07,27,12,00,AAXX 27124 85586 32960 01404 10053 20046 40266 57/// 333 20048 31/// 50100 55079=
85586,2002,07,27,15,00,AAXX 27154 85586 42960 01308 10115 20075 40255 57009=
85586,2002,07,27,18,00,AAXX 27184 85586 32970 61809 10175 20066 40221 57032 80001 333 56006 86075=
85586,2002,07,27,21,00,AAXX 27214 85586 42970 41607 10168 20060 40197 57026 80001 333 56006 84075=
85586,2002,07,28,00,00,AAXX 28004 85586 32960 61607 10121 20052 40178 80001 333 10176 56006 86075=
85586,2002,07,28,03,00,AAXX 28034 85586 NIL=
85586,2002,07,28,06,00,AAXX 28064 85586 NIL=
85586,2002,07,28,09,00,AAXX 28094 85586 NIL=
85586,2002,07,28,12,00,AAXX 28124 85586 32965 61207 10087 20057 40114 57/// 80001 333 20069 31/// 50130 55085=
85586,2002,07,28,15,00,AAXX 28154 85586 42960 51003 10152 20106 40117 53004 80001 333 56006=
85586,2002,07,28,18,00,AAXX 28184 85586 32965 63204 10163 20102 40108 58004 80001 333 56006 86075=
85586,2002,07,28,21,00,AAXX 28214 85586 42960 73009 10132 20098 40123 53014 80001 333 56006 87075=
85586,2002,07,29,00,00,AAXX 29004 85586 31540 83207 10122 20102 40145 52022 70522 86501 333 10177 56806 86620 82075=
85586,2002,07,29,03,00,AAXX 29034 85586 NIL=
85586,2002,07,29,06,00,AAXX 29064 85586 NIL=
85586,2002,07,29,09,00,AAXX 29094 85586 NIL=
85586,2002,07,29,12,00,AAXX 29124 85586 32765 80207 10133 20099 40168 52/// 8807/ 333 20109 31/// 50160 55074 56089 85350 83458=
85586,2002,07,29,15,00,AAXX 29154 85586 42458 80903 10131 20084 40177 52009 8412/ 333 56889 84820 88450=
85586,2002,07,29,18,00,AAXX 29184 85586 31458 73511 10152 20095 40165 58012 70522 87200 333 56800 87820=
85586,2002,07,29,21,00,AAXX 29214 85586 41558 73610 10138 20099 40166 55001 70522 87200 333 56800 87825=
85586,2002,07,30,00,00,AAXX 30004 85586 31540 83406 10133 20097 40180 52014 70522 882// 333 10153 56899 88825=
85586,2002,07,30,03,00,AAXX 30034 85586 NIL=
85586,2002,07,30,06,00,AAXX 30064 85586 NIL=
85586,2002,07,30,09,00,AAXX 30094 85586 NIL=
85586,2002,07,30,12,00,AAXX 30124 85586 11530 81802 10090 20078 40212 52/// 60444 7606/ 8423/ 333 20090 32/// 50030 55000 56079 70438 84820 88359=
85586,2002,07,30,15,00,AAXX 30154 85586 41560 70808 10106 20066 40229 52017 76066 83230 333 56270 83820 86359=
85586,2002,07,30,18,00,AAXX 30184 85586 11560 70906 10146 20071 40230 51002 60031 70166 82501 333 56206 85820=
85586,2002,07,30,21,00,AAXX 30214 85586 42560 60802 10142 20060 40230 54000 82201 333 56406 82820=
85586,2002,07,31,00,00,AAXX 31004 85586 32560 30000 10094 20070 40246 51004 82201 333 10150 56406 82820 83075=
85586,2002,07,31,03,00,AAXX 31034 85586 NIL=
85586,2002,07,31,06,00,AAXX 31064 85586 NIL=
85586,2002,07,31,09,00,AAXX 31094 85586 NIL=
85586,2002,07,31,12,00,AAXX 31124 85586 12960 21804 10046 20033 40234 57/// 60031 80001 333 20038 31/// 50060 55035 56006 70029 82075=
85586,2002,07,31,15,00,AAXX 31154 85586 42960 22702 10110 20076 40222 57009 80001 333 56006 82075=
85586,2002,07,31,18,00,AAXX 31184 85586 32960 12410 10132 20077 40210 57012 81500 333 56500 81523=
85586,2002,07,31,21,00,AAXX 31214 85586 42560 12505 10130 20093 40202 57008 81500 333 56500 81623=
85586,2002,08,01,00,00,AAXX 01004 85586 32560 10000 10072 20062 40221 52017 81500 333 10136 56600 81623=
85586,2002,08,01,03,00,AAXX 01034 85586 NIL=
85586,2002,08,01,06,00,AAXX 01064 85586 NIL=
85586,2002,08,01,09,00,AAXX 01094 85586 NIL=
85586,2002,08,01,12,00,AAXX 01124 85586 31457 21202 10051 20045 40234 54/// 7100/ 82500 333 20047 31/// 50090 55080 56600 82615=
85586,2002,08,01,15,00,AAXX 01154 85586 41458 20705 10127 20075 40239 52007 70500 82500 333 56600 82617=
85586,2002,08,01,18,00,AAXX 01184 85586 31459 22408 10139 20091 40227 70511 82500 333 56600 82617=
85586,2002,08,01,21,00,AAXX 01214 85586 42460 12607 10133 20086 40222 57006 81500 333 56600 81617=
85586,2002,08,02,00,00,AAXX 02004 85586 32960 00000 10067 20059 40221 57003 333 10140=
85586,2002,08,02,03,00,AAXX 02034 85586 NIL=
85586,2002,08,02,06,00,AAXX 02064 85586 NIL=
85586,2002,08,02,09,00,AAXX 02094 85586 NIL=
85586,2002,08,02,12,00,AAXX 02124 85586 31901 01107 10052 20047 40197 57/// 7444/ 333 20029 31/// 50100 55060=
85586,2002,08,02,15,00,AAXX 02154 85586 41930 62805 10094 20083 40201 53015 71042 80001 333 56005 86070=
85586,2002,08,02,18,00,AAXX 02184 85586 31450 82404 10124 20091 40188 57015 70522 8451/ 333 56889 84620 87460=
85586,2002,08,02,21,00,AAXX 02214 85586 41550 82905 10115 20088 40176 57008 70522 8357/ 333 56889 83625 87360=
85586,2002,08,03,00,00,AAXX 03004 85586 31930 82106 10102 20086 40189 52012 70522 8801/ 333 10125 56089 88458=
85586,2002,08,03,03,00,AAXX 03034 85586 NIL=
85586,2002,08,03,06,00,AAXX 03064 85586 NIL=
85586,2002,08,03,09,00,AAXX 03094 85586 NIL=
85586,2002,08,03,12,00,AAXX 03124 85586 31540 70905 10091 20072 40208 52/// 7052/ 83530 333 20089 31/// 50060 55011 56880 83625 84358=
85586,2002,08,03,15,00,AAXX 03154 85586 41556 71203 10124 20087 40220 52013 70522 81531 333 56876 81625 84075=
85586,2002,08,03,18,00,AAXX 03184 85586 31557 82507 10132 20089 40220 50000 70522 83504 333 56806 83625 88073=
85586,2002,08,03,21,00,AAXX 03214 85586 41558 72407 10121 20085 40228 51008 70522 81530 333 56880 81625 87357=
85586,2002,08,04,00,00,AAXX 04004 85586 31556 82105 10107 20086 40242 52014 70522 8253/ 333 10141 56889 82625 86357=
85586,2002,08,04,03,00,AAXX 04034 85586 NIL=
85586,2002,08,04,06,00,AAXX 04064 85586 NIL=
85586,2002,08,04,09,00,AAXX 04094 85586 NIL=
85586,2002,08,04,12,00,AAXX 04124 85586 31/04 91211 10056 20047 40246 57/// 7454/ 89/// 333 20047 31/// 50040 55003=
85586,2002,08,04,15,00,AAXX 04154 85586 41912 61904 10094 20078 40224 53002 71044 80002 333 56006 86072=
85586,2002,08,04,18,00,AAXX 04184 85586 32950 70902 10116 20050 40192 57031 70522 80002 333 56006 87070=
85586,2002,08,04,21,00,AAXX 04214 85586 NIL=
85586,2002,08,05,00,00,AAXX 05004 85586 32960 30000 10058 20040 40210 54003 80002 333 10130 56006 83070=
85586,2002,08,05,03,00,AAXX 05034 85586 NIL=
85586,2002,08,05,06,00,AAXX 05064 85586 NIL=
85586,2002,08,05,09,00,AAXX 05094 85586 NIL=
85586,2002,08,05,12,00,AAXX 05124 85586 NIL=
85586,2002,08,05,15,00,AAXX 05154 85586 41540 80204 10090 20067 40189 54000 76022 8423/ 333 56869 84820 88358=
85586,2002,08,05,18,00,AAXX 05184 85586 11530 80704 10098 20070 40172 57017 60071 76066 8523/ 333 56179 85820 88357=
85586,2002,08,05,21,00,AAXX 05214 85586 41530 80304 10100 20085 40162 57010 76066 8323/ 333 56179 83820 88356=
85586,2002,08,06,00,00,AAXX 06004 85586 11760 80000 10100 20076 40159 56003 60061 76066 8803/ 333 10104 56079 88356=
85586,2002,08,06,03,00,AAXX 06034 85586 NIL=
85586,2002,08,06,06,00,AAXX 06064 85586 NIL=
85586,2002,08,06,09,00,AAXX 06094 85586 NIL=
85586,2002,08,06,12,00,AAXX 06124 85586 12960 80606 10110 20068 40140 56/// 60344 7026/ 8803/ 333 20094 32/// 50030 55000 56079 70342 88360=
85586,2002,08,06,15,00,AAXX 06154 85586 42560 80000 10120 20076 40140 54000 8253/ 333 56079 82630 88360=
85586,2002,08,06,18,00,AAXX 06184 85586 32560 83406 10123 20109 40138 54002 8353/ 333 56679 83630 86360=
85586,2002,08,06,21,00,AAXX 06214 85586 42560 80203 10124 20106 40142 53004 8353/ 333 56669 83630 86360=
85586,2002,08,07,00,00,AAXX 07004 85586 32560 83303 10128 20113 40158 52016 8253/ 333 10136 56669 82625 88360=
85586,2002,08,07,03,00,AAXX 07034 85586 NIL=
85586,2002,08,07,06,00,AAXX 07064 85586 NIL=
85586,2002,08,07,09,00,AAXX 07094 85586 NIL=
85586,2002,08,07,12,00,AAXX 07124 85586 11530 83603 10121 20117 40173 53/// 60310 7636/ 8802/ 333 20119 32/// 50030 55000 56079 70310 88520=
85586,2002,08,07,15,00,AAXX 07154 85586 NIL=
85586,2002,08,07,18,00,AAXX 07184 85586 11440 83307 10127 20123 40200 58004 60341 76166 885// 333 56799 88615=
85586,2002,08,07,21,00,AAXX 07214 85586 41430 83407 10125 20121 40197 57003 76166 885// 333 56799 88615=
85586,2002,08,08,00,00,AAXX 08004 85586 11/01 93205 10124 20120 40219 52022 60101 74564 333 10130 89/00=
85586,2002,08,08,03,00,AAXX 08034 85586 NIL=
85586,2002,08,08,06,00,AAXX 08064 85586 NIL=
85586,2002,08,08,09,00,AAXX 08094 85586 NIL=
85586,2002,08,08,12,00,AAXX 08124 85586 12460 11205 10090 20084 40268 52/// 60444 81500 333 20089 31/// 50020 55000 56000 70442 81617=
85586,2002,08,08,15,00,AAXX 08154 85586 42965 02405 10145 20100 40282 52016=
85586,2002,08,08,18,00,AAXX 08184 85586 32970 02410 10163 20108 40262 57020=
85586,2002,08,08,21,00,AAXX 08214 85586 42965 02310 10154 20108 40252 57010=
85586,2002,08,09,00,00,AAXX 09004 85586 32960 01406 10116 20083 40253 50000 333 10169=
85586,2002,08,09,03,00,AAXX 09034 85586 NIL=
85586,2002,08,09,06,00,AAXX 09064 85586 NIL=
85586,2002,08,09,09,00,AAXX 09094 85586 NIL=
85586,2002,08,09,12,00,AAXX 09124 85586 32965 01607 10093 20067 40218 56/// 333 20079 31/// 50160 55100=
85586,2002,08,09,15,00,AAXX 09154 85586 42970 01307 10159 20082 40205 57011=
85586,2002,08,09,18,00,AAXX 09184 85586 32970 40906 10199 20087 40175 57028 80001 333 56006 84075=
85586,2002,08,09,21,00,AAXX 09214 85586 42970 41209 10215 20082 40158 57016 80001 333 56006 84075=
85586,2002,08,10,00,00,AAXX 10004 85586 32960 42404 10123 20092 40163 55002 80001 333 10226 56006 84075=
85586,2002,08,10,03,00,AAXX 10034 85586 NIL=
85586,2002,08,10,06,00,AAXX 10064 85586 NIL=
85586,2002,08,10,09,00,AAXX 10094 85586 NIL=
85586,2002,08,10,12,00,AAXX 10124 85586 32965 61105 10087 20065 40175 53/// 80001 333 20077 31/// 50220 55101 86075=
85586,2002,08,10,15,00,AAXX 10154 85586 42970 53604 10176 20108 40183 51010 80001 333 56006=
85586,2002,08,10,18,00,AAXX 10184 85586 32970 52412 10164 20108 40173 57010 80001 333 56006 85075=
85586,2002,08,10,21,00,AAXX 10214 85586 42970 52806 10168 20114 40176 53003 80001 333 56006=
85586,2002,08,11,00,00,AAXX 11004 85586 32970 40000 10124 20104 40194 52016 80001 333 10180 56006 84075=
85586,2002,08,11,03,00,AAXX 11034 85586 NIL=
85586,2002,08,11,06,00,AAXX 11064 85586 NIL=
85586,2002,08,11,09,00,AAXX 11094 85586 NIL=
85586,2002,08,11,12,00,AAXX 11124 85586 31903 30000 10046 20032 40208 57/// 7464/ 80001 333 20044 31/// 50100 55093 56006 83075=
85586,2002,08,11,15,00,AAXX 11154 85586 41940 22604 10132 20116 40209 53003 71044 80001 333 56006 82075=
85586,2002,08,11,18,00,AAXX 11184 85586 32960 02512 10160 20120 40197 58011=
85586,2002,08,11,21,00,AAXX 11214 85586 42960 12406 10160 20120 40186 57010 80001 333 56006 81075=
85586,2002,08,12,00,00,AAXX 12004 85586 32960 20000 10104 20086 40201 54002 80001 333 10168 56006 82075=
85586,2002,08,12,03,00,AAXX 12034 85586 NIL=
85586,2002,08,12,06,00,AAXX 12064 85586 NIL=
85586,2002,08,12,09,00,AAXX 12094 85586 NIL=
85586,2002,08,12,12,00,AAXX 12124 85586 32960 30906 10106 20087 40184 56/// 80001 333 20090 31/// 50120 55083 56006 83075=
85586,2002,08,12,15,00,AAXX 12154 85586 NIL=
85586,2002,08,12,18,00,AAXX 12184 85586 32960 41808 10212 20065 40174 58021 80001 333 56006 84075=
85586,2002,08,12,21,00,AAXX 12214 85586 42965 41709 10212 20065 40169 57004 80001 333 56006 84075=
85586,2002,08,13,00,00,AAXX 13004 85586 32965 22506 10152 20072 40184 52012 80001 333 10223 56006 82075=
85586,2002,08,13,03,00,AAXX 13034 85586 NIL=
85586,2002,08,13,06,00,AAXX 13064 85586 NIL=
85586,2002,08,13,09,00,AAXX 13094 85586 NIL=
85586,2002,08,13,12,00,AAXX 13124 85586 32965 21806 10105 20090 40169 53/// 80001 333 20094 31/// 50220 55098 56006 82075=
85586,2002,08,13,15,00,AAXX 13154 85586 42965 21311 10169 20079 40174 50007 80001 333 56006 82075=
85586,2002,08,13,18,00,AAXX 13184 85586 32965 31806 10233 20065 40169 57013 80001 333 56006 83075=
85586,2002,08,13,21,00,AAXX 13214 85586 42965 21806 10220 20100 40152 57007 80001 333 56006 82075=
85586,2002,08,14,00,00,AAXX 14004 85586 32960 12305 10130 20094 40167 5301- 80001 333 10235 56006 81075=
85586,2002,08,14,03,00,AAXX 14034 85586 NIL=
85586,2002,08,14,06,00,AAXX 14064 85586 NIL=
85586,2002,08,14,09,00,AAXX 14094 85586 NIL=
85586,2002,08,14,12,00,AAXX 14124 85586 32960 01703 10059 20053 40166 53/// 333 20053 31/// 50020 55101=
85586,2002,08,14,15,00,AAXX 14154 85586 42960 01704 10171 20106 40166 52003=
85586,2002,08,14,18,00,AAXX 14184 85586 32965 02514 10157 20105 40153 57013=
85586,2002,08,14,21,00,AAXX 14214 85586 42965 43005 10166 20112 40151 56002 80001 333 56006 84075=
85586,2002,08,15,00,00,AAXX 15004 85586 32960 20000 10113 20096 40163 52011 80001 333 10196 56006 82075=
85586,2002,08,15,03,00,AAXX 15034 85586 NIL=
85586,2002,08,15,06,00,AAXX 15064 85586 NIL=
85586,2002,08,15,09,00,AAXX 15094 85586 NIL=
85586,2002,08,15,12,00,AAXX 15124 85586 31950 71105 10068 20061 40160 56/// 7104/ 80001 333 20067 31/// 50190 55102 56006 87075=
85586,2002,08,15,15,00,AAXX 15154 85586 41950 40404 10131 20107 40153 50005 70544 80001 333 56006 84075=
85586,2002,08,15,18,00,AAXX 15184 85586 32960 32411 10164 20113 40146 57006 80001 333 56006 83075=
85586,2002,08,15,21,00,AAXX 15214 85586 42960 73104 10146 20114 40144 56003 80001 333 56006 87075=
85586,2002,08,16,00,00,AAXX 16004 85586 31420 83604 10123 20103 40150 50004 70522 885// 333 10176 56899 88615=
85586,2002,08,16,03,00,AAXX 16034 85586 NIL=
85586,2002,08,16,06,00,AAXX 16064 85586 NIL=
85586,2002,08,16,09,00,AAXX 16094 85586 NIL=
85586,2002,08,16,12,00,AAXX 16124 85586 31108 80703 10100 20096 40155 51/// 7424/ 886// 333 20107 31/// 50130 55075 56099 88703=
85586,2002,08,16,15,00,AAXX 16154 85586 41207 81206 10115 20102 40163 52009 74244 886// 333 56899 88705=
85586,2002,08,16,18,00,AAXX 16184 85586 31210 80802 10120 20099 40145 58018 70522 886// 333 56099 88706=
85586,2002,08,16,21,00,AAXX 16214 85586 41212 80000 10124 20108 40141 56004 71022 8363/ 333 56069 83706 88360=
85586,2002,08,17,00,00,AAXX 17004 85586 31320 80000 10113 20100 40156 52015 71044 886// 333 10126 56099 88707=
85586,2002,08,17,03,00,AAXX 17034 85586 NIL=
85586,2002,08,17,06,00,AAXX 17064 85586 NIL=
85586,2002,08,17,09,00,AAXX 17094 85586 NIL=
85586,2002,08,17,12,00,AAXX 17124 85586 31320 80000 10110 20093 40151 56/// 71022 886// 333 20110 31/// 50060 55000 56099 88708=
85586,2002,08,17,15,00,AAXX 17154 85586 41420 83604 10116 20101 40157 53006 75022 885// 333 56899 88613=
85586,2002,08,17,18,00,AAXX 17184 85586 11540 83304 10126 20108 40152 58005 69921 70562 8353/ 333 56779 83620 88360=
85586,2002,08,17,21,00,AAXX 17214 85586 42560 83406 10130 20101 40150 54002 8223/ 333 56779 82820 88360=
85586,2002,08,18,00,00,AAXX 18004 85586 32560 83604 10120 20096 40158 52008 8153/ 333 10136 56879 81630 88360=
85586,2002,08,18,03,00,AAXX 18034 85586 NIL=
85586,2002,08,18,06,00,AAXX 18064 85586 NIL=
85586,2002,08,18,09,00,AAXX 18094 85586 NIL=
85586,2002,08,18,12,00,AAXX 18124 85586 11520 82402 10104 20091 40161 54/// 60184 7616/ 8523/ 333 10104 32/// 50050 55006 56579 70180 85820 88359=
85586,2002,08,18,15,00,AAXX 18154 85586 41530 83406 10108 20095 40185 52025 76166 8323/ 333 56779 83820 88359=
85586,2002,08,18,18,00,AAXX 18184 85586 31560 83608 10119 20100 40194 52008 72162 84231 333 56777 84822 83360=
85586,2002,08,18,21,00,AAXX 18214 85586 41550 72907 10109 20097 40199 52005 78082 87200 333 56700 87822=
85586,2002,08,19,00,00,AAXX 19004 85586 11560 70202 10102 20094 40208 52008 60041 70282 87200 333 10123 56700 87822=
85586,2002,08,19,03,00,AAXX 19034 85586 NIL=
85586,2002,08,19,06,00,AAXX 19064 85586 NIL=
85586,2002,08,19,09,00,AAXX 19094 85586 NIL=
85586,2002,08,19,12,00,AAXX 19124 85586 12560 70505 10078 20060 40241 52/// 60224 85531 333 20076 32/// 50030 55006 56766 70220 85627=
85586,2002,08,19,15,00,AAXX 19154 85586 42560 60503 10107 20064 40252 52012 84531 333 56766 84627=
85586,2002,08,19,18,00,AAXX 19184 85586 32560 52608 10129 20074 40243 58009 85200 333 56600 85827=
85586,2002,08,19,21,00,AAXX 19214 85586 42560 42508 10126 20079 40242 54001 83201 333 56605 83827=
85586,2002,08,20,00,00,AAXX 20004 85586 32960 11902 10095 20075 40245 54002 80001 333 10132 56005 81075=
85586,2002,08,20,03,00,AAXX 20034 85586 NIL=
85586,2002,08,20,06,00,AAXX 20064 85586 NIL=
85586,2002,08,20,09,00,AAXX 20094 85586 NIL=
85586,2002,08,20,12,00,AAXX 20124 85586 32960 01302 10043 20036 40258 53/// 333 20030 31/// 50090 55063=
85586,2002,08,20,15,00,AAXX 20154 85586 42960 01305 10138 20065 40255 54001=
85586,2002,08,20,18,00,AAXX 20184 85586 -2960 01706 10163 20088 40234 57011=
85586,2002,08,20,21,00,AAXX 20214 85586 42960 02310 10151 20098 40220 57014=
85586,2002,08,21,00,00,AAXX 21004 85586 32960 32502 10084 20069 40217 57005 80001 333 10164 56005 83075=
85586,2002,08,21,03,00,AAXX 21034 85586 NIL=
85586,2002,08,21,06,00,AAXX 21064 85586 NIL=
85586,2002,08,21,09,00,AAXX 21094 85586 NIL=
85586,2002,08,21,12,00,AAXX 21124 85586 32960 22103 10048 20040 40206 57/// 80001 333 20048 31/// 50110 55100 56005 82075=
85586,2002,08,21,15,00,AAXX 21154 85586 42960 20303 10139 20109 40199 57004 80001 333 56005 82075=
85586,2002,08,21,18,00,AAXX 21184 85586 32960 52406 10150 20088 40180 57019 80002 333 56006 85073=
85586,2002,08,21,21,00,AAXX 21214 85586 42960 32607 10140 20080 40170 56010 80002 333 56006 83073=
85586,2002,08,22,00,00,AAXX 22004 85586 32960 60000 10104 20084 40163 56008 86030 333 10164 56060 86365=
85586,2002,08,22,03,00,AAXX 22034 85586 NIL=
85586,2002,08,22,06,00,AAXX 22064 85586 NIL=
85586,2002,08,22,09,00,AAXX 22094 85586 NIL=
85586,2002,08,22,12,00,AAXX 22124 85586 11556 80000 10108 20092 40203 52/// 69964 7602/ 8523/ 333 20096 31/// 50120 55096 56779 70006 85820 88359=
85586,2002,08,22,15,00,AAXX 22154 85586 41560 80808 10130 20079 40192 58011 70262 8223/ 333 56179 82820 88360=
85586,2002,08,22,18,00,AAXX 22184 85586 11960 20604 10197 20061 40161 57028 60021 70162 820?0 333 56070 82363=
85586,2002,08,22,21,00,AAXX 22214 85586 42960 72506 10136 20090 40160 56003=
85586,2002,08,23,00,00,AAXX 23004 85586 32960 70000 10110 20090 40166 53006 85032 333 10200 56077 85363 83075=
85586,2002,08,23,03,00,AAXX 23034 85586 NIL=
85586,2002,08,23,06,00,AAXX 23064 85586 NIL=
85586,2002,08,23,09,00,AAXX 23094 85586 NIL=
85586,2002,08,23,12,00,AAXX 23124 85586 12560 80602 10102 20081 40154 56/// 60024 8153/ 333 20092 31/// 50100 55039 56079 70018 81630 88360=
85586,2002,08,23,15,00,AAXX 23154 85586 42560 80806 10130 20081 40160 53007 8353/ 333 56279 83630 88360=
85586,2002,08,23,18,00,AAXX 23184 85586 11540 80402 10132 20097 40152 58008 69981 76062 8123/ 333 56179 81820 88359=
85586,2002,08,23,21,00,AAXX 23214 85586 41560 80000 10134 20094 40136 57016 70262 8153/ 333 56079 81630 88359=
85586,2002,08,24,00,00,AAXX 24004 85586 11558 82408 10120 20098 40130 56006 69991 76062 8153/ 333 10140 56579 81630 88359=
85586,2002,08,24,03,00,AAXX 24034 85586 NIL=
85586,2002,08,24,06,00,AAXX 24064 85586 NIL=
85586,2002,08,24,09,00,AAXX 24094 85586 NIL=
85586,2002,08,24,12,00,AAXX 24124 85586 11830 83606 10122 20106 40141 53/// 60154 7626/ 8803/ 333 10108 32/// 50050 55000 56079 70154 88357=
85586,2002,08,24,15,00,AAXX 24154 85586 41520 80306 10130 20113 40152 52011 78066=
85586,2002,08,24,18,00,AAXX 24184 85586 11560 80912 10146 20124 40126 58026 60111 70282 8223/ 333 56179 82820 88358=
85586,2002,08,24,21,00,AAXX 24214 85586 41556 80000 10130 20108 40144 53018 76062 8223/ 333 56179 82820 88359=
85586,2002,08,25,00,00,AAXX 25004 85586 11556 80904 10130 20115 40147 54003 60031 76066 8323/ 333 10150 56179 83820 88359=
85586,2002,08,25,03,00,AAXX 25034 85586 NIL=
85586,2002,08,25,09,00,AAXX 25094 85586 NIL=
85586,2002,08,25,12,00,AAXX 25124 85586 11558 80000 10138 20113 40151 53/// 60174 7606/ 8453/ 333 20128 32/// 50040 55000 56189 70166 84530 88360=
85586,2002,08,25,15,00,AAXX 25154 85586 41560 80000 10136 20122 40151 54000 70266 8353/ 333 56779 83630 88360=
85586,2002,08,25,18,00,AAXX 25184 85586 11560 83404 10152 20130 40142 57009 69921 70262 8453/ 333 56779 84627 85360=
85586,2002,08,25,21,00,AAXX 25214 85586 42560 63105 10145 20128 40139 57003 83531 333 56666 83620=
85586,2002,08,26,00,00,AAXX 26004 85586 32560 70000 10126 20117 40149 53010 82531 333 10153 56666 82620 84363=
85586,2002,08,26,03,00,AAXX 26034 85586 NIL=
85586,2002,08,26,06,00,AAXX 26064 85586 NIL=
85586,2002,08,26,09,00,AAXX 26094 85586 NIL=
85586,2002,08,26,12,00,AAXX 26124 85586 11440 80000 10112 20108 40129 53/// 69924 7102/ 886// 333 20095 31/// 50060 55012 56799 70002 88710=
85586,2002,08,26,15,00,AAXX 26154 85586 41456 83604 10138 20126 40148 52019 71022 886// 333 56799 88710=
85586,2002,08,26,18,00,AAXX 26184 85586 32460 73207 10159 20128 40137 57010 85530 333 56770 85615 82360=
85586,2002,08,26,21,00,AAXX 26214 85586 42560 83304 10146 20118 40126 57012 8651/ 333 56779 86620 82458=
85586,2002,08,27,00,00,AAXX 27004 85586 31956 82703 10126 20106 40116 57010 70522 8803/ 333 10162 56079 88358=
85586,2002,08,27,03,00,AAXX 27034 85586 NIL=
85586,2002,08,27,06,00,AAXX 27064 85586 NIL=
85586,2002,08,27,09,00,AAXX 27094 85586 NIL=
85586,2002,08,27,12,00,AAXX 27124 85586 11650 83607 10134 20111 40117 52/// 60014 7616/ 8801/ 333 20724 32/// 50040 55010 56079 70012 88540=
85586,2002,08,27,15,00,AAXX 27154 85586 41620 83311 10116 20101 40144 52027 76166 8801/ 333 56079 88440=
85586,2002,08,27,18,00,AAXX 27184 85586 11456 80308 10123 20101 40141 50003 60091 76166 8411/ 333 56879 84815 88440=
85586,2002,08,27,21,00,AAXX 27214 85586 41560 83611 10126 20086 40142 55001 72166 8421/ 333 56879 84825=
85586,2002,08,28,00,00,AAXX 28004 85586 11756 80409 10117 20087 40160 52018 60011 76166 8801/ 333 10142 56079 88456=
85586,2002,08,28,03,00,AAXX 28034 85586 NIL=
85586,2002,08,28,06,00,AAXX 28064 85586 NIL=
85586,2002,08,28,09,00,AAXX 28094 85586 NIL=
85586,2002,08,28,12,00,AAXX 28124 85586 12465 83604 10107 20084 40226 52/// 60024 8211/ 333 20104 32/// 50030 55000 56879 82815 87440=
85586,2002,08,28,15,00,AAXX 28154 85586 41456 83305 10116 20086 30153 40244 52018 78022 333 56879 84815 88440=
85586,2002,08,28,18,00,AAXX 28184 85586 11560 73408 10127 20118 40240 58004 60031 70282 87200 333 56700 87820=
85586,2002,08,28,21,00,AAXX 28214 85586 42560 33010 10131 20108 40243 53003 83200 333 56600 83820=
85586,2002,08,29,00,00,AAXX 29004 85586 32560 51902 10091 20084 40254 52010 85200 333 10141 56600 85820=
85586,2002,08,29,03,00,AAXX 29034 85586 NIL=
85586,2002,08,29,06,00,AAXX 29064 85586 NIL=
85586,2002,08,29,09,00,AAXX 29094 85586 NIL=
85586,2002,08,29,12,00,AAXX 29124 85586 12460 72002 10072 20064 40241 57/// 60034 87600 333 20054 31/// 50080 55017 56600 70030 87712=
85586,2002,08,29,15,00,AAXX 29154 85586 42460 81707 10112 20093 40230 57009 886// 333 56699 88712=
85586,2002,08,29,18,00,AAXX 29184 85586 32560 52306 10146 20093 40203 53026 85200 333 56600 85820=
85586,2002,08,29,21,00,AAXX 29214 85586 42560 52412 10138 20098 40195 58008 81201 333 56605 81823 84073=
85586,2002,08,30,00,00,AAXX 30004 85586 32960 52102 10107 20090 40208 53012 82031 333 10149 56055 82365 83073=
85586,2002,08,30,03,00,AAXX 30034 85586 NIL=
85586,2002,08,30,06,00,AAXX 30064 85586 NIL=
85586,2002,08,30,09,00,AAXX 30094 85586 NIL=
85586,2002,08,30,12,00,AAXX 30124 85586 32960 00000 10040 20029 40219 52/// 333 20040 31/// 50110 55039=
85586,2002,08,30,15,00,AAXX 30154 85586 42465 13305 10139 20094 40229 50004 811// 333 56800 81815=
85586,2002,08,30,18,00,AAXX 30184 85586 32970 02410 10152 20084 40221 57001=
85586,2002,08,30,21,00,AAXX 30214 85586 42970 02211 10142 20084 40224 52003=
85586,2002,08,31,00,00,AAXX 31004 85586 32960 00000 10089 20070 40240 52014 333 10156=
85586,2002,08,31,03,00,AAXX 31034 85586 NIL=
85586,2002,08,31,06,00,AAXX 31064 85586 NIL=
85586,2002,08,31,09,00,AAXX 31094 85586 NIL=
85586,2002,08,31,12,00,AAXX 31124 85586 32960 21603 10075 20051 40233 57/// 80001 333 20049 31/// 50260 55106 56006 82075=
85586,2002,08,31,15,00,AAXX 31154 85586 42960 61009 10156 20072 40235 50004 80001 333 56006 86075=
85586,2002,08,31,18,00,AAXX 31184 85586 32970 02710 10175 20096 40216 57018=
85586,2002,08,31,21,00,AAXX 31214 85586 42970 12408 10174 20097 40206 57010 80001 333 56006 81075=
85586,2002,09,01,00,00,AAXX 01004 85586 32960 00000 10113 20090 40211 55003 333 10196=
85586,2002,09,01,03,00,AAXX 01034 85586 NIL=
85586,2002,09,01,06,00,AAXX 01064 85586 NIL=
85586,2002,09,01,09,00,AAXX 01094 85586 NIL=
85586,2002,09,01,12,00,AAXX 01124 85586 32965 12407 10087 20061 40190 53/// 80001 333 20053 31/// 50170 55006 56006 81075=
85586,2002,09,01,15,00,AAXX 01154 85586 42970 10000 10171 20095 40193 51005 80001 333 56006 81075=
85586,2002,09,01,18,00,AAXX 01184 85586 32970 02706 10168 20094 40178 58015=
85586,2002,09,01,21,00,AAXX 01214 85586 42970 02604 10153 20107 40168 57011=
85586,2002,09,02,00,00,AAXX 02004 85586 32960 20303 10123 20105 40177 53009 80001 333 10198 56006 82025=
85586,2002,09,02,03,00,AAXX 02034 85586 NIL=
85586,2002,09,02,06,00,AAXX 02064 85586 NIL=
85586,2002,09,02,09,00,AAXX 02094 85586 NIL=
85586,2002,09,02,12,00,AAXX 02124 85586 32960 20000 10081 20062 40168 54/// 82030 333 20066 31/// 50140 55107 56060 82359=
85586,2002,09,02,15,00,AAXX 02154 85586 42965 32805 10164 20123 40160 57006 80001 333 56006 83075=
85586,2002,09,02,18,00,AAXX 02184 85586 32965 22407 10169 20124 40155 57005 80001 333 56006 82075=
85586,2002,09,02,21,00,AAXX 02214 85586 42960 72207 10166 20133 40152 57003 83031 333 56066 83365 84073=
85586,2002,09,03,00,00,AAXX 03004 85586 32960 80302 10130 20112 40174 53021 80011 333 10187 56066 86463=
85586,2002,09,03,03,00,AAXX 03034 85586 NIL=
85586,2002,09,03,06,00,AAXX 03064 85586 NIL=
85586,2002,09,03,12,00,AAXX 03124 85586 NIL=
85586,2002,09,03,15,00,AAXX 03154 85586 42960 63208 10147 20121 40181 52014 84031 333 56066 84365=
85586,2002,09,03,18,00,AAXX 03184 85586 32560 83306 10153 20127 40181 54000 8533/ 333 56779 85620 84365=
85586,2002,09,03,21,00,AAXX 03214 85586 42560 83012 10135 20117 40186 53005 8353/ 333 56779 83630 88363=
85586,2002,09,04,00,00,AAXX 04004 85586 32560 83006 10130 20115 40198 54002 885// 333 10154 56799 88623=
85586,2002,09,04,03,00,AAXX 04034 85586 NIL=
85586,2002,09,04,06,00,AAXX 04064 85586 NIL=
85586,2002,09,04,09,00,AAXX 04094 85586 NIL=
85586,2002,09,04,12,00,AAXX 04124 85586 31220 83306 10124 20108 40196 52/// 7102/ 886// 333 20120 31/// 50060 55012 56799 88702=
85586,2002,09,04,15,00,AAXX 04154 85586 41420 80000 10130 20113 40199 51004 71044 885// 333 56799 83715 88633=
85586,2002,09,04,18,00,AAXX 04184 85586 31557 82606 10136 20109 40198 54001 70522 885// 333 56799 83625 88640=
85586,2002,09,04,21,00,AAXX 04214 85586 42560 80000 10130 20098 40205 53007 8423/ 333 56779 84820 88360=
85586,2002,09,05,00,00,AAXX 05004 85586 32560 80000 10120 20100 40215 52009 8153/ 333 10138 56779 81630 88361=
85586,2002,09,05,03,00,AAXX 05034 85586 NIL=
85586,2002,09,05,06,00,AAXX 05064 85586 NIL=
85586,2002,09,05,09,00,AAXX 05094 85586 NIL=
85586,2002,09,05,12,00,AAXX 05124 85586 11560 50000 10094 20078 40217 54/// 60024 7016/ 81531 333 20094 31/// 50050 55000 56176 70020 81630 83360=
85586,2002,09,05,15,00,AAXX 05154 85586 42560 52004 10137 20074 40220 54003 82201 333 56406 82820 84075=
85586,2002,09,05,18,00,AAXX 05184 85586 32560 42314 10153 20093 40212 57012 84200 333 56500 84825=
85586,2002,09,05,21,00,AAXX 05214 85586 42560 32210 10144 20081 40206 57006 82201 333 56505 82825=
85586,2002,09,06,00,00,AAXX 06004 85586 32960 02405 10115 20082 40222 53015 333 10154=
85586,2002,09,06,03,00,AAXX 06034 85586 NIL=
85586,2002,09,06,06,00,AAXX 06064 85586 NIL=
85586,2002,09,06,09,00,AAXX 06094 85586 NIL=
85586,2002,09,06,12,00,AAXX 06124 85586 32960 01302 10030 20020 40253 52/// 333 20016 31/// 50010 55070=
85586,2002,09,06,15,00,AAXX 06154 85586 42960 01702 10140 20061 40242 58007=
85586,2002,09,06,18,00,AAXX 06184 85586 32970 32314 10156 20073 40240 55000 80001 333 56006 83075=
85586,2002,09,06,21,00,AAXX 06214 85586 42970 62212 10154 20073 40230 57012 80001 333 56006 86075=
85586,2002,09,07,00,00,AAXX 07004 85586 32960 00000 10103 20072 40217 57015 333 10181=
85586,2002,09,07,03,00,AAXX 07034 85586 NIL=
85586,2002,09,07,06,00,AAXX 07064 85586 NIL=
85586,2002,09,07,09,00,AAXX 07094 85586 NIL=
85586,2002,09,07,12,00,AAXX 07124 85586 32960 61304 10103 20062 40190 52/// 86030 333 20069 31/// 50190 55107 56070 86360=
85586,2002,09,07,15,00,AAXX 07154 85586 42960 72703 10134 20077 40187 53002 8703/ 333 56079 87359=
85586,2002,09,07,18,00,AAXX 07184 85586 32860 82509 10147 20080 40183 57004 8801/ 333 56079 88458=
85586,2002,09,07,21,00,AAXX 07214 85586 42960 72510 10134 20081 40179 57004 87030 333 56070 87359=
85586,2002,09,08,00,00,AAXX 08004 85586 31956 60000 10113 20087 40191 51011 70522 86030 333 10154 56070 86359=
85586,2002,09,08,03,00,AAXX 08034 85586 NIL=
85586,2002,09,08,06,00,AAXX 08064 85586 NIL=
85586,2002,09,08,09,00,AAXX 08094 85586 NIL=
85586,2002,09,08,12,00,AAXX 08124 85586 31956 71204 10113 20064 40204 52/// 7052/ 8701/ 333 20059 31/// 50070 55012 56079 87459=
85586,2002,09,08,15,00,AAXX 08154 85586 41850 82703 10129 20086 40201 51002 70522 8807/ 333 50679 84358 86459=
85586,2002,09,08,18,00,AAXX 08184 85586 32960 62510 10154 20082 40191 58009 86030 333 56070 86360=
85586,2002,09,08,21,00,AAXX 08214 85586 42965 32512 10178 20081 40175 57015 81031 333 56076 81360 83075=
85586,2002,09,09,00,00,AAXX 09004 85586 32960 20904 10108 20084 40176 54000 80001 333 10182 56006 82075=
85586,2002,09,09,03,00,AAXX 09034 85586 NIL=
85586,2002,09,09,06,00,AAXX 09064 85586 NIL=
85586,2002,09,09,09,00,AAXX 09094 85586 NIL=
85586,2002,09,09,12,00,AAXX 09124 85586 31850 71203 10092 20072 40153 54/// 7051/ 87030 333 20082 31/// 50120 55048 56070 87358=
85586,2002,09,09,15,00,AAXX 09154 85586 41840 63006 10139 20107 40167 52015 70522 86030 333 56070 86358=
85586,2002,09,09,18,00,AAXX 09184 85586 31208 83604 10116 20099 40166 54001 74622 886// 333 56899 88704=
85586,2002,09,09,21,00,AAXX 09214 85586 41205 83105 10118 20102 40163 56003 74644 886// 333 56799 88706=
85586,2002,09,10,00,00,AAXX 10004 85586 31208 83610 10116 20099 40173 52010 74644 886// 333 10142 56799 88705=
85586,2002,09,10,03,00,AAXX 10034 85586 NIL=
85586,2002,09,10,06,00,AAXX 10064 85586 NIL=
85586,2002,09,10,09,00,AAXX 10094 85586 NIL=
85586,2002,09,10,12,00,AAXX 10124 85586 11560 83604 10118 20102 40213 52/// 60064 7026/ 85502 333 20112 31/// 50060 55010 56806 70057 85620 84072=
85586,2002,09,10,15,00,AAXX 10154 85586 42560 73106 10137 20110 40225 52012=
85586,2002,09,10,18,00,AAXX 10184 85586 32560 73112 10150 20097 40225 54000 82202 333 56706 82820 85075=
85586,2002,09,10,21,00,AAXX 10214 85586 42560 53103 10149 20104 40229 51004 83202 333 56706 83820 83075=
85586,2002,09,11,00,00,AAXX 11004 85586 32560 42002 10110 20090 40243 52013 82201 333 10157 56706 82820 83075=
85586,2002,09,11,03,00,AAXX 11034 85586 NIL=
85586,2002,09,11,06,00,AAXX 11064 85586 NIL=
85586,2002,09,11,09,00,AAXX 11094 85586 NIL=
85586,2002,09,11,12,00,AAXX 11124 85586 32960 01602 10080 20069 40226 57/// 333 20040 31/// 50100 55045=
85586,2002,09,11,15,00,AAXX 11154 85586 42960 01809 10146 20099 40232 53008=
85586,2002,09,11,18,00,AAXX 11184 85586 32960 02315 10165 20099 40218 58014=
85586,2002,09,11,21,00,AAXX 11214 85586 42960 02405 10161 20121 40206 57013=
85586,2002,09,12,00,00,AAXX 12004 85586 32960 00000 10109 20096 40206 54000 333 10172=
85586,2002,09,12,03,00,AAXX 12034 85586 NIL=
85586,2002,09,12,06,00,AAXX 12064 85586 NIL=
85586,2002,09,12,09,00,AAXX 12094 85586 NIL=
85586,2002,09,12,12,00,AAXX 12124 85586 32960 61103 10078 20064 40169 57/// 80001 333 20039 31/// 50140 55104 56006 86070=
85586,2002,09,12,15,00,AAXX 12154 85586 42960 72306 10131 20092 40168 54000 83031 333 56066 83365 84070=
85586,2002,09,12,18,00,AAXX 12184 85586 32960 72407 10149 20102 40166 54002 85031 333 56066 85365=
85586,2002,09,12,21,00,AAXX 12214 85586 42960 71807 10157 20123 40167 54002=
85586,2002,09,13,00,00,AAXX 13004 85586 32960 72408 10133 20091 40180 52012 85031 333 10162 56066 85365=
85586,2002,09,13,03,00,AAXX 13034 85586 NIL=
85586,2002,09,13,06,00,AAXX 13064 85586 NIL=
85586,2002,09,13,09,00,AAXX 13094 85586 NIL=
85586,2002,09,13,12,00,AAXX 13124 85586 12960 10000 10068 20058 40183 53/// 60014 80001 333 20052 31/// 50130 55023 56005 70010 81073=
85586,2002,09,13,15,00,AAXX 13154 85586 42960 13302 10161 20106 40173 58007 80001 333 56005 81073=
85586,2002,09,13,18,00,AAXX 13184 85586 32965 82312 10154 20082 40182 51008 80001 333 56006 86075=
85586,2002,09,13,21,00,AAXX 13214 85586 42965 52907 10143 20090 40175 58007=
85586,2002,09,14,00,00,AAXX 14004 85586 32960 50000 10116 20085 40164 57011 85030 333 10169 56070 85362=
85586,2002,09,14,03,00,AAXX 14034 85586 NIL=
85586,2002,09,14,06,00,AAXX 14064 85586 NIL=
85586,2002,09,14,09,00,AAXX 14094 85586 NIL=
85586,2002,09,14,12,00,AAXX 14124 85586 32960 80906 10102 20086 40176 52/// 8803/ 333 20091 31/// 50080 55090 56079 88362=
85586,2002,09,14,15,00,AAXX 14154 85586 42860 83005 10125 20074 40174 54001 8803/ 333 56079 88358=
85586,2002,09,14,18,00,AAXX 14184 85586 11758 83208 10134 20103 40187 52013 69901 78022 8805/ 333 56079 88356=
85586,2002,09,14,21,00,AAXX 14214 85586 41858 72907 10149 20104 40181 50006 72522 8701/ 333 56079 87458=
85586,2002,09,15,00,00,AAXX 15004 85586 12960 51803 10116 20089 40192 52010 69911 85030 333 10154 56070 85360=
85586,2002,09,15,03,00,AAXX 15034 85586 NIL=
85586,2002,09,15,06,00,AAXX 15064 85586 NIL=
85586,2002,09,15,09,00,AAXX 15094 85586 NIL=
85586,2002,09,15,12,00,AAXX 15124 85586 11440 60000 10076 20064 40171 54/// 69914 7100/ 86500 333 20043 31/// 50080 55004 56700 70001 86615=
85586,2002,09,15,15,00,AAXX 15154 85586 41557 83211 10136 20096 40175 52005 70522 885// 333 56799 88625=
85586,2002,09,15,18,00,AAXX 15184 85586 32560 43008 10136 20102 40169 58006 84500 333 56700 84620=
85586,2002,09,15,21,00,AAXX 15214 85586 42560 53110 10144 20089 40159 57010 82501 333 56706 82620=
85586,2002,09,16,00,00,AAXX 16004 85586 32560 43006 10120 20076 40166 53007 82501 333 10152 56706 82626 83075=
85586,2002,09,16,03,00,AAXX 16034 85586 NIL=
85586,2002,09,16,06,00,AAXX 16064 85586 NIL=
85586,2002,09,16,09,00,AAXX 16094 85586 NIL=
85586,2002,09,16,12,00,AAXX 16124 85586 32560 50212 10140 20086 40156 53/// 83230 333 20080 31/// 50120 55039 56870 83826 84360=
85586,2002,09,16,15,00,AAXX 16154 85586 42560 73112 10152 20076 40160 51004=
85586,2002,09,16,18,00,AAXX 16184 85586 11520 83105 10100 20085 40180 52020 60081 76162 888// 333 56799 85823 85623=
85586,2002,09,16,21,00,AAXX 16214 85586 41550 80404 10092 20076 40194 52012 76066 888// 333 56799=
85586,2002,09,17,00,00,AAXX 17004 85586 11520 80606 10083 20067 40207 52013 60161 76166 888// 333 10156 56799 85823 85623=
85586,2002,09,17,03,00,AAXX 17034 85586 NIL=
85586,2002,09,17,06,00,AAXX 17064 85586 NIL=
85586,2002,09,17,09,00,AAXX 17094 85586 NIL=
85586,2002,09,17,12,00,AAXX 17124 85586 12560 71204 10080 20051 40221 57/// 60254 81202 333 20074 32/// 50080 55025 56106 70250 81820 87073=
85586,2002,09,17,15,00,AAXX 17154 85586 42560 81605 10133 20062 40221 57008 81502 333 56406 81630 88072=
85586,2002,09,17,18,00,AAXX 17184 85586 32560 02308 10146 20079 40207 57014 8153/ 333 56069 81630 88365=
85586,2002,09,17,21,00,AAXX 17214 85586 42960 72310 10130 20083 40207 54001 87030 333 56060 87365=
85586,2002,09,18,00,00,AAXX 18004 85586 32960 72103 10108 20093 40214 53007 87030 333 10150 56060 87365=
85586,2002,09,18,03,00,AAXX 18034 85586 NIL=
85586,2002,09,18,06,00,AAXX 18064 85586 NIL=
85586,2002,09,18,09,00,AAXX 18094 85586 NIL=
85586,2002,09,18,12,00,AAXX 18124 85586 32960 50000 10042 20035 40227 52/// 80001 333 20030 31/// 50110 55005 56005 85073=
85586,2002,09,18,15,00,AAXX 18154 85586 42960 22804 10138 20084 40244 52021 80001 333 56005 82073=
85586,2002,09,18,18,00,AAXX 18184 85586 32560 22411 10141 20084 40253 52009 82200 333 56000 82827=
85586,2002,09,18,21,00,AAXX 18214 85586 42560 12308 10137 20087 40258 52005 81200 333 56000 81827=
85586,2002,09,19,00,00,AAXX 19004 85586 32960 02304 10100 20081 40280 52020 333 10142=
85586,2002,09,19,03,00,AAXX 19034 85586 NIL=
85586,2002,09,19,06,00,AAXX 19064 85586 NIL=
85586,2002,09,19,09,00,AAXX 19094 85586 NIL=
85586,2002,09,19,12,00,AAXX 19124 85586 32960 21403 10068 20062 40280 53/// 81031 333 20028 31/// 50190 55096 56055 81365=
85586,2002,09,19,15,00,AAXX 19154 85586 42960 02004 10143 20080 40266 57011=
85586,2002,09,19,18,00,AAXX 19184 85586 32470 12516 10152 20059 40269 51003 81100 333 56700 81820=
85586,2002,09,19,21,00,AAXX 19214 85586 42970 02414 10148 20062 40247 57022=
85586,2002,09,20,00,00,AAXX 20004 85586 32960 01903 10103 20064 40257 53008 333 10163=
85586,2002,09,20,03,00,AAXX 20034 85586 NIL=
85586,2002,09,20,06,00,AAXX 20064 85586 NIL=
85586,2002,09,20,09,00,AAXX 20094 85586 NIL=
85586,2002,09,20,12,00,AAXX 20124 85586 32965 01511 10094 20056 40242 57/// 333 20045 31/// 50140 55104=
85586,2002,09,20,15,00,AAXX 20154 85586 42965 61814 10164 20054 40238 50002 80001 333 56006 86075=
85586,2002,09,20,18,00,AAXX 20184 85586 32970 41714 10213 20075 40213 57023 84030 333 56070 84362=
85586,2002,09,20,21,00,AAXX 20214 85586 42965 72406 10173 20090 40195 57019 87030 333 56070 87362=
85586,2002,09,21,00,00,AAXX 21004 85586 32960 62203 10124 20087 40199 55002 86030 333 10223 56070 86362=
85586,2002,09,21,03,00,AAXX 21034 85586 NIL=
85586,2002,09,21,06,00,AAXX 21064 85586 NIL=
85586,2002,09,21,09,00,AAXX 21094 85586 NIL=
85586,2002,09,21,12,00,AAXX 21124 85586 32965 41608 10113 20071 40195 52/// 80001 333 20051 31/// 50260 55090 56006 84075=
85586,2002,09,21,15,00,AAXX 21154 85586 42970 41206 10176 20082 40183 58010 80001 333 56006 84075=
85586,2002,09,21,18,00,AAXX 21184 85586 32970 02512 10176 20104 40169 57014=
85586,2002,09,21,21,00,AAXX 21214 85586 42970 12406 10190 20113 40160 57009 80001 333 56006 81075=
85586,2002,09,22,00,00,AAXX 22004 85586 32960 20000 10120 20092 40166 53005 80001 333 10196 56006 82075=
85586,2002,09,22,03,00,AAXX 22034 85586 NIL=
85586,2002,09,22,06,00,AAXX 22064 85586 NIL=
85586,2002,09,22,09,00,AAXX 22094 85586 NIL=
85586,2002,09,22,12,00,AAXX 22124 85586 32960 60000 10086 20073 40184 52/// 84031 333 20066 31/// 50170 55110 56066 84363 83075=
85586,2002,09,22,15,00,AAXX 22154 85586 42560 42508 10146 20101 40197 52014 81502 333 56606 81626 84075=
85586,2002,09,22,18,00,AAXX 22184 85586 32560 32514 10160 20097 40194 58003 81501 333 56606 81626 83075=
85586,2002,09,22,21,00,AAXX 22214 85586 42960 22604 10138 20092 40191 56003 80001 333 56006 82075=
85586,2002,09,23,00,00,AAXX 23004 85586 32960 00304 10110 20088 40210 52019 333 10164=
85586,2002,09,23,03,00,AAXX 23034 85586 NIL=
85586,2002,09,23,06,00,AAXX 23064 85586 NIL=
85586,2002,09,23,09,00,AAXX 23094 85586 NIL=
85586,2002,09,23,12,00,AAXX 23124 85586 32960 30000 10096 20081 40208 53/// 80001 333 20058 31/// 50150 55089 56006 83075=
85586,2002,09,23,15,00,AAXX 23154 85586 42960 32604 10182 20113 40198 57/// 80001 333 56006 83075=
85586,2002,09,23,18,00,AAXX 23184 85586 32960 12607 10183 20112 40186 57012 80001 333 56005 81075=
85586,2002,09,23,21,00,AAXX 23214 85586 42960 12306 10179 20130 40167 57019 80001 333 56005 81075=
85586,2002,09,24,00,00,AAXX 24004 85586 32960 00000 10133 20110 40171 53003 333 10202=
85586,2002,09,24,03,00,AAXX 24034 85586 NIL=
85586,2002,09,24,06,00,AAXX 24064 85586 NIL=
85586,2002,09,24,09,00,AAXX 24094 85586 NIL=
85586,2002,09,24,12,00,AAXX 24124 85586 31940 00000 10099 20096 40176 53/// 7100/ 333 20065 31/// 50180 55109=
85586,2002,09,24,15,00,AAXX 24154 85586 42960 02705 10169 20100 40183 52009=
85586,2002,09,24,18,00,AAXX 24184 85586 32260 22507 10153 20122 40181 52003 81600 333 56600 82704=
85586,2002,09,24,21,00,AAXX 24214 85586 42960 02405 10165 20113 40174 57006=
85586,2002,09,25,00,00,AAXX 25004 85586 32960 00000 10127 20114 40183 52008 333 10170=
85586,2002,09,25,03,00,AAXX 25034 85586 NIL=
85586,2002,09,25,06,00,AAXX 25064 85586 NIL=
85586,2002,09,25,09,00,AAXX 25094 85586 NIL=
85586,2002,09,25,12,00,AAXX 25124 85586 31208 80000 10098 20094 40189 54/// 7444/ 886// 333 20075 31/// 50220 55102 56699 88702=
85586,2002,09,25,15,00,AAXX 25154 85586 41240 32707 10149 20142 40188 54000 71042 83600 333 56600 83705=
85586,2002,09,25,18,00,AAXX 25184 85586 32960 02709 10166 20108 40181 58006=
85586,2002,09,25,21,00,AAXX 25214 85586 42960 02610 10157 20093 40184 50003=
85586,2002,09,26,00,00,AAXX 26004 85586 31956 00000 10116 20090 40191 52005 70500 333 10172=
85586,2002,09,26,03,00,AAXX 26034 85586 NIL=
85586,2002,09,26,06,00,AAXX 26064 85586 NIL=
85586,2002,09,26,09,00,AAXX 26094 85586 NIL=
85586,2002,09,26,12,00,AAXX 26124 85586 32960 00000 10109 20091 40156 57/// 333 20052 31/// 50260 55078=
85586,2002,09,26,15,00,AAXX 26154 85586 42960 22510 10168 20101 40156 54001 80001 333 56006 82075=
85586,2002,09,26,18,00,AAXX 26184 85586 32960 52412 10160 20092 40155 54001 80001 333 56006 85075=
85586,2002,09,26,21,00,AAXX 26214 85586 42960 53003 10145 20087 40160 52004 83031 333 56076 83360 82075=
85586,2002,09,27,00,00,AAXX 27004 85586 31956 70403 10118 20093 40170 52010 70522 80001 333 10183 56006 87075=
85586,2002,09,27,03,00,AAXX 27034 85586 NIL=
85586,2002,09,27,06,00,AAXX 27064 85586 NIL=
85586,2002,09,27,09,00,AAXX 27094 85586 NIL=
85586,2002,09,27,12,00,AAXX 27124 85586 31458 82404 10112 20091 40206 52/// 7052/ 885// 333 20108 31/// 50270 55101 56799 88620=
85586,2002,09,27,15,00,AAXX 27154 85586 41559 72504 10135 20084 40217 52012 70522 875// 333 56799 87627=
85586,2002,09,27,18,00,AAXX 27184 85586 32560 72514 10138 20092 40218 54001 87500 333 56600 87623=
85586,2002,09,27,21,00,AAXX 27214 85586 42560 62508 10147 20090 40215 54003 81532 333 56666 81623 83363=
85586,2002,09,28,00,00,AAXX 28004 85586 NIL=
85586,2002,09,28,03,00,AAXX 28034 85586 NIL=
85586,2002,09,28,06,00,AAXX 28064 85586 NIL=
85586,2002,09,28,09,00,AAXX 28094 85586 NIL=
85586,2002,09,28,12,00,AAXX 28124 85586 32960 00000 10104 20088 40200 57/// 333 20048 31/// 50180 55041=
85586,2002,09,28,15,00,AAXX 28154 85586 NIL=
85586,2002,09,28,18,00,AAXX 28184 85586 32960 22412 10168 20107 40180 57011 80001 333 56006 82075=
85586,2002,09,28,21,00,AAXX 28214 85586 42960 02610 10158 20094 40171 57009=
85586,2002,09,29,00,00,AAXX 29004 85586 32960 00000 10118 20096 40182 53010 333 10180=
85586,2002,09,29,03,00,AAXX 29034 85586 NIL=
85586,2002,09,29,06,00,AAXX 29064 85586 NIL=
85586,2002,09,29,09,00,AAXX 29094 85586 NIL=
85586,2002,09,29,12,00,AAXX 29124 85586 31002 83102 10086 20070 40198 53/// 7464/ 886// 333 20048 31/// 50220 55111 56099 88701=
85586,2002,09,29,15,00,AAXX 29154 85586 41220 62604 10134 20114 40210 52013 70544 86600 333 56600 86706=
85586,2002,09,29,18,00,AAXX 29184 85586 31960 42509 10155 20097 40213 52004 70242 80001 333 56005 84075=
85586,2002,09,29,21,00,AAXX 29214 85586 42960 22410 10150 20115 40214 54001 80001 333 56005 82075=
85586,2002,09,30,00,00,AAXX 30004 85586 32960 00000 10103 20084 40223 52008 333 10158=
85586,2002,09,30,03,00,AAXX 30034 85586 NIL=
85586,2002,09,30,06,00,AAXX 30064 85586 NIL=
85586,2002,09,30,09,00,AAXX 30094 85586 NIL=
85586,2002,09,30,12,00,AAXX 30124 85586 32960 11105 10088 20068 40201 57/// 80001 333 20032 31/// 50220 55074 56005 81075=
85586,2002,09,30,15,00,AAXX 30154 85586 42960 02507 10167 20111 40194 57004=
85586,2002,09,30,18,00,AAXX 30184 85586 32960 02408 10175 20103 40176 57018=
85586,2002,09,30,21,00,AAXX 30214 85586 42960 02507 10172 20102 40168 57008=
85586,2002,10,01,00,00,AAXX 01004 85586 32960 50000 10123 20109 40170 54001 80001 333 10176 56005 85075=
85586,2002,10,01,03,00,AAXX 01034 85586 NIL=
85586,2002,10,01,06,00,AAXX 01064 85586 NIL=
85586,2002,10,01,09,00,AAXX 01094 85586 NIL=
85586,2002,10,01,12,00,AAXX 01124 85586 31901 00000 10090 20086 40151 52/// 7444/ 333 20050 31/// 55109=
85586,2002,10,01,15,00,AAXX 01154 85586 41156 53105 1//// 2//// 4//// 52008 71040=
85586,2002,10,01,18,00,AAXX 01184 85586 32970 52910 1//// 2//// 4//// 50003 80001 333 56006 85075=
85586,2002,10,01,21,00,AAXX 01214 85586 42960 73007 10149 20109 40149 57006 80001 333 56006 87075=
85586,2002,10,02,00,00,AAXX 02004 85586 31556 83205 10134 20114 40170 52021 70522 885// 333 10//0 56799 88625=
85586,2002,10,02,03,00,AAXX 02034 85586 NIL=
85586,2002,10,02,06,00,AAXX 02064 85586 NIL=
85586,2002,10,02,09,00,AAXX 02094 85586 NIL=
85586,2002,10,02,12,00,AAXX 02124 85586 10965 03503 10123 20093 40207 54/// 69004 333 20104 31/// 5///0 55088 70000=
85586,2002,10,02,15,00,AAXX 02154 85586 42460 72705 10162 20093 40216 51010 81101 333 56706 81815 87075=
85586,2002,10,02,18,00,AAXX 02184 85586 32465 12709 10167 20089 40198 57017 81100 333 56700 81815=
85586,2002,10,02,21,00,AAXX 02214 85586 42470 22609 10152 20091 40183 57016 82500 333 56700 82620=
85586,2002,10,03,00,00,AAXX 03004 85586 31456 70000 10132 20110 40182 57017 70522 875// 333 10176 56799 87620=
85586,2002,10,03,03,00,AAXX 03034 85586 NIL=
85586,2002,10,03,06,00,AAXX 03064 85586 NIL=
85586,2002,10,03,09,00,AAXX 03094 85586 NIL=
85586,2002,10,03,12,00,AAXX 03124 85586 31220 80303 10104 20094 40148 55/// 71042 886// 333 20101 31/// 50240 55102 56099 88704=
85586,2002,10,03,15,00,AAXX 03154 85586 41230 83207 10124 20102 40152 52005 70522 886// 333 56799 88704=
85586,2002,10,03,18,00,AAXX 03184 85586 32560 63116 10168 20103 40150 54001 82530 333 56760 82623 86363=
85586,2002,10,03,21,00,AAXX 03214 85586 42560 63604 10162 20097 40148 54002 81502 333 56706 81623 86073=
85586,2002,10,04,00,00,AAXX 04004 85586 32960 63307 10130 20109 40158 52007 80002 333 10168 56006 86073=
85586,2002,10,04,03,00,AAXX 04034 85586 NIL=
85586,2002,10,04,06,00,AAXX 04064 85586 NIL=
85586,2002,10,04,09,00,AAXX 04094 85586 NIL=
85586,2002,10,04,12,00,AAXX 04124 85586 32560 70000 10134 20090 40185 53/// 82531 333 20102 31/// 50100 55061 56766 82626 85363=
85586,2002,10,04,15,00,AAXX 04154 85586 42560 32607 10174 20090 40187 54003 81501 333 56606 81623 83073=
85586,2002,10,04,18,00,AAXX 04184 85586 32560 72510 10176 20112 40180 57007 81502 333 56606 81620 87073=
85586,2002,10,04,21,00,AAXX 04214 85586 42560 72606 10170 20124 40167 57013 81502 333 56606 81620 87073=
85586,2002,10,05,00,00,AAXX 05004 85586 32960 40000 10136 20114 40168 54000 80001 333 10182 56006 84073=
85586,2002,10,05,03,00,AAXX 05034 85586 NIL=
85586,2002,10,05,06,00,AAXX 05064 85586 NIL=
85586,2002,10,05,09,00,AAXX 05094 85586 NIL=
85586,2002,10,05,12,00,AAXX 05124 85586 32960 70000 10096 20078 40114 57/// 80002 333 20054 31/// 50210 55088 56006 870730=
85586,2002,10,05,15,00,AAXX 05154 85586 NIL=
85586,2002,10,05,18,00,AAXX 05184 85586 32560 72708 10154 20112 40140 52015 82501 333 56606 82620 8607=
85586,2002,10,05,21,00,AAXX 05214 85586 42960 53206 10151 20109 40139 54001 80001 333 56006=
85586,2002,10,06,00,00,AAXX 06004 85586 32960 53604 10134 20109 40150 52011 80001 333 10162 56006 85073=
85586,2002,10,06,03,00,AAXX 06034 85586 NIL=
85586,2002,10,06,06,00,AAXX 06064 85586 NIL=
85586,2002,10,06,09,00,AAXX 06094 85586 NIL=
85586,2002,10,06,12,00,AAXX 06124 85586 11460 73306 10136 20132 40183 52/// 60054 7028/ 87200 333 20118 32/// 50140 55093 56700 70050 87813=
85586,2002,10,06,15,00,AAXX 06154 85586 42460 53309 10167 20122 40193 52005=
85586,2002,10,06,18,00,AAXX 06184 85586 32560 33113 10162 20139 40183 58010 83200 333 56700 83820=
85586,2002,10,06,21,00,AAXX 06214 85586 42460 63105 10159 20132 40178 57005 82201 333 56606 82818 84073=
85586,2002,10,07,00,00,AAXX 07004 85586 32960 50000 10129 20113 40191 52011 80001 333 10170 56005 85073=
85586,2002,10,07,03,00,AAXX 07034 85586 NIL=
85586,2002,10,07,06,00,AAXX 07064 85586 NIL=
85586,2002,10,07,09,00,AAXX 07094 85586 NIL=
85586,2002,10,07,12,00,AAXX 07124 85586 32960 31205 10090 20075 40187 53/// 80001 333 20063 31/// 50240 55093 56005 83073=
85586,2002,10,07,15,00,AAXX 07154 85586 42960 62506 10159 20082 40187 54002 80001 333 56005 86073=
85586,2002,10,07,18,00,AAXX 07184 85586 32470 12414 10168 20090 40180 58007 81100 333 56700 81815=
85586,2002,10,07,21,00,AAXX 07214 85586 42960 02215 10162 20093 40174 57006=
85586,2002,10,08,00,00,AAXX 08004 85586 31956 11203 10119 20071 40186 52011 70500 80001 333 10172 56006 81075=
85586,2002,10,08,03,00,AAXX 08034 85586 NIL=
85586,2002,10,08,06,00,AAXX 08064 85586 NIL=
85586,2002,10,08,09,00,AAXX 08094 85586 NIL=
85586,2002,10,08,12,00,AAXX 08124 85586 32965 00000 10099 20078 40173 52/// 333 20041 31/// 50260 55113=
85586,2002,10,08,15,00,AAXX 08154 85586 42460 82710 10159 20096 40196 52024 333 56700 82815=
85586,2002,10,08,18,00,AAXX 08184 85586 32465 12707 10155 20074 40206 52010 333 56700 81815=
85586,2002,10,08,21,00,AAXX 08214 85586 42565 12506 10153 20070 40199 58007 81100 333 56700 81825=
85586,2002,10,09,00,00,AAXX 09004 85586 32960 00000 10101 20071 40224 52023 333 10173=
85586,2002,10,09,03,00,AAXX 09034 85586 NIL=
85586,2002,10,09,06,00,AAXX 09064 85586 NIL=
85586,2002,10,09,09,00,AAXX 09094 85586 NIL=
85586,2002,10,09,12,00,AAXX 09124 85586 32970 01307 10118 20086 40218 54/// 333 20069 31/// 50260 55114=
85586,2002,10,09,15,00,AAXX 09154 85586 42970 01806 10183 20106 40212 58004=
85586,2002,10,09,18,00,AAXX 09184 85586 32970 02417 10181 20115 40194 57018=
85586,2002,10,09,21,00,AAXX 09214 85586 42970 02511 10178 20112 40169 57025=
85586,2002,10,10,00,00,AAXX 10004 85586 32965 00000 10134 20100 40174 53004 333 10184=
85586,2002,10,10,03,00,AAXX 10034 85586 NIL=
85586,2002,10,10,06,00,AAXX 10064 85586 NIL=
85586,2002,10,10,09,00,AAXX 10094 85586 NIL=
85586,2002,10,10,12,00,AAXX 10124 85586 32965 00000 10113 20079 40151 54/// 333 20043 31/// 50280 55116=
85586,2002,10,10,15,00,AAXX 10154 85586 42960 02408 10157 20115 40155 52005=
85586,2002,10,10,18,00,AAXX 10184 85586 32960 02407 10164 20106 40160 52005=
85586,2002,10,10,21,00,AAXX 10214 85586 42960 22510 10157 20109 40157 58003 80001 333 56005 82075=
85586,2002,10,11,00,00,AAXX 11004 85586 32960 53602 10126 20108 40161 52003 80001 333 10169 56005 85075=
85586,2002,10,11,03,00,AAXX 11034 85586 NIL=
85586,2002,10,11,06,00,AAXX 11064 85586 NIL=
85586,2002,10,11,09,00,AAXX 11094 85586 NIL=
85586,2002,10,11,12,00,AAXX 11124 85586 32460 81205 10109 20099 40194 52/// 885// 333 20085 30/// 50250 55107 56799 88613=
85586,2002,10,11,15,00,AAXX 11154 85586 42560 81602 10142 20103 40194 54001 8453/ 333 56769 84625 86363=
85586,2002,10,11,18,00,AAXX 11184 85586 32560 82416 10148 20103 40195 54001 8453/ 333 56669 84625 85363=
85586,2002,10,11,21,00,AAXX 11214 85586 NIL=
85586,2002,10,12,00,00,AAXX 12004 85586 32960 50000 10120 20096 40181 53011 83031 333 10162 56066 83363 83075=
85586,2002,10,12,03,00,AAXX 12034 85586 NIL=
85586,2002,10,12,06,00,AAXX 12064 85586 NIL=
85586,2002,10,12,09,00,AAXX 12094 85586 NIL=
85586,2002,10,12,12,00,AAXX 12124 85586 32960 40906 10126 20107 40153 57/// 80001 333 20078 30/// 50190 55010 56006 84075=
85586,2002,10,12,15,00,AAXX 12154 85586 42960 62604 10196 20114 40147 56004 80001 333 56006 86075=
85586,2002,10,12,18,00,AAXX 12184 85586 32960 62610 10184 20119 40134 57014 80001 333 56006 86075=
85586,2002,10,12,21,00,AAXX 12214 85586 42960 62514 10170 20126 40137 53003 80001 333 56006 86075=
85586,2002,10,13,00,00,AAXX 13004 85586 32360 60000 10132 20113 40153 52015 83601 333 10202 56706 83708 86075=
85586,2002,10,13,03,00,AAXX 13034 85586 NIL=
85586,2002,10,13,06,00,AAXX 13064 85586 NIL=
85586,2002,10,13,09,00,AAXX 13094 85586 NIL=
85586,2002,10,13,12,00,AAXX 13124 85586 32460 70000 10130 20113 40145 55/// 83601 333 20092 30/// 50250 55098 56006 83710 85075=
85586,2002,10,13,15,00,AAXX 13154 85586 42460 70000 10154 20115 40154 52009 82631 333 56066 82710 83365=
85586,2002,10,13,18,00,AAXX 13184 85586 11456 82906 10155 20124 40167 52014 69901 70522 885// 333 56799 88620=
85586,2002,10,13,21,00,AAXX 13214 85586 41340 83404 10150 20127 40167 54001 70522 886// 333 56699 88708=
85586,2002,10,14,00,00,AAXX 14004 85586 11940 70000 10147 20124 40138 57029 69901 72522 87030 333 10168 56070 87362=
85586,2002,10,14,03,00,AAXX 14034 85586 NIL=
85586,2002,10,14,06,00,AAXX 14064 85586 NIL=
85586,2002,10,14,09,00,AAXX 14094 85586 NIL=
85586,2002,10,14,12,00,AAXX 14124 85586 11240 82703 10143 20129 40179 52/// 69944 7102/ 886// 333 20134 31/// 50120 55020 56799 70004 88704=
85586,2002,10,14,15,00,AAXX 14154 85586 41456 83006 10154 20132 40181 54002 70522 885// 333 56799 88615=
85586,2002,10,14,18,00,AAXX 14184 85586 31458 82707 10168 20125 40178 50002 70522 8311/ 333 56779 83815 87465=
85586,2002,10,14,21,00,AAXX 14214 85586 42460 83104 10160 20123 40176 57002 8111/ 333 56779 81815 87365=
85586,2002,10,15,00,00,AAXX 15004 85586 31940 70000 10146 20119 40178 50001 70522 87030 333 10174 56070 87365=
85586,2002,10,15,03,00,AAXX 15034 85586 NIL=
85586,2002,10,15,06,00,AAXX 15064 85586 NIL=
85586,2002,10,15,09,00,AAXX 15094 85586 NIL=
85586,2002,10,15,12,00,AAXX 15124 85586 31108 82304 10143 20133 40219 52/// 7462/ 886// 333 20131 31/// 50140 55009 56799 88703=
85586,2002,10,15,15,00,AAXX 15154 85586 42460 42510 10178 20125 40230 52012 84100 333 56700 84815=
85586,2002,10,15,18,00,AAXX 15184 85586 NIL=
85586,2002,10,15,21,00,AAXX 15214 85586 42560 22408 10200 20111 40216 57010 81501 333 56506 81623=
85586,2002,10,16,00,00,AAXX 16004 85586 NIL=
85586,2002,10,16,03,00,AAXX 16034 85586 NIL=
85586,2002,10,16,06,00,AAXX 16064 85586 NIL=
85586,2002,10,16,09,00,AAXX 16094 85586 NIL=
85586,2002,10,16,12,00,AAXX 16124 85586 32960 01808 10146 20056 40193 56/// 333 20094 30/// 50280 55082=
85586,2002,10,16,15,00,AAXX 16154 85586 42960 01810 10218 20034 40186 56004=
85586,2002,10,16,18,00,AAXX 16184 85586 32960 02512 10200 20082 40170 57017=
85586,2002,10,16,21,00,AAXX 16214 85586 42960 02606 10202 20093 40153 57017=
85586,2002,10,17,00,00,AAXX 17004 85586 32960 20000 10150 20106 40162 53007 80001 333 10240 56006 82075=
85586,2002,10,17,03,00,AAXX 17034 85586 NIL=
85586,2002,10,17,06,00,AAXX 17064 85586 NIL=
85586,2002,10,17,09,00,AAXX 17094 85586 NIL=
85586,2002,10,17,12,00,AAXX 17124 85586 32960 12404 10142 20080 40141 53/// 80001 333 20094 30/// 50310 55120 56006 81075=
85586,2002,10,17,15,00,AAXX 17154 85586 42960 13206 10186 20068 40157 52017 80001 333 56006 81075=
85586,2002,10,17,18,00,AAXX 17184 85586 32960 02512 10172 20119 40158 54001=
85586,2002,10,17,21,00,AAXX 17214 85586 42960 32312 10158 20114 40156 54002 80001 333 56005 83075=
85586,2002,10,18,00,00,AAXX 18004 85586 32960 40705 10120 20102 40175 52018 80001 333 10187 56006 84075=
85586,2002,10,18,03,00,AAXX 18034 85586 NIL=
85586,2002,10,18,06,00,AAXX 18064 85586 NIL=
85586,2002,10,18,09,00,AAXX 18094 85586 NIL=
85586,2002,10,18,12,00,AAXX 18124 85586 32960 40000 10105 20086 40187 53/// 80001 333 20050 30/// 50310 55115 56005 84073=
85586,2002,10,18,15,00,AAXX 18154 85586 42960 62409 10169 20109 40187 54002 81031 333 56055 81365=
85586,2002,10,18,18,00,AAXX 18184 85586 32960 42317 10175 20114 40174 57013 81031 333 56055 81365 83073=
85586,2002,10,18,21,00,AAXX 18214 85586 42960 62315 10159 20106 40159 57015 83031 333 56055 83365 83073=
85586,2002,10,19,00,00,AAXX 19004 85586 32960 52306 10120 20086 40161 54000 82031 333 10180 56055 82365 83073=
85586,2002,10,19,03,00,AAXX 19034 85586 NIL=
85586,2002,10,19,06,00,AAXX 19064 85586 NIL=
85586,2002,10,19,09,00,AAXX 19094 85586 NIL=
85586,2002,10,19,12,00,AAXX 19124 85586 32960 70000 10104 20089 40150 53/// 82031 333 20058 30/// 50300 55085 56066 82365 85073=
85586,2002,10,19,15,00,AAXX 19154 85586 42960 72505 10140 20100 40156 52007 87030 333 56060 87365=
85586,2002,10,19,18,00,AAXX 19184 85586 32958 82320 10142 20082 40150 57006 70522 8807/ 333 56079 84460 84365=
85586,2002,10,19,21,00,AAXX 19214 85586 42960 72216 10135 20064 40163 53013 87030 333 56070 87363=
85586,2002,10,20,00,00,AAXX 20004 85586 11856 81404 10111 20073 40183 52020 69901 78022 8801/ 333 10164 56079 88458=
85586,2002,10,20,03,00,AAXX 20034 85586 NIL=
85586,2002,10,20,06,00,AAXX 20064 85586 NIL=
85586,2002,10,20,09,00,AAXX 20094 85586 NIL=
85586,2002,10,20,12,00,AAXX 20124 85586 12470 10905 10118 20067 40243 52/// 69904 81200 333 20042 31/// 50340 55005 56700 70000 81820=
85586,2002,10,20,15,00,AAXX 20154 85586 42470 42609 10138 20069 40249 52007 84100 333 56400 84820=
85586,2002,10,20,18,00,AAXX 20184 85586 32470 12518 10152 20064 40245 50003 81100 333 56600 81820=
85586,2002,10,20,21,00,AAXX 20214 85586 42965 02320 10152 20068 40232 57014=
85586,2002,10,21,00,00,AAXX 21004 85586 32965 02209 10119 20053 40225 57008 333 10158=
85586,2002,10,21,03,00,AAXX 21034 85586 NIL=
85586,2002,10,21,06,00,AAXX 21064 85586 NIL=
85586,2002,10,21,09,00,AAXX 21094 85586 NIL=
85586,2002,10,21,12,00,AAXX 21124 85586 32960 01505 10111 20042 40192 54/// 333 20054 31/// 50320 55119=
85586,2002,10,21,15,00,AAXX 21154 85586 42965 62312 10173 20054 40184 58006 80001 333 56006 86075=
85586,2002,10,21,18,00,AAXX 21184 85586 32965 72416 10150 20051 40165 57020 80002 333 56006 87075=
85586,2002,10,21,21,00,AAXX 21214 85586 42965 72410 10158 20072 40157 57008 80002 333 56006 87075=
85586,2002,10,22,00,00,AAXX 22004 85586 32965 40000 10120 20086 40160 55003 80002 333 10176 56006 84075=
85586,2002,10,22,03,00,AAXX 22034 85586 NIL=
85586,2002,10,22,06,00,AAXX 22064 85586 NIL=
85586,2002,10,22,09,00,AAXX 22094 85586 NIL=
85586,2002,10,22,12,00,AAXX 22124 85586 32960 00000 10116 20086 40139 56/// 333=
85586,2002,10,22,15,00,AAXX 22154 85586 NIL=
85586,2002,10,22,18,00,AAXX 22184 85586 32460 23018 10156 20104 40170 52018 333 56700 82615=
85586,2002,10,22,21,00,AAXX 22214 85586 42460 33116 10156 20104 40159 58011 82501 333 56706 82615 83075=
85586,2002,10,23,00,00,AAXX 23004 85586 32460 52602 10132 20097 40138 57022 81501 333 10162 56506 81615 85075=
85586,2002,10,23,03,00,AAXX 23034 85586 NIL=
85586,2002,10,23,06,00,AAXX 23064 85586 NIL=
85586,2002,10,23,09,00,AAXX 23094 85586 NIL=
85586,2002,10,23,12,00,AAXX 23124 85586 32560 80000 10136 20109 40166 52/// 8353/ 333 20122 30/// 50290 55117 5606/ 83625 88363=
85586,2002,10,23,15,00,AAXX 23154 85586 42560 83108 10134 20114 40184 52018 888// 333 56799 82820 88625=
85586,2002,10,23,18,00,AAXX 23184 85586 32360 83110 10139 20106 40188 52004 886// 333 6799 84709 88619=
85586,2002,10,23,21,00,AAXX 23214 85586 NIL=
85586,2002,10,24,00,00,AAXX 24004 85586 32560 73003 10135 20108 40186 54002 87500 333 10162 56700 88622=
85586,2002,10,24,03,00,AAXX 24034 85586 NIL=
85586,2002,10,24,06,00,AAXX 24064 85586 NIL=
85586,2002,10,24,09,00,AAXX 24094 85586 NIL=
85586,2002,10,24,12,00,AAXX 24124 85586 32560 72601 10128 20113 40168 53/// 87500 333 20095 30/// 50220 55018 56600 87630=
85586,2002,10,24,15,00,AAXX 24154 85586 42560 72202 10154 20097 40172 52004 87500 333 56600 87627=
85586,2002,10,24,18,00,AAXX 24184 85586 32560 42409 10178 20108 40159 58012 81501 333 56606 81630 83073=
85586,2002,10,24,21,00,AAXX 24214 85586 42960 52307 10160 20106 40152 57007 80001 333 56006=
85586,2002,10,25,00,00,AAXX 25004 85586 32960 80000 10131 20098 40153 54000 8807/ 333 10179 56069 88365=
85586,2002,10,25,03,00,AAXX 25034 85586 NIL=
85586,2002,10,25,06,00,AAXX 25064 85586 NIL=
85586,2002,10,25,09,00,AAXX 25094 85586 NIL=
85586,2002,10,25,12,00,AAXX 25124 85586 32660 80000 10128 20110 40178 52/// 8557/ 333 20104 30/// 50230 55063 56669 85640 83363=
85586,2002,10,25,15,00,AAXX 25154 85586 42660 62708 10162 20126 40191 52013 86500 333 56600 86635=
85586,2002,10,25,18,00,AAXX 25184 85586 32665 82206 10159 20081 40183 58007 8251/ 333 56669 82630 86462=
85586,2002,10,25,21,00,AAXX 25214 85586 42965 72506 10153 20087 40185 54001 87030 333 56060 87362=
85586,2002,10,26,00,00,AAXX 26004 85586 32960 60000 10133 20092 40187 50002 80001 333 10167 56006 86075=
85586,2002,10,26,03,00,AAXX 26034 85586 NIL=
85586,2002,10,26,06,00,AAXX 26064 85586 NIL=
85586,2002,10,26,09,00,AAXX 26094 85586 NIL=
85586,2002,10,26,12,00,AAXX 26124 85586 32965 80000 10124 20081 40184 52/// 84034 333 20094 31/// 50250 55025 56066 84365 84075=
85586,2002,10,26,15,00,AAXX 26154 85586 42960 82506 10161 20086 40193 52008 8803/ 333 56069 88365=
85586,2002,10,26,18,00,AAXX 26184 85586 32960 72210 10178 20092 40194 51003 87030 333 56060 87362=
85586,2002,10,26,21,00,AAXX 26214 85586 42965 52409 10167 20112 40194 50000=
85586,2002,10,27,00,00,AAXX 27004 85586 32960 40000 10141 20109 40194 54001 82031 333 10182 56066 82365 82075=
85586,2002,10,27,03,00,AAXX 27034 85586 NIL=
85586,2002,10,27,06,00,AAXX 27064 85586 NIL=
85586,2002,10,27,09,00,AAXX 27094 85586 NIL=
85586,2002,10,27,12,00,AAXX 27124 85586 31450 72003 10134 20114 40181 52/// 7052/ 82501 333 20071 31/// 50330 55043 56706 82615 86073=
85586,2002,10,27,15,00,AAXX 27154 85586 42460 22710 10173 20113 40189 52009 81101 333 56606 81820 81075=
85586,2002,10,27,18,00,AAXX 27184 85586 NIL=
85586,2002,10,27,21,00,AAXX 27214 85586 42565 72418 10164 20089 40185 54000 81502 333 56506 81625 87075=
85586,2002,10,28,00,00,AAXX 28004 85586 32960 82402 10140 20084 40188 54002 83032 333 10200 56066 83365 87075=
85586,2002,10,28,03,00,AAXX 28034 85586 NIL=
85586,2002,10,28,06,00,AAXX 28064 85586 NIL=
85586,2002,10,28,09,00,AAXX 28094 85586 NIL=
85586,2002,10,28,12,00,AAXX 28124 85586 32960 31806 10122 20010 40195 52/// 80002 333 20074 30/// 50270 55086 56006 83075=
85586,2002,10,28,15,00,AAXX 28154 85586 42960 22410 10174 20050 40187 58006 80001 333 56006 82075=
85586,2002,10,28,18,00,AAXX 28184 85586 32960 22417 10170 20068 40178 57009 80001 333 56006 82075=
85586,2002,10,28,21,00,AAXX 28214 85586 42965 12518 10174 20072 40164 57014 80001 333 56006 81075=
85586,2002,10,29,00,00,AAXX 29004 85586 32960 42402 10128 20078 40170 53005 80002 333 10180 56006 84075=
85586,2002,10,29,03,00,AAXX 29034 85586 NIL=
85586,2002,10,29,06,00,AAXX 29064 85586 NIL=
85586,2002,10,29,09,00,AAXX 29094 85586 NIL=
85586,2002,10,29,12,00,AAXX 29124 85586 32960 02602 10118 20088 40180 52/// 333 20044 30/// 50330 55113=
85586,2002,10,29,15,00,AAXX 29154 85586 42960 02710 10161 20096 40182 52003=
85586,2002,10,29,18,00,AAXX 29184 85586 32960 02709 10161 20094 40180 54002=
85586,2002,10,29,21,00,AAXX 29214 85586 42960 02705 10151 20094 40177 57004=
85586,2002,10,30,00,00,AAXX 30004 85586 32960 00000 10116 20097 40182 52005 333 10165=
85586,2002,10,30,03,00,AAXX 30034 85586 NIL=
85586,2002,10,30,06,00,AAXX 30064 85586 NIL=
85586,2002,10,30,09,00,AAXX 30094 85586 NIL=
85586,2002,10,30,12,00,AAXX 30124 85586 31220 70000 10100 20094 40187 7104/ 87600 333 20070 30/// 50340 55122 56600 87704=
85586,2002,10,30,15,00,AAXX 30154 85586 41257 73108 10130 20105 40180 52004 70522 87600 333 56600 87706=
85586,2002,10,30,18,00,AAXX 30184 85586 31357 82508 10139 20114 40179 54001 70522 886// 333 56699 88707=
85586,2002,10,30,21,00,AAXX 30214 85586 41357 83107 10125 20107 40169 57010 70522 886// 333 56699 88707=
85586,2002,10,31,00,00,AAXX 31004 85586 31357 83404 10114 20103 40171 54002 71022 886// 333 10143 56799 88707=
85586,2002,10,31,03,00,AAXX 31034 85586 NIL=
85586,2002,10,31,06,00,AAXX 31064 85586 NIL=
85586,2002,10,31,09,00,AAXX 31094 85586 NIL=
85586,2002,10,31,12,00,AAXX 31124 85586 31357 80000 10114 20108 40170 53/// 7102/ 886// 333 20111 30/// 50240 55025 56799 88707=
85586,2002,10,31,15,00,AAXX 31154 85586 41358 82804 10123 20109 40178 70522 886// 333 56799 88708=
85586,2002,10,31,18,00,AAXX 31184 85586 31358 83008 10132 20091 40177 54001 70522 886// 333 56799 88708=
85586,2002,10,31,21,00,AAXX 31214 85586 41458 82508 10123 20083 40167 57010 70522 885// 333 56799 88613=
85586,2002,11,01,00,00,AAXX 01004 85586 31458 83303 10121 20091 40172 52005 70522 885// 333 10144 56799 88615=
85586,2002,11,01,03,00,AAXX 01034 85586 NIL=
85586,2002,11,01,06,00,AAXX 01064 85586 NIL=
85586,2002,11,01,09,00,AAXX 01094 85586 NIL=
85586,2002,11,01,12,00,AAXX 01124 85586 32460 82203 10119 20076 40188 52/// 885// 333 20068 31/// 50260 55000 56799 88620=
85586,2002,11,01,15,00,AAXX 01154 85586 42565 73604 10133 20063 40198 52009 87500 333 56700 87625=
85586,2002,11,01,18,00,AAXX 01184 85586 32965 52906 10159 20059 40188 58008 85030 333 56070 85365=
85586,2002,11,01,21,00,AAXX 01214 85586 42965 62506 10147 20067 40191 53002 86030 333 56070 86365=
85586,2002,11,02,00,00,AAXX 02004 85586 32965 40000 10134 20075 40193 55001 84030 333 10174 56070 84365=
85586,2002,11,02,03,00,AAXX 02034 85586 NIL=
85586,2002,11,02,06,00,AAXX 02064 85586 NIL=
85586,2002,11,02,09,00,AAXX 02094 85586 NIL=
85586,2002,11,02,12,00,AAXX 02124 85586 32860 81203 10129 20077 40176 53/// 8801/ 333 20077 31/// 50340 55051 56079 88457=
85586,2002,11,02,15,00,AAXX 02154 85586 41220 82905 10137 20107 40193 51016 75122 886// 333 56799 88704=
85586,2002,11,02,18,00,AAXX 02184 85586 12465 42812 10174 20092 40192 54001 69901 82101 333 56706 82820 84075=
85586,2002,11,02,21,00,AAXX 02214 85586 42565 42315 10158 20096 40197 52004 82101 333 56606 82820=
85586,2002,11,03,00,00,AAXX 03004 85586 32960 20000 10111 20104 40217 52019 80001 333 10182 56005 82073=
85586,2002,11,03,03,00,AAXX 03034 85586 NIL=
85586,2002,11,03,06,00,AAXX 03064 85586 NIL=
85586,2002,11,03,09,00,AAXX 03094 85586 NIL=
85586,2002,11,03,12,00,AAXX 03124 85586 32960 01402 10125 20078 40208 54/// 333 20028 30/// 50370 55052=
85586,2002,11,03,15,00,AAXX 03154 85586 42960 02510 10167 20095 40201 57005=
85586,2002,11,03,18,00,AAXX 03184 85586 32960 02413 10175 20105 40191 57010=
85586,2002,11,03,21,00,AAXX 03214 85586 42960 02412 10174 20102 40185 57006=
85586,2002,11,04,00,00,AAXX 04004 85586 32960 00000 10135 20113 40189 53003 333 10179=
85586,2002,11,04,03,00,AAXX 04034 85586 NIL=
85586,2002,11,04,06,00,AAXX 04064 85586 NIL=
85586,2002,11,04,09,00,AAXX 04094 85586 NIL=
85586,2002,11,04,12,00,AAXX 04124 85586 32960 00000 10104 20076 40193 53/// 333 20038 30/// 50310 55124=
85586,2002,11,04,15,00,AAXX 04154 85586 42960 02706 10158 20114 40190 54001=
85586,2002,11,04,18,00,AAXX 04184 85586 32960 02408 10165 20105 40186 57003=
85586,2002,11,04,21,00,AAXX 04214 85586 42960 03007 10160 20110 40181 57005=
85586,2002,11,05,00,00,AAXX 05004 85586 32960 02704 10129 20113 40185 53003 333 10175=
85586,2002,11,05,03,00,AAXX 05034 85586 NIL=
85586,2002,11,05,06,00,AAXX 05064 85586 NIL=
85586,2002,11,05,09,00,AAXX 05094 85586 NIL=
85586,2002,11,05,12,00,AAXX 05124 85586 31357 82904 10116 20094 40175 53/// 7052/ 886// 333 20077 30/// 50320 55124 56799 88708=
85586,2002,11,05,15,00,AAXX 05154 85586 42460 72505 10142 20093 40187 52012 87500 333 56700 87600=
85586,2002,11,05,18,00,AAXX 05184 85586 32960 72914 10159 20094 40174 56012 80001 333 56006 87075=
85586,2002,11,05,21,00,AAXX 05214 85586 42460 82705 10142 20107 40183 53008 885// 333 56799 88617=
85586,2002,11,06,00,00,AAXX 06004 85586 32560 83102 10131 20100 40177 58006 885// 333 10163 56799 88623=
85586,2002,11,06,03,00,AAXX 06034 85586 NIL=
85586,2002,11,06,06,00,AAXX 06064 85586 NIL=
85586,2002,11,06,09,00,AAXX 06094 85586 NIL=
85586,2002,11,06,12,00,AAXX 06124 85586 32560 73306 10140 20074 40198 52/// 87500 333 20127 30/// 50280 55042 56700 87630=
85586,2002,11,06,15,00,AAXX 06154 85586 42560 63408 10162 20085 40209 52011 86500 333 56700 86630=
85586,2002,11,06,18,00,AAXX 06184 85586 32965 03016 10178 20067 40210 50002=
85586,2002,11,06,21,00,AAXX 06214 85586 42965 02710 10168 20081 40209 54001=
85586,2002,11,07,00,00,AAXX 07004 85586 32960 20000 10136 20096 40216 52006 80001 333 10184 56006 82075=
85586,2002,11,07,03,00,AAXX 07034 85586 NIL=
85586,2002,11,07,06,00,AAXX 07064 85586 NIL=
85586,2002,11,07,09,00,AAXX 07094 85586 NIL=
85586,2002,11,07,12,00,AAXX 07124 85586 32960 30903 10128 20092 40230 51/// 80001 333 20073 30/// 50370 55083 56006 83075=
85586,2002,11,07,15,00,AAXX 07154 85586 42565 22912 10181 20106 40235 52007 82100 333 56700 82820=
85586,2002,11,07,18,00,AAXX 07184 85586 32965 12410 10184 20109 40233 50002 80001 333 56006 81075=
85586,2002,11,07,21,00,AAXX 07214 85586 42965 12714 10177 20112 40230 58003 80001 333 56006 81075=
85586,2002,11,08,00,00,AAXX 08004 85586 32960 02404 10141 20101 40235 52004 333 10201=
85586,2002,11,08,03,00,AAXX 08034 85586 NIL=
85586,2002,11,08,06,00,AAXX 08064 85586 NIL=
85586,2002,11,08,09,00,AAXX 08094 85586 NIL=
85586,2002,11,08,12,00,AAXX 08124 85586 32965 30000 10119 20066 40228 52/// 80001 333 20039 30/// 50360 55116 56007 83075=
85586,2002,11,08,15,00,AAXX 08154 85586 42565 12808 10172 20080 40226 50000 81100 333 56700 81820=
85586,2002,11,08,18,00,AAXX 08184 85586 32560 22710 10174 20078 40235 52009 82500 333 56600 82625=
85586,2002,11,08,21,00,AAXX 08214 85586 42560 22816 10172 20056 40235 54000 82500 333 56600 82625=
85586,2002,11,09,00,00,AAXX 09004 85586 32560 22604 10140 20084 40242 51007 82500 333 10180 56600 82625=
85586,2002,11,09,03,00,AAXX 09034 85586 NIL=
85586,2002,11,09,06,00,AAXX 09064 85586 NIL=
85586,2002,11,09,09,00,AAXX 09094 85586 NIL=
85586,2002,11,09,12,00,AAXX 09124 85586 32560 12106 10128 20057 40246 52/// 81100 333 20048 30/// 50330 55116 56500 81820=
85586,2002,11,09,15,00,AAXX 09154 85586 42560 32606 10156 20064 40245 54000 83500 333 56500 83625=
85586,2002,11,09,18,00,AAXX 09184 85586 32560 12516 10172 20066 40235 57010 81500 333 56600 81625=
85586,2002,11,09,21,00,AAXX 09214 85586 42960 02416 10172 20074 40227 56008=
85586,2002,11,10,00,00,AAXX 10004 85586 32960 02406 10140 20084 40231 53004 333 10182=
85586,2002,11,10,03,00,AAXX 10034 85586 NIL=
85586,2002,11,10,06,00,AAXX 10064 85586 NIL=
85586,2002,11,10,09,00,AAXX 10094 85586 NIL=
85586,2002,11,10,12,00,AAXX 10124 85586 32960 01206 10154 20065 40201 57/// 333 20092 30/// 50360 55126=
85586,2002,11,10,15,00,AAXX 10154 85586 42960 01810 10232 20032 40199 54000=
85586,2002,11,10,18,00,AAXX 10184 85586 32960 02418 10192 20093 40191 57009=
85586,2002,11,10,21,00,AAXX 10214 85586 42960 02416 10186 20094 40177 57015=
85586,2002,11,11,00,00,AAXX 11004 85586 32960 00000 10158 20083 40181 53005 333 10244=
85586,2002,11,11,03,00,AAXX 11034 85586 NIL=
85586,2002,11,11,06,00,AAXX 11064 85586 NIL=
85586,2002,11,11,09,00,AAXX 11094 85586 NIL=
85586,2002,11,11,12,00,AAXX 11124 85586 32960 00000 10146 20079 40167 56/// 333 20052 30/// 50340 55129=
85586,2002,11,11,15,00,AAXX 11154 85586 42960 02410 10176 20086 40162 56004=
85586,2002,11,11,18,00,AAXX 11184 85586 32960 02412 10186 20081 40153 57009=
85586,2002,11,11,21,00,AAXX 11214 85586 42960 12512 10162 20083 40148 57005 80001 333 56006 81075=
85586,2002,11,12,00,00,AAXX 12004 85586 32960 33602 10136 20096 40160 53011 80001 333 10188 56006 83075=
85586,2002,11,12,03,00,AAXX 12034 85586 NIL=
85586,2002,11,12,06,00,AAXX 12064 85586 NIL=
85586,2002,11,12,09,00,AAXX 12094 85586 NIL=
85586,2002,11,12,12,00,AAXX 12124 85586 31212 52404 10118 20102 40179 52/// 85600 333 20058 30/// 50310 55128 56500 85706=
85586,2002,11,12,15,00,AAXX 12154 85586 42960 02205 10163 20103 40171 57007=
85586,2002,11,12,18,00,AAXX 12184 85586 32965 02310 10177 20093 40159 57012=
85586,2002,11,12,21,00,AAXX 12214 85586 42960 02514 10181 20085 40153 57005=
85586,2002,11,13,00,00,AAXX 13004 85586 32960 20000 10134 20093 40169 52016 80001 333 10189 56007 82075=
85586,2002,11,13,03,00,AAXX 13034 85586 NIL=
85586,2002,11,13,06,00,AAXX 13064 85586 NIL=
85586,2002,11,13,09,00,AAXX 13094 85586 NIL=
85586,2002,11,13,12,00,AAXX 13124 85586 32960 02606 10141 20101 40180 52/// 333 20059 30/// 50410 55124=
85586,2002,11,13,15,00,AAXX 13154 85586 42960 02514 10178 20097 40181 51002=
85586,2002,11,13,18,00,AAXX 13184 85586 32965 12220 10181 20076 40181 50000 80001 333 56007 81075=
85586,2002,11,13,21,00,AAXX 13214 85586 42965 02218 10177 20071 40181 54000=
85586,2002,11,14,00,00,AAXX 14004 85586 32960 00000 10138 20087 40195 52013 333 10184=
85586,2002,11,14,03,00,AAXX 14034 85586 NIL=
85586,2002,11,14,06,00,AAXX 14064 85586 NIL=
85586,2002,11,14,09,00,AAXX 14094 85586 NIL=
85586,2002,11,14,12,00,AAXX 14124 85586 32960 11405 10144 20096 40181 54/// 80001 333 20057 30/// 50420 55127 56007 81075=
85586,2002,11,14,15,00,AAXX 14154 85586 42965 12518 10179 20092 40178 57002 80001 333 56007 81075=
85586,2002,11,14,18,00,AAXX 14184 85586 32965 22416 10188 20098 40174 56004 80001 333 56006 82075=
85586,2002,11,14,21,00,AAXX 14214 85586 42965 32408 10188 20110 40169 57005 80001 333 56006 83075=
85586,2002,11,15,00,00,AAXX 15004 85586 32960 00204 10144 20112 40175 53005 333 10194=
85586,2002,11,15,03,00,AAXX 15034 85586 NIL=
85586,2002,11,15,06,00,AAXX 15064 85586 NIL=
85586,2002,11,15,09,00,AAXX 15094 85586 NIL=
85586,2002,11,15,12,00,AAXX 15124 85586 32960 01204 10128 20106 40121 57/// 333 20095 30/// 50350 55125=
85586,2002,11,15,15,00,AAXX 15154 85586 41215 52512 10154 20110 40125 53004 70511=
85586,2002,11,15,18,00,AAXX 15184 85586 32460 42812 10168 20116 40134 52010 84500 333 56600 84610=
85586,2002,11,15,21,00,AAXX 15214 85586 42460 82808 10150 20115 40132 58003 885// 333 56699 88615=
85586,2002,11,16,00,00,AAXX 16004 85586 32360 83606 10126 20103 40126 57006 886// 333 10174 56899 88708=
85586,2002,11,16,03,00,AAXX 16034 85586 NIL=
85586,2002,11,16,06,00,AAXX 16064 85586 NIL=
85586,2002,11,16,09,00,AAXX 16094 85586 NIL=
85586,2002,11,16,12,00,AAXX 16124 85586 32460 80000 10126 20100 40150 52/// 885// 333 20123 30/// 50260 55077 56099 88615=
85586,2002,11,16,15,00,AAXX 16154 85586 42460 82906 10144 20109 40167 52017 885// 333 56699 88613=
85586,2002,11,16,18,00,AAXX 16184 85586 32460 82907 10154 20120 40167 54000 885// 333 56699 88613=
85586,2002,11,16,21,00,AAXX 16214 85586 42460 63006 10144 20119 40159 57008 86500 333 56600 86613=
85586,2002,11,17,00,00,AAXX 17004 85586 32460 70000 10130 20115 40167 52008 85501 333 10156 56605 85613=
85586,2002,11,17,03,00,AAXX 17034 85586 NIL=
85586,2002,11,17,06,00,AAXX 17064 85586 NIL=
85586,2002,11,17,09,00,AAXX 17094 85586 NIL=
85586,2002,11,17,12,00,AAXX 17124 85586 32260 60000 10132 20110 40166 53/// 83601 333 20064 30/// 50240 55002 56605 83704 83070=
85586,2002,11,17,15,00,AAXX 17154 85586 42460 62608 10165 20122 40180 52015 81501 333 56605 81617=
85586,2002,11,17,18,00,AAXX 17184 85586 32460 72605 10174 20123 40182 54002 81531 333 56605 81617 83365=
85586,2002,11,17,21,00,AAXX 17214 85586 42960 02409 10163 20125 40176 57006=
85586,2002,11,18,00,00,AAXX 18004 85586 32960 20000 10138 20120 40180 53003 82030 333 10178 56050 82365=
85586,2002,11,18,03,00,AAXX 18034 85586 NIL=
85586,2002,11,18,06,00,AAXX 18064 85586 NIL=
85586,2002,11,18,09,00,AAXX 18094 85586 NIL=
85586,2002,11,18,12,00,AAXX 18124 85586 32360 10902 10146 20120 40174 53/// 81600 333 20054 30/// 50300 55066 56000 81708=
85586,2002,11,18,15,00,AAXX 18154 85586 42960 02509 10186 20110 40171 54002=
85586,2002,11,18,18,00,AAXX 18184 85586 32970 02218 10184 20093 40168 57003=
85586,2002,11,18,21,00,AAXX 18214 85586 42970 02416 10167 20082 40162 57006=
85586,2002,11,19,00,00,AAXX 19004 85586 32960 22308 10134 20093 40170 53007 80001 333 10195 56007 82075=
85586,2002,11,19,03,00,AAXX 19034 85586 NIL=
85586,2002,11,19,06,00,AAXX 19064 85586 NIL=
85586,2002,11,19,09,00,AAXX 19094 85586 NIL=
85586,2002,11,19,12,00,AAXX 19124 85586 32965 21006 10143 20087 40171 52/// 80001 333 20044 30/// 50440 55129 56007 82075=
85586,2002,11,19,15,00,AAXX 19154 85586 42565 22514 10169 20093 40181 52011 81101 333 56707 81820 81075=
85586,2002,11,19,18,00,AAXX 19184 85586 32970 42215 10183 20092 40182 54001 80001 333 56006 84075=
85586,2002,11,19,21,00,AAXX 19214 85586 42965 72408 10169 20108 40184 50002 80001 333 56006 87075=
85586,2002,11,20,00,00,AAXX 20004 85586 32960 62604 10146 20107 40199 52014 82031 333 10189 56066 82363 84075=
85586,2002,11,20,03,00,AAXX 20034 85586 NIL=
85586,2002,11,20,06,00,AAXX 20064 85586 NIL=
85586,2002,11,20,09,00,AAXX 20094 85586 NIL=
85586,2002,11,20,12,00,AAXX 20124 85586 32965 01510 10158 20093 40207 52/// 333 20065 30/// 50430 55107=
85586,2002,11,20,15,00,AAXX 20154 85586 42965 12313 10188 20096 40213 52007 80001 333 56005 81075=
85586,2002,11,20,18,00,AAXX 20184 85586 32965 12616 10200 20090 40200 58013 80001 333 56006 81075=
85586,2002,11,20,21,00,AAXX 20214 85586 42965 12410 10202 20062 40189 57011 80001 333 56006 81075=
85586,2002,11,21,00,00,AAXX 21004 85586 32965 12406 10160 20066 40194 53004 80001 333 10207 56006 81075=
85586,2002,11,21,03,00,AAXX 21034 85586 NIL=
85586,2002,11,21,06,00,AAXX 21064 85586 NIL=
85586,2002,11,21,09,00,AAXX 21094 85586 NIL=
85586,2002,11,21,12,00,AAXX 21124 85586 32965 01710 10166 20067 40157 53/// 333 20102 30/// 50300 55126=
85586,2002,11,21,15,00,AAXX 21154 85586 42965 02516 10184 20078 40152 58005=
85586,2002,11,21,18,00,AAXX 21184 85586 32965 02618 10174 20100 40149 56014=
85586,2002,11,21,21,00,AAXX 21214 85586 42965 02708 10180 20090 40136 57012=
85586,2002,11,22,00,00,AAXX 22004 85586 32965 00204 10150 20106 40140 54003 333 10218=
85586,2002,11,22,03,00,AAXX 22034 85586 NIL=
85586,2002,11,22,06,00,AAXX 22064 85586 NIL=
85586,2002,11,22,09,00,AAXX 22094 85586 NIL=
85586,2002,11,22,12,00,AAXX 22124 85586 32965 23002 10132 20102 40147 52/// 80001 333 50059 30/// 50330 55129 56006 82075=
85586,2002,11,22,15,00,AAXX 22154 85586 42965 23006 10172 20113 40158 52012 80001 333 56006 82075=
85586,2002,11,22,18,00,AAXX 22184 85586 32965 12612 10178 20116 40159 54001 80001 333 56006 81075=
85586,2002,11,22,21,00,AAXX 22214 85586 42965 03106 10164 20098 40147 57012=
85586,2002,11,23,00,00,AAXX 23004 85586 32965 03602 10140 20106 40142 56006 333 10186=
85586,2002,11,23,03,00,AAXX 23034 85586 NIL=
85586,2002,11,23,06,00,AAXX 23064 85586 NIL=
85586,2002,11,23,09,00,AAXX 23094 85586 NIL=
85586,2002,11,23,12,00,AAXX 23124 85586 31103 80000 10114 20106 40150 53/// 7464/ 886// 333 20072 30/// 50280 55122 56099 88702=
85586,2002,11,23,15,00,AAXX 23154 85586 41259 53606 10154 20102 40153 54003 70544 81602 333 56706 81705=
85586,2002,11,23,18,00,AAXX 23184 85586 32460 42807 10168 20107 40148 57004 82501 333 56606 82615 83075=
85586,2002,11,23,21,00,AAXX 23214 85586 42460 32604 10156 20104 40137 57011 83500 333 56600 83615=
85586,2002,11,24,00,00,AAXX 24004 85586 32460 63304 10140 20113 40131 57007 86500 333 10170 56700 86615=
85586,2002,11,24,03,00,AAXX 24034 85586 NIL=
85586,2002,11,24,06,00,AAXX 24064 85586 NIL=
85586,2002,11,24,09,00,AAXX 24094 85586 NIL=
85586,2002,11,24,12,00,AAXX 24124 85586 31354 83602 10140 20119 40154 52/// 70522 885// 333 20134 30/// 50250 55083 56099 88608=
85586,2002,11,24,15,00,AAXX 24154 85586 41458 83112 10164 20115 40156 51003 70522 885// 333 56799 88615=
85586,2002,11,24,18,00,AAXX 24184 85586 31456 83306 10146 20124 40166 52009 70522 885// 333 56799 88610=
85586,2002,11,24,21,00,AAXX 24214 85586 42460 82510 10158 20122 40163 54003 885// 333 56699 88616=
85586,2002,11,25,00,00,AAXX 25004 85586 32460 80000 10147 20117 40160 54003 885// 333 10168 56099 88616=
85586,2002,11,25,03,00,AAXX 25034 85586 NIL=
85586,2002,11,25,06,00,AAXX 25064 85586 NIL=
85586,2002,11,25,09,00,AAXX 25094 85586 NIL=
85586,2002,11,25,12,00,AAXX 25124 85586 31550 82704 10147 20119 40145 55/// 7052/ 885// 333 20131 30/// 50320 55004 56799 88620=
85586,2002,11,25,15,00,AAXX 25154 85586 41330 82409 10146 20122 40145 71022 885// 333 56799 88609=
85586,2002,11,25,18,00,AAXX 25184 85586 31450 82708 10155 20104 40156 52010 70522 885// 333 567=
85586,2002,11,25,21,00,AAXX 25214 85586 41450 82412 10142 20113 40155 54001 70522 885// 333 56799 88615=
85586,2002,11,26,00,00,AAXX 26004 85586 11450 82305 10129 20114 40166 52021 69904 75022 886// 333 10159 56799 88710=
85586,2002,11,26,03,00,AAXX 26034 85586 NIL=
85586,2002,11,26,06,00,AAXX 26064 85586 NIL=
85586,2002,11,26,09,00,AAXX 26094 85586 NIL=
85586,2002,11,26,12,00,AAXX 26124 85586 12565 72304 10153 20098 40185 52/// 69904 82501 333 20116 30/// 50200 55000 56706 70000 82620 85075=
85586,2002,11,26,15,00,AAXX 26154 85586 42565 42512 10179 20095 40187 51003 81101 333 56706 81820 83075=
85586,2002,11,26,18,00,AAXX 26184 85586 32565 22512 10186 20126 40188 54001 81101 333 56606 81823=
85586,2002,11,26,21,00,AAXX 26214 85586 42565 22417 10177 20132 40172 57016 81101 333 56606 81823=
85586,2002,11,27,00,00,AAXX 27004 85586 32960 42503 10142 20096 40680 57005 80001 333 10204 56006 84075=
85586,2002,11,27,03,00,AAXX 27034 85586 NIL=
85586,2002,11,27,06,00,AAXX 27064 85586 NIL=
85586,2002,11,27,09,00,AAXX 27094 85586 NIL=
85586,2002,11,27,12,00,AAXX 27124 85586 32965 22307 10153 20084 40154 53/// 80001 333 20073 30/// 50300 55124 56005 82075=
85586,2002,11,27,15,00,AAXX 27154 85586 42965 02416 10161 20086 40154 54001=
85586,2002,11,27,18,00,AAXX 27184 85586 32965 02514 10175 20096 40145 57009=
85586,2002,11,27,21,00,AAXX 27214 85586 42965 02412 10170 20109 40135 57010=
85586,2002,11,28,00,00,AAXX 28004 85586 32960 00205 10142 20102 40138 54002 333 10180=
85586,2002,11,28,03,00,AAXX 28034 85586 NIL=
85586,2002,11,28,06,00,AAXX 28064 85586 NIL=
85586,2002,11,28,09,00,AAXX 28094 85586 NIL=
85586,2002,11,28,12,00,AAXX 28124 85586 31250 33103 10127 20106 40130 53/// 7051/ 83600 333 20062 30/// 50350 55122 56700 83705=
85586,2002,11,28,15,00,AAXX 28154 85586 41250 83404 10135 20110 40137 52007 70522 886// 333 56700 88705=
85586,2002,11,28,18,00,AAXX 28184 85586 31356 62906 10149 20116 40138 54001 70522 86600 333 56600 86707=
85586,2002,11,28,21,00,AAXX 28214 85586 42360 32706 10155 20121 40133 57006 83600 333 56600 83708=
85586,2002,11,29,00,00,AAXX 29004 85586 32360 52402 10133 20110 40137 53005 85600 333 10168 56700 85708=
85586,2002,11,29,03,00,AAXX 29034 85586 NIL=
85586,2002,11,29,06,00,AAXX 29064 85586 NIL=
85586,2002,11,29,09,00,AAXX 29094 85586 NIL=
85586,2002,11,29,12,00,AAXX 29124 85586 32460 83602 10126 20104 40154 52/// 886// 333 20120 30/// 50260 55076 56799 88710=
85586,2002,11,29,15,00,AAXX 29154 85586 42460 33402 10157 20119 40161 52008 83500 333 56700 83717=
85586,2002,11,29,18,00,AAXX 29184 85586 32460 62612 10165 20111 40162 50001 86500 333 56700 86618=
85586,2002,11,29,21,00,AAXX 29214 85586 41440 83006 10152 20112 40158 58005 70522 885// 333 56799 88615=
85586,2002,11,30,00,00,AAXX 30004 85586 32360 82605 10123 20110 40156 54002 886// 333 10168 56699 88709=
85586,2002,11,30,03,00,AAXX 30034 85586 NIL=
85586,2002,11,30,06,00,AAXX 30064 85586 NIL=
85586,2002,11,30,09,00,AAXX 30094 85586 NIL=
85586,2002,11,30,12,00,AAXX 30124 85586 32460 83006 10137 20107 40153 53/// 885// 333 20118 30/// 50280 55036 56699 88617=
85586,2002,11,30,15,00,AAXX 30154 85586 42460 83212 10147 20100 40173 52010 885// 333 56699 88616=
85586,2002,11,30,18,00,AAXX 30184 85586 32560 83307 10163 20108 40174 50001 885// 333 56799 88620=
85586,2002,11,30,21,00,AAXX 30214 85586 42560 62704 10160 20120 40168 57007 86500 333 56700 86625=
85586,2002,12,01,00,00,AAXX 01004 85586 32460 73003 10139 20116 40171 51003 87500 333 10165 56700 87615=
85586,2002,12,01,03,00,AAXX 01034 85586 NIL=
85586,2002,12,01,06,00,AAXX 01064 85586 NIL=
85586,2002,12,01,09,00,AAXX 01094 85586 NIL=
85586,2002,12,01,12,00,AAXX 01124 85586 31450 82305 10143 20117 40161 52/// 7052/ 8251/ 333 20131 30/// 50310 55000 56779 82615 86450=
85586,2002,12,01,15,00,AAXX 01154 85586 42560 42510 10172 20123 40168 51008 84500 333 56700 84620=
85586,2002,12,01,18,00,AAXX 01184 85586 32560 82910 10157 20113 40172 51004 885// 333 56799 88625=
85586,2002,12,01,21,00,AAXX 01214 85586 42565 13209 10164 20113 40161 58011 81500 333 56700 81625=
85586,2002,12,02,00,00,AAXX 02004 85586 32560 22403 10139 20106 40160 57011 82500 333 10173 56700 82625=
85586,2002,12,02,03,00,AAXX 02034 85586 NIL=
85586,2002,12,02,06,00,AAXX 02064 85586 NIL=
85586,2002,12,02,09,00,AAXX 02094 85586 NIL=
85586,2002,12,02,12,00,AAXX 02124 85586 32460 83302 10138 20111 40156 52/// 885// 333 20102 30/// 50240 55082 56799 88613=
85586,2002,12,02,15,00,AAXX 02154 85586 42460 82807 10156 20106 40159 52004 885// 333 56799 88614=
85586,2002,12,02,18,00,AAXX 02184 85586 32460 82806 10168 20109 40149 58010 885// 333 56699 88615=
85586,2002,12,02,21,00,AAXX 02214 85586 42460 83007 10152 20125 40135 57015 885// 333 56699 88613=
85586,2002,12,03,00,00,AAXX 03004 85586 NIL=
85586,2002,12,03,03,00,AAXX 03034 85586 NIL=
85586,2002,12,03,06,00,AAXX 03064 85586 NIL=
85586,2002,12,03,09,00,AAXX 03094 85586 NIL=
85586,2002,12,03,12,00,AAXX 03124 85586 32460 83605 10140 20104 40134 52/// 885// 333 20090 30/// 50210 55009 56799 88617=
85586,2002,12,03,15,00,AAXX 03154 85586 42560 83011 10149 20119 40157 52023 885// 333 56799 88622=
85586,2002,12,03,18,00,AAXX 03184 85586 32560 82911 10157 20105 40153 58003 885// 333 56799 88625=
85586,2002,12,03,21,00,AAXX 03214 85586 42560 53109 10171 20114 40142 57011 84501 333 56606 84625=
85586,2002,12,04,00,00,AAXX 04004 85586 NIL=
85586,2002,12,04,03,00,AAXX 04034 85586 NIL=
85586,2002,12,04,06,00,AAXX 04064 85586 NIL=
85586,2002,12,04,09,00,AAXX 04094 85586 NIL=
85586,2002,12,04,12,00,AAXX 04124 85586 32460 12002 10156 20122 40143 57/// 81500 333 20092 30/// 50270 55023 56600 81615=
85586,2002,12,04,15,00,AAXX 04154 85586 42560 42709 10187 20105 40139 57004 82530 333 56660 82623=
85586,2002,12,04,18,00,AAXX 04184 85586 32960 22712 10196 20124 40129 57009 82030 333 56060 82365=
85586,2002,12,04,21,00,AAXX 04214 85586 42960 32811 10179 20122 40132 54002 80001 333 56006 83070=
85586,2002,12,05,00,00,AAXX 05004 85586 NIL=
85586,2002,12,05,03,00,AAXX 05034 85586 NIL=
85586,2002,12,05,06,00,AAXX 05064 85586 NIL=
85586,2002,12,05,09,00,AAXX 05094 85586 NIL=
85586,2002,12,05,12,00,AAXX 05124 85586 32965 20903 10167 20099 40169 52/// 80001 333 20087 30/// 50350 55106 56006 82075=
85586,2002,12,05,15,00,AAXX 05154 85586 42965 62708 10194 20106 40161 58008 86010 333 56060 86460=
85586,2002,12,05,18,00,AAXX 05184 85586 32965 42716 10199 20112 40159 55001 80001 333 56006 84075=
85586,2002,12,05,21,00,AAXX 05214 85586 42960 72612 10175 20114 40155 58005 80004 333 56006 87075=
85586,2002,12,06,00,00,AAXX 06004 85586 NIL=
85586,2002,12,06,03,00,AAXX 06034 85586 NIL=
85586,2002,12,06,06,00,AAXX 06064 85586 NIL=
85586,2002,12,06,09,00,AAXX 06094 85586 NIL=
85586,2002,12,06,12,00,AAXX 06124 85586 32960 70000 10138 20121 40163 52/// 87030 333 20110 30/// 50280 55067 56060 87365=
85586,2002,12,06,15,00,AAXX 06154 85586 42960 73105 10182 20119 40176 52014 87030 333 56060 87365=
85586,2002,12,06,18,00,AAXX 06184 85586 32960 72509 10196 20118 40168 57007 83031 333 56066 83365 84070=
85586,2002,12,06,21,00,AAXX 06214 85586 42960 52806 10173 20135 40169 54000 82031 333 56066 82365 83070=
85586,2002,12,07,00,00,AAXX 07004 85586 NIL=
85586,2002,12,07,03,00,AAXX 07034 85586 NIL=
85586,2002,12,07,06,00,AAXX 07064 85586 NIL=
85586,2002,12,07,09,00,AAXX 07094 85586 NIL=
85586,2002,12,07,12,00,AAXX 07124 85586 32460 82205 10140 20123 40171 54/// 885// 333 20135 30/// 50290 55059 56699 88618=
85586,2002,12,07,15,00,AAXX 07154 85586 42460 62710 10161 20122 40166 57004 86500 333 56600 86618=
85586,2002,12,07,18,00,AAXX 07184 85586 32460 02704 10173 20123 40167 54001 86500 333 56600 86618=
85586,2002,12,07,21,00,AAXX 07214 85586 42460 82709 10161 20128 40152 57015 885// 333 56699 88618=
85586,2002,12,08,00,00,AAXX 08004 85586 NIL=
85586,2002,12,08,06,00,AAXX 08064 85586 NIL=
85586,2002,12,08,09,00,AAXX 08094 85586 NIL=
85586,2002,12,08,12,00,AAXX 08124 85586 31356 82807 10142 20123 40168 52/// 7052/ 886// 333 20135 30/// 50310 55016 56799 88709=
85586,2002,12,08,15,00,AAXX 08154 85586 41440 82806 10147 20123 40180 52012 70522 886// 333 56799 88710=
85586,2002,12,08,18,00,AAXX 08184 85586 32560 82706 10172 20122 40180 54001 885// 333 56799 88620=
85586,2002,12,08,21,00,AAXX 08214 85586 42558 82706 10164 20115 40172 57008 70522 885// 333 56799 88620=
85586,2002,12,09,00,00,AAXX 09004 85586 NIL=
85586,2002,12,09,03,00,AAXX 09034 85586 NIL=
85586,2002,12,09,06,00,AAXX 09064 85586 NIL=
85586,2002,12,09,09,00,AAXX 09094 85586 NIL=
85586,2002,12,09,12,00,AAXX 09124 85586 11450 82704 10143 20122 40195 52/// 69904 7055/ 886// 333 20134 -0/// 50280 55000 56799 70000 88710=
85586,2002,12,09,15,00,AAXX 09154 85586 41459 82606 10172 20122 40194 50000 70522 885// 333 56799 88616=
85586,2002,12,09,18,00,AAXX 09184 85586 32560 82510 10175 20120 40196 52002 885// 333 56799 88625=
85586,2002,12,09,21,00,AAXX 09214 85586 42560 72509 10174 20127 40195 54001 81130 333 56770 81820 87359=
85586,2002,12,10,00,00,AAXX 10004 85586 NIL=
85586,2002,12,10,03,00,AAXX 10034 85586 NIL=
85586,2002,12,10,06,00,AAXX 10064 85586 NIL=
85586,2002,12,10,09,00,AAXX 10094 85586 NIL=
85586,2002,12,10,12,00,AAXX 10124 85586 32460 82402 10150 20124 40210 52/// 885// 333 20137 30/// 50310 55000 56699 88615=
85586,2002,12,10,15,00,AAXX 10154 85586 42460 82408 10179 20139 40206 58003 885// 333 56699 88618=
85586,2002,12,10,18,00,AAXX 10184 85586 32460 22510 10181 20131 40203 57003 81601 333 56605 81710=
85586,2002,12,10,21,00,AAXX 10214 85586 42460 72708 10155 20133 40196 57008 87500 333 56600 87613=
85586,2002,12,11,00,00,AAXX 11004 85586 NIL=
85586,2002,12,11,03,00,AAXX 11034 85586 NIL=
85586,2002,12,11,06,00,AAXX 11064 85586 NIL=
85586,2002,12,11,09,00,AAXX 11094 85586 NIL=
85586,2002,12,11,12,00,AAXX 11124 85586 31356 80000 10137 20126 40190 52/// 7102/ 886// 333 20122 30/// 50290 55047 56699 88708=
85586,2002,12,11,15,00,AAXX 11154 85586 41107 52608 10168 20138 40186 58003 74041=
85586,2002,12,11,18,00,AAXX 11184 85586 31960 12412 10185 20128 40172 57014 70240 80001 333 56005 81075=
85586,2002,12,11,21,00,AAXX 11214 85586 42965 32408 10206 20114 40165 57018 80001 333 56006 83075=
85586,2002,12,12,00,00,AAXX 12004 85586 NIL=
85586,2002,12,12,03,00,AAXX 12034 85586 NIL=
85586,2002,12,12,06,00,AAXX 12064 85586 NIL=
85586,2002,12,12,09,00,AAXX 12094 85586 NIL=
85586,2002,12,12,12,00,AAXX 12124 85586 32960 12404 10164 20124 40139 52/// 80001 333 20083 30/// 50370 55103 55006=
85586,2002,12,12,15,00,AAXX 12154 85586 42965 42910 10189 20125 40135 58004 80001 333 56006 84075=
85586,2002,12,12,18,00,AAXX 12184 85586 32960 42518 10193 20122 40134 54001 80001 333 56006 84075=
85586,2002,12,12,21,00,AAXX 12214 85586 42960 72312 10173 20127 40130 56004 80005 333 56006 84270 83075=
85586,2002,12,13,00,00,AAXX 13004 85586 NIL=
85586,2002,12,13,03,00,AAXX 13034 85586 NIL=
85586,2002,12,13,06,00,AAXX 13064 85586 NIL=
85586,2002,12,13,09,00,AAXX 13094 85586 NIL=
85586,2002,12,13,12,00,AAXX 13124 85586 32458 83604 10134 20112 40157 52/// 7052/ 885// 333 20129 30/// 50440 55114 56799 88610=
85586,2002,12,13,15,00,AAXX 13154 85586 42460 83110 10155 20117 40159 51003 885// 333 56799 88615=
85586,2002,12,13,18,00,AAXX 13184 85586 32560 82807 10159 20110=
85586,2002,12,13,21,00,AAXX 13214 85586 41350 82807 10142 20123 40162 53003 70522 886// 333 56799 88707=
85586,2002,12,14,00,00,AAXX 14004 85586 NIL=
85586,2002,12,14,03,00,AAXX 14034 85586 NIL=
85586,2002,12,14,06,00,AAXX 14064 85586 NIL=
85586,2002,12,14,09,00,AAXX 14094 85586 NIL=
85586,2002,12,14,12,00,AAXX 14124 85586 32360 82408 10132 20120 40172 52/// 886// 333 20129 30/// 50210 55006 56699 88709=
85586,2002,12,14,15,00,AAXX 14154 85586 42460 42708 10169 20125 40165 58006 81501 333 56605 81618 83075=
85586,2002,12,14,18,00,AAXX 14184 85586 32460 82407 10161 20127 40171 53006 885// 333 56699 88616=
85586,2002,12,14,21,00,AAXX 14214 85586 41458 82711 10142 20124 40172 54000 70522 886// 333 56699 88710=
85586,2002,12,15,00,00,AAXX 15004 85586 NIL=
85586,2002,12,15,03,00,AAXX 15034 85586 NIL=
85586,2002,12,15,06,00,AAXX 15064 85586 NIL=
85586,2002,12,15,09,00,AAXX 15094 85586 NIL=
85586,2002,12,15,12,00,AAXX 15124 85586 32460 80000 10140 20128 40163 53/// 886// 333 20128 30/// 50240 55027 56699 88710=
85586,2002,12,15,15,00,AAXX 15154 85586 42460 73104 10151 20127 40176 52013=
85586,2002,12,15,18,00,AAXX 15184 85586 31130 72409 10172 20131 40175 54000 70522 82631 333 56+55 82703 83365=
85586,2002,12,15,21,00,AAXX 15214 85586 41257 72512 10161 20141 40169 57006 70522 87500 333 56600 87704=
85586,2002,12,16,00,00,AAXX 16004 85586 NIL=
85586,2002,12,16,03,00,AAXX 16034 85586 NIL=
85586,2002,12,16,06,00,AAXX 16064 85586 NIL=
85586,2002,12,16,09,00,AAXX 16094 85586 NIL=
85586,2002,12,16,12,00,AAXX 16124 85586 32360 53403 10143 20115 40174 52/// 85600 333 20129 30/// 50310 55034 56700 85708=
85586,2002,12,16,15,00,AAXX 16154 85586 42260 22810 10176 20127 40175 54002 81601 333 56706 81706 81075=
85586,2002,12,16,18,00,AAXX 16184 85586 32965 12714 10183 20126 40182 52007 80001 333 56006 81075=
85586,2002,12,16,21,00,AAXX 16214 85586 42965 02710 10183 20112 40176 58006=
85586,2002,12,17,00,00,AAXX 17004 85586 NIL=
85586,2002,12,17,03,00,AAXX 17034 85586 NIL=
85586,2002,12,17,06,00,AAXX 17064 85586 NIL=
85586,2002,12,17,09,00,AAXX 17094 85586 NIL=
85586,2002,12,17,12,00,AAXX 17124 85586 32960 03603 10149 20106 40168 52/// 333 20071 30/// 50450 55116=
85586,2002,12,17,15,00,AAXX 17154 85586 42965 02907 10176 20100 40180 52013=
85586,2002,12,17,18,00,AAXX 17184 85586 32970 02712 10182 20113 40189 52009=
85586,2002,12,17,21,00,AAXX 17214 85586 42965 02710 10181 20116 40182 58007=
85586,2002,12,18,00,00,AAXX 18004 85586 NIL=
85586,2002,12,18,03,00,AAXX 18034 85586 NIL=
85586,2002,12,18,06,00,AAXX 18064 85586 NIL=
85586,2002,12,18,12,00,AAXX 18124 85586 32460 80603 10150 +0119 40189 52/// 885// 333 20082 30/// 50400 55124 56099 88615=
85586,2002,12,18,15,00,AAXX 18154 85586 42560 32704 10200 20103 40186 56003 83500 333 56600 83620=
85586,2002,12,18,18,00,AAXX 18184 85586 32560 13114 10200 20119 40183 54001 81500 333 56700 81620=
85586,2002,12,18,21,00,AAXX 18214 85586 NIL=
85586,2002,12,19,00,00,AAXX 19004 85586 NIL=
85586,2002,12,19,03,00,AAXX 19034 85586 NIL=
85586,2002,12,19,06,00,AAXX 19064 85586 NIL=
85586,2002,12,19,09,00,AAXX 19094 85586 NIL=
85586,2002,12,19,12,00,AAXX 19124 85586 32960 00000 10182 20113 40186 56/// 333 20108 30/// 50300 55099=
85586,2002,12,19,15,00,AAXX 19154 85586 42960 02614 10196 20124 40182 54003=
85586,2002,12,19,18,00,AAXX 19184 85586 32960 02508 10204 20110 40176 57006=
85586,2002,12,19,21,00,AAXX 19214 85586 42960 12416 10194 20123 40169 57008 80001 333 56006 81075=
85586,2002,12,20,00,00,AAXX 20004 85586 NIL=
85586,2002,12,20,03,00,AAXX 20034 85586 NIL=
85586,2002,12,20,06,00,AAXX 20064 85586 NIL=
85586,2002,12,20,09,00,AAXX 20094 85586 NIL=
85586,2002,12,20,12,00,AAXX 20124 85586 NIL=
85586,2002,12,20,15,00,AAXX 20154 85586 42960 02608 10182 20112 40198 54001=
85586,2002,12,20,18,00,AAXX 20184 85586 32970 02318 10192 20115 40194 50004=
85586,2002,12,20,21,00,AAXX 20214 85586 42970 02512 10196 20096 40181 57012=
85586,2002,12,21,00,00,AAXX 21004 85586 NIL=
85586,2002,12,21,03,00,AAXX 21034 85586 NIL=
85586,2002,12,21,06,00,AAXX 21064 85586 NIL=
85586,2002,12,21,09,00,AAXX 21094 85586 NIL=
85586,2002,12,21,12,00,AAXX 21124 85586 32960 72903 10134 20091 40165 52/// 80001 333 20089 30/// 50420 55130 56006 87075=
85586,2002,12,21,15,00,AAXX 21154 85586 42960 63006 10173 20105 40175 52011 80004 333 56006 86074=
85586,2002,12,21,18,00,AAXX 21184 85586 32965 52812 10191 20120 40172 50003 80001 333 56006 85075=
85586,2002,12,21,21,00,AAXX 21214 85586 42970 02710 10183 20133 40164 57008=
85586,2002,12,22,00,00,AAXX 22004 85586 NIL=
85586,2002,12,22,03,00,AAXX 22034 85586 NIL=
85586,2002,12,22,06,00,AAXX 22064 85586 NIL=
85586,2002,12,22,12,00,AAXX 22124 85586 32960 70000 10136 20111 40185 52/// 80001 333 20111 30/// 50440 55096 87072=
85586,2002,12,22,15,00,AAXX 22154 85586 42460 72707 10169 20130 40188 51004 84504 333 56706 84615 87074=
85586,2002,12,22,18,00,AAXX 22184 85586 32560 82512 10186 20116 40181 57007 83502 333 56606 83620 87070=
85586,2002,12,22,21,00,AAXX 22214 85586 NIL=
85586,2002,12,23,00,00,AAXX 23004 85586 NIL=
85586,2002,12,23,03,00,AAXX 23034 85586 NIL=
85586,2002,12,23,06,00,AAXX 23064 85586 NIL=
85586,2002,12,23,09,00,AAXX 23094 85586 NIL=
85586,2002,12,23,12,00,AAXX 23124 85586 32960 02405 10146 20104 40190 53/// 333 20064 30/// 50200 55011=
85586,2002,12,23,15,00,AAXX 23154 85586 42960 02614 10176 20079 40198 52009=
85586,2002,12,23,18,00,AAXX 23184 85586 32560 22416 10184 20084 40204 52006 81101 333 56606 81820=
85586,2002,12,23,21,00,AAXX 23214 85586 42560 62414 10178 20118 40208 51004 81102 333 56606 81820 86075=
85586,2002,12,24,00,00,AAXX 24004 85586 NIL=
85586,2002,12,24,03,00,AAXX 24034 85586 NIL=
85586,2002,12,24,06,00,AAXX 24064 85586 NIL=
85586,2002,12,24,09,00,AAXX 24094 85586 NIL=
85586,2002,12,24,12,00,AAXX 24124 85586 32965 01504 10146 20086 40173 57/// 333 20053 30/// 50350 55105=
85586,2002,12,24,15,00,AAXX 24154 85586 42965 52514 10191 20094 40164 57008 80001 333 56006=
85586,2002,12,24,18,00,AAXX 24184 85586 32965 72512 10200 20086 40147 57016 80001 333 56006 87075=
85586,2002,12,24,21,00,AAXX 24214 85586 42970 22510 10223 20106 40131 57015 80001 333 56006 82075=
85586,2002,12,25,00,00,AAXX 25004 85586 NIL=
85586,2002,12,25,03,00,AAXX 25034 85586 NIL=
85586,2002,12,25,06,00,AAXX 25064 85586 NIL=
85586,2002,12,25,09,00,AAXX 25094 85586 NIL=
85586,2002,12,25,12,00,AAXX 25124 85586 32965 00403 10173 20127 40133 52/// 333 20078 30/// 50460 55113=
85586,2002,12,25,15,00,AAXX 25154 85586 42965 02710 10201 20126 40132 55000=
85586,2002,12,25,18,00,AAXX 25184 85586 32970 02514 10206 20138 40136 51005=
85586,2002,12,25,21,00,AAXX 25214 85586 42970 02712 10203 20133 40129 58008=
85586,2002,12,26,00,00,AAXX 26004 85586 NIL=
85586,2002,12,26,03,00,AAXX 26034 85586 NIL=
85586,2002,12,26,06,00,AAXX 26064 85586 NIL=
85586,2002,12,26,09,00,AAXX 26094 85586 NIL=
85586,2002,12,26,12,00,AAXX 26124 85586 32960 02604 10164 20132 40162 52/// 333 20100 30/// 50380 55124=
85586,2002,12,26,15,00,AAXX 26154 85586 42960 03008 10194 20123 40167 51006=
85586,2002,12,26,18,00,AAXX 26184 85586 32960 12508 10204 20133 40165 54001 80001 333 56006 81075=
85586,2002,12,26,21,00,AAXX 26214 85586 42960 12610 10196 20139 40156 57009 80001 333 56006 81075=
85586,2002,12,27,00,00,AAXX 27004 85586 NIL=
85586,2002,12,27,03,00,AAXX 27034 85586 NIL=
85586,2002,12,27,06,00,AAXX 27064 85586 NIL=
85586,2002,12,27,09,00,AAXX 27094 85586 NIL=
85586,2002,12,27,12,00,AAXX 27124 85586 31103 83004 10136 20125 40149 52/// 7464/ 886// 333 20096 30/// 50400 55121 56099 88702=
85586,2002,12,27,15,00,AAXX 27154 85586 42360 53006 10178 20136 40156 52008 82601 333 56606 82708 85075=
85586,2002,12,27,18,00,AAXX 27184 85586 32460 52807 10190 20153 40160 51004 85600 333 56600 85710=
85586,2002,12,27,21,00,AAXX 27214 85586 42460 33312 10192 20140 40158 54002 83500 333 56600 83615=
85586,2002,12,28,00,00,AAXX 28004 85586 NIL=
85586,2002,12,28,03,00,AAXX 28034 85586 NIL=
85586,2002,12,28,06,00,AAXX 28064 85586 NIL=
85586,2002,12,28,09,00,AAXX 28094 85586 NIL=
85586,2002,12,28,12,00,AAXX 28124 85586 32970 03404 10162 20118 40161 52/// 333 20083 30/// 50410 55101=
85586,2002,12,28,15,00,AAXX 28154 85586 42965 02808 10187 20115 40174 52013=
85586,2002,12,28,18,00,AAXX 28184 85586 32970 02512 10194 20123 40175 54001=
85586,2002,12,28,21,00,AAXX 28214 85586 42970 02410 10192 20132 40154 57021=
85586,2002,12,29,00,00,AAXX 29004 85586 NIL=
85586,2002,12,29,03,00,AAXX 29034 85586 NIL=
85586,2002,12,29,06,00,AAXX 29064 85586 NIL=
85586,2002,12,29,09,00,AAXX 29094 85586 NIL=
85586,2002,12,29,12,00,AAXX 29124 85586 32965 02306 10168 20122 40169 52/// 333 20084 30/// 50410 55125=
85586,2002,12,29,15,00,AAXX 29154 85586 42970 02510 10197 20105 40173 51005=
85586,2002,12,29,18,00,AAXX 29184 85586 32965 02418 10198 20126 40170 50003=
85586,2002,12,29,21,00,AAXX 29214 85586 42965 02312 10202 20125 40153 57017=
85586,2002,12,30,00,00,AAXX 30004 85586 NIL=
85586,2002,12,30,03,00,AAXX 30034 85586 NIL=
85586,2002,12,30,06,00,AAXX 30064 85586 NIL=
85586,2002,12,30,09,00,AAXX 30094 85586 NIL=
85586,2002,12,30,12,00,AAXX 30124 85586 32460 50802 10146 20122 40161 52/// 85500 333 20092 30/// 50430 56000 85613=
85586,2002,12,30,15,00,AAXX 30154 85586 42460 73010 10168 20123 40171 52011 87500 333 56600 87615=
85586,2002,12,30,18,00,AAXX 30184 85586 32460 72910 10180 20124 40173 54002 87500 333 56600 87615=
85586,2002,12,30,21,00,AAXX 30214 85586 42560 82910 10172 20137 40168 57005 885// 333 56699 88620=
85586,2002,12,31,00,00,AAXX 31004 85586 NIL=
85586,2002,12,31,03,00,AAXX 31034 85586 NIL=
85586,2002,12,31,06,00,AAXX 31064 85586 NIL=
85586,2002,12,31,09,00,AAXX 31094 85586 NIL=
85586,2002,12,31,12,00,AAXX 31124 85586 31320 80000 10134 20123 40170 52/// 7102/ 886// 333 20106 30/// 50260 55040 56099 88707=
85586,2002,12,31,15,00,AAXX 31154 85586 42360 22804 10170 20135 40167 58003 82600 333 56000 82708=
85586,2002,12,31,18,00,AAXX 31184 85586 42460 32406 10190 20137 40162 56004 83500 333 56500 83610=
85586,2002,12,31,21,00,AAXX 31214 85586 42960 02610 10196 20134 40143 57018=
